{"type":"FeatureCollection","features":[{"id":"5","type":"Feature","properties":{"OBJECTID":6,"景区名":"上海博物馆","地址":"上海市黄浦区人民大道201号","等级":"4A","城市":"上海市","lng_wgs84":121.47099,"lat_wgs84":31.230177,"__source_file__":"19-其它/14-文保非遗/上海市_A级景区.shp"},"geometry":{"type":"Point","coordinates":[121.47098987638174,31.230176971390165]}},{"id":"9","type":"Feature","properties":{"OBJECTID":10,"景区名":"上海城市规划展示谊","地址":"上海市黄浦区人民大道100号","等级":"4A","城市":"上海市","lng_wgs84":121.471255,"lat_wgs84":31.233415,"__source_file__":"19-其它/14-文保非遗/上海市_A级景区.shp"},"geometry":{"type":"Point","coordinates":[121.47125543718869,31.23341491116929]}},{"id":"51","type":"Feature","properties":{"OBJECTID":52,"景区名":"上海杜莎夫人蜡像谊","地址":"上海市黄浦区南京西路2-68号新世界+楼","等级":"4A","城市":"上海市","lng_wgs84":121.469051,"lat_wgs84":31.237054,"__source_file__":"19-其它/14-文保非遗/上海市_A级景区.shp"},"geometry":{"type":"Point","coordinates":[121.46905081664192,31.23705429212191]}},{"id":"107","type":"Feature","properties":{"OBJECTID":108,"景区名":"上海四行仓库抗战纪念馆","地址":"上海市静安区光复路21号","等级":"3A","城市":"上海市","lng_wgs84":121.466484,"lat_wgs84":31.242068,"__source_file__":"19-其它/14-文保非遗/上海市_A级景区.shp"},"geometry":{"type":"Point","coordinates":[121.46648353908415,31.242067824570483]}},{"id":"88","type":"Feature","properties":{"OBJECTID":89,"景区名":"上海M50创意园","地址":"上海市普陀区莫干山路50号","等级":"3A","城市":"上海市","lng_wgs84":121.445357,"lat_wgs84":31.250167,"__source_file__":"19-其它/14-文保非遗/上海市_A级景区.shp"},"geometry":{"type":"Point","coordinates":[121.44535742820278,31.250167171078147]}},{"id":"89","type":"Feature","properties":{"OBJECTID":90,"景区名":"上海魯迅公园","地址":"上海市虹口区四川北路2288号","等级":"3A","城市":"上海市","lng_wgs84":121.478873,"lat_wgs84":31.270437,"__source_file__":"19-其它/14-文保非遗/上海市_A级景区.shp"},"geometry":{"type":"Point","coordinates":[121.47887269851628,31.270436989775305]}},{"id":"7","type":"Feature","properties":{"OBJECTID":8,"景区名":"上海磯园","地址":"上海市黄浦区後园宠街279号","等级":"4A","城市":"上海市","lng_wgs84":121.480515,"lat_wgs84":31.233475,"__source_file__":"19-其它/14-文保非遗/上海市_A级景区.shp"},"geometry":{"type":"Point","coordinates":[121.48051480841173,31.233474747561615]}},{"id":"58","type":"Feature","properties":{"OBJECTID":59,"景区名":"上海上港挪抡城","地址":"上海市虹口区东大名路500号","等级":"4A","城市":"上海市","lng_wgs84":121.492815,"lat_wgs84":31.249532,"__source_file__":"19-其它/14-文保非遗/上海市_A级景区.shp"},"geometry":{"type":"Point","coordinates":[121.49281504467865,31.249531898978034]}},{"id":"4","type":"Feature","properties":{"OBJECTID":5,"景区名":"中国共产党一大·二大·四大纪念馆","地址":"上海市黄浦区黄陂南路374号（—大)、静安区老成都北路7弄30号（二太、虹口区四川北路1468号（四大)","等级":"5A","城市":"上海市","lng_wgs84":121.479875,"lat_wgs84":31.256117,"__source_file__":"19-其它/14-文保非遗/上海市_A级景区.shp"},"geometry":{"type":"Point","coordinates":[121.47987487602472,31.256117196351568]}}],"name":"上海市_A级景区","crs":{"type":"name","properties":{"name":"urn:ogc:def:crs:OGC:1.3:CRS84"}}}