{"type":"FeatureCollection","features":[{"id":"38","type":"Feature","properties":{"OBJECTID":39,"Unnamed__0":4868.0,"Unnamed__1":4868.0,"code":571.0,"classCode":0.0,"name":"上海科学会堂","age":"1958年","add_":"上海市黄浦区","type":"近现代重要史迹及代表性建筑","batch":"第8批","batch1":"第八批","remark":"上海市黄浦区上海科学会堂","经度84":121.464812,"纬度84":31.220555,"F14":null,"__source_file__":"19-其它/14-文保非遗/上海市_国家级文保单位-1-8批.shp"},"geometry":{"type":"Point","coordinates":[121.46481202585437,31.220555123020574]}},{"id":"1","type":"Feature","properties":{"OBJECTID":2,"Unnamed__0":155.0,"Unnamed__1":155.0,"code":10.0,"classCode":10.0,"name":"中国社会主义青年团中央机关旧址　","age":"1920－1921年","add_":"上海市淮海路渔阳里　　","type":"近现代重要史迹及代表性建筑","batch":"第1批","batch1":"第一批","remark":null,"经度84":121.46367,"纬度84":31.222022,"F14":null,"__source_file__":"19-其它/14-文保非遗/上海市_国家级文保单位-1-8批.shp"},"geometry":{"type":"Point","coordinates":[121.46367028705413,31.2220224703608]}},{"id":"17","type":"Feature","properties":{"OBJECTID":18,"Unnamed__0":2255.0,"Unnamed__1":2255.0,"code":926.0,"classCode":0.0,"name":"马勒住宅","age":"民国","add_":"上海市静安区","type":"近现代重要史迹及代表性建筑","batch":"第6批","batch1":"第六批","remark":null,"经度84":121.451627,"纬度84":31.224773,"F14":null,"__source_file__":"19-其它/14-文保非遗/上海市_国家级文保单位-1-8批.shp"},"geometry":{"type":"Point","coordinates":[121.45162664715212,31.224773311239346]}},{"id":"30","type":"Feature","properties":{"OBJECTID":31,"Unnamed__0":4860.0,"Unnamed__1":4860.0,"code":563.0,"classCode":0.0,"name":"圣三一基督教堂","age":"1869年","add_":"上海市黄浦区","type":"近现代重要史迹及代表性建筑","batch":"第8批","batch1":"第八批","remark":"上海市黄浦区圣三一基督教堂","经度84":121.464703,"纬度84":31.231791,"F14":null,"__source_file__":"19-其它/14-文保非遗/上海市_国家级文保单位-1-8批.shp"},"geometry":{"type":"Point","coordinates":[121.46470271955491,31.231790582669305]}},{"id":"36","type":"Feature","properties":{"OBJECTID":37,"Unnamed__0":4866.0,"Unnamed__1":4866.0,"code":569.0,"classCode":0.0,"name":"中国共产党代表团驻沪办事处旧址","age":"1946～1947年","add_":"上海市黄浦区","type":"近现代重要史迹及代表性建筑","batch":"第8批","batch1":"第八批","remark":"上海市黄浦区中国共产党代表团驻沪办事处旧址","经度84":121.464703,"纬度84":31.231791,"F14":null,"__source_file__":"19-其它/14-文保非遗/上海市_国家级文保单位-1-8批.shp"},"geometry":{"type":"Point","coordinates":[121.46470271955491,31.231790582669305]}},{"id":"35","type":"Feature","properties":{"OBJECTID":36,"Unnamed__0":4865.0,"Unnamed__1":4865.0,"code":568.0,"classCode":0.0,"name":"四行仓库抗战旧址","age":"1937年","add_":"上海市静安区","type":"近现代重要史迹及代表性建筑","batch":"第8批","batch1":"第八批","remark":"上海市静安区四行仓库抗战旧址","经度84":121.465448,"纬度84":31.241644,"F14":null,"__source_file__":"19-其它/14-文保非遗/上海市_国家级文保单位-1-8批.shp"},"geometry":{"type":"Point","coordinates":[121.46544821256498,31.241644025351547]}},{"id":"22","type":"Feature","properties":{"OBJECTID":23,"Unnamed__0":2491.0,"Unnamed__1":2491.0,"code":137.0,"classCode":0.0,"name":"志丹苑元代水闸遗址","age":"元","add_":"上海市普陀区","type":"古遗址","batch":"第7批","batch1":"第七批","remark":"上海市普陀区志丹苑元代水闸遗址","经度84":121.425454,"纬度84":31.260644,"F14":null,"__source_file__":"19-其它/14-文保非遗/上海市_国家级文保单位-1-8批.shp"},"geometry":{"type":"Point","coordinates":[121.42545391146894,31.26064357683964]}},{"id":"2","type":"Feature","properties":{"OBJECTID":3,"Unnamed__0":156.0,"Unnamed__1":156.0,"code":11.0,"classCode":11.0,"name":"中国共产党第一次全国代表大会会址","age":"1921年","add_":"上海市兴业路","type":"近现代重要史迹及代表性建筑","batch":"第1批","batch1":"第一批","remark":null,"经度84":121.470522,"纬度84":31.222061,"F14":null,"__source_file__":"19-其它/14-文保非遗/上海市_国家级文保单位-1-8批.shp"},"geometry":{"type":"Point","coordinates":[121.47052206344256,31.22206137143519]}},{"id":"28","type":"Feature","properties":{"OBJECTID":29,"Unnamed__0":4052.0,"Unnamed__1":4052.0,"code":1698.0,"classCode":0.0,"name":"中国共产党第二次全国代表大会会址","age":"1922年","add_":"上海市静安区","type":"近现代重要史迹及代表性建筑","batch":"第7批","batch1":"第七批","remark":"上海市静安区中国共产党第二次全国代表大会会址","经度84":121.470711,"纬度84":31.222106,"F14":null,"__source_file__":"19-其它/14-文保非遗/上海市_国家级文保单位-1-8批.shp"},"geometry":{"type":"Point","coordinates":[121.47071082934133,31.222106231417513]}},{"id":"5","type":"Feature","properties":{"OBJECTID":6,"Unnamed__0":233.0,"Unnamed__1":233.0,"code":39.0,"classCode":24.0,"name":"豫园","age":"明至清","add_":"上海市","type":"古建筑","batch":"第2批","batch1":"第二批","remark":null,"经度84":121.487891,"纬度84":31.229198,"F14":null,"__source_file__":"19-其它/14-文保非遗/上海市_国家级文保单位-1-8批.shp"},"geometry":{"type":"Point","coordinates":[121.48789132752279,31.229198053947073]}},{"id":"18","type":"Feature","properties":{"OBJECTID":19,"Unnamed__0":2257.0,"Unnamed__1":2257.0,"code":927.0,"classCode":0.0,"name":"国际饭店","age":"民国","add_":"上海市黄浦区","type":"近现代重要史迹及代表性建筑","batch":"第6批","batch1":"第六批","remark":null,"经度84":121.46704,"纬度84":31.235615,"F14":null,"__source_file__":"19-其它/14-文保非遗/上海市_国家级文保单位-1-8批.shp"},"geometry":{"type":"Point","coordinates":[121.46703964026722,31.235615371452297]}},{"id":"12","type":"Feature","properties":{"OBJECTID":13,"Unnamed__0":717.0,"Unnamed__1":717.0,"code":220.0,"classCode":22.0,"name":"上海外滩建筑群","age":"1906-1937年","add_":"上海市黄浦区、虹口区","type":"近现代重要史迹及代表性建筑","batch":"第4批","batch1":"第四批","remark":null,"经度84":121.485946,"纬度84":31.243521,"F14":null,"__source_file__":"19-其它/14-文保非遗/上海市_国家级文保单位-1-8批.shp"},"geometry":{"type":"Point","coordinates":[121.48594590867685,31.2435207593756]}},{"id":"3","type":"Feature","properties":{"OBJECTID":4,"Unnamed__0":157.0,"Unnamed__1":157.0,"code":31.0,"classCode":31.0,"name":"鲁迅墓","age":null,"add_":"上海市虹口公园","type":"近现代重要史迹及代表性建筑","batch":"第1批","batch1":"第一批","remark":"1956年迁葬于此","经度84":121.477067,"纬度84":31.270627,"F14":null,"__source_file__":"19-其它/14-文保非遗/上海市_国家级文保单位-1-8批.shp"},"geometry":{"type":"Point","coordinates":[121.4770670370142,31.27062697695345]}}],"name":"上海市_国家级文保单位-1-8批","crs":{"type":"name","properties":{"name":"urn:ogc:def:crs:OGC:1.3:CRS84"}}}