{"type":"FeatureCollection","features":[{"id":"46","type":"Feature","properties":{"OBJECTID_1":47,"OBJECTID":2525,"Proj_num":"Ⅷ-193","Name_CN":"中式服装制作技艺（龙凤旗袍手工制作技艺）","Name_EN":"Chinese garment making skills (Dragon and Phoenix cheongsam manual making skills)","CategoryCN":"传统技艺","CategoryEN":"Traditional skills","Time":2011.0,"Type_CN":"新增项目","Type_EN":"New project","Place_CN":"上海市静安区","Place_EN":"Jing'an District, Shanghai","Unit_CN":"上海龙凤中式服装有限公司","Unit_EN":"Shanghai Longfeng Chinese Clothing Co., Ltd","X":121.45139,"Y":31.225329,"ProvinceCN":"上海","ProvinceEN":"Shanghai","Region4CN":"东部","Region4EN":"Eastern China","Region7CN":"华东","Region7EN":"East China","__source_file__":"19-其它/14-文保非遗/上海市_国家级非遗.shp"},"geometry":{"type":"Point","coordinates":[121.45139000044821,31.22532899963369]}},{"id":"47","type":"Feature","properties":{"OBJECTID_1":48,"OBJECTID":2526,"Proj_num":"Ⅷ-193","Name_CN":"中式服装制作技艺（亨生奉帮裁缝技艺）","Name_EN":"Chinese garment making skills (Hengsheng's tailoring skills)","CategoryCN":"传统技艺","CategoryEN":"Traditional skills","Time":2011.0,"Type_CN":"新增项目","Type_EN":"New project","Place_CN":"上海市静安区","Place_EN":"Jing'an District, Shanghai","Unit_CN":"上海亨生西服有限公司","Unit_EN":"Shanghai Hengsheng suit Co., Ltd","X":121.45139,"Y":31.225329,"ProvinceCN":"上海","ProvinceEN":"Shanghai","Region4CN":"东部","Region4EN":"Eastern China","Region7CN":"华东","Region7EN":"East China","__source_file__":"19-其它/14-文保非遗/上海市_国家级非遗.shp"},"geometry":{"type":"Point","coordinates":[121.45139000044821,31.22532899963369]}},{"id":"42","type":"Feature","properties":{"OBJECTID_1":43,"OBJECTID":2380,"Proj_num":"Ⅷ-134","Name_CN":"印泥制作技艺（上海鲁庵印泥）","Name_EN":"Inkpad making skills (Shanghai Lu'an inkpad)","CategoryCN":"传统技艺","CategoryEN":"Traditional skills","Time":2008.0,"Type_CN":"新增项目","Type_EN":"New project","Place_CN":"上海市静安区","Place_EN":"Jing'an District, Shanghai","Unit_CN":"上海市静安区文物史料馆（中国劳动组合书记部旧址陈列馆）","Unit_EN":"Shanghai Jing'an District Cultural Relics and historical materials Museum (the former site exhibition hall of the Secretary Department of China Labor Union)","X":121.45139,"Y":31.225329,"ProvinceCN":"上海","ProvinceEN":"Shanghai","Region4CN":"东部","Region4EN":"Eastern China","Region7CN":"华东","Region7EN":"East China","__source_file__":"19-其它/14-文保非遗/上海市_国家级非遗.shp"},"geometry":{"type":"Point","coordinates":[121.45139000044821,31.22532899963369]}},{"id":"18","type":"Feature","properties":{"OBJECTID_1":19,"OBJECTID":1297,"Proj_num":"Ⅳ-102","Name_CN":"淮剧","Name_EN":"Huai opera","CategoryCN":"传统戏剧","CategoryEN":"Traditional drama","Time":2008.0,"Type_CN":"新增项目","Type_EN":"New project","Place_CN":"上海淮剧团","Place_EN":"Shanghai Huai Opera Troupe","Unit_CN":"上海淮剧艺术传习所（上海淮剧团）","Unit_EN":"Shanghai Huai Opera Art Institute (Shanghai Huai Opera Troupe)","X":121.464323,"Y":31.228807,"ProvinceCN":"上海","ProvinceEN":"Shanghai","Region4CN":"东部","Region4EN":"Eastern China","Region7CN":"华东","Region7EN":"East China","__source_file__":"19-其它/14-文保非遗/上海市_国家级非遗.shp"},"geometry":{"type":"Point","coordinates":[121.46432299970672,31.228806999943117]}},{"id":"2","type":"Feature","properties":{"OBJECTID_1":3,"OBJECTID":352,"Proj_num":"Ⅱ-40","Name_CN":"江南丝竹","Name_EN":"Southern Sizhu","CategoryCN":"传统音乐","CategoryEN":"Traditional music","Time":2006.0,"Type_CN":"新增项目","Type_EN":"New project","Place_CN":"上海市","Place_EN":"Shanghai","Unit_CN":"上海市群众艺术馆","Unit_EN":"Shanghai Mass Art Museum","X":121.469135,"Y":31.23232,"ProvinceCN":"上海","ProvinceEN":"Shanghai","Region4CN":"东部","Region4EN":"Eastern China","Region7CN":"华东","Region7EN":"East China","__source_file__":"19-其它/14-文保非遗/上海市_国家级非遗.shp"},"geometry":{"type":"Point","coordinates":[121.46913500037999,31.232320000068]}},{"id":"68","type":"Feature","properties":{"OBJECTID_1":69,"OBJECTID":3425,"Proj_num":"Ⅸ-2","Name_CN":"中医诊疗法（丁氏推拿疗法）","Name_EN":"TCM diagnosis and therapy (Ding's massage therapy)","CategoryCN":"传统医药","CategoryEN":"Traditional medicine","Time":2021.0,"Type_CN":"扩展项目","Type_EN":"Extension project","Place_CN":"上海市","Place_EN":"Shanghai","Unit_CN":"上海中医药大学附属岳阳中西医结合医院","Unit_EN":"Yueyang integrated traditional Chinese and Western Medicine Hospital Affiliated to Shanghai University of traditional Chinese Medicine","X":121.469135,"Y":31.23232,"ProvinceCN":"上海","ProvinceEN":"Shanghai","Region4CN":"东部","Region4EN":"Eastern China","Region7CN":"华东","Region7EN":"East China","__source_file__":"19-其它/14-文保非遗/上海市_国家级非遗.shp"},"geometry":{"type":"Point","coordinates":[121.46913500037999,31.232320000068]}},{"id":"13","type":"Feature","properties":{"OBJECTID_1":14,"OBJECTID":957,"Proj_num":"Ⅳ-1","Name_CN":"昆曲","Name_EN":"Kunqu opera","CategoryCN":"传统戏剧","CategoryEN":"Traditional drama","Time":2006.0,"Type_CN":"新增项目","Type_EN":"New project","Place_CN":"上海市","Place_EN":"Shanghai","Unit_CN":"上海昆剧团","Unit_EN":"Shanghai Kunqu Opera Troupe","X":121.469135,"Y":31.23232,"ProvinceCN":"上海","ProvinceEN":"Shanghai","Region4CN":"东部","Region4EN":"Eastern China","Region7CN":"华东","Region7EN":"East China","__source_file__":"19-其它/14-文保非遗/上海市_国家级非遗.shp"},"geometry":{"type":"Point","coordinates":[121.46913500037999,31.232320000068]}},{"id":"14","type":"Feature","properties":{"OBJECTID_1":15,"OBJECTID":1025,"Proj_num":"Ⅳ-28","Name_CN":"京剧","Name_EN":"Beijing Opera","CategoryCN":"传统戏剧","CategoryEN":"Traditional drama","Time":2006.0,"Type_CN":"新增项目","Type_EN":"New project","Place_CN":"上海市","Place_EN":"Shanghai","Unit_CN":"上海京剧院","Unit_EN":"Shanghai Peking Opera Theatre","X":121.469135,"Y":31.23232,"ProvinceCN":"上海","ProvinceEN":"Shanghai","Region4CN":"东部","Region4EN":"Eastern China","Region7CN":"华东","Region7EN":"East China","__source_file__":"19-其它/14-文保非遗/上海市_国家级非遗.shp"},"geometry":{"type":"Point","coordinates":[121.46913500037999,31.232320000068]}},{"id":"15","type":"Feature","properties":{"OBJECTID_1":16,"OBJECTID":1086,"Proj_num":"Ⅳ-53","Name_CN":"越剧","Name_EN":"Shaoxing opera","CategoryCN":"传统戏剧","CategoryEN":"Traditional drama","Time":2006.0,"Type_CN":"新增项目","Type_EN":"New project","Place_CN":"上海市","Place_EN":"Shanghai","Unit_CN":"上海越剧艺术传习所（上海越剧院）","Unit_EN":"Shanghai Yueju Opera Art Institute (Shanghai Yueju opera academy)","X":121.469135,"Y":31.23232,"ProvinceCN":"上海","ProvinceEN":"Shanghai","Region4CN":"东部","Region4EN":"Eastern China","Region7CN":"华东","Region7EN":"East China","__source_file__":"19-其它/14-文保非遗/上海市_国家级非遗.shp"},"geometry":{"type":"Point","coordinates":[121.46913500037999,31.232320000068]}},{"id":"16","type":"Feature","properties":{"OBJECTID_1":17,"OBJECTID":1089,"Proj_num":"Ⅳ-54","Name_CN":"沪剧","Name_EN":"Shanghai opera","CategoryCN":"传统戏剧","CategoryEN":"Traditional drama","Time":2006.0,"Type_CN":"新增项目","Type_EN":"New project","Place_CN":"上海市","Place_EN":"Shanghai","Unit_CN":"上海沪剧艺术传习所（上海沪剧院）","Unit_EN":"Shanghai Opera Art Institute (Shanghai Theatre)","X":121.469135,"Y":31.23232,"ProvinceCN":"上海","ProvinceEN":"Shanghai","Region4CN":"东部","Region4EN":"Eastern China","Region7CN":"华东","Region7EN":"East China","__source_file__":"19-其它/14-文保非遗/上海市_国家级非遗.shp"},"geometry":{"type":"Point","coordinates":[121.46913500037999,31.232320000068]}},{"id":"8","type":"Feature","properties":{"OBJECTID_1":9,"OBJECTID":581,"Proj_num":"Ⅱ-139","Name_CN":"道教音乐（上海道教音乐）","Name_EN":"Taoist music (Shanghai Taoist Music)","CategoryCN":"传统音乐","CategoryEN":"Traditional music","Time":2008.0,"Type_CN":"新增项目","Type_EN":"New project","Place_CN":"上海市道教协会","Place_EN":"Shanghai Taoist Association","Unit_CN":"上海市道教协会","Unit_EN":"Shanghai Taoist Association","X":121.478847,"Y":31.22656,"ProvinceCN":"上海","ProvinceEN":"Shanghai","Region4CN":"东部","Region4EN":"Eastern China","Region7CN":"华东","Region7EN":"East China","__source_file__":"19-其它/14-文保非遗/上海市_国家级非遗.shp"},"geometry":{"type":"Point","coordinates":[121.47884700038878,31.226559999744268]}},{"id":"53","type":"Feature","properties":{"OBJECTID_1":54,"OBJECTID":2588,"Proj_num":"Ⅸ-2","Name_CN":"中医诊法（朱氏推拿疗法）","Name_EN":"TCM diagnosis (Zhu's massage therapy)","CategoryCN":"传统医药","CategoryEN":"Traditional medicine","Time":2011.0,"Type_CN":"扩展项目","Type_EN":"Extension project","Place_CN":"上海市","Place_EN":"Shanghai","Unit_CN":"华东医院","Unit_EN":"Huadong Hospital","X":121.469135,"Y":31.23232,"ProvinceCN":"上海","ProvinceEN":"Shanghai","Region4CN":"东部","Region4EN":"Eastern China","Region7CN":"华东","Region7EN":"East China","__source_file__":"19-其它/14-文保非遗/上海市_国家级非遗.shp"},"geometry":{"type":"Point","coordinates":[121.46913500037999,31.232320000068]}},{"id":"54","type":"Feature","properties":{"OBJECTID_1":55,"OBJECTID":2593,"Proj_num":"Ⅸ-2","Name_CN":"中医诊疗法（顾氏外科疗法）","Name_EN":"TCM diagnosis and treatment (Gu's surgical treatment)","CategoryCN":"传统医药","CategoryEN":"Traditional medicine","Time":2014.0,"Type_CN":"扩展项目","Type_EN":"Extension project","Place_CN":"上海市","Place_EN":"Shanghai","Unit_CN":"上海中医药大学附属龙华医院","Unit_EN":"Longhua Hospital Affiliated to Shanghai University of traditional Chinese Medicine","X":121.469135,"Y":31.23232,"ProvinceCN":"上海","ProvinceEN":"Shanghai","Region4CN":"东部","Region4EN":"Eastern China","Region7CN":"华东","Region7EN":"East China","__source_file__":"19-其它/14-文保非遗/上海市_国家级非遗.shp"},"geometry":{"type":"Point","coordinates":[121.46913500037999,31.232320000068]}},{"id":"55","type":"Feature","properties":{"OBJECTID_1":56,"OBJECTID":2594,"Proj_num":"Ⅸ-2","Name_CN":"中医诊疗法（古本易筋经十二势导引法）","Name_EN":"TCM diagnosis and treatment (twelve potential guidance method of ancient Yijin meridian)","CategoryCN":"传统医药","CategoryEN":"Traditional medicine","Time":2014.0,"Type_CN":"扩展项目","Type_EN":"Extension project","Place_CN":"上海市","Place_EN":"Shanghai","Unit_CN":"上海传承导引医学研究所","Unit_EN":"Shanghai Institute of Medicine","X":121.469135,"Y":31.23232,"ProvinceCN":"上海","ProvinceEN":"Shanghai","Region4CN":"东部","Region4EN":"Eastern China","Region7CN":"华东","Region7EN":"East China","__source_file__":"19-其它/14-文保非遗/上海市_国家级非遗.shp"},"geometry":{"type":"Point","coordinates":[121.46913500037999,31.232320000068]}},{"id":"57","type":"Feature","properties":{"OBJECTID_1":58,"OBJECTID":2652,"Proj_num":"Ⅸ-5","Name_CN":"针灸（陆氏针灸疗法）","Name_EN":"Acupuncture and moxibustion (Lu's acupuncture and moxibustion therapy)","CategoryCN":"传统医药","CategoryEN":"Traditional medicine","Time":2011.0,"Type_CN":"扩展项目","Type_EN":"Extension project","Place_CN":"上海市","Place_EN":"Shanghai","Unit_CN":"上海市针灸经络研究所","Unit_EN":"Shanghai acupuncture meridian research institute","X":121.469135,"Y":31.23232,"ProvinceCN":"上海","ProvinceEN":"Shanghai","Region4CN":"东部","Region4EN":"Eastern China","Region7CN":"华东","Region7EN":"East China","__source_file__":"19-其它/14-文保非遗/上海市_国家级非遗.shp"},"geometry":{"type":"Point","coordinates":[121.46913500037999,31.232320000068]}},{"id":"59","type":"Feature","properties":{"OBJECTID_1":60,"OBJECTID":2665,"Proj_num":"Ⅸ-6","Name_CN":"中医正骨疗法（上海石氏伤科疗法）","Name_EN":"Bone setting therapy of traditional Chinese medicine (Shanghai Shi's Department of Traumatology)","CategoryCN":"传统医药","CategoryEN":"Traditional medicine","Time":2014.0,"Type_CN":"扩展项目","Type_EN":"Extension project","Place_CN":"上海市","Place_EN":"Shanghai","Unit_CN":"上海中医药大学附属曙光医院","Unit_EN":"Shuguang Hospital Affiliated to Shanghai University of traditional Chinese Medicine","X":121.469135,"Y":31.23232,"ProvinceCN":"上海","ProvinceEN":"Shanghai","Region4CN":"东部","Region4EN":"Eastern China","Region7CN":"华东","Region7EN":"East China","__source_file__":"19-其它/14-文保非遗/上海市_国家级非遗.shp"},"geometry":{"type":"Point","coordinates":[121.46913500037999,31.232320000068]}},{"id":"67","type":"Feature","properties":{"OBJECTID_1":68,"OBJECTID":3418,"Proj_num":"X-142","Name_CN":"规约习俗（钱氏家训家教）","Name_EN":"Conventions and customs (Qian family instruction and tutoring)","CategoryCN":"民俗","CategoryEN":"Folk custom","Time":2021.0,"Type_CN":"扩展项目","Type_EN":"Extension project","Place_CN":"上海市","Place_EN":"Shanghai","Unit_CN":"上海市地方史志学会","Unit_EN":"Shanghai local chronicles Society","X":121.469135,"Y":31.23232,"ProvinceCN":"上海","ProvinceEN":"Shanghai","Region4CN":"东部","Region4EN":"Eastern China","Region7CN":"华东","Region7EN":"East China","__source_file__":"19-其它/14-文保非遗/上海市_国家级非遗.shp"},"geometry":{"type":"Point","coordinates":[121.46913500037999,31.232320000068]}},{"id":"23","type":"Feature","properties":{"OBJECTID_1":24,"OBJECTID":1520,"Proj_num":"Ⅴ-68","Name_CN":"独脚戏","Name_EN":"Monologue","CategoryCN":"曲艺","CategoryEN":"Quyi","Time":2008.0,"Type_CN":"新增项目","Type_EN":"New project","Place_CN":"上海市黄浦区","Place_EN":"Huangpu District, Shanghai","Unit_CN":"上海独脚戏艺术传承中心（上海市人民滑稽剧团）","Unit_EN":"Shanghai monologue art inheritance Center (Shanghai People's farce Troupe)","X":121.479956,"Y":31.233735,"ProvinceCN":"上海","ProvinceEN":"Shanghai","Region4CN":"东部","Region4EN":"Eastern China","Region7CN":"华东","Region7EN":"East China","__source_file__":"19-其它/14-文保非遗/上海市_国家级非遗.shp"},"geometry":{"type":"Point","coordinates":[121.47995600026923,31.23373499967056]}},{"id":"38","type":"Feature","properties":{"OBJECTID_1":39,"OBJECTID":2215,"Proj_num":"Ⅷ-73","Name_CN":"徽墨制作技艺（曹素功墨锭制作技艺）","Name_EN":"Hui ink making technique (Cao Sugong's ink ingot making technique)","CategoryCN":"传统技艺","CategoryEN":"Traditional skills","Time":2011.0,"Type_CN":"扩展项目","Type_EN":"Extension project","Place_CN":"上海市黄浦区","Place_EN":"Huangpu District, Shanghai","Unit_CN":"上海周虎臣曹素功笔墨有限公司","Unit_EN":"Shanghai zhouhuchen Cao Sugong pen and Ink Co., Ltd","X":121.479956,"Y":31.233735,"ProvinceCN":"上海","ProvinceEN":"Shanghai","Region4CN":"东部","Region4EN":"Eastern China","Region7CN":"华东","Region7EN":"East China","__source_file__":"19-其它/14-文保非遗/上海市_国家级非遗.shp"},"geometry":{"type":"Point","coordinates":[121.47995600026923,31.23373499967056]}},{"id":"40","type":"Feature","properties":{"OBJECTID_1":41,"OBJECTID":2330,"Proj_num":"Ⅷ-117","Name_CN":"金银细工制作技艺","Name_EN":"Gold and silver craftsmanship","CategoryCN":"传统技艺","CategoryEN":"Traditional skills","Time":2008.0,"Type_CN":"新增项目","Type_EN":"New project","Place_CN":"上海市黄浦区","Place_EN":"Huangpu District, Shanghai","Unit_CN":"上海老凤祥有限公司","Unit_EN":"Shanghai Laofengxiang Co., Ltd","X":121.479956,"Y":31.233735,"ProvinceCN":"上海","ProvinceEN":"Shanghai","Region4CN":"东部","Region4EN":"Eastern China","Region7CN":"华东","Region7EN":"East China","__source_file__":"19-其它/14-文保非遗/上海市_国家级非遗.shp"},"geometry":{"type":"Point","coordinates":[121.47995600026923,31.23373499967056]}},{"id":"48","type":"Feature","properties":{"OBJECTID_1":49,"OBJECTID":2527,"Proj_num":"Ⅷ-193","Name_CN":"中式服装制作技艺（培罗蒙奉帮裁缝技艺）","Name_EN":"Chinese garment making skills (peromon's help tailoring skills)","CategoryCN":"传统技艺","CategoryEN":"Traditional skills","Time":2011.0,"Type_CN":"新增项目","Type_EN":"New project","Place_CN":"上海市黄浦区","Place_EN":"Huangpu District, Shanghai","Unit_CN":"上海培罗蒙西服公司","Unit_EN":"Shanghai pelomon suit Co., Ltd","X":121.479956,"Y":31.233735,"ProvinceCN":"上海","ProvinceEN":"Shanghai","Region4CN":"东部","Region4EN":"Eastern China","Region7CN":"华东","Region7EN":"East China","__source_file__":"19-其它/14-文保非遗/上海市_国家级非遗.shp"},"geometry":{"type":"Point","coordinates":[121.47995600026923,31.23373499967056]}},{"id":"52","type":"Feature","properties":{"OBJECTID_1":53,"OBJECTID":2570,"Proj_num":"Ⅷ-230","Name_CN":"上海本帮菜肴传统烹饪技艺 ","Name_EN":"Traditional cooking skills of Shanghai Benbang cuisine","CategoryCN":"传统技艺","CategoryEN":"Traditional skills","Time":2014.0,"Type_CN":"新增项目","Type_EN":"New project","Place_CN":"上海市黄浦区","Place_EN":"Huangpu District, Shanghai","Unit_CN":"上海老饭店","Unit_EN":"Shanghai old hotel","X":121.479956,"Y":31.233735,"ProvinceCN":"上海","ProvinceEN":"Shanghai","Region4CN":"东部","Region4EN":"Eastern China","Region7CN":"华东","Region7EN":"East China","__source_file__":"19-其它/14-文保非遗/上海市_国家级非遗.shp"},"geometry":{"type":"Point","coordinates":[121.47995600026923,31.23373499967056]}},{"id":"58","type":"Feature","properties":{"OBJECTID_1":59,"OBJECTID":2657,"Proj_num":"Ⅸ-6","Name_CN":"中医正骨疗法（石氏伤科疗法）","Name_EN":"Bone setting therapy of traditional Chinese medicine (Shi's traumatology)","CategoryCN":"传统医药","CategoryEN":"Traditional medicine","Time":2008.0,"Type_CN":"扩展项目","Type_EN":"Extension project","Place_CN":"上海市黄浦区","Place_EN":"Huangpu District, Shanghai","Unit_CN":"上海交通大学医学院附属第九人民医院黄浦分院","Unit_EN":"Huangpu branch of the Ninth People's Hospital Affiliated to Medical College of Shanghai Jiaotong University","X":121.479956,"Y":31.233735,"ProvinceCN":"上海","ProvinceEN":"Shanghai","Region4CN":"东部","Region4EN":"Eastern China","Region7CN":"华东","Region7EN":"East China","__source_file__":"19-其它/14-文保非遗/上海市_国家级非遗.shp"},"geometry":{"type":"Point","coordinates":[121.47995600026923,31.23373499967056]}},{"id":"50","type":"Feature","properties":{"OBJECTID_1":51,"OBJECTID":2547,"Proj_num":"Ⅷ-210","Name_CN":"石库门里弄建筑营造技艺","Name_EN":"Building skills of Shikumen Lilong","CategoryCN":"传统技艺","CategoryEN":"Traditional skills","Time":2011.0,"Type_CN":"新增项目","Type_EN":"New project","Place_CN":"上海市黄浦区","Place_EN":"Huangpu District, Shanghai","Unit_CN":"上海美达建筑工程有限公司","Unit_EN":"Shanghai Meida Construction Engineering Co., Ltd","X":121.479956,"Y":31.233735,"ProvinceCN":"上海","ProvinceEN":"Shanghai","Region4CN":"东部","Region4EN":"Eastern China","Region7CN":"华东","Region7EN":"East China","__source_file__":"19-其它/14-文保非遗/上海市_国家级非遗.shp"},"geometry":{"type":"Point","coordinates":[121.47995600026923,31.23373499967056]}},{"id":"71","type":"Feature","properties":{"OBJECTID_1":72,"OBJECTID":3451,"Proj_num":"Ⅸ-6","Name_CN":"中医正骨疗法（施氏伤科疗法）","Name_EN":"Bone setting therapy of traditional Chinese medicine (Shi's traumatology)","CategoryCN":"传统医药","CategoryEN":"Traditional medicine","Time":2021.0,"Type_CN":"扩展项目","Type_EN":"Extension project","Place_CN":"上海市黄海区","Place_EN":"Huanghai District, Shanghai","Unit_CN":"上海市黄浦区香山中医医院","Unit_EN":"Shanghai Huangpu Xiangshan traditional Chinese medicine hospital","X":121.479956,"Y":31.233735,"ProvinceCN":"上海","ProvinceEN":"Shanghai","Region4CN":"东部","Region4EN":"Eastern China","Region7CN":"华东","Region7EN":"East China","__source_file__":"19-其它/14-文保非遗/上海市_国家级非遗.shp"},"geometry":{"type":"Point","coordinates":[121.47995600026923,31.23373499967056]}},{"id":"61","type":"Feature","properties":{"OBJECTID_1":62,"OBJECTID":2897,"Proj_num":"Ⅹ-71","Name_CN":"元宵节（豫园灯会）","Name_EN":"Lantern Festival (Yu Garden Lantern Festival)","CategoryCN":"民俗","CategoryEN":"Folk custom","Time":2011.0,"Type_CN":"扩展项目","Type_EN":"Extension project","Place_CN":"上海市黄浦区","Place_EN":"Huangpu District, Shanghai","Unit_CN":"上海豫园旅游商城股份有限公司","Unit_EN":"Shanghai Yu Garden shopping mall Limited by Share Ltd","X":121.479956,"Y":31.233735,"ProvinceCN":"上海","ProvinceEN":"Shanghai","Region4CN":"东部","Region4EN":"Eastern China","Region7CN":"华东","Region7EN":"East China","__source_file__":"19-其它/14-文保非遗/上海市_国家级非遗.shp"},"geometry":{"type":"Point","coordinates":[121.47995600026923,31.23373499967056]}},{"id":"56","type":"Feature","properties":{"OBJECTID_1":57,"OBJECTID":2622,"Proj_num":"Ⅸ-4","Name_CN":"中医传统制剂方法（六神丸制作技艺）","Name_EN":"Traditional Chinese medicine preparation method (Liushen Pill making technique)","CategoryCN":"传统医药","CategoryEN":"Traditional medicine","Time":2011.0,"Type_CN":"扩展项目","Type_EN":"Extension project","Place_CN":"上海市黄浦区","Place_EN":"Huangpu District, Shanghai","Unit_CN":"上海雷允上药业有限公司","Unit_EN":"Shanghai leiyunshang Pharmaceutical Co., Ltd","X":121.479956,"Y":31.233735,"ProvinceCN":"上海","ProvinceEN":"Shanghai","Region4CN":"东部","Region4EN":"Eastern China","Region7CN":"华东","Region7EN":"East China","__source_file__":"19-其它/14-文保非遗/上海市_国家级非遗.shp"},"geometry":{"type":"Point","coordinates":[121.47995600026923,31.23373499967056]}},{"id":"49","type":"Feature","properties":{"OBJECTID_1":50,"OBJECTID":2535,"Proj_num":"Ⅷ-200","Name_CN":"毛笔制作技艺（周虎臣毛笔制作技艺）","Name_EN":"Brush making skills (Zhou Huchen's brush making skills)","CategoryCN":"传统技艺","CategoryEN":"Traditional skills","Time":2011.0,"Type_CN":"新增项目","Type_EN":"New project","Place_CN":"上海市黄浦区","Place_EN":"Huangpu District, Shanghai","Unit_CN":"上海周虎臣曹素功笔墨有限公司","Unit_EN":"Shanghai zhouhuchen Cao Sugong pen and Ink Co., Ltd","X":121.479956,"Y":31.233735,"ProvinceCN":"上海","ProvinceEN":"Shanghai","Region4CN":"东部","Region4EN":"Eastern China","Region7CN":"华东","Region7EN":"East China","__source_file__":"19-其它/14-文保非遗/上海市_国家级非遗.shp"},"geometry":{"type":"Point","coordinates":[121.47995600026923,31.23373499967056]}},{"id":"69","type":"Feature","properties":{"OBJECTID_1":70,"OBJECTID":3426,"Proj_num":"Ⅸ-2","Name_CN":"中医诊疗法（朱氏妇科疗法）","Name_EN":"TCM diagnosis and treatment (Zhu's gynecological therapy)","CategoryCN":"传统医药","CategoryEN":"Traditional medicine","Time":2021.0,"Type_CN":"扩展项目","Type_EN":"Extension project","Place_CN":"上海市","Place_EN":"Shanghai","Unit_CN":"上海中医药大学附属岳阳中西医结合医院","Unit_EN":"Yueyang integrated traditional Chinese and Western Medicine Hospital Affiliated to Shanghai University of traditional Chinese Medicine","X":121.469135,"Y":31.23232,"ProvinceCN":"上海","ProvinceEN":"Shanghai","Region4CN":"东部","Region4EN":"Eastern China","Region7CN":"华东","Region7EN":"East China","__source_file__":"19-其它/14-文保非遗/上海市_国家级非遗.shp"},"geometry":{"type":"Point","coordinates":[121.46913500037999,31.232320000068]}},{"id":"34","type":"Feature","properties":{"OBJECTID_1":35,"OBJECTID":1947,"Proj_num":"Ⅶ-57","Name_CN":"玉雕（海派玉雕）","Name_EN":"Jade carving (Haipai jade carving)","CategoryCN":"传统美术","CategoryEN":"Traditional art","Time":2011.0,"Type_CN":"扩展项目","Type_EN":"Extension project","Place_CN":"上海市","Place_EN":"Shanghai","Unit_CN":"上海海派玉雕文化协会","Unit_EN":"Shanghai Shanghai style jade carving Culture Association","X":121.469135,"Y":31.23232,"ProvinceCN":"上海","ProvinceEN":"Shanghai","Region4CN":"东部","Region4EN":"Eastern China","Region7CN":"华东","Region7EN":"East China","__source_file__":"19-其它/14-文保非遗/上海市_国家级非遗.shp"},"geometry":{"type":"Point","coordinates":[121.46913500037999,31.232320000068]}},{"id":"35","type":"Feature","properties":{"OBJECTID_1":36,"OBJECTID":1952,"Proj_num":"Ⅶ-58","Name_CN":"木雕（紫檀雕刻）","Name_EN":"Wood carving (red sandalwood carving)","CategoryCN":"传统美术","CategoryEN":"Traditional art","Time":2011.0,"Type_CN":"扩展项目","Type_EN":"Extension project","Place_CN":"上海市","Place_EN":"Shanghai","Unit_CN":"上海中国紫檀文化研究院","Unit_EN":"Shanghai China red sandalwood Culture Research Institute","X":121.469135,"Y":31.23232,"ProvinceCN":"上海","ProvinceEN":"Shanghai","Region4CN":"东部","Region4EN":"Eastern China","Region7CN":"华东","Region7EN":"East China","__source_file__":"19-其它/14-文保非遗/上海市_国家级非遗.shp"},"geometry":{"type":"Point","coordinates":[121.46913500037999,31.232320000068]}},{"id":"70","type":"Feature","properties":{"OBJECTID_1":71,"OBJECTID":3450,"Proj_num":"Ⅸ-6","Name_CN":"中医正骨疗法（魏氏伤科疗法）","Name_EN":"Bone setting therapy of traditional Chinese medicine (Weishi traumatology)","CategoryCN":"传统医药","CategoryEN":"Traditional medicine","Time":2021.0,"Type_CN":"扩展项目","Type_EN":"Extension project","Place_CN":"上海市","Place_EN":"Shanghai","Unit_CN":"上海交通大学医学院附属瑞金医院","Unit_EN":"Ruijin Hospital Affiliated to Medical College of Shanghai Jiaotong University","X":121.469135,"Y":31.23232,"ProvinceCN":"上海","ProvinceEN":"Shanghai","Region4CN":"东部","Region4EN":"Eastern China","Region7CN":"华东","Region7EN":"East China","__source_file__":"19-其它/14-文保非遗/上海市_国家级非遗.shp"},"geometry":{"type":"Point","coordinates":[121.46913500037999,31.232320000068]}},{"id":"72","type":"Feature","properties":{"OBJECTID_1":73,"OBJECTID":3469,"Proj_num":"Ⅵ-11","Name_CN":"太极拳（吴氏太极拳）","Name_EN":"Taijiquan (Wu's Taijiquan)","CategoryCN":"传统体育、游艺与杂技","CategoryEN":"Traditional sports, recreation and acrobatics","Time":2021.0,"Type_CN":"扩展项目","Type_EN":"Extension project","Place_CN":"上海市","Place_EN":"Shanghai","Unit_CN":"上海鉴泉太极拳社","Unit_EN":"Shanghai Jianquan Taijiquan Society","X":121.469135,"Y":31.23232,"ProvinceCN":"上海","ProvinceEN":"Shanghai","Region4CN":"东部","Region4EN":"Eastern China","Region7CN":"华东","Region7EN":"East China","__source_file__":"19-其它/14-文保非遗/上海市_国家级非遗.shp"},"geometry":{"type":"Point","coordinates":[121.46913500037999,31.232320000068]}},{"id":"74","type":"Feature","properties":{"OBJECTID_1":75,"OBJECTID":3603,"Proj_num":"VIII-197","Name_CN":"青铜器修复及复制技艺（上海青铜器修复技艺）","Name_EN":"Bronze restoration and reproduction technology (Shanghai bronze restoration technology)","CategoryCN":"传统技艺","CategoryEN":"Traditional skills","Time":2021.0,"Type_CN":"扩展项目","Type_EN":"Extension project","Place_CN":"上海市","Place_EN":"Shanghai","Unit_CN":"上海博物馆","Unit_EN":"Shanghai Museum","X":121.469135,"Y":31.23232,"ProvinceCN":"上海","ProvinceEN":"Shanghai","Region4CN":"东部","Region4EN":"Eastern China","Region7CN":"华东","Region7EN":"East China","__source_file__":"19-其它/14-文保非遗/上海市_国家级非遗.shp"},"geometry":{"type":"Point","coordinates":[121.46913500037999,31.232320000068]}},{"id":"75","type":"Feature","properties":{"OBJECTID_1":76,"OBJECTID":3606,"Proj_num":"VIII-220","Name_CN":"古陶瓷修复技艺","Name_EN":"Ancient ceramic restoration technology","CategoryCN":"传统技艺","CategoryEN":"Traditional skills","Time":2021.0,"Type_CN":"扩展项目","Type_EN":"Extension project","Place_CN":"上海市","Place_EN":"Shanghai","Unit_CN":"上海博物馆","Unit_EN":"Shanghai Museum","X":121.469135,"Y":31.23232,"ProvinceCN":"上海","ProvinceEN":"Shanghai","Region4CN":"东部","Region4EN":"Eastern China","Region7CN":"华东","Region7EN":"East China","__source_file__":"19-其它/14-文保非遗/上海市_国家级非遗.shp"},"geometry":{"type":"Point","coordinates":[121.46913500037999,31.232320000068]}},{"id":"17","type":"Feature","properties":{"OBJECTID_1":18,"OBJECTID":1267,"Proj_num":"Ⅳ-92","Name_CN":"木偶戏（海派木偶戏）","Name_EN":"Puppet show (Shanghai style puppet show)","CategoryCN":"传统戏剧","CategoryEN":"Traditional drama","Time":2011.0,"Type_CN":"扩展项目","Type_EN":"Extension project","Place_CN":"上海木偶剧团","Place_EN":"Shanghai Puppet Troupe","Unit_CN":"上海木偶剧团有限公司","Unit_EN":"Shanghai Puppet Troupe Co., Ltd","X":121.464484,"Y":31.233314,"ProvinceCN":"上海","ProvinceEN":"Shanghai","Region4CN":"东部","Region4EN":"Eastern China","Region7CN":"华东","Region7EN":"East China","__source_file__":"19-其它/14-文保非遗/上海市_国家级非遗.shp"},"geometry":{"type":"Point","coordinates":[121.46448399993676,31.233314000041105]}},{"id":"19","type":"Feature","properties":{"OBJECTID_1":20,"OBJECTID":1391,"Proj_num":"Ⅳ-156","Name_CN":"滑稽戏","Name_EN":"Comic opera","CategoryCN":"传统戏剧","CategoryEN":"Traditional drama","Time":2011.0,"Type_CN":"新增项目","Type_EN":"New project","Place_CN":"上海滑稽剧团","Place_EN":"Shanghai Farce Troupe","Unit_CN":"上海滑稽剧团有限公司","Unit_EN":"Shanghai farce troupe Co., Ltd","X":121.447537,"Y":31.237212,"ProvinceCN":"上海","ProvinceEN":"Shanghai","Region4CN":"东部","Region4EN":"Eastern China","Region7CN":"华东","Region7EN":"East China","__source_file__":"19-其它/14-文保非遗/上海市_国家级非遗.shp"},"geometry":{"type":"Point","coordinates":[121.44753699993271,31.23721199993389]}}],"name":"上海市_国家级非遗","crs":{"type":"name","properties":{"name":"urn:ogc:def:crs:OGC:1.3:CRS84"}}}