{"type":"FeatureCollection","features":[{"id":"73280","type":"Feature","properties":{"id":"B0FFHMHCXR","name":"CHIC CHOC(淮海店)","address":"陕西南路212号(近百盛购物中心)","type":"购物服务;服装鞋帽皮具店;服装鞋帽皮具店","typecode":"061100","pcode":310000,"pname":"上海市","citycode":21,"cityname":"上海市","adcode":310104,"adname":"徐汇区","business_area":"淮海路","location":"121.458213,31.218271","tel":"[]","bigType":"购物服务","midType":"服装鞋帽皮具店","smallType":"服装鞋帽皮具店","gcj_lng":121.458213,"gcj_lat":31.218271,"wgs84_loc":"121.453644,31.22018","wgs84Lng":121.453644,"wgs84Lat":31.22018,"__source_file__":"02-POI&AOI/1-POI/25.05/CSV/分类/按区县/上海市-徐汇区.csv"},"geometry":{"type":"Point","coordinates":[121.453644,31.22018]}},{"id":"71473","type":"Feature","properties":{"id":"B0IA3XGKAM","name":"阿杜鲜花店","address":"新乐路7号(陕西南路地铁站2号口步行270米)","type":"购物服务;专卖店;专营店","typecode":"061200","pcode":310000,"pname":"上海市","citycode":21,"cityname":"上海市","adcode":310104,"adname":"徐汇区","business_area":"岳阳","location":"121.457990,31.218289","tel":"[]","bigType":"购物服务","midType":"专卖店","smallType":"专营店","gcj_lng":121.45799,"gcj_lat":31.218289,"wgs84_loc":"121.45342,31.220197","wgs84Lng":121.45342,"wgs84Lat":31.220197,"__source_file__":"02-POI&AOI/1-POI/25.05/CSV/分类/按区县/上海市-徐汇区.csv"},"geometry":{"type":"Point","coordinates":[121.45342,31.220197]}},{"id":"67671","type":"Feature","properties":{"id":"B0FFLLDI9Z","name":"怪兽充电(鎏の彩美甲美睫)","address":"陕西南路208号二楼","type":"生活服务;共享设备;充电宝","typecode":"072101","pcode":310000,"pname":"上海市","citycode":21,"cityname":"上海市","adcode":310104,"adname":"徐汇区","business_area":"淮海路","location":"121.458199,31.218342","tel":"[]","bigType":"生活服务","midType":"共享设备","smallType":"充电宝","gcj_lng":121.458199,"gcj_lat":31.218342,"wgs84_loc":"121.45363,31.220251","wgs84Lng":121.45363,"wgs84Lat":31.220251,"__source_file__":"02-POI&AOI/1-POI/25.05/CSV/分类/按区县/上海市-徐汇区.csv"},"geometry":{"type":"Point","coordinates":[121.45363,31.220251]}},{"id":"73289","type":"Feature","properties":{"id":"B0015724CV","name":"a.c","address":"陕西南路208号(陕西南路地铁站2号口步行200米)","type":"购物服务;服装鞋帽皮具店;服装鞋帽皮具店","typecode":"061100","pcode":310000,"pname":"上海市","citycode":21,"cityname":"上海市","adcode":310104,"adname":"徐汇区","business_area":"淮海路","location":"121.458194,31.218342","tel":"[]","bigType":"购物服务","midType":"服装鞋帽皮具店","smallType":"服装鞋帽皮具店","gcj_lng":121.458194,"gcj_lat":31.218342,"wgs84_loc":"121.453625,31.220251","wgs84Lng":121.453625,"wgs84Lat":31.220251,"__source_file__":"02-POI&AOI/1-POI/25.05/CSV/分类/按区县/上海市-徐汇区.csv"},"geometry":{"type":"Point","coordinates":[121.453625,31.220251]}},{"id":"67024","type":"Feature","properties":{"id":"B0HA979CF8","name":"NIKI HAO","address":"陕西南路206号","type":"购物服务;服装鞋帽皮具店;服装鞋帽皮具店","typecode":"061100","pcode":310000,"pname":"上海市","citycode":21,"cityname":"上海市","adcode":310104,"adname":"徐汇区","business_area":"淮海路","location":"121.458186,31.218369","tel":"[]","bigType":"购物服务","midType":"服装鞋帽皮具店","smallType":"服装鞋帽皮具店","gcj_lng":121.458186,"gcj_lat":31.218369,"wgs84_loc":"121.453617,31.220278","wgs84Lng":121.453617,"wgs84Lat":31.220278,"__source_file__":"02-POI&AOI/1-POI/25.05/CSV/分类/按区县/上海市-徐汇区.csv"},"geometry":{"type":"Point","coordinates":[121.453617,31.220278]}},{"id":"33589","type":"Feature","properties":{"id":"B0G02Y2B0E","name":"feeigood女装店","address":"陕西南路204-1号","type":"购物服务;服装鞋帽皮具店;服装鞋帽皮具店","typecode":"061100","pcode":310000,"pname":"上海市","citycode":21,"cityname":"上海市","adcode":310104,"adname":"徐汇区","business_area":"淮海路","location":"121.458047,31.218395","tel":"13816376980","bigType":"购物服务","midType":"服装鞋帽皮具店","smallType":"服装鞋帽皮具店","gcj_lng":121.458047,"gcj_lat":31.218395,"wgs84_loc":"121.453478,31.220303","wgs84Lng":121.453478,"wgs84Lat":31.220303,"__source_file__":"02-POI&AOI/1-POI/25.05/CSV/分类/按区县/上海市-徐汇区.csv"},"geometry":{"type":"Point","coordinates":[121.453478,31.220303]}},{"id":"37343","type":"Feature","properties":{"id":"B0FFI9OK1E","name":"J&Eleven(新乐路一号店)","address":"新乐路11号2一3层","type":"购物服务;服装鞋帽皮具店;品牌服装店","typecode":"061101","pcode":310000,"pname":"上海市","citycode":21,"cityname":"上海市","adcode":310104,"adname":"徐汇区","business_area":"淮海路","location":"121.457694,31.218300","tel":"[]","bigType":"购物服务","midType":"服装鞋帽皮具店","smallType":"品牌服装店","gcj_lng":121.457694,"gcj_lat":31.2183,"wgs84_loc":"121.453124,31.220208","wgs84Lng":121.453124,"wgs84Lat":31.220208,"__source_file__":"02-POI&AOI/1-POI/25.05/CSV/分类/按区县/上海市-徐汇区.csv"},"geometry":{"type":"Point","coordinates":[121.453124,31.220208]}},{"id":"44757","type":"Feature","properties":{"id":"B0FFJJAU5V","name":"怪兽充电(J&Eleven新乐路二号店)","address":"新乐路11号2一3层","type":"生活服务;共享设备;充电宝","typecode":"072101","pcode":310000,"pname":"上海市","citycode":21,"cityname":"上海市","adcode":310104,"adname":"徐汇区","business_area":"淮海路","location":"121.457694,31.218300","tel":"[]","bigType":"生活服务","midType":"共享设备","smallType":"充电宝","gcj_lng":121.457694,"gcj_lat":31.2183,"wgs84_loc":"121.453124,31.220208","wgs84Lng":121.453124,"wgs84Lat":31.220208,"__source_file__":"02-POI&AOI/1-POI/25.05/CSV/分类/按区县/上海市-徐汇区.csv"},"geometry":{"type":"Point","coordinates":[121.453124,31.220208]}},{"id":"33567","type":"Feature","properties":{"id":"B0HGGRW23Z","name":"品朵服饰IM旗舰店","address":"新乐路11-5号","type":"购物服务;服装鞋帽皮具店;服装鞋帽皮具店","typecode":"061100","pcode":310000,"pname":"上海市","citycode":21,"cityname":"上海市","adcode":310104,"adname":"徐汇区","business_area":"淮海路","location":"121.457702,31.218302","tel":"17511688700","bigType":"购物服务","midType":"服装鞋帽皮具店","smallType":"服装鞋帽皮具店","gcj_lng":121.457702,"gcj_lat":31.218302,"wgs84_loc":"121.453132,31.22021","wgs84Lng":121.453132,"wgs84Lat":31.22021,"__source_file__":"02-POI&AOI/1-POI/25.05/CSV/分类/按区县/上海市-徐汇区.csv"},"geometry":{"type":"Point","coordinates":[121.453132,31.22021]}},{"id":"40432","type":"Feature","properties":{"id":"B0G1MAVZC0","name":"沁园采耳(环茂店)","address":"陕西南路(地铁站)2号口步行336米","type":"餐饮服务;餐饮相关场所;餐饮相关","typecode":"050000","pcode":310000,"pname":"上海市","citycode":21,"cityname":"上海市","adcode":310104,"adname":"徐汇区","business_area":"淮海路","location":"121.457329,31.218430","tel":"18912007585","bigType":"餐饮服务","midType":"餐饮相关场所","smallType":"餐饮相关","gcj_lng":121.457329,"gcj_lat":31.21843,"wgs84_loc":"121.452758,31.220337","wgs84Lng":121.452758,"wgs84Lat":31.220337,"__source_file__":"02-POI&AOI/1-POI/25.05/CSV/分类/按区县/上海市-徐汇区.csv"},"geometry":{"type":"Point","coordinates":[121.452758,31.220337]}},{"id":"73907","type":"Feature","properties":{"id":"B0FFLFG63Z","name":"O₂ FLORAL氧气花艺","address":"新乐路9号-8","type":"购物服务;花鸟鱼虫市场;花卉市场","typecode":"060501","pcode":310000,"pname":"上海市","citycode":21,"cityname":"上海市","adcode":310104,"adname":"徐汇区","business_area":"淮海路","location":"121.457856,31.218332","tel":"13917519764","bigType":"购物服务","midType":"花鸟鱼虫市场","smallType":"花卉市场","gcj_lng":121.457856,"gcj_lat":31.218332,"wgs84_loc":"121.453286,31.22024","wgs84Lng":121.453286,"wgs84Lat":31.22024,"__source_file__":"02-POI&AOI/1-POI/25.05/CSV/分类/按区县/上海市-徐汇区.csv"},"geometry":{"type":"Point","coordinates":[121.453286,31.22024]}},{"id":"2426","type":"Feature","properties":{"id":"B0FFLLU5CR","name":"怪兽充电(T·Cafe)","address":"新乐路9号","type":"生活服务;共享设备;充电宝","typecode":"072101","pcode":310000,"pname":"上海市","citycode":21,"cityname":"上海市","adcode":310104,"adname":"徐汇区","business_area":"淮海路","location":"121.457838,31.218333","tel":"[]","bigType":"生活服务","midType":"共享设备","smallType":"充电宝","gcj_lng":121.457838,"gcj_lat":31.218333,"wgs84_loc":"121.453268,31.220241","wgs84Lng":121.453268,"wgs84Lat":31.220241,"__source_file__":"02-POI&AOI/1-POI/25.05/CSV/分类/按区县/上海市-徐汇区.csv"},"geometry":{"type":"Point","coordinates":[121.453268,31.220241]}},{"id":"55233","type":"Feature","properties":{"id":"B0G1F7P5U2","name":"Meils","address":"新乐路7-2号","type":"购物服务;服装鞋帽皮具店;服装鞋帽皮具店","typecode":"061100","pcode":310000,"pname":"上海市","citycode":21,"cityname":"上海市","adcode":310104,"adname":"徐汇区","business_area":"淮海路","location":"121.457932,31.218366","tel":"13816376980","bigType":"购物服务","midType":"服装鞋帽皮具店","smallType":"服装鞋帽皮具店","gcj_lng":121.457932,"gcj_lat":31.218366,"wgs84_loc":"121.453362,31.220274","wgs84Lng":121.453362,"wgs84Lat":31.220274,"__source_file__":"02-POI&AOI/1-POI/25.05/CSV/分类/按区县/上海市-徐汇区.csv"},"geometry":{"type":"Point","coordinates":[121.453362,31.220274]}},{"id":"71472","type":"Feature","properties":{"id":"B0IA3XL8VL","name":"SECOND","address":"新乐路11号3楼(陕西南路地铁站2号口步行390米)","type":"购物服务;专卖店;专营店","typecode":"061200","pcode":310000,"pname":"上海市","citycode":21,"cityname":"上海市","adcode":310104,"adname":"徐汇区","business_area":"岳阳","location":"121.457807,31.218383","tel":"[]","bigType":"购物服务","midType":"专卖店","smallType":"专营店","gcj_lng":121.457807,"gcj_lat":31.218383,"wgs84_loc":"121.453237,31.220291","wgs84Lng":121.453237,"wgs84Lat":31.220291,"__source_file__":"02-POI&AOI/1-POI/25.05/CSV/分类/按区县/上海市-徐汇区.csv"},"geometry":{"type":"Point","coordinates":[121.453237,31.220291]}},{"id":"33315","type":"Feature","properties":{"id":"B0FFG95CNK","name":"7CM(新乐路店)","address":"新乐路16A","type":"购物服务;服装鞋帽皮具店;服装鞋帽皮具店","typecode":"061100","pcode":310000,"pname":"上海市","citycode":21,"cityname":"上海市","adcode":310104,"adname":"徐汇区","business_area":"淮海路","location":"121.457527,31.218444","tel":"15921513040","bigType":"购物服务","midType":"服装鞋帽皮具店","smallType":"服装鞋帽皮具店","gcj_lng":121.457527,"gcj_lat":31.218444,"wgs84_loc":"121.452956,31.220351","wgs84Lng":121.452956,"wgs84Lat":31.220351,"__source_file__":"02-POI&AOI/1-POI/25.05/CSV/分类/按区县/上海市-徐汇区.csv"},"geometry":{"type":"Point","coordinates":[121.452956,31.220351]}},{"id":"4475","type":"Feature","properties":{"id":"B0H61ZOD97","name":"新乐路16号洋房","address":"新乐路与陕西南路交叉口西约60米","type":"商务住宅;商务住宅相关;商务住宅相关","typecode":"120000","pcode":310000,"pname":"上海市","citycode":21,"cityname":"上海市","adcode":310104,"adname":"徐汇区","business_area":"淮海路","location":"121.457544,31.218466","tel":"[]","bigType":"商务住宅","midType":"商务住宅相关","smallType":"商务住宅相关","gcj_lng":121.457544,"gcj_lat":31.218466,"wgs84_loc":"121.452973,31.220373","wgs84Lng":121.452973,"wgs84Lat":31.220373,"__source_file__":"02-POI&AOI/1-POI/25.05/CSV/分类/按区县/上海市-徐汇区.csv"},"geometry":{"type":"Point","coordinates":[121.452973,31.220373]}},{"id":"64779","type":"Feature","properties":{"id":"B0FFGFCCG3","name":"中国教育国际交流协会中外合作办学认证上海中心","address":"陕西南路202号3号楼","type":"政府机构及社会团体;社会团体;行业协会","typecode":"130407","pcode":310000,"pname":"上海市","citycode":21,"cityname":"上海市","adcode":310104,"adname":"徐汇区","business_area":"淮海路","location":"121.457906,31.218534","tel":"[]","bigType":"政府机构及社会团体","midType":"社会团体","smallType":"行业协会","gcj_lng":121.457906,"gcj_lat":31.218534,"wgs84_loc":"121.453336,31.220442","wgs84Lng":121.453336,"wgs84Lat":31.220442,"__source_file__":"02-POI&AOI/1-POI/25.05/CSV/分类/按区县/上海市-徐汇区.csv"},"geometry":{"type":"Point","coordinates":[121.453336,31.220442]}},{"id":"9414","type":"Feature","properties":{"id":"B00156GSBS","name":"亚洲太平洋地区质量保障组织秘书处","address":"陕西南路202号","type":"政府机构及社会团体;外国机构;外国机构相关","typecode":"130200","pcode":310000,"pname":"上海市","citycode":21,"cityname":"上海市","adcode":310104,"adname":"徐汇区","business_area":"淮海路","location":"121.457934,31.218542","tel":"[]","bigType":"政府机构及社会团体","midType":"外国机构","smallType":"外国机构相关","gcj_lng":121.457934,"gcj_lat":31.218542,"wgs84_loc":"121.453364,31.22045","wgs84Lng":121.453364,"wgs84Lat":31.22045,"__source_file__":"02-POI&AOI/1-POI/25.05/CSV/分类/按区县/上海市-徐汇区.csv"},"geometry":{"type":"Point","coordinates":[121.453364,31.22045]}},{"id":"62701","type":"Feature","properties":{"id":"B0FFKV1F2B","name":"上海淮海中路公寓(长乐路店)","address":"新乐路21号38号","type":"住宿服务;宾馆酒店;宾馆酒店","typecode":"100100","pcode":310000,"pname":"上海市","citycode":21,"cityname":"上海市","adcode":310104,"adname":"徐汇区","business_area":"淮海路","location":"121.457794,31.218546","tel":"[]","bigType":"住宿服务","midType":"宾馆酒店","smallType":"宾馆酒店","gcj_lng":121.457794,"gcj_lat":31.218546,"wgs84_loc":"121.453224,31.220454","wgs84Lng":121.453224,"wgs84Lat":31.220454,"__source_file__":"02-POI&AOI/1-POI/25.05/CSV/分类/按区县/上海市-徐汇区.csv"},"geometry":{"type":"Point","coordinates":[121.453224,31.220454]}},{"id":"15972","type":"Feature","properties":{"id":"B0FFIB5A6G","name":"新乐路8号-10","address":"新乐路上海教育评估院","type":"地名地址信息;门牌信息;楼栋号","typecode":"190403","pcode":310000,"pname":"上海市","citycode":21,"cityname":"上海市","adcode":310104,"adname":"徐汇区","business_area":"淮海路","location":"121.457686,31.218552","tel":"[]","bigType":"地名地址信息","midType":"门牌信息","smallType":"楼栋号","gcj_lng":121.457686,"gcj_lat":31.218552,"wgs84_loc":"121.453116,31.220459","wgs84Lng":121.453116,"wgs84Lat":31.220459,"__source_file__":"02-POI&AOI/1-POI/25.05/CSV/分类/按区县/上海市-徐汇区.csv"},"geometry":{"type":"Point","coordinates":[121.453116,31.220459]}},{"id":"73924","type":"Feature","properties":{"id":"B0FFMACP9V","name":"Floribana花伴国潮花艺","address":"新乐路28号1楼(陕西南路地铁站2号口步行300米)","type":"购物服务;花鸟鱼虫市场;花卉市场","typecode":"060501","pcode":310000,"pname":"上海市","citycode":21,"cityname":"上海市","adcode":310104,"adname":"徐汇区","business_area":"淮海路","location":"121.457267,31.218504","tel":"13761787010","bigType":"购物服务","midType":"花鸟鱼虫市场","smallType":"花卉市场","gcj_lng":121.457267,"gcj_lat":31.218504,"wgs84_loc":"121.452695,31.22041","wgs84Lng":121.452695,"wgs84Lat":31.22041,"__source_file__":"02-POI&AOI/1-POI/25.05/CSV/分类/按区县/上海市-徐汇区.csv"},"geometry":{"type":"Point","coordinates":[121.452695,31.22041]}},{"id":"33198","type":"Feature","properties":{"id":"B00155EPP4","name":"米澜坊(新乐路店)","address":"新乐路26号","type":"购物服务;服装鞋帽皮具店;服装鞋帽皮具店","typecode":"061100","pcode":310000,"pname":"上海市","citycode":21,"cityname":"上海市","adcode":310104,"adname":"徐汇区","business_area":"淮海路","location":"121.457207,31.218516","tel":"021-54033136","bigType":"购物服务","midType":"服装鞋帽皮具店","smallType":"服装鞋帽皮具店","gcj_lng":121.457207,"gcj_lat":31.218516,"wgs84_loc":"121.452635,31.220422","wgs84Lng":121.452635,"wgs84Lat":31.220422,"__source_file__":"02-POI&AOI/1-POI/25.05/CSV/分类/按区县/上海市-徐汇区.csv"},"geometry":{"type":"Point","coordinates":[121.452635,31.220422]}},{"id":"45535","type":"Feature","properties":{"id":"B0FFIDDMCT","name":"裁缝店新乐路24号","address":"新乐路24号","type":"生活服务;生活服务场所;生活服务场所","typecode":"070000","pcode":310000,"pname":"上海市","citycode":21,"cityname":"上海市","adcode":310104,"adname":"徐汇区","business_area":"淮海路","location":"121.457251,31.218525","tel":"15921110986","bigType":"生活服务","midType":"生活服务场所","smallType":"生活服务场所","gcj_lng":121.457251,"gcj_lat":31.218525,"wgs84_loc":"121.452679,31.220431","wgs84Lng":121.452679,"wgs84Lat":31.220431,"__source_file__":"02-POI&AOI/1-POI/25.05/CSV/分类/按区县/上海市-徐汇区.csv"},"geometry":{"type":"Point","coordinates":[121.452679,31.220431]}},{"id":"22795","type":"Feature","properties":{"id":"B0HRHY0ZQQ","name":"奢哆哆","address":"新乐路22号","type":"购物服务;家居建材市场;布艺市场","typecode":"060605","pcode":310000,"pname":"上海市","citycode":21,"cityname":"上海市","adcode":310104,"adname":"徐汇区","business_area":"淮海路","location":"121.457300,31.218589","tel":"13020211333","bigType":"购物服务","midType":"家居建材市场","smallType":"布艺市场","gcj_lng":121.4573,"gcj_lat":31.218589,"wgs84_loc":"121.452729,31.220495","wgs84Lng":121.452729,"wgs84Lat":31.220495,"__source_file__":"02-POI&AOI/1-POI/25.05/CSV/分类/按区县/上海市-徐汇区.csv"},"geometry":{"type":"Point","coordinates":[121.452729,31.220495]}},{"id":"72490","type":"Feature","properties":{"id":"B0HALZ56FQ","name":"Garage Vintage干垃圾杂货铺","address":"新乐路34弄3号楼1楼后门","type":"购物服务;购物相关场所;购物相关场所","typecode":"060000","pcode":310000,"pname":"上海市","citycode":21,"cityname":"上海市","adcode":310104,"adname":"徐汇区","business_area":"淮海路","location":"121.456702,31.218635","tel":"13651789581","bigType":"购物服务","midType":"购物相关场所","smallType":"购物相关场所","gcj_lng":121.456702,"gcj_lat":31.218635,"wgs84_loc":"121.452129,31.22054","wgs84Lng":121.452129,"wgs84Lat":31.22054,"__source_file__":"02-POI&AOI/1-POI/25.05/CSV/分类/按区县/上海市-徐汇区.csv"},"geometry":{"type":"Point","coordinates":[121.452129,31.22054]}},{"id":"54640","type":"Feature","properties":{"id":"B0FFLBE8XU","name":"波波咖啡厅","address":"长乐路339弄40号","type":"餐饮服务;咖啡厅;咖啡厅","typecode":"050500","pcode":310000,"pname":"上海市","citycode":21,"cityname":"上海市","adcode":310104,"adname":"徐汇区","business_area":"淮海路","location":"121.456275,31.218770","tel":"[]","bigType":"餐饮服务","midType":"咖啡厅","smallType":"咖啡厅","gcj_lng":121.456275,"gcj_lat":31.21877,"wgs84_loc":"121.451701,31.220674","wgs84Lng":121.451701,"wgs84Lat":31.220674,"__source_file__":"02-POI&AOI/1-POI/25.05/CSV/分类/按区县/上海市-徐汇区.csv"},"geometry":{"type":"Point","coordinates":[121.451701,31.220674]}},{"id":"35506","type":"Feature","properties":{"id":"B0GKBPE2X0","name":"上海十里洋房公寓","address":"陕西南路188弄12号5楼","type":"住宿服务;旅馆招待所;旅馆招待所","typecode":"100200","pcode":310000,"pname":"上海市","citycode":21,"cityname":"上海市","adcode":310104,"adname":"徐汇区","business_area":"淮海路","location":"121.456693,31.218868","tel":"[]","bigType":"住宿服务","midType":"旅馆招待所","smallType":"旅馆招待所","gcj_lng":121.456693,"gcj_lat":31.218868,"wgs84_loc":"121.45212,31.220773","wgs84Lng":121.45212,"wgs84Lat":31.220773,"__source_file__":"02-POI&AOI/1-POI/25.05/CSV/分类/按区县/上海市-徐汇区.csv"},"geometry":{"type":"Point","coordinates":[121.45212,31.220773]}},{"id":"27657","type":"Feature","properties":{"id":"B0H1M7YLR6","name":"Wait and See起时咖啡","address":"陕西南路186弄(小区内起时咖啡)","type":"餐饮服务;咖啡厅;咖啡厅","typecode":"050500","pcode":310000,"pname":"上海市","citycode":21,"cityname":"上海市","adcode":310104,"adname":"徐汇区","business_area":"淮海路","location":"121.456399,31.218878","tel":"[]","bigType":"餐饮服务","midType":"咖啡厅","smallType":"咖啡厅","gcj_lng":121.456399,"gcj_lat":31.218878,"wgs84_loc":"121.451825,31.220782","wgs84Lng":121.451825,"wgs84Lat":31.220782,"__source_file__":"02-POI&AOI/1-POI/25.05/CSV/分类/按区县/上海市-徐汇区.csv"},"geometry":{"type":"Point","coordinates":[121.451825,31.220782]}},{"id":"3228","type":"Feature","properties":{"id":"B0HRCKJLWZ","name":"上海Home特色民宿(襄阳北路分店)","address":"襄阳北路66弄公房","type":"住宿服务;住宿服务相关;住宿服务相关","typecode":"100000","pcode":310000,"pname":"上海市","citycode":21,"cityname":"上海市","adcode":310104,"adname":"徐汇区","business_area":"淮海路","location":"121.454900,31.218961","tel":"[]","bigType":"住宿服务","midType":"住宿服务相关","smallType":"住宿服务相关","gcj_lng":121.4549,"gcj_lat":31.218961,"wgs84_loc":"121.450322,31.220862","wgs84Lng":121.450322,"wgs84Lat":31.220862,"__source_file__":"02-POI&AOI/1-POI/25.05/CSV/分类/按区县/上海市-徐汇区.csv"},"geometry":{"type":"Point","coordinates":[121.450322,31.220862]}},{"id":"10786","type":"Feature","properties":{"id":"B00155QBZB","name":"中国体育彩票(上海旗舰店)","address":"襄阳北路长乐路339弄18号","type":"生活服务;彩票彩券销售点;彩票彩券销售点","typecode":"071800","pcode":310000,"pname":"上海市","citycode":21,"cityname":"上海市","adcode":310104,"adname":"徐汇区","business_area":"淮海路","location":"121.454844,31.219003","tel":"[]","bigType":"生活服务","midType":"彩票彩券销售点","smallType":"彩票彩券销售点","gcj_lng":121.454844,"gcj_lat":31.219003,"wgs84_loc":"121.450266,31.220904","wgs84Lng":121.450266,"wgs84Lat":31.220904,"__source_file__":"02-POI&AOI/1-POI/25.05/CSV/分类/按区县/上海市-徐汇区.csv"},"geometry":{"type":"Point","coordinates":[121.450266,31.220904]}},{"id":"27410","type":"Feature","properties":{"id":"B0FFLA2VQH","name":"江帮五金店","address":"长乐路614弄5号","type":"生活服务;维修站点;维修站点","typecode":"071200","pcode":310000,"pname":"上海市","citycode":21,"cityname":"上海市","adcode":310104,"adname":"徐汇区","business_area":"淮海路","location":"121.454747,31.219004","tel":"[]","bigType":"生活服务","midType":"维修站点","smallType":"维修站点","gcj_lng":121.454747,"gcj_lat":31.219004,"wgs84_loc":"121.450169,31.220905","wgs84Lng":121.450169,"wgs84Lat":31.220905,"__source_file__":"02-POI&AOI/1-POI/25.05/CSV/分类/按区县/上海市-徐汇区.csv"},"geometry":{"type":"Point","coordinates":[121.450169,31.220905]}},{"id":"56859","type":"Feature","properties":{"id":"B0FFIZ5D19","name":"伊洛美甲(长乐店)","address":"长乐路411号","type":"生活服务;美容美发店;美容美发店","typecode":"071100","pcode":310000,"pname":"上海市","citycode":21,"cityname":"上海市","adcode":310104,"adname":"徐汇区","business_area":"淮海路","location":"121.454855,31.219011","tel":"15000987480","bigType":"生活服务","midType":"美容美发店","smallType":"美容美发店","gcj_lng":121.454855,"gcj_lat":31.219011,"wgs84_loc":"121.450277,31.220912","wgs84Lng":121.450277,"wgs84Lat":31.220912,"__source_file__":"02-POI&AOI/1-POI/25.05/CSV/分类/按区县/上海市-徐汇区.csv"},"geometry":{"type":"Point","coordinates":[121.450277,31.220912]}},{"id":"75466","type":"Feature","properties":{"id":"B0KRAS76N6","name":"elevator","address":"湖南街道长乐路411号-2","type":"购物服务;购物相关场所;购物相关场所","typecode":"060000","pcode":310000,"pname":"上海市","citycode":21,"cityname":"上海市","adcode":310104,"adname":"徐汇区","business_area":"淮海路","location":"121.454746,31.219012","tel":"18229842317;19370672813","bigType":"购物服务","midType":"购物相关场所","smallType":"购物相关场所","gcj_lng":121.454746,"gcj_lat":31.219012,"wgs84_loc":"121.450168,31.220913","wgs84Lng":121.450168,"wgs84Lat":31.220913,"__source_file__":"02-POI&AOI/1-POI/25.05/CSV/分类/按区县/上海市-徐汇区.csv"},"geometry":{"type":"Point","coordinates":[121.450168,31.220913]}},{"id":"59139","type":"Feature","properties":{"id":"B0FFL9YVZE","name":"上海王兆茜公寓(3号店)","address":"襄阳北路66弄公房","type":"住宿服务;住宿服务相关;住宿服务相关","typecode":"100000","pcode":310000,"pname":"上海市","citycode":21,"cityname":"上海市","adcode":310104,"adname":"徐汇区","business_area":"淮海路","location":"121.454893,31.219021","tel":"[]","bigType":"住宿服务","midType":"住宿服务相关","smallType":"住宿服务相关","gcj_lng":121.454893,"gcj_lat":31.219021,"wgs84_loc":"121.450315,31.220922","wgs84Lng":121.450315,"wgs84Lat":31.220922,"__source_file__":"02-POI&AOI/1-POI/25.05/CSV/分类/按区县/上海市-徐汇区.csv"},"geometry":{"type":"Point","coordinates":[121.450315,31.220922]}},{"id":"59216","type":"Feature","properties":{"id":"B00155ETU5","name":"一品鹅(襄阳北路店)","address":"长乐路409号","type":"餐饮服务;餐饮相关场所;餐饮相关","typecode":"050000","pcode":310000,"pname":"上海市","citycode":21,"cityname":"上海市","adcode":310104,"adname":"徐汇区","business_area":"淮海路","location":"121.454941,31.219074","tel":"021-54037361","bigType":"餐饮服务","midType":"餐饮相关场所","smallType":"餐饮相关","gcj_lng":121.454941,"gcj_lat":31.219074,"wgs84_loc":"121.450363,31.220975","wgs84Lng":121.450363,"wgs84Lat":31.220975,"__source_file__":"02-POI&AOI/1-POI/25.05/CSV/分类/按区县/上海市-徐汇区.csv"},"geometry":{"type":"Point","coordinates":[121.450363,31.220975]}},{"id":"33861","type":"Feature","properties":{"id":"B0FFKPDCF3","name":"手机维修中心","address":"长乐路409号","type":"生活服务;维修站点;维修站点","typecode":"071200","pcode":310000,"pname":"上海市","citycode":21,"cityname":"上海市","adcode":310104,"adname":"徐汇区","business_area":"淮海路","location":"121.454943,31.219140","tel":"[]","bigType":"生活服务","midType":"维修站点","smallType":"维修站点","gcj_lng":121.454943,"gcj_lat":31.21914,"wgs84_loc":"121.450365,31.221041","wgs84Lng":121.450365,"wgs84Lat":31.221041,"__source_file__":"02-POI&AOI/1-POI/25.05/CSV/分类/按区县/上海市-徐汇区.csv"},"geometry":{"type":"Point","coordinates":[121.450365,31.221041]}},{"id":"11181","type":"Feature","properties":{"id":"B0I6CULJ98","name":"RELAX","address":"襄阳北路77号","type":"体育休闲服务;娱乐场所;酒吧","typecode":"080304","pcode":310000,"pname":"上海市","citycode":21,"cityname":"上海市","adcode":310104,"adname":"徐汇区","business_area":"淮海路","location":"121.455193,31.219001","tel":"[]","bigType":"体育休闲服务","midType":"娱乐场所","smallType":"酒吧","gcj_lng":121.455193,"gcj_lat":31.219001,"wgs84_loc":"121.450616,31.220903","wgs84Lng":121.450616,"wgs84Lat":31.220903,"__source_file__":"02-POI&AOI/1-POI/25.05/CSV/分类/按区县/上海市-徐汇区.csv"},"geometry":{"type":"Point","coordinates":[121.450616,31.220903]}},{"id":"63249","type":"Feature","properties":{"id":"B0FFG755RR","name":"襄阳北路66弄公房","address":"襄阳北路66弄","type":"商务住宅;住宅区;住宅小区","typecode":"120302","pcode":310000,"pname":"上海市","citycode":21,"cityname":"上海市","adcode":310104,"adname":"徐汇区","business_area":"淮海路","location":"121.454985,31.219004","tel":"[]","bigType":"商务住宅","midType":"住宅区","smallType":"住宅小区","gcj_lng":121.454985,"gcj_lat":31.219004,"wgs84_loc":"121.450407,31.220905","wgs84Lng":121.450407,"wgs84Lat":31.220905,"__source_file__":"02-POI&AOI/1-POI/25.05/CSV/分类/按区县/上海市-徐汇区.csv"},"geometry":{"type":"Point","coordinates":[121.450407,31.220905]}},{"id":"75149","type":"Feature","properties":{"id":"B0G1Z61E1C","name":"BELONG BAR X NOBO","address":"襄阳北路77号","type":"体育休闲服务;娱乐场所;酒吧","typecode":"080304","pcode":310000,"pname":"上海市","citycode":21,"cityname":"上海市","adcode":310104,"adname":"徐汇区","business_area":"淮海路","location":"121.455130,31.219010","tel":"18516600568","bigType":"体育休闲服务","midType":"娱乐场所","smallType":"酒吧","gcj_lng":121.45513,"gcj_lat":31.21901,"wgs84_loc":"121.450553,31.220911","wgs84Lng":121.450553,"wgs84Lat":31.220911,"__source_file__":"02-POI&AOI/1-POI/25.05/CSV/分类/按区县/上海市-徐汇区.csv"},"geometry":{"type":"Point","coordinates":[121.450553,31.220911]}},{"id":"46143","type":"Feature","properties":{"id":"B0G1TXWQIS","name":"Tap That喝一个","address":"襄阳北路77号","type":"体育休闲服务;娱乐场所;酒吧","typecode":"080304","pcode":310000,"pname":"上海市","citycode":21,"cityname":"上海市","adcode":310104,"adname":"徐汇区","business_area":"淮海路","location":"121.455186,31.219011","tel":"[]","bigType":"体育休闲服务","midType":"娱乐场所","smallType":"酒吧","gcj_lng":121.455186,"gcj_lat":31.219011,"wgs84_loc":"121.450609,31.220913","wgs84Lng":121.450609,"wgs84Lat":31.220913,"__source_file__":"02-POI&AOI/1-POI/25.05/CSV/分类/按区县/上海市-徐汇区.csv"},"geometry":{"type":"Point","coordinates":[121.450609,31.220913]}},{"id":"27500","type":"Feature","properties":{"id":"B00156QBZ5","name":"大大旺特色馄饨(南旺店)","address":"长乐路409号","type":"餐饮服务;中餐厅;中餐厅","typecode":"050100","pcode":310000,"pname":"上海市","citycode":21,"cityname":"上海市","adcode":310104,"adname":"徐汇区","business_area":"淮海路","location":"121.454947,31.219022","tel":"021-54041684","bigType":"餐饮服务","midType":"中餐厅","smallType":"中餐厅","gcj_lng":121.454947,"gcj_lat":31.219022,"wgs84_loc":"121.450369,31.220923","wgs84Lng":121.450369,"wgs84Lat":31.220923,"__source_file__":"02-POI&AOI/1-POI/25.05/CSV/分类/按区县/上海市-徐汇区.csv"},"geometry":{"type":"Point","coordinates":[121.450369,31.220923]}},{"id":"48328","type":"Feature","properties":{"id":"B0FFL83SY6","name":"巨角集团股份有限公司","address":"襄阳北路97号襄阳大楼508室/505A","type":"公司企业;公司;公司","typecode":"170200","pcode":310000,"pname":"上海市","citycode":21,"cityname":"上海市","adcode":310104,"adname":"徐汇区","business_area":"淮海路","location":"121.455207,31.219071","tel":"[]","bigType":"公司企业","midType":"公司","smallType":"公司","gcj_lng":121.455207,"gcj_lat":31.219071,"wgs84_loc":"121.45063,31.220973","wgs84Lng":121.45063,"wgs84Lat":31.220973,"__source_file__":"02-POI&AOI/1-POI/25.05/CSV/分类/按区县/上海市-徐汇区.csv"},"geometry":{"type":"Point","coordinates":[121.45063,31.220973]}},{"id":"22712","type":"Feature","properties":{"id":"B0FFG2J6JJ","name":"联华(长乐路店)","address":"巨鹿路616号","type":"购物服务;超级市场;超市","typecode":"060400","pcode":310000,"pname":"上海市","citycode":21,"cityname":"上海市","adcode":310104,"adname":"徐汇区","business_area":"淮海路","location":"121.455133,31.219122","tel":"13651733473","bigType":"购物服务","midType":"超级市场","smallType":"超市","gcj_lng":121.455133,"gcj_lat":31.219122,"wgs84_loc":"121.450556,31.221023","wgs84Lng":121.450556,"wgs84Lat":31.221023,"__source_file__":"02-POI&AOI/1-POI/25.05/CSV/分类/按区县/上海市-徐汇区.csv"},"geometry":{"type":"Point","coordinates":[121.450556,31.221023]}},{"id":"76836","type":"Feature","properties":{"id":"B0JR0ZRP22","name":"阿不就热炒·台式夜宵排档(魔都首店)","address":"襄阳北路77号走长乐路大门上2层(联华旁)","type":"餐饮服务;中餐厅;中餐厅","typecode":"050100","pcode":310000,"pname":"上海市","citycode":21,"cityname":"上海市","adcode":310104,"adname":"徐汇区","business_area":"淮海路","location":"121.455235,31.219193","tel":"13795205491","bigType":"餐饮服务","midType":"中餐厅","smallType":"中餐厅","gcj_lng":121.455235,"gcj_lat":31.219193,"wgs84_loc":"121.450658,31.221095","wgs84Lng":121.450658,"wgs84Lat":31.221095,"__source_file__":"02-POI&AOI/1-POI/25.05/CSV/分类/按区县/上海市-徐汇区.csv"},"geometry":{"type":"Point","coordinates":[121.450658,31.221095]}},{"id":"56165","type":"Feature","properties":{"id":"B0FFJJ79C7","name":"怪兽充电(杰拉网咖襄阳店)","address":"襄阳北路77号","type":"生活服务;共享设备;充电宝","typecode":"072101","pcode":310000,"pname":"上海市","citycode":21,"cityname":"上海市","adcode":310104,"adname":"徐汇区","business_area":"淮海路","location":"121.455239,31.219212","tel":"[]","bigType":"生活服务","midType":"共享设备","smallType":"充电宝","gcj_lng":121.455239,"gcj_lat":31.219212,"wgs84_loc":"121.450662,31.221114","wgs84Lng":121.450662,"wgs84Lat":31.221114,"__source_file__":"02-POI&AOI/1-POI/25.05/CSV/分类/按区县/上海市-徐汇区.csv"},"geometry":{"type":"Point","coordinates":[121.450662,31.221114]}},{"id":"3624","type":"Feature","properties":{"id":"B0FFJJGDBX","name":"来电(蒲石小点长乐路店)","address":"长乐路339弄18号","type":"生活服务;共享设备;充电宝","typecode":"072101","pcode":310000,"pname":"上海市","citycode":21,"cityname":"上海市","adcode":310104,"adname":"徐汇区","business_area":"淮海路","location":"121.455339,31.219225","tel":"4008845966","bigType":"生活服务","midType":"共享设备","smallType":"充电宝","gcj_lng":121.455339,"gcj_lat":31.219225,"wgs84_loc":"121.450762,31.221127","wgs84Lng":121.450762,"wgs84Lat":31.221127,"__source_file__":"02-POI&AOI/1-POI/25.05/CSV/分类/按区县/上海市-徐汇区.csv"},"geometry":{"type":"Point","coordinates":[121.450762,31.221127]}},{"id":"60075","type":"Feature","properties":{"id":"B0HBLM9CT2","name":"Piggybank美甲美睫","address":"长乐路339弄42号","type":"生活服务;美容美发店;美容美发店","typecode":"071100","pcode":310000,"pname":"上海市","citycode":21,"cityname":"上海市","adcode":310104,"adname":"徐汇区","business_area":"淮海路","location":"121.456201,31.218668","tel":"13671848824","bigType":"生活服务","midType":"美容美发店","smallType":"美容美发店","gcj_lng":121.456201,"gcj_lat":31.218668,"wgs84_loc":"121.451627,31.220572","wgs84Lng":121.451627,"wgs84Lat":31.220572,"__source_file__":"02-POI&AOI/1-POI/25.05/CSV/分类/按区县/上海市-徐汇区.csv"},"geometry":{"type":"Point","coordinates":[121.451627,31.220572]}},{"id":"25781","type":"Feature","properties":{"id":"B0FFHQ7M1D","name":"长乐路339弄40号楼","address":"新乐路长乐路339弄小区","type":"地名地址信息;门牌信息;楼栋号","typecode":"190403","pcode":310000,"pname":"上海市","citycode":21,"cityname":"上海市","adcode":310104,"adname":"徐汇区","business_area":"淮海路","location":"121.456201,31.218715","tel":"[]","bigType":"地名地址信息","midType":"门牌信息","smallType":"楼栋号","gcj_lng":121.456201,"gcj_lat":31.218715,"wgs84_loc":"121.451627,31.220619","wgs84Lng":121.451627,"wgs84Lat":31.220619,"__source_file__":"02-POI&AOI/1-POI/25.05/CSV/分类/按区县/上海市-徐汇区.csv"},"geometry":{"type":"Point","coordinates":[121.451627,31.220619]}},{"id":"37756","type":"Feature","properties":{"id":"B0G03AFBSS","name":"直方图影视工作室","address":"长乐路339弄甲支弄13号","type":"生活服务;生活服务场所;生活服务场所","typecode":"070000","pcode":310000,"pname":"上海市","citycode":21,"cityname":"上海市","adcode":310104,"adname":"徐汇区","business_area":"淮海路","location":"121.455996,31.218858","tel":"18516281098","bigType":"生活服务","midType":"生活服务场所","smallType":"生活服务场所","gcj_lng":121.455996,"gcj_lat":31.218858,"wgs84_loc":"121.451421,31.220761","wgs84Lng":121.451421,"wgs84Lat":31.220761,"__source_file__":"02-POI&AOI/1-POI/25.05/CSV/分类/按区县/上海市-徐汇区.csv"},"geometry":{"type":"Point","coordinates":[121.451421,31.220761]}},{"id":"69242","type":"Feature","properties":{"id":"B0FFIXQ5TG","name":"长乐路339弄34号楼","address":"长乐路长乐路339弄小区","type":"地名地址信息;门牌信息;楼栋号","typecode":"190403","pcode":310000,"pname":"上海市","citycode":21,"cityname":"上海市","adcode":310104,"adname":"徐汇区","business_area":"淮海路","location":"121.456084,31.218944","tel":"[]","bigType":"地名地址信息","midType":"门牌信息","smallType":"楼栋号","gcj_lng":121.456084,"gcj_lat":31.218944,"wgs84_loc":"121.451509,31.220848","wgs84Lng":121.451509,"wgs84Lat":31.220848,"__source_file__":"02-POI&AOI/1-POI/25.05/CSV/分类/按区县/上海市-徐汇区.csv"},"geometry":{"type":"Point","coordinates":[121.451509,31.220848]}},{"id":"8316","type":"Feature","properties":{"id":"B0FFG18BU5","name":"湖南社区社会治安综合治理工作站(长乐路)","address":"长乐路339甲附近","type":"政府机构及社会团体;公检法机构;社会治安机构","typecode":"130506","pcode":310000,"pname":"上海市","citycode":21,"cityname":"上海市","adcode":310104,"adname":"徐汇区","business_area":"淮海路","location":"121.455956,31.218998","tel":"[]","bigType":"政府机构及社会团体","midType":"公检法机构","smallType":"社会治安机构","gcj_lng":121.455956,"gcj_lat":31.218998,"wgs84_loc":"121.451381,31.220901","wgs84Lng":121.451381,"wgs84Lat":31.220901,"__source_file__":"02-POI&AOI/1-POI/25.05/CSV/分类/按区县/上海市-徐汇区.csv"},"geometry":{"type":"Point","coordinates":[121.451381,31.220901]}},{"id":"5229","type":"Feature","properties":{"id":"B00156GRPR","name":"湖南派出所陕新警务工作点","address":"长乐路339甲附近","type":"政府机构及社会团体;公检法机构;社会治安机构","typecode":"130506","pcode":310000,"pname":"上海市","citycode":21,"cityname":"上海市","adcode":310104,"adname":"徐汇区","business_area":"淮海路","location":"121.455956,31.218998","tel":"[]","bigType":"政府机构及社会团体","midType":"公检法机构","smallType":"社会治安机构","gcj_lng":121.455956,"gcj_lat":31.218998,"wgs84_loc":"121.451381,31.220901","wgs84Lng":121.451381,"wgs84Lat":31.220901,"__source_file__":"02-POI&AOI/1-POI/25.05/CSV/分类/按区县/上海市-徐汇区.csv"},"geometry":{"type":"Point","coordinates":[121.451381,31.220901]}},{"id":"5618","type":"Feature","properties":{"id":"B00156EI7E","name":"长乐路339弄小区","address":"长乐路339弄1-44号","type":"商务住宅;住宅区;住宅小区","typecode":"120302","pcode":310000,"pname":"上海市","citycode":21,"cityname":"上海市","adcode":310104,"adname":"徐汇区","business_area":"淮海路","location":"121.455845,31.219003","tel":"[]","bigType":"商务住宅","midType":"住宅区","smallType":"住宅小区","gcj_lng":121.455845,"gcj_lat":31.219003,"wgs84_loc":"121.45127,31.220906","wgs84Lng":121.45127,"wgs84Lat":31.220906,"__source_file__":"02-POI&AOI/1-POI/25.05/CSV/分类/按区县/上海市-徐汇区.csv"},"geometry":{"type":"Point","coordinates":[121.45127,31.220906]}},{"id":"37751","type":"Feature","properties":{"id":"B0G2AN4XRD","name":"照相彩扩","address":"襄阳北路襄阳大楼","type":"生活服务;摄影冲印店;摄影冲印","typecode":"071300","pcode":310000,"pname":"上海市","citycode":21,"cityname":"上海市","adcode":310104,"adname":"徐汇区","business_area":"淮海路","location":"121.455323,31.218867","tel":"[]","bigType":"生活服务","midType":"摄影冲印店","smallType":"摄影冲印","gcj_lng":121.455323,"gcj_lat":31.218867,"wgs84_loc":"121.450746,31.220769","wgs84Lng":121.450746,"wgs84Lat":31.220769,"__source_file__":"02-POI&AOI/1-POI/25.05/CSV/分类/按区县/上海市-徐汇区.csv"},"geometry":{"type":"Point","coordinates":[121.450746,31.220769]}},{"id":"42897","type":"Feature","properties":{"id":"B0HA5HNILM","name":"柯达新世纪数码冲印中心","address":"襄阳北路81号","type":"生活服务;摄影冲印店;摄影冲印","typecode":"071300","pcode":310000,"pname":"上海市","citycode":21,"cityname":"上海市","adcode":310104,"adname":"徐汇区","business_area":"淮海路","location":"121.455299,31.218868","tel":"13621985218","bigType":"生活服务","midType":"摄影冲印店","smallType":"摄影冲印","gcj_lng":121.455299,"gcj_lat":31.218868,"wgs84_loc":"121.450722,31.22077","wgs84Lng":121.450722,"wgs84Lat":31.22077,"__source_file__":"02-POI&AOI/1-POI/25.05/CSV/分类/按区县/上海市-徐汇区.csv"},"geometry":{"type":"Point","coordinates":[121.450722,31.22077]}},{"id":"43604","type":"Feature","properties":{"id":"B001535594","name":"祺家房产(富民路)","address":"襄阳北路97襄阳大楼1层","type":"生活服务;中介机构;中介机构","typecode":"071600","pcode":310000,"pname":"上海市","citycode":21,"cityname":"上海市","adcode":310104,"adname":"徐汇区","business_area":"淮海路","location":"121.455218,31.218872","tel":"021-54040713","bigType":"生活服务","midType":"中介机构","smallType":"中介机构","gcj_lng":121.455218,"gcj_lat":31.218872,"wgs84_loc":"121.450641,31.220774","wgs84Lng":121.450641,"wgs84Lat":31.220774,"__source_file__":"02-POI&AOI/1-POI/25.05/CSV/分类/按区县/上海市-徐汇区.csv"},"geometry":{"type":"Point","coordinates":[121.450641,31.220774]}},{"id":"49956","type":"Feature","properties":{"id":"B0FFIKNSGC","name":"LAUNDRY CO.","address":"襄阳北路93-5号","type":"购物服务;购物相关场所;购物相关场所","typecode":"060000","pcode":310000,"pname":"上海市","citycode":21,"cityname":"上海市","adcode":310104,"adname":"徐汇区","business_area":"淮海路","location":"121.455316,31.218877","tel":"13681898798","bigType":"购物服务","midType":"购物相关场所","smallType":"购物相关场所","gcj_lng":121.455316,"gcj_lat":31.218877,"wgs84_loc":"121.450739,31.220779","wgs84Lng":121.450739,"wgs84Lat":31.220779,"__source_file__":"02-POI&AOI/1-POI/25.05/CSV/分类/按区县/上海市-徐汇区.csv"},"geometry":{"type":"Point","coordinates":[121.450739,31.220779]}},{"id":"37717","type":"Feature","properties":{"id":"B0015456A9","name":"新世纪摄影图片社","address":"襄阳北路81号附近","type":"生活服务;摄影冲印店;摄影冲印","typecode":"071300","pcode":310000,"pname":"上海市","citycode":21,"cityname":"上海市","adcode":310104,"adname":"徐汇区","business_area":"淮海路","location":"121.455275,31.218885","tel":"021-54049753;021-64260625;13621985218","bigType":"生活服务","midType":"摄影冲印店","smallType":"摄影冲印","gcj_lng":121.455275,"gcj_lat":31.218885,"wgs84_loc":"121.450698,31.220787","wgs84Lng":121.450698,"wgs84Lat":31.220787,"__source_file__":"02-POI&AOI/1-POI/25.05/CSV/分类/按区县/上海市-徐汇区.csv"},"geometry":{"type":"Point","coordinates":[121.450698,31.220787]}},{"id":"72360","type":"Feature","properties":{"id":"B0I6JYZPVJ","name":"布鲁计划","address":"襄阳北路与长乐路交叉口东南40米","type":"购物服务;购物相关场所;购物相关场所","typecode":"060000","pcode":310000,"pname":"上海市","citycode":21,"cityname":"上海市","adcode":310104,"adname":"徐汇区","business_area":"淮海路","location":"121.455200,31.218915","tel":"[]","bigType":"购物服务","midType":"购物相关场所","smallType":"购物相关场所","gcj_lng":121.4552,"gcj_lat":31.218915,"wgs84_loc":"121.450623,31.220817","wgs84Lng":121.450623,"wgs84Lat":31.220817,"__source_file__":"02-POI&AOI/1-POI/25.05/CSV/分类/按区县/上海市-徐汇区.csv"},"geometry":{"type":"Point","coordinates":[121.450623,31.220817]}},{"id":"69594","type":"Feature","properties":{"id":"B0FFG39HAZ","name":"永福第一小区(东5门)","address":"长乐路409-2号附近","type":"商务住宅;住宅区;住宅小区","typecode":"120302","pcode":310000,"pname":"上海市","citycode":21,"cityname":"上海市","adcode":310104,"adname":"徐汇区","business_area":"淮海路","location":"121.455030,31.218960","tel":"[]","bigType":"商务住宅","midType":"住宅区","smallType":"住宅小区","gcj_lng":121.45503,"gcj_lat":31.21896,"wgs84_loc":"121.450452,31.220861","wgs84Lng":121.450452,"wgs84Lat":31.220861,"__source_file__":"02-POI&AOI/1-POI/25.05/CSV/分类/按区县/上海市-徐汇区.csv"},"geometry":{"type":"Point","coordinates":[121.450452,31.220861]}},{"id":"23286","type":"Feature","properties":{"id":"B0GRDSEWJA","name":"PLAN B BREWERY&COFFEE","address":"襄阳北路77号(近长乐路)","type":"餐饮服务;咖啡厅;咖啡厅","typecode":"050500","pcode":310000,"pname":"上海市","citycode":21,"cityname":"上海市","adcode":310104,"adname":"徐汇区","business_area":"淮海路","location":"121.455252,31.218987","tel":"13169930656","bigType":"餐饮服务","midType":"咖啡厅","smallType":"咖啡厅","gcj_lng":121.455252,"gcj_lat":31.218987,"wgs84_loc":"121.450675,31.220889","wgs84Lng":121.450675,"wgs84Lat":31.220889,"__source_file__":"02-POI&AOI/1-POI/25.05/CSV/分类/按区县/上海市-徐汇区.csv"},"geometry":{"type":"Point","coordinates":[121.450675,31.220889]}},{"id":"66932","type":"Feature","properties":{"id":"B0FFJD3WTU","name":"上海智传文化传播有限公司","address":"襄阳北路97号506室","type":"科教文化服务;科教文化场所;科教文化场所","typecode":"140000","pcode":310000,"pname":"上海市","citycode":21,"cityname":"上海市","adcode":310104,"adname":"徐汇区","business_area":"淮海路","location":"121.455252,31.218987","tel":"021-51061517","bigType":"科教文化服务","midType":"科教文化场所","smallType":"科教文化场所","gcj_lng":121.455252,"gcj_lat":31.218987,"wgs84_loc":"121.450675,31.220889","wgs84Lng":121.450675,"wgs84Lat":31.220889,"__source_file__":"02-POI&AOI/1-POI/25.05/CSV/分类/按区县/上海市-徐汇区.csv"},"geometry":{"type":"Point","coordinates":[121.450675,31.220889]}},{"id":"11624","type":"Feature","properties":{"id":"B0HDDAAEKX","name":"GUINNESS","address":"襄阳北路长乐路339弄小区","type":"体育休闲服务;娱乐场所;酒吧","typecode":"080304","pcode":310000,"pname":"上海市","citycode":21,"cityname":"上海市","adcode":310104,"adname":"徐汇区","business_area":"淮海路","location":"121.455556,31.218930","tel":"[]","bigType":"体育休闲服务","midType":"娱乐场所","smallType":"酒吧","gcj_lng":121.455556,"gcj_lat":31.21893,"wgs84_loc":"121.45098,31.220832","wgs84Lng":121.45098,"wgs84Lat":31.220832,"__source_file__":"02-POI&AOI/1-POI/25.05/CSV/分类/按区县/上海市-徐汇区.csv"},"geometry":{"type":"Point","coordinates":[121.45098,31.220832]}},{"id":"69726","type":"Feature","properties":{"id":"B0FFJ186A6","name":"长乐路401弄6号楼","address":"长乐路401弄6号(襄阳北路东)","type":"地名地址信息;门牌信息;楼栋号","typecode":"190403","pcode":310000,"pname":"上海市","citycode":21,"cityname":"上海市","adcode":310104,"adname":"徐汇区","business_area":"淮海路","location":"121.455538,31.219045","tel":"[]","bigType":"地名地址信息","midType":"门牌信息","smallType":"楼栋号","gcj_lng":121.455538,"gcj_lat":31.219045,"wgs84_loc":"121.450962,31.220947","wgs84Lng":121.450962,"wgs84Lat":31.220947,"__source_file__":"02-POI&AOI/1-POI/25.05/CSV/分类/按区县/上海市-徐汇区.csv"},"geometry":{"type":"Point","coordinates":[121.450962,31.220947]}},{"id":"45116","type":"Feature","properties":{"id":"B0FFIXRA3N","name":"长乐路401弄5号楼","address":"长乐路长乐路339弄小区","type":"地名地址信息;门牌信息;楼栋号","typecode":"190403","pcode":310000,"pname":"上海市","citycode":21,"cityname":"上海市","adcode":310104,"adname":"徐汇区","business_area":"淮海路","location":"121.455565,31.219045","tel":"[]","bigType":"地名地址信息","midType":"门牌信息","smallType":"楼栋号","gcj_lng":121.455565,"gcj_lat":31.219045,"wgs84_loc":"121.450989,31.220947","wgs84Lng":121.450989,"wgs84Lat":31.220947,"__source_file__":"02-POI&AOI/1-POI/25.05/CSV/分类/按区县/上海市-徐汇区.csv"},"geometry":{"type":"Point","coordinates":[121.450989,31.220947]}},{"id":"57850","type":"Feature","properties":{"id":"B0FFGBBOTK","name":"长乐路339弄甲支弄1-15号","address":"长乐路339弄1-44号","type":"地名地址信息;门牌信息;楼栋号","typecode":"190403","pcode":310000,"pname":"上海市","citycode":21,"cityname":"上海市","adcode":310104,"adname":"徐汇区","business_area":"淮海路","location":"121.455543,31.219133","tel":"[]","bigType":"地名地址信息","midType":"门牌信息","smallType":"楼栋号","gcj_lng":121.455543,"gcj_lat":31.219133,"wgs84_loc":"121.450967,31.221035","wgs84Lng":121.450967,"wgs84Lat":31.221035,"__source_file__":"02-POI&AOI/1-POI/25.05/CSV/分类/按区县/上海市-徐汇区.csv"},"geometry":{"type":"Point","coordinates":[121.450967,31.221035]}},{"id":"11227","type":"Feature","properties":{"id":"B0FFH5GB4L","name":"Revolution","address":"长乐路401弄","type":"体育休闲服务;娱乐场所;酒吧","typecode":"080304","pcode":310000,"pname":"上海市","citycode":21,"cityname":"上海市","adcode":310104,"adname":"徐汇区","business_area":"淮海路","location":"121.455359,31.219243","tel":"[]","bigType":"体育休闲服务","midType":"娱乐场所","smallType":"酒吧","gcj_lng":121.455359,"gcj_lat":31.219243,"wgs84_loc":"121.450782,31.221145","wgs84Lng":121.450782,"wgs84Lat":31.221145,"__source_file__":"02-POI&AOI/1-POI/25.05/CSV/分类/按区县/上海市-徐汇区.csv"},"geometry":{"type":"Point","coordinates":[121.450782,31.221145]}},{"id":"28554","type":"Feature","properties":{"id":"B0FFM7EJUR","name":"28 aout","address":"长乐路339弄18号","type":"餐饮服务;糕饼店;糕饼店","typecode":"050800","pcode":310000,"pname":"上海市","citycode":21,"cityname":"上海市","adcode":310104,"adname":"徐汇区","business_area":"淮海路","location":"121.455393,31.219267","tel":"19512129828","bigType":"餐饮服务","midType":"糕饼店","smallType":"糕饼店","gcj_lng":121.455393,"gcj_lat":31.219267,"wgs84_loc":"121.450816,31.221169","wgs84Lng":121.450816,"wgs84Lat":31.221169,"__source_file__":"02-POI&AOI/1-POI/25.05/CSV/分类/按区县/上海市-徐汇区.csv"},"geometry":{"type":"Point","coordinates":[121.450816,31.221169]}},{"id":"18021","type":"Feature","properties":{"id":"B0H02HEJPW","name":"极点造型","address":"长乐路339弄16号沿街商铺","type":"生活服务;美容美发店;美容美发店","typecode":"071100","pcode":310000,"pname":"上海市","citycode":21,"cityname":"上海市","adcode":310104,"adname":"徐汇区","business_area":"淮海路","location":"121.455387,31.219356","tel":"[]","bigType":"生活服务","midType":"美容美发店","smallType":"美容美发店","gcj_lng":121.455387,"gcj_lat":31.219356,"wgs84_loc":"121.45081,31.221258","wgs84Lng":121.45081,"wgs84Lat":31.221258,"__source_file__":"02-POI&AOI/1-POI/25.05/CSV/分类/按区县/上海市-徐汇区.csv"},"geometry":{"type":"Point","coordinates":[121.45081,31.221258]}},{"id":"43915","type":"Feature","properties":{"id":"B0G2OLIHXH","name":"启顺地产","address":"长乐路339弄14-1号","type":"生活服务;中介机构;中介机构","typecode":"071600","pcode":310000,"pname":"上海市","citycode":21,"cityname":"上海市","adcode":310104,"adname":"徐汇区","business_area":"淮海路","location":"121.455471,31.219402","tel":"15921936087","bigType":"生活服务","midType":"中介机构","smallType":"中介机构","gcj_lng":121.455471,"gcj_lat":31.219402,"wgs84_loc":"121.450895,31.221304","wgs84Lng":121.450895,"wgs84Lat":31.221304,"__source_file__":"02-POI&AOI/1-POI/25.05/CSV/分类/按区县/上海市-徐汇区.csv"},"geometry":{"type":"Point","coordinates":[121.450895,31.221304]}},{"id":"25785","type":"Feature","properties":{"id":"B0FFFOV2PD","name":"长乐路339甲支弄4号楼","address":"襄阳北路长乐路339弄小区","type":"地名地址信息;门牌信息;楼栋号","typecode":"190403","pcode":310000,"pname":"上海市","citycode":21,"cityname":"上海市","adcode":310104,"adname":"徐汇区","business_area":"淮海路","location":"121.455690,31.219019","tel":"[]","bigType":"地名地址信息","midType":"门牌信息","smallType":"楼栋号","gcj_lng":121.45569,"gcj_lat":31.219019,"wgs84_loc":"121.451114,31.220922","wgs84Lng":121.451114,"wgs84Lat":31.220922,"__source_file__":"02-POI&AOI/1-POI/25.05/CSV/分类/按区县/上海市-徐汇区.csv"},"geometry":{"type":"Point","coordinates":[121.451114,31.220922]}},{"id":"53996","type":"Feature","properties":{"id":"B0FFIXRQUM","name":"长乐路339弄33号楼","address":"长乐路长乐路339弄小区","type":"地名地址信息;门牌信息;楼栋号","typecode":"190403","pcode":310000,"pname":"上海市","citycode":21,"cityname":"上海市","adcode":310104,"adname":"徐汇区","business_area":"淮海路","location":"121.456021,31.219059","tel":"[]","bigType":"地名地址信息","midType":"门牌信息","smallType":"楼栋号","gcj_lng":121.456021,"gcj_lat":31.219059,"wgs84_loc":"121.451446,31.220962","wgs84Lng":121.451446,"wgs84Lat":31.220962,"__source_file__":"02-POI&AOI/1-POI/25.05/CSV/分类/按区县/上海市-徐汇区.csv"},"geometry":{"type":"Point","coordinates":[121.451446,31.220962]}},{"id":"54392","type":"Feature","properties":{"id":"B0FFIXQKF9","name":"长乐路339弄23号楼","address":"长乐路长乐路339弄小区","type":"地名地址信息;门牌信息;楼栋号","typecode":"190403","pcode":310000,"pname":"上海市","citycode":21,"cityname":"上海市","adcode":310104,"adname":"徐汇区","business_area":"淮海路","location":"121.456021,31.219059","tel":"[]","bigType":"地名地址信息","midType":"门牌信息","smallType":"楼栋号","gcj_lng":121.456021,"gcj_lat":31.219059,"wgs84_loc":"121.451446,31.220962","wgs84Lng":121.451446,"wgs84Lat":31.220962,"__source_file__":"02-POI&AOI/1-POI/25.05/CSV/分类/按区县/上海市-徐汇区.csv"},"geometry":{"type":"Point","coordinates":[121.451446,31.220962]}},{"id":"62496","type":"Feature","properties":{"id":"B0FFIXRK6L","name":"长乐路339弄28号楼","address":"长乐路长乐路339弄小区","type":"地名地址信息;门牌信息;楼栋号","typecode":"190403","pcode":310000,"pname":"上海市","citycode":21,"cityname":"上海市","adcode":310104,"adname":"徐汇区","business_area":"淮海路","location":"121.456021,31.219059","tel":"[]","bigType":"地名地址信息","midType":"门牌信息","smallType":"楼栋号","gcj_lng":121.456021,"gcj_lat":31.219059,"wgs84_loc":"121.451446,31.220962","wgs84Lng":121.451446,"wgs84Lat":31.220962,"__source_file__":"02-POI&AOI/1-POI/25.05/CSV/分类/按区县/上海市-徐汇区.csv"},"geometry":{"type":"Point","coordinates":[121.451446,31.220962]}},{"id":"67014","type":"Feature","properties":{"id":"B0FFFOWU2D","name":"长乐路339甲支弄29号楼","address":"长乐路长乐路339弄小区","type":"地名地址信息;门牌信息;楼栋号","typecode":"190403","pcode":310000,"pname":"上海市","citycode":21,"cityname":"上海市","adcode":310104,"adname":"徐汇区","business_area":"淮海路","location":"121.455968,31.219067","tel":"[]","bigType":"地名地址信息","midType":"门牌信息","smallType":"楼栋号","gcj_lng":121.455968,"gcj_lat":31.219067,"wgs84_loc":"121.451393,31.22097","wgs84Lng":121.451393,"wgs84Lat":31.22097,"__source_file__":"02-POI&AOI/1-POI/25.05/CSV/分类/按区县/上海市-徐汇区.csv"},"geometry":{"type":"Point","coordinates":[121.451393,31.22097]}},{"id":"12676","type":"Feature","properties":{"id":"B00156GSBN","name":"陕新居委会","address":"长乐路339弄甲支弄12号","type":"政府机构及社会团体;政府机关;乡镇以下级政府及事业单位","typecode":"130106","pcode":310000,"pname":"上海市","citycode":21,"cityname":"上海市","adcode":310104,"adname":"徐汇区","business_area":"淮海路","location":"121.455921,31.219072","tel":"021-54048404","bigType":"政府机构及社会团体","midType":"政府机关","smallType":"乡镇以下级政府及事业单位","gcj_lng":121.455921,"gcj_lat":31.219072,"wgs84_loc":"121.451346,31.220975","wgs84Lng":121.451346,"wgs84Lat":31.220975,"__source_file__":"02-POI&AOI/1-POI/25.05/CSV/分类/按区县/上海市-徐汇区.csv"},"geometry":{"type":"Point","coordinates":[121.451346,31.220975]}},{"id":"308","type":"Feature","properties":{"id":"B0FFH18AYR","name":"陕新社区","address":"徐汇区","type":"地名地址信息;普通地名;村庄级地名","typecode":"190108","pcode":310000,"pname":"上海市","citycode":21,"cityname":"上海市","adcode":310104,"adname":"徐汇区","business_area":"淮海路","location":"121.455941,31.219104","tel":"[]","bigType":"地名地址信息","midType":"普通地名","smallType":"村庄级地名","gcj_lng":121.455941,"gcj_lat":31.219104,"wgs84_loc":"121.451366,31.221007","wgs84Lng":121.451366,"wgs84Lat":31.221007,"__source_file__":"02-POI&AOI/1-POI/25.05/CSV/分类/按区县/上海市-徐汇区.csv"},"geometry":{"type":"Point","coordinates":[121.451366,31.221007]}},{"id":"58488","type":"Feature","properties":{"id":"B0FFFP5U7R","name":"长乐路339甲支弄12号楼","address":"长乐路长乐路339弄小区","type":"地名地址信息;门牌信息;楼栋号","typecode":"190403","pcode":310000,"pname":"上海市","citycode":21,"cityname":"上海市","adcode":310104,"adname":"徐汇区","business_area":"淮海路","location":"121.455860,31.219142","tel":"[]","bigType":"地名地址信息","midType":"门牌信息","smallType":"楼栋号","gcj_lng":121.45586,"gcj_lat":31.219142,"wgs84_loc":"121.451285,31.221045","wgs84Lng":121.451285,"wgs84Lat":31.221045,"__source_file__":"02-POI&AOI/1-POI/25.05/CSV/分类/按区县/上海市-徐汇区.csv"},"geometry":{"type":"Point","coordinates":[121.451285,31.221045]}},{"id":"58739","type":"Feature","properties":{"id":"B0FFIXQMHI","name":"长乐路339弄19号楼","address":"长乐路长乐路339弄小区东北侧约30米","type":"地名地址信息;门牌信息;楼栋号","typecode":"190403","pcode":310000,"pname":"上海市","citycode":21,"cityname":"上海市","adcode":310104,"adname":"徐汇区","business_area":"淮海路","location":"121.455732,31.219168","tel":"[]","bigType":"地名地址信息","midType":"门牌信息","smallType":"楼栋号","gcj_lng":121.455732,"gcj_lat":31.219168,"wgs84_loc":"121.451156,31.221071","wgs84Lng":121.451156,"wgs84Lat":31.221071,"__source_file__":"02-POI&AOI/1-POI/25.05/CSV/分类/按区县/上海市-徐汇区.csv"},"geometry":{"type":"Point","coordinates":[121.451156,31.221071]}},{"id":"64390","type":"Feature","properties":{"id":"B0FFIXQ5NB","name":"长乐路339弄24号楼","address":"长乐路长乐路339弄小区","type":"地名地址信息;门牌信息;楼栋号","typecode":"190403","pcode":310000,"pname":"上海市","citycode":21,"cityname":"上海市","adcode":310104,"adname":"徐汇区","business_area":"淮海路","location":"121.455732,31.219168","tel":"[]","bigType":"地名地址信息","midType":"门牌信息","smallType":"楼栋号","gcj_lng":121.455732,"gcj_lat":31.219168,"wgs84_loc":"121.451156,31.221071","wgs84Lng":121.451156,"wgs84Lat":31.221071,"__source_file__":"02-POI&AOI/1-POI/25.05/CSV/分类/按区县/上海市-徐汇区.csv"},"geometry":{"type":"Point","coordinates":[121.451156,31.221071]}},{"id":"38912","type":"Feature","properties":{"id":"B0FFH2EM98","name":"兄弟烤吧","address":"湖南路街道襄阳大楼长乐路339弄小区","type":"餐饮服务;中餐厅;中餐厅","typecode":"050100","pcode":310000,"pname":"上海市","citycode":21,"cityname":"上海市","adcode":310104,"adname":"徐汇区","business_area":"淮海路","location":"121.455301,31.219289","tel":"13564448281","bigType":"餐饮服务","midType":"中餐厅","smallType":"中餐厅","gcj_lng":121.455301,"gcj_lat":31.219289,"wgs84_loc":"121.450724,31.221191","wgs84Lng":121.450724,"wgs84Lat":31.221191,"__source_file__":"02-POI&AOI/1-POI/25.05/CSV/分类/按区县/上海市-徐汇区.csv"},"geometry":{"type":"Point","coordinates":[121.450724,31.221191]}},{"id":"49525","type":"Feature","properties":{"id":"B0FFK16WRH","name":"来电(POKE POKE长乐路店)","address":"长乐路339弄18号","type":"生活服务;共享设备;充电宝","typecode":"072101","pcode":310000,"pname":"上海市","citycode":21,"cityname":"上海市","adcode":310104,"adname":"徐汇区","business_area":"淮海路","location":"121.455330,31.219296","tel":"4008845966","bigType":"生活服务","midType":"共享设备","smallType":"充电宝","gcj_lng":121.45533,"gcj_lat":31.219296,"wgs84_loc":"121.450753,31.221198","wgs84Lng":121.450753,"wgs84Lat":31.221198,"__source_file__":"02-POI&AOI/1-POI/25.05/CSV/分类/按区县/上海市-徐汇区.csv"},"geometry":{"type":"Point","coordinates":[121.450753,31.221198]}},{"id":"67881","type":"Feature","properties":{"id":"B0FFI1ZTNN","name":"WONCE SKIN CARE皮肤管理中心","address":"新乐路与陕西南路交叉口西140米","type":"生活服务;美容美发店;美容美发店","typecode":"071100","pcode":310000,"pname":"上海市","citycode":21,"cityname":"上海市","adcode":310104,"adname":"徐汇区","business_area":"淮海路","location":"121.456886,31.219078","tel":"15021777781","bigType":"生活服务","midType":"美容美发店","smallType":"美容美发店","gcj_lng":121.456886,"gcj_lat":31.219078,"wgs84_loc":"121.452313,31.220983","wgs84Lng":121.452313,"wgs84Lat":31.220983,"__source_file__":"02-POI&AOI/1-POI/25.05/CSV/分类/按区县/上海市-徐汇区.csv"},"geometry":{"type":"Point","coordinates":[121.452313,31.220983]}},{"id":"5955","type":"Feature","properties":{"id":"B00155M0K3","name":"陕西南路186弄小区","address":"陕西南路186弄1-20号","type":"商务住宅;住宅区;住宅小区","typecode":"120302","pcode":310000,"pname":"上海市","citycode":21,"cityname":"上海市","adcode":310104,"adname":"徐汇区","business_area":"淮海路","location":"121.457086,31.21913","tel":"[]","bigType":"商务住宅","midType":"住宅区","smallType":"住宅小区","gcj_lng":121.457086,"gcj_lat":31.21913,"wgs84_loc":"121.452514,31.221036","wgs84Lng":121.452514,"wgs84Lat":31.221036,"__source_file__":"02-POI&AOI/1-POI/25.05/CSV/分类/按区县/上海市-徐汇区.csv"},"geometry":{"type":"Point","coordinates":[121.452514,31.221036]}},{"id":"29229","type":"Feature","properties":{"id":"B0FFLNHXSB","name":"DVA Boutique SPA(花园店)","address":"陕西南路186弄11号侧门","type":"生活服务;洗浴推拿场所;洗浴推拿场所","typecode":"071400","pcode":310000,"pname":"上海市","citycode":21,"cityname":"上海市","adcode":310104,"adname":"徐汇区","business_area":"淮海路","location":"121.457016,31.219164","tel":"021-54657007","bigType":"生活服务","midType":"洗浴推拿场所","smallType":"洗浴推拿场所","gcj_lng":121.457016,"gcj_lat":31.219164,"wgs84_loc":"121.452444,31.22107","wgs84Lng":121.452444,"wgs84Lat":31.22107,"__source_file__":"02-POI&AOI/1-POI/25.05/CSV/分类/按区县/上海市-徐汇区.csv"},"geometry":{"type":"Point","coordinates":[121.452444,31.22107]}},{"id":"4358","type":"Feature","properties":{"id":"B0FFLMX75Q","name":"上海扣肉民宿(陕西南路分店)","address":"陕西南路186弄小区","type":"住宿服务;住宿服务相关;住宿服务相关","typecode":"100000","pcode":310000,"pname":"上海市","citycode":21,"cityname":"上海市","adcode":310104,"adname":"徐汇区","business_area":"淮海路","location":"121.457102,31.219198","tel":"[]","bigType":"住宿服务","midType":"住宿服务相关","smallType":"住宿服务相关","gcj_lng":121.457102,"gcj_lat":31.219198,"wgs84_loc":"121.45253,31.221104","wgs84Lng":121.45253,"wgs84Lat":31.221104,"__source_file__":"02-POI&AOI/1-POI/25.05/CSV/分类/按区县/上海市-徐汇区.csv"},"geometry":{"type":"Point","coordinates":[121.45253,31.221104]}},{"id":"30771","type":"Feature","properties":{"id":"B0FFGCHK4K","name":"停车场(陕西南路186弄小区西)","address":"进贤路长乐路460弄小区西侧","type":"交通设施服务;停车场;公共停车场","typecode":"150904","pcode":310000,"pname":"上海市","citycode":21,"cityname":"上海市","adcode":310104,"adname":"徐汇区","business_area":"淮海路","location":"121.457032,31.219202","tel":"[]","bigType":"交通设施服务","midType":"停车场","smallType":"公共停车场","gcj_lng":121.457032,"gcj_lat":31.219202,"wgs84_loc":"121.45246,31.221108","wgs84Lng":121.45246,"wgs84Lat":31.221108,"__source_file__":"02-POI&AOI/1-POI/25.05/CSV/分类/按区县/上海市-徐汇区.csv"},"geometry":{"type":"Point","coordinates":[121.45246,31.221108]}},{"id":"76632","type":"Feature","properties":{"id":"B0IKXBMYUX","name":"管家小S度假别墅(陕西南路分店)","address":"陕西南路186弄小区(陕西南路地铁站2号口步行390米)","type":"住宿服务;住宿服务相关;住宿服务相关","typecode":"100000","pcode":310000,"pname":"上海市","citycode":21,"cityname":"上海市","adcode":310104,"adname":"徐汇区","business_area":"淮海路","location":"121.457109,31.219207","tel":"+861056320612,14494523;010-56320606,14494523","bigType":"住宿服务","midType":"住宿服务相关","smallType":"住宿服务相关","gcj_lng":121.457109,"gcj_lat":31.219207,"wgs84_loc":"121.452537,31.221113","wgs84Lng":121.452537,"wgs84Lat":31.221113,"__source_file__":"02-POI&AOI/1-POI/25.05/CSV/分类/按区县/上海市-徐汇区.csv"},"geometry":{"type":"Point","coordinates":[121.452537,31.221113]}},{"id":"25647","type":"Feature","properties":{"id":"B0FFKZUW01","name":"长乐路339弄44号楼","address":"长乐路413附近","type":"地名地址信息;门牌信息;楼栋号","typecode":"190403","pcode":310000,"pname":"上海市","citycode":21,"cityname":"上海市","adcode":310104,"adname":"徐汇区","business_area":"淮海路","location":"121.456210,31.219278","tel":"[]","bigType":"地名地址信息","midType":"门牌信息","smallType":"楼栋号","gcj_lng":121.45621,"gcj_lat":31.219278,"wgs84_loc":"121.451636,31.221182","wgs84Lng":121.451636,"wgs84Lat":31.221182,"__source_file__":"02-POI&AOI/1-POI/25.05/CSV/分类/按区县/上海市-徐汇区.csv"},"geometry":{"type":"Point","coordinates":[121.451636,31.221182]}},{"id":"35180","type":"Feature","properties":{"id":"B0HR35DUTL","name":"有快递广告Yokuaidi","address":"陕西南路180弄1号A","type":"公司企业;公司;广告装饰","typecode":"170201","pcode":310000,"pname":"上海市","citycode":21,"cityname":"上海市","adcode":310104,"adname":"徐汇区","business_area":"淮海路","location":"121.457346,31.219396","tel":"13917867655","bigType":"公司企业","midType":"公司","smallType":"广告装饰","gcj_lng":121.457346,"gcj_lat":31.219396,"wgs84_loc":"121.452775,31.221302","wgs84Lng":121.452775,"wgs84Lat":31.221302,"__source_file__":"02-POI&AOI/1-POI/25.05/CSV/分类/按区县/上海市-徐汇区.csv"},"geometry":{"type":"Point","coordinates":[121.452775,31.221302]}},{"id":"56223","type":"Feature","properties":{"id":"B0FFIXQIBP","name":"长乐路339弄7号楼","address":"上海市第一妇婴保健院(西院)南","type":"地名地址信息;门牌信息;楼栋号","typecode":"190403","pcode":310000,"pname":"上海市","citycode":21,"cityname":"上海市","adcode":310104,"adname":"徐汇区","business_area":"淮海路","location":"121.456218,31.219510","tel":"[]","bigType":"地名地址信息","midType":"门牌信息","smallType":"楼栋号","gcj_lng":121.456218,"gcj_lat":31.21951,"wgs84_loc":"121.451644,31.221414","wgs84Lng":121.451644,"wgs84Lat":31.221414,"__source_file__":"02-POI&AOI/1-POI/25.05/CSV/分类/按区县/上海市-徐汇区.csv"},"geometry":{"type":"Point","coordinates":[121.451644,31.221414]}},{"id":"11752","type":"Feature","properties":{"id":"B0FFKV1FZ0","name":"上海温暖团聚民宿(华亭路分店)","address":"陕西南路186弄小区-东门","type":"住宿服务;住宿服务相关;住宿服务相关","typecode":"100000","pcode":310000,"pname":"上海市","citycode":21,"cityname":"上海市","adcode":310104,"adname":"徐汇区","business_area":"淮海路","location":"121.457231,31.219509","tel":"15221661461;+862126137886,79670#","bigType":"住宿服务","midType":"住宿服务相关","smallType":"住宿服务相关","gcj_lng":121.457231,"gcj_lat":31.219509,"wgs84_loc":"121.452659,31.221415","wgs84Lng":121.452659,"wgs84Lat":31.221415,"__source_file__":"02-POI&AOI/1-POI/25.05/CSV/分类/按区县/上海市-徐汇区.csv"},"geometry":{"type":"Point","coordinates":[121.452659,31.221415]}},{"id":"44955","type":"Feature","properties":{"id":"B0FFIXRKR7","name":"长乐路339弄26号楼","address":"长乐路长乐路339弄小区","type":"地名地址信息;门牌信息;楼栋号","typecode":"190403","pcode":310000,"pname":"上海市","citycode":21,"cityname":"上海市","adcode":310104,"adname":"徐汇区","business_area":"淮海路","location":"121.455732,31.219168","tel":"[]","bigType":"地名地址信息","midType":"门牌信息","smallType":"楼栋号","gcj_lng":121.455732,"gcj_lat":31.219168,"wgs84_loc":"121.451156,31.221071","wgs84Lng":121.451156,"wgs84Lat":31.221071,"__source_file__":"02-POI&AOI/1-POI/25.05/CSV/分类/按区县/上海市-徐汇区.csv"},"geometry":{"type":"Point","coordinates":[121.451156,31.221071]}},{"id":"47381","type":"Feature","properties":{"id":"B0FFIXQTLG","name":"长乐路339弄25号楼","address":"长乐路长乐路339弄小区","type":"地名地址信息;门牌信息;楼栋号","typecode":"190403","pcode":310000,"pname":"上海市","citycode":21,"cityname":"上海市","adcode":310104,"adname":"徐汇区","business_area":"淮海路","location":"121.455732,31.219168","tel":"[]","bigType":"地名地址信息","midType":"门牌信息","smallType":"楼栋号","gcj_lng":121.455732,"gcj_lat":31.219168,"wgs84_loc":"121.451156,31.221071","wgs84Lng":121.451156,"wgs84Lat":31.221071,"__source_file__":"02-POI&AOI/1-POI/25.05/CSV/分类/按区县/上海市-徐汇区.csv"},"geometry":{"type":"Point","coordinates":[121.451156,31.221071]}},{"id":"45581","type":"Feature","properties":{"id":"B0FFIXRULL","name":"长乐路339弄22号楼","address":"长乐路长乐路339弄小区","type":"地名地址信息;门牌信息;楼栋号","typecode":"190403","pcode":310000,"pname":"上海市","citycode":21,"cityname":"上海市","adcode":310104,"adname":"徐汇区","business_area":"淮海路","location":"121.455843,31.219296","tel":"[]","bigType":"地名地址信息","midType":"门牌信息","smallType":"楼栋号","gcj_lng":121.455843,"gcj_lat":31.219296,"wgs84_loc":"121.451268,31.221199","wgs84Lng":121.451268,"wgs84Lat":31.221199,"__source_file__":"02-POI&AOI/1-POI/25.05/CSV/分类/按区县/上海市-徐汇区.csv"},"geometry":{"type":"Point","coordinates":[121.451268,31.221199]}},{"id":"68279","type":"Feature","properties":{"id":"B0FFIXS41I","name":"长乐路339弄20号楼","address":"长乐路长乐路339弄小区","type":"地名地址信息;门牌信息;楼栋号","typecode":"190403","pcode":310000,"pname":"上海市","citycode":21,"cityname":"上海市","adcode":310104,"adname":"徐汇区","business_area":"淮海路","location":"121.455842,31.219381","tel":"[]","bigType":"地名地址信息","midType":"门牌信息","smallType":"楼栋号","gcj_lng":121.455842,"gcj_lat":31.219381,"wgs84_loc":"121.451267,31.221284","wgs84Lng":121.451267,"wgs84Lat":31.221284,"__source_file__":"02-POI&AOI/1-POI/25.05/CSV/分类/按区县/上海市-徐汇区.csv"},"geometry":{"type":"Point","coordinates":[121.451267,31.221284]}},{"id":"48224","type":"Feature","properties":{"id":"B0FFFTTXS4","name":"Baron J","address":"长乐路339弄6号1楼","type":"购物服务;服装鞋帽皮具店;服装鞋帽皮具店","typecode":"061100","pcode":310000,"pname":"上海市","citycode":21,"cityname":"上海市","adcode":310104,"adname":"徐汇区","business_area":"淮海路","location":"121.455987,31.219445","tel":"021-34230388","bigType":"购物服务","midType":"服装鞋帽皮具店","smallType":"服装鞋帽皮具店","gcj_lng":121.455987,"gcj_lat":31.219445,"wgs84_loc":"121.451412,31.221348","wgs84Lng":121.451412,"wgs84Lat":31.221348,"__source_file__":"02-POI&AOI/1-POI/25.05/CSV/分类/按区县/上海市-徐汇区.csv"},"geometry":{"type":"Point","coordinates":[121.451412,31.221348]}},{"id":"48820","type":"Feature","properties":{"id":"B0FFIXRG71","name":"长乐路339弄8号楼","address":"长乐路长乐路339弄小区","type":"地名地址信息;门牌信息;楼栋号","typecode":"190403","pcode":310000,"pname":"上海市","citycode":21,"cityname":"上海市","adcode":310104,"adname":"徐汇区","business_area":"淮海路","location":"121.455807,31.219458","tel":"[]","bigType":"地名地址信息","midType":"门牌信息","smallType":"楼栋号","gcj_lng":121.455807,"gcj_lat":31.219458,"wgs84_loc":"121.451231,31.221361","wgs84Lng":121.451231,"wgs84Lat":31.221361,"__source_file__":"02-POI&AOI/1-POI/25.05/CSV/分类/按区县/上海市-徐汇区.csv"},"geometry":{"type":"Point","coordinates":[121.451231,31.221361]}},{"id":"70921","type":"Feature","properties":{"id":"B0FFIXQLSJ","name":"长乐路339弄9号楼","address":"长乐路长乐路339弄小区","type":"地名地址信息;门牌信息;楼栋号","typecode":"190403","pcode":310000,"pname":"上海市","citycode":21,"cityname":"上海市","adcode":310104,"adname":"徐汇区","business_area":"淮海路","location":"121.455798,31.219465","tel":"[]","bigType":"地名地址信息","midType":"门牌信息","smallType":"楼栋号","gcj_lng":121.455798,"gcj_lat":31.219465,"wgs84_loc":"121.451222,31.221368","wgs84Lng":121.451222,"wgs84Lat":31.221368,"__source_file__":"02-POI&AOI/1-POI/25.05/CSV/分类/按区县/上海市-徐汇区.csv"},"geometry":{"type":"Point","coordinates":[121.451222,31.221368]}},{"id":"51201","type":"Feature","properties":{"id":"B0FFFPCOMH","name":"长乐路339号1-44号","address":"长乐路339弄1-44号","type":"地名地址信息;门牌信息;楼栋号","typecode":"190403","pcode":310000,"pname":"上海市","citycode":21,"cityname":"上海市","adcode":310104,"adname":"徐汇区","business_area":"淮海路","location":"121.455826,31.219571","tel":"[]","bigType":"地名地址信息","midType":"门牌信息","smallType":"楼栋号","gcj_lng":121.455826,"gcj_lat":31.219571,"wgs84_loc":"121.45125,31.221474","wgs84Lng":121.45125,"wgs84Lat":31.221474,"__source_file__":"02-POI&AOI/1-POI/25.05/CSV/分类/按区县/上海市-徐汇区.csv"},"geometry":{"type":"Point","coordinates":[121.45125,31.221474]}},{"id":"21891","type":"Feature","properties":{"id":"B0FFIXR9QV","name":"长乐路339弄44号","address":"长乐路297号附近","type":"地名地址信息;门牌信息;道路门牌","typecode":"190402","pcode":310000,"pname":"上海市","citycode":21,"cityname":"上海市","adcode":310104,"adname":"徐汇区","business_area":"淮海路","location":"121.455864,31.219618","tel":"[]","bigType":"地名地址信息","midType":"门牌信息","smallType":"道路门牌","gcj_lng":121.455864,"gcj_lat":31.219618,"wgs84_loc":"121.451289,31.221521","wgs84Lng":121.451289,"wgs84Lat":31.221521,"__source_file__":"02-POI&AOI/1-POI/25.05/CSV/分类/按区县/上海市-徐汇区.csv"},"geometry":{"type":"Point","coordinates":[121.451289,31.221521]}},{"id":"284","type":"Feature","properties":{"id":"B00155LALD","name":"上海唐君远教育基金会","address":"长乐路339弄甲支弄9号","type":"政府机构及社会团体;社会团体;慈善机构","typecode":"130408","pcode":310000,"pname":"上海市","citycode":21,"cityname":"上海市","adcode":310104,"adname":"徐汇区","business_area":"淮海路","location":"121.455951,31.219638","tel":"021-54049788","bigType":"政府机构及社会团体","midType":"社会团体","smallType":"慈善机构","gcj_lng":121.455951,"gcj_lat":31.219638,"wgs84_loc":"121.451376,31.221541","wgs84Lng":121.451376,"wgs84Lat":31.221541,"__source_file__":"02-POI&AOI/1-POI/25.05/CSV/分类/按区县/上海市-徐汇区.csv"},"geometry":{"type":"Point","coordinates":[121.451376,31.221541]}},{"id":"53102","type":"Feature","properties":{"id":"B0GKYAI1EA","name":"乐缇依","address":"长乐路长乐路339弄小区","type":"购物服务;服装鞋帽皮具店;服装鞋帽皮具店","typecode":"061100","pcode":310000,"pname":"上海市","citycode":21,"cityname":"上海市","adcode":310104,"adname":"徐汇区","business_area":"淮海路","location":"121.455552,31.219453","tel":"[]","bigType":"购物服务","midType":"服装鞋帽皮具店","smallType":"服装鞋帽皮具店","gcj_lng":121.455552,"gcj_lat":31.219453,"wgs84_loc":"121.450976,31.221355","wgs84Lng":121.450976,"wgs84Lat":31.221355,"__source_file__":"02-POI&AOI/1-POI/25.05/CSV/分类/按区县/上海市-徐汇区.csv"},"geometry":{"type":"Point","coordinates":[121.450976,31.221355]}},{"id":"58323","type":"Feature","properties":{"id":"B0FFK6V9KW","name":"aiIIa","address":"长乐路339弄12-1临附近","type":"购物服务;专卖店;专营店","typecode":"061200","pcode":310000,"pname":"上海市","citycode":21,"cityname":"上海市","adcode":310104,"adname":"徐汇区","business_area":"淮海路","location":"121.455547,31.219462","tel":"[]","bigType":"购物服务","midType":"专卖店","smallType":"专营店","gcj_lng":121.455547,"gcj_lat":31.219462,"wgs84_loc":"121.450971,31.221364","wgs84Lng":121.450971,"wgs84Lat":31.221364,"__source_file__":"02-POI&AOI/1-POI/25.05/CSV/分类/按区县/上海市-徐汇区.csv"},"geometry":{"type":"Point","coordinates":[121.450971,31.221364]}},{"id":"72268","type":"Feature","properties":{"id":"B0I6JY055B","name":"长乐邻里汇","address":"长乐路与襄阳北路交叉口东100米","type":"购物服务;购物相关场所;购物相关场所","typecode":"060000","pcode":310000,"pname":"上海市","citycode":21,"cityname":"上海市","adcode":310104,"adname":"徐汇区","business_area":"淮海路","location":"121.456018,31.219667","tel":"[]","bigType":"购物服务","midType":"购物相关场所","smallType":"购物相关场所","gcj_lng":121.456018,"gcj_lat":31.219667,"wgs84_loc":"121.451443,31.22157","wgs84Lng":121.451443,"wgs84Lat":31.22157,"__source_file__":"02-POI&AOI/1-POI/25.05/CSV/分类/按区县/上海市-徐汇区.csv"},"geometry":{"type":"Point","coordinates":[121.451443,31.22157]}},{"id":"16722","type":"Feature","properties":{"id":"B00156EHEL","name":"长乐路339弄小区(北门)","address":"长乐路339弄1-44号","type":"通行设施;临街院门;临街院正门","typecode":"991401","pcode":310000,"pname":"上海市","citycode":21,"cityname":"上海市","adcode":310104,"adname":"徐汇区","business_area":"淮海路","location":"121.455976,31.219686","tel":"[]","bigType":"通行设施","midType":"临街院门","smallType":"临街院正门","gcj_lng":121.455976,"gcj_lat":31.219686,"wgs84_loc":"121.451401,31.221589","wgs84Lng":121.451401,"wgs84Lat":31.221589,"__source_file__":"02-POI&AOI/1-POI/25.05/CSV/分类/按区县/上海市-徐汇区.csv"},"geometry":{"type":"Point","coordinates":[121.451401,31.221589]}},{"id":"71301","type":"Feature","properties":{"id":"B0H0BR1UVU","name":"Mona SS","address":"陕西南路永嘉第一小区西侧(陕西南路地铁站2号口步行200米)","type":"购物服务;专卖店;专营店","typecode":"061200","pcode":310000,"pname":"上海市","citycode":21,"cityname":"上海市","adcode":310104,"adname":"徐汇区","business_area":"淮海路","location":"121.458158,31.218409","tel":"[]","bigType":"购物服务","midType":"专卖店","smallType":"专营店","gcj_lng":121.458158,"gcj_lat":31.218409,"wgs84_loc":"121.453589,31.220318","wgs84Lng":121.453589,"wgs84Lat":31.220318,"__source_file__":"02-POI&AOI/1-POI/25.05/CSV/分类/按区县/上海市-徐汇区.csv"},"geometry":{"type":"Point","coordinates":[121.453589,31.220318]}},{"id":"54699","type":"Feature","properties":{"id":"B0G02Y1H4W","name":"Lynn(陕西南路店)","address":"陕西南路204号","type":"购物服务;服装鞋帽皮具店;服装鞋帽皮具店","typecode":"061100","pcode":310000,"pname":"上海市","citycode":21,"cityname":"上海市","adcode":310104,"adname":"徐汇区","business_area":"淮海路","location":"121.458011,31.218443","tel":"[]","bigType":"购物服务","midType":"服装鞋帽皮具店","smallType":"服装鞋帽皮具店","gcj_lng":121.458011,"gcj_lat":31.218443,"wgs84_loc":"121.453442,31.220351","wgs84Lng":121.453442,"wgs84Lat":31.220351,"__source_file__":"02-POI&AOI/1-POI/25.05/CSV/分类/按区县/上海市-徐汇区.csv"},"geometry":{"type":"Point","coordinates":[121.453442,31.220351]}},{"id":"74111","type":"Feature","properties":{"id":"B0FFGWPHL5","name":"JoJo玖玖美甲美睫","address":"陕西南路208号二楼(陕西南路地铁站2号口步行210米)","type":"生活服务;美容美发店;美容美发店","typecode":"071100","pcode":310000,"pname":"上海市","citycode":21,"cityname":"上海市","adcode":310104,"adname":"徐汇区","business_area":"淮海路","location":"121.458235,31.218443","tel":"18201987959","bigType":"生活服务","midType":"美容美发店","smallType":"美容美发店","gcj_lng":121.458235,"gcj_lat":31.218443,"wgs84_loc":"121.453666,31.220352","wgs84Lng":121.453666,"wgs84Lat":31.220352,"__source_file__":"02-POI&AOI/1-POI/25.05/CSV/分类/按区县/上海市-徐汇区.csv"},"geometry":{"type":"Point","coordinates":[121.453666,31.220352]}},{"id":"25399","type":"Feature","properties":{"id":"B0FFI8HERV","name":"新乐路与陕西南路交叉口","address":"徐汇区","type":"地名地址信息;交通地名;路口名","typecode":"190302","pcode":310000,"pname":"上海市","citycode":21,"cityname":"上海市","adcode":310104,"adname":"徐汇区","business_area":"淮海路","location":"121.458246,31.218532","tel":"[]","bigType":"地名地址信息","midType":"交通地名","smallType":"路口名","gcj_lng":121.458246,"gcj_lat":31.218532,"wgs84_loc":"121.453677,31.220441","wgs84Lng":121.453677,"wgs84Lat":31.220441,"__source_file__":"02-POI&AOI/1-POI/25.05/CSV/分类/按区县/上海市-徐汇区.csv"},"geometry":{"type":"Point","coordinates":[121.453677,31.220441]}},{"id":"34833","type":"Feature","properties":{"id":"B00154VD8Y","name":"上海市教育评估协会","address":"陕西南路202号","type":"政府机构及社会团体;社会团体;行业协会","typecode":"130407","pcode":310000,"pname":"上海市","citycode":21,"cityname":"上海市","adcode":310104,"adname":"徐汇区","business_area":"淮海路","location":"121.458119,31.218573","tel":"[]","bigType":"政府机构及社会团体","midType":"社会团体","smallType":"行业协会","gcj_lng":121.458119,"gcj_lat":31.218573,"wgs84_loc":"121.45355,31.220481","wgs84Lng":121.45355,"wgs84Lat":31.220481,"__source_file__":"02-POI&AOI/1-POI/25.05/CSV/分类/按区县/上海市-徐汇区.csv"},"geometry":{"type":"Point","coordinates":[121.45355,31.220481]}},{"id":"33358","type":"Feature","properties":{"id":"B0G02Y2H65","name":"衣都锦","address":"陕西南路192号","type":"购物服务;服装鞋帽皮具店;服装鞋帽皮具店","typecode":"061100","pcode":310000,"pname":"上海市","citycode":21,"cityname":"上海市","adcode":310104,"adname":"徐汇区","business_area":"淮海路","location":"121.457990,31.218805","tel":"13601804019","bigType":"购物服务","midType":"服装鞋帽皮具店","smallType":"服装鞋帽皮具店","gcj_lng":121.45799,"gcj_lat":31.218805,"wgs84_loc":"121.45342,31.220713","wgs84Lng":121.45342,"wgs84Lat":31.220713,"__source_file__":"02-POI&AOI/1-POI/25.05/CSV/分类/按区县/上海市-徐汇区.csv"},"geometry":{"type":"Point","coordinates":[121.45342,31.220713]}},{"id":"39354","type":"Feature","properties":{"id":"B0H3FS9J8Z","name":"王婆杂货铺","address":"陕西南路192号二层","type":"购物服务;购物相关场所;购物相关场所","typecode":"060000","pcode":310000,"pname":"上海市","citycode":21,"cityname":"上海市","adcode":310104,"adname":"徐汇区","business_area":"淮海路","location":"121.458020,31.218852","tel":"[]","bigType":"购物服务","midType":"购物相关场所","smallType":"购物相关场所","gcj_lng":121.45802,"gcj_lat":31.218852,"wgs84_loc":"121.453451,31.22076","wgs84Lng":121.453451,"wgs84Lat":31.22076,"__source_file__":"02-POI&AOI/1-POI/25.05/CSV/分类/按区县/上海市-徐汇区.csv"},"geometry":{"type":"Point","coordinates":[121.453451,31.22076]}},{"id":"17696","type":"Feature","properties":{"id":"B0FFK6TA6T","name":"阿稳通讯","address":"陕西南路上海教育评估院","type":"购物服务;家电电子卖场;手机销售","typecode":"060305","pcode":310000,"pname":"上海市","citycode":21,"cityname":"上海市","adcode":310104,"adname":"徐汇区","business_area":"淮海路","location":"121.458032,31.218940","tel":"[]","bigType":"购物服务","midType":"家电电子卖场","smallType":"手机销售","gcj_lng":121.458032,"gcj_lat":31.21894,"wgs84_loc":"121.453463,31.220848","wgs84Lng":121.453463,"wgs84Lat":31.220848,"__source_file__":"02-POI&AOI/1-POI/25.05/CSV/分类/按区县/上海市-徐汇区.csv"},"geometry":{"type":"Point","coordinates":[121.453463,31.220848]}},{"id":"26778","type":"Feature","properties":{"id":"B0FFK270YK","name":"长乐村(西南1门)","address":"陕西南路85-2号附近","type":"通行设施;临街院门;临街院门","typecode":"991400","pcode":310000,"pname":"上海市","citycode":21,"cityname":"上海市","adcode":310104,"adname":"徐汇区","business_area":"淮海路","location":"121.458079,31.219005","tel":"[]","bigType":"通行设施","midType":"临街院门","smallType":"临街院门","gcj_lng":121.458079,"gcj_lat":31.219005,"wgs84_loc":"121.45351,31.220913","wgs84Lng":121.45351,"wgs84Lat":31.220913,"__source_file__":"02-POI&AOI/1-POI/25.05/CSV/分类/按区县/上海市-徐汇区.csv"},"geometry":{"type":"Point","coordinates":[121.45351,31.220913]}},{"id":"46346","type":"Feature","properties":{"id":"B0FFFYG9RW","name":"米多多","address":"陕西南路39弄58-1号","type":"购物服务;服装鞋帽皮具店;服装鞋帽皮具店","typecode":"061100","pcode":310000,"pname":"上海市","citycode":21,"cityname":"上海市","adcode":310104,"adname":"徐汇区","business_area":"淮海路","location":"121.458057,31.219280","tel":"15921471531","bigType":"购物服务","midType":"服装鞋帽皮具店","smallType":"服装鞋帽皮具店","gcj_lng":121.458057,"gcj_lat":31.21928,"wgs84_loc":"121.453488,31.221188","wgs84Lng":121.453488,"wgs84Lat":31.221188,"__source_file__":"02-POI&AOI/1-POI/25.05/CSV/分类/按区县/上海市-徐汇区.csv"},"geometry":{"type":"Point","coordinates":[121.453488,31.221188]}},{"id":"20211","type":"Feature","properties":{"id":"B001512AF3","name":"上海教育评估院","address":"陕西南路202号","type":"政府机构及社会团体;公检法机构;公证鉴定机构","typecode":"130505","pcode":310000,"pname":"上海市","citycode":21,"cityname":"上海市","adcode":310104,"adname":"徐汇区","business_area":"淮海路","location":"121.457755,31.218651","tel":"021-54032941","bigType":"政府机构及社会团体","midType":"公检法机构","smallType":"公证鉴定机构","gcj_lng":121.457755,"gcj_lat":31.218651,"wgs84_loc":"121.453185,31.220558","wgs84Lng":121.453185,"wgs84Lat":31.220558,"__source_file__":"02-POI&AOI/1-POI/25.05/CSV/分类/按区县/上海市-徐汇区.csv"},"geometry":{"type":"Point","coordinates":[121.453185,31.220558]}},{"id":"31182","type":"Feature","properties":{"id":"B0HA99BM5S","name":"弄堂小吃","address":"陕西南路188弄3号","type":"餐饮服务;快餐厅;快餐厅","typecode":"050300","pcode":310000,"pname":"上海市","citycode":21,"cityname":"上海市","adcode":310104,"adname":"徐汇区","business_area":"淮海路","location":"121.457812,31.218731","tel":"13917360651;17321291836","bigType":"餐饮服务","midType":"快餐厅","smallType":"快餐厅","gcj_lng":121.457812,"gcj_lat":31.218731,"wgs84_loc":"121.453242,31.220639","wgs84Lng":121.453242,"wgs84Lat":31.220639,"__source_file__":"02-POI&AOI/1-POI/25.05/CSV/分类/按区县/上海市-徐汇区.csv"},"geometry":{"type":"Point","coordinates":[121.453242,31.220639]}},{"id":"16322","type":"Feature","properties":{"id":"B0FFHHU4G2","name":"上海教育评估院(东北门)","address":"陕西南路202号","type":"通行设施;临街院门;临街院门","typecode":"991400","pcode":310000,"pname":"上海市","citycode":21,"cityname":"上海市","adcode":310104,"adname":"徐汇区","business_area":"淮海路","location":"121.457896,31.218784","tel":"[]","bigType":"通行设施","midType":"临街院门","smallType":"临街院门","gcj_lng":121.457896,"gcj_lat":31.218784,"wgs84_loc":"121.453326,31.220692","wgs84Lng":121.453326,"wgs84Lat":31.220692,"__source_file__":"02-POI&AOI/1-POI/25.05/CSV/分类/按区县/上海市-徐汇区.csv"},"geometry":{"type":"Point","coordinates":[121.453326,31.220692]}},{"id":"75516","type":"Feature","properties":{"id":"B0I19AS11P","name":"TOPVTG中古奢侈品回收店(陕西南路店)","address":"陕西南路192号2层(地铁站2口步行250米)","type":"生活服务;生活服务场所;生活服务场所","typecode":"070000","pcode":310000,"pname":"上海市","citycode":21,"cityname":"上海市","adcode":310104,"adname":"徐汇区","business_area":"淮海路","location":"121.457928,31.218825","tel":"17621546888","bigType":"生活服务","midType":"生活服务场所","smallType":"生活服务场所","gcj_lng":121.457928,"gcj_lat":31.218825,"wgs84_loc":"121.453358,31.220733","wgs84Lng":121.453358,"wgs84Lat":31.220733,"__source_file__":"02-POI&AOI/1-POI/25.05/CSV/分类/按区县/上海市-徐汇区.csv"},"geometry":{"type":"Point","coordinates":[121.453358,31.220733]}},{"id":"29232","type":"Feature","properties":{"id":"B0FFKFTLZ3","name":"喜鞋SNEAKER SPA(陕西南路店)","address":"陕西南路192-3号","type":"生活服务;生活服务场所;生活服务场所","typecode":"070000","pcode":310000,"pname":"上海市","citycode":21,"cityname":"上海市","adcode":310104,"adname":"徐汇区","business_area":"淮海路","location":"121.457910,31.218871","tel":"15601653810","bigType":"生活服务","midType":"生活服务场所","smallType":"生活服务场所","gcj_lng":121.45791,"gcj_lat":31.218871,"wgs84_loc":"121.45334,31.220779","wgs84Lng":121.45334,"wgs84Lat":31.220779,"__source_file__":"02-POI&AOI/1-POI/25.05/CSV/分类/按区县/上海市-徐汇区.csv"},"geometry":{"type":"Point","coordinates":[121.45334,31.220779]}},{"id":"46128","type":"Feature","properties":{"id":"B0FFL7B9PE","name":"Hello女神美甲美睫","address":"陕西南路186弄8号102室","type":"生活服务;美容美发店;美容美发店","typecode":"071100","pcode":310000,"pname":"上海市","citycode":21,"cityname":"上海市","adcode":310104,"adname":"徐汇区","business_area":"淮海路","location":"121.457525,31.218981","tel":"13661613358","bigType":"生活服务","midType":"美容美发店","smallType":"美容美发店","gcj_lng":121.457525,"gcj_lat":31.218981,"wgs84_loc":"121.452954,31.220888","wgs84Lng":121.452954,"wgs84Lat":31.220888,"__source_file__":"02-POI&AOI/1-POI/25.05/CSV/分类/按区县/上海市-徐汇区.csv"},"geometry":{"type":"Point","coordinates":[121.452954,31.220888]}},{"id":"47491","type":"Feature","properties":{"id":"B0FFHET378","name":"Carrie·嘉丽加皮肤管理中心(淮海路店)","address":"陕西南路186弄8号(近淮海路环贸广场)","type":"生活服务;美容美发店;美容美发店","typecode":"071100","pcode":310000,"pname":"上海市","citycode":21,"cityname":"上海市","adcode":310104,"adname":"徐汇区","business_area":"淮海路","location":"121.457527,31.218985","tel":"13917975315;18221447498","bigType":"生活服务","midType":"美容美发店","smallType":"美容美发店","gcj_lng":121.457527,"gcj_lat":31.218985,"wgs84_loc":"121.452956,31.220892","wgs84Lng":121.452956,"wgs84Lat":31.220892,"__source_file__":"02-POI&AOI/1-POI/25.05/CSV/分类/按区县/上海市-徐汇区.csv"},"geometry":{"type":"Point","coordinates":[121.452956,31.220892]}},{"id":"66861","type":"Feature","properties":{"id":"B0FFIQCZC6","name":"陕西南路188弄","address":"徐汇区","type":"地名地址信息;地名地址信息;地名地址信息","typecode":"190000","pcode":310000,"pname":"上海市","citycode":21,"cityname":"上海市","adcode":310104,"adname":"徐汇区","business_area":"淮海路","location":"121.457801,31.219061","tel":"[]","bigType":"地名地址信息","midType":"地名地址信息","smallType":"地名地址信息","gcj_lng":121.457801,"gcj_lat":31.219061,"wgs84_loc":"121.453231,31.220968","wgs84Lng":121.453231,"wgs84Lat":31.220968,"__source_file__":"02-POI&AOI/1-POI/25.05/CSV/分类/按区县/上海市-徐汇区.csv"},"geometry":{"type":"Point","coordinates":[121.453231,31.220968]}},{"id":"4778","type":"Feature","properties":{"id":"B0FFKRYEUV","name":"上海Mr.张生公寓(陕西南路分店)","address":"陕西南路490号","type":"住宿服务;住宿服务相关;住宿服务相关","typecode":"100000","pcode":310000,"pname":"上海市","citycode":21,"cityname":"上海市","adcode":310104,"adname":"徐汇区","business_area":"淮海路","location":"121.457767,31.219124","tel":"15577662402;+862126137886,67698#","bigType":"住宿服务","midType":"住宿服务相关","smallType":"住宿服务相关","gcj_lng":121.457767,"gcj_lat":31.219124,"wgs84_loc":"121.453197,31.221031","wgs84Lng":121.453197,"wgs84Lat":31.221031,"__source_file__":"02-POI&AOI/1-POI/25.05/CSV/分类/按区县/上海市-徐汇区.csv"},"geometry":{"type":"Point","coordinates":[121.453197,31.221031]}},{"id":"69743","type":"Feature","properties":{"id":"B0FFI7RXLS","name":"乌托邦刺青","address":"陕西南路188弄1号2层","type":"生活服务;美容美发店;美容美发店","typecode":"071100","pcode":310000,"pname":"上海市","citycode":21,"cityname":"上海市","adcode":310104,"adname":"徐汇区","business_area":"淮海路","location":"121.457898,31.219147","tel":"021-33685519","bigType":"生活服务","midType":"美容美发店","smallType":"美容美发店","gcj_lng":121.457898,"gcj_lat":31.219147,"wgs84_loc":"121.453328,31.221055","wgs84Lng":121.453328,"wgs84Lat":31.221055,"__source_file__":"02-POI&AOI/1-POI/25.05/CSV/分类/按区县/上海市-徐汇区.csv"},"geometry":{"type":"Point","coordinates":[121.453328,31.221055]}},{"id":"27464","type":"Feature","properties":{"id":"B0FFK6VNV9","name":"Thru Coffee起时咖啡","address":"陕西南路186弄小区内第一家","type":"餐饮服务;咖啡厅;咖啡厅","typecode":"050500","pcode":310000,"pname":"上海市","citycode":21,"cityname":"上海市","adcode":310104,"adname":"徐汇区","business_area":"淮海路","location":"121.457751,31.219166","tel":"18857788606","bigType":"餐饮服务","midType":"咖啡厅","smallType":"咖啡厅","gcj_lng":121.457751,"gcj_lat":31.219166,"wgs84_loc":"121.453181,31.221073","wgs84Lng":121.453181,"wgs84Lat":31.221073,"__source_file__":"02-POI&AOI/1-POI/25.05/CSV/分类/按区县/上海市-徐汇区.csv"},"geometry":{"type":"Point","coordinates":[121.453181,31.221073]}},{"id":"55819","type":"Feature","properties":{"id":"B0FFLLASFJ","name":"怪兽充电(WaitandSee起时咖啡)","address":"陕西南路186弄小区内第一家","type":"生活服务;共享设备;充电宝","typecode":"072101","pcode":310000,"pname":"上海市","citycode":21,"cityname":"上海市","adcode":310104,"adname":"徐汇区","business_area":"淮海路","location":"121.457776,31.219185","tel":"[]","bigType":"生活服务","midType":"共享设备","smallType":"充电宝","gcj_lng":121.457776,"gcj_lat":31.219185,"wgs84_loc":"121.453206,31.221092","wgs84Lng":121.453206,"wgs84Lat":31.221092,"__source_file__":"02-POI&AOI/1-POI/25.05/CSV/分类/按区县/上海市-徐汇区.csv"},"geometry":{"type":"Point","coordinates":[121.453206,31.221092]}},{"id":"16801","type":"Feature","properties":{"id":"B00155M0K0","name":"陕西南路186弄小区(东北1门)","address":"陕西南路186弄1-20号","type":"通行设施;临街院门;临街院正门","typecode":"991401","pcode":310000,"pname":"上海市","citycode":21,"cityname":"上海市","adcode":310104,"adname":"徐汇区","business_area":"淮海路","location":"121.457824,31.219271","tel":"[]","bigType":"通行设施","midType":"临街院门","smallType":"临街院正门","gcj_lng":121.457824,"gcj_lat":31.219271,"wgs84_loc":"121.453254,31.221178","wgs84Lng":121.453254,"wgs84Lat":31.221178,"__source_file__":"02-POI&AOI/1-POI/25.05/CSV/分类/按区县/上海市-徐汇区.csv"},"geometry":{"type":"Point","coordinates":[121.453254,31.221178]}},{"id":"20567","type":"Feature","properties":{"id":"B0HDSU6IA6","name":"陕西南路186弄小区停车场","address":"上海市徐汇区陕西南路186弄-1-20号","type":"交通设施服务;停车场;专用停车场","typecode":"150905","pcode":310000,"pname":"上海市","citycode":21,"cityname":"上海市","adcode":310104,"adname":"徐汇区","business_area":"淮海路","location":"121.457673,31.219280","tel":"[]","bigType":"交通设施服务","midType":"停车场","smallType":"专用停车场","gcj_lng":121.457673,"gcj_lat":31.21928,"wgs84_loc":"121.453103,31.221187","wgs84Lng":121.453103,"wgs84Lat":31.221187,"__source_file__":"02-POI&AOI/1-POI/25.05/CSV/分类/按区县/上海市-徐汇区.csv"},"geometry":{"type":"Point","coordinates":[121.453103,31.221187]}},{"id":"76337","type":"Feature","properties":{"id":"B0KKZZTH9U","name":"Horizon地平线婚礼日记","address":"陕西南路186弄3号2层","type":"生活服务;摄影冲印店;摄影冲印","typecode":"071300","pcode":310000,"pname":"上海市","citycode":21,"cityname":"上海市","adcode":310104,"adname":"徐汇区","business_area":"淮海路","location":"121.457830,31.219318","tel":"13681776454","bigType":"生活服务","midType":"摄影冲印店","smallType":"摄影冲印","gcj_lng":121.45783,"gcj_lat":31.219318,"wgs84_loc":"121.45326,31.221225","wgs84Lng":121.45326,"wgs84Lat":31.221225,"__source_file__":"02-POI&AOI/1-POI/25.05/CSV/分类/按区县/上海市-徐汇区.csv"},"geometry":{"type":"Point","coordinates":[121.45326,31.221225]}},{"id":"71338","type":"Feature","properties":{"id":"B0FFIYU1I7","name":"LE BOUDOIR闺乐小众婚纱买手店","address":"陕西南路186弄3号2层(环贸商圈)","type":"购物服务;专卖店;专营店","typecode":"061200","pcode":310000,"pname":"上海市","citycode":21,"cityname":"上海市","adcode":310104,"adname":"徐汇区","business_area":"淮海路","location":"121.457620,31.219371","tel":"13651660741;13817866448","bigType":"购物服务","midType":"专卖店","smallType":"专营店","gcj_lng":121.45762,"gcj_lat":31.219371,"wgs84_loc":"121.453049,31.221278","wgs84Lng":121.453049,"wgs84Lat":31.221278,"__source_file__":"02-POI&AOI/1-POI/25.05/CSV/分类/按区县/上海市-徐汇区.csv"},"geometry":{"type":"Point","coordinates":[121.453049,31.221278]}},{"id":"2190","type":"Feature","properties":{"id":"B0FFLN73PU","name":"怪兽充电(初见茶舍)","address":"陕西南路186弄4号1层","type":"生活服务;共享设备;充电宝","typecode":"072101","pcode":310000,"pname":"上海市","citycode":21,"cityname":"上海市","adcode":310104,"adname":"徐汇区","business_area":"淮海路","location":"121.457438,31.219467","tel":"[]","bigType":"生活服务","midType":"共享设备","smallType":"充电宝","gcj_lng":121.457438,"gcj_lat":31.219467,"wgs84_loc":"121.452867,31.221373","wgs84Lng":121.452867,"wgs84Lat":31.221373,"__source_file__":"02-POI&AOI/1-POI/25.05/CSV/分类/按区县/上海市-徐汇区.csv"},"geometry":{"type":"Point","coordinates":[121.452867,31.221373]}},{"id":"76510","type":"Feature","properties":{"id":"B0FFG0YNYJ","name":"1点点(陕西南路店)","address":"陕西南路186弄1号(陕西南路地铁站10号口步行360米)","type":"餐饮服务;冷饮店;冷饮店","typecode":"050700","pcode":310000,"pname":"上海市","citycode":21,"cityname":"上海市","adcode":310104,"adname":"徐汇区","business_area":"淮海路","location":"121.457759,31.219468","tel":"021-64327189;19921878894","bigType":"餐饮服务","midType":"冷饮店","smallType":"冷饮店","gcj_lng":121.457759,"gcj_lat":31.219468,"wgs84_loc":"121.453189,31.221375","wgs84Lng":121.453189,"wgs84Lat":31.221375,"__source_file__":"02-POI&AOI/1-POI/25.05/CSV/分类/按区县/上海市-徐汇区.csv"},"geometry":{"type":"Point","coordinates":[121.453189,31.221375]}},{"id":"60072","type":"Feature","properties":{"id":"B0G3GZTP1H","name":"中国联通(陕西南路店)","address":"陕西南路陕西南路186弄小区","type":"购物服务;家电电子卖场;手机销售","typecode":"060305","pcode":310000,"pname":"上海市","citycode":21,"cityname":"上海市","adcode":310104,"adname":"徐汇区","business_area":"淮海路","location":"121.457740,31.219541","tel":"18721617513","bigType":"购物服务","midType":"家电电子卖场","smallType":"手机销售","gcj_lng":121.45774,"gcj_lat":31.219541,"wgs84_loc":"121.45317,31.221448","wgs84Lng":121.45317,"wgs84Lat":31.221448,"__source_file__":"02-POI&AOI/1-POI/25.05/CSV/分类/按区县/上海市-徐汇区.csv"},"geometry":{"type":"Point","coordinates":[121.45317,31.221448]}},{"id":"75512","type":"Feature","properties":{"id":"B0KB25J8Z2","name":"手机维修中心","address":"陕西南路180号(陕西南路地铁站10号口步行390米)","type":"生活服务;维修站点;维修站点","typecode":"071200","pcode":310000,"pname":"上海市","citycode":21,"cityname":"上海市","adcode":310104,"adname":"徐汇区","business_area":"淮海路","location":"121.457752,31.219547","tel":"[]","bigType":"生活服务","midType":"维修站点","smallType":"维修站点","gcj_lng":121.457752,"gcj_lat":31.219547,"wgs84_loc":"121.453182,31.221454","wgs84Lng":121.453182,"wgs84Lat":31.221454,"__source_file__":"02-POI&AOI/1-POI/25.05/CSV/分类/按区县/上海市-徐汇区.csv"},"geometry":{"type":"Point","coordinates":[121.453182,31.221454]}},{"id":"56066","type":"Feature","properties":{"id":"B0FFIXR03M","name":"长乐路339弄6号","address":"长乐路长乐路339弄小区东北侧约30米","type":"地名地址信息;门牌信息;楼栋号","typecode":"190403","pcode":310000,"pname":"上海市","citycode":21,"cityname":"上海市","adcode":310104,"adname":"徐汇区","business_area":"淮海路","location":"121.456326,31.219527","tel":"[]","bigType":"地名地址信息","midType":"门牌信息","smallType":"楼栋号","gcj_lng":121.456326,"gcj_lat":31.219527,"wgs84_loc":"121.451752,31.221431","wgs84Lng":121.451752,"wgs84Lat":31.221431,"__source_file__":"02-POI&AOI/1-POI/25.05/CSV/分类/按区县/上海市-徐汇区.csv"},"geometry":{"type":"Point","coordinates":[121.451752,31.221431]}},{"id":"69206","type":"Feature","properties":{"id":"B0G3AMCK2O","name":"简龄空间美容工作室","address":"陕西南路186弄7号101室","type":"生活服务;美容美发店;美容美发店","typecode":"071100","pcode":310000,"pname":"上海市","citycode":21,"cityname":"上海市","adcode":310104,"adname":"徐汇区","business_area":"淮海路","location":"121.457379,31.219590","tel":"[]","bigType":"生活服务","midType":"美容美发店","smallType":"美容美发店","gcj_lng":121.457379,"gcj_lat":31.21959,"wgs84_loc":"121.452808,31.221496","wgs84Lng":121.452808,"wgs84Lat":31.221496,"__source_file__":"02-POI&AOI/1-POI/25.05/CSV/分类/按区县/上海市-徐汇区.csv"},"geometry":{"type":"Point","coordinates":[121.452808,31.221496]}},{"id":"35589","type":"Feature","properties":{"id":"B0FFGFJGJY","name":"长乐路331号洋房","address":"长乐路331号","type":"商务住宅;住宅区;住宅区","typecode":"120300","pcode":310000,"pname":"上海市","citycode":21,"cityname":"上海市","adcode":310104,"adname":"徐汇区","business_area":"淮海路","location":"121.456782,31.219634","tel":"[]","bigType":"商务住宅","midType":"住宅区","smallType":"住宅区","gcj_lng":121.456782,"gcj_lat":31.219634,"wgs84_loc":"121.452209,31.221539","wgs84Lng":121.452209,"wgs84Lat":31.221539,"__source_file__":"02-POI&AOI/1-POI/25.05/CSV/分类/按区县/上海市-徐汇区.csv"},"geometry":{"type":"Point","coordinates":[121.452209,31.221539]}},{"id":"34262","type":"Feature","properties":{"id":"B0GUO745NB","name":"瑜伽孕产静心","address":"长乐路331附近","type":"体育休闲服务;运动场馆;健身中心","typecode":"080111","pcode":310000,"pname":"上海市","citycode":21,"cityname":"上海市","adcode":310104,"adname":"徐汇区","business_area":"淮海路","location":"121.456889,31.219782","tel":"[]","bigType":"体育休闲服务","midType":"运动场馆","smallType":"健身中心","gcj_lng":121.456889,"gcj_lat":31.219782,"wgs84_loc":"121.452316,31.221687","wgs84Lng":121.452316,"wgs84Lat":31.221687,"__source_file__":"02-POI&AOI/1-POI/25.05/CSV/分类/按区县/上海市-徐汇区.csv"},"geometry":{"type":"Point","coordinates":[121.452316,31.221687]}},{"id":"34247","type":"Feature","properties":{"id":"B0FFK6DQOM","name":"长乐小院瑜伽329","address":"长乐路329号2楼(一妇婴西院对面,陕西南路)","type":"体育休闲服务;运动场馆;健身中心","typecode":"080111","pcode":310000,"pname":"上海市","citycode":21,"cityname":"上海市","adcode":310104,"adname":"徐汇区","business_area":"淮海路","location":"121.456850,31.219876","tel":"[]","bigType":"体育休闲服务","midType":"运动场馆","smallType":"健身中心","gcj_lng":121.45685,"gcj_lat":31.219876,"wgs84_loc":"121.452277,31.221781","wgs84Lng":121.452277,"wgs84Lat":31.221781,"__source_file__":"02-POI&AOI/1-POI/25.05/CSV/分类/按区县/上海市-徐汇区.csv"},"geometry":{"type":"Point","coordinates":[121.452277,31.221781]}},{"id":"75514","type":"Feature","properties":{"id":"B0I3KZ6U47","name":"礼品回收","address":"长乐路329号小区","type":"生活服务;生活服务场所;生活服务场所","typecode":"070000","pcode":310000,"pname":"上海市","citycode":21,"cityname":"上海市","adcode":310104,"adname":"徐汇区","business_area":"淮海路","location":"121.456891,31.219901","tel":"13370275315","bigType":"生活服务","midType":"生活服务场所","smallType":"生活服务场所","gcj_lng":121.456891,"gcj_lat":31.219901,"wgs84_loc":"121.452318,31.221806","wgs84Lng":121.452318,"wgs84Lat":31.221806,"__source_file__":"02-POI&AOI/1-POI/25.05/CSV/分类/按区县/上海市-徐汇区.csv"},"geometry":{"type":"Point","coordinates":[121.452318,31.221806]}},{"id":"55400","type":"Feature","properties":{"id":"B0GKHR39XV","name":"奢护手艺人","address":"长乐路长乐路339弄小区东北侧约100米","type":"生活服务;生活服务场所;生活服务场所","typecode":"070000","pcode":310000,"pname":"上海市","citycode":21,"cityname":"上海市","adcode":310104,"adname":"徐汇区","business_area":"淮海路","location":"121.456875,31.219905","tel":"[]","bigType":"生活服务","midType":"生活服务场所","smallType":"生活服务场所","gcj_lng":121.456875,"gcj_lat":31.219905,"wgs84_loc":"121.452302,31.22181","wgs84Lng":121.452302,"wgs84Lat":31.22181,"__source_file__":"02-POI&AOI/1-POI/25.05/CSV/分类/按区县/上海市-徐汇区.csv"},"geometry":{"type":"Point","coordinates":[121.452302,31.22181]}},{"id":"33601","type":"Feature","properties":{"id":"B0FFGILWBL","name":"秀衣外贸服装店","address":"长乐路327号","type":"购物服务;服装鞋帽皮具店;服装鞋帽皮具店","typecode":"061100","pcode":310000,"pname":"上海市","citycode":21,"cityname":"上海市","adcode":310104,"adname":"徐汇区","business_area":"淮海路","location":"121.457147,31.219925","tel":"13671718130","bigType":"购物服务","midType":"服装鞋帽皮具店","smallType":"服装鞋帽皮具店","gcj_lng":121.457147,"gcj_lat":31.219925,"wgs84_loc":"121.452575,31.22183","wgs84Lng":121.452575,"wgs84Lat":31.22183,"__source_file__":"02-POI&AOI/1-POI/25.05/CSV/分类/按区县/上海市-徐汇区.csv"},"geometry":{"type":"Point","coordinates":[121.452575,31.22183]}},{"id":"285","type":"Feature","properties":{"id":"B00153D04E","name":"中国韬奋基金会","address":"长乐路325号","type":"政府机构及社会团体;社会团体;慈善机构","typecode":"130408","pcode":310000,"pname":"上海市","citycode":21,"cityname":"上海市","adcode":310104,"adname":"徐汇区","business_area":"淮海路","location":"121.457214,31.219979","tel":"021-54040882","bigType":"政府机构及社会团体","midType":"社会团体","smallType":"慈善机构","gcj_lng":121.457214,"gcj_lat":31.219979,"wgs84_loc":"121.452642,31.221885","wgs84Lng":121.452642,"wgs84Lat":31.221885,"__source_file__":"02-POI&AOI/1-POI/25.05/CSV/分类/按区县/上海市-徐汇区.csv"},"geometry":{"type":"Point","coordinates":[121.452642,31.221885]}},{"id":"36830","type":"Feature","properties":{"id":"B00155LIKE","name":"Garden Books(长乐店)","address":"长乐路325号","type":"餐饮服务;咖啡厅;咖啡厅","typecode":"050500","pcode":310000,"pname":"上海市","citycode":21,"cityname":"上海市","adcode":310104,"adname":"徐汇区","business_area":"淮海路","location":"121.457313,31.219984","tel":"[]","bigType":"餐饮服务","midType":"咖啡厅","smallType":"咖啡厅","gcj_lng":121.457313,"gcj_lat":31.219984,"wgs84_loc":"121.452741,31.22189","wgs84Lng":121.452741,"wgs84Lat":31.22189,"__source_file__":"02-POI&AOI/1-POI/25.05/CSV/分类/按区县/上海市-徐汇区.csv"},"geometry":{"type":"Point","coordinates":[121.452741,31.22189]}},{"id":"72369","type":"Feature","properties":{"id":"B0G3JG2BFS","name":"雾化弹体验店","address":"陕西南路陕西南路186弄小区","type":"购物服务;购物相关场所;购物相关场所","typecode":"060000","pcode":310000,"pname":"上海市","citycode":21,"cityname":"上海市","adcode":310104,"adname":"徐汇区","business_area":"岳阳","location":"121.457722,31.219590","tel":"[]","bigType":"购物服务","midType":"购物相关场所","smallType":"购物相关场所","gcj_lng":121.457722,"gcj_lat":31.21959,"wgs84_loc":"121.453152,31.221497","wgs84Lng":121.453152,"wgs84Lat":31.221497,"__source_file__":"02-POI&AOI/1-POI/25.05/CSV/分类/按区县/上海市-徐汇区.csv"},"geometry":{"type":"Point","coordinates":[121.453152,31.221497]}},{"id":"72495","type":"Feature","properties":{"id":"B0H035SZ1K","name":"SENLAB森态坊(陕西南路香薰店)","address":"陕西南路186弄1号(陕西南路地铁站2号口步行340米)","type":"购物服务;购物相关场所;购物相关场所","typecode":"060000","pcode":310000,"pname":"上海市","citycode":21,"cityname":"上海市","adcode":310104,"adname":"徐汇区","business_area":"淮海路","location":"121.457851,31.219593","tel":"13062828500","bigType":"购物服务","midType":"购物相关场所","smallType":"购物相关场所","gcj_lng":121.457851,"gcj_lat":31.219593,"wgs84_loc":"121.453281,31.2215","wgs84Lng":121.453281,"wgs84Lat":31.2215,"__source_file__":"02-POI&AOI/1-POI/25.05/CSV/分类/按区县/上海市-徐汇区.csv"},"geometry":{"type":"Point","coordinates":[121.453281,31.2215]}},{"id":"44695","type":"Feature","properties":{"id":"B0FFK7QLPN","name":"陕西南路186弄小区(东北门)","address":"陕西南路186弄1-20号","type":"通行设施;临街院门;临街院门","typecode":"991400","pcode":310000,"pname":"上海市","citycode":21,"cityname":"上海市","adcode":310104,"adname":"徐汇区","business_area":"淮海路","location":"121.457680,31.219596","tel":"[]","bigType":"通行设施","midType":"临街院门","smallType":"临街院门","gcj_lng":121.45768,"gcj_lat":31.219596,"wgs84_loc":"121.45311,31.221503","wgs84Lng":121.45311,"wgs84Lat":31.221503,"__source_file__":"02-POI&AOI/1-POI/25.05/CSV/分类/按区县/上海市-徐汇区.csv"},"geometry":{"type":"Point","coordinates":[121.45311,31.221503]}},{"id":"11170","type":"Feature","properties":{"id":"B0G02L65MJ","name":"上海乐天陶社","address":"陕西南路180弄1号甲","type":"体育休闲服务;休闲场所;休闲场所","typecode":"080500","pcode":310000,"pname":"上海市","citycode":21,"cityname":"上海市","adcode":310104,"adname":"徐汇区","business_area":"淮海路","location":"121.457439,31.219624","tel":"021-33685573;021-64450902","bigType":"体育休闲服务","midType":"休闲场所","smallType":"休闲场所","gcj_lng":121.457439,"gcj_lat":31.219624,"wgs84_loc":"121.452868,31.22153","wgs84Lng":121.452868,"wgs84Lat":31.22153,"__source_file__":"02-POI&AOI/1-POI/25.05/CSV/分类/按区县/上海市-徐汇区.csv"},"geometry":{"type":"Point","coordinates":[121.452868,31.22153]}},{"id":"50210","type":"Feature","properties":{"id":"B0G02Y23I0","name":"WIZ.R","address":"陕西南路186弄1号","type":"购物服务;服装鞋帽皮具店;服装鞋帽皮具店","typecode":"061100","pcode":310000,"pname":"上海市","citycode":21,"cityname":"上海市","adcode":310104,"adname":"徐汇区","business_area":"淮海路","location":"121.457783,31.219658","tel":"18916322039","bigType":"购物服务","midType":"服装鞋帽皮具店","smallType":"服装鞋帽皮具店","gcj_lng":121.457783,"gcj_lat":31.219658,"wgs84_loc":"121.453213,31.221565","wgs84Lng":121.453213,"wgs84Lat":31.221565,"__source_file__":"02-POI&AOI/1-POI/25.05/CSV/分类/按区县/上海市-徐汇区.csv"},"geometry":{"type":"Point","coordinates":[121.453213,31.221565]}},{"id":"66785","type":"Feature","properties":{"id":"B0G2T5685R","name":"TANDSX","address":"陕西南路与长乐路交叉口南60米","type":"餐饮服务;咖啡厅;咖啡厅","typecode":"050500","pcode":310000,"pname":"上海市","citycode":21,"cityname":"上海市","adcode":310104,"adname":"徐汇区","business_area":"淮海路","location":"121.457724,31.219681","tel":"[]","bigType":"餐饮服务","midType":"咖啡厅","smallType":"咖啡厅","gcj_lng":121.457724,"gcj_lat":31.219681,"wgs84_loc":"121.453154,31.221588","wgs84Lng":121.453154,"wgs84Lat":31.221588,"__source_file__":"02-POI&AOI/1-POI/25.05/CSV/分类/按区县/上海市-徐汇区.csv"},"geometry":{"type":"Point","coordinates":[121.453154,31.221588]}},{"id":"72189","type":"Feature","properties":{"id":"B0HD3ZNSD7","name":"FLUFFY LFB","address":"陕西南路180弄164号(陕西南路地铁站2号口步行350米)","type":"购物服务;购物相关场所;购物相关场所","typecode":"060000","pcode":310000,"pname":"上海市","citycode":21,"cityname":"上海市","adcode":310104,"adname":"徐汇区","business_area":"淮海路","location":"121.457722,31.219694","tel":"18930650719;17721163464","bigType":"购物服务","midType":"购物相关场所","smallType":"购物相关场所","gcj_lng":121.457722,"gcj_lat":31.219694,"wgs84_loc":"121.453152,31.221601","wgs84Lng":121.453152,"wgs84Lat":31.221601,"__source_file__":"02-POI&AOI/1-POI/25.05/CSV/分类/按区县/上海市-徐汇区.csv"},"geometry":{"type":"Point","coordinates":[121.453152,31.221601]}},{"id":"75473","type":"Feature","properties":{"id":"B0KARH9XCG","name":"cloudodo相片社","address":"陕西南路180弄164号","type":"生活服务;摄影冲印店;摄影冲印","typecode":"071300","pcode":310000,"pname":"上海市","citycode":21,"cityname":"上海市","adcode":310104,"adname":"徐汇区","business_area":"淮海路","location":"121.457742,31.219703","tel":"[]","bigType":"生活服务","midType":"摄影冲印店","smallType":"摄影冲印","gcj_lng":121.457742,"gcj_lat":31.219703,"wgs84_loc":"121.453172,31.22161","wgs84Lng":121.453172,"wgs84Lat":31.22161,"__source_file__":"02-POI&AOI/1-POI/25.05/CSV/分类/按区县/上海市-徐汇区.csv"},"geometry":{"type":"Point","coordinates":[121.453172,31.22161]}},{"id":"36808","type":"Feature","properties":{"id":"B0HKUSUIAB","name":"FLUFFY(陕西南路店)","address":"陕西南路164号","type":"餐饮服务;休闲餐饮场所;休闲餐饮场所","typecode":"050400","pcode":310000,"pname":"上海市","citycode":21,"cityname":"上海市","adcode":310104,"adname":"徐汇区","business_area":"淮海路","location":"121.457566,31.219929","tel":"17721163464","bigType":"餐饮服务","midType":"休闲餐饮场所","smallType":"休闲餐饮场所","gcj_lng":121.457566,"gcj_lat":31.219929,"wgs84_loc":"121.452995,31.221835","wgs84Lng":121.452995,"wgs84Lat":31.221835,"__source_file__":"02-POI&AOI/1-POI/25.05/CSV/分类/按区县/上海市-徐汇区.csv"},"geometry":{"type":"Point","coordinates":[121.452995,31.221835]}},{"id":"17998","type":"Feature","properties":{"id":"B0FFKPY4EA","name":"His barber shop他的理发店","address":"陕西南路164号","type":"生活服务;美容美发店;美容美发店","typecode":"071100","pcode":310000,"pname":"上海市","citycode":21,"cityname":"上海市","adcode":310104,"adname":"徐汇区","business_area":"淮海路","location":"121.457647,31.219965","tel":"13162887316","bigType":"生活服务","midType":"美容美发店","smallType":"美容美发店","gcj_lng":121.457647,"gcj_lat":31.219965,"wgs84_loc":"121.453076,31.221872","wgs84Lng":121.453076,"wgs84Lat":31.221872,"__source_file__":"02-POI&AOI/1-POI/25.05/CSV/分类/按区县/上海市-徐汇区.csv"},"geometry":{"type":"Point","coordinates":[121.453076,31.221872]}},{"id":"35603","type":"Feature","properties":{"id":"B0FFISG9P5","name":"上海(迟留)iapm淮海路法式loft小洋房复式","address":"瑞金二路24号","type":"商务住宅;商务住宅相关;商务住宅相关","typecode":"120000","pcode":310000,"pname":"上海市","citycode":21,"cityname":"上海市","adcode":310104,"adname":"徐汇区","business_area":"淮海路","location":"121.457340,31.219984","tel":"[]","bigType":"商务住宅","midType":"商务住宅相关","smallType":"商务住宅相关","gcj_lng":121.45734,"gcj_lat":31.219984,"wgs84_loc":"121.452769,31.22189","wgs84Lng":121.452769,"wgs84Lat":31.22189,"__source_file__":"02-POI&AOI/1-POI/25.05/CSV/分类/按区县/上海市-徐汇区.csv"},"geometry":{"type":"Point","coordinates":[121.452769,31.22189]}},{"id":"70696","type":"Feature","properties":{"id":"B00154YL2G","name":"上海韬奋西文书局有限公司","address":"长乐路325号","type":"购物服务;专卖店;书店","typecode":"061205","pcode":310000,"pname":"上海市","citycode":21,"cityname":"上海市","adcode":310104,"adname":"徐汇区","business_area":"淮海路","location":"121.457423,31.220001","tel":"021-54048728;021-54048729","bigType":"购物服务","midType":"专卖店","smallType":"书店","gcj_lng":121.457423,"gcj_lat":31.220001,"wgs84_loc":"121.452852,31.221907","wgs84Lng":121.452852,"wgs84Lat":31.221907,"__source_file__":"02-POI&AOI/1-POI/25.05/CSV/分类/按区县/上海市-徐汇区.csv"},"geometry":{"type":"Point","coordinates":[121.452852,31.221907]}},{"id":"46500","type":"Feature","properties":{"id":"B001579S2X","name":"ADELA","address":"陕西南路164号","type":"购物服务;服装鞋帽皮具店;服装鞋帽皮具店","typecode":"061100","pcode":310000,"pname":"上海市","citycode":21,"cityname":"上海市","adcode":310104,"adname":"徐汇区","business_area":"淮海路","location":"121.457542,31.220014","tel":"13501707382","bigType":"购物服务","midType":"服装鞋帽皮具店","smallType":"服装鞋帽皮具店","gcj_lng":121.457542,"gcj_lat":31.220014,"wgs84_loc":"121.452971,31.22192","wgs84Lng":121.452971,"wgs84Lat":31.22192,"__source_file__":"02-POI&AOI/1-POI/25.05/CSV/分类/按区县/上海市-徐汇区.csv"},"geometry":{"type":"Point","coordinates":[121.452971,31.22192]}},{"id":"25301","type":"Feature","properties":{"id":"B0FFI8IG7M","name":"长乐路与陕西南路交叉口","address":"徐汇区","type":"地名地址信息;交通地名;路口名","typecode":"190302","pcode":310000,"pname":"上海市","citycode":21,"cityname":"上海市","adcode":310104,"adname":"徐汇区","business_area":"淮海路","location":"121.457686,31.220193","tel":"[]","bigType":"地名地址信息","midType":"交通地名","smallType":"路口名","gcj_lng":121.457686,"gcj_lat":31.220193,"wgs84_loc":"121.453115,31.2221","wgs84Lng":121.453115,"wgs84Lat":31.2221,"__source_file__":"02-POI&AOI/1-POI/25.05/CSV/分类/按区县/上海市-徐汇区.csv"},"geometry":{"type":"Point","coordinates":[121.453115,31.2221]}}],"name":"上海市-徐汇区","crs":{"type":"name","properties":{"name":"urn:ogc:def:crs:OGC:1.3:CRS84"}}}