{"type":"FeatureCollection","features":[{"id":"20","type":"Feature","properties":{"OBJECTID":757385,"id":"689715c0-ab21-3506-93fc-c135c23125ad","name":"上海长途汽车客运总站","type":"交通设施服务;长途汽车站;长途汽车站","typecode":"150400","address":"中兴路1666号","经度":121.454055,"纬度":31.25196,"tel":null,"pcode":310000,"pname":null,"citycode":21,"cityname":"上海市","adcode":310106,"adname":"静安区","gridcode":4621730600.0,"distance":"563","business_a":null,"timestamp":"NaT","biz_ext":"{\"rating\": [], \"cost\": []}","行业大":"交通设施服务","行业中":"长途汽车站","行业小":"长途汽车站","typecode_X":0.0,"typecode_Y":0.0,"__source_file__":"04-交通数据/2-交通设施/长途汽车站/上海市_长途汽车站相关.shp"},"geometry":{"type":"Point","coordinates":[121.44947201630679,31.253843950137846]}},{"id":"59","type":"Feature","properties":{"OBJECTID":981517,"id":"c0af3590-c24c-3042-8a57-9b1b987cb451","name":"上海长途汽车客运总站(出站口)","type":"交通设施服务;长途汽车站;出站","typecode":"150402","address":"上海火车站地铁站6号口步行300米","经度":121.454819,"纬度":31.252101,"tel":null,"pcode":310000,"pname":null,"citycode":21,"cityname":"上海市","adcode":310106,"adname":"静安区","gridcode":4621730601.0,"distance":"629","business_a":null,"timestamp":"NaT","biz_ext":"{\"rating\": [], \"cost\": []}","行业大":"交通设施服务","行业中":"长途汽车站","行业小":"出站","typecode_X":0.0,"typecode_Y":0.0,"__source_file__":"04-交通数据/2-交通设施/长途汽车站/上海市_长途汽车站相关.shp"},"geometry":{"type":"Point","coordinates":[121.45023800504161,31.253986561638467]}},{"id":"54","type":"Feature","properties":{"OBJECTID":943395,"id":"bd766c57-5388-3623-a08a-bbbbcf75e239","name":"上海长途汽车客运总站(进站口)","type":"交通设施服务;长途汽车站;进站","typecode":"150401","address":"上海火车站地铁站6号口步行310米","经度":121.454675,"纬度":31.2522,"tel":null,"pcode":310000,"pname":null,"citycode":21,"cityname":"上海市","adcode":310106,"adname":"静安区","gridcode":4621730601.0,"distance":"614","business_a":null,"timestamp":"NaT","biz_ext":"{\"rating\": [], \"cost\": []}","行业大":"交通设施服务","行业中":"长途汽车站","行业小":"进站","typecode_X":0.0,"typecode_Y":0.0,"__source_file__":"04-交通数据/2-交通设施/长途汽车站/上海市_长途汽车站相关.shp"},"geometry":{"type":"Point","coordinates":[121.45009361753795,31.254085200926017]}},{"id":"15","type":"Feature","properties":{"OBJECTID":469700,"id":"c1500dd4-ed08-31ee-8ef8-0ca2245adf5a","name":"沪太长途汽车站(进站口)","type":"交通设施服务;长途汽车站;进站","typecode":"150401","address":"中山北路辅路与沪太路交叉口北60米","经度":121.449951,"纬度":31.258735,"tel":"[]","pcode":310000,"pname":"上海市","citycode":21,"cityname":"上海市","adcode":310106,"adname":"静安区","gridcode":4621731502.0,"distance":"617","business_a":"和田","timestamp":"2023-05-12","biz_ext":"{\"rating\": [], \"cost\": []}","行业大":"交通设施服务","行业中":"长途汽车站","行业小":"进站","typecode_X":0.0,"typecode_Y":0.0,"__source_file__":"04-交通数据/2-交通设施/长途汽车站/上海市_长途汽车站相关.shp"},"geometry":{"type":"Point","coordinates":[121.4453570917447,31.260607331961047]}},{"id":"31","type":"Feature","properties":{"OBJECTID":785992,"id":"48d0b57e-41df-3868-97b2-8919048874f9","name":"上海中山客运站","type":"交通设施服务;长途汽车站;长途汽车站","typecode":"150400","address":"中山北路806号(大统路口)","经度":121.458722,"纬度":31.259262,"tel":null,"pcode":310000,"pname":null,"citycode":21,"cityname":"上海市","adcode":310106,"adname":"静安区","gridcode":4621731602.0,"distance":"568","business_a":null,"timestamp":"NaT","biz_ext":"{\"rating\": [], \"cost\": []}","行业大":"交通设施服务","行业中":"长途汽车站","行业小":"长途汽车站","typecode_X":0.0,"typecode_Y":0.0,"__source_file__":"04-交通数据/2-交通设施/长途汽车站/上海市_长途汽车站相关.shp"},"geometry":{"type":"Point","coordinates":[121.45415096581499,31.26115327327664]}},{"id":"57","type":"Feature","properties":{"OBJECTID":970145,"id":"89a523eb-0613-363e-9864-d0e9a380ac5b","name":"沪太长途汽车站","type":"交通设施服务;长途汽车站;长途汽车站","typecode":"150400","address":"中山北路1015号","经度":121.449526,"纬度":31.259458,"tel":null,"pcode":310000,"pname":null,"citycode":21,"cityname":"上海市","adcode":310106,"adname":"静安区","gridcode":4621731502.0,"distance":"688","business_a":null,"timestamp":"NaT","biz_ext":"{\"rating\": [], \"cost\": []}","行业大":"交通设施服务","行业中":"长途汽车站","行业小":"长途汽车站","typecode_X":0.0,"typecode_Y":0.0,"__source_file__":"04-交通数据/2-交通设施/长途汽车站/上海市_长途汽车站相关.shp"},"geometry":{"type":"Point","coordinates":[121.44493099914655,31.26132915617149]}},{"id":"5","type":"Feature","properties":{"OBJECTID":106936,"id":"88868d75-cdb9-301c-9838-911052f2ee0b","name":"上海中山客运站(进站口)","type":"交通设施服务;长途汽车站;进站","typecode":"150401","address":"中山北路806号(中山北路地铁站4号口步行130米)","经度":121.45846,"纬度":31.259714,"tel":"[]","pcode":310000,"pname":"上海市","citycode":21,"cityname":"上海市","adcode":310106,"adname":"静安区","gridcode":4621731602.0,"distance":"522","business_a":"和田","timestamp":"2023-05-03","biz_ext":"{\"rating\": [], \"cost\": []}","行业大":"交通设施服务","行业中":"长途汽车站","行业小":"进站","typecode_X":0.0,"typecode_Y":0.0,"__source_file__":"04-交通数据/2-交通设施/长途汽车站/上海市_长途汽车站相关.shp"},"geometry":{"type":"Point","coordinates":[121.45388819819979,31.26160446747091]}},{"id":"58","type":"Feature","properties":{"OBJECTID":980448,"id":"5e40623f-7397-3e94-a60e-cac01ecbfd5a","name":"上海中山客运站候车室","type":"交通设施服务;长途汽车站;候车室","typecode":"150403","address":"中山北路806号(大统路口)上海中山客运站","经度":121.458427,"纬度":31.259733,"tel":null,"pcode":310000,"pname":null,"citycode":21,"cityname":"上海市","adcode":310106,"adname":"静安区","gridcode":4621731602.0,"distance":"520","business_a":null,"timestamp":"NaT","biz_ext":"{'rating': [], 'cost': []}","行业大":"交通设施服务","行业中":"长途汽车站","行业小":"候车室","typecode_X":0.0,"typecode_Y":0.0,"__source_file__":"04-交通数据/2-交通设施/长途汽车站/上海市_长途汽车站相关.shp"},"geometry":{"type":"Point","coordinates":[121.4538551049776,31.261623382617362]}},{"id":"33","type":"Feature","properties":{"OBJECTID":795215,"id":"1ab3b208-a6a3-32fe-98a9-a9c62717eb54","name":"北区汽车站","type":"交通设施服务;长途汽车站;长途汽车站","typecode":"150400","address":"共和新路1148号甲达誉商务楼","经度":121.460246,"纬度":31.2614,"tel":null,"pcode":310000,"pname":null,"citycode":21,"cityname":"上海市","adcode":310106,"adname":"静安区","gridcode":4621731612.0,"distance":"338","business_a":null,"timestamp":"NaT","biz_ext":"{\"rating\": [], \"cost\": \"93.00\"}","行业大":"交通设施服务","行业中":"长途汽车站","行业小":"长途汽车站","typecode_X":0.0,"typecode_Y":0.0,"__source_file__":"04-交通数据/2-交通设施/长途汽车站/上海市_长途汽车站相关.shp"},"geometry":{"type":"Point","coordinates":[121.45567906914188,31.26329393264829]}}],"name":"上海市_长途汽车站相关","crs":{"type":"name","properties":{"name":"urn:ogc:def:crs:OGC:1.3:CRS84"}}}