{"type":"FeatureCollection","features":[{"id":"8","type":"Feature","properties":{"县级":"浦东新区","县级码":310115,"县级类":"市辖区","省级":"上海市","省级码":310000,"省级类":"直辖市","TYPE_3":"District","GID_1":310000,"TYPE_1":"Municipality","year":2022,"驻地":"花木街道","面积":1210.0,"人口":307.0,"__source_file__":"03-行政区/2023(审图号：GS（2022）1873号)/上海市_县界.shp"},"geometry":{"type":"Polygon","coordinates":[[[121.489815085298,31.237061609905425],[121.48838429989564,31.239583899777188],[121.48834703468799,31.241923420429544],[121.49043739996614,31.24434061462773],[121.49271318476576,31.24515872519504],[121.49517176486506,31.24638469989401],[121.49755362935605,31.247210228060254],[121.49731707620205,31.24490262891695],[121.49673453446849,31.24226085852577],[121.49584979036605,31.239681790302594],[121.49467160045832,31.237190878711193],[121.49321161501332,31.234812706127755],[121.49276852191934,31.234237606752675],[121.489815085298,31.237061609905425]]]}},{"id":"11","type":"Feature","properties":{"县级":"徐汇区","县级码":310104,"县级类":"市辖区","省级":"上海市","省级码":310000,"省级类":"直辖市","TYPE_3":"District","GID_1":310000,"TYPE_1":"Municipality","year":2022,"驻地":"徐家汇街道","面积":55.0,"人口":92.0,"__source_file__":"03-行政区/2023(审图号：GS（2022）1873号)/上海市_县界.shp"},"geometry":{"type":"Polygon","coordinates":[[[121.45033146512503,31.221092420279035],[121.45125566511695,31.221602549917804],[121.45310675497285,31.222066104567148],[121.45392409173557,31.22004334433098],[121.45322544632577,31.22016931735996],[121.45004645409256,31.22089984056082],[121.45033146512503,31.221092420279035]]]}},{"id":"3","type":"Feature","properties":{"县级":"黄浦区","县级码":310101,"县级类":"市辖区","省级":"上海市","省级码":310000,"省级类":"直辖市","TYPE_3":"District","GID_1":310000,"TYPE_1":"Municipality","year":2022,"驻地":"外滩街道","面积":20.0,"人口":81.0,"__source_file__":"03-行政区/2023(审图号：GS（2022）1873号)/上海市_县界.shp"},"geometry":{"type":"Polygon","coordinates":[[[121.48834703468799,31.241923420429544],[121.48838429989564,31.239583899777188],[121.489815085298,31.237061609905425],[121.49276852191934,31.234237606752675],[121.49148426222861,31.232570740453905],[121.48950660518585,31.230487103791795],[121.48729817297192,31.228582354451937],[121.48488076764959,31.226875284429966],[121.48121403475672,31.224538060522995],[121.478665785768,31.223073321904213],[121.47596394886362,31.221828412381864],[121.47313411878733,31.220815121884005],[121.47020309954797,31.220043046248612],[121.4671986510073,31.21951949657703],[121.4641492265292,31.21924943018647],[121.46108370414828,31.219235403806874],[121.45999741410716,31.2192759025309],[121.45658308634171,31.21956389996637],[121.45392409173557,31.22004334433098],[121.45310675497285,31.222066104567148],[121.45236639529298,31.223883725253756],[121.45211221990314,31.22581222515413],[121.4581842948694,31.225904730319087],[121.46018370991032,31.225838304594106],[121.46083891458431,31.225757850344564],[121.46105030472779,31.225741794748103],[121.46122014529351,31.225728894872645],[121.46158269978184,31.22571021505445],[121.46181160512151,31.225701274893993],[121.46197251991589,31.2257023495838],[121.46200450970048,31.225702810036694],[121.46203650038422,31.22570339999197],[121.46206848027623,31.22570412034895],[121.46210046016813,31.225704974704854],[121.46213243466423,31.225705949569942],[121.46216440016701,31.225707064729306],[121.46219636477053,31.225708304894397],[121.46222831498483,31.22570967456187],[121.4622602598032,31.225711174631044],[121.46229220462158,31.22571280510192],[121.46232413505084,31.225714569571778],[121.46235605468826,31.22571645994674],[121.46238795993645,31.225718475327426],[121.46241985529218,31.225720624707094],[121.46245173985596,31.22572290538784],[121.46248361003063,31.225725314671593],[121.46251547031272,31.225727849860448],[121.46254731530644,31.225730519947604],[121.46257914501155,31.225733315040486],[121.46261095493173,31.225736239635808],[121.46264274956332,31.225739294632774],[121.46267452980578,31.2257424800315],[121.4627062902631,31.22574580032847],[121.46273803543204,31.225749240235302],[121.46276975541991,31.22575280964452],[121.4628014601193,31.2257565103547],[121.46283314503364,31.225760339668],[121.46286480027038,31.225764300282265],[121.46289644471517,31.225768385002993],[121.462974254958,31.226630299748592],[121.46305255533127,31.227570924958286],[121.46248487537673,31.23230557494236],[121.46198815013304,31.235372620150372],[121.46110580458924,31.237892759743147],[121.45956278019821,31.240608334607032],[121.45841667518948,31.24326349481447],[121.45890950456999,31.24325578492659],[121.45959818470851,31.24322047484509],[121.46052845962083,31.24302625455806],[121.4622619900988,31.242430899766248],[121.463126994915,31.241794029570883],[121.46378519972723,31.24140360509233],[121.46451298508623,31.241188265126368],[121.46539707531485,31.241161485114503],[121.4661906397863,31.24135764973579],[121.46739939966267,31.241857484835123],[121.46782788974542,31.24214889485569],[121.46833078523764,31.242490909727735],[121.46950839979286,31.243127264611644],[121.47020000542602,31.243359539711037],[121.47082299998158,31.24335449991031],[121.47179400968582,31.24332871005197],[121.47244717469744,31.243249350277324],[121.47341250967963,31.242675830125506],[121.47423059506593,31.24224991480179],[121.47479845038822,31.242069955064437],[121.47536390991661,31.24203932505486],[121.47604323530709,31.24213450480363],[121.47679158995993,31.24244209542644],[121.47742108031866,31.242934965276504],[121.47807794514108,31.243527735416706],[121.47850263019234,31.24393210028626],[121.47996149512699,31.245317430355158],[121.4805501598621,31.245648004951533],[121.48196143986866,31.24617498518745],[121.48265688021093,31.24617075027993],[121.48364359477614,31.246070375147724],[121.48432832958883,31.245829519616677],[121.48542258508428,31.24534455480739],[121.48757851543621,31.24471466514973],[121.49043739996614,31.24434061462773],[121.48834703468799,31.241923420429544]]]}},{"id":"14","type":"Feature","properties":{"县级":"普陀区","县级码":310107,"县级类":"市辖区","省级":"上海市","省级码":330000,"省级类":"直辖市","TYPE_3":"District","GID_1":330000,"TYPE_1":"Municipality","year":2022,"驻地":"真如镇街道","面积":55.0,"人口":89.0,"__source_file__":"03-行政区/2023(审图号：GS（2022）1873号)/上海市_县界.shp"},"geometry":{"type":"Polygon","coordinates":[[[121.43259370473572,31.271286550533944],[121.43322870973725,31.271039280138723],[121.43329904481516,31.271014490326536],[121.43516425042992,31.27042383539174],[121.43622547472592,31.27008776054174],[121.4362569096287,31.270077310419595],[121.43693100995824,31.26984244976927],[121.43747296030892,31.26965362541455],[121.43772896491987,31.269525700450743],[121.43774856024788,31.269512074822444],[121.43834593491704,31.269086459872256],[121.43854493510071,31.268898044709033],[121.43855494995103,31.26888510526345],[121.43890492472258,31.268424280056536],[121.44162447458984,31.264832055055365],[121.4436736149454,31.262055114951636],[121.44640915026218,31.258271884739713],[121.44678608490995,31.254084540569124],[121.44656775469821,31.25276535473739],[121.44603721044894,31.24995881524717],[121.44514651020336,31.248616274921176],[121.44395248481942,31.247220265402973],[121.44372727029736,31.246819255004652],[121.44367464017262,31.24649500534025],[121.44380846468891,31.246285039722864],[121.44493780543542,31.245439900031386],[121.44540258496136,31.24513461976693],[121.44264834464548,31.243808830213368],[121.43532613019681,31.239826325524575],[121.43284621997714,31.238327449752035],[121.43153176547867,31.237479899877542],[121.42988714467606,31.236915555508517],[121.4281812548611,31.23686447041905],[121.4262531398706,31.237016370409208],[121.42562536833712,31.236210989387168],[121.42488241023125,31.237328875049442],[121.4236197451339,31.239753911837933],[121.42263984931566,31.242273631908752],[121.4219521865427,31.244863757739896],[121.42156340684444,31.24749933153729],[121.42147728155989,31.250154955564412],[121.42169466605459,31.252805036785787],[121.42221349050395,31.25542403347189],[121.4230287788687,31.2579867013908],[121.42413269591728,31.260468337213158],[121.4250762245237,31.262312331058894],[121.42645565496629,31.264685114812334],[121.42809893331145,31.266930492098258],[121.42999028682037,31.269026885533062],[121.43211155526778,31.2709541479284],[121.43256953535194,31.271295963006807],[121.43259370473572,31.271286550533944]]]}},{"id":"6","type":"Feature","properties":{"县级":"静安区","县级码":310106,"县级类":"市辖区","省级":"上海市","省级码":310000,"省级类":"直辖市","TYPE_3":"District","GID_1":310000,"TYPE_1":"Municipality","year":2022,"驻地":"江宁路街道","面积":37.0,"人口":92.0,"__source_file__":"03-行政区/2023(审图号：GS（2022）1873号)/上海市_县界.shp"},"geometry":{"type":"Polygon","coordinates":[[[121.45771849461289,31.278218180424744],[121.45838093523207,31.277118955275625],[121.45931181538799,31.276720069975283],[121.45958635502632,31.276602425161855],[121.46067033486815,31.27546305517592],[121.46155078464108,31.274423580084203],[121.46289649957384,31.27283475501997],[121.46336707972705,31.272088305131206],[121.46454355034462,31.27022208508123],[121.46652400497896,31.268133065188863],[121.46875313474948,31.266114759888296],[121.47079192031094,31.264547979905387],[121.4713875853688,31.26409020519884],[121.47216241516344,31.2634947298979],[121.47583169497682,31.260606344906932],[121.47719599529898,31.252691139984165],[121.47642370518986,31.250356210370853],[121.47783276477037,31.245757209627584],[121.47841006027613,31.24414929015768],[121.47850263019234,31.24393210028626],[121.47807794514108,31.243527735416706],[121.47742108031866,31.242934965276504],[121.47679158995993,31.24244209542644],[121.47604323530709,31.24213450480363],[121.47536390991661,31.24203932505486],[121.47479845038822,31.242069955064437],[121.47423059506593,31.24224991480179],[121.47341250967963,31.242675830125506],[121.47244717469744,31.243249350277324],[121.47179400968582,31.24332871005197],[121.47082299998158,31.24335449991031],[121.47020000542602,31.243359539711037],[121.46950839979286,31.243127264611644],[121.46833078523764,31.242490909727735],[121.46782788974542,31.24214889485569],[121.46739939966267,31.241857484835123],[121.4661906397863,31.24135764973579],[121.46539707531485,31.241161485114503],[121.46451298508623,31.241188265126368],[121.46378519972723,31.24140360509233],[121.463126994915,31.241794029570883],[121.4622619900988,31.242430899766248],[121.46052845962083,31.24302625455806],[121.45959818470851,31.24322047484509],[121.45890950456999,31.24325578492659],[121.45841667518948,31.24326349481447],[121.45956278019821,31.240608334607032],[121.46110580458924,31.237892759743147],[121.46198815013304,31.235372620150372],[121.46248487537673,31.23230557494236],[121.46305255533127,31.227570924958286],[121.462974254958,31.226630299748592],[121.46289644471517,31.225768385002993],[121.46286480027038,31.225764300282265],[121.46283314503364,31.225760339668],[121.4628014601193,31.2257565103547],[121.46276975541991,31.22575280964452],[121.46273803543204,31.225749240235302],[121.4627062902631,31.22574580032847],[121.46267452980578,31.2257424800315],[121.46264274956332,31.225739294632774],[121.46261095493173,31.225736239635808],[121.46257914501155,31.225733315040486],[121.46254731530644,31.225730519947604],[121.46251547031272,31.225727849860448],[121.46248361003063,31.225725314671593],[121.46245173985596,31.22572290538784],[121.46241985529218,31.225720624707094],[121.46238795993645,31.225718475327426],[121.46235605468826,31.22571645994674],[121.46232413505084,31.225714569571778],[121.46229220462158,31.22571280510192],[121.4622602598032,31.225711174631044],[121.46222831498483,31.22570967456187],[121.46219636477053,31.225708304894397],[121.46216440016701,31.225707064729306],[121.46213243466423,31.225705949569942],[121.46210046016813,31.225704974704854],[121.46206848027623,31.22570412034895],[121.46203650038422,31.22570339999197],[121.46200450970048,31.225702810036694],[121.46197251991589,31.2257023495838],[121.46181160512151,31.225701274893993],[121.46158269978184,31.22571021505445],[121.46122014529351,31.225728894872645],[121.46105030472779,31.225741794748103],[121.46083891458431,31.225757850344564],[121.46018370991032,31.225838304594106],[121.4581842948694,31.225904730319087],[121.45211221990314,31.22581222515413],[121.45236639529298,31.223883725253756],[121.45310675497285,31.222066104567148],[121.45125566511695,31.221602549917804],[121.45033146512503,31.221092420279035],[121.45004645409256,31.22089984056082],[121.44987632194113,31.220938936436088],[121.44729699990332,31.22163482208588],[121.44530175929886,31.222255121711427],[121.4448249527962,31.222380959544715],[121.44201488607233,31.223386771246194],[121.43933089239154,31.22462099458779],[121.43679803887224,31.22607210410547],[121.43465443577679,31.227576090732896],[121.43247887854997,31.22902447931829],[121.43023229027573,31.23084959185621],[121.42820470240456,31.232855166664738],[121.42641565907029,31.235021885085512],[121.42562536833712,31.236210989387168],[121.4262531398706,31.237016370409208],[121.4281812548611,31.23686447041905],[121.42988714467606,31.236915555508517],[121.43153176547867,31.237479899877542],[121.43284621997714,31.238327449752035],[121.43532613019681,31.239826325524575],[121.44264834464548,31.243808830213368],[121.44540258496136,31.24513461976693],[121.44493780543542,31.245439900031386],[121.44380846468891,31.246285039722864],[121.44367464017262,31.24649500534025],[121.44372727029736,31.246819255004652],[121.44395248481942,31.247220265402973],[121.44514651020336,31.248616274921176],[121.44603721044894,31.24995881524717],[121.44656775469821,31.25276535473739],[121.44678608490995,31.254084540569124],[121.44640915026218,31.258271884739713],[121.4436736149454,31.262055114951636],[121.44162447458984,31.264832055055365],[121.43890492472258,31.268424280056536],[121.43855494995103,31.26888510526345],[121.43854493510071,31.268898044709033],[121.43834593491704,31.269086459872256],[121.43774856024788,31.269512074822444],[121.43772896491987,31.269525700450743],[121.43747296030892,31.26965362541455],[121.43693100995824,31.26984244976927],[121.4362569096287,31.270077310419595],[121.43622547472592,31.27008776054174],[121.43516425042992,31.27042383539174],[121.43329904481516,31.271014490326536],[121.43322870973725,31.271039280138723],[121.43259370473572,31.271286550533944],[121.43256953535194,31.271295963006807],[121.43444236509998,31.272693756206372],[121.43696032504036,31.274228989732933],[121.43964124126684,31.27554509134123],[121.44245935009069,31.276629409481853],[121.44538756589114,31.27747152011958],[121.44839774190646,31.27806332719107],[121.45146094135256,31.27839914064598],[121.45273825928797,31.278430843127566],[121.45571835399855,31.278836414540702],[121.45739124755197,31.278921097920477],[121.45771849461289,31.278218180424744]]]}},{"id":"2","type":"Feature","properties":{"县级":"虹口区","县级码":310109,"县级类":"市辖区","省级":"上海市","省级码":310000,"省级类":"直辖市","TYPE_3":"District","GID_1":310000,"TYPE_1":"Municipality","year":2022,"驻地":"嘉兴路街道","面积":23.0,"人口":71.0,"__source_file__":"03-行政区/2023(审图号：GS（2022）1873号)/上海市_县界.shp"},"geometry":{"type":"Polygon","coordinates":[[[121.49517176486506,31.24638469989401],[121.49271318476576,31.24515872519504],[121.49043739996614,31.24434061462773],[121.48757851543621,31.24471466514973],[121.48542258508428,31.24534455480739],[121.48432832958883,31.245829519616677],[121.48364359477614,31.246070375147724],[121.48265688021093,31.24617075027993],[121.48196143986866,31.24617498518745],[121.4805501598621,31.245648004951533],[121.47996149512699,31.245317430355158],[121.47850263019234,31.24393210028626],[121.47841006027613,31.24414929015768],[121.47783276477037,31.245757209627584],[121.47642370518986,31.250356210370853],[121.47719599529898,31.252691139984165],[121.47583169497682,31.260606344906932],[121.47216241516344,31.2634947298979],[121.4713875853688,31.26409020519884],[121.47079192031094,31.264547979905387],[121.46875313474948,31.266114759888296],[121.46652400497896,31.268133065188863],[121.46454355034462,31.27022208508123],[121.46336707972705,31.272088305131206],[121.46289649957384,31.27283475501997],[121.46155078464108,31.274423580084203],[121.46067033486815,31.27546305517592],[121.45958635502632,31.276602425161855],[121.45931181538799,31.276720069975283],[121.45838093523207,31.277118955275625],[121.45771849461289,31.278218180424744],[121.45739124755197,31.278921097920477],[121.4588075388096,31.278992791860716],[121.4597745209531,31.2789600539246],[121.46042491756738,31.279069480360747],[121.46346656964805,31.279322109661262],[121.46652241816194,31.27932042100063],[121.46956369543403,31.279064429478048],[121.47256177113401,31.278556544172076],[121.47548842248383,31.27780154543424],[121.47831610058658,31.276806539804294],[121.48101819033857,31.275580892975483],[121.48356926145082,31.274136141448007],[121.48594530819267,31.27248588371089],[121.48812397558218,31.27064565198753],[121.49008476988105,31.268632765764472],[121.49180925140566,31.266466168495256],[121.49328120783882,31.264166249029824],[121.49448680641774,31.26175464946417],[121.4954147235775,31.259254061231182],[121.49655543230132,31.255571333216174],[121.49720895509832,31.252941840516893],[121.49755548948157,31.25026961052951],[121.49759164003945,31.24758102599288],[121.49755362935605,31.247210228060254],[121.49517176486506,31.24638469989401]]]}}],"name":"上海市_县界","crs":{"type":"name","properties":{"name":"urn:ogc:def:crs:OGC:1.3:CRS84"}}}