{
"type": "FeatureCollection",
"name": "SITE_buffer_3km",
"crs": { "type": "name", "properties": { "name": "urn:ogc:def:crs:OGC:1.3:CRS84" } },
"features": [
{ "type": "Feature", "properties": { "name": "site_buffer_3000m" }, "geometry": { "type": "Polygon", "coordinates": [ [ [ 121.434654435776793, 31.227576090732896 ], [ 121.432478878549972, 31.229024479318291 ], [ 121.430232290275725, 31.230849591856209 ], [ 121.428204702404557, 31.232855166664738 ], [ 121.426415659070287, 31.235021885085512 ], [ 121.424882410231248, 31.237328875049442 ], [ 121.423619745133905, 31.239753911837933 ], [ 121.422639849315658, 31.242273631908752 ], [ 121.421952186542697, 31.244863757739896 ], [ 121.421563406844442, 31.247499331537291 ], [ 121.421477281559888, 31.250154955564412 ], [ 121.421694666054591, 31.252805036785787 ], [ 121.42221349050395, 31.25542403347189 ], [ 121.423028778868698, 31.257986701390799 ], [ 121.42413269591728, 31.260468337213158 ], [ 121.425076224523707, 31.262312331058894 ], [ 121.42645565496629, 31.264685114812334 ], [ 121.428098933311446, 31.266930492098258 ], [ 121.42999028682037, 31.269026885533062 ], [ 121.432111555267781, 31.2709541479284 ], [ 121.434442365099983, 31.272693756206372 ], [ 121.43696032504036, 31.274228989732933 ], [ 121.439641241266841, 31.275545091341229 ], [ 121.442459350090687, 31.276629409481853 ], [ 121.445387565891139, 31.27747152011958 ], [ 121.448397741906462, 31.27806332719107 ], [ 121.451460941352565, 31.27839914064598 ], [ 121.452738259287969, 31.278430843127566 ], [ 121.455718353998549, 31.278836414540702 ], [ 121.458807538809594, 31.278992791860716 ], [ 121.459774520953104, 31.2789600539246 ], [ 121.46042491756738, 31.279069480360747 ], [ 121.463466569648048, 31.279322109661262 ], [ 121.466522418161944, 31.27932042100063 ], [ 121.469563695434033, 31.279064429478048 ], [ 121.472561771134011, 31.278556544172076 ], [ 121.475488422483835, 31.27780154543424 ], [ 121.478316100586582, 31.276806539804294 ], [ 121.481018190338574, 31.275580892975483 ], [ 121.483569261450825, 31.274136141448007 ], [ 121.485945308192669, 31.272485883710889 ], [ 121.488123975582184, 31.270645651987529 ], [ 121.490084769881051, 31.268632765764472 ], [ 121.491809251405655, 31.266466168495256 ], [ 121.49328120783882, 31.264166249029824 ], [ 121.49448680641774, 31.261754649464169 ], [ 121.495414723577497, 31.259254061231182 ], [ 121.496555432301321, 31.255571333216174 ], [ 121.497208955098316, 31.252941840516893 ], [ 121.49755548948157, 31.250269610529511 ], [ 121.497591640039445, 31.247581025992879 ], [ 121.497317076202052, 31.24490262891695 ], [ 121.496734534468487, 31.242260858525771 ], [ 121.495849790366051, 31.239681790302594 ], [ 121.494671600458318, 31.237190878711193 ], [ 121.493211615013323, 31.234812706127755 ], [ 121.49148426222861, 31.232570740453905 ], [ 121.489506605185852, 31.230487103791795 ], [ 121.487298172971919, 31.228582354451937 ], [ 121.484880767649585, 31.226875284429966 ], [ 121.481214034756718, 31.224538060522995 ], [ 121.478665785768001, 31.223073321904213 ], [ 121.475963948863622, 31.221828412381864 ], [ 121.473134118787328, 31.220815121884005 ], [ 121.470203099547973, 31.220043046248612 ], [ 121.467198651007294, 31.219519496577028 ], [ 121.464149226529202, 31.219249430186469 ], [ 121.46108370414828, 31.219235403806874 ], [ 121.459997414107164, 31.219275902530899 ], [ 121.456583086341709, 31.219563899966371 ], [ 121.453225446325774, 31.220169317359961 ], [ 121.449876321941133, 31.220938936436088 ], [ 121.447296999903315, 31.221634822085878 ], [ 121.445301759298857, 31.222255121711427 ], [ 121.444824952796196, 31.222380959544715 ], [ 121.442014886072329, 31.223386771246194 ], [ 121.439330892391538, 31.224620994587792 ], [ 121.43679803887224, 31.226072104105469 ], [ 121.434654435776793, 31.227576090732896 ] ] ] } }
]
}
