{"type":"FeatureCollection","features":[{"id":"64","type":"Feature","properties":{"id":"B0HDLNUNCP","name":"吉美日式搬家精品打包一站式服务(新天地店)","address":"金陵西路与连云路交叉口南约80米","type":"生活服务;搬家公司;搬家公司","typecode":"071700","pcode":310000,"pname":"上海市","citycode":21,"cityname":"上海市","adcode":310101,"adname":"黄浦区","business_a":"北京东路","location":"121.473501,31.223451","tel":"15821857578","bigType":"生活服务","midType":"搬家公司","smallType":"搬家公司","gcj_lng":121.473501,"gcj_lat":31.223451,"wgs84_loc":"121.468978,31.225396","wgs84Lng":"121.468978","wgs84Lat":"31.225396","__source_file__":"13-常用公服设施点/SHP/上海市_搬家公司.shp"},"geometry":{"type":"Point","coordinates":[121.468978,31.225396]}},{"id":"63","type":"Feature","properties":{"id":"B0H31U098C","name":"鸿亿搬家高端精品(上海店)","address":"人民路885号淮海中华大厦1603室","type":"生活服务;搬家公司;搬家公司","typecode":"071700","pcode":310000,"pname":"上海市","citycode":21,"cityname":"上海市","adcode":310101,"adname":"黄浦区","business_a":"城隍庙","location":"121.483355,31.225632","tel":"18930960237","bigType":"生活服务","midType":"搬家公司","smallType":"搬家公司","gcj_lng":121.483355,"gcj_lat":31.225632,"wgs84_loc":"121.478865,31.227604","wgs84Lng":"121.478865","wgs84Lat":"31.227604","__source_file__":"13-常用公服设施点/SHP/上海市_搬家公司.shp"},"geometry":{"type":"Point","coordinates":[121.478865,31.227604]}},{"id":"160","type":"Feature","properties":{"id":"B0KAU5PXS7","name":"德邦国际搬场公司(西藏中路)","address":"西藏中路80号(人民广场地铁站1号口步行270米)","type":"生活服务;搬家公司;搬家公司","typecode":"071700","pcode":310000,"pname":"上海市","citycode":21,"cityname":"上海市","adcode":310101,"adname":"黄浦区","business_a":"北京路","location":"121.477922,31.229727","tel":"4008596953","bigType":"生活服务","midType":"搬家公司","smallType":"搬家公司","gcj_lng":121.477922,"gcj_lat":31.229727,"wgs84_loc":"121.473413,31.231681","wgs84Lng":"121.473413","wgs84Lat":"31.231681","__source_file__":"13-常用公服设施点/SHP/上海市_搬家公司.shp"},"geometry":{"type":"Point","coordinates":[121.473413,31.231681]}},{"id":"3","type":"Feature","properties":{"id":"B0IGGL060O","name":"上海长途钢琴搬家公司(黄浦区店)","address":"云南中路158弄1号楼101","type":"生活服务;搬家公司;搬家公司","typecode":"071700","pcode":310000,"pname":"上海市","citycode":21,"cityname":"上海市","adcode":310101,"adname":"黄浦区","business_a":"北京东路","location":"121.477972,31.231715","tel":"17570867109","bigType":"生活服务","midType":"搬家公司","smallType":"搬家公司","gcj_lng":121.477972,"gcj_lat":31.231715,"wgs84_loc":"121.473463,31.233668","wgs84Lng":"121.473463","wgs84Lat":"31.233668","__source_file__":"13-常用公服设施点/SHP/上海市_搬家公司.shp"},"geometry":{"type":"Point","coordinates":[121.473463,31.233668]}},{"id":"73","type":"Feature","properties":{"id":"B0GKGS6C70","name":"搬来搬去日式搬家公司(静安店)","address":"威海路567号1303室","type":"生活服务;搬家公司;搬家公司","typecode":"071700","pcode":310000,"pname":"上海市","citycode":21,"cityname":"上海市","adcode":310106,"adname":"静安区","business_a":"淮海路","location":"121.460972,31.226575","tel":"021-52555955;4006626368","bigType":"生活服务","midType":"搬家公司","smallType":"搬家公司","gcj_lng":121.460972,"gcj_lat":31.226575,"wgs84_loc":"121.45641,31.228486","wgs84Lng":"121.45641","wgs84Lat":"31.228486","__source_file__":"13-常用公服设施点/SHP/上海市_搬家公司.shp"},"geometry":{"type":"Point","coordinates":[121.45641,31.228486]}},{"id":"69","type":"Feature","properties":{"id":"B0HAYXYX3V","name":"上海熊猫精致搬家","address":"南京西路819号中创大厦","type":"生活服务;搬家公司;搬家公司","typecode":"071700","pcode":310000,"pname":"上海市","citycode":21,"cityname":"上海市","adcode":310106,"adname":"静安区","business_a":"淮海路","location":"121.460887,31.230394","tel":"4008775939","bigType":"生活服务","midType":"搬家公司","smallType":"搬家公司","gcj_lng":121.460887,"gcj_lat":31.230394,"wgs84_loc":"121.456325,31.232303","wgs84Lng":"121.456325","wgs84Lat":"31.232303","__source_file__":"13-常用公服设施点/SHP/上海市_搬家公司.shp"},"geometry":{"type":"Point","coordinates":[121.456325,31.232303]}},{"id":"117","type":"Feature","properties":{"id":"B0FFLPVUHE","name":"公兴搬家(南京西路店)","address":"南京西路791号","type":"生活服务;搬家公司;搬家公司","typecode":"071700","pcode":310000,"pname":"上海市","citycode":21,"cityname":"上海市","adcode":310106,"adname":"静安区","business_a":"淮海路","location":"121.461738,31.230716","tel":"[]","bigType":"生活服务","midType":"搬家公司","smallType":"搬家公司","gcj_lng":121.461738,"gcj_lat":31.230716,"wgs84_loc":"121.457178,31.232627","wgs84Lng":"121.457178","wgs84Lat":"31.232627","__source_file__":"13-常用公服设施点/SHP/上海市_搬家公司.shp"},"geometry":{"type":"Point","coordinates":[121.457178,31.232627]}},{"id":"135","type":"Feature","properties":{"id":"B0G1Y5SZDH","name":"上海乔喆搬场服务有限公司","address":"西康路928号1027室","type":"生活服务;搬家公司;搬家公司","typecode":"071700","pcode":310000,"pname":"上海市","citycode":21,"cityname":"上海市","adcode":310106,"adname":"静安区","business_a":"曹家渡","location":"121.443575,31.239543","tel":"15601800998","bigType":"生活服务","midType":"搬家公司","smallType":"搬家公司","gcj_lng":121.443575,"gcj_lat":31.239543,"wgs84_loc":"121.438968,31.241412","wgs84Lng":"121.438968","wgs84Lat":"31.241412","__source_file__":"13-常用公服设施点/SHP/上海市_搬家公司.shp"},"geometry":{"type":"Point","coordinates":[121.438968,31.241412]}},{"id":"11","type":"Feature","properties":{"id":"B0G0ULOIG7","name":"蚂e精品搬家打包","address":"江宁路1158号601室","type":"生活服务;搬家公司;搬家公司","typecode":"071700","pcode":310000,"pname":"上海市","citycode":21,"cityname":"上海市","adcode":310107,"adname":"普陀区","business_a":"曹家渡","location":"121.444507,31.243860","tel":"[]","bigType":"生活服务","midType":"搬家公司","smallType":"搬家公司","gcj_lng":121.444507,"gcj_lat":31.24386,"wgs84_loc":"121.439902,31.245728","wgs84Lng":"121.439902","wgs84Lat":"31.245728","__source_file__":"13-常用公服设施点/SHP/上海市_搬家公司.shp"},"geometry":{"type":"Point","coordinates":[121.439902,31.245728]}},{"id":"70","type":"Feature","properties":{"id":"B0FFK6BFDC","name":"上海吉帆搬家搬场公司","address":"恒丰路与天目西路交叉口西北约80米","type":"生活服务;搬家公司;搬家公司","typecode":"071700","pcode":310000,"pname":"上海市","citycode":21,"cityname":"上海市","adcode":310106,"adname":"静安区","business_a":"[]","location":"121.452891,31.246230","tel":"[]","bigType":"生活服务","midType":"搬家公司","smallType":"搬家公司","gcj_lng":121.452891,"gcj_lat":31.24623,"wgs84_loc":"121.448306,31.248114","wgs84Lng":"121.448306","wgs84Lat":"31.248114","__source_file__":"13-常用公服设施点/SHP/上海市_搬家公司.shp"},"geometry":{"type":"Point","coordinates":[121.448306,31.248114]}},{"id":"16","type":"Feature","properties":{"id":"B0GU1LYXZV","name":"宽兴国际日式搬家公司(普陀店)","address":"凯旋北路与镇坪路辅路交叉口西南约80米","type":"生活服务;搬家公司;搬家公司","typecode":"071700","pcode":310000,"pname":"上海市","citycode":21,"cityname":"上海市","adcode":310107,"adname":"普陀区","business_a":"光新","location":"121.430354,31.247170","tel":"021-31615259;021-68161850","bigType":"生活服务","midType":"搬家公司","smallType":"搬家公司","gcj_lng":121.430354,"gcj_lat":31.24717,"wgs84_loc":"121.425722,31.249015","wgs84Lng":"121.425722","wgs84Lat":"31.249015","__source_file__":"13-常用公服设施点/SHP/上海市_搬家公司.shp"},"geometry":{"type":"Point","coordinates":[121.425722,31.249015]}},{"id":"12","type":"Feature","properties":{"id":"B0FFIY1N8Y","name":"平安搬家有限公司","address":"凯旋北路与镇坪路交叉口西约60米","type":"生活服务;搬家公司;搬家公司","typecode":"071700","pcode":310000,"pname":"上海市","citycode":21,"cityname":"上海市","adcode":310107,"adname":"普陀区","business_a":"光新","location":"121.430482,31.247338","tel":"021-62626233","bigType":"生活服务","midType":"搬家公司","smallType":"搬家公司","gcj_lng":121.430482,"gcj_lat":31.247338,"wgs84_loc":"121.425851,31.249183","wgs84Lng":"121.425851","wgs84Lat":"31.249183","__source_file__":"13-常用公服设施点/SHP/上海市_搬家公司.shp"},"geometry":{"type":"Point","coordinates":[121.425851,31.249183]}},{"id":"159","type":"Feature","properties":{"id":"B0J0PZ37MA","name":"上海开馨搬场运输有限公司","address":"汉口路与山西南路交叉口西40米","type":"生活服务;搬家公司;搬家公司","typecode":"071700","pcode":310000,"pname":"上海市","citycode":21,"cityname":"上海市","adcode":310101,"adname":"黄浦区","business_a":"北京路","location":"121.482667,31.235453","tel":"4000303688","bigType":"生活服务","midType":"搬家公司","smallType":"搬家公司","gcj_lng":121.482667,"gcj_lat":31.235453,"wgs84_loc":"121.478174,31.237418","wgs84Lng":"121.478174","wgs84Lat":"31.237418","__source_file__":"13-常用公服设施点/SHP/上海市_搬家公司.shp"},"geometry":{"type":"Point","coordinates":[121.478174,31.237418]}},{"id":"66","type":"Feature","properties":{"id":"B0G0OAUIVZ","name":"公兴搬场(国华大楼店)","address":"北京东路342号国华大厦1层","type":"生活服务;搬家公司;搬家公司","typecode":"071700","pcode":310000,"pname":"上海市","citycode":21,"cityname":"上海市","adcode":310101,"adname":"黄浦区","business_a":"北京东路","location":"121.483357,31.240520","tel":"[]","bigType":"生活服务","midType":"搬家公司","smallType":"搬家公司","gcj_lng":121.483357,"gcj_lat":31.24052,"wgs84_loc":"121.478866,31.242485","wgs84Lng":"121.478866","wgs84Lat":"31.242485","__source_file__":"13-常用公服设施点/SHP/上海市_搬家公司.shp"},"geometry":{"type":"Point","coordinates":[121.478866,31.242485]}},{"id":"183","type":"Feature","properties":{"id":"B0K2ZL2ATM","name":"大众日式搬家公司","address":"塘沽路309号14层C-1-301","type":"生活服务;搬家公司;搬家公司","typecode":"071700","pcode":310000,"pname":"上海市","citycode":21,"cityname":"上海市","adcode":310109,"adname":"虹口区","business_a":"上海北外滩中心","location":"121.489146,31.247698","tel":"13506255595","bigType":"生活服务","midType":"搬家公司","smallType":"搬家公司","gcj_lng":121.489146,"gcj_lat":31.247698,"wgs84_loc":"121.484674,31.249677","wgs84Lng":"121.484674","wgs84Lat":"31.249677","__source_file__":"13-常用公服设施点/SHP/上海市_搬家公司.shp"},"geometry":{"type":"Point","coordinates":[121.484674,31.249677]}},{"id":"113","type":"Feature","properties":{"id":"B0G3778448","name":"强生国际搬家","address":"临平北路与四平路交叉口东40米","type":"生活服务;搬家公司;搬家公司","typecode":"071700","pcode":310000,"pname":"上海市","citycode":21,"cityname":"上海市","adcode":310109,"adname":"虹口区","business_a":"四平路","location":"121.491263,31.264353","tel":"[]","bigType":"生活服务","midType":"搬家公司","smallType":"搬家公司","gcj_lng":121.491263,"gcj_lat":31.264353,"wgs84_loc":"121.486797,31.266331","wgs84Lng":"121.486797","wgs84Lat":"31.266331","__source_file__":"13-常用公服设施点/SHP/上海市_搬家公司.shp"},"geometry":{"type":"Point","coordinates":[121.486797,31.266331]}},{"id":"72","type":"Feature","properties":{"id":"B0GKHR3I64","name":"上海迁宝搬家服务有限公司","address":"柳营路与西藏北路交叉口西北约140米","type":"生活服务;搬家公司;搬家公司","typecode":"071700","pcode":310000,"pname":"上海市","citycode":21,"cityname":"上海市","adcode":310106,"adname":"静安区","business_a":"和田","location":"121.462392,31.268472","tel":"[]","bigType":"生活服务","midType":"搬家公司","smallType":"搬家公司","gcj_lng":121.462392,"gcj_lat":31.268472,"wgs84_loc":"121.457831,31.270368","wgs84Lng":"121.457831","wgs84Lat":"31.270368","__source_file__":"13-常用公服设施点/SHP/上海市_搬家公司.shp"},"geometry":{"type":"Point","coordinates":[121.457831,31.270368]}},{"id":"13","type":"Feature","properties":{"id":"B0FFMBRL14","name":"蜗欧日式精品搬家打包公司","address":"江宁路1600弄1008室","type":"生活服务;搬家公司;搬家公司","typecode":"071700","pcode":310000,"pname":"上海市","citycode":21,"cityname":"上海市","adcode":310107,"adname":"普陀区","business_a":"光新","location":"121.440627,31.247748","tel":"4006686206","bigType":"生活服务","midType":"搬家公司","smallType":"搬家公司","gcj_lng":121.440627,"gcj_lat":31.247748,"wgs84_loc":"121.436013,31.249608","wgs84Lng":"121.436013","wgs84Lat":"31.249608","__source_file__":"13-常用公服设施点/SHP/上海市_搬家公司.shp"},"geometry":{"type":"Point","coordinates":[121.436013,31.249608]}},{"id":"106","type":"Feature","properties":{"id":"B0GRP7KILH","name":"上海莱得国际货运有限公司","address":"中山北路1295号","type":"生活服务;搬家公司;搬家公司","typecode":"071700","pcode":310000,"pname":"上海市","citycode":21,"cityname":"上海市","adcode":310107,"adname":"普陀区","business_a":"光新","location":"121.443043,31.256957","tel":"[]","bigType":"生活服务","midType":"搬家公司","smallType":"搬家公司","gcj_lng":121.443043,"gcj_lat":31.256957,"wgs84_loc":"121.438433,31.258817","wgs84Lng":"121.438433","wgs84Lat":"31.258817","__source_file__":"13-常用公服设施点/SHP/上海市_搬家公司.shp"},"geometry":{"type":"Point","coordinates":[121.438433,31.258817]}},{"id":"14","type":"Feature","properties":{"id":"B0FFL6GISO","name":"迁旺搬场搬家打包精品日式搬家长途搬家","address":"交通路1913号22号楼103","type":"生活服务;搬家公司;搬家公司","typecode":"071700","pcode":310000,"pname":"上海市","citycode":21,"cityname":"上海市","adcode":310107,"adname":"普陀区","business_a":"大宁路","location":"121.439175,31.257127","tel":"021-56091990","bigType":"生活服务","midType":"搬家公司","smallType":"搬家公司","gcj_lng":121.439175,"gcj_lat":31.257127,"wgs84_loc":"121.434558,31.25898","wgs84Lng":"121.434558","wgs84Lat":"31.25898","__source_file__":"13-常用公服设施点/SHP/上海市_搬家公司.shp"},"geometry":{"type":"Point","coordinates":[121.434558,31.25898]}},{"id":"74","type":"Feature","properties":{"id":"B0G2RAIA9N","name":"上海优迁搬家服务有限公司","address":"谈家桥路155弄4号","type":"生活服务;搬家公司;搬家公司","typecode":"071700","pcode":310000,"pname":"上海市","citycode":21,"cityname":"上海市","adcode":310106,"adname":"静安区","business_a":"和田","location":"121.450957,31.260139","tel":"13167082217","bigType":"生活服务","midType":"搬家公司","smallType":"搬家公司","gcj_lng":121.450957,"gcj_lat":31.260139,"wgs84_loc":"121.446365,31.262013","wgs84Lng":"121.446365","wgs84Lat":"31.262013","__source_file__":"13-常用公服设施点/SHP/上海市_搬家公司.shp"},"geometry":{"type":"Point","coordinates":[121.446365,31.262013]}},{"id":"71","type":"Feature","properties":{"id":"B0GRGOR05V","name":"强生蚂蚁精品搬家搬场","address":"沪太路623号","type":"生活服务;搬家公司;搬家公司","typecode":"071700","pcode":310000,"pname":"上海市","citycode":21,"cityname":"上海市","adcode":310106,"adname":"静安区","business_a":"大宁路","location":"121.448489,31.260353","tel":"[]","bigType":"生活服务","midType":"搬家公司","smallType":"搬家公司","gcj_lng":121.448489,"gcj_lat":31.260353,"wgs84_loc":"121.443891,31.262222","wgs84Lng":"121.443891","wgs84Lat":"31.262222","__source_file__":"13-常用公服设施点/SHP/上海市_搬家公司.shp"},"geometry":{"type":"Point","coordinates":[121.443891,31.262222]}},{"id":"173","type":"Feature","properties":{"id":"B0K627ESGM","name":"上海搬家公司(蚂蚁搬家上海店)","address":"沪太路785号19幢301-14室","type":"生活服务;搬家公司;搬家公司","typecode":"071700","pcode":310000,"pname":"上海市","citycode":21,"cityname":"上海市","adcode":310106,"adname":"静安区","business_a":"和田","location":"121.447652,31.261648","tel":"4000278686","bigType":"生活服务","midType":"搬家公司","smallType":"搬家公司","gcj_lng":121.447652,"gcj_lat":31.261648,"wgs84_loc":"121.443052,31.263514","wgs84Lng":"121.443052","wgs84Lat":"31.263514","__source_file__":"13-常用公服设施点/SHP/上海市_搬家公司.shp"},"geometry":{"type":"Point","coordinates":[121.443052,31.263514]}},{"id":"130","type":"Feature","properties":{"id":"B0FFI25VFO","name":"上海强生搬家服务有限公司","address":"沪太路671号H671商务楼3层B407室","type":"生活服务;搬家公司;搬家公司","typecode":"071700","pcode":310000,"pname":"上海市","citycode":21,"cityname":"上海市","adcode":310106,"adname":"静安区","business_a":"大宁路","location":"121.447516,31.263054","tel":"[]","bigType":"生活服务","midType":"搬家公司","smallType":"搬家公司","gcj_lng":121.447516,"gcj_lat":31.263054,"wgs84_loc":"121.442916,31.26492","wgs84Lng":"121.442916","wgs84Lat":"31.26492","__source_file__":"13-常用公服设施点/SHP/上海市_搬家公司.shp"},"geometry":{"type":"Point","coordinates":[121.442916,31.26492]}}],"name":"上海市_搬家公司","crs":{"type":"name","properties":{"name":"urn:ogc:def:crs:OGC:1.3:CRS84"}}}