{"type":"FeatureCollection","features":[{"id":"16","type":"Feature","properties":{"id":"B0FFKFZEWZ","name":"小澡糖婴童SPA生活馆","address":"泰州路411号","type":"生活服务;婴儿服务场所;婴儿游泳馆","typecode":"072001","pcode":310000,"pname":"上海市","citycode":21,"cityname":"上海市","adcode":310106,"adname":"静安区","business_a":"曹家渡","location":"121.433876,31.233479","tel":"021-62565367;18321823525","bigType":"生活服务","midType":"婴儿服务场所","smallType":"婴儿游泳馆","gcj_lng":121.433876,"gcj_lat":31.233479,"wgs84_loc":"121.429251,31.235335","wgs84Lng":"121.429251","wgs84Lat":"31.235335","__source_file__":"13-常用公服设施点/SHP/上海市_婴儿服务场所.shp"},"geometry":{"type":"Point","coordinates":[121.429251,31.235335]}},{"id":"212","type":"Feature","properties":{"id":"B0HRL70U5E","name":"宝贝爱儿飞亲子乐园","address":"长寿路393号甲二号楼2楼2-205","type":"生活服务;婴儿服务场所;婴儿服务场所","typecode":"072000","pcode":310000,"pname":"上海市","citycode":21,"cityname":"上海市","adcode":310107,"adname":"普陀区","business_a":"曹家渡","location":"121.437513,31.239387","tel":"13262735159","bigType":"生活服务","midType":"婴儿服务场所","smallType":"婴儿服务场所","gcj_lng":121.437513,"gcj_lat":31.239387,"wgs84_loc":"121.432894,31.241246","wgs84Lng":"121.432894","wgs84Lat":"31.241246","__source_file__":"13-常用公服设施点/SHP/上海市_婴儿服务场所.shp"},"geometry":{"type":"Point","coordinates":[121.432894,31.241246]}},{"id":"150","type":"Feature","properties":{"id":"B0FFH82FVT","name":"UCAN婴童游泳(巴黎春天店)","address":"长寿路155号巴黎春天3层302","type":"生活服务;婴儿服务场所;婴儿游泳馆|体育休闲服务;休闲场所;游乐场","typecode":"072001|080501","pcode":310000,"pname":"上海市","citycode":21,"cityname":"上海市","adcode":310107,"adname":"普陀区","business_a":"曹家渡","location":"121.441420,31.242745","tel":"021-31315115","bigType":"生活服务","midType":"婴儿服务场所","smallType":"婴儿游泳馆|体育休闲服务","gcj_lng":121.44142,"gcj_lat":31.242745,"wgs84_loc":"121.436808,31.244608","wgs84Lng":"121.436808","wgs84Lat":"31.244608","__source_file__":"13-常用公服设施点/SHP/上海市_婴儿服务场所.shp"},"geometry":{"type":"Point","coordinates":[121.436808,31.244608]}},{"id":"412","type":"Feature","properties":{"id":"B0KKS1LSAP","name":"乐旗鱼婴幼儿游泳俱乐部","address":"澳门路与江宁路交叉口西南120米","type":"生活服务;婴儿服务场所;婴儿游泳馆","typecode":"072001","pcode":310000,"pname":"上海市","citycode":21,"cityname":"上海市","adcode":310107,"adname":"普陀区","business_a":"长寿路","location":"121.440172,31.245834","tel":"[]","bigType":"生活服务","midType":"婴儿服务场所","smallType":"婴儿游泳馆","gcj_lng":121.440172,"gcj_lat":31.245834,"wgs84_loc":"121.435558,31.247694","wgs84Lng":"121.435558","wgs84Lat":"31.247694","__source_file__":"13-常用公服设施点/SHP/上海市_婴儿服务场所.shp"},"geometry":{"type":"Point","coordinates":[121.435558,31.247694]}},{"id":"71","type":"Feature","properties":{"id":"B0FFJIVDQQ","name":"鱼乐贝贝婴幼儿水育馆(浅水湾店)","address":"宜昌路11号-2","type":"生活服务;婴儿服务场所;婴儿游泳馆","typecode":"072001","pcode":310000,"pname":"上海市","citycode":21,"cityname":"上海市","adcode":310107,"adname":"普陀区","business_a":"光新","location":"121.442006,31.249354","tel":"[]","bigType":"生活服务","midType":"婴儿服务场所","smallType":"婴儿游泳馆","gcj_lng":121.442006,"gcj_lat":31.249354,"wgs84_loc":"121.437395,31.251215","wgs84Lng":"121.437395","wgs84Lat":"31.251215","__source_file__":"13-常用公服设施点/SHP/上海市_婴儿服务场所.shp"},"geometry":{"type":"Point","coordinates":[121.437395,31.251215]}},{"id":"231","type":"Feature","properties":{"id":"B0FFMDJVWJ","name":"乐旗鱼亲子游泳俱乐部","address":"融创精彩天地上海香溢B区254-202室","type":"生活服务;婴儿服务场所;婴儿游泳馆","typecode":"072001","pcode":310000,"pname":"上海市","citycode":21,"cityname":"上海市","adcode":310107,"adname":"普陀区","business_a":"光新","location":"121.432846,31.255054","tel":"17317397439","bigType":"生活服务","midType":"婴儿服务场所","smallType":"婴儿游泳馆","gcj_lng":121.432846,"gcj_lat":31.255054,"wgs84_loc":"121.428218,31.256899","wgs84Lng":"121.428218","wgs84Lat":"31.256899","__source_file__":"13-常用公服设施点/SHP/上海市_婴儿服务场所.shp"},"geometry":{"type":"Point","coordinates":[121.428218,31.256899]}},{"id":"321","type":"Feature","properties":{"id":"B0FFMDQPB4","name":"鱼乐贝贝婴幼儿水育馆(融创香溢天地店)","address":"石泉东路254号融创精彩天地B区302室","type":"生活服务;婴儿服务场所;婴儿游泳馆","typecode":"072001","pcode":310000,"pname":"上海市","citycode":21,"cityname":"上海市","adcode":310107,"adname":"普陀区","business_a":"大宁路","location":"121.432945,31.255228","tel":"18317175935","bigType":"生活服务","midType":"婴儿服务场所","smallType":"婴儿游泳馆","gcj_lng":121.432945,"gcj_lat":31.255228,"wgs84_loc":"121.428317,31.257073","wgs84Lng":"121.428317","wgs84Lat":"31.257073","__source_file__":"13-常用公服设施点/SHP/上海市_婴儿服务场所.shp"},"geometry":{"type":"Point","coordinates":[121.428317,31.257073]}},{"id":"334","type":"Feature","properties":{"id":"B0FFIRV2Y3","name":"Baby River贝贝瑞婴童SPA生活馆","address":"石泉东路206号(香溢花城旁）","type":"生活服务;婴儿服务场所;婴儿游泳馆|购物服务;专卖店;儿童用品店","typecode":"072001|061207","pcode":310000,"pname":"上海市","citycode":21,"cityname":"上海市","adcode":310107,"adname":"普陀区","business_a":"光新","location":"121.433641,31.255774","tel":"021-52868758","bigType":"生活服务","midType":"婴儿服务场所","smallType":"婴儿游泳馆|购物服务","gcj_lng":121.433641,"gcj_lat":31.255774,"wgs84_loc":"121.429014,31.25762","wgs84Lng":"121.429014","wgs84Lat":"31.25762","__source_file__":"13-常用公服设施点/SHP/上海市_婴儿服务场所.shp"},"geometry":{"type":"Point","coordinates":[121.429014,31.25762]}},{"id":"216","type":"Feature","properties":{"id":"B0FFG8OCPM","name":"龙格亲子游泳俱乐部(露香园店)","address":"柳泉弄1号2层","type":"生活服务;婴儿服务场所;婴儿游泳馆","typecode":"072001","pcode":310000,"pname":"上海市","citycode":21,"cityname":"上海市","adcode":310101,"adname":"黄浦区","business_a":"淮海路","location":"121.484498,31.226663","tel":"4001832262;021-63038077;021-63038073","bigType":"生活服务","midType":"婴儿服务场所","smallType":"婴儿游泳馆","gcj_lng":121.484498,"gcj_lat":31.226663,"wgs84_loc":"121.480012,31.228637","wgs84Lng":"121.480012","wgs84Lat":"31.228637","__source_file__":"13-常用公服设施点/SHP/上海市_婴儿服务场所.shp"},"geometry":{"type":"Point","coordinates":[121.480012,31.228637]}},{"id":"387","type":"Feature","properties":{"id":"B0JU3D20F0","name":"水母艾拉婴幼儿水育馆(金融街购物中心店)","address":"中兴路1683号L3-7","type":"生活服务;婴儿服务场所;婴儿游泳馆","typecode":"072001","pcode":310000,"pname":"上海市","citycode":21,"cityname":"上海市","adcode":310106,"adname":"静安区","business_a":"不夜城","location":"121.453325,31.253375","tel":"17821261066","bigType":"生活服务","midType":"婴儿服务场所","smallType":"婴儿游泳馆","gcj_lng":121.453325,"gcj_lat":31.253375,"wgs84_loc":"121.44874,31.255257","wgs84Lng":"121.44874","wgs84Lat":"31.255257","__source_file__":"13-常用公服设施点/SHP/上海市_婴儿服务场所.shp"},"geometry":{"type":"Point","coordinates":[121.44874,31.255257]}},{"id":"159","type":"Feature","properties":{"id":"B0FFL80AG3","name":"Coolfun蓝鲸兀水育馆","address":"物华路240号","type":"生活服务;婴儿服务场所;婴儿游泳馆","typecode":"072001","pcode":310000,"pname":"上海市","citycode":21,"cityname":"上海市","adcode":310109,"adname":"虹口区","business_a":"四平路","location":"121.492791,31.261782","tel":"021-56389093;17717306546","bigType":"生活服务","midType":"婴儿服务场所","smallType":"婴儿游泳馆","gcj_lng":121.492791,"gcj_lat":31.261782,"wgs84_loc":"121.488331,31.263765","wgs84Lng":"121.488331","wgs84Lat":"31.263765","__source_file__":"13-常用公服设施点/SHP/上海市_婴儿服务场所.shp"},"geometry":{"type":"Point","coordinates":[121.488331,31.263765]}},{"id":"50","type":"Feature","properties":{"id":"B0H2H1L0TL","name":"蓝鲸兀婴幼儿游泳馆","address":"物华路240号","type":"生活服务;婴儿服务场所;婴儿游泳馆","typecode":"072001","pcode":310000,"pname":"上海市","citycode":21,"cityname":"上海市","adcode":310109,"adname":"虹口区","business_a":"四平路","location":"121.492869,31.261937","tel":"[]","bigType":"生活服务","midType":"婴儿服务场所","smallType":"婴儿游泳馆","gcj_lng":121.492869,"gcj_lat":31.261937,"wgs84_loc":"121.488409,31.26392","wgs84Lng":"121.488409","wgs84Lat":"31.26392","__source_file__":"13-常用公服设施点/SHP/上海市_婴儿服务场所.shp"},"geometry":{"type":"Point","coordinates":[121.488409,31.26392]}},{"id":"428","type":"Feature","properties":{"id":"B0KUHNHKS3","name":"妙糖水育婴儿游泳(宏慧·新里店)","address":"东宝兴路777号宏慧·新里F3层","type":"生活服务;婴儿服务场所;婴儿游泳馆","typecode":"072001","pcode":310000,"pname":"上海市","citycode":21,"cityname":"上海市","adcode":310109,"adname":"虹口区","business_a":"宝山路","location":"121.475150,31.263227","tel":"[]","bigType":"生活服务","midType":"婴儿服务场所","smallType":"婴儿游泳馆","gcj_lng":121.47515,"gcj_lat":31.263227,"wgs84_loc":"121.470629,31.265159","wgs84Lng":"121.470629","wgs84Lat":"31.265159","__source_file__":"13-常用公服设施点/SHP/上海市_婴儿服务场所.shp"},"geometry":{"type":"Point","coordinates":[121.470629,31.265159]}},{"id":"64","type":"Feature","properties":{"id":"B0FFHP9RLF","name":"游趣婴童游泳馆(闸北公园店)","address":"普善路845号悠和家园","type":"生活服务;婴儿服务场所;婴儿游泳馆","typecode":"072001","pcode":310000,"pname":"上海市","citycode":21,"cityname":"上海市","adcode":310106,"adname":"静安区","business_a":"和田","location":"121.451067,31.265735","tel":"13817756059","bigType":"生活服务","midType":"婴儿服务场所","smallType":"婴儿游泳馆","gcj_lng":121.451067,"gcj_lat":31.265735,"wgs84_loc":"121.446475,31.267607","wgs84Lng":"121.446475","wgs84Lat":"31.267607","__source_file__":"13-常用公服设施点/SHP/上海市_婴儿服务场所.shp"},"geometry":{"type":"Point","coordinates":[121.446475,31.267607]}},{"id":"322","type":"Feature","properties":{"id":"B0FFL7B7DT","name":"鱼乐贝贝婴幼儿水育馆(宜乐荟)","address":"宜川路299-311号宜乐荟商场301商铺","type":"生活服务;婴儿服务场所;婴儿游泳馆","typecode":"072001","pcode":310000,"pname":"上海市","citycode":21,"cityname":"上海市","adcode":310107,"adname":"普陀区","business_a":"光新","location":"121.437980,31.262760","tel":"18918248621","bigType":"生活服务","midType":"婴儿服务场所","smallType":"婴儿游泳馆","gcj_lng":121.43798,"gcj_lat":31.26276,"wgs84_loc":"121.43336,31.264609","wgs84Lng":"121.43336","wgs84Lat":"31.264609","__source_file__":"13-常用公服设施点/SHP/上海市_婴儿服务场所.shp"},"geometry":{"type":"Point","coordinates":[121.43336,31.264609]}},{"id":"134","type":"Feature","properties":{"id":"B0I6A75ACU","name":"蓝鲸婴儿游泳馆","address":"宜川路299号宜乐荟商场三层","type":"生活服务;婴儿服务场所;婴儿游泳馆","typecode":"072001","pcode":310000,"pname":"上海市","citycode":21,"cityname":"上海市","adcode":310107,"adname":"普陀区","business_a":"光新","location":"121.437990,31.262760","tel":"[]","bigType":"生活服务","midType":"婴儿服务场所","smallType":"婴儿游泳馆","gcj_lng":121.43799,"gcj_lat":31.26276,"wgs84_loc":"121.43337,31.264609","wgs84Lng":"121.43337","wgs84Lat":"31.264609","__source_file__":"13-常用公服设施点/SHP/上海市_婴儿服务场所.shp"},"geometry":{"type":"Point","coordinates":[121.43337,31.264609]}},{"id":"408","type":"Feature","properties":{"id":"B0HUNCBAC5","name":"蓝鲸婴儿游泳馆(宜乐荟店)","address":"宜川路299号宜乐汇F3层","type":"生活服务;婴儿服务场所;婴儿游泳馆","typecode":"072001","pcode":310000,"pname":"上海市","citycode":21,"cityname":"上海市","adcode":310107,"adname":"普陀区","business_a":"大宁路","location":"121.437990,31.262760","tel":"18918248621","bigType":"生活服务","midType":"婴儿服务场所","smallType":"婴儿游泳馆","gcj_lng":121.43799,"gcj_lat":31.26276,"wgs84_loc":"121.43337,31.264609","wgs84Lng":"121.43337","wgs84Lat":"31.264609","__source_file__":"13-常用公服设施点/SHP/上海市_婴儿服务场所.shp"},"geometry":{"type":"Point","coordinates":[121.43337,31.264609]}},{"id":"56","type":"Feature","properties":{"id":"B0FFMAL0M1","name":"爱玩爱游婴儿水育中心(宜川路店)","address":"宜川路773号","type":"生活服务;婴儿服务场所;婴儿游泳馆","typecode":"072001","pcode":310000,"pname":"上海市","citycode":21,"cityname":"上海市","adcode":310106,"adname":"静安区","business_a":"大宁路","location":"121.438432,31.270256","tel":"18358561269","bigType":"生活服务","midType":"婴儿服务场所","smallType":"婴儿游泳馆","gcj_lng":121.438432,"gcj_lat":31.270256,"wgs84_loc":"121.433812,31.272102","wgs84Lng":"121.433812","wgs84Lat":"31.272102","__source_file__":"13-常用公服设施点/SHP/上海市_婴儿服务场所.shp"},"geometry":{"type":"Point","coordinates":[121.433812,31.272102]}},{"id":"133","type":"Feature","properties":{"id":"B0FFJO5GFF","name":"HCUTEBABY婴儿游泳馆","address":"西江湾路388号龙之梦B座4层04-05","type":"生活服务;婴儿服务场所;婴儿游泳馆","typecode":"072001","pcode":310000,"pname":"上海市","citycode":21,"cityname":"上海市","adcode":310109,"adname":"虹口区","business_a":"江湾","location":"121.477219,31.271143","tel":"[]","bigType":"生活服务","midType":"婴儿服务场所","smallType":"婴儿游泳馆","gcj_lng":121.477219,"gcj_lat":31.271143,"wgs84_loc":"121.472704,31.273077","wgs84Lng":"121.472704","wgs84Lat":"31.273077","__source_file__":"13-常用公服设施点/SHP/上海市_婴儿服务场所.shp"},"geometry":{"type":"Point","coordinates":[121.472704,31.273077]}},{"id":"17","type":"Feature","properties":{"id":"B0H07C50UI","name":"水精灵婴童Spa生活馆","address":"万荣路366号","type":"生活服务;婴儿服务场所;婴儿游泳馆","typecode":"072001","pcode":310000,"pname":"上海市","citycode":21,"cityname":"上海市","adcode":310106,"adname":"静安区","business_a":"大宁路","location":"121.444371,31.272568","tel":"021-56332992;19901851441","bigType":"生活服务","midType":"婴儿服务场所","smallType":"婴儿游泳馆","gcj_lng":121.444371,"gcj_lat":31.272568,"wgs84_loc":"121.439763,31.274424","wgs84Lng":"121.439763","wgs84Lat":"31.274424","__source_file__":"13-常用公服设施点/SHP/上海市_婴儿服务场所.shp"},"geometry":{"type":"Point","coordinates":[121.439763,31.274424]}},{"id":"388","type":"Feature","properties":{"id":"B0JKOCMKUD","name":"游趣婴童游泳馆(歌林春天馨园万荣路388弄店)","address":"歌林春天馨园万荣路388弄","type":"生活服务;婴儿服务场所;婴儿游泳馆","typecode":"072001","pcode":310000,"pname":"上海市","citycode":21,"cityname":"上海市","adcode":310106,"adname":"静安区","business_a":"大宁路","location":"121.444384,31.272600","tel":"[]","bigType":"生活服务","midType":"婴儿服务场所","smallType":"婴儿游泳馆","gcj_lng":121.444384,"gcj_lat":31.2726,"wgs84_loc":"121.439776,31.274456","wgs84Lng":"121.439776","wgs84Lat":"31.274456","__source_file__":"13-常用公服设施点/SHP/上海市_婴儿服务场所.shp"},"geometry":{"type":"Point","coordinates":[121.439776,31.274456]}},{"id":"200","type":"Feature","properties":{"id":"B0H0JXZO3O","name":"水精灵游泳馆","address":"万荣路辅路与万荣路交叉口西约20米","type":"生活服务;婴儿服务场所;婴儿游泳馆","typecode":"072001","pcode":310000,"pname":"上海市","citycode":21,"cityname":"上海市","adcode":310106,"adname":"静安区","business_a":"大宁路","location":"121.444374,31.272606","tel":"[]","bigType":"生活服务","midType":"婴儿服务场所","smallType":"婴儿游泳馆","gcj_lng":121.444374,"gcj_lat":31.272606,"wgs84_loc":"121.439766,31.274462","wgs84Lng":"121.439766","wgs84Lat":"31.274462","__source_file__":"13-常用公服设施点/SHP/上海市_婴儿服务场所.shp"},"geometry":{"type":"Point","coordinates":[121.439766,31.274462]}}],"name":"上海市_婴儿服务场所","crs":{"type":"name","properties":{"name":"urn:ogc:def:crs:OGC:1.3:CRS84"}}}