{"type":"FeatureCollection","features":[{"id":"150","type":"Feature","properties":{"id":"B0FFJYNGZK","name":"公用电话wifi","address":"武胜路333号附近","type":"公共设施;公共设施;公共设施","typecode":"200000","pcode":310000,"pname":"上海市","citycode":21,"cityname":"上海市","adcode":310101,"adname":"黄浦区","business_a":"北京东路","location":"121.473827,31.227112","tel":"[]","bigType":"公共设施","midType":"公共设施","smallType":"公共设施","gcj_lng":121.473827,"gcj_lat":31.227112,"wgs84_loc":"121.469305,31.229056","wgs84Lng":"121.469305","wgs84Lat":"31.229056","__source_file__":"13-常用公服设施点/SHP/上海市_公共设施.shp"},"geometry":{"type":"Point","coordinates":[121.469305,31.229056]}},{"id":"188","type":"Feature","properties":{"id":"B0J2CZ4IH6","name":"民防工程(人民工具七厂)","address":"永安街95号","type":"公共设施;公共设施;公共设施","typecode":"200000","pcode":310000,"pname":"上海市","citycode":21,"cityname":"上海市","adcode":310101,"adname":"黄浦区","business_a":"城隍庙","location":"121.491994,31.230343","tel":"[]","bigType":"公共设施","midType":"公共设施","smallType":"公共设施","gcj_lng":121.491994,"gcj_lat":31.230343,"wgs84_loc":"121.487534,31.232338","wgs84Lng":"121.487534","wgs84Lat":"31.232338","__source_file__":"13-常用公服设施点/SHP/上海市_公共设施.shp"},"geometry":{"type":"Point","coordinates":[121.487534,31.232338]}},{"id":"6","type":"Feature","properties":{"id":"B0FFH10OJX","name":"智能公话站","address":"浙江中路与福州路交叉口西50米","type":"公共设施;公共设施;公共设施","typecode":"200000","pcode":310000,"pname":"上海市","citycode":21,"cityname":"上海市","adcode":310101,"adname":"黄浦区","business_a":"北京东路","location":"121.479050,31.232756","tel":"[]","bigType":"公共设施","midType":"公共设施","smallType":"公共设施","gcj_lng":121.47905,"gcj_lat":31.232756,"wgs84_loc":"121.474545,31.234712","wgs84Lng":"121.474545","wgs84Lat":"31.234712","__source_file__":"13-常用公服设施点/SHP/上海市_公共设施.shp"},"geometry":{"type":"Point","coordinates":[121.474545,31.234712]}},{"id":"83","type":"Feature","properties":{"id":"B0FFHUUKGJ","name":"仁济医院(西院)卫生间","address":"与昭通路交叉口西50米","type":"公共设施;公共设施;公共设施","typecode":"200000","pcode":310000,"pname":"上海市","citycode":21,"cityname":"上海市","adcode":310101,"adname":"黄浦区","business_a":"北京东路","location":"121.484489,31.233705","tel":"[]","bigType":"公共设施","midType":"公共设施","smallType":"公共设施","gcj_lng":121.484489,"gcj_lat":31.233705,"wgs84_loc":"121.480002,31.235676","wgs84Lng":"121.480002","wgs84Lat":"31.235676","__source_file__":"13-常用公服设施点/SHP/上海市_公共设施.shp"},"geometry":{"type":"Point","coordinates":[121.480002,31.235676]}},{"id":"1","type":"Feature","properties":{"id":"B0HUNU9RB1","name":"无障碍洗手间(第一百货)","address":"上海市黄浦区南京东路830号B馆L8","type":"公共设施;公共设施;公共设施","typecode":"200000","pcode":310000,"pname":"上海市","citycode":21,"cityname":"上海市","adcode":310101,"adname":"黄浦区","business_a":"北京路","location":"121.474633,31.235534","tel":"[]","bigType":"公共设施","midType":"公共设施","smallType":"公共设施","gcj_lng":121.474633,"gcj_lat":31.235534,"wgs84_loc":"121.470113,31.237476","wgs84Lng":"121.470113","wgs84Lat":"31.237476","__source_file__":"13-常用公服设施点/SHP/上海市_公共设施.shp"},"geometry":{"type":"Point","coordinates":[121.470113,31.237476]}},{"id":"21","type":"Feature","properties":{"id":"B0FFIW941R","name":"上海外滩公共厕所","address":"东大名路500号附近","type":"公共设施;公共设施;公共设施","typecode":"200000","pcode":310000,"pname":"上海市","citycode":21,"cityname":"上海市","adcode":310109,"adname":"虹口区","business_a":"北外滩","location":"121.497201,31.246333","tel":"[]","bigType":"公共设施","midType":"公共设施","smallType":"公共设施","gcj_lng":121.497201,"gcj_lat":31.246333,"wgs84_loc":"121.492758,31.248336","wgs84Lng":"121.492758","wgs84Lat":"31.248336","__source_file__":"13-常用公服设施点/SHP/上海市_公共设施.shp"},"geometry":{"type":"Point","coordinates":[121.492758,31.248336]}},{"id":"7","type":"Feature","properties":{"id":"B0IGBZKGQT","name":"应急避难场所","address":"吴淞路辅路与塘沽路交叉口西北60米","type":"公共设施;公共设施;公共设施","typecode":"200000","pcode":310000,"pname":"上海市","citycode":21,"cityname":"上海市","adcode":310109,"adname":"虹口区","business_a":"北外滩","location":"121.489396,31.248602","tel":"[]","bigType":"公共设施","midType":"公共设施","smallType":"公共设施","gcj_lng":121.489396,"gcj_lat":31.248602,"wgs84_loc":"121.484925,31.250581","wgs84Lng":"121.484925","wgs84Lat":"31.250581","__source_file__":"13-常用公服设施点/SHP/上海市_公共设施.shp"},"geometry":{"type":"Point","coordinates":[121.484925,31.250581]}},{"id":"20","type":"Feature","properties":{"id":"B0FFJ3CAPX","name":"公共厕所","address":"武进路205附近","type":"公共设施;公共设施;公共设施","typecode":"200000","pcode":310000,"pname":"上海市","citycode":21,"cityname":"上海市","adcode":310109,"adname":"虹口区","business_a":"[]","location":"121.485723,31.252681","tel":"[]","bigType":"公共设施","midType":"公共设施","smallType":"公共设施","gcj_lng":121.485723,"gcj_lat":31.252681,"wgs84_loc":"121.481239,31.254647","wgs84Lng":"121.481239","wgs84Lat":"31.254647","__source_file__":"13-常用公服设施点/SHP/上海市_公共设施.shp"},"geometry":{"type":"Point","coordinates":[121.481239,31.254647]}},{"id":"102","type":"Feature","properties":{"id":"B00156SEPC","name":"上海电信话吧","address":"[]","type":"公共设施;公共设施;公共设施","typecode":"200000","pcode":310000,"pname":"上海市","citycode":21,"cityname":"上海市","adcode":310109,"adname":"虹口区","business_a":"宝山路","location":"121.483468,31.260329","tel":"[]","bigType":"公共设施","midType":"公共设施","smallType":"公共设施","gcj_lng":121.483468,"gcj_lat":31.260329,"wgs84_loc":"121.478975,31.262285","wgs84Lng":"121.478975","wgs84Lat":"31.262285","__source_file__":"13-常用公服设施点/SHP/上海市_公共设施.shp"},"geometry":{"type":"Point","coordinates":[121.478975,31.262285]}},{"id":"85","type":"Feature","properties":{"id":"B0FFIA7AOV","name":"公共厕所","address":"金陵西路3正西方向170米","type":"公共设施;公共设施;公共设施","typecode":"200000","pcode":310000,"pname":"上海市","citycode":21,"cityname":"上海市","adcode":310101,"adname":"黄浦区","business_a":"北京东路","location":"121.471920,31.224188","tel":"[]","bigType":"公共设施","midType":"公共设施","smallType":"公共设施","gcj_lng":121.47192,"gcj_lat":31.224188,"wgs84_loc":"121.467392,31.226128","wgs84Lng":"121.467392","wgs84Lat":"31.226128","__source_file__":"13-常用公服设施点/SHP/上海市_公共设施.shp"},"geometry":{"type":"Point","coordinates":[121.467392,31.226128]}},{"id":"132","type":"Feature","properties":{"id":"B0FFHUJLPS","name":"公用电话wifi","address":"黄陂北路上海人民广场西南侧约110米","type":"公共设施;公共设施;公共设施","typecode":"200000","pcode":310000,"pname":"上海市","citycode":21,"cityname":"上海市","adcode":310101,"adname":"黄浦区","business_a":"北京东路","location":"121.472973,31.226453","tel":"[]","bigType":"公共设施","midType":"公共设施","smallType":"公共设施","gcj_lng":121.472973,"gcj_lat":31.226453,"wgs84_loc":"121.468448,31.228395","wgs84Lng":"121.468448","wgs84Lat":"31.228395","__source_file__":"13-常用公服设施点/SHP/上海市_公共设施.shp"},"geometry":{"type":"Point","coordinates":[121.468448,31.228395]}},{"id":"111","type":"Feature","properties":{"id":"B0FFIDJGEU","name":"承接室内装修卫生间改造","address":"新昌路313号附近","type":"公共设施;公共设施;公共设施","typecode":"200000","pcode":310000,"pname":"上海市","citycode":21,"cityname":"上海市","adcode":310101,"adname":"黄浦区","business_a":"北京东路","location":"121.468251,31.235968","tel":"[]","bigType":"公共设施","midType":"公共设施","smallType":"公共设施","gcj_lng":121.468251,"gcj_lat":31.235968,"wgs84_loc":"121.46371,31.237893","wgs84Lng":"121.46371","wgs84Lat":"31.237893","__source_file__":"13-常用公服设施点/SHP/上海市_公共设施.shp"},"geometry":{"type":"Point","coordinates":[121.46371,31.237893]}},{"id":"112","type":"Feature","properties":{"id":"B0IG1ZD209","name":"承接室内装修卫生间改造","address":"新昌路与青岛路交叉口东南20米","type":"公共设施;公共设施;公共设施","typecode":"200000","pcode":310000,"pname":"上海市","citycode":21,"cityname":"上海市","adcode":310101,"adname":"黄浦区","business_a":"北京东路","location":"121.467628,31.237008","tel":"[]","bigType":"公共设施","midType":"公共设施","smallType":"公共设施","gcj_lng":121.467628,"gcj_lat":31.237008,"wgs84_loc":"121.463085,31.238931","wgs84Lng":"121.463085","wgs84Lat":"31.238931","__source_file__":"13-常用公服设施点/SHP/上海市_公共设施.shp"},"geometry":{"type":"Point","coordinates":[121.463085,31.238931]}},{"id":"134","type":"Feature","properties":{"id":"B0FFHST6EB","name":"应急掩蔽场所","address":"梅园路88上海伊莱美医疗美容医院附近","type":"公共设施;公共设施;公共设施","typecode":"200000","pcode":310000,"pname":"上海市","citycode":21,"cityname":"上海市","adcode":310106,"adname":"静安区","business_a":"宝山路","location":"121.458047,31.245612","tel":"[]","bigType":"公共设施","midType":"公共设施","smallType":"公共设施","gcj_lng":121.458047,"gcj_lat":31.245612,"wgs84_loc":"121.453475,31.247508","wgs84Lng":"121.453475","wgs84Lat":"31.247508","__source_file__":"13-常用公服设施点/SHP/上海市_公共设施.shp"},"geometry":{"type":"Point","coordinates":[121.453475,31.247508]}},{"id":"10","type":"Feature","properties":{"id":"B0IGU5XLQ2","name":"应急避难场所","address":"朱家湾后浜路与光新路交叉口东60米","type":"公共设施;公共设施;公共设施","typecode":"200000","pcode":310000,"pname":"上海市","citycode":21,"cityname":"上海市","adcode":310107,"adname":"普陀区","business_a":"大宁路","location":"121.432374,31.252554","tel":"[]","bigType":"公共设施","midType":"公共设施","smallType":"公共设施","gcj_lng":121.432374,"gcj_lat":31.252554,"wgs84_loc":"121.427745,31.254399","wgs84Lng":"121.427745","wgs84Lat":"31.254399","__source_file__":"13-常用公服设施点/SHP/上海市_公共设施.shp"},"geometry":{"type":"Point","coordinates":[121.427745,31.254399]}},{"id":"11","type":"Feature","properties":{"id":"B0IG9SBMG9","name":"应急避难场所","address":"洛川路与骊山路交叉口东100米","type":"公共设施;公共设施;公共设施","typecode":"200000","pcode":310000,"pname":"上海市","citycode":21,"cityname":"上海市","adcode":310107,"adname":"普陀区","business_a":"光新","location":"121.444047,31.262646","tel":"[]","bigType":"公共设施","midType":"公共设施","smallType":"公共设施","gcj_lng":121.444047,"gcj_lat":31.262646,"wgs84_loc":"121.439439,31.264505","wgs84Lng":"121.439439","wgs84Lat":"31.264505","__source_file__":"13-常用公服设施点/SHP/上海市_公共设施.shp"},"geometry":{"type":"Point","coordinates":[121.439439,31.264505]}}],"name":"上海市_公共设施","crs":{"type":"name","properties":{"name":"urn:ogc:def:crs:OGC:1.3:CRS84"}}}