{"type":"FeatureCollection","features":[{"id":"208","type":"Feature","properties":{"id":"B0FFFWVL6Y","name":"吉佰客自驾租车(兴业路店)","address":"兴业路与淡水路交叉口东北50米","type":"汽车服务;汽车租赁;汽车租赁","typecode":"010900","pcode":310000,"pname":"上海市","citycode":21,"cityname":"上海市","adcode":310101,"adname":"黄浦区","business_a":"淮海路","location":"121.473244,31.219561","tel":"13661438077","bigType":"汽车服务","midType":"汽车租赁","smallType":"汽车租赁","gcj_lng":121.473244,"gcj_lat":31.219561,"wgs84_loc":"121.46872,31.221507","wgs84Lng":"121.46872","wgs84Lat":"31.221507","__source_file__":"13-常用公服设施点/SHP/上海市_汽车租赁.shp"},"geometry":{"type":"Point","coordinates":[121.46872,31.221507]}},{"id":"261","type":"Feature","properties":{"id":"B0HRLC1SHM","name":"上海游马汇名车租赁(淡水路店)","address":"淡水路108号附1","type":"汽车服务;汽车租赁;汽车租赁","typecode":"010900","pcode":310000,"pname":"上海市","citycode":21,"cityname":"上海市","adcode":310101,"adname":"黄浦区","business_a":"淮海路","location":"121.472497,31.221117","tel":"17521682224","bigType":"汽车服务","midType":"汽车租赁","smallType":"汽车租赁","gcj_lng":121.472497,"gcj_lat":31.221117,"wgs84_loc":"121.467971,31.22306","wgs84Lng":"121.467971","wgs84Lat":"31.22306","__source_file__":"13-常用公服设施点/SHP/上海市_汽车租赁.shp"},"geometry":{"type":"Point","coordinates":[121.467971,31.22306]}},{"id":"1292","type":"Feature","properties":{"id":"B0K057UY1W","name":"上海包车上海租车畅迅租车公司","address":"淮海中路300号K11大厦","type":"汽车服务;汽车租赁;汽车租赁","typecode":"010900","pcode":310000,"pname":"上海市","citycode":21,"cityname":"上海市","adcode":310101,"adname":"黄浦区","business_a":"北京路","location":"121.473480,31.223675","tel":"13816003119","bigType":"汽车服务","midType":"汽车租赁","smallType":"汽车租赁","gcj_lng":121.47348,"gcj_lat":31.223675,"wgs84_loc":"121.468957,31.22562","wgs84Lng":"121.468957","wgs84Lat":"31.22562","__source_file__":"13-常用公服设施点/SHP/上海市_汽车租赁.shp"},"geometry":{"type":"Point","coordinates":[121.468957,31.22562]}},{"id":"1296","type":"Feature","properties":{"id":"B0K19AGCI3","name":"小彧租车","address":"恒积大厦","type":"汽车服务;汽车租赁;汽车租赁","typecode":"010900","pcode":310000,"pname":"上海市","citycode":21,"cityname":"上海市","adcode":310101,"adname":"黄浦区","business_a":"淮海路","location":"121.480983,31.225337","tel":"18616267759","bigType":"汽车服务","midType":"汽车租赁","smallType":"汽车租赁","gcj_lng":121.480983,"gcj_lat":31.225337,"wgs84_loc":"121.476485,31.227302","wgs84Lng":"121.476485","wgs84Lat":"31.227302","__source_file__":"13-常用公服设施点/SHP/上海市_汽车租赁.shp"},"geometry":{"type":"Point","coordinates":[121.476485,31.227302]}},{"id":"1253","type":"Feature","properties":{"id":"B0JG2S7F2Y","name":"上海租车公司曙辉租车","address":"淮海中路2兰生大厦F5层(大世界地铁站6号口步行140米)","type":"汽车服务;汽车租赁;汽车租赁","typecode":"010900","pcode":310000,"pname":"上海市","citycode":21,"cityname":"上海市","adcode":310101,"adname":"黄浦区","business_a":"北京路","location":"121.479704,31.225714","tel":"15000975576","bigType":"汽车服务","midType":"汽车租赁","smallType":"汽车租赁","gcj_lng":121.479704,"gcj_lat":31.225714,"wgs84_loc":"121.475201,31.227675","wgs84Lng":"121.475201","wgs84Lat":"31.227675","__source_file__":"13-常用公服设施点/SHP/上海市_汽车租赁.shp"},"geometry":{"type":"Point","coordinates":[121.475201,31.227675]}},{"id":"789","type":"Feature","properties":{"id":"B0G3ZBN07C","name":"顺义叉车","address":"青海路与威海路交叉口北约100米","type":"汽车服务;汽车租赁;汽车租赁","typecode":"010900","pcode":310000,"pname":"上海市","citycode":21,"cityname":"上海市","adcode":310106,"adname":"静安区","business_a":"淮海路","location":"121.464934,31.228279","tel":"[]","bigType":"汽车服务","midType":"汽车租赁","smallType":"汽车租赁","gcj_lng":121.464934,"gcj_lat":31.228279,"wgs84_loc":"121.460384,31.230199","wgs84Lng":"121.460384","wgs84Lat":"31.230199","__source_file__":"13-常用公服设施点/SHP/上海市_汽车租赁.shp"},"geometry":{"type":"Point","coordinates":[121.460384,31.230199]}},{"id":"1220","type":"Feature","properties":{"id":"B0KU6M0BJ6","name":"联强租车(联强汽车人民广场店)","address":"上海人民广场(人民广场地铁站1号口步行260米)","type":"汽车服务;汽车租赁;汽车租赁","typecode":"010900","pcode":310000,"pname":"上海市","citycode":21,"cityname":"上海市","adcode":310101,"adname":"黄浦区","business_a":"北京路","location":"121.475039,31.229010","tel":"15800559080;18930616646","bigType":"汽车服务","midType":"汽车租赁","smallType":"汽车租赁","gcj_lng":121.475039,"gcj_lat":31.22901,"wgs84_loc":"121.47052,31.230957","wgs84Lng":"121.47052","wgs84Lat":"31.230957","__source_file__":"13-常用公服设施点/SHP/上海市_汽车租赁.shp"},"geometry":{"type":"Point","coordinates":[121.47052,31.230957]}},{"id":"1104","type":"Feature","properties":{"id":"B0GKLUIT13","name":"M8·名车租赁(人民广场店)","address":"福州路666号华鑫海欣大厦3层302","type":"汽车服务;汽车租赁;汽车租赁","typecode":"010900","pcode":310000,"pname":"上海市","citycode":21,"cityname":"上海市","adcode":310101,"adname":"黄浦区","business_a":"北京东路","location":"121.477720,31.232331","tel":"021-63284010","bigType":"汽车服务","midType":"汽车租赁","smallType":"汽车租赁","gcj_lng":121.47772,"gcj_lat":31.232331,"wgs84_loc":"121.47321,31.234283","wgs84Lng":"121.47321","wgs84Lat":"31.234283","__source_file__":"13-常用公服设施点/SHP/上海市_汽车租赁.shp"},"geometry":{"type":"Point","coordinates":[121.47321,31.234283]}},{"id":"1254","type":"Feature","properties":{"id":"B0KRZRF2ZA","name":"引耀租车(外滩店)","address":"汉口路515号7楼(南京东路地铁站4号口步行390米)","type":"汽车服务;汽车租赁;汽车租赁","typecode":"010900","pcode":310000,"pname":"上海市","citycode":21,"cityname":"上海市","adcode":310101,"adname":"黄浦区","business_a":"北京路","location":"121.480776,31.234034","tel":"19802131733","bigType":"汽车服务","midType":"汽车租赁","smallType":"汽车租赁","gcj_lng":121.480776,"gcj_lat":31.234034,"wgs84_loc":"121.476276,31.235994","wgs84Lng":"121.476276","wgs84Lat":"31.235994","__source_file__":"13-常用公服设施点/SHP/上海市_汽车租赁.shp"},"geometry":{"type":"Point","coordinates":[121.476276,31.235994]}},{"id":"1299","type":"Feature","properties":{"id":"B0KU4AZMT9","name":"和立租车(上海和立南京路古象店)","address":"星巴克咖啡(古象大酒店店)","type":"汽车服务;汽车租赁;汽车租赁","typecode":"010900","pcode":310000,"pname":"上海市","citycode":21,"cityname":"上海市","adcode":310101,"adname":"黄浦区","business_a":"北京路","location":"121.479622,31.234242","tel":"18901737017","bigType":"汽车服务","midType":"汽车租赁","smallType":"汽车租赁","gcj_lng":121.479622,"gcj_lat":31.234242,"wgs84_loc":"121.475118,31.236199","wgs84Lng":"121.475118","wgs84Lat":"31.236199","__source_file__":"13-常用公服设施点/SHP/上海市_汽车租赁.shp"},"geometry":{"type":"Point","coordinates":[121.475118,31.236199]}},{"id":"262","type":"Feature","properties":{"id":"B0FFLO2QX9","name":"一嗨租车(淮海东路便捷点地下停车库B1层)","address":"淮海东路99号","type":"汽车服务;汽车租赁;汽车租赁","typecode":"010900","pcode":310000,"pname":"上海市","citycode":21,"cityname":"上海市","adcode":310101,"adname":"黄浦区","business_a":"淮海路","location":"121.481170,31.225547","tel":"[]","bigType":"汽车服务","midType":"汽车租赁","smallType":"汽车租赁","gcj_lng":121.48117,"gcj_lat":31.225547,"wgs84_loc":"121.476672,31.227512","wgs84Lng":"121.476672","wgs84Lat":"31.227512","__source_file__":"13-常用公服设施点/SHP/上海市_汽车租赁.shp"},"geometry":{"type":"Point","coordinates":[121.476672,31.227512]}},{"id":"263","type":"Feature","properties":{"id":"B0H04UB9HJ","name":"上海爱途文化科技有限公司","address":"人民路845号2层201室","type":"汽车服务;汽车租赁;汽车租赁","typecode":"010900","pcode":310000,"pname":"上海市","citycode":21,"cityname":"上海市","adcode":310101,"adname":"黄浦区","business_a":"淮海路","location":"121.484495,31.226987","tel":"18217771220","bigType":"汽车服务","midType":"汽车租赁","smallType":"汽车租赁","gcj_lng":121.484495,"gcj_lat":31.226987,"wgs84_loc":"121.480009,31.228961","wgs84Lng":"121.480009","wgs84Lat":"31.228961","__source_file__":"13-常用公服设施点/SHP/上海市_汽车租赁.shp"},"geometry":{"type":"Point","coordinates":[121.480009,31.228961]}},{"id":"1295","type":"Feature","properties":{"id":"B0K19ZAMKW","name":"慕成租车","address":"金陵东路","type":"汽车服务;汽车租赁;汽车租赁","typecode":"010900","pcode":310000,"pname":"上海市","citycode":21,"cityname":"上海市","adcode":310101,"adname":"黄浦区","business_a":"城隍庙","location":"121.485680,31.229415","tel":"18110509966;18201991777;19556818688","bigType":"汽车服务","midType":"汽车租赁","smallType":"汽车租赁","gcj_lng":121.48568,"gcj_lat":31.229415,"wgs84_loc":"121.481198,31.231392","wgs84Lng":"121.481198","wgs84Lat":"31.231392","__source_file__":"13-常用公服设施点/SHP/上海市_汽车租赁.shp"},"geometry":{"type":"Point","coordinates":[121.481198,31.231392]}},{"id":"266","type":"Feature","properties":{"id":"B0H06RIBGU","name":"EVCARD租车(外滩SOHO)","address":"新开河北路10号","type":"汽车服务;汽车租赁;汽车租赁","typecode":"010900","pcode":310000,"pname":"上海市","citycode":21,"cityname":"上海市","adcode":310101,"adname":"黄浦区","business_a":"北京东路","location":"121.493936,31.229606","tel":"021-31784369","bigType":"汽车服务","midType":"汽车租赁","smallType":"汽车租赁","gcj_lng":121.493936,"gcj_lat":31.229606,"wgs84_loc":"121.489483,31.231607","wgs84Lng":"121.489483","wgs84Lat":"31.231607","__source_file__":"13-常用公服设施点/SHP/上海市_汽车租赁.shp"},"geometry":{"type":"Point","coordinates":[121.489483,31.231607]}},{"id":"1297","type":"Feature","properties":{"id":"B0K1OUYE3G","name":"卓野租车","address":"延河大楼","type":"汽车服务;汽车租赁;汽车租赁","typecode":"010900","pcode":310000,"pname":"上海市","citycode":21,"cityname":"上海市","adcode":310101,"adname":"黄浦区","business_a":"城隍庙","location":"121.486779,31.231416","tel":"18616286520;18616692162","bigType":"汽车服务","midType":"汽车租赁","smallType":"汽车租赁","gcj_lng":121.486779,"gcj_lat":31.231416,"wgs84_loc":"121.4823,31.233395","wgs84Lng":"121.4823","wgs84Lat":"31.233395","__source_file__":"13-常用公服设施点/SHP/上海市_汽车租赁.shp"},"geometry":{"type":"Point","coordinates":[121.4823,31.233395]}},{"id":"267","type":"Feature","properties":{"id":"B0H665C4H8","name":"安驭租车","address":"四川南路26号友谊大厦一层3号","type":"汽车服务;汽车租赁;汽车租赁","typecode":"010900","pcode":310000,"pname":"上海市","citycode":21,"cityname":"上海市","adcode":310101,"adname":"黄浦区","business_a":"北京东路","location":"121.489961,31.231675","tel":"021-55500255","bigType":"汽车服务","midType":"汽车租赁","smallType":"汽车租赁","gcj_lng":121.489961,"gcj_lat":31.231675,"wgs84_loc":"121.485494,31.233663","wgs84Lng":"121.485494","wgs84Lat":"31.233663","__source_file__":"13-常用公服设施点/SHP/上海市_汽车租赁.shp"},"geometry":{"type":"Point","coordinates":[121.485494,31.233663]}},{"id":"1049","type":"Feature","properties":{"id":"B0FFK6VBEL","name":"EVCARD租车(中福世福汇)","address":"广东路339号(近河南中路)","type":"汽车服务;汽车租赁;汽车租赁","typecode":"010900","pcode":310000,"pname":"上海市","citycode":21,"cityname":"上海市","adcode":310101,"adname":"黄浦区","business_a":"北京东路","location":"121.484683,31.232142","tel":"021-31784369","bigType":"汽车服务","midType":"汽车租赁","smallType":"汽车租赁","gcj_lng":121.484683,"gcj_lat":31.232142,"wgs84_loc":"121.480197,31.234114","wgs84Lng":"121.480197","wgs84Lat":"31.234114","__source_file__":"13-常用公服设施点/SHP/上海市_汽车租赁.shp"},"geometry":{"type":"Point","coordinates":[121.480197,31.234114]}},{"id":"305","type":"Feature","properties":{"id":"B0FFF4VZQ2","name":"上海汽车租赁上海新战线汽车租赁有限公司","address":"巨鹿路735弄16号701室(近陕西南路)","type":"汽车服务;汽车租赁;汽车租赁","typecode":"010900","pcode":310000,"pname":"上海市","citycode":21,"cityname":"上海市","adcode":310106,"adname":"静安区","business_a":"淮海路","location":"121.452570,31.220504","tel":"[]","bigType":"汽车服务","midType":"汽车租赁","smallType":"汽车租赁","gcj_lng":121.45257,"gcj_lat":31.220504,"wgs84_loc":"121.447986,31.222399","wgs84Lng":"121.447986","wgs84Lat":"31.222399","__source_file__":"13-常用公服设施点/SHP/上海市_汽车租赁.shp"},"geometry":{"type":"Point","coordinates":[121.447986,31.222399]}},{"id":"315","type":"Feature","properties":{"id":"B0G0CCYJ31","name":"保君租车(静安寺店)","address":"常德路175号二楼207","type":"汽车服务;汽车租赁;汽车租赁","typecode":"010900","pcode":310000,"pname":"上海市","citycode":21,"cityname":"上海市","adcode":310106,"adname":"静安区","business_a":"曹家渡","location":"121.447418,31.224042","tel":"[]","bigType":"汽车服务","midType":"汽车租赁","smallType":"汽车租赁","gcj_lng":121.447418,"gcj_lat":31.224042,"wgs84_loc":"121.442821,31.225925","wgs84Lng":"121.442821","wgs84Lat":"31.225925","__source_file__":"13-常用公服设施点/SHP/上海市_汽车租赁.shp"},"geometry":{"type":"Point","coordinates":[121.442821,31.225925]}},{"id":"302","type":"Feature","properties":{"id":"B0HRU5GEOF","name":"游马汇名车租赁(中欣大厦店)","address":"南京西路1468号中欣大厦2层206号","type":"汽车服务;汽车租赁;汽车租赁","typecode":"010900","pcode":310000,"pname":"上海市","citycode":21,"cityname":"上海市","adcode":310106,"adname":"静安区","business_a":"曹家渡","location":"121.450014,31.225516","tel":"4008488911","bigType":"汽车服务","midType":"汽车租赁","smallType":"汽车租赁","gcj_lng":121.450014,"gcj_lat":31.225516,"wgs84_loc":"121.445423,31.227403","wgs84Lng":"121.445423","wgs84Lat":"31.227403","__source_file__":"13-常用公服设施点/SHP/上海市_汽车租赁.shp"},"geometry":{"type":"Point","coordinates":[121.445423,31.227403]}},{"id":"310","type":"Feature","properties":{"id":"B0HKX5OLXH","name":"安吉租赁","address":"武宁南路488号智慧广场","type":"汽车服务;汽车租赁;汽车租赁","typecode":"010900","pcode":310000,"pname":"上海市","citycode":21,"cityname":"上海市","adcode":310106,"adname":"静安区","business_a":"曹家渡","location":"121.431003,31.233497","tel":"[]","bigType":"汽车服务","midType":"汽车租赁","smallType":"汽车租赁","gcj_lng":121.431003,"gcj_lat":31.233497,"wgs84_loc":"121.426373,31.235349","wgs84Lng":"121.426373","wgs84Lat":"31.235349","__source_file__":"13-常用公服设施点/SHP/上海市_汽车租赁.shp"},"geometry":{"type":"Point","coordinates":[121.426373,31.235349]}},{"id":"311","type":"Feature","properties":{"id":"B0FFFWQ415","name":"凯欣汽车租赁","address":"昌平路645弄2号(西康路余姚路)","type":"汽车服务;汽车租赁;汽车租赁还车","typecode":"010901","pcode":310000,"pname":"上海市","citycode":21,"cityname":"上海市","adcode":310106,"adname":"静安区","business_a":"曹家渡","location":"121.444590,31.234347","tel":"021-62661999","bigType":"汽车服务","midType":"汽车租赁","smallType":"汽车租赁还车","gcj_lng":121.44459,"gcj_lat":31.234347,"wgs84_loc":"121.439986,31.23622","wgs84Lng":"121.439986","wgs84Lat":"31.23622","__source_file__":"13-常用公服设施点/SHP/上海市_汽车租赁.shp"},"geometry":{"type":"Point","coordinates":[121.439986,31.23622]}},{"id":"296","type":"Feature","properties":{"id":"B0FFFLZTIN","name":"一嗨租车(亚新广场便捷点)","address":"长寿路396号B1层","type":"汽车服务;汽车租赁;汽车租赁还车","typecode":"010901","pcode":310000,"pname":"上海市","citycode":21,"cityname":"上海市","adcode":310107,"adname":"普陀区","business_a":"曹家渡","location":"121.438340,31.241338","tel":"021-52110651","bigType":"汽车服务","midType":"汽车租赁","smallType":"汽车租赁还车","gcj_lng":121.43834,"gcj_lat":31.241338,"wgs84_loc":"121.433722,31.243197","wgs84Lng":"121.433722","wgs84Lat":"31.243197","__source_file__":"13-常用公服设施点/SHP/上海市_汽车租赁.shp"},"geometry":{"type":"Point","coordinates":[121.433722,31.243197]}},{"id":"269","type":"Feature","properties":{"id":"B0FFFPIN9Z","name":"友友租车","address":"延安东路58号","type":"汽车服务;汽车租赁;汽车租赁","typecode":"010900","pcode":310000,"pname":"上海市","citycode":21,"cityname":"上海市","adcode":310101,"adname":"黄浦区","business_a":"北京东路","location":"121.490490,31.233140","tel":"[]","bigType":"汽车服务","midType":"汽车租赁","smallType":"汽车租赁","gcj_lng":121.49049,"gcj_lat":31.23314,"wgs84_loc":"121.486024,31.235129","wgs84Lng":"121.486024","wgs84Lat":"31.235129","__source_file__":"13-常用公服设施点/SHP/上海市_汽车租赁.shp"},"geometry":{"type":"Point","coordinates":[121.486024,31.235129]}},{"id":"1298","type":"Feature","properties":{"id":"B0KU4SQRHO","name":"扬凡租车(扬凡外滩店)","address":"上海外滩华尔道夫酒店","type":"汽车服务;汽车租赁;汽车租赁","typecode":"010900","pcode":310000,"pname":"上海市","citycode":21,"cityname":"上海市","adcode":310101,"adname":"黄浦区","business_a":"北京路","location":"121.489731,31.233602","tel":"13564887555;18117017876;18326868678","bigType":"汽车服务","midType":"汽车租赁","smallType":"汽车租赁","gcj_lng":121.489731,"gcj_lat":31.233602,"wgs84_loc":"121.485263,31.235589","wgs84Lng":"121.485263","wgs84Lat":"31.235589","__source_file__":"13-常用公服设施点/SHP/上海市_汽车租赁.shp"},"geometry":{"type":"Point","coordinates":[121.485263,31.235589]}},{"id":"1061","type":"Feature","properties":{"id":"B0HGVKMKVH","name":"星汇国际租车公司","address":"福州路318号","type":"汽车服务;汽车租赁;汽车租赁","typecode":"010900","pcode":310000,"pname":"上海市","citycode":21,"cityname":"上海市","adcode":310101,"adname":"黄浦区","business_a":"北京东路","location":"121.484271,31.234888","tel":"[]","bigType":"汽车服务","midType":"汽车租赁","smallType":"汽车租赁","gcj_lng":121.484271,"gcj_lat":31.234888,"wgs84_loc":"121.479783,31.236858","wgs84Lng":"121.479783","wgs84Lat":"31.236858","__source_file__":"13-常用公服设施点/SHP/上海市_汽车租赁.shp"},"geometry":{"type":"Point","coordinates":[121.479783,31.236858]}},{"id":"259","type":"Feature","properties":{"id":"B0G0C4RO7K","name":"富君租车(外滩店)","address":"山西南路与汉口路交叉口西北约60米","type":"汽车服务;汽车租赁;汽车租赁","typecode":"010900","pcode":310000,"pname":"上海市","citycode":21,"cityname":"上海市","adcode":310101,"adname":"黄浦区","business_a":"北京东路","location":"121.482576,31.235548","tel":"18018655656","bigType":"汽车服务","midType":"汽车租赁","smallType":"汽车租赁","gcj_lng":121.482576,"gcj_lat":31.235548,"wgs84_loc":"121.478082,31.237513","wgs84Lng":"121.478082","wgs84Lat":"31.237513","__source_file__":"13-常用公服设施点/SHP/上海市_汽车租赁.shp"},"geometry":{"type":"Point","coordinates":[121.478082,31.237513]}},{"id":"264","type":"Feature","properties":{"id":"B0G0U5OVCR","name":"上海城诺租车(久事商务大厦店)","address":"四川中路213号久事商务大厦停车场旁","type":"汽车服务;汽车租赁;汽车租赁","typecode":"010900","pcode":310000,"pname":"上海市","citycode":21,"cityname":"上海市","adcode":310101,"adname":"黄浦区","business_a":"北京东路","location":"121.488221,31.235863","tel":"[]","bigType":"汽车服务","midType":"汽车租赁","smallType":"汽车租赁","gcj_lng":121.488221,"gcj_lat":31.235863,"wgs84_loc":"121.483747,31.237844","wgs84Lng":"121.483747","wgs84Lat":"31.237844","__source_file__":"13-常用公服设施点/SHP/上海市_汽车租赁.shp"},"geometry":{"type":"Point","coordinates":[121.483747,31.237844]}},{"id":"1219","type":"Feature","properties":{"id":"B0KGVAJY73","name":"闽旗租车-外滩店","address":"曼克顿广场(南京东路地铁站4号口步行120米)","type":"汽车服务;汽车租赁;汽车租赁","typecode":"010900","pcode":310000,"pname":"上海市","citycode":21,"cityname":"上海市","adcode":310101,"adname":"黄浦区","business_a":"北京路","location":"121.481446,31.235889","tel":"15001855668;16730087777","bigType":"汽车服务","midType":"汽车租赁","smallType":"汽车租赁","gcj_lng":121.481446,"gcj_lat":31.235889,"wgs84_loc":"121.476948,31.23785","wgs84Lng":"121.476948","wgs84Lat":"31.23785","__source_file__":"13-常用公服设施点/SHP/上海市_汽车租赁.shp"},"geometry":{"type":"Point","coordinates":[121.476948,31.23785]}},{"id":"1221","type":"Feature","properties":{"id":"B0K0CS7BFE","name":"御车出行豪车自驾租赁","address":"名商路与富城路交叉口东北140米","type":"汽车服务;汽车租赁;汽车租赁","typecode":"010900","pcode":310000,"pname":"上海市","citycode":21,"cityname":"上海市","adcode":310115,"adname":"浦东新区","business_a":"陆家嘴","location":"121.499134,31.236703","tel":"[]","bigType":"汽车服务","midType":"汽车租赁","smallType":"汽车租赁","gcj_lng":121.499134,"gcj_lat":31.236703,"wgs84_loc":"121.494699,31.238716","wgs84Lng":"121.494699","wgs84Lat":"31.238716","__source_file__":"13-常用公服设施点/SHP/上海市_汽车租赁.shp"},"geometry":{"type":"Point","coordinates":[121.494699,31.238716]}},{"id":"31","type":"Feature","properties":{"id":"B0G0PUF8IM","name":"瑞卡租车(南京东路站送车点)","address":"九江路南京东路地铁站3号出口处","type":"汽车服务;汽车租赁;汽车租赁","typecode":"010900","pcode":310000,"pname":"上海市","citycode":21,"cityname":"上海市","adcode":310101,"adname":"黄浦区","business_a":"北京东路","location":"121.484244,31.237011","tel":"13918195156","bigType":"汽车服务","midType":"汽车租赁","smallType":"汽车租赁","gcj_lng":121.484244,"gcj_lat":31.237011,"wgs84_loc":"121.479756,31.23898","wgs84Lng":"121.479756","wgs84Lat":"31.23898","__source_file__":"13-常用公服设施点/SHP/上海市_汽车租赁.shp"},"geometry":{"type":"Point","coordinates":[121.479756,31.23898]}},{"id":"1302","type":"Feature","properties":{"id":"B0KDY7VLRM","name":"小牛玛租赁","address":"四川中路与宁波路交叉口东20米","type":"汽车服务;汽车租赁;汽车租赁","typecode":"010900","pcode":310000,"pname":"上海市","citycode":21,"cityname":"上海市","adcode":310101,"adname":"黄浦区","business_a":"北京路","location":"121.487129,31.239962","tel":"[]","bigType":"汽车服务","midType":"汽车租赁","smallType":"汽车租赁","gcj_lng":121.487129,"gcj_lat":31.239962,"wgs84_loc":"121.482651,31.241938","wgs84Lng":"121.482651","wgs84Lat":"31.241938","__source_file__":"13-常用公服设施点/SHP/上海市_汽车租赁.shp"},"geometry":{"type":"Point","coordinates":[121.482651,31.241938]}},{"id":"73","type":"Feature","properties":{"id":"B0HBTY31HU","name":"锦江出租车","address":"塘沽路虹口区第一中心小学昆山路分校东南侧约90米","type":"汽车服务;汽车租赁;汽车租赁","typecode":"010900","pcode":310000,"pname":"上海市","citycode":21,"cityname":"上海市","adcode":310109,"adname":"虹口区","business_a":"北外滩","location":"121.489463,31.248205","tel":"[]","bigType":"汽车服务","midType":"汽车租赁","smallType":"汽车租赁","gcj_lng":121.489463,"gcj_lat":31.248205,"wgs84_loc":"121.484992,31.250184","wgs84Lng":"121.484992","wgs84Lat":"31.250184","__source_file__":"13-常用公服设施点/SHP/上海市_汽车租赁.shp"},"geometry":{"type":"Point","coordinates":[121.484992,31.250184]}},{"id":"307","type":"Feature","properties":{"id":"B0FFL9HCNE","name":"51共享婚车平台","address":"梅园路228号企业广场12楼","type":"汽车服务;汽车租赁;汽车租赁","typecode":"010900","pcode":310000,"pname":"上海市","citycode":21,"cityname":"上海市","adcode":310106,"adname":"静安区","business_a":"[]","location":"121.457144,31.243722","tel":"18621643912","bigType":"汽车服务","midType":"汽车租赁","smallType":"汽车租赁","gcj_lng":121.457144,"gcj_lat":31.243722,"wgs84_loc":"121.45257,31.245617","wgs84Lng":"121.45257","wgs84Lat":"31.245617","__source_file__":"13-常用公服设施点/SHP/上海市_汽车租赁.shp"},"geometry":{"type":"Point","coordinates":[121.45257,31.245617]}},{"id":"1251","type":"Feature","properties":{"id":"B0KKOCFK13","name":"汽车租赁","address":"梅园路与共和路交叉口东北40米","type":"汽车服务;汽车租赁;汽车租赁","typecode":"010900","pcode":310000,"pname":"上海市","citycode":21,"cityname":"上海市","adcode":310106,"adname":"静安区","business_a":"不夜城","location":"121.457498,31.244652","tel":"[]","bigType":"汽车服务","midType":"汽车租赁","smallType":"汽车租赁","gcj_lng":121.457498,"gcj_lat":31.244652,"wgs84_loc":"121.452925,31.246547","wgs84Lng":"121.452925","wgs84Lat":"31.246547","__source_file__":"13-常用公服设施点/SHP/上海市_汽车租赁.shp"},"geometry":{"type":"Point","coordinates":[121.452925,31.246547]}},{"id":"1225","type":"Feature","properties":{"id":"B0KDF777CN","name":"上海启瑞航汽车租赁有限公司","address":"虹桥火车站","type":"汽车服务;汽车租赁;汽车租赁","typecode":"010900","pcode":310000,"pname":"上海市","citycode":21,"cityname":"上海市","adcode":310106,"adname":"静安区","business_a":"不夜城","location":"121.454830,31.246869","tel":"17621993920","bigType":"汽车服务","midType":"汽车租赁","smallType":"汽车租赁","gcj_lng":121.45483,"gcj_lat":31.246869,"wgs84_loc":"121.450249,31.248757","wgs84Lng":"121.450249","wgs84Lat":"31.248757","__source_file__":"13-常用公服设施点/SHP/上海市_汽车租赁.shp"},"geometry":{"type":"Point","coordinates":[121.450249,31.248757]}},{"id":"326","type":"Feature","properties":{"id":"B0HR0KLGU2","name":"上海洪励汽车租赁服务有限公司","address":"恒丰路中房华东大厦北侧约50米","type":"汽车服务;汽车租赁;汽车租赁","typecode":"010900","pcode":310000,"pname":"上海市","citycode":21,"cityname":"上海市","adcode":310106,"adname":"静安区","business_a":"[]","location":"121.451433,31.247702","tel":"[]","bigType":"汽车服务","midType":"汽车租赁","smallType":"汽车租赁","gcj_lng":121.451433,"gcj_lat":31.247702,"wgs84_loc":"121.446844,31.249582","wgs84Lng":"121.446844","wgs84Lat":"31.249582","__source_file__":"13-常用公服设施点/SHP/上海市_汽车租赁.shp"},"geometry":{"type":"Point","coordinates":[121.446844,31.249582]}},{"id":"309","type":"Feature","properties":{"id":"B0GKLHJIUJ","name":"M8·名车租赁(上海站南广场店)","address":"恒丰路607号邮局停车场旁","type":"汽车服务;汽车租赁;汽车租赁","typecode":"010900","pcode":310000,"pname":"上海市","citycode":21,"cityname":"上海市","adcode":310106,"adname":"静安区","business_a":"[]","location":"121.452685,31.248721","tel":"[]","bigType":"汽车服务","midType":"汽车租赁","smallType":"汽车租赁","gcj_lng":121.452685,"gcj_lat":31.248721,"wgs84_loc":"121.448099,31.250603","wgs84Lng":"121.448099","wgs84Lat":"31.250603","__source_file__":"13-常用公服设施点/SHP/上海市_汽车租赁.shp"},"geometry":{"type":"Point","coordinates":[121.448099,31.250603]}},{"id":"1043","type":"Feature","properties":{"id":"B0FFH6H1ZK","name":"上海神州租车(上海火车站南广场点)","address":"恒丰路777号火车站南广场维也纳大酒店正门","type":"汽车服务;汽车租赁;汽车租赁","typecode":"010900","pcode":310000,"pname":"上海市","citycode":21,"cityname":"上海市","adcode":310106,"adname":"静安区","business_a":"[]","location":"121.452115,31.249431","tel":"[]","bigType":"汽车服务","midType":"汽车租赁","smallType":"汽车租赁","gcj_lng":121.452115,"gcj_lat":31.249431,"wgs84_loc":"121.447527,31.251312","wgs84Lng":"121.447527","wgs84Lat":"31.251312","__source_file__":"13-常用公服设施点/SHP/上海市_汽车租赁.shp"},"geometry":{"type":"Point","coordinates":[121.447527,31.251312]}},{"id":"304","type":"Feature","properties":{"id":"B0FFFDDBB0","name":"一嗨租车(恒丰路店)","address":"秣陵路355号乙","type":"汽车服务;汽车租赁;汽车租赁","typecode":"010900","pcode":310000,"pname":"上海市","citycode":21,"cityname":"上海市","adcode":310106,"adname":"静安区","business_a":"[]","location":"121.452518,31.249503","tel":"021-51013275","bigType":"汽车服务","midType":"汽车租赁","smallType":"汽车租赁","gcj_lng":121.452518,"gcj_lat":31.249503,"wgs84_loc":"121.447931,31.251385","wgs84Lng":"121.447931","wgs84Lat":"31.251385","__source_file__":"13-常用公服设施点/SHP/上海市_汽车租赁.shp"},"geometry":{"type":"Point","coordinates":[121.447931,31.251385]}},{"id":"53","type":"Feature","properties":{"id":"B0FFKPXY7K","name":"一嗨租车(上海站北广场店)","address":"大统路760号地下停车场B2层D区","type":"汽车服务;汽车租赁;汽车租赁","typecode":"010900","pcode":310000,"pname":"上海市","citycode":21,"cityname":"上海市","adcode":310106,"adname":"静安区","business_a":"和田","location":"121.457159,31.250643","tel":"021-36036776","bigType":"汽车服务","midType":"汽车租赁","smallType":"汽车租赁","gcj_lng":121.457159,"gcj_lat":31.250643,"wgs84_loc":"121.452584,31.252534","wgs84Lng":"121.452584","wgs84Lat":"31.252534","__source_file__":"13-常用公服设施点/SHP/上海市_汽车租赁.shp"},"geometry":{"type":"Point","coordinates":[121.452584,31.252534]}},{"id":"54","type":"Feature","properties":{"id":"B0FFFRYPCP","name":"神州租车(上海火车站服务点)","address":"大统路760号地下停车库B2层E区","type":"汽车服务;汽车租赁;汽车租赁还车","typecode":"010901","pcode":310000,"pname":"上海市","citycode":21,"cityname":"上海市","adcode":310106,"adname":"静安区","business_a":"和田","location":"121.457264,31.250713","tel":"18121289785","bigType":"汽车服务","midType":"汽车租赁","smallType":"汽车租赁还车","gcj_lng":121.457264,"gcj_lat":31.250713,"wgs84_loc":"121.45269,31.252605","wgs84Lng":"121.45269","wgs84Lat":"31.252605","__source_file__":"13-常用公服设施点/SHP/上海市_汽车租赁.shp"},"geometry":{"type":"Point","coordinates":[121.45269,31.252605]}},{"id":"295","type":"Feature","properties":{"id":"B0FFFM32J3","name":"一嗨租车(中潭路地铁站送车点)","address":"中潭路地铁站1-2号出口停车场","type":"汽车服务;汽车租赁;汽车租赁","typecode":"010900","pcode":310000,"pname":"上海市","citycode":21,"cityname":"上海市","adcode":310107,"adname":"普陀区","business_a":"光新","location":"121.441852,31.254689","tel":"021-51013275","bigType":"汽车服务","midType":"汽车租赁","smallType":"汽车租赁","gcj_lng":121.441852,"gcj_lat":31.254689,"wgs84_loc":"121.43724,31.256548","wgs84Lng":"121.43724","wgs84Lat":"31.256548","__source_file__":"13-常用公服设施点/SHP/上海市_汽车租赁.shp"},"geometry":{"type":"Point","coordinates":[121.43724,31.256548]}},{"id":"260","type":"Feature","properties":{"id":"B0H1UCZ8N2","name":"WAGONS光速超跑(人民广场店)","address":"北京西路23号-27新金桥广场","type":"汽车服务;汽车租赁;汽车租赁","typecode":"010900","pcode":310000,"pname":"上海市","citycode":21,"cityname":"上海市","adcode":310101,"adname":"黄浦区","business_a":"北京东路","location":"121.472681,31.237137","tel":"[]","bigType":"汽车服务","midType":"汽车租赁","smallType":"汽车租赁","gcj_lng":121.472681,"gcj_lat":31.237137,"wgs84_loc":"121.468154,31.239073","wgs84Lng":"121.468154","wgs84Lat":"31.239073","__source_file__":"13-常用公服设施点/SHP/上海市_汽车租赁.shp"},"geometry":{"type":"Point","coordinates":[121.468154,31.239073]}},{"id":"1294","type":"Feature","properties":{"id":"B0KAUCMRDM","name":"上海租车永悦租车公司","address":"西藏中路656号(曲阜路地铁站2号口步行470米)","type":"汽车服务;汽车租赁;汽车租赁","typecode":"010900","pcode":310000,"pname":"上海市","citycode":21,"cityname":"上海市","adcode":310101,"adname":"黄浦区","business_a":"北京路","location":"121.473411,31.238780","tel":"13391368768","bigType":"汽车服务","midType":"汽车租赁","smallType":"汽车租赁","gcj_lng":121.473411,"gcj_lat":31.23878,"wgs84_loc":"121.468886,31.240718","wgs84Lng":"121.468886","wgs84Lat":"31.240718","__source_file__":"13-常用公服设施点/SHP/上海市_汽车租赁.shp"},"geometry":{"type":"Point","coordinates":[121.468886,31.240718]}},{"id":"55","type":"Feature","properties":{"id":"B0FFK6V236","name":"一嗨租车(静安区大悦城送车点)","address":"曲阜路地铁站4号口西侧","type":"汽车服务;汽车租赁;汽车租赁","typecode":"010900","pcode":310000,"pname":"上海市","citycode":21,"cityname":"上海市","adcode":310106,"adname":"静安区","business_a":"七浦路","location":"121.470805,31.242429","tel":"[]","bigType":"汽车服务","midType":"汽车租赁","smallType":"汽车租赁","gcj_lng":121.470805,"gcj_lat":31.242429,"wgs84_loc":"121.466272,31.244358","wgs84Lng":"121.466272","wgs84Lat":"31.244358","__source_file__":"13-常用公服设施点/SHP/上海市_汽车租赁.shp"},"geometry":{"type":"Point","coordinates":[121.466272,31.244358]}},{"id":"314","type":"Feature","properties":{"id":"B0H2VSVFG3","name":"富君租车(北广场店)","address":"大统路760号上海火车站北广场","type":"汽车服务;汽车租赁;汽车租赁","typecode":"010900","pcode":310000,"pname":"上海市","citycode":21,"cityname":"上海市","adcode":310106,"adname":"静安区","business_a":"和田","location":"121.457871,31.251869","tel":"13611676785","bigType":"汽车服务","midType":"汽车租赁","smallType":"汽车租赁","gcj_lng":121.457871,"gcj_lat":31.251869,"wgs84_loc":"121.453298,31.253762","wgs84Lng":"121.453298","wgs84Lat":"31.253762","__source_file__":"13-常用公服设施点/SHP/上海市_汽车租赁.shp"},"geometry":{"type":"Point","coordinates":[121.453298,31.253762]}},{"id":"322","type":"Feature","properties":{"id":"B0G0CUYY8Y","name":"上海妙裕租车(新理想大厦店)","address":"中兴路1500号新理想大厦2层","type":"汽车服务;汽车租赁;汽车租赁","typecode":"010900","pcode":310000,"pname":"上海市","citycode":21,"cityname":"上海市","adcode":310106,"adname":"静安区","business_a":"和田","location":"121.457902,31.251894","tel":"[]","bigType":"汽车服务","midType":"汽车租赁","smallType":"汽车租赁","gcj_lng":121.457902,"gcj_lat":31.251894,"wgs84_loc":"121.453329,31.253787","wgs84Lng":"121.453329","wgs84Lat":"31.253787","__source_file__":"13-常用公服设施点/SHP/上海市_汽车租赁.shp"},"geometry":{"type":"Point","coordinates":[121.453329,31.253787]}},{"id":"323","type":"Feature","properties":{"id":"B0GK9ZPCXV","name":"M8·名车租赁(理想大厦店)","address":"中兴路1500号新理想大厦2层207","type":"汽车服务;汽车租赁;汽车租赁","typecode":"010900","pcode":310000,"pname":"上海市","citycode":21,"cityname":"上海市","adcode":310106,"adname":"静安区","business_a":"和田","location":"121.457939,31.252020","tel":"[]","bigType":"汽车服务","midType":"汽车租赁","smallType":"汽车租赁","gcj_lng":121.457939,"gcj_lat":31.25202,"wgs84_loc":"121.453366,31.253913","wgs84Lng":"121.453366","wgs84Lat":"31.253913","__source_file__":"13-常用公服设施点/SHP/上海市_汽车租赁.shp"},"geometry":{"type":"Point","coordinates":[121.453366,31.253913]}},{"id":"303","type":"Feature","properties":{"id":"B0FFLJYHT8","name":"上海亮捷汽车租赁有限公司","address":"会文路101号","type":"汽车服务;汽车租赁;汽车租赁","typecode":"010900","pcode":310000,"pname":"上海市","citycode":21,"cityname":"上海市","adcode":310106,"adname":"静安区","business_a":"宝山路","location":"121.472272,31.252428","tel":"021-36525712;021-33870373;13801608535","bigType":"汽车服务","midType":"汽车租赁","smallType":"汽车租赁","gcj_lng":121.472272,"gcj_lat":31.252428,"wgs84_loc":"121.467742,31.254356","wgs84Lng":"121.467742","wgs84Lat":"31.254356","__source_file__":"13-常用公服设施点/SHP/上海市_汽车租赁.shp"},"geometry":{"type":"Point","coordinates":[121.467742,31.254356]}},{"id":"1266","type":"Feature","properties":{"id":"B0K3YZ9H33","name":"优我租车","address":"宝昌路与临山路交叉口北40米","type":"汽车服务;汽车租赁;汽车租赁","typecode":"010900","pcode":310000,"pname":"上海市","citycode":21,"cityname":"上海市","adcode":310106,"adname":"静安区","business_a":"宝山路","location":"121.476436,31.256904","tel":"[]","bigType":"汽车服务","midType":"汽车租赁","smallType":"汽车租赁","gcj_lng":121.476436,"gcj_lat":31.256904,"wgs84_loc":"121.47192,31.258842","wgs84Lng":"121.47192","wgs84Lat":"31.258842","__source_file__":"13-常用公服设施点/SHP/上海市_汽车租赁.shp"},"geometry":{"type":"Point","coordinates":[121.47192,31.258842]}},{"id":"1164","type":"Feature","properties":{"id":"B0FFGZ0V1X","name":"上海良吉汽车租赁有限公司","address":"中山北路580号","type":"汽车服务;汽车租赁;汽车租赁","typecode":"010900","pcode":310000,"pname":"上海市","citycode":21,"cityname":"上海市","adcode":310106,"adname":"静安区","business_a":"和田","location":"121.464285,31.261611","tel":"[]","bigType":"汽车服务","midType":"汽车租赁","smallType":"汽车租赁","gcj_lng":121.464285,"gcj_lat":31.261611,"wgs84_loc":"121.45973,31.263515","wgs84Lng":"121.45973","wgs84Lat":"31.263515","__source_file__":"13-常用公服设施点/SHP/上海市_汽车租赁.shp"},"geometry":{"type":"Point","coordinates":[121.45973,31.263515]}},{"id":"58","type":"Feature","properties":{"id":"B0HBT52ZUF","name":"元驿汽车租赁(上海)有限公司","address":"华昌路志业公寓东侧约250米","type":"汽车服务;汽车租赁;汽车租赁","typecode":"010900","pcode":310000,"pname":"上海市","citycode":21,"cityname":"上海市","adcode":310109,"adname":"虹口区","business_a":"和田","location":"121.475937,31.263799","tel":"[]","bigType":"汽车服务","midType":"汽车租赁","smallType":"汽车租赁","gcj_lng":121.475937,"gcj_lat":31.263799,"wgs84_loc":"121.471418,31.265732","wgs84Lng":"121.471418","wgs84Lat":"31.265732","__source_file__":"13-常用公服设施点/SHP/上海市_汽车租赁.shp"},"geometry":{"type":"Point","coordinates":[121.471418,31.265732]}},{"id":"57","type":"Feature","properties":{"id":"B0FFHFSYZF","name":"上海程欢汽车租赁有限公司","address":"中州路133弄2号楼806-807室(近四川北路)","type":"汽车服务;汽车租赁;汽车租赁","typecode":"010900","pcode":310000,"pname":"上海市","citycode":21,"cityname":"上海市","adcode":310109,"adname":"虹口区","business_a":"宝山路","location":"121.482176,31.253565","tel":"021-63243960","bigType":"汽车服务","midType":"汽车租赁","smallType":"汽车租赁","gcj_lng":121.482176,"gcj_lat":31.253565,"wgs84_loc":"121.477679,31.255521","wgs84Lng":"121.477679","wgs84Lat":"31.255521","__source_file__":"13-常用公服设施点/SHP/上海市_汽车租赁.shp"},"geometry":{"type":"Point","coordinates":[121.477679,31.255521]}},{"id":"1090","type":"Feature","properties":{"id":"B00156NYYR","name":"上海光福汽车租赁","address":"沙泾港路180-1","type":"汽车服务;汽车租赁;汽车租赁","typecode":"010900","pcode":310000,"pname":"上海市","citycode":21,"cityname":"上海市","adcode":310109,"adname":"虹口区","business_a":"四平路","location":"121.492891,31.260667","tel":"[]","bigType":"汽车服务","midType":"汽车租赁","smallType":"汽车租赁","gcj_lng":121.492891,"gcj_lat":31.260667,"wgs84_loc":"121.488432,31.262651","wgs84Lng":"121.488432","wgs84Lat":"31.262651","__source_file__":"13-常用公服设施点/SHP/上海市_汽车租赁.shp"},"geometry":{"type":"Point","coordinates":[121.488432,31.262651]}},{"id":"62","type":"Feature","properties":{"id":"B0H09UL6T3","name":"徽祥汽车","address":"宝安路35号","type":"汽车服务;汽车租赁;汽车租赁","typecode":"010900","pcode":310000,"pname":"上海市","citycode":21,"cityname":"上海市","adcode":310109,"adname":"虹口区","business_a":"[]","location":"121.488252,31.262913","tel":"13564605831","bigType":"汽车服务","midType":"汽车租赁","smallType":"汽车租赁","gcj_lng":121.488252,"gcj_lat":31.262913,"wgs84_loc":"121.483776,31.264882","wgs84Lng":"121.483776","wgs84Lat":"31.264882","__source_file__":"13-常用公服设施点/SHP/上海市_汽车租赁.shp"},"geometry":{"type":"Point","coordinates":[121.483776,31.264882]}},{"id":"56","type":"Feature","properties":{"id":"B0HRPN2HVR","name":"上海光福汽车租赁服务","address":"甜爱路积善里西南侧","type":"汽车服务;汽车租赁;汽车租赁","typecode":"010900","pcode":310000,"pname":"上海市","citycode":21,"cityname":"上海市","adcode":310109,"adname":"虹口区","business_a":"江湾","location":"121.484008,31.268356","tel":"[]","bigType":"汽车服务","midType":"汽车租赁","smallType":"汽车租赁","gcj_lng":121.484008,"gcj_lat":31.268356,"wgs84_loc":"121.479516,31.27031","wgs84Lng":"121.479516","wgs84Lat":"31.27031","__source_file__":"13-常用公服设施点/SHP/上海市_汽车租赁.shp"},"geometry":{"type":"Point","coordinates":[121.479516,31.27031]}},{"id":"308","type":"Feature","properties":{"id":"B0G26MJG80","name":"上海吊车出租登高车出租","address":"芷江西路沪太路向东200米","type":"汽车服务;汽车租赁;汽车租赁","typecode":"010900","pcode":310000,"pname":"上海市","citycode":21,"cityname":"上海市","adcode":310106,"adname":"静安区","business_a":"和田","location":"121.454133,31.256027","tel":"13788920819","bigType":"汽车服务","midType":"汽车租赁","smallType":"汽车租赁","gcj_lng":121.454133,"gcj_lat":31.256027,"wgs84_loc":"121.44955,31.257909","wgs84Lng":"121.44955","wgs84Lat":"31.257909","__source_file__":"13-常用公服设施点/SHP/上海市_汽车租赁.shp"},"geometry":{"type":"Point","coordinates":[121.44955,31.257909]}},{"id":"297","type":"Feature","properties":{"id":"B0FFM3G2BG","name":"鼎展婚车实体店(普陀甘泉店)","address":"交通路2251号","type":"汽车服务;汽车租赁;汽车租赁","typecode":"010900","pcode":310000,"pname":"上海市","citycode":21,"cityname":"上海市","adcode":310107,"adname":"普陀区","business_a":"大宁路","location":"121.433281,31.257758","tel":"13636512765","bigType":"汽车服务","midType":"汽车租赁","smallType":"汽车租赁","gcj_lng":121.433281,"gcj_lat":31.257758,"wgs84_loc":"121.428653,31.259602","wgs84Lng":"121.428653","wgs84Lat":"31.259602","__source_file__":"13-常用公服设施点/SHP/上海市_汽车租赁.shp"},"geometry":{"type":"Point","coordinates":[121.428653,31.259602]}},{"id":"312","type":"Feature","properties":{"id":"B0G35YVZ3Q","name":"上海安时汽车租赁有限公司","address":"沪太路671号19幢208","type":"汽车服务;汽车租赁;汽车租赁","typecode":"010900","pcode":310000,"pname":"上海市","citycode":21,"cityname":"上海市","adcode":310106,"adname":"静安区","business_a":"和田","location":"121.446914,31.262373","tel":"13901934784","bigType":"汽车服务","midType":"汽车租赁","smallType":"汽车租赁","gcj_lng":121.446914,"gcj_lat":31.262373,"wgs84_loc":"121.442313,31.264238","wgs84Lng":"121.442313","wgs84Lat":"31.264238","__source_file__":"13-常用公服设施点/SHP/上海市_汽车租赁.shp"},"geometry":{"type":"Point","coordinates":[121.442313,31.264238]}},{"id":"319","type":"Feature","properties":{"id":"B0HR0KML3U","name":"大方租车(延长中路服务点)","address":"大宁路街道中国工商银行(延长中路支行)延铁小区","type":"汽车服务;汽车租赁;汽车租赁","typecode":"010900","pcode":310000,"pname":"上海市","citycode":21,"cityname":"上海市","adcode":310106,"adname":"静安区","business_a":"和田","location":"121.453559,31.270596","tel":"4006668818","bigType":"汽车服务","midType":"汽车租赁","smallType":"汽车租赁","gcj_lng":121.453559,"gcj_lat":31.270596,"wgs84_loc":"121.448973,31.272471","wgs84Lng":"121.448973","wgs84Lat":"31.272471","__source_file__":"13-常用公服设施点/SHP/上海市_汽车租赁.shp"},"geometry":{"type":"Point","coordinates":[121.448973,31.272471]}},{"id":"306","type":"Feature","properties":{"id":"B00156NUJY","name":"上海协通汽车租赁股份有限公司","address":"柳营路618号","type":"汽车服务;汽车租赁;汽车租赁","typecode":"010900","pcode":310000,"pname":"上海市","citycode":21,"cityname":"上海市","adcode":310106,"adname":"静安区","business_a":"和田","location":"121.459930,31.265124","tel":"021-36522100","bigType":"汽车服务","midType":"汽车租赁","smallType":"汽车租赁","gcj_lng":121.45993,"gcj_lat":31.265124,"wgs84_loc":"121.455362,31.267016","wgs84Lng":"121.455362","wgs84Lat":"31.267016","__source_file__":"13-常用公服设施点/SHP/上海市_汽车租赁.shp"},"geometry":{"type":"Point","coordinates":[121.455362,31.267016]}},{"id":"784","type":"Feature","properties":{"id":"B00156O63K","name":"上海昊雅汽车租赁有限公司","address":"中山北路146号-2","type":"汽车服务;汽车租赁;汽车租赁","typecode":"010900","pcode":310000,"pname":"上海市","citycode":21,"cityname":"上海市","adcode":310106,"adname":"静安区","business_a":"和田","location":"121.471516,31.265579","tel":"021-36525867;15821796588","bigType":"汽车服务","midType":"汽车租赁","smallType":"汽车租赁","gcj_lng":121.471516,"gcj_lat":31.265579,"wgs84_loc":"121.466983,31.2675","wgs84Lng":"121.466983","wgs84Lat":"31.2675","__source_file__":"13-常用公服设施点/SHP/上海市_汽车租赁.shp"},"geometry":{"type":"Point","coordinates":[121.466983,31.2675]}},{"id":"1097","type":"Feature","properties":{"id":"B00155MMFI","name":"唯依汽车服务","address":"西宝兴路715-717号","type":"汽车服务;汽车租赁;汽车租赁|汽车维修;汽车维修;汽车维修","typecode":"010900|030000","pcode":310000,"pname":"上海市","citycode":21,"cityname":"上海市","adcode":310109,"adname":"虹口区","business_a":"和田","location":"121.470688,31.266903","tel":"13916873759;021-56901345","bigType":"汽车服务","midType":"汽车租赁","smallType":"汽车租赁|汽车维修","gcj_lng":121.470688,"gcj_lat":31.266903,"wgs84_loc":"121.466152,31.268821","wgs84Lng":"121.466152","wgs84Lat":"31.268821","__source_file__":"13-常用公服设施点/SHP/上海市_汽车租赁.shp"},"geometry":{"type":"Point","coordinates":[121.466152,31.268821]}},{"id":"61","type":"Feature","properties":{"id":"B0HK3LXO15","name":"神舟租车","address":"广中路街道中山北一路9号近铁虹口金融产业园","type":"汽车服务;汽车租赁;汽车租赁","typecode":"010900","pcode":310000,"pname":"上海市","citycode":21,"cityname":"上海市","adcode":310109,"adname":"虹口区","business_a":"和田","location":"121.473789,31.268759","tel":"[]","bigType":"汽车服务","midType":"汽车租赁","smallType":"汽车租赁","gcj_lng":121.473789,"gcj_lat":31.268759,"wgs84_loc":"121.469263,31.270684","wgs84Lng":"121.469263","wgs84Lat":"31.270684","__source_file__":"13-常用公服设施点/SHP/上海市_汽车租赁.shp"},"geometry":{"type":"Point","coordinates":[121.469263,31.270684]}},{"id":"1229","type":"Feature","properties":{"id":"B0JA61J6DC","name":"神州租车(近铁虹口金融产业园店)","address":"广中路街道中山北一路9号近铁虹口金融产业园","type":"汽车服务;汽车租赁;汽车租赁","typecode":"010900","pcode":310000,"pname":"上海市","citycode":21,"cityname":"上海市","adcode":310109,"adname":"虹口区","business_a":"和田","location":"121.473798,31.268768","tel":"[]","bigType":"汽车服务","midType":"汽车租赁","smallType":"汽车租赁","gcj_lng":121.473798,"gcj_lat":31.268768,"wgs84_loc":"121.469272,31.270693","wgs84Lng":"121.469272","wgs84Lat":"31.270693","__source_file__":"13-常用公服设施点/SHP/上海市_汽车租赁.shp"},"geometry":{"type":"Point","coordinates":[121.469272,31.270693]}},{"id":"1001","type":"Feature","properties":{"id":"B0HGVXTN39","name":"骠骑租车","address":"柳营路205弄兴展大厦4号楼","type":"汽车服务;汽车租赁;汽车租赁","typecode":"010900","pcode":310000,"pname":"上海市","citycode":21,"cityname":"上海市","adcode":310106,"adname":"静安区","business_a":"凉城","location":"121.466646,31.270462","tel":"[]","bigType":"汽车服务","midType":"汽车租赁","smallType":"汽车租赁","gcj_lng":121.466646,"gcj_lat":31.270462,"wgs84_loc":"121.462097,31.272368","wgs84Lng":"121.462097","wgs84Lat":"31.272368","__source_file__":"13-常用公服设施点/SHP/上海市_汽车租赁.shp"},"geometry":{"type":"Point","coordinates":[121.462097,31.272368]}},{"id":"63","type":"Feature","properties":{"id":"B0FFG95NWC","name":"一嗨租车(新同心路店)","address":"新同心路220号","type":"汽车服务;汽车租赁;汽车租赁","typecode":"010900","pcode":310000,"pname":"上海市","citycode":21,"cityname":"上海市","adcode":310109,"adname":"虹口区","business_a":"凉城","location":"121.467948,31.276671","tel":"021-36532683","bigType":"汽车服务","midType":"汽车租赁","smallType":"汽车租赁","gcj_lng":121.467948,"gcj_lat":31.276671,"wgs84_loc":"121.463403,31.278578","wgs84Lng":"121.463403","wgs84Lat":"31.278578","__source_file__":"13-常用公服设施点/SHP/上海市_汽车租赁.shp"},"geometry":{"type":"Point","coordinates":[121.463403,31.278578]}}],"name":"上海市_汽车租赁","crs":{"type":"name","properties":{"name":"urn:ogc:def:crs:OGC:1.3:CRS84"}}}