{"type":"FeatureCollection","features":[{"id":"9","type":"Feature","properties":{"id":"B0HGTP7DZ3","name":"EPSON teamLab无界美术馆","address":"太仓路与马当路交叉口东约40米","type":"科教文化服务;美术馆;美术馆","typecode":"140400","pcode":310000,"pname":"上海市","citycode":21,"cityname":"上海市","adcode":310101,"adname":"黄浦区","business_a":"淮海路","location":"121.474490,31.221109","tel":"[]","bigType":"科教文化服务","midType":"美术馆","smallType":"美术馆","gcj_lng":121.47449,"gcj_lat":31.221109,"wgs84_loc":"121.46997,31.223058","wgs84Lng":"121.46997","wgs84Lat":"31.223058","__source_file__":"13-常用公服设施点/SHP/上海市_美术馆.shp"},"geometry":{"type":"Point","coordinates":[121.46997,31.223058]}},{"id":"11","type":"Feature","properties":{"id":"B0FFG84LAI","name":"翠湖天地生活艺术馆","address":"湖滨路150号企业天地二期5号楼","type":"科教文化服务;美术馆;美术馆","typecode":"140400","pcode":310000,"pname":"上海市","citycode":21,"cityname":"上海市","adcode":310101,"adname":"黄浦区","business_a":"淮海路","location":"121.478625,31.221539","tel":"[]","bigType":"科教文化服务","midType":"美术馆","smallType":"美术馆","gcj_lng":121.478625,"gcj_lat":31.221539,"wgs84_loc":"121.474119,31.223499","wgs84Lng":"121.474119","wgs84Lat":"31.223499","__source_file__":"13-常用公服设施点/SHP/上海市_美术馆.shp"},"geometry":{"type":"Point","coordinates":[121.474119,31.223499]}},{"id":"10","type":"Feature","properties":{"id":"B001574S4B","name":"chi K11美术馆","address":"淮海中路300号上海K11购物艺术中心B3层","type":"科教文化服务;美术馆;美术馆|购物服务;文化用品店;文化用品店","typecode":"140400|060800","pcode":310000,"pname":"上海市","citycode":21,"cityname":"上海市","adcode":310101,"adname":"黄浦区","business_a":"北京东路","location":"121.473459,31.223705","tel":"021-23103132","bigType":"科教文化服务","midType":"美术馆","smallType":"美术馆|购物服务","gcj_lng":121.473459,"gcj_lat":31.223705,"wgs84_loc":"121.468936,31.22565","wgs84Lng":"121.468936","wgs84Lat":"31.22565","__source_file__":"13-常用公服设施点/SHP/上海市_美术馆.shp"},"geometry":{"type":"Point","coordinates":[121.468936,31.22565]}},{"id":"25","type":"Feature","properties":{"id":"B0FFKW4BX9","name":"乐府钢琴艺术馆","address":"南京西路819号中创大厦804室","type":"科教文化服务;美术馆;美术馆","typecode":"140400","pcode":310000,"pname":"上海市","citycode":21,"cityname":"上海市","adcode":310106,"adname":"静安区","business_a":"淮海路","location":"121.460921,31.230432","tel":"021-52830889","bigType":"科教文化服务","midType":"美术馆","smallType":"美术馆","gcj_lng":121.460921,"gcj_lat":31.230432,"wgs84_loc":"121.456359,31.232341","wgs84Lng":"121.456359","wgs84Lat":"31.232341","__source_file__":"13-常用公服设施点/SHP/上海市_美术馆.shp"},"geometry":{"type":"Point","coordinates":[121.456359,31.232341]}},{"id":"20","type":"Feature","properties":{"id":"B0FFFH8SR8","name":"龙门雅集","address":"南京西路338号天安中心1层102室","type":"科教文化服务;美术馆;美术馆","typecode":"140400","pcode":310000,"pname":"上海市","citycode":21,"cityname":"上海市","adcode":310101,"adname":"黄浦区","business_a":"淮海路","location":"121.469653,31.232197","tel":"021-64722838","bigType":"科教文化服务","midType":"美术馆","smallType":"美术馆","gcj_lng":121.469653,"gcj_lat":31.232197,"wgs84_loc":"121.465117,31.234128","wgs84Lng":"121.465117","wgs84Lat":"31.234128","__source_file__":"13-常用公服设施点/SHP/上海市_美术馆.shp"},"geometry":{"type":"Point","coordinates":[121.465117,31.234128]}},{"id":"7","type":"Feature","properties":{"id":"B0HKDZX2F2","name":"春美术馆","address":"福州路655号2楼","type":"科教文化服务;美术馆;美术馆","typecode":"140400","pcode":310000,"pname":"上海市","citycode":21,"cityname":"上海市","adcode":310101,"adname":"黄浦区","business_a":"北京东路","location":"121.478545,31.232250","tel":"[]","bigType":"科教文化服务","midType":"美术馆","smallType":"美术馆","gcj_lng":121.478545,"gcj_lat":31.23225,"wgs84_loc":"121.474038,31.234205","wgs84Lng":"121.474038","wgs84Lat":"31.234205","__source_file__":"13-常用公服设施点/SHP/上海市_美术馆.shp"},"geometry":{"type":"Point","coordinates":[121.474038,31.234205]}},{"id":"132","type":"Feature","properties":{"id":"B0GRHYR2K5","name":"憙之精舍","address":"浙江中路188号中福古玩城2c25憙之精舍","type":"科教文化服务;美术馆;美术馆","typecode":"140400","pcode":310000,"pname":"上海市","citycode":21,"cityname":"上海市","adcode":310101,"adname":"黄浦区","business_a":"北京东路","location":"121.479287,31.233622","tel":"13507988906","bigType":"科教文化服务","midType":"美术馆","smallType":"美术馆","gcj_lng":121.479287,"gcj_lat":31.233622,"wgs84_loc":"121.474782,31.235578","wgs84Lng":"121.474782","wgs84Lat":"31.235578","__source_file__":"13-常用公服设施点/SHP/上海市_美术馆.shp"},"geometry":{"type":"Point","coordinates":[121.474782,31.235578]}},{"id":"12","type":"Feature","properties":{"id":"B0FFLJMRIQ","name":"上海梵高星空艺术馆","address":"南京东路第一百货c馆8层","type":"科教文化服务;美术馆;美术馆","typecode":"140400","pcode":310000,"pname":"上海市","citycode":21,"cityname":"上海市","adcode":310101,"adname":"黄浦区","business_a":"北京东路","location":"121.475222,31.235521","tel":"13311835984","bigType":"科教文化服务","midType":"美术馆","smallType":"美术馆","gcj_lng":121.475222,"gcj_lat":31.235521,"wgs84_loc":"121.470703,31.237465","wgs84Lng":"121.470703","wgs84Lat":"31.237465","__source_file__":"13-常用公服设施点/SHP/上海市_美术馆.shp"},"geometry":{"type":"Point","coordinates":[121.470703,31.237465]}},{"id":"131","type":"Feature","properties":{"id":"B00155KN1X","name":"上海虹庙艺术","address":"南京东路496号","type":"科教文化服务;美术馆;美术馆","typecode":"140400","pcode":310000,"pname":"上海市","citycode":21,"cityname":"上海市","adcode":310101,"adname":"黄浦区","business_a":"北京东路","location":"121.480706,31.236278","tel":"[]","bigType":"科教文化服务","midType":"美术馆","smallType":"美术馆","gcj_lng":121.480706,"gcj_lat":31.236278,"wgs84_loc":"121.476206,31.238237","wgs84Lng":"121.476206","wgs84Lat":"31.238237","__source_file__":"13-常用公服设施点/SHP/上海市_美术馆.shp"},"geometry":{"type":"Point","coordinates":[121.476206,31.238237]}},{"id":"133","type":"Feature","properties":{"id":"B0IGSH3LYI","name":"上海久事艺术沙龙(暂停营业)","address":"北京东路230号","type":"科教文化服务;美术馆;美术馆","typecode":"140400","pcode":310000,"pname":"上海市","citycode":21,"cityname":"上海市","adcode":310101,"adname":"黄浦区","business_a":"北京东路","location":"121.486039,31.240747","tel":"[]","bigType":"科教文化服务","midType":"美术馆","smallType":"美术馆","gcj_lng":121.486039,"gcj_lat":31.240747,"wgs84_loc":"121.481557,31.24272","wgs84Lng":"121.481557","wgs84Lat":"31.24272","__source_file__":"13-常用公服设施点/SHP/上海市_美术馆.shp"},"geometry":{"type":"Point","coordinates":[121.481557,31.24272]}},{"id":"16","type":"Feature","properties":{"id":"B00155M63E","name":"沪申画廊","address":"中山东一路3号3楼(近广东路)","type":"科教文化服务;美术馆;美术馆","typecode":"140400","pcode":310000,"pname":"上海市","citycode":21,"cityname":"上海市","adcode":310101,"adname":"黄浦区","business_a":"北京东路","location":"121.490765,31.234156","tel":"021-63215757","bigType":"科教文化服务","midType":"美术馆","smallType":"美术馆","gcj_lng":121.490765,"gcj_lat":31.234156,"wgs84_loc":"121.4863,31.236145","wgs84Lng":"121.4863","wgs84Lat":"31.236145","__source_file__":"13-常用公服设施点/SHP/上海市_美术馆.shp"},"geometry":{"type":"Point","coordinates":[121.4863,31.236145]}},{"id":"215","type":"Feature","properties":{"id":"B0FFFWUDI4","name":"艺术门画廊","address":"江西中路181号底楼边门(福州路口)","type":"科教文化服务;美术馆;美术馆","typecode":"140400","pcode":310000,"pname":"上海市","citycode":21,"cityname":"上海市","adcode":310101,"adname":"黄浦区","business_a":"北京东路","location":"121.487150,31.234518","tel":"021-63231989","bigType":"科教文化服务","midType":"美术馆","smallType":"美术馆","gcj_lng":121.48715,"gcj_lat":31.234518,"wgs84_loc":"121.482672,31.236497","wgs84Lng":"121.482672","wgs84Lat":"31.236497","__source_file__":"13-常用公服设施点/SHP/上海市_美术馆.shp"},"geometry":{"type":"Point","coordinates":[121.482672,31.236497]}},{"id":"135","type":"Feature","properties":{"id":"B0H3FC8RK1","name":"Objective家居店","address":"四川中路133号5F","type":"科教文化服务;美术馆;美术馆","typecode":"140400","pcode":310000,"pname":"上海市","citycode":21,"cityname":"上海市","adcode":310101,"adname":"黄浦区","business_a":"北京东路","location":"121.488941,31.234691","tel":"[]","bigType":"科教文化服务","midType":"美术馆","smallType":"美术馆","gcj_lng":121.488941,"gcj_lat":31.234691,"wgs84_loc":"121.48447,31.236675","wgs84Lng":"121.48447","wgs84Lat":"31.236675","__source_file__":"13-常用公服设施点/SHP/上海市_美术馆.shp"},"geometry":{"type":"Point","coordinates":[121.48447,31.236675]}},{"id":"8","type":"Feature","properties":{"id":"B0FFH71HIC","name":"外滩艺术馆","address":"汉口路201号","type":"科教文化服务;美术馆;美术馆","typecode":"140400","pcode":310000,"pname":"上海市","citycode":21,"cityname":"上海市","adcode":310101,"adname":"黄浦区","business_a":"北京东路","location":"121.486197,31.235699","tel":"[]","bigType":"科教文化服务","midType":"美术馆","smallType":"美术馆","gcj_lng":121.486197,"gcj_lat":31.235699,"wgs84_loc":"121.481716,31.237674","wgs84Lng":"121.481716","wgs84Lat":"31.237674","__source_file__":"13-常用公服设施点/SHP/上海市_美术馆.shp"},"geometry":{"type":"Point","coordinates":[121.481716,31.237674]}},{"id":"164","type":"Feature","properties":{"id":"B0FFLCKUTU","name":"浦东美术馆(暂停营业)","address":"滨江大道2777号","type":"科教文化服务;美术馆;美术馆","typecode":"140400","pcode":310000,"pname":"上海市","citycode":21,"cityname":"上海市","adcode":310115,"adname":"浦东新区","business_a":"陆家嘴","location":"121.49631,31.238115","tel":"4008208771","bigType":"科教文化服务","midType":"美术馆","smallType":"美术馆","gcj_lng":121.49631,"gcj_lat":31.238115,"wgs84_loc":"121.491865,31.240119","wgs84Lng":"121.491865","wgs84Lat":"31.240119","__source_file__":"13-常用公服设施点/SHP/上海市_美术馆.shp"},"geometry":{"type":"Point","coordinates":[121.491865,31.240119]}},{"id":"283","type":"Feature","properties":{"id":"B0FFLCKUTU","name":"浦东美术馆","address":"滨江大道2777号","type":"科教文化服务;美术馆;美术馆","typecode":"140400","pcode":310000,"pname":"上海市","citycode":21,"cityname":"上海市","adcode":310115,"adname":"浦东新区","business_a":"陆家嘴","location":"121.496310,31.238115","tel":"4008208771","bigType":"科教文化服务","midType":"美术馆","smallType":"美术馆","gcj_lng":121.49631,"gcj_lat":31.238115,"wgs84_loc":"121.491865,31.240119","wgs84Lng":"121.491865","wgs84Lat":"31.240119","__source_file__":"13-常用公服设施点/SHP/上海市_美术馆.shp"},"geometry":{"type":"Point","coordinates":[121.491865,31.240119]}},{"id":"276","type":"Feature","properties":{"id":"B0J1MNSRP7","name":"东方明珠·云美术馆","address":"世纪大道1号(东方明珠电视塔零米大厅内)","type":"科教文化服务;美术馆;美术馆","typecode":"140400","pcode":310000,"pname":"上海市","citycode":21,"cityname":"上海市","adcode":310115,"adname":"浦东新区","business_a":"陆家嘴","location":"121.500114,31.239731","tel":"[]","bigType":"科教文化服务","midType":"美术馆","smallType":"美术馆","gcj_lng":121.500114,"gcj_lat":31.239731,"wgs84_loc":"121.495682,31.241746","wgs84Lng":"121.495682","wgs84Lat":"31.241746","__source_file__":"13-常用公服设施点/SHP/上海市_美术馆.shp"},"geometry":{"type":"Point","coordinates":[121.495682,31.241746]}},{"id":"13","type":"Feature","properties":{"id":"B0G0V4ILHA","name":"立森居海南黄花梨艺术馆","address":"陕西南路欣广大厦西南侧约40米","type":"科教文化服务;美术馆;美术馆","typecode":"140400","pcode":310000,"pname":"上海市","citycode":21,"cityname":"上海市","adcode":310101,"adname":"黄浦区","business_a":"淮海路","location":"121.457140,31.221625","tel":"[]","bigType":"科教文化服务","midType":"美术馆","smallType":"美术馆","gcj_lng":121.45714,"gcj_lat":31.221625,"wgs84_loc":"121.452568,31.22353","wgs84Lng":"121.452568","wgs84Lat":"31.22353","__source_file__":"13-常用公服设施点/SHP/上海市_美术馆.shp"},"geometry":{"type":"Point","coordinates":[121.452568,31.22353]}},{"id":"141","type":"Feature","properties":{"id":"B0FFK4IN6F","name":"鼎极影像艺术馆(静安店)","address":"铜仁路88号2楼","type":"科教文化服务;美术馆;美术馆","typecode":"140400","pcode":310000,"pname":"上海市","citycode":21,"cityname":"上海市","adcode":310106,"adname":"静安区","business_a":"淮海路","location":"121.451399,31.223346","tel":"18201143918","bigType":"科教文化服务","midType":"美术馆","smallType":"美术馆","gcj_lng":121.451399,"gcj_lat":31.223346,"wgs84_loc":"121.446812,31.225237","wgs84Lng":"121.446812","wgs84Lat":"31.225237","__source_file__":"13-常用公服设施点/SHP/上海市_美术馆.shp"},"geometry":{"type":"Point","coordinates":[121.446812,31.225237]}},{"id":"31","type":"Feature","properties":{"id":"B0FFF9ZV3V","name":"敬华艺术空间","address":"铜仁路92号","type":"科教文化服务;美术馆;美术馆","typecode":"140400","pcode":310000,"pname":"上海市","citycode":21,"cityname":"上海市","adcode":310106,"adname":"静安区","business_a":"淮海路","location":"121.450741,31.224755","tel":"021-62716969","bigType":"科教文化服务","midType":"美术馆","smallType":"美术馆","gcj_lng":121.450741,"gcj_lat":31.224755,"wgs84_loc":"121.446152,31.226644","wgs84Lng":"121.446152","wgs84Lat":"31.226644","__source_file__":"13-常用公服设施点/SHP/上海市_美术馆.shp"},"geometry":{"type":"Point","coordinates":[121.446152,31.226644]}},{"id":"30","type":"Feature","properties":{"id":"B0FFKRT73F","name":"玉见（卜石艺术馆）","address":"南京西路1135-1137号","type":"科教文化服务;美术馆;美术馆","typecode":"140400","pcode":310000,"pname":"上海市","citycode":21,"cityname":"上海市","adcode":310106,"adname":"静安区","business_a":"淮海路","location":"121.456235,31.227807","tel":"13764889997","bigType":"科教文化服务","midType":"美术馆","smallType":"美术馆","gcj_lng":121.456235,"gcj_lat":31.227807,"wgs84_loc":"121.45166,31.229707","wgs84Lng":"121.45166","wgs84Lat":"31.229707","__source_file__":"13-常用公服设施点/SHP/上海市_美术馆.shp"},"geometry":{"type":"Point","coordinates":[121.45166,31.229707]}},{"id":"23","type":"Feature","properties":{"id":"B0FFH114GW","name":"折扇艺术馆","address":"陕西北路454号","type":"科教文化服务;美术馆;美术馆","typecode":"140400","pcode":310000,"pname":"上海市","citycode":21,"cityname":"上海市","adcode":310106,"adname":"静安区","business_a":"曹家渡","location":"121.453008,31.230491","tel":"13611897936","bigType":"科教文化服务","midType":"美术馆","smallType":"美术馆","gcj_lng":121.453008,"gcj_lat":31.230491,"wgs84_loc":"121.448424,31.232382","wgs84Lng":"121.448424","wgs84Lat":"31.232382","__source_file__":"13-常用公服设施点/SHP/上海市_美术馆.shp"},"geometry":{"type":"Point","coordinates":[121.448424,31.232382]}},{"id":"244","type":"Feature","properties":{"id":"B0J3DKBGLQ","name":"柒艺术馆","address":"江宁路与淮安路交叉口南60米","type":"科教文化服务;美术馆;美术馆","typecode":"140400","pcode":310000,"pname":"上海市","citycode":21,"cityname":"上海市","adcode":310106,"adname":"静安区","business_a":"[]","location":"121.448371,31.238211","tel":"[]","bigType":"科教文化服务","midType":"美术馆","smallType":"美术馆","gcj_lng":121.448371,"gcj_lat":31.238211,"wgs84_loc":"121.443775,31.240089","wgs84Lng":"121.443775","wgs84Lat":"31.240089","__source_file__":"13-常用公服设施点/SHP/上海市_美术馆.shp"},"geometry":{"type":"Point","coordinates":[121.443775,31.240089]}},{"id":"270","type":"Feature","properties":{"id":"B0J0BSTUVJ","name":"Lutra Gallery獭獭画廊","address":"莫干山路50号M50创意园4号楼101","type":"科教文化服务;美术馆;美术馆","typecode":"140400","pcode":310000,"pname":"上海市","citycode":21,"cityname":"上海市","adcode":310107,"adname":"普陀区","business_a":"光新","location":"121.448699,31.247674","tel":"[]","bigType":"科教文化服务","midType":"美术馆","smallType":"美术馆","gcj_lng":121.448699,"gcj_lat":31.247674,"wgs84_loc":"121.444103,31.249549","wgs84Lng":"121.444103","wgs84Lat":"31.249549","__source_file__":"13-常用公服设施点/SHP/上海市_美术馆.shp"},"geometry":{"type":"Point","coordinates":[121.444103,31.249549]}},{"id":"73","type":"Feature","properties":{"id":"B00156R4F7","name":"八大画廊","address":"莫干山路50号M50艺术区4号楼A1层","type":"科教文化服务;美术馆;美术馆","typecode":"140400","pcode":310000,"pname":"上海市","citycode":21,"cityname":"上海市","adcode":310107,"adname":"普陀区","business_a":"光新","location":"121.448769,31.247768","tel":"021-32270361","bigType":"科教文化服务","midType":"美术馆","smallType":"美术馆","gcj_lng":121.448769,"gcj_lat":31.247768,"wgs84_loc":"121.444173,31.249643","wgs84Lng":"121.444173","wgs84Lat":"31.249643","__source_file__":"13-常用公服设施点/SHP/上海市_美术馆.shp"},"geometry":{"type":"Point","coordinates":[121.444173,31.249643]}},{"id":"74","type":"Feature","properties":{"id":"B001574X3C","name":"宝胜画廊","address":"莫干山路50号13号楼103室","type":"科教文化服务;美术馆;美术馆","typecode":"140400","pcode":310000,"pname":"上海市","citycode":21,"cityname":"上海市","adcode":310107,"adname":"普陀区","business_a":"光新","location":"121.449664,31.247772","tel":"021-63283399","bigType":"科教文化服务","midType":"美术馆","smallType":"美术馆","gcj_lng":121.449664,"gcj_lat":31.247772,"wgs84_loc":"121.44507,31.249649","wgs84Lng":"121.44507","wgs84Lat":"31.249649","__source_file__":"13-常用公服设施点/SHP/上海市_美术馆.shp"},"geometry":{"type":"Point","coordinates":[121.44507,31.249649]}},{"id":"265","type":"Feature","properties":{"id":"B0JG2N7SGI","name":"艺术门画廊","address":"香港路 117 号 203 室","type":"科教文化服务;美术馆;美术馆","typecode":"140400","pcode":310000,"pname":"上海市","citycode":21,"cityname":"上海市","adcode":310101,"adname":"黄浦区","business_a":"北京路","location":"121.485658,31.242328","tel":"021-63231989","bigType":"科教文化服务","midType":"美术馆","smallType":"美术馆","gcj_lng":121.485658,"gcj_lat":31.242328,"wgs84_loc":"121.481174,31.244299","wgs84Lng":"121.481174","wgs84Lat":"31.244299","__source_file__":"13-常用公服设施点/SHP/上海市_美术馆.shp"},"geometry":{"type":"Point","coordinates":[121.481174,31.244299]}},{"id":"238","type":"Feature","properties":{"id":"B0IU5ATKO1","name":"Lutra Gallery獭獭画廊","address":"香港路117号6楼","type":"科教文化服务;美术馆;美术馆","typecode":"140400","pcode":310000,"pname":"上海市","citycode":21,"cityname":"上海市","adcode":310101,"adname":"黄浦区","business_a":"北京东路","location":"121.485520,31.242439","tel":"[]","bigType":"科教文化服务","midType":"美术馆","smallType":"美术馆","gcj_lng":121.48552,"gcj_lat":31.242439,"wgs84_loc":"121.481036,31.244409","wgs84Lng":"121.481036","wgs84Lat":"31.244409","__source_file__":"13-常用公服设施点/SHP/上海市_美术馆.shp"},"geometry":{"type":"Point","coordinates":[121.481036,31.244409]}},{"id":"245","type":"Feature","properties":{"id":"B0JBXURPY1","name":"海派美术馆","address":"七浦路607号2楼(曲阜路地铁站5号口步行240米)","type":"科教文化服务;美术馆;美术馆","typecode":"140400","pcode":310000,"pname":"上海市","citycode":21,"cityname":"上海市","adcode":310106,"adname":"静安区","business_a":"七浦路","location":"121.473562,31.243857","tel":"021-61701311","bigType":"科教文化服务","midType":"美术馆","smallType":"美术馆","gcj_lng":121.473562,"gcj_lat":31.243857,"wgs84_loc":"121.469037,31.245793","wgs84Lng":"121.469037","wgs84Lat":"31.245793","__source_file__":"13-常用公服设施点/SHP/上海市_美术馆.shp"},"geometry":{"type":"Point","coordinates":[121.469037,31.245793]}},{"id":"91","type":"Feature","properties":{"id":"B0FFGJO1FV","name":"随意美术馆","address":"天潼路与四川北路交叉口西约60米","type":"科教文化服务;美术馆;美术馆","typecode":"140400","pcode":310000,"pname":"上海市","citycode":21,"cityname":"上海市","adcode":310109,"adname":"虹口区","business_a":"北外滩","location":"121.485003,31.245184","tel":"[]","bigType":"科教文化服务","midType":"美术馆","smallType":"美术馆","gcj_lng":121.485003,"gcj_lat":31.245184,"wgs84_loc":"121.480517,31.247151","wgs84Lng":"121.480517","wgs84Lat":"31.247151","__source_file__":"13-常用公服设施点/SHP/上海市_美术馆.shp"},"geometry":{"type":"Point","coordinates":[121.480517,31.247151]}},{"id":"203","type":"Feature","properties":{"id":"B00155GN2N","name":"上海现代儿童美术馆","address":"多伦路27号4楼","type":"科教文化服务;美术馆;美术馆","typecode":"140400","pcode":310000,"pname":"上海市","citycode":21,"cityname":"上海市","adcode":310109,"adname":"虹口区","business_a":"宝山路","location":"121.483045,31.261867","tel":"021-56968413;021-65879059","bigType":"科教文化服务","midType":"美术馆","smallType":"美术馆","gcj_lng":121.483045,"gcj_lat":31.261867,"wgs84_loc":"121.478551,31.263821","wgs84Lng":"121.478551","wgs84Lat":"31.263821","__source_file__":"13-常用公服设施点/SHP/上海市_美术馆.shp"},"geometry":{"type":"Point","coordinates":[121.478551,31.263821]}},{"id":"92","type":"Feature","properties":{"id":"B001559DIY","name":"上海多伦现代美术馆","address":"多伦路27","type":"科教文化服务;美术馆;美术馆","typecode":"140400","pcode":310000,"pname":"上海市","citycode":21,"cityname":"上海市","adcode":310109,"adname":"虹口区","business_a":"宝山路","location":"121.483076,31.261886","tel":"021-65872530;021-65879059","bigType":"科教文化服务","midType":"美术馆","smallType":"美术馆","gcj_lng":121.483076,"gcj_lat":31.261886,"wgs84_loc":"121.478582,31.263841","wgs84Lng":"121.478582","wgs84Lat":"31.263841","__source_file__":"13-常用公服设施点/SHP/上海市_美术馆.shp"},"geometry":{"type":"Point","coordinates":[121.478582,31.263841]}},{"id":"246","type":"Feature","properties":{"id":"B0KA6RMBBR","name":"紫林坊艺术馆","address":"东宝兴路与芷江中路交叉口西南40米","type":"科教文化服务;美术馆;美术馆","typecode":"140400","pcode":310000,"pname":"上海市","citycode":21,"cityname":"上海市","adcode":310106,"adname":"静安区","business_a":"宝山路","location":"121.474931,31.262426","tel":"[]","bigType":"科教文化服务","midType":"美术馆","smallType":"美术馆","gcj_lng":121.474931,"gcj_lat":31.262426,"wgs84_loc":"121.470409,31.264357","wgs84Lng":"121.470409","wgs84Lat":"31.264357","__source_file__":"13-常用公服设施点/SHP/上海市_美术馆.shp"},"geometry":{"type":"Point","coordinates":[121.470409,31.264357]}},{"id":"24","type":"Feature","properties":{"id":"B0FFFORNP6","name":"梅尔尼科夫美术馆","address":"西藏北路1355号C座","type":"科教文化服务;美术馆;美术馆","typecode":"140400","pcode":310000,"pname":"上海市","citycode":21,"cityname":"上海市","adcode":310106,"adname":"静安区","business_a":"和田","location":"121.464797,31.264433","tel":"021-56321879","bigType":"科教文化服务","midType":"美术馆","smallType":"美术馆","gcj_lng":121.464797,"gcj_lat":31.264433,"wgs84_loc":"121.460243,31.266337","wgs84Lng":"121.460243","wgs84Lat":"31.266337","__source_file__":"13-常用公服设施点/SHP/上海市_美术馆.shp"},"geometry":{"type":"Point","coordinates":[121.460243,31.266337]}},{"id":"5","type":"Feature","properties":{"id":"B0FFJMROU8","name":"上海久事美术馆","address":"中山东一路27号6层","type":"科教文化服务;美术馆;美术馆","typecode":"140400","pcode":310000,"pname":"上海市","citycode":21,"cityname":"上海市","adcode":310101,"adname":"黄浦区","business_a":"北京东路","location":"121.489894,31.240241","tel":"13611730930","bigType":"科教文化服务","midType":"美术馆","smallType":"美术馆","gcj_lng":121.489894,"gcj_lat":31.240241,"wgs84_loc":"121.485426,31.242225","wgs84Lng":"121.485426","wgs84Lat":"31.242225","__source_file__":"13-常用公服设施点/SHP/上海市_美术馆.shp"},"geometry":{"type":"Point","coordinates":[121.485426,31.242225]}},{"id":"264","type":"Feature","properties":{"id":"B0IATZNFYM","name":"上海久事美术馆","address":"中山东一路27号6层","type":"科教文化服务;美术馆;美术馆","typecode":"140400","pcode":310000,"pname":"上海市","citycode":21,"cityname":"上海市","adcode":310101,"adname":"黄浦区","business_a":"北京路","location":"121.489894,31.240241","tel":"13774471354","bigType":"科教文化服务","midType":"美术馆","smallType":"美术馆","gcj_lng":121.489894,"gcj_lat":31.240241,"wgs84_loc":"121.485426,31.242225","wgs84Lng":"121.485426","wgs84Lat":"31.242225","__source_file__":"13-常用公服设施点/SHP/上海市_美术馆.shp"},"geometry":{"type":"Point","coordinates":[121.485426,31.242225]}},{"id":"17","type":"Feature","properties":{"id":"B0FFF62NKH","name":"CoBrA GALLERY眼镜蛇画廊","address":"圆明园路149号","type":"科教文化服务;美术馆;美术馆","typecode":"140400","pcode":310000,"pname":"上海市","citycode":21,"cityname":"上海市","adcode":310101,"adname":"黄浦区","business_a":"北京东路","location":"121.486504,31.240834","tel":"[]","bigType":"科教文化服务","midType":"美术馆","smallType":"美术馆","gcj_lng":121.486504,"gcj_lat":31.240834,"wgs84_loc":"121.482024,31.242808","wgs84Lng":"121.482024","wgs84Lat":"31.242808","__source_file__":"13-常用公服设施点/SHP/上海市_美术馆.shp"},"geometry":{"type":"Point","coordinates":[121.482024,31.242808]}},{"id":"6","type":"Feature","properties":{"id":"B00155QH3P","name":"上海外滩美术馆","address":"虎丘路27号1M","type":"科教文化服务;美术馆;美术馆","typecode":"140400","pcode":310000,"pname":"上海市","citycode":21,"cityname":"上海市","adcode":310101,"adname":"黄浦区","business_a":"北京东路","location":"121.487525,31.241262","tel":"021-33109985;021-63213352","bigType":"科教文化服务","midType":"美术馆","smallType":"美术馆","gcj_lng":121.487525,"gcj_lat":31.241262,"wgs84_loc":"121.483048,31.243239","wgs84Lng":"121.483048","wgs84Lat":"31.243239","__source_file__":"13-常用公服设施点/SHP/上海市_美术馆.shp"},"geometry":{"type":"Point","coordinates":[121.483048,31.243239]}},{"id":"134","type":"Feature","properties":{"id":"B0HALD472B","name":"Petri Gallery","address":"虎丘路27号1M05","type":"科教文化服务;美术馆;美术馆","typecode":"140400","pcode":310000,"pname":"上海市","citycode":21,"cityname":"上海市","adcode":310101,"adname":"黄浦区","business_a":"北京东路","location":"121.487263,31.241299","tel":"[]","bigType":"科教文化服务","midType":"美术馆","smallType":"美术馆","gcj_lng":121.487263,"gcj_lat":31.241299,"wgs84_loc":"121.482785,31.243275","wgs84Lng":"121.482785","wgs84Lat":"31.243275","__source_file__":"13-常用公服设施点/SHP/上海市_美术馆.shp"},"geometry":{"type":"Point","coordinates":[121.482785,31.243275]}},{"id":"78","type":"Feature","properties":{"id":"B0FFGHBAWD","name":"1929艺术中心","address":"东大名路687号","type":"科教文化服务;美术馆;美术馆","typecode":"140400","pcode":310000,"pname":"上海市","citycode":21,"cityname":"上海市","adcode":310109,"adname":"虹口区","business_a":"提篮桥","location":"121.501297,31.249857","tel":"[]","bigType":"科教文化服务","midType":"美术馆","smallType":"美术馆","gcj_lng":121.501297,"gcj_lat":31.249857,"wgs84_loc":"121.496869,31.251871","wgs84Lng":"121.496869","wgs84Lat":"31.251871","__source_file__":"13-常用公服设施点/SHP/上海市_美术馆.shp"},"geometry":{"type":"Point","coordinates":[121.496869,31.251871]}},{"id":"76","type":"Feature","properties":{"id":"B0FFF3X3MB","name":"六岛艺术中心","address":"莫干山路50号M50创意园6号楼2层","type":"科教文化服务;美术馆;美术馆","typecode":"140400","pcode":310000,"pname":"上海市","citycode":21,"cityname":"上海市","adcode":310107,"adname":"普陀区","business_a":"光新","location":"121.449329,31.248118","tel":"021-62277856","bigType":"科教文化服务","midType":"美术馆","smallType":"美术馆","gcj_lng":121.449329,"gcj_lat":31.248118,"wgs84_loc":"121.444735,31.249994","wgs84Lng":"121.444735","wgs84Lat":"31.249994","__source_file__":"13-常用公服设施点/SHP/上海市_美术馆.shp"},"geometry":{"type":"Point","coordinates":[121.444735,31.249994]}},{"id":"75","type":"Feature","properties":{"id":"B0HKVZ6IG4","name":"摩登巴赫香氛艺术馆","address":"莫干山路与昌化路交叉口东约140米","type":"科教文化服务;美术馆;美术馆","typecode":"140400","pcode":310000,"pname":"上海市","citycode":21,"cityname":"上海市","adcode":310107,"adname":"普陀区","business_a":"光新","location":"121.445479,31.248958","tel":"[]","bigType":"科教文化服务","midType":"美术馆","smallType":"美术馆","gcj_lng":121.445479,"gcj_lat":31.248958,"wgs84_loc":"121.440876,31.250826","wgs84Lng":"121.440876","wgs84Lat":"31.250826","__source_file__":"13-常用公服设施点/SHP/上海市_美术馆.shp"},"geometry":{"type":"Point","coordinates":[121.440876,31.250826]}},{"id":"243","type":"Feature","properties":{"id":"B0KAN5T3S4","name":"上海静安大风堂美术馆","address":"恒丰北路100号林顿大厦26楼","type":"科教文化服务;美术馆;美术馆","typecode":"140400","pcode":310000,"pname":"上海市","citycode":21,"cityname":"上海市","adcode":310106,"adname":"静安区","business_a":"不夜城","location":"121.451405,31.255274","tel":"021-51695169","bigType":"科教文化服务","midType":"美术馆","smallType":"美术馆","gcj_lng":121.451405,"gcj_lat":31.255274,"wgs84_loc":"121.446815,31.257151","wgs84Lng":"121.446815","wgs84Lat":"31.257151","__source_file__":"13-常用公服设施点/SHP/上海市_美术馆.shp"},"geometry":{"type":"Point","coordinates":[121.446815,31.257151]}},{"id":"200","type":"Feature","properties":{"id":"B0015750F6","name":"艾亚陶瓷艺术馆","address":"老沪太路与共和新路交叉口西100米","type":"科教文化服务;美术馆;美术馆","typecode":"140400","pcode":310000,"pname":"上海市","citycode":21,"cityname":"上海市","adcode":310106,"adname":"静安区","business_a":"大宁路","location":"121.456646,31.267970","tel":"[]","bigType":"科教文化服务","midType":"美术馆","smallType":"美术馆","gcj_lng":121.456646,"gcj_lat":31.26797,"wgs84_loc":"121.452069,31.269853","wgs84Lng":"121.452069","wgs84Lat":"31.269853","__source_file__":"13-常用公服设施点/SHP/上海市_美术馆.shp"},"geometry":{"type":"Point","coordinates":[121.452069,31.269853]}},{"id":"22","type":"Feature","properties":{"id":"B0GKND88LE","name":"雅艺艺术馆","address":"延长中路551号","type":"科教文化服务;美术馆;美术馆","typecode":"140400","pcode":310000,"pname":"上海市","citycode":21,"cityname":"上海市","adcode":310106,"adname":"静安区","business_a":"大宁路","location":"121.450631,31.269685","tel":"[]","bigType":"科教文化服务","midType":"美术馆","smallType":"美术馆","gcj_lng":121.450631,"gcj_lat":31.269685,"wgs84_loc":"121.446038,31.271554","wgs84Lng":"121.446038","wgs84Lat":"31.271554","__source_file__":"13-常用公服设施点/SHP/上海市_美术馆.shp"},"geometry":{"type":"Point","coordinates":[121.446038,31.271554]}},{"id":"26","type":"Feature","properties":{"id":"B00155ITG2","name":"望源现代艺术馆","address":"运城路267号2层","type":"科教文化服务;美术馆;美术馆","typecode":"140400","pcode":310000,"pname":"上海市","citycode":21,"cityname":"上海市","adcode":310106,"adname":"静安区","business_a":"彭浦镇","location":"121.438346,31.270155","tel":"021-56617333","bigType":"科教文化服务","midType":"美术馆","smallType":"美术馆","gcj_lng":121.438346,"gcj_lat":31.270155,"wgs84_loc":"121.433726,31.272001","wgs84Lng":"121.433726","wgs84Lat":"31.272001","__source_file__":"13-常用公服设施点/SHP/上海市_美术馆.shp"},"geometry":{"type":"Point","coordinates":[121.433726,31.272001]}},{"id":"28","type":"Feature","properties":{"id":"B0HBTC3I40","name":"京翰林国学艺术馆","address":"大宁路585弄宁鼎商务楼3楼311室","type":"科教文化服务;美术馆;美术馆","typecode":"140400","pcode":310000,"pname":"上海市","citycode":21,"cityname":"上海市","adcode":310106,"adname":"静安区","business_a":"大宁路","location":"121.448457,31.273307","tel":"18930535776","bigType":"科教文化服务","midType":"美术馆","smallType":"美术馆","gcj_lng":121.448457,"gcj_lat":31.273307,"wgs84_loc":"121.443858,31.27517","wgs84Lng":"121.443858","wgs84Lat":"31.27517","__source_file__":"13-常用公服设施点/SHP/上海市_美术馆.shp"},"geometry":{"type":"Point","coordinates":[121.443858,31.27517]}}],"name":"上海市_美术馆","crs":{"type":"name","properties":{"name":"urn:ogc:def:crs:OGC:1.3:CRS84"}}}