{"type":"FeatureCollection","features":[{"id":"423","type":"Feature","properties":{"id":"B0IG1SD2HZ","name":"上海当代艺术馆","address":"马当路与兴业路交叉口东南40米","type":"科教文化服务;展览馆;展览馆","typecode":"140200","pcode":310000,"pname":"上海市","citycode":21,"cityname":"上海市","adcode":310101,"adname":"黄浦区","business_a":"新天地(自忠路)","location":"121.474563,31.219419","tel":"[]","bigType":"科教文化服务","midType":"展览馆","smallType":"展览馆","gcj_lng":121.474563,"gcj_lat":31.219419,"wgs84_loc":"121.470044,31.221369","wgs84Lng":"121.470044","wgs84Lat":"31.221369","__source_file__":"13-常用公服设施点/SHP/上海市_展览馆.shp"},"geometry":{"type":"Point","coordinates":[121.470044,31.221369]}},{"id":"310","type":"Feature","properties":{"id":"B0FFFP9HJM","name":"第十届上海双年展","address":"马当路119号上海新天地内","type":"科教文化服务;展览馆;展览馆","typecode":"140200","pcode":310000,"pname":"上海市","citycode":21,"cityname":"上海市","adcode":310101,"adname":"黄浦区","business_a":"新天地(自忠路)","location":"121.474382,31.220789","tel":"[]","bigType":"科教文化服务","midType":"展览馆","smallType":"展览馆","gcj_lng":121.474382,"gcj_lat":31.220789,"wgs84_loc":"121.469862,31.222738","wgs84Lng":"121.469862","wgs84Lat":"31.222738","__source_file__":"13-常用公服设施点/SHP/上海市_展览馆.shp"},"geometry":{"type":"Point","coordinates":[121.469862,31.222738]}},{"id":"305","type":"Feature","properties":{"id":"B0FFHSO3ND","name":"海上丝韵非遗文化馆","address":"西藏南路25-31号","type":"科教文化服务;展览馆;展览馆","typecode":"140200","pcode":310000,"pname":"上海市","citycode":21,"cityname":"上海市","adcode":310101,"adname":"黄浦区","business_a":"北京东路","location":"121.479117,31.227910","tel":"[]","bigType":"科教文化服务","midType":"展览馆","smallType":"展览馆","gcj_lng":121.479117,"gcj_lat":31.22791,"wgs84_loc":"121.474612,31.229868","wgs84Lng":"121.474612","wgs84Lat":"31.229868","__source_file__":"13-常用公服设施点/SHP/上海市_展览馆.shp"},"geometry":{"type":"Point","coordinates":[121.474612,31.229868]}},{"id":"303","type":"Feature","properties":{"id":"B0FFLF8U4V","name":"上海工匠馆","address":"西藏中路120号(工人文化宫一楼)","type":"科教文化服务;展览馆;展览馆","typecode":"140200","pcode":310000,"pname":"上海市","citycode":21,"cityname":"上海市","adcode":310101,"adname":"黄浦区","business_a":"北京东路","location":"121.478222,31.230433","tel":"021-63520361","bigType":"科教文化服务","midType":"展览馆","smallType":"展览馆","gcj_lng":121.478222,"gcj_lat":31.230433,"wgs84_loc":"121.473714,31.232388","wgs84Lng":"121.473714","wgs84Lat":"31.232388","__source_file__":"13-常用公服设施点/SHP/上海市_展览馆.shp"},"geometry":{"type":"Point","coordinates":[121.473714,31.232388]}},{"id":"300","type":"Feature","properties":{"id":"B00155HZDG","name":"上海市工人文化宫展览中心","address":"西藏中路120号上海市工人文化宫3层","type":"科教文化服务;展览馆;展览馆","typecode":"140200","pcode":310000,"pname":"上海市","citycode":21,"cityname":"上海市","adcode":310101,"adname":"黄浦区","business_a":"北京东路","location":"121.477673,31.23051","tel":"[]","bigType":"科教文化服务","midType":"展览馆","smallType":"展览馆","gcj_lng":121.477673,"gcj_lat":31.23051,"wgs84_loc":"121.473163,31.232463","wgs84Lng":"121.473163","wgs84Lat":"31.232463","__source_file__":"13-常用公服设施点/SHP/上海市_展览馆.shp"},"geometry":{"type":"Point","coordinates":[121.473163,31.232463]}},{"id":"105","type":"Feature","properties":{"id":"B0HGOLWA2P","name":"飞天盛宴(上海世茂广场)","address":"南京东路829号上海世茂广场M层","type":"科教文化服务;展览馆;室内展位","typecode":"140201","pcode":310000,"pname":"上海市","citycode":21,"cityname":"上海市","adcode":310101,"adname":"黄浦区","business_a":"北京东路","location":"121.475798,31.234739","tel":"[]","bigType":"科教文化服务","midType":"展览馆","smallType":"室内展位","gcj_lng":121.475798,"gcj_lat":31.234739,"wgs84_loc":"121.471281,31.236685","wgs84Lng":"121.471281","wgs84Lat":"31.236685","__source_file__":"13-常用公服设施点/SHP/上海市_展览馆.shp"},"geometry":{"type":"Point","coordinates":[121.471281,31.236685]}},{"id":"327","type":"Feature","properties":{"id":"B0FFFFDZTE","name":"国家领袖展区","address":"南京西路2-68号新世界商厦10层上海杜莎夫人蜡像馆内","type":"科教文化服务;展览馆;展览馆","typecode":"140200","pcode":310000,"pname":"上海市","citycode":21,"cityname":"上海市","adcode":310101,"adname":"黄浦区","business_a":"北京东路","location":"121.473670,31.234779","tel":"[]","bigType":"科教文化服务","midType":"展览馆","smallType":"展览馆","gcj_lng":121.47367,"gcj_lat":31.234779,"wgs84_loc":"121.469146,31.236719","wgs84Lng":"121.469146","wgs84Lat":"31.236719","__source_file__":"13-常用公服设施点/SHP/上海市_展览馆.shp"},"geometry":{"type":"Point","coordinates":[121.469146,31.236719]}},{"id":"444","type":"Feature","properties":{"id":"B0FFFF72WC","name":"蜡的科普区&幕后展区","address":"南京西路2-68号新世界商厦10层上海杜莎夫人蜡像馆内","type":"科教文化服务;展览馆;展览馆","typecode":"140200","pcode":310000,"pname":"上海市","citycode":21,"cityname":"上海市","adcode":310101,"adname":"黄浦区","business_a":"北京东路","location":"121.473638,31.235152","tel":"[]","bigType":"科教文化服务","midType":"展览馆","smallType":"展览馆","gcj_lng":121.473638,"gcj_lat":31.235152,"wgs84_loc":"121.469114,31.237092","wgs84Lng":"121.469114","wgs84Lat":"31.237092","__source_file__":"13-常用公服设施点/SHP/上海市_展览馆.shp"},"geometry":{"type":"Point","coordinates":[121.469114,31.237092]}},{"id":"307","type":"Feature","properties":{"id":"B00156R4K8","name":"珍宝馆","address":"南京东路558号上海旅游品商厦8层","type":"科教文化服务;展览馆;展览馆","typecode":"140200","pcode":310000,"pname":"上海市","citycode":21,"cityname":"上海市","adcode":310101,"adname":"黄浦区","business_a":"北京东路","location":"121.479741,31.235876","tel":"[]","bigType":"科教文化服务","midType":"展览馆","smallType":"展览馆","gcj_lng":121.479741,"gcj_lat":31.235876,"wgs84_loc":"121.475238,31.237833","wgs84Lng":"121.475238","wgs84Lat":"31.237833","__source_file__":"13-常用公服设施点/SHP/上海市_展览馆.shp"},"geometry":{"type":"Point","coordinates":[121.475238,31.237833]}},{"id":"329","type":"Feature","properties":{"id":"B0FFFGQO5J","name":"翠玉皇玉石文化馆","address":"丽水路58-88号翠玉皇玉文化馆","type":"科教文化服务;展览馆;展览馆","typecode":"140200","pcode":310000,"pname":"上海市","citycode":21,"cityname":"上海市","adcode":310101,"adname":"黄浦区","business_a":"城隍庙","location":"121.490138,31.228321","tel":"[]","bigType":"科教文化服务","midType":"展览馆","smallType":"展览馆","gcj_lng":121.490138,"gcj_lat":31.228321,"wgs84_loc":"121.485671,31.230311","wgs84Lng":"121.485671","wgs84Lat":"31.230311","__source_file__":"13-常用公服设施点/SHP/上海市_展览馆.shp"},"geometry":{"type":"Point","coordinates":[121.485671,31.230311]}},{"id":"309","type":"Feature","properties":{"id":"B0HGXAYJC6","name":"艺术外滩浦西馆","address":"四川中路181号","type":"科教文化服务;展览馆;展览馆","typecode":"140200","pcode":310000,"pname":"上海市","citycode":21,"cityname":"上海市","adcode":310101,"adname":"黄浦区","business_a":"北京东路","location":"121.488745,31.235456","tel":"[]","bigType":"科教文化服务","midType":"展览馆","smallType":"展览馆","gcj_lng":121.488745,"gcj_lat":31.235456,"wgs84_loc":"121.484273,31.237439","wgs84Lng":"121.484273","wgs84Lat":"31.237439","__source_file__":"13-常用公服设施点/SHP/上海市_展览馆.shp"},"geometry":{"type":"Point","coordinates":[121.484273,31.237439]}},{"id":"261","type":"Feature","properties":{"id":"B0H1U91R8Q","name":"超级飞侠","address":"名商路与富城路交叉口东北约120米","type":"科教文化服务;展览馆;展览馆","typecode":"140200","pcode":310000,"pname":"上海市","citycode":21,"cityname":"上海市","adcode":310115,"adname":"浦东新区","business_a":"陆家嘴","location":"121.499018,31.236628","tel":"[]","bigType":"科教文化服务","midType":"展览馆","smallType":"展览馆","gcj_lng":121.499018,"gcj_lat":31.236628,"wgs84_loc":"121.494583,31.238641","wgs84Lng":"121.494583","wgs84Lat":"31.238641","__source_file__":"13-常用公服设施点/SHP/上海市_展览馆.shp"},"geometry":{"type":"Point","coordinates":[121.494583,31.238641]}},{"id":"186","type":"Feature","properties":{"id":"B0FFKT4MQ3","name":"正大广场6楼展览馆","address":"名商路与陆家嘴环路交叉口西约140米","type":"科教文化服务;展览馆;展览馆","typecode":"140200","pcode":310000,"pname":"上海市","citycode":21,"cityname":"上海市","adcode":310115,"adname":"浦东新区","business_a":"陆家嘴","location":"121.499238,31.236828","tel":"[]","bigType":"科教文化服务","midType":"展览馆","smallType":"展览馆","gcj_lng":121.499238,"gcj_lat":31.236828,"wgs84_loc":"121.494803,31.238842","wgs84Lng":"121.494803","wgs84Lat":"31.238842","__source_file__":"13-常用公服设施点/SHP/上海市_展览馆.shp"},"geometry":{"type":"Point","coordinates":[121.494803,31.238842]}},{"id":"335","type":"Feature","properties":{"id":"B0H17C7MIB","name":"礼和洋行·THE NEXT艺术空间","address":"江西中路255号礼和洋行4F","type":"科教文化服务;展览馆;展览馆","typecode":"140200","pcode":310000,"pname":"上海市","citycode":21,"cityname":"上海市","adcode":310101,"adname":"黄浦区","business_a":"北京东路","location":"121.486570,31.237101","tel":"17756223909","bigType":"科教文化服务","midType":"展览馆","smallType":"展览馆","gcj_lng":121.48657,"gcj_lat":31.237101,"wgs84_loc":"121.48209,31.239077","wgs84Lng":"121.48209","wgs84Lat":"31.239077","__source_file__":"13-常用公服设施点/SHP/上海市_展览馆.shp"},"geometry":{"type":"Point","coordinates":[121.48209,31.239077]}},{"id":"334","type":"Feature","properties":{"id":"B0FFLJM7M1","name":"上海民国风情展","address":"南京东路151-171号美伦大楼301室","type":"科教文化服务;展览馆;展览馆","typecode":"140200","pcode":310000,"pname":"上海市","citycode":21,"cityname":"上海市","adcode":310101,"adname":"黄浦区","business_a":"北京东路","location":"121.486862,31.237970","tel":"17348065230","bigType":"科教文化服务","midType":"展览馆","smallType":"展览馆","gcj_lng":121.486862,"gcj_lat":31.23797,"wgs84_loc":"121.482383,31.239946","wgs84Lng":"121.482383","wgs84Lat":"31.239946","__source_file__":"13-常用公服设施点/SHP/上海市_展览馆.shp"},"geometry":{"type":"Point","coordinates":[121.482383,31.239946]}},{"id":"343","type":"Feature","properties":{"id":"B0IB2UT7SM","name":"青春王国青年艺术家群展","address":"中山东一路与南京东路交叉口西南60米","type":"科教文化服务;展览馆;展览馆","typecode":"140200","pcode":310000,"pname":"上海市","citycode":21,"cityname":"上海市","adcode":310101,"adname":"黄浦区","business_a":"北京东路","location":"121.489642,31.238523","tel":"[]","bigType":"科教文化服务","midType":"展览馆","smallType":"展览馆","gcj_lng":121.489642,"gcj_lat":31.238523,"wgs84_loc":"121.485173,31.240507","wgs84Lng":"121.485173","wgs84Lat":"31.240507","__source_file__":"13-常用公服设施点/SHP/上海市_展览馆.shp"},"geometry":{"type":"Point","coordinates":[121.485173,31.240507]}},{"id":"223","type":"Feature","properties":{"id":"B0FFJG3H7T","name":"中国翡翠艺术馆","address":"滨江大道2727号3门1电梯到达B2层","type":"科教文化服务;展览馆;展览馆","typecode":"140200","pcode":310000,"pname":"上海市","citycode":21,"cityname":"上海市","adcode":310115,"adname":"浦东新区","business_a":"陆家嘴","location":"121.496171,31.238966","tel":"021-58382150","bigType":"科教文化服务","midType":"展览馆","smallType":"展览馆","gcj_lng":121.496171,"gcj_lat":31.238966,"wgs84_loc":"121.491725,31.240969","wgs84Lng":"121.491725","wgs84Lat":"31.240969","__source_file__":"13-常用公服设施点/SHP/上海市_展览馆.shp"},"geometry":{"type":"Point","coordinates":[121.491725,31.240969]}},{"id":"224","type":"Feature","properties":{"id":"B0FFMH8ZAZ","name":"印象光绘艺术馆","address":"东方明珠塔地标乐园","type":"科教文化服务;展览馆;展览馆","typecode":"140200","pcode":310000,"pname":"上海市","citycode":21,"cityname":"上海市","adcode":310115,"adname":"浦东新区","business_a":"陆家嘴","location":"121.500070,31.239600","tel":"021-58791888","bigType":"科教文化服务","midType":"展览馆","smallType":"展览馆","gcj_lng":121.50007,"gcj_lat":31.2396,"wgs84_loc":"121.495638,31.241615","wgs84Lng":"121.495638","wgs84Lat":"31.241615","__source_file__":"13-常用公服设施点/SHP/上海市_展览馆.shp"},"geometry":{"type":"Point","coordinates":[121.495638,31.241615]}},{"id":"64","type":"Feature","properties":{"id":"B0FFGOHLOC","name":"上海城市历史发展陈列馆","address":"世纪大道1号","type":"科教文化服务;展览馆;展览馆","typecode":"140200","pcode":310000,"pname":"上海市","citycode":21,"cityname":"上海市","adcode":310115,"adname":"浦东新区","business_a":"陆家嘴","location":"121.499817,31.239645","tel":"021-58791888","bigType":"科教文化服务","midType":"展览馆","smallType":"展览馆","gcj_lng":121.499817,"gcj_lat":31.239645,"wgs84_loc":"121.495384,31.241659","wgs84Lng":"121.495384","wgs84Lat":"31.241659","__source_file__":"13-常用公服设施点/SHP/上海市_展览馆.shp"},"geometry":{"type":"Point","coordinates":[121.495384,31.241659]}},{"id":"61","type":"Feature","properties":{"id":"B00154YQ40","name":"上海大自然野生昆虫馆","address":"丰和路1号港务大厦","type":"科教文化服务;展览馆;展览馆","typecode":"140200","pcode":310000,"pname":"上海市","citycode":21,"cityname":"上海市","adcode":310115,"adname":"浦东新区","business_a":"陆家嘴","location":"121.497832,31.24044","tel":"021-58405921","bigType":"科教文化服务","midType":"展览馆","smallType":"展览馆","gcj_lng":121.497832,"gcj_lat":31.24044,"wgs84_loc":"121.493392,31.242448","wgs84Lng":"121.493392","wgs84Lat":"31.242448","__source_file__":"13-常用公服设施点/SHP/上海市_展览馆.shp"},"geometry":{"type":"Point","coordinates":[121.493392,31.242448]}},{"id":"332","type":"Feature","properties":{"id":"B0H25DLTMX","name":"艺术+上海画廊","address":"北京东路99号207","type":"科教文化服务;展览馆;展览馆","typecode":"140200","pcode":310000,"pname":"上海市","citycode":21,"cityname":"上海市","adcode":310101,"adname":"黄浦区","business_a":"北京东路","location":"121.489007,31.240480","tel":"021-63337223","bigType":"科教文化服务","midType":"展览馆","smallType":"展览馆","gcj_lng":121.489007,"gcj_lat":31.24048,"wgs84_loc":"121.484535,31.242461","wgs84Lng":"121.484535","wgs84Lat":"31.242461","__source_file__":"13-常用公服设施点/SHP/上海市_展览馆.shp"},"geometry":{"type":"Point","coordinates":[121.484535,31.242461]}},{"id":"323","type":"Feature","properties":{"id":"B0G3LCJC09","name":"嘉禧国际艺术中心(JIAXI)","address":"北京东路99号2楼L202室","type":"科教文化服务;展览馆;展览馆","typecode":"140200","pcode":310000,"pname":"上海市","citycode":21,"cityname":"上海市","adcode":310101,"adname":"黄浦区","business_a":"北京东路","location":"121.488573,31.240572","tel":"[]","bigType":"科教文化服务","midType":"展览馆","smallType":"展览馆","gcj_lng":121.488573,"gcj_lat":31.240572,"wgs84_loc":"121.4841,31.242552","wgs84Lng":"121.4841","wgs84Lat":"31.242552","__source_file__":"13-常用公服设施点/SHP/上海市_展览馆.shp"},"geometry":{"type":"Point","coordinates":[121.4841,31.242552]}},{"id":"330","type":"Feature","properties":{"id":"B0FFLCW7J0","name":"上海水墨幻象画廊","address":"外滩美术馆1层","type":"科教文化服务;展览馆;展览馆","typecode":"140200","pcode":310000,"pname":"上海市","citycode":21,"cityname":"上海市","adcode":310101,"adname":"黄浦区","business_a":"北京东路","location":"121.487522,31.241249","tel":"17805982252;13105098888","bigType":"科教文化服务","midType":"展览馆","smallType":"展览馆","gcj_lng":121.487522,"gcj_lat":31.241249,"wgs84_loc":"121.483045,31.243226","wgs84Lng":"121.483045","wgs84Lat":"31.243226","__source_file__":"13-常用公服设施点/SHP/上海市_展览馆.shp"},"geometry":{"type":"Point","coordinates":[121.483045,31.243226]}},{"id":"339","type":"Feature","properties":{"id":"B0G297R27E","name":"贝浩登画廊(暂停营业)","address":"虎丘路27号3层","type":"科教文化服务;展览馆;展览馆","typecode":"140200","pcode":310000,"pname":"上海市","citycode":21,"cityname":"上海市","adcode":310101,"adname":"黄浦区","business_a":"北京东路","location":"121.487254,31.241311","tel":"021-63211234","bigType":"科教文化服务","midType":"展览馆","smallType":"展览馆","gcj_lng":121.487254,"gcj_lat":31.241311,"wgs84_loc":"121.482776,31.243287","wgs84Lng":"121.482776","wgs84Lat":"31.243287","__source_file__":"13-常用公服设施点/SHP/上海市_展览馆.shp"},"geometry":{"type":"Point","coordinates":[121.482776,31.243287]}},{"id":"344","type":"Feature","properties":{"id":"B0FFKWQ77V","name":"阿尔敏·莱希(Almine Rech)画廊(暂停营业)","address":"虎丘路27号202","type":"科教文化服务;展览馆;展览馆","typecode":"140200","pcode":310000,"pname":"上海市","citycode":21,"cityname":"上海市","adcode":310101,"adname":"黄浦区","business_a":"北京东路","location":"121.487255,31.241324","tel":"021-63120260","bigType":"科教文化服务","midType":"展览馆","smallType":"展览馆","gcj_lng":121.487255,"gcj_lat":31.241324,"wgs84_loc":"121.482777,31.2433","wgs84Lng":"121.482777","wgs84Lat":"31.2433","__source_file__":"13-常用公服设施点/SHP/上海市_展览馆.shp"},"geometry":{"type":"Point","coordinates":[121.482777,31.2433]}},{"id":"456","type":"Feature","properties":{"id":"B0FFLAT2NS","name":"URBANCROSS Gallery","address":"贵州路109号","type":"科教文化服务;展览馆;展览馆","typecode":"140200","pcode":310000,"pname":"上海市","citycode":21,"cityname":"上海市","adcode":310101,"adname":"黄浦区","business_a":"北京东路","location":"121.476164,31.236067","tel":"[]","bigType":"科教文化服务","midType":"展览馆","smallType":"展览馆","gcj_lng":121.476164,"gcj_lat":31.236067,"wgs84_loc":"121.471649,31.238013","wgs84Lng":"121.471649","wgs84Lat":"31.238013","__source_file__":"13-常用公服设施点/SHP/上海市_展览馆.shp"},"geometry":{"type":"Point","coordinates":[121.471649,31.238013]}},{"id":"104","type":"Feature","properties":{"id":"B0H3OZ2T6M","name":"上海深蓝·Exploring Blue","address":"江西中路255号礼和洋行4楼","type":"科教文化服务;展览馆;室内展位","typecode":"140201","pcode":310000,"pname":"上海市","citycode":21,"cityname":"上海市","adcode":310101,"adname":"黄浦区","business_a":"北京东路","location":"121.486505,31.237145","tel":"[]","bigType":"科教文化服务","midType":"展览馆","smallType":"室内展位","gcj_lng":121.486505,"gcj_lat":31.237145,"wgs84_loc":"121.482025,31.239121","wgs84Lng":"121.482025","wgs84Lat":"31.239121","__source_file__":"13-常用公服设施点/SHP/上海市_展览馆.shp"},"geometry":{"type":"Point","coordinates":[121.482025,31.239121]}},{"id":"491","type":"Feature","properties":{"id":"B0KUVHVD3C","name":"无限The Infinite XR太空沉浸展","address":"南京东路228号上海新世界大丸百货F5层","type":"科教文化服务;展览馆;展览馆","typecode":"140200","pcode":310000,"pname":"上海市","citycode":21,"cityname":"上海市","adcode":310101,"adname":"黄浦区","business_a":"北京路","location":"121.485525,31.238358","tel":"[]","bigType":"科教文化服务","midType":"展览馆","smallType":"展览馆","gcj_lng":121.485525,"gcj_lat":31.238358,"wgs84_loc":"121.481041,31.24033","wgs84Lng":"121.481041","wgs84Lat":"31.24033","__source_file__":"13-常用公服设施点/SHP/上海市_展览馆.shp"},"geometry":{"type":"Point","coordinates":[121.481041,31.24033]}},{"id":"531","type":"Feature","properties":{"id":"B0JUPSV7I2","name":"蜂巢·生成上海空间","address":"北京东路211号(南京东路地铁站6号口步行250米)","type":"科教文化服务;展览馆;展览馆","typecode":"140200","pcode":310000,"pname":"上海市","citycode":21,"cityname":"上海市","adcode":310101,"adname":"黄浦区","business_a":"北京路","location":"121.486027,31.240500","tel":"[]","bigType":"科教文化服务","midType":"展览馆","smallType":"展览馆","gcj_lng":121.486027,"gcj_lat":31.2405,"wgs84_loc":"121.481545,31.242473","wgs84Lng":"121.481545","wgs84Lat":"31.242473","__source_file__":"13-常用公服设施点/SHP/上海市_展览馆.shp"},"geometry":{"type":"Point","coordinates":[121.481545,31.242473]}},{"id":"538","type":"Feature","properties":{"id":"B0JRTZVWTO","name":"XIN ART SPACE新艺空间","address":"北京东路270号中一大楼2楼","type":"科教文化服务;展览馆;展览馆","typecode":"140200","pcode":310000,"pname":"上海市","citycode":21,"cityname":"上海市","adcode":310101,"adname":"黄浦区","business_a":"北京路","location":"121.484860,31.240669","tel":"[]","bigType":"科教文化服务","midType":"展览馆","smallType":"展览馆","gcj_lng":121.48486,"gcj_lat":31.240669,"wgs84_loc":"121.480374,31.242638","wgs84Lng":"121.480374","wgs84Lat":"31.242638","__source_file__":"13-常用公服设施点/SHP/上海市_展览馆.shp"},"geometry":{"type":"Point","coordinates":[121.480374,31.242638]}},{"id":"319","type":"Feature","properties":{"id":"B0FFLH7D4C","name":"OCAT上海馆(暂停营业)","address":"曲阜路9弄下沉庭院B1层","type":"科教文化服务;展览馆;展览馆","typecode":"140200","pcode":310000,"pname":"上海市","citycode":21,"cityname":"上海市","adcode":310106,"adname":"静安区","business_a":"北京东路","location":"121.475708,31.242291","tel":"021-66085180;021-66085119","bigType":"科教文化服务","midType":"展览馆","smallType":"展览馆","gcj_lng":121.475708,"gcj_lat":31.242291,"wgs84_loc":"121.471191,31.244233","wgs84Lng":"121.471191","wgs84Lat":"31.244233","__source_file__":"13-常用公服设施点/SHP/上海市_展览馆.shp"},"geometry":{"type":"Point","coordinates":[121.471191,31.244233]}},{"id":"328","type":"Feature","properties":{"id":"B0IGAZMWRO","name":"OCT See 文化力创想中心","address":"山西北路108弄11号","type":"科教文化服务;展览馆;展览馆","typecode":"140200","pcode":310000,"pname":"上海市","citycode":21,"cityname":"上海市","adcode":310106,"adname":"静安区","business_a":"北京东路","location":"121.480538,31.243280","tel":"[]","bigType":"科教文化服务","midType":"展览馆","smallType":"展览馆","gcj_lng":121.480538,"gcj_lat":31.24328,"wgs84_loc":"121.476037,31.245235","wgs84Lng":"121.476037","wgs84Lat":"31.245235","__source_file__":"13-常用公服设施点/SHP/上海市_展览馆.shp"},"geometry":{"type":"Point","coordinates":[121.476037,31.245235]}},{"id":"482","type":"Feature","properties":{"id":"B0I1UC1ALP","name":"誌屋ZiWU the Bund","address":"四川北路今潮8弄8号楼","type":"科教文化服务;展览馆;展览馆","typecode":"140200","pcode":310000,"pname":"上海市","citycode":21,"cityname":"上海市","adcode":310109,"adname":"虹口区","business_a":"七浦路","location":"121.484268,31.250586","tel":"18621366126","bigType":"科教文化服务","midType":"展览馆","smallType":"展览馆","gcj_lng":121.484268,"gcj_lat":31.250586,"wgs84_loc":"121.479779,31.252549","wgs84Lng":"121.479779","wgs84Lat":"31.252549","__source_file__":"13-常用公服设施点/SHP/上海市_展览馆.shp"},"geometry":{"type":"Point","coordinates":[121.479779,31.252549]}},{"id":"513","type":"Feature","properties":{"id":"B0JR6UTT2Z","name":"自然向善·向善雨林季","address":"四川北路989弄今潮8弄9号楼","type":"科教文化服务;展览馆;展览馆","typecode":"140200","pcode":310000,"pname":"上海市","citycode":21,"cityname":"上海市","adcode":310109,"adname":"虹口区","business_a":"七浦路","location":"121.483818,31.250612","tel":"[]","bigType":"科教文化服务","midType":"展览馆","smallType":"展览馆","gcj_lng":121.483818,"gcj_lat":31.250612,"wgs84_loc":"121.479327,31.252574","wgs84Lng":"121.479327","wgs84Lat":"31.252574","__source_file__":"13-常用公服设施点/SHP/上海市_展览馆.shp"},"geometry":{"type":"Point","coordinates":[121.479327,31.252574]}},{"id":"514","type":"Feature","properties":{"id":"B0JB31FLQP","name":"城市奇遇空间艺术展","address":"武进路与中州路交叉口东南40米","type":"科教文化服务;展览馆;展览馆","typecode":"140200","pcode":310000,"pname":"上海市","citycode":21,"cityname":"上海市","adcode":310109,"adname":"虹口区","business_a":"七浦路","location":"121.483979,31.251257","tel":"[]","bigType":"科教文化服务","midType":"展览馆","smallType":"展览馆","gcj_lng":121.483979,"gcj_lat":31.251257,"wgs84_loc":"121.479489,31.253219","wgs84Lng":"121.479489","wgs84Lat":"31.253219","__source_file__":"13-常用公服设施点/SHP/上海市_展览馆.shp"},"geometry":{"type":"Point","coordinates":[121.479489,31.253219]}},{"id":"539","type":"Feature","properties":{"id":"B0JDGMQVW8","name":"大田秀则画廊","address":"虎丘路78号1层QL106单元洛克·外滩源","type":"科教文化服务;展览馆;展览馆","typecode":"140200","pcode":310000,"pname":"上海市","citycode":21,"cityname":"上海市","adcode":310101,"adname":"黄浦区","business_a":"北京路","location":"121.487640,31.242228","tel":"021-33681321","bigType":"科教文化服务","midType":"展览馆","smallType":"展览馆","gcj_lng":121.48764,"gcj_lat":31.242228,"wgs84_loc":"121.483163,31.244205","wgs84Lng":"121.483163","wgs84Lat":"31.244205","__source_file__":"13-常用公服设施点/SHP/上海市_展览馆.shp"},"geometry":{"type":"Point","coordinates":[121.483163,31.244205]}},{"id":"325","type":"Feature","properties":{"id":"B0FFF2T9YK","name":"外滩历史陈列馆(暂停营业)","address":"中山东二路1号甲","type":"科教文化服务;展览馆;展览馆","typecode":"140200","pcode":310000,"pname":"上海市","citycode":21,"cityname":"上海市","adcode":310101,"adname":"黄浦区","business_a":"[]","location":"121.491410,31.242241","tel":"[]","bigType":"科教文化服务","midType":"展览馆","smallType":"展览馆","gcj_lng":121.49141,"gcj_lat":31.242241,"wgs84_loc":"121.486947,31.244229","wgs84Lng":"121.486947","wgs84Lat":"31.244229","__source_file__":"13-常用公服设施点/SHP/上海市_展览馆.shp"},"geometry":{"type":"Point","coordinates":[121.486947,31.244229]}},{"id":"34","type":"Feature","properties":{"id":"B00155LXAO","name":"旌盛艺术馆","address":"北苏州路20号","type":"科教文化服务;展览馆;展览馆","typecode":"140200","pcode":310000,"pname":"上海市","citycode":21,"cityname":"上海市","adcode":310109,"adname":"虹口区","business_a":"北外滩","location":"121.48964,31.244319","tel":"[]","bigType":"科教文化服务","midType":"展览馆","smallType":"展览馆","gcj_lng":121.48964,"gcj_lat":31.244319,"wgs84_loc":"121.48517,31.246301","wgs84Lng":"121.48517","wgs84Lat":"31.246301","__source_file__":"13-常用公服设施点/SHP/上海市_展览馆.shp"},"geometry":{"type":"Point","coordinates":[121.48517,31.246301]}},{"id":"43","type":"Feature","properties":{"id":"B0H0T7PT5X","name":"光廷Temple of Light","address":"东大名路598号","type":"科教文化服务;展览馆;展览馆","typecode":"140200","pcode":310000,"pname":"上海市","citycode":21,"cityname":"上海市","adcode":310109,"adname":"虹口区","business_a":"北外滩","location":"121.500676,31.247490","tel":"[]","bigType":"科教文化服务","midType":"展览馆","smallType":"展览馆","gcj_lng":121.500676,"gcj_lat":31.24749,"wgs84_loc":"121.496246,31.249503","wgs84Lng":"121.496246","wgs84Lat":"31.249503","__source_file__":"13-常用公服设施点/SHP/上海市_展览馆.shp"},"geometry":{"type":"Point","coordinates":[121.496246,31.249503]}},{"id":"31","type":"Feature","properties":{"id":"B00155KD2R","name":"1933展览馆","address":"沙泾路10号1933会展中心","type":"科教文化服务;展览馆;展览馆","typecode":"140200","pcode":310000,"pname":"上海市","citycode":21,"cityname":"上海市","adcode":310109,"adname":"虹口区","business_a":"四平路","location":"121.491850,31.254559","tel":"[]","bigType":"科教文化服务","midType":"展览馆","smallType":"展览馆","gcj_lng":121.49185,"gcj_lat":31.254559,"wgs84_loc":"121.487387,31.256543","wgs84Lng":"121.487387","wgs84Lat":"31.256543","__source_file__":"13-常用公服设施点/SHP/上海市_展览馆.shp"},"geometry":{"type":"Point","coordinates":[121.487387,31.256543]}},{"id":"468","type":"Feature","properties":{"id":"B0FFF3Y5M9","name":"朝韵朝鲜艺术珍品展","address":"溧阳路611号1号楼3层311","type":"科教文化服务;展览馆;展览馆","typecode":"140200","pcode":310000,"pname":"上海市","citycode":21,"cityname":"上海市","adcode":310109,"adname":"虹口区","business_a":"提篮桥","location":"121.492004,31.254661","tel":"[]","bigType":"科教文化服务","midType":"展览馆","smallType":"展览馆","gcj_lng":121.492004,"gcj_lat":31.254661,"wgs84_loc":"121.487542,31.256645","wgs84Lng":"121.487542","wgs84Lat":"31.256645","__source_file__":"13-常用公服设施点/SHP/上海市_展览馆.shp"},"geometry":{"type":"Point","coordinates":[121.487542,31.256645]}},{"id":"148","type":"Feature","properties":{"id":"B0H35Z3ERI","name":"转角画廊","address":"溧阳路735号半岛湾创意园2号楼-107","type":"科教文化服务;展览馆;展览馆","typecode":"140200","pcode":310000,"pname":"上海市","citycode":21,"cityname":"上海市","adcode":310109,"adname":"虹口区","business_a":"四平路","location":"121.488852,31.255243","tel":"18262632812","bigType":"科教文化服务","midType":"展览馆","smallType":"展览馆","gcj_lng":121.488852,"gcj_lat":31.255243,"wgs84_loc":"121.484379,31.257217","wgs84Lng":"121.484379","wgs84Lat":"31.257217","__source_file__":"13-常用公服设施点/SHP/上海市_展览馆.shp"},"geometry":{"type":"Point","coordinates":[121.484379,31.257217]}},{"id":"45","type":"Feature","properties":{"id":"B0FFGZTHPM","name":"海派生活艺术创艺设计展","address":"哈尔滨路229号","type":"科教文化服务;展览馆;展览馆","typecode":"140200","pcode":310000,"pname":"上海市","citycode":21,"cityname":"上海市","adcode":310109,"adname":"虹口区","business_a":"四平路","location":"121.490213,31.256096","tel":"[]","bigType":"科教文化服务","midType":"展览馆","smallType":"展览馆","gcj_lng":121.490213,"gcj_lat":31.256096,"wgs84_loc":"121.485744,31.258074","wgs84Lng":"121.485744","wgs84Lat":"31.258074","__source_file__":"13-常用公服设施点/SHP/上海市_展览馆.shp"},"geometry":{"type":"Point","coordinates":[121.485744,31.258074]}},{"id":"46","type":"Feature","properties":{"id":"B0FFFWQB83","name":"三角地艺术园","address":"嘉兴路230号三角地","type":"科教文化服务;展览馆;展览馆","typecode":"140200","pcode":310000,"pname":"上海市","citycode":21,"cityname":"上海市","adcode":310109,"adname":"虹口区","business_a":"四平路","location":"121.489627,31.256778","tel":"[]","bigType":"科教文化服务","midType":"展览馆","smallType":"展览馆","gcj_lng":121.489627,"gcj_lat":31.256778,"wgs84_loc":"121.485156,31.258754","wgs84Lng":"121.485156","wgs84Lat":"31.258754","__source_file__":"13-常用公服设施点/SHP/上海市_展览馆.shp"},"geometry":{"type":"Point","coordinates":[121.485156,31.258754]}},{"id":"35","type":"Feature","properties":{"id":"B00155MN14","name":"上海益民食品一厂历史展示馆","address":"香烟桥路13","type":"科教文化服务;展览馆;展览馆","typecode":"140200","pcode":310000,"pname":"上海市","citycode":21,"cityname":"上海市","adcode":310109,"adname":"虹口区","business_a":"四平路","location":"121.493383,31.261849","tel":"021-55157210;021-56137210","bigType":"科教文化服务","midType":"展览馆","smallType":"展览馆","gcj_lng":121.493383,"gcj_lat":31.261849,"wgs84_loc":"121.488925,31.263834","wgs84Lng":"121.488925","wgs84Lat":"31.263834","__source_file__":"13-常用公服设施点/SHP/上海市_展览馆.shp"},"geometry":{"type":"Point","coordinates":[121.488925,31.263834]}},{"id":"47","type":"Feature","properties":{"id":"B00156EMXP","name":"精武百年会史陈列室","address":"四川北路1702弄32号","type":"科教文化服务;展览馆;展览馆","typecode":"140200","pcode":310000,"pname":"上海市","citycode":21,"cityname":"上海市","adcode":310109,"adname":"虹口区","business_a":"宝山路","location":"121.484067,31.257998","tel":"[]","bigType":"科教文化服务","midType":"展览馆","smallType":"展览馆","gcj_lng":121.484067,"gcj_lat":31.257998,"wgs84_loc":"121.479577,31.259957","wgs84Lng":"121.479577","wgs84Lat":"31.259957","__source_file__":"13-常用公服设施点/SHP/上海市_展览馆.shp"},"geometry":{"type":"Point","coordinates":[121.479577,31.259957]}},{"id":"38","type":"Feature","properties":{"id":"B0FFH1CSRD","name":"同泰堂古代艺术品收藏馆","address":"多伦路22号","type":"科教文化服务;展览馆;展览馆","typecode":"140200","pcode":310000,"pname":"上海市","citycode":21,"cityname":"上海市","adcode":310109,"adname":"虹口区","business_a":"宝山路","location":"121.483256,31.262176","tel":"[]","bigType":"科教文化服务","midType":"展览馆","smallType":"展览馆","gcj_lng":121.483256,"gcj_lat":31.262176,"wgs84_loc":"121.478762,31.264131","wgs84Lng":"121.478762","wgs84Lat":"31.264131","__source_file__":"13-常用公服设施点/SHP/上海市_展览馆.shp"},"geometry":{"type":"Point","coordinates":[121.478762,31.264131]}},{"id":"435","type":"Feature","properties":{"id":"B0FFG6ZGBQ","name":"超群文化旅游发展有限公司石雕馆","address":"多伦路119号夕拾钟楼","type":"科教文化服务;展览馆;展览馆","typecode":"140200","pcode":310000,"pname":"上海市","citycode":21,"cityname":"上海市","adcode":310109,"adname":"虹口区","business_a":"宝山路","location":"121.481484,31.262324","tel":"18500025159","bigType":"科教文化服务","midType":"展览馆","smallType":"展览馆","gcj_lng":121.481484,"gcj_lat":31.262324,"wgs84_loc":"121.476984,31.264274","wgs84Lng":"121.476984","wgs84Lat":"31.264274","__source_file__":"13-常用公服设施点/SHP/上海市_展览馆.shp"},"geometry":{"type":"Point","coordinates":[121.476984,31.264274]}},{"id":"428","type":"Feature","properties":{"id":"B0H227ICIH","name":"木刻讲习会所旧址","address":"长春路319号","type":"科教文化服务;展览馆;展览馆","typecode":"140200","pcode":310000,"pname":"上海市","citycode":21,"cityname":"上海市","adcode":310109,"adname":"虹口区","business_a":"宝山路","location":"121.485024,31.262959","tel":"[]","bigType":"科教文化服务","midType":"展览馆","smallType":"展览馆","gcj_lng":121.485024,"gcj_lat":31.262959,"wgs84_loc":"121.480536,31.264919","wgs84Lng":"121.480536","wgs84Lat":"31.264919","__source_file__":"13-常用公服设施点/SHP/上海市_展览馆.shp"},"geometry":{"type":"Point","coordinates":[121.480536,31.264919]}},{"id":"39","type":"Feature","properties":{"id":"B0FFF9ZHT4","name":"毛泽东像章藏馆","address":"多伦路183号","type":"科教文化服务;展览馆;展览馆","typecode":"140200","pcode":310000,"pname":"上海市","citycode":21,"cityname":"上海市","adcode":310109,"adname":"虹口区","business_a":"宝山路","location":"121.481697,31.263342","tel":"18939838343;13916548343","bigType":"科教文化服务","midType":"展览馆","smallType":"展览馆","gcj_lng":121.481697,"gcj_lat":31.263342,"wgs84_loc":"121.477198,31.265292","wgs84Lng":"121.477198","wgs84Lat":"31.265292","__source_file__":"13-常用公服设施点/SHP/上海市_展览馆.shp"},"geometry":{"type":"Point","coordinates":[121.477198,31.265292]}},{"id":"33","type":"Feature","properties":{"id":"B0FFK2V7WK","name":"海瓷堂收藏馆","address":"东横浜路与横浜路交叉口北约180米","type":"科教文化服务;展览馆;展览馆","typecode":"140200","pcode":310000,"pname":"上海市","citycode":21,"cityname":"上海市","adcode":310109,"adname":"虹口区","business_a":"宝山路","location":"121.481646,31.263424","tel":"[]","bigType":"科教文化服务","midType":"展览馆","smallType":"展览馆","gcj_lng":121.481646,"gcj_lat":31.263424,"wgs84_loc":"121.477147,31.265374","wgs84Lng":"121.477147","wgs84Lat":"31.265374","__source_file__":"13-常用公服设施点/SHP/上海市_展览馆.shp"},"geometry":{"type":"Point","coordinates":[121.477147,31.265374]}},{"id":"40","type":"Feature","properties":{"id":"B001572XF8","name":"宝亨利艺术公馆","address":"多伦路215","type":"科教文化服务;展览馆;展览馆","typecode":"140200","pcode":310000,"pname":"上海市","citycode":21,"cityname":"上海市","adcode":310109,"adname":"虹口区","business_a":"宝山路","location":"121.481277,31.264051","tel":"[]","bigType":"科教文化服务","midType":"展览馆","smallType":"展览馆","gcj_lng":121.481277,"gcj_lat":31.264051,"wgs84_loc":"121.476776,31.265999","wgs84Lng":"121.476776","wgs84Lat":"31.265999","__source_file__":"13-常用公服设施点/SHP/上海市_展览馆.shp"},"geometry":{"type":"Point","coordinates":[121.476776,31.265999]}},{"id":"465","type":"Feature","properties":{"id":"B0FFLG5YUM","name":"老挝万象塔銮湖经济专区-文化旅游都市上海展厅","address":"甜爱支路21号","type":"科教文化服务;展览馆;展览馆","typecode":"140200","pcode":310000,"pname":"上海市","citycode":21,"cityname":"上海市","adcode":310109,"adname":"虹口区","business_a":"江湾","location":"121.483049,31.268016","tel":"[]","bigType":"科教文化服务","midType":"展览馆","smallType":"展览馆","gcj_lng":121.483049,"gcj_lat":31.268016,"wgs84_loc":"121.478554,31.269968","wgs84Lng":"121.478554","wgs84Lat":"31.269968","__source_file__":"13-常用公服设施点/SHP/上海市_展览馆.shp"},"geometry":{"type":"Point","coordinates":[121.478554,31.269968]}},{"id":"429","type":"Feature","properties":{"id":"B00155MSDB","name":"上海科学节能展示馆","address":"中山北一路121A1","type":"科教文化服务;展览馆;展览馆","typecode":"140200","pcode":310000,"pname":"上海市","citycode":21,"cityname":"上海市","adcode":310109,"adname":"虹口区","business_a":"江湾","location":"121.475926,31.271811","tel":"021-60805170;021-36363555","bigType":"科教文化服务","midType":"展览馆","smallType":"展览馆","gcj_lng":121.475926,"gcj_lat":31.271811,"wgs84_loc":"121.471407,31.273741","wgs84Lng":"121.471407","wgs84Lat":"31.273741","__source_file__":"13-常用公服设施点/SHP/上海市_展览馆.shp"},"geometry":{"type":"Point","coordinates":[121.471407,31.273741]}},{"id":"515","type":"Feature","properties":{"id":"B00155QU9Y","name":"上海高新技术产业化展","address":"花园路171号上海花园坊节能环保产业园A3栋","type":"科教文化服务;展览馆;展览馆","typecode":"140200","pcode":310000,"pname":"上海市","citycode":21,"cityname":"上海市","adcode":310109,"adname":"虹口区","business_a":"江湾","location":"121.475748,31.272121","tel":"[]","bigType":"科教文化服务","midType":"展览馆","smallType":"展览馆","gcj_lng":121.475748,"gcj_lat":31.272121,"wgs84_loc":"121.471228,31.27405","wgs84Lng":"121.471228","wgs84Lat":"31.27405","__source_file__":"13-常用公服设施点/SHP/上海市_展览馆.shp"},"geometry":{"type":"Point","coordinates":[121.471228,31.27405]}},{"id":"44","type":"Feature","properties":{"id":"B0FFHFWOMT","name":"尹奉吉义士生平事迹陈列室","address":"四川北路2288号","type":"科教文化服务;展览馆;展览馆","typecode":"140200","pcode":310000,"pname":"上海市","citycode":21,"cityname":"上海市","adcode":310109,"adname":"虹口区","business_a":"曲阳","location":"121.483193,31.272477","tel":"[]","bigType":"科教文化服务","midType":"展览馆","smallType":"展览馆","gcj_lng":121.483193,"gcj_lat":31.272477,"wgs84_loc":"121.478698,31.274427","wgs84Lng":"121.478698","wgs84Lat":"31.274427","__source_file__":"13-常用公服设施点/SHP/上海市_展览馆.shp"},"geometry":{"type":"Point","coordinates":[121.478698,31.274427]}},{"id":"413","type":"Feature","properties":{"id":"B0FFG8QL2X","name":"上海展览中心-中央大厅","address":"延安中路1000号上海展览中心附近","type":"科教文化服务;展览馆;展览馆","typecode":"140200","pcode":310000,"pname":"上海市","citycode":21,"cityname":"上海市","adcode":310106,"adname":"静安区","business_a":"淮海路","location":"121.452516,31.224638","tel":"021-22162216","bigType":"科教文化服务","midType":"展览馆","smallType":"展览馆","gcj_lng":121.452516,"gcj_lat":31.224638,"wgs84_loc":"121.447931,31.226531","wgs84Lng":"121.447931","wgs84Lat":"31.226531","__source_file__":"13-常用公服设施点/SHP/上海市_展览馆.shp"},"geometry":{"type":"Point","coordinates":[121.447931,31.226531]}},{"id":"29","type":"Feature","properties":{"id":"B001542F38","name":"上海展览中心","address":"延安中路1000号","type":"科教文化服务;展览馆;展览馆","typecode":"140200","pcode":310000,"pname":"上海市","citycode":21,"cityname":"上海市","adcode":310106,"adname":"静安区","business_a":"淮海路","location":"121.452756,31.224684","tel":"021-22162216","bigType":"科教文化服务","midType":"展览馆","smallType":"展览馆","gcj_lng":121.452756,"gcj_lat":31.224684,"wgs84_loc":"121.448172,31.226578","wgs84Lng":"121.448172","wgs84Lat":"31.226578","__source_file__":"13-常用公服设施点/SHP/上海市_展览馆.shp"},"geometry":{"type":"Point","coordinates":[121.448172,31.226578]}},{"id":"346","type":"Feature","properties":{"id":"B0FFKSLQOC","name":"上海展览中心·展览馆","address":"延安中路1000号","type":"科教文化服务;展览馆;展览馆","typecode":"140200","pcode":310000,"pname":"上海市","citycode":21,"cityname":"上海市","adcode":310106,"adname":"静安区","business_a":"淮海路","location":"121.452558,31.224714","tel":"[]","bigType":"科教文化服务","midType":"展览馆","smallType":"展览馆","gcj_lng":121.452558,"gcj_lat":31.224714,"wgs84_loc":"121.447974,31.226607","wgs84Lng":"121.447974","wgs84Lat":"31.226607","__source_file__":"13-常用公服设施点/SHP/上海市_展览馆.shp"},"geometry":{"type":"Point","coordinates":[121.447974,31.226607]}},{"id":"424","type":"Feature","properties":{"id":"B0FFFSWPP1","name":"西二馆W2","address":"延安中路1000号","type":"科教文化服务;展览馆;展览馆","typecode":"140200","pcode":310000,"pname":"上海市","citycode":21,"cityname":"上海市","adcode":310106,"adname":"静安区","business_a":"淮海路","location":"121.451730,31.224771","tel":"021-51016677","bigType":"科教文化服务","midType":"展览馆","smallType":"展览馆","gcj_lng":121.45173,"gcj_lat":31.224771,"wgs84_loc":"121.447143,31.226662","wgs84Lng":"121.447143","wgs84Lat":"31.226662","__source_file__":"13-常用公服设施点/SHP/上海市_展览馆.shp"},"geometry":{"type":"Point","coordinates":[121.447143,31.226662]}},{"id":"414","type":"Feature","properties":{"id":"B0FFF2F7AH","name":"上海展览中心-小黄楼","address":"延安中路1000号","type":"科教文化服务;展览馆;展览馆","typecode":"140200","pcode":310000,"pname":"上海市","citycode":21,"cityname":"上海市","adcode":310106,"adname":"静安区","business_a":"淮海路","location":"121.452071,31.225022","tel":"[]","bigType":"科教文化服务","midType":"展览馆","smallType":"展览馆","gcj_lng":121.452071,"gcj_lat":31.225022,"wgs84_loc":"121.447485,31.226914","wgs84Lng":"121.447485","wgs84Lat":"31.226914","__source_file__":"13-常用公服设施点/SHP/上海市_展览馆.shp"},"geometry":{"type":"Point","coordinates":[121.447485,31.226914]}},{"id":"490","type":"Feature","properties":{"id":"B0K1LLB089","name":"GM巨人展","address":"淮海中路HAUS NOWHERE门店2层","type":"科教文化服务;展览馆;展览馆","typecode":"140200","pcode":310000,"pname":"上海市","citycode":21,"cityname":"上海市","adcode":310101,"adname":"黄浦区","business_a":"淮海路","location":"121.462771,31.218518","tel":"[]","bigType":"科教文化服务","midType":"展览馆","smallType":"展览馆","gcj_lng":121.462771,"gcj_lat":31.218518,"wgs84_loc":"121.458215,31.220437","wgs84Lng":"121.458215","wgs84Lat":"31.220437","__source_file__":"13-常用公服设施点/SHP/上海市_展览馆.shp"},"geometry":{"type":"Point","coordinates":[121.458215,31.220437]}},{"id":"422","type":"Feature","properties":{"id":"B0IGRAUE2V","name":"GE COEXIST","address":"淮海中路与成都南路交叉口东40米","type":"科教文化服务;展览馆;展览馆","typecode":"140200","pcode":310000,"pname":"上海市","citycode":21,"cityname":"上海市","adcode":310101,"adname":"黄浦区","business_a":"淮海路","location":"121.468710,31.220469","tel":"[]","bigType":"科教文化服务","midType":"展览馆","smallType":"展览馆","gcj_lng":121.46871,"gcj_lat":31.220469,"wgs84_loc":"121.464172,31.222403","wgs84Lng":"121.464172","wgs84Lat":"31.222403","__source_file__":"13-常用公服设施点/SHP/上海市_展览馆.shp"},"geometry":{"type":"Point","coordinates":[121.464172,31.222403]}},{"id":"321","type":"Feature","properties":{"id":"B0HAULUAXR","name":"就离谱荒诞艺术展","address":"淮海中路523号TX淮海2楼04号","type":"科教文化服务;展览馆;展览馆","typecode":"140200","pcode":310000,"pname":"上海市","citycode":21,"cityname":"上海市","adcode":310101,"adname":"黄浦区","business_a":"淮海路","location":"121.469009,31.220516","tel":"[]","bigType":"科教文化服务","midType":"展览馆","smallType":"展览馆","gcj_lng":121.469009,"gcj_lat":31.220516,"wgs84_loc":"121.464472,31.22245","wgs84Lng":"121.464472","wgs84Lat":"31.22245","__source_file__":"13-常用公服设施点/SHP/上海市_展览馆.shp"},"geometry":{"type":"Point","coordinates":[121.464472,31.22245]}},{"id":"122","type":"Feature","properties":{"id":"B00154A94A","name":"旅游纪念品展示中心","address":"成都南路101号","type":"科教文化服务;展览馆;展览馆|生活服务;生活服务场所;生活服务场所","typecode":"140200|070000","pcode":310000,"pname":"上海市","citycode":21,"cityname":"上海市","adcode":310101,"adname":"黄浦区","business_a":"淮海路","location":"121.468008,31.221285","tel":"021-53868022","bigType":"科教文化服务","midType":"展览馆","smallType":"展览馆|生活服务","gcj_lng":121.468008,"gcj_lat":31.221285,"wgs84_loc":"121.463468,31.223216","wgs84Lng":"121.463468","wgs84Lat":"31.223216","__source_file__":"13-常用公服设施点/SHP/上海市_展览馆.shp"},"geometry":{"type":"Point","coordinates":[121.463468,31.223216]}},{"id":"113","type":"Feature","properties":{"id":"B0FFFRMPOF","name":"上海展览中心西一馆W1","address":"延安中路1000号","type":"科教文化服务;展览馆;展览馆","typecode":"140200","pcode":310000,"pname":"上海市","citycode":21,"cityname":"上海市","adcode":310106,"adname":"静安区","business_a":"淮海路","location":"121.452829,31.223626","tel":"021-22162216","bigType":"科教文化服务","midType":"展览馆","smallType":"展览馆","gcj_lng":121.452829,"gcj_lat":31.223626,"wgs84_loc":"121.448245,31.22552","wgs84Lng":"121.448245","wgs84Lat":"31.22552","__source_file__":"13-常用公服设施点/SHP/上海市_展览馆.shp"},"geometry":{"type":"Point","coordinates":[121.448245,31.22552]}},{"id":"112","type":"Feature","properties":{"id":"B0FFFSOXOI","name":"上海展览中心东一馆E1","address":"延安中路1000号","type":"科教文化服务;展览馆;展览馆","typecode":"140200","pcode":310000,"pname":"上海市","citycode":21,"cityname":"上海市","adcode":310106,"adname":"静安区","business_a":"淮海路","location":"121.453703,31.223926","tel":"[]","bigType":"科教文化服务","midType":"展览馆","smallType":"展览馆","gcj_lng":121.453703,"gcj_lat":31.223926,"wgs84_loc":"121.449122,31.225822","wgs84Lng":"121.449122","wgs84Lat":"31.225822","__source_file__":"13-常用公服设施点/SHP/上海市_展览馆.shp"},"geometry":{"type":"Point","coordinates":[121.449122,31.225822]}},{"id":"306","type":"Feature","properties":{"id":"B0G39SNSUK","name":"上海世界贸易中心协会馆","address":"金陵西路28号金陵大厦1号楼4层","type":"科教文化服务;展览馆;展览馆","typecode":"140200","pcode":310000,"pname":"上海市","citycode":21,"cityname":"上海市","adcode":310101,"adname":"黄浦区","business_a":"北京东路","location":"121.473439,31.224561","tel":"[]","bigType":"科教文化服务","midType":"展览馆","smallType":"展览馆","gcj_lng":121.473439,"gcj_lat":31.224561,"wgs84_loc":"121.468916,31.226505","wgs84Lng":"121.468916","wgs84Lat":"31.226505","__source_file__":"13-常用公服设施点/SHP/上海市_展览馆.shp"},"geometry":{"type":"Point","coordinates":[121.468916,31.226505]}},{"id":"415","type":"Feature","properties":{"id":"B0FFG6APTL","name":"上海展览中心-东二馆E2","address":"延安中路1000号","type":"科教文化服务;展览馆;展览馆","typecode":"140200","pcode":310000,"pname":"上海市","citycode":21,"cityname":"上海市","adcode":310106,"adname":"静安区","business_a":"淮海路","location":"121.453360,31.225284","tel":"021-22162216","bigType":"科教文化服务","midType":"展览馆","smallType":"展览馆","gcj_lng":121.45336,"gcj_lat":31.225284,"wgs84_loc":"121.448778,31.227179","wgs84Lng":"121.448778","wgs84Lat":"31.227179","__source_file__":"13-常用公服设施点/SHP/上海市_展览馆.shp"},"geometry":{"type":"Point","coordinates":[121.448778,31.227179]}},{"id":"356","type":"Feature","properties":{"id":"B0H0ZCWPKD","name":"VoyageUCCALab","address":"陕西北路278号1层","type":"科教文化服务;展览馆;展览馆|购物服务;购物相关场所;购物相关场所","typecode":"140200|060000","pcode":310000,"pname":"上海市","citycode":21,"cityname":"上海市","adcode":310106,"adname":"静安区","business_a":"淮海路","location":"121.454934,31.228106","tel":"021-63578686","bigType":"科教文化服务","midType":"展览馆","smallType":"展览馆|购物服务","gcj_lng":121.454934,"gcj_lat":31.228106,"wgs84_loc":"121.450355,31.230003","wgs84Lng":"121.450355","wgs84Lat":"31.230003","__source_file__":"13-常用公服设施点/SHP/上海市_展览馆.shp"},"geometry":{"type":"Point","coordinates":[121.450355,31.230003]}},{"id":"412","type":"Feature","properties":{"id":"B0FFK5UAUI","name":"上海展览中心友谊堂","address":"南京西路1333号","type":"科教文化服务;展览馆;展览馆","typecode":"140200","pcode":310000,"pname":"上海市","citycode":21,"cityname":"上海市","adcode":310106,"adname":"静安区","business_a":"淮海路","location":"121.452263,31.225743","tel":"[]","bigType":"科教文化服务","midType":"展览馆","smallType":"展览馆","gcj_lng":121.452263,"gcj_lat":31.225743,"wgs84_loc":"121.447678,31.227635","wgs84Lng":"121.447678","wgs84Lat":"31.227635","__source_file__":"13-常用公服设施点/SHP/上海市_展览馆.shp"},"geometry":{"type":"Point","coordinates":[121.447678,31.227635]}},{"id":"355","type":"Feature","properties":{"id":"B0H1MAWSAX","name":"Fibre艺术空间","address":"胶州路273弄60号104室","type":"科教文化服务;展览馆;展览馆","typecode":"140200","pcode":310000,"pname":"上海市","citycode":21,"cityname":"上海市","adcode":310106,"adname":"静安区","business_a":"曹家渡","location":"121.442304,31.228592","tel":"[]","bigType":"科教文化服务","midType":"展览馆","smallType":"展览馆","gcj_lng":121.442304,"gcj_lat":31.228592,"wgs84_loc":"121.437695,31.230463","wgs84Lng":"121.437695","wgs84Lat":"31.230463","__source_file__":"13-常用公服设施点/SHP/上海市_展览馆.shp"},"geometry":{"type":"Point","coordinates":[121.437695,31.230463]}},{"id":"512","type":"Feature","properties":{"id":"B0JAR5567H","name":"ANDMI艺术空间","address":"陕西北路549号晋公馆","type":"科教文化服务;展览馆;展览馆","typecode":"140200","pcode":310000,"pname":"上海市","citycode":21,"cityname":"上海市","adcode":310106,"adname":"静安区","business_a":"[]","location":"121.451863,31.231906","tel":"15827656825","bigType":"科教文化服务","midType":"展览馆","smallType":"展览馆","gcj_lng":121.451863,"gcj_lat":31.231906,"wgs84_loc":"121.447276,31.233794","wgs84Lng":"121.447276","wgs84Lat":"31.233794","__source_file__":"13-常用公服设施点/SHP/上海市_展览馆.shp"},"geometry":{"type":"Point","coordinates":[121.447276,31.233794]}},{"id":"353","type":"Feature","properties":{"id":"B0FFG0HQQ7","name":"中国历史文化名街陕西北路展示咨询中心","address":"陕西北路604号","type":"科教文化服务;展览馆;展览馆","typecode":"140200","pcode":310000,"pname":"上海市","citycode":21,"cityname":"上海市","adcode":310106,"adname":"静安区","business_a":"曹家渡","location":"121.451970,31.232548","tel":"[]","bigType":"科教文化服务","midType":"展览馆","smallType":"展览馆","gcj_lng":121.45197,"gcj_lat":31.232548,"wgs84_loc":"121.447383,31.234436","wgs84Lng":"121.447383","wgs84Lat":"31.234436","__source_file__":"13-常用公服设施点/SHP/上海市_展览馆.shp"},"geometry":{"type":"Point","coordinates":[121.447383,31.234436]}},{"id":"358","type":"Feature","properties":{"id":"B0FFH182QK","name":"IEC International Exhibition Center","address":"地铁7号线昌平路站4号口,不用出地铁,常德路857号B1层(近昌平路)","type":"科教文化服务;展览馆;展览馆","typecode":"140200","pcode":310000,"pname":"上海市","citycode":21,"cityname":"上海市","adcode":310106,"adname":"静安区","business_a":"曹家渡","location":"121.442225,31.233769","tel":"[]","bigType":"科教文化服务","midType":"展览馆","smallType":"展览馆","gcj_lng":121.442225,"gcj_lat":31.233769,"wgs84_loc":"121.437616,31.235638","wgs84Lng":"121.437616","wgs84Lat":"31.235638","__source_file__":"13-常用公服设施点/SHP/上海市_展览馆.shp"},"geometry":{"type":"Point","coordinates":[121.437616,31.235638]}},{"id":"480","type":"Feature","properties":{"id":"B0IU9DU64U","name":"Dest Gallery","address":"陕西北路808号陕康里8号楼","type":"科教文化服务;展览馆;展览馆","typecode":"140200","pcode":310000,"pname":"上海市","citycode":21,"cityname":"上海市","adcode":310106,"adname":"静安区","business_a":"曹家渡","location":"121.450054,31.235224","tel":"[]","bigType":"科教文化服务","midType":"展览馆","smallType":"展览馆","gcj_lng":121.450054,"gcj_lat":31.235224,"wgs84_loc":"121.445462,31.237107","wgs84Lng":"121.445462","wgs84Lat":"31.237107","__source_file__":"13-常用公服设施点/SHP/上海市_展览馆.shp"},"geometry":{"type":"Point","coordinates":[121.445462,31.237107]}},{"id":"349","type":"Feature","properties":{"id":"B0FFHKKKB6","name":"博爱缘艺术馆","address":"海防路555号同乐坊15幢1楼","type":"科教文化服务;展览馆;展览馆","typecode":"140200","pcode":310000,"pname":"上海市","citycode":21,"cityname":"上海市","adcode":310106,"adname":"静安区","business_a":"曹家渡","location":"121.443705,31.236741","tel":"13381772766;13761138459","bigType":"科教文化服务","midType":"展览馆","smallType":"展览馆","gcj_lng":121.443705,"gcj_lat":31.236741,"wgs84_loc":"121.439099,31.238611","wgs84Lng":"121.439099","wgs84Lat":"31.238611","__source_file__":"13-常用公服设施点/SHP/上海市_展览馆.shp"},"geometry":{"type":"Point","coordinates":[121.439099,31.238611]}},{"id":"477","type":"Feature","properties":{"id":"B0I0XCDNUA","name":"江诗丹顿Maison 1755 时间艺术「家」","address":"威海路588弄张园W16","type":"科教文化服务;展览馆;展览馆","typecode":"140200","pcode":310000,"pname":"上海市","citycode":21,"cityname":"上海市","adcode":310106,"adname":"静安区","business_a":"淮海路","location":"121.461510,31.228267","tel":"021-52285388","bigType":"科教文化服务","midType":"展览馆","smallType":"展览馆","gcj_lng":121.46151,"gcj_lat":31.228267,"wgs84_loc":"121.45695,31.230179","wgs84Lng":"121.45695","wgs84Lat":"31.230179","__source_file__":"13-常用公服设施点/SHP/上海市_展览馆.shp"},"geometry":{"type":"Point","coordinates":[121.45695,31.230179]}},{"id":"511","type":"Feature","properties":{"id":"B0K1JH3ADM","name":"上海手表博物馆","address":"南京西路591弄138号一楼前门","type":"科教文化服务;展览馆;展览馆","typecode":"140200","pcode":310000,"pname":"上海市","citycode":21,"cityname":"上海市","adcode":310106,"adname":"静安区","business_a":"淮海路","location":"121.466107,31.228673","tel":"13641905778","bigType":"科教文化服务","midType":"展览馆","smallType":"展览馆","gcj_lng":121.466107,"gcj_lat":31.228673,"wgs84_loc":"121.46156,31.230596","wgs84Lng":"121.46156","wgs84Lat":"31.230596","__source_file__":"13-常用公服设施点/SHP/上海市_展览馆.shp"},"geometry":{"type":"Point","coordinates":[121.46156,31.230596]}},{"id":"103","type":"Feature","properties":{"id":"B0HGOLWA8I","name":"LAND ROVER ABOVE&BEYOND(兴业太古汇)","address":"南京西路789号兴业太古汇L1层","type":"科教文化服务;展览馆;室内展位","typecode":"140201","pcode":310000,"pname":"上海市","citycode":21,"cityname":"上海市","adcode":310106,"adname":"静安区","business_a":"淮海路","location":"121.462490,31.229964","tel":"[]","bigType":"科教文化服务","midType":"展览馆","smallType":"室内展位","gcj_lng":121.46249,"gcj_lat":31.229964,"wgs84_loc":"121.457932,31.231877","wgs84Lng":"121.457932","wgs84Lat":"31.231877","__source_file__":"13-常用公服设施点/SHP/上海市_展览馆.shp"},"geometry":{"type":"Point","coordinates":[121.457932,31.231877]}},{"id":"8","type":"Feature","properties":{"id":"B00155LMIA","name":"上海当代艺术馆","address":"南京西路231号","type":"科教文化服务;展览馆;展览馆","typecode":"140200","pcode":310000,"pname":"上海市","citycode":21,"cityname":"上海市","adcode":310101,"adname":"黄浦区","business_a":"北京东路","location":"121.472804,31.231407","tel":"021-63279900","bigType":"科教文化服务","midType":"展览馆","smallType":"展览馆","gcj_lng":121.472804,"gcj_lat":31.231407,"wgs84_loc":"121.468278,31.233346","wgs84Lng":"121.468278","wgs84Lat":"31.233346","__source_file__":"13-常用公服设施点/SHP/上海市_展览馆.shp"},"geometry":{"type":"Point","coordinates":[121.468278,31.233346]}},{"id":"359","type":"Feature","properties":{"id":"B001574PTJ","name":"上午艺术空间","address":"奉贤路50号B座(近石门二路)","type":"科教文化服务;展览馆;展览馆","typecode":"140200","pcode":310000,"pname":"上海市","citycode":21,"cityname":"上海市","adcode":310106,"adname":"静安区","business_a":"淮海路","location":"121.462107,31.232100","tel":"021-63842432","bigType":"科教文化服务","midType":"展览馆","smallType":"展览馆","gcj_lng":121.462107,"gcj_lat":31.2321,"wgs84_loc":"121.457548,31.234011","wgs84Lng":"121.457548","wgs84Lat":"31.234011","__source_file__":"13-常用公服设施点/SHP/上海市_展览馆.shp"},"geometry":{"type":"Point","coordinates":[121.457548,31.234011]}},{"id":"313","type":"Feature","properties":{"id":"B00156GLUU","name":"国际饭店文史馆","address":"南京西路170号国际饭店","type":"科教文化服务;展览馆;展览馆","typecode":"140200","pcode":310000,"pname":"上海市","citycode":21,"cityname":"上海市","adcode":310101,"adname":"黄浦区","business_a":"北京东路","location":"121.471630,31.233583","tel":"021-63580522","bigType":"科教文化服务","midType":"展览馆","smallType":"展览馆","gcj_lng":121.47163,"gcj_lat":31.233583,"wgs84_loc":"121.4671,31.235518","wgs84Lng":"121.4671","wgs84Lat":"31.235518","__source_file__":"13-常用公服设施点/SHP/上海市_展览馆.shp"},"geometry":{"type":"Point","coordinates":[121.4671,31.235518]}},{"id":"121","type":"Feature","properties":{"id":"B00156GM0V","name":"上海体育博物馆陈列室","address":"南京西路150号体育大厦2层(近国际饭店)","type":"科教文化服务;展览馆;展览馆","typecode":"140200","pcode":310000,"pname":"上海市","citycode":21,"cityname":"上海市","adcode":310101,"adname":"黄浦区","business_a":"北京东路","location":"121.471874,31.233828","tel":"[]","bigType":"科教文化服务","midType":"展览馆","smallType":"展览馆","gcj_lng":121.471874,"gcj_lat":31.233828,"wgs84_loc":"121.467345,31.235764","wgs84Lng":"121.467345","wgs84Lat":"31.235764","__source_file__":"13-常用公服设施点/SHP/上海市_展览馆.shp"},"geometry":{"type":"Point","coordinates":[121.467345,31.235764]}},{"id":"7","type":"Feature","properties":{"id":"B0015513HA","name":"上海杜莎夫人蜡像馆","address":"南京西路2-68号10楼","type":"科教文化服务;展览馆;展览馆","typecode":"140200","pcode":310000,"pname":"上海市","citycode":21,"cityname":"上海市","adcode":310101,"adname":"黄浦区","business_a":"北京东路","location":"121.473346,31.23466","tel":"021-53681688","bigType":"科教文化服务","midType":"展览馆","smallType":"展览馆","gcj_lng":121.473346,"gcj_lat":31.23466,"wgs84_loc":"121.468821,31.236599","wgs84Lng":"121.468821","wgs84Lat":"31.236599","__source_file__":"13-常用公服设施点/SHP/上海市_展览馆.shp"},"geometry":{"type":"Point","coordinates":[121.468821,31.236599]}},{"id":"433","type":"Feature","properties":{"id":"B0FFFFBZ2Y","name":"电影展区","address":"南京西路2-68号新世界商厦10层上海杜莎夫人蜡像馆内","type":"科教文化服务;展览馆;展览馆","typecode":"140200","pcode":310000,"pname":"上海市","citycode":21,"cityname":"上海市","adcode":310101,"adname":"黄浦区","business_a":"北京东路","location":"121.473631,31.235144","tel":"[]","bigType":"科教文化服务","midType":"展览馆","smallType":"展览馆","gcj_lng":121.473631,"gcj_lat":31.235144,"wgs84_loc":"121.469107,31.237084","wgs84Lng":"121.469107","wgs84Lat":"31.237084","__source_file__":"13-常用公服设施点/SHP/上海市_展览馆.shp"},"geometry":{"type":"Point","coordinates":[121.469107,31.237084]}},{"id":"443","type":"Feature","properties":{"id":"B0FFFF96P2","name":"科学名人展区","address":"南京西路2-68号新世界商厦10层上海杜莎夫人蜡像馆内","type":"科教文化服务;展览馆;展览馆","typecode":"140200","pcode":310000,"pname":"上海市","citycode":21,"cityname":"上海市","adcode":310101,"adname":"黄浦区","business_a":"北京东路","location":"121.473633,31.235146","tel":"[]","bigType":"科教文化服务","midType":"展览馆","smallType":"展览馆","gcj_lng":121.473633,"gcj_lat":31.235146,"wgs84_loc":"121.469109,31.237086","wgs84Lng":"121.469109","wgs84Lat":"31.237086","__source_file__":"13-常用公服设施点/SHP/上海市_展览馆.shp"},"geometry":{"type":"Point","coordinates":[121.469109,31.237086]}},{"id":"437","type":"Feature","properties":{"id":"B0FFFFBOSN","name":"运动展区","address":"南京西路2-68号新世界商厦10层上海杜莎夫人蜡像馆内","type":"科教文化服务;展览馆;展览馆","typecode":"140200","pcode":310000,"pname":"上海市","citycode":21,"cityname":"上海市","adcode":310101,"adname":"黄浦区","business_a":"北京东路","location":"121.473634,31.235147","tel":"[]","bigType":"科教文化服务","midType":"展览馆","smallType":"展览馆","gcj_lng":121.473634,"gcj_lat":31.235147,"wgs84_loc":"121.46911,31.237087","wgs84Lng":"121.46911","wgs84Lat":"31.237087","__source_file__":"13-常用公服设施点/SHP/上海市_展览馆.shp"},"geometry":{"type":"Point","coordinates":[121.46911,31.237087]}},{"id":"440","type":"Feature","properties":{"id":"B0FFFFL01Z","name":"音乐展区","address":"南京西路2-68号新世界商厦10层上海杜莎夫人蜡像馆内","type":"科教文化服务;展览馆;展览馆","typecode":"140200","pcode":310000,"pname":"上海市","citycode":21,"cityname":"上海市","adcode":310101,"adname":"黄浦区","business_a":"北京东路","location":"121.473634,31.235147","tel":"[]","bigType":"科教文化服务","midType":"展览馆","smallType":"展览馆","gcj_lng":121.473634,"gcj_lat":31.235147,"wgs84_loc":"121.46911,31.237087","wgs84Lng":"121.46911","wgs84Lat":"31.237087","__source_file__":"13-常用公服设施点/SHP/上海市_展览馆.shp"},"geometry":{"type":"Point","coordinates":[121.46911,31.237087]}},{"id":"111","type":"Feature","properties":{"id":"B00156NV3G","name":"中共淞浦特委机关旧址陈列馆","address":"山海关路339号","type":"科教文化服务;展览馆;展览馆","typecode":"140200","pcode":310000,"pname":"上海市","citycode":21,"cityname":"上海市","adcode":310106,"adname":"静安区","business_a":"淮海路","location":"121.463593,31.235919","tel":"021-62094660","bigType":"科教文化服务","midType":"展览馆","smallType":"展览馆","gcj_lng":121.463593,"gcj_lat":31.235919,"wgs84_loc":"121.459038,31.237832","wgs84Lng":"121.459038","wgs84Lat":"31.237832","__source_file__":"13-常用公服设施点/SHP/上海市_展览馆.shp"},"geometry":{"type":"Point","coordinates":[121.459038,31.237832]}},{"id":"341","type":"Feature","properties":{"id":"B0FFGMV1HH","name":"全国裸眼3D魔幻艺术画展","address":"西藏中路525号雅居乐国际广场2楼","type":"科教文化服务;展览馆;展览馆","typecode":"140200","pcode":310000,"pname":"上海市","citycode":21,"cityname":"上海市","adcode":310101,"adname":"黄浦区","business_a":"北京东路","location":"121.473075,31.236162","tel":"[]","bigType":"科教文化服务","midType":"展览馆","smallType":"展览馆","gcj_lng":121.473075,"gcj_lat":31.236162,"wgs84_loc":"121.468549,31.2381","wgs84Lng":"121.468549","wgs84Lat":"31.2381","__source_file__":"13-常用公服设施点/SHP/上海市_展览馆.shp"},"geometry":{"type":"Point","coordinates":[121.468549,31.2381]}},{"id":"342","type":"Feature","properties":{"id":"B0FFFPU4CK","name":"北欧主题乐园展","address":"西藏中路525号雅居乐国际广场2层","type":"科教文化服务;展览馆;展览馆","typecode":"140200","pcode":310000,"pname":"上海市","citycode":21,"cityname":"上海市","adcode":310101,"adname":"黄浦区","business_a":"北京东路","location":"121.473591,31.236170","tel":"4000808429","bigType":"科教文化服务","midType":"展览馆","smallType":"展览馆","gcj_lng":121.473591,"gcj_lat":31.23617,"wgs84_loc":"121.469067,31.238109","wgs84Lng":"121.469067","wgs84Lat":"31.238109","__source_file__":"13-常用公服设施点/SHP/上海市_展览馆.shp"},"geometry":{"type":"Point","coordinates":[121.469067,31.238109]}},{"id":"326","type":"Feature","properties":{"id":"B0H1L5HG6W","name":"上海匠心玉文化传承中心","address":"西藏中路728号美欣大厦1层","type":"科教文化服务;展览馆;展览馆","typecode":"140200","pcode":310000,"pname":"上海市","citycode":21,"cityname":"上海市","adcode":310101,"adname":"黄浦区","business_a":"北京东路","location":"121.472881,31.239948","tel":"[]","bigType":"科教文化服务","midType":"展览馆","smallType":"展览馆","gcj_lng":121.472881,"gcj_lat":31.239948,"wgs84_loc":"121.468354,31.241884","wgs84Lng":"121.468354","wgs84Lat":"31.241884","__source_file__":"13-常用公服设施点/SHP/上海市_展览馆.shp"},"geometry":{"type":"Point","coordinates":[121.468354,31.241884]}},{"id":"336","type":"Feature","properties":{"id":"B0FFI0Z6U1","name":"八号桥艺术空间1908粮仓","address":"南苏州路1247号2楼","type":"科教文化服务;展览馆;展览馆","typecode":"140200","pcode":310000,"pname":"上海市","citycode":21,"cityname":"上海市","adcode":310101,"adname":"黄浦区","business_a":"北京东路","location":"121.466391,31.240173","tel":"13482723131","bigType":"科教文化服务","midType":"展览馆","smallType":"展览馆","gcj_lng":121.466391,"gcj_lat":31.240173,"wgs84_loc":"121.461844,31.242091","wgs84Lng":"121.461844","wgs84Lat":"31.242091","__source_file__":"13-常用公服设施点/SHP/上海市_展览馆.shp"},"geometry":{"type":"Point","coordinates":[121.461844,31.242091]}},{"id":"354","type":"Feature","properties":{"id":"B0HBBD3UW5","name":"UCCA Edge","address":"西藏北路88号盈凯文创广场2层","type":"科教文化服务;展览馆;展览馆","typecode":"140200","pcode":310000,"pname":"上海市","citycode":21,"cityname":"上海市","adcode":310106,"adname":"静安区","business_a":"北京东路","location":"121.471962,31.241868","tel":"[]","bigType":"科教文化服务","midType":"展览馆","smallType":"展览馆","gcj_lng":121.471962,"gcj_lat":31.241868,"wgs84_loc":"121.467432,31.2438","wgs84Lng":"121.467432","wgs84Lat":"31.2438","__source_file__":"13-常用公服设施点/SHP/上海市_展览馆.shp"},"geometry":{"type":"Point","coordinates":[121.467432,31.2438]}},{"id":"348","type":"Feature","properties":{"id":"B0HRLC1D16","name":"红色印记展示馆","address":"汉中路188号4楼","type":"科教文化服务;展览馆;展览馆","typecode":"140200","pcode":310000,"pname":"上海市","citycode":21,"cityname":"上海市","adcode":310106,"adname":"静安区","business_a":"[]","location":"121.457558,31.242010","tel":"[]","bigType":"科教文化服务","midType":"展览馆","smallType":"展览馆","gcj_lng":121.457558,"gcj_lat":31.24201,"wgs84_loc":"121.452985,31.243906","wgs84Lng":"121.452985","wgs84Lat":"31.243906","__source_file__":"13-常用公服设施点/SHP/上海市_展览馆.shp"},"geometry":{"type":"Point","coordinates":[121.452985,31.243906]}},{"id":"479","type":"Feature","properties":{"id":"B0IRDUO4ML","name":"洛天依","address":"七浦路与文安路交叉口西南80米(曲阜路地铁站1号口旁)","type":"科教文化服务;展览馆;展览馆","typecode":"140200","pcode":310000,"pname":"上海市","citycode":21,"cityname":"上海市","adcode":310106,"adname":"静安区","business_a":"七浦路","location":"121.472240,31.243154","tel":"[]","bigType":"科教文化服务","midType":"展览馆","smallType":"展览馆","gcj_lng":121.47224,"gcj_lat":31.243154,"wgs84_loc":"121.467711,31.245086","wgs84Lng":"121.467711","wgs84Lat":"31.245086","__source_file__":"13-常用公服设施点/SHP/上海市_展览馆.shp"},"geometry":{"type":"Point","coordinates":[121.467711,31.245086]}},{"id":"478","type":"Feature","properties":{"id":"B0I1UCZRBT","name":"吴昌硕海派艺术空间","address":"海文大楼4层","type":"科教文化服务;展览馆;展览馆","typecode":"140200","pcode":310000,"pname":"上海市","citycode":21,"cityname":"上海市","adcode":310106,"adname":"静安区","business_a":"宝山路","location":"121.467308,31.244909","tel":"[]","bigType":"科教文化服务","midType":"展览馆","smallType":"展览馆","gcj_lng":121.467308,"gcj_lat":31.244909,"wgs84_loc":"121.462763,31.246828","wgs84Lng":"121.462763","wgs84Lat":"31.246828","__source_file__":"13-常用公服设施点/SHP/上海市_展览馆.shp"},"geometry":{"type":"Point","coordinates":[121.462763,31.246828]}},{"id":"357","type":"Feature","properties":{"id":"B0FFI5SDQI","name":"Art Labor","address":"海防路101号","type":"科教文化服务;展览馆;展览馆","typecode":"140200","pcode":310000,"pname":"上海市","citycode":21,"cityname":"上海市","adcode":310106,"adname":"静安区","business_a":"曹家渡","location":"121.450336,31.240055","tel":"021-62456963","bigType":"科教文化服务","midType":"展览馆","smallType":"展览馆","gcj_lng":121.450336,"gcj_lat":31.240055,"wgs84_loc":"121.445745,31.241936","wgs84Lng":"121.445745","wgs84Lat":"31.241936","__source_file__":"13-常用公服设施点/SHP/上海市_展览馆.shp"},"geometry":{"type":"Point","coordinates":[121.445745,31.241936]}},{"id":"481","type":"Feature","properties":{"id":"B0I2CRD8D2","name":"昔步SPACE","address":"长寿路166号","type":"科教文化服务;展览馆;展览馆","typecode":"140200","pcode":310000,"pname":"上海市","citycode":21,"cityname":"上海市","adcode":310107,"adname":"普陀区","business_a":"曹家渡","location":"121.442599,31.243934","tel":"[]","bigType":"科教文化服务","midType":"展览馆","smallType":"展览馆","gcj_lng":121.442599,"gcj_lat":31.243934,"wgs84_loc":"121.43799,31.245799","wgs84Lng":"121.43799","wgs84Lat":"31.245799","__source_file__":"13-常用公服设施点/SHP/上海市_展览馆.shp"},"geometry":{"type":"Point","coordinates":[121.43799,31.245799]}},{"id":"446","type":"Feature","properties":{"id":"B00155LVGF","name":"1918艺术空间","address":"莫干山路50号50创意园22号楼22-102","type":"科教文化服务;展览馆;展览馆","typecode":"140200","pcode":310000,"pname":"上海市","citycode":21,"cityname":"上海市","adcode":310107,"adname":"普陀区","business_a":"光新","location":"121.449126,31.247076","tel":"[]","bigType":"科教文化服务","midType":"展览馆","smallType":"展览馆","gcj_lng":121.449126,"gcj_lat":31.247076,"wgs84_loc":"121.444531,31.248952","wgs84Lng":"121.444531","wgs84Lat":"31.248952","__source_file__":"13-常用公服设施点/SHP/上海市_展览馆.shp"},"geometry":{"type":"Point","coordinates":[121.444531,31.248952]}},{"id":"442","type":"Feature","properties":{"id":"B0FFHIYAVV","name":"回暖","address":"莫干山路60附近","type":"科教文化服务;展览馆;展览馆","typecode":"140200","pcode":310000,"pname":"上海市","citycode":21,"cityname":"上海市","adcode":310107,"adname":"普陀区","business_a":"光新","location":"121.449161,31.247469","tel":"[]","bigType":"科教文化服务","midType":"展览馆","smallType":"展览馆","gcj_lng":121.449161,"gcj_lat":31.247469,"wgs84_loc":"121.444566,31.249345","wgs84Lng":"121.444566","wgs84Lat":"31.249345","__source_file__":"13-常用公服设施点/SHP/上海市_展览馆.shp"},"geometry":{"type":"Point","coordinates":[121.444566,31.249345]}},{"id":"458","type":"Feature","properties":{"id":"B0FFGE4WMD","name":"523艺术中心","address":"莫干山路50号3号楼","type":"科教文化服务;展览馆;展览馆","typecode":"140200","pcode":310000,"pname":"上海市","citycode":21,"cityname":"上海市","adcode":310107,"adname":"普陀区","business_a":"光新","location":"121.449683,31.248002","tel":"[]","bigType":"科教文化服务","midType":"展览馆","smallType":"展览馆","gcj_lng":121.449683,"gcj_lat":31.248002,"wgs84_loc":"121.445089,31.249879","wgs84Lng":"121.445089","wgs84Lat":"31.249879","__source_file__":"13-常用公服设施点/SHP/上海市_展览馆.shp"},"geometry":{"type":"Point","coordinates":[121.445089,31.249879]}},{"id":"114","type":"Feature","properties":{"id":"B00155KXE3","name":"m art center","address":"莫干山路50号","type":"科教文化服务;展览馆;展览馆","typecode":"140200","pcode":310000,"pname":"上海市","citycode":21,"cityname":"上海市","adcode":310107,"adname":"普陀区","business_a":"光新","location":"121.448829,31.248067","tel":"021-62996610","bigType":"科教文化服务","midType":"展览馆","smallType":"展览馆","gcj_lng":121.448829,"gcj_lat":31.248067,"wgs84_loc":"121.444233,31.249942","wgs84Lng":"121.444233","wgs84Lat":"31.249942","__source_file__":"13-常用公服设施点/SHP/上海市_展览馆.shp"},"geometry":{"type":"Point","coordinates":[121.444233,31.249942]}},{"id":"115","type":"Feature","properties":{"id":"B0FFHCT7N4","name":"J:GALLERY","address":"莫干山路与西苏州路交叉口东北约160米","type":"科教文化服务;展览馆;展览馆","typecode":"140200","pcode":310000,"pname":"上海市","citycode":21,"cityname":"上海市","adcode":310107,"adname":"普陀区","business_a":"光新","location":"121.449898,31.248110","tel":"[]","bigType":"科教文化服务","midType":"展览馆","smallType":"展览馆","gcj_lng":121.449898,"gcj_lat":31.24811,"wgs84_loc":"121.445305,31.249987","wgs84Lng":"121.445305","wgs84Lat":"31.249987","__source_file__":"13-常用公服设施点/SHP/上海市_展览馆.shp"},"geometry":{"type":"Point","coordinates":[121.445305,31.249987]}},{"id":"535","type":"Feature","properties":{"id":"B00155IUCB","name":"上海御诚展会厅","address":"中山北路1958号华源世界广场1层B座","type":"科教文化服务;展览馆;展览馆","typecode":"140200","pcode":310000,"pname":"上海市","citycode":21,"cityname":"上海市","adcode":310107,"adname":"普陀区","business_a":"光新","location":"121.432721,31.249469","tel":"[]","bigType":"科教文化服务","midType":"展览馆","smallType":"展览馆","gcj_lng":121.432721,"gcj_lat":31.249469,"wgs84_loc":"121.428093,31.251316","wgs84Lng":"121.428093","wgs84Lat":"31.251316","__source_file__":"13-常用公服设施点/SHP/上海市_展览馆.shp"},"geometry":{"type":"Point","coordinates":[121.428093,31.251316]}},{"id":"149","type":"Feature","properties":{"id":"B0FFGBX06S","name":"上币展销中心","address":"光复西路17号","type":"科教文化服务;展览馆;展览馆","typecode":"140200","pcode":310000,"pname":"上海市","citycode":21,"cityname":"上海市","adcode":310107,"adname":"普陀区","business_a":"光新","location":"121.434331,31.250102","tel":"[]","bigType":"科教文化服务","midType":"展览馆","smallType":"展览馆","gcj_lng":121.434331,"gcj_lat":31.250102,"wgs84_loc":"121.429705,31.251951","wgs84Lng":"121.429705","wgs84Lat":"31.251951","__source_file__":"13-常用公服设施点/SHP/上海市_展览馆.shp"},"geometry":{"type":"Point","coordinates":[121.429705,31.251951]}},{"id":"459","type":"Feature","properties":{"id":"B0FFKUWX5Q","name":"善祥会共享俱乐部","address":"运城路229号","type":"科教文化服务;展览馆;展览馆","typecode":"140200","pcode":310000,"pname":"上海市","citycode":21,"cityname":"上海市","adcode":310106,"adname":"静安区","business_a":"大宁路","location":"121.440120,31.270352","tel":"[]","bigType":"科教文化服务","midType":"展览馆","smallType":"展览馆","gcj_lng":121.44012,"gcj_lat":31.270352,"wgs84_loc":"121.435503,31.272201","wgs84Lng":"121.435503","wgs84Lat":"31.272201","__source_file__":"13-常用公服设施点/SHP/上海市_展览馆.shp"},"geometry":{"type":"Point","coordinates":[121.435503,31.272201]}}],"name":"上海市_展览馆","crs":{"type":"name","properties":{"name":"urn:ogc:def:crs:OGC:1.3:CRS84"}}}