{"type":"FeatureCollection","features":[{"id":"5","type":"Feature","properties":{"id":"B0FFGKMQCW","name":"新奥九环加气站(暂停营业)","address":"沪太路857号","type":"汽车服务;加气站;加气站","typecode":10300,"pcode":310000,"pname":"上海市","citycode":21,"cityname":"上海市","adcode":310106,"adname":"静安区","business_a":"大宁路","location":"121.438424,31.269350","tel":"[]","bigType":"汽车服务","midType":"加气站","smallType":"加气站","gcj_lng":121.438424,"gcj_lat":31.26935,"wgs84_loc":"121.433804,31.271197","wgs84Lng":"121.433804","wgs84Lat":"31.271197","__source_file__":"13-常用公服设施点/SHP/上海市_加气站.shp"},"geometry":{"type":"Point","coordinates":[121.433804,31.271197]}},{"id":"6","type":"Feature","properties":{"id":"B0H33XZO96","name":"LPG加气站(暂停营业)","address":"沪太路上海昆仑新奥加气站","type":"汽车服务;加气站;加气站","typecode":10300,"pcode":310000,"pname":"上海市","citycode":21,"cityname":"上海市","adcode":310106,"adname":"静安区","business_a":"大宁路","location":"121.438561,31.269421","tel":"[]","bigType":"汽车服务","midType":"加气站","smallType":"加气站","gcj_lng":121.438561,"gcj_lat":31.269421,"wgs84_loc":"121.433941,31.271268","wgs84Lng":"121.433941","wgs84Lat":"31.271268","__source_file__":"13-常用公服设施点/SHP/上海市_加气站.shp"},"geometry":{"type":"Point","coordinates":[121.433941,31.271268]}}],"name":"上海市_加气站","crs":{"type":"name","properties":{"name":"urn:ogc:def:crs:OGC:1.3:CRS84"}}}