{"type":"FeatureCollection","features":[{"id":"94","type":"Feature","properties":{"id":"B0FFF3AGCR","name":"贝伦贝格银行上海代表处","address":"延安中路841东方海外大厦2507","type":"金融保险服务;银行相关;银行相关","typecode":160200,"pcode":310000,"pname":"上海市","citycode":21,"cityname":"上海市","adcode":310106,"adname":"静安区","business_a":"淮海路","location":"121.454381,31.223128","tel":"[]","bigType":"金融保险服务","midType":"银行相关","smallType":"银行相关","gcj_lng":121.454381,"gcj_lat":31.223128,"wgs84_loc":"121.449801,31.225026","wgs84Lng":"121.449801","wgs84Lat":"31.225026","__source_file__":"13-常用公服设施点/SHP/上海市_银行相关.shp"},"geometry":{"type":"Point","coordinates":[121.449801,31.225026]}},{"id":"11","type":"Feature","properties":{"id":"B00155KTBU","name":"美国国泰银行有限公司上海代表处","address":"南京西路1515号静安嘉里中心办公楼一座1806室","type":"金融保险服务;银行相关;银行相关","typecode":160200,"pcode":310000,"pname":"上海市","citycode":21,"cityname":"上海市","adcode":310106,"adname":"静安区","business_a":"淮海路","location":"121.450201,31.224596","tel":"021-52985656","bigType":"金融保险服务","midType":"银行相关","smallType":"银行相关","gcj_lng":121.450201,"gcj_lat":31.224596,"wgs84_loc":"121.445611,31.226484","wgs84Lng":"121.445611","wgs84Lat":"31.226484","__source_file__":"13-常用公服设施点/SHP/上海市_银行相关.shp"},"geometry":{"type":"Point","coordinates":[121.445611,31.226484]}},{"id":"78","type":"Feature","properties":{"id":"B00155Q6FU","name":"中国银行静安支行零售业务科","address":"南京西路1515静安嘉里中心办公楼一座3层101","type":"金融保险服务;银行相关;银行相关","typecode":160200,"pcode":310000,"pname":"上海市","citycode":21,"cityname":"上海市","adcode":310106,"adname":"静安区","business_a":"淮海路","location":"121.450201,31.224596","tel":"021-52985576","bigType":"金融保险服务","midType":"银行相关","smallType":"银行相关","gcj_lng":121.450201,"gcj_lat":31.224596,"wgs84_loc":"121.445611,31.226484","wgs84Lng":"121.445611","wgs84Lat":"31.226484","__source_file__":"13-常用公服设施点/SHP/上海市_银行相关.shp"},"geometry":{"type":"Point","coordinates":[121.445611,31.226484]}},{"id":"48","type":"Feature","properties":{"id":"B00155KLVU","name":"卡塔尔多哈银行股份有限公司上海代表处","address":"南京西路1376号上海商城3层380、360","type":"金融保险服务;银行相关;银行相关","typecode":160200,"pcode":310000,"pname":"上海市","citycode":21,"cityname":"上海市","adcode":310106,"adname":"静安区","business_a":"淮海路","location":"121.452257,31.227162","tel":"[]","bigType":"金融保险服务","midType":"银行相关","smallType":"银行相关","gcj_lng":121.452257,"gcj_lat":31.227162,"wgs84_loc":"121.447672,31.229053","wgs84Lng":"121.447672","wgs84Lat":"31.229053","__source_file__":"13-常用公服设施点/SHP/上海市_银行相关.shp"},"geometry":{"type":"Point","coordinates":[121.447672,31.229053]}},{"id":"49","type":"Feature","properties":{"id":"B00156GLIT","name":"加拿大多伦多道明银行有限公司上海代表处","address":"南京西路1266号恒隆广场1号楼","type":"金融保险服务;银行相关;银行相关","typecode":160200,"pcode":310000,"pname":"上海市","citycode":21,"cityname":"上海市","adcode":310106,"adname":"静安区","business_a":"淮海路","location":"121.454093,31.227909","tel":"021-62887979","bigType":"金融保险服务","midType":"银行相关","smallType":"银行相关","gcj_lng":121.454093,"gcj_lat":31.227909,"wgs84_loc":"121.449512,31.229804","wgs84Lng":"121.449512","wgs84Lat":"31.229804","__source_file__":"13-常用公服设施点/SHP/上海市_银行相关.shp"},"geometry":{"type":"Point","coordinates":[121.449512,31.229804]}},{"id":"34","type":"Feature","properties":{"id":"B00155KMKC","name":"日本蓝天银行股份有限公司上海代表处(奉贤路)","address":"南京西路1168号中信泰富广场3559号","type":"金融保险服务;银行相关;银行相关","typecode":160200,"pcode":310000,"pname":"上海市","citycode":21,"cityname":"上海市","adcode":310106,"adname":"静安区","business_a":"淮海路","location":"121.455680,31.228616","tel":"[]","bigType":"金融保险服务","midType":"银行相关","smallType":"银行相关","gcj_lng":121.45568,"gcj_lat":31.228616,"wgs84_loc":"121.451103,31.230514","wgs84Lng":"121.451103","wgs84Lat":"31.230514","__source_file__":"13-常用公服设施点/SHP/上海市_银行相关.shp"},"geometry":{"type":"Point","coordinates":[121.451103,31.230514]}},{"id":"35","type":"Feature","properties":{"id":"B00155KQEE","name":"瑞士银行有限公司上海代表处","address":"南京西路1168号中信泰富广场2411-2412号","type":"金融保险服务;银行相关;银行相关","typecode":160200,"pcode":310000,"pname":"上海市","citycode":21,"cityname":"上海市","adcode":310106,"adname":"静安区","business_a":"淮海路","location":"121.455680,31.228616","tel":"[]","bigType":"金融保险服务","midType":"银行相关","smallType":"银行相关","gcj_lng":121.45568,"gcj_lat":31.228616,"wgs84_loc":"121.451103,31.230514","wgs84Lng":"121.451103","wgs84Lat":"31.230514","__source_file__":"13-常用公服设施点/SHP/上海市_银行相关.shp"},"geometry":{"type":"Point","coordinates":[121.451103,31.230514]}},{"id":"47","type":"Feature","properties":{"id":"B00155BVQA","name":"兴业银行上海授信审批中心","address":"江宁路168号上海兴业大厦29层","type":"金融保险服务;银行相关;银行相关","typecode":160200,"pcode":310000,"pname":"上海市","citycode":21,"cityname":"上海市","adcode":310106,"adname":"静安区","business_a":"淮海路","location":"121.455333,31.230693","tel":"[]","bigType":"金融保险服务","midType":"银行相关","smallType":"银行相关","gcj_lng":121.455333,"gcj_lat":31.230693,"wgs84_loc":"121.450755,31.232589","wgs84Lng":"121.450755","wgs84Lat":"31.232589","__source_file__":"13-常用公服设施点/SHP/上海市_银行相关.shp"},"geometry":{"type":"Point","coordinates":[121.450755,31.232589]}},{"id":"81","type":"Feature","properties":{"id":"B00155GODB","name":"兴业银行上海计算机运行中心","address":"江宁路168号上海兴业大厦3层","type":"金融保险服务;银行相关;银行相关","typecode":160200,"pcode":310000,"pname":"上海市","citycode":21,"cityname":"上海市","adcode":310106,"adname":"静安区","business_a":"曹家渡","location":"121.455333,31.230693","tel":"[]","bigType":"金融保险服务","midType":"银行相关","smallType":"银行相关","gcj_lng":121.455333,"gcj_lat":31.230693,"wgs84_loc":"121.450755,31.232589","wgs84Lng":"121.450755","wgs84Lat":"31.232589","__source_file__":"13-常用公服设施点/SHP/上海市_银行相关.shp"},"geometry":{"type":"Point","coordinates":[121.450755,31.232589]}},{"id":"75","type":"Feature","properties":{"id":"B0FFG7D56F","name":"中国银行理财中心新天地支行","address":"兴业路158-160号","type":"金融保险服务;银行相关;银行相关","typecode":160200,"pcode":310000,"pname":"上海市","citycode":21,"cityname":"上海市","adcode":310101,"adname":"黄浦区","business_a":"淮海路","location":"121.473698,31.219686","tel":"[]","bigType":"金融保险服务","midType":"银行相关","smallType":"银行相关","gcj_lng":121.473698,"gcj_lat":31.219686,"wgs84_loc":"121.469176,31.221633","wgs84Lng":"121.469176","wgs84Lat":"31.221633","__source_file__":"13-常用公服设施点/SHP/上海市_银行相关.shp"},"geometry":{"type":"Point","coordinates":[121.469176,31.221633]}},{"id":"43","type":"Feature","properties":{"id":"B0FFG7D56E","name":"招商银行上海淮中支行金葵花理财中心","address":"淮海中路398号巴士大厦17楼ad1座","type":"金融保险服务;银行相关;银行相关","typecode":160200,"pcode":310000,"pname":"上海市","citycode":21,"cityname":"上海市","adcode":310101,"adname":"黄浦区","business_a":"北京东路","location":"121.472092,31.222603","tel":"[]","bigType":"金融保险服务","midType":"银行相关","smallType":"银行相关","gcj_lng":121.472092,"gcj_lat":31.222603,"wgs84_loc":"121.467564,31.224545","wgs84Lng":"121.467564","wgs84Lat":"31.224545","__source_file__":"13-常用公服设施点/SHP/上海市_银行相关.shp"},"geometry":{"type":"Point","coordinates":[121.467564,31.224545]}},{"id":"37","type":"Feature","properties":{"id":"B00155IR37","name":"汇丰银行上海香港广场支行卓越理财中心","address":"淮海中路283号香港广场南楼","type":"金融保险服务;银行相关;银行相关","typecode":160200,"pcode":310000,"pname":"上海市","citycode":21,"cityname":"上海市","adcode":310101,"adname":"黄浦区","business_a":"淮海路","location":"121.475227,31.222964","tel":"021-38888618;4008201177","bigType":"金融保险服务","midType":"银行相关","smallType":"银行相关","gcj_lng":121.475227,"gcj_lat":31.222964,"wgs84_loc":"121.47071,31.224914","wgs84Lng":"121.47071","wgs84Lat":"31.224914","__source_file__":"13-常用公服设施点/SHP/上海市_银行相关.shp"},"geometry":{"type":"Point","coordinates":[121.47071,31.224914]}},{"id":"95","type":"Feature","properties":{"id":"B0FFFZSE2D","name":"中国银行财富管理中心(卢湾)","address":"淮海中路282号香港广场商场北座","type":"金融保险服务;银行相关;银行相关","typecode":160200,"pcode":310000,"pname":"上海市","citycode":21,"cityname":"上海市","adcode":310101,"adname":"黄浦区","business_a":"淮海路","location":"121.474936,31.223550","tel":"[]","bigType":"金融保险服务","midType":"银行相关","smallType":"银行相关","gcj_lng":121.474936,"gcj_lat":31.22355,"wgs84_loc":"121.470418,31.225499","wgs84Lng":"121.470418","wgs84Lat":"31.225499","__source_file__":"13-常用公服设施点/SHP/上海市_银行相关.shp"},"geometry":{"type":"Point","coordinates":[121.470418,31.225499]}},{"id":"31","type":"Feature","properties":{"id":"B001558DDD","name":"中国民生银行财富管理中心(上海)","address":"桃源路85号永银大厦1101","type":"金融保险服务;银行相关;银行相关","typecode":160200,"pcode":310000,"pname":"上海市","citycode":21,"cityname":"上海市","adcode":310101,"adname":"黄浦区","business_a":"淮海路","location":"121.480398,31.224232","tel":"[]","bigType":"金融保险服务","midType":"银行相关","smallType":"银行相关","gcj_lng":121.480398,"gcj_lat":31.224232,"wgs84_loc":"121.475898,31.226196","wgs84Lng":"121.475898","wgs84Lat":"31.226196","__source_file__":"13-常用公服设施点/SHP/上海市_银行相关.shp"},"geometry":{"type":"Point","coordinates":[121.475898,31.226196]}},{"id":"41","type":"Feature","properties":{"id":"B00154DHNZ","name":"中国建设银行上海市分行造价咨询中心","address":"望亭路135淮海金融大楼","type":"金融保险服务;银行相关;银行相关","typecode":160200,"pcode":310000,"pname":"上海市","citycode":21,"cityname":"上海市","adcode":310101,"adname":"黄浦区","business_a":"淮海路","location":"121.476560,31.224413","tel":"[]","bigType":"金融保险服务","midType":"银行相关","smallType":"银行相关","gcj_lng":121.47656,"gcj_lat":31.224413,"wgs84_loc":"121.472047,31.226366","wgs84Lng":"121.472047","wgs84Lat":"31.226366","__source_file__":"13-常用公服设施点/SHP/上海市_银行相关.shp"},"geometry":{"type":"Point","coordinates":[121.472047,31.226366]}},{"id":"90","type":"Feature","properties":{"id":"B00155CCA7","name":"中国建设银行上海市分行现金调运中心","address":"望亭路135淮海金融大楼","type":"金融保险服务;银行相关;银行相关","typecode":160200,"pcode":310000,"pname":"上海市","citycode":21,"cityname":"上海市","adcode":310101,"adname":"黄浦区","business_a":"北京东路","location":"121.476560,31.224413","tel":"[]","bigType":"金融保险服务","midType":"银行相关","smallType":"银行相关","gcj_lng":121.47656,"gcj_lat":31.224413,"wgs84_loc":"121.472047,31.226366","wgs84Lng":"121.472047","wgs84Lat":"31.226366","__source_file__":"13-常用公服设施点/SHP/上海市_银行相关.shp"},"geometry":{"type":"Point","coordinates":[121.472047,31.226366]}},{"id":"91","type":"Feature","properties":{"id":"B0FFH0ZUVX","name":"上海浦东发展银行货币兑换机(上海威斯汀大饭店)","address":"河南中路88号上海威斯汀大饭店1层","type":"金融保险服务;银行相关;银行相关","typecode":160200,"pcode":310000,"pname":"上海市","citycode":21,"cityname":"上海市","adcode":310101,"adname":"黄浦区","business_a":"北京东路","location":"121.486790,31.232400","tel":"[]","bigType":"金融保险服务","midType":"银行相关","smallType":"银行相关","gcj_lng":121.48679,"gcj_lat":31.2324,"wgs84_loc":"121.482311,31.234379","wgs84Lng":"121.482311","wgs84Lat":"31.234379","__source_file__":"13-常用公服设施点/SHP/上海市_银行相关.shp"},"geometry":{"type":"Point","coordinates":[121.482311,31.234379]}},{"id":"84","type":"Feature","properties":{"id":"B0FFFZDCQI","name":"中国农业银行上海市分行信用卡中心","address":"汉口路515号汇金大厦","type":"金融保险服务;银行相关;银行相关","typecode":160200,"pcode":310000,"pname":"上海市","citycode":21,"cityname":"上海市","adcode":310101,"adname":"黄浦区","business_a":"北京东路","location":"121.480643,31.234136","tel":"95599","bigType":"金融保险服务","midType":"银行相关","smallType":"银行相关","gcj_lng":121.480643,"gcj_lat":31.234136,"wgs84_loc":"121.476143,31.236096","wgs84Lng":"121.476143","wgs84Lat":"31.236096","__source_file__":"13-常用公服设施点/SHP/上海市_银行相关.shp"},"geometry":{"type":"Point","coordinates":[121.476143,31.236096]}},{"id":"44","type":"Feature","properties":{"id":"B00154DM1Y","name":"中国外汇交易中心","address":"中山东一路15号","type":"金融保险服务;银行相关;银行相关","typecode":160200,"pcode":310000,"pname":"上海市","citycode":21,"cityname":"上海市","adcode":310101,"adname":"黄浦区","business_a":"北京东路","location":"121.489734,31.237532","tel":"021-63298988","bigType":"金融保险服务","midType":"银行相关","smallType":"银行相关","gcj_lng":121.489734,"gcj_lat":31.237532,"wgs84_loc":"121.485265,31.239517","wgs84Lng":"121.485265","wgs84Lat":"31.239517","__source_file__":"13-常用公服设施点/SHP/上海市_银行相关.shp"},"geometry":{"type":"Point","coordinates":[121.485265,31.239517]}},{"id":"89","type":"Feature","properties":{"id":"B0FFH15W3X","name":"上海浦东发展银行货币兑换机(上海古井假日酒店)","address":"长寿路700号上海古井假日酒店1层","type":"金融保险服务;银行相关;银行相关","typecode":160200,"pcode":310000,"pname":"上海市","citycode":21,"cityname":"上海市","adcode":310107,"adname":"普陀区","business_a":"曹家渡","location":"121.433510,31.237890","tel":"[]","bigType":"金融保险服务","midType":"银行相关","smallType":"银行相关","gcj_lng":121.43351,"gcj_lat":31.23789,"wgs84_loc":"121.428884,31.239743","wgs84Lng":"121.428884","wgs84Lat":"31.239743","__source_file__":"13-常用公服设施点/SHP/上海市_银行相关.shp"},"geometry":{"type":"Point","coordinates":[121.428884,31.239743]}},{"id":"88","type":"Feature","properties":{"id":"B0FFHOKMKF","name":"货币兑换","address":"恒通路195号附近","type":"金融保险服务;银行相关;银行相关","typecode":160200,"pcode":310000,"pname":"上海市","citycode":21,"cityname":"上海市","adcode":310106,"adname":"静安区","business_a":"[]","location":"121.457619,31.241591","tel":"[]","bigType":"金融保险服务","midType":"银行相关","smallType":"银行相关","gcj_lng":121.457619,"gcj_lat":31.241591,"wgs84_loc":"121.453046,31.243488","wgs84Lng":"121.453046","wgs84Lat":"31.243488","__source_file__":"13-常用公服设施点/SHP/上海市_银行相关.shp"},"geometry":{"type":"Point","coordinates":[121.453046,31.243488]}},{"id":"39","type":"Feature","properties":{"id":"B0FFH109C2","name":"上海浦东发展银行货币兑换机(上海浦西洲际酒店)","address":"恒丰路500号上海浦西洲际酒店1层","type":"金融保险服务;银行相关;银行相关","typecode":160200,"pcode":310000,"pname":"上海市","citycode":21,"cityname":"上海市","adcode":310106,"adname":"静安区","business_a":"[]","location":"121.453630,31.244710","tel":"95528","bigType":"金融保险服务","midType":"银行相关","smallType":"银行相关","gcj_lng":121.45363,"gcj_lat":31.24471,"wgs84_loc":"121.449047,31.246596","wgs84Lng":"121.449047","wgs84Lat":"31.246596","__source_file__":"13-常用公服设施点/SHP/上海市_银行相关.shp"},"geometry":{"type":"Point","coordinates":[121.449047,31.246596]}},{"id":"13","type":"Feature","properties":{"id":"B001510D00","name":"中国光大银行(不夜城社区支行)","address":"天目中路383号海文大楼2层","type":"金融保险服务;银行相关;银行相关","typecode":160200,"pcode":310000,"pname":"上海市","citycode":21,"cityname":"上海市","adcode":310106,"adname":"静安区","business_a":"宝山路","location":"121.467399,31.244867","tel":"021-63541222;021-52981038","bigType":"金融保险服务","midType":"银行相关","smallType":"银行相关","gcj_lng":121.467399,"gcj_lat":31.244867,"wgs84_loc":"121.462855,31.246786","wgs84Lng":"121.462855","wgs84Lat":"31.246786","__source_file__":"13-常用公服设施点/SHP/上海市_银行相关.shp"},"geometry":{"type":"Point","coordinates":[121.462855,31.246786]}},{"id":"42","type":"Feature","properties":{"id":"B0FFGDYZ7O","name":"中国银行上海市分行外汇黄金交易中心","address":"圆明园路12号","type":"金融保险服务;银行相关;银行相关","typecode":160200,"pcode":310000,"pname":"上海市","citycode":21,"cityname":"上海市","adcode":310101,"adname":"黄浦区","business_a":"北京东路","location":"121.488414,31.239557","tel":"[]","bigType":"金融保险服务","midType":"银行相关","smallType":"银行相关","gcj_lng":121.488414,"gcj_lat":31.239557,"wgs84_loc":"121.48394,31.241537","wgs84Lng":"121.48394","wgs84Lat":"31.241537","__source_file__":"13-常用公服设施点/SHP/上海市_银行相关.shp"},"geometry":{"type":"Point","coordinates":[121.48394,31.241537]}},{"id":"82","type":"Feature","properties":{"id":"B0FFH0NYPR","name":"华夏银行融资部","address":"宝昌路附近","type":"金融保险服务;银行相关;银行相关","typecode":160200,"pcode":310000,"pname":"上海市","citycode":21,"cityname":"上海市","adcode":310106,"adname":"静安区","business_a":"和田","location":"121.470967,31.261825","tel":"021-60447417;15901904684","bigType":"金融保险服务","midType":"银行相关","smallType":"银行相关","gcj_lng":121.470967,"gcj_lat":31.261825,"wgs84_loc":"121.466432,31.263746","wgs84Lng":"121.466432","wgs84Lat":"31.263746","__source_file__":"13-常用公服设施点/SHP/上海市_银行相关.shp"},"geometry":{"type":"Point","coordinates":[121.466432,31.263746]}},{"id":"54","type":"Feature","properties":{"id":"B0FFG4GELC","name":"中国工商银行电子银行暨客户体验中心","address":"临平北路与四平路交叉口北100米","type":"金融保险服务;银行相关;银行相关","typecode":160200,"pcode":310000,"pname":"上海市","citycode":21,"cityname":"上海市","adcode":310109,"adname":"虹口区","business_a":"曲阳","location":"121.490690,31.264669","tel":"[]","bigType":"金融保险服务","midType":"银行相关","smallType":"银行相关","gcj_lng":121.49069,"gcj_lat":31.264669,"wgs84_loc":"121.486222,31.266645","wgs84Lng":"121.486222","wgs84Lat":"31.266645","__source_file__":"13-常用公服设施点/SHP/上海市_银行相关.shp"},"geometry":{"type":"Point","coordinates":[121.486222,31.266645]}},{"id":"107","type":"Feature","properties":{"id":"B0KGYGF1M0","name":"中国建设银行上海市分行数字化经营中心","address":"银建饭店四达路1号(邮电新村地铁站2号口步行290米)","type":"金融保险服务;银行相关;银行相关","typecode":160200,"pcode":310000,"pname":"上海市","citycode":21,"cityname":"上海市","adcode":310109,"adname":"虹口区","business_a":"曲阳","location":"121.491698,31.266431","tel":"[]","bigType":"金融保险服务","midType":"银行相关","smallType":"银行相关","gcj_lng":121.491698,"gcj_lat":31.266431,"wgs84_loc":"121.487234,31.268409","wgs84Lng":"121.487234","wgs84Lat":"31.268409","__source_file__":"13-常用公服设施点/SHP/上海市_银行相关.shp"},"geometry":{"type":"Point","coordinates":[121.487234,31.268409]}}],"name":"上海市_银行相关","crs":{"type":"name","properties":{"name":"urn:ogc:def:crs:OGC:1.3:CRS84"}}}