{"type":"FeatureCollection","features":[{"id":"17","type":"Feature","properties":{"id":"B00151914F","name":"上海长途汽车客运总站","address":"中兴路1666号","type":"交通设施服务;长途汽车站;长途汽车站","typecode":150400,"pcode":310000,"pname":"上海市","citycode":21,"cityname":"上海市","adcode":310106,"adname":"静安区","business_a":"和田","location":"121.454055,31.25196","tel":"021-66050000","bigType":"交通设施服务","midType":"长途汽车站","smallType":"长途汽车站","gcj_lng":121.454055,"gcj_lat":31.25196,"wgs84_loc":"121.449472,31.253844","wgs84Lng":"121.449472","wgs84Lat":"31.253844","__source_file__":"13-常用公服设施点/SHP/上海市_长途汽车站.shp"},"geometry":{"type":"Point","coordinates":[121.449472,31.253844]}},{"id":"62","type":"Feature","properties":{"id":"B0FFG26EVL","name":"上海长途汽车客运总站(出站口)","address":"中兴路1644号附近","type":"交通设施服务;长途汽车站;出站","typecode":150402,"pcode":310000,"pname":"上海市","citycode":21,"cityname":"上海市","adcode":310106,"adname":"静安区","business_a":"和田","location":"121.454819,31.252101","tel":"[]","bigType":"交通设施服务","midType":"长途汽车站","smallType":"出站","gcj_lng":121.454819,"gcj_lat":31.252101,"wgs84_loc":"121.450238,31.253987","wgs84Lng":"121.450238","wgs84Lat":"31.253987","__source_file__":"13-常用公服设施点/SHP/上海市_长途汽车站.shp"},"geometry":{"type":"Point","coordinates":[121.450238,31.253987]}},{"id":"20","type":"Feature","properties":{"id":"B0FFFDDBC2","name":"上海长途汽车客运总站(进站口)","address":"中兴路1692幢附近","type":"交通设施服务;长途汽车站;进站","typecode":150401,"pcode":310000,"pname":"上海市","citycode":21,"cityname":"上海市","adcode":310106,"adname":"静安区","business_a":"和田","location":"121.454675,31.252200","tel":"[]","bigType":"交通设施服务","midType":"长途汽车站","smallType":"进站","gcj_lng":121.454675,"gcj_lat":31.2522,"wgs84_loc":"121.450094,31.254085","wgs84Lng":"121.450094","wgs84Lat":"31.254085","__source_file__":"13-常用公服设施点/SHP/上海市_长途汽车站.shp"},"geometry":{"type":"Point","coordinates":[121.450094,31.254085]}},{"id":"19","type":"Feature","properties":{"id":"B0IB7A2K0O","name":"沪太长途汽车站(进站口)","address":"中山北路辅路与沪太路交叉口北约60米","type":"交通设施服务;长途汽车站;进站","typecode":150401,"pcode":310000,"pname":"上海市","citycode":21,"cityname":"上海市","adcode":310106,"adname":"静安区","business_a":"和田","location":"121.449951,31.258735","tel":"[]","bigType":"交通设施服务","midType":"长途汽车站","smallType":"进站","gcj_lng":121.449951,"gcj_lat":31.258735,"wgs84_loc":"121.445357,31.260607","wgs84Lng":"121.445357","wgs84Lat":"31.260607","__source_file__":"13-常用公服设施点/SHP/上海市_长途汽车站.shp"},"geometry":{"type":"Point","coordinates":[121.445357,31.260607]}},{"id":"6","type":"Feature","properties":{"id":"B0FFFWQG57","name":"沪太长途汽车站","address":"中山北路1015号","type":"交通设施服务;长途汽车站;长途汽车站","typecode":150400,"pcode":310000,"pname":"上海市","citycode":21,"cityname":"上海市","adcode":310106,"adname":"静安区","business_a":"和田","location":"121.449526,31.259458","tel":"[]","bigType":"交通设施服务","midType":"长途汽车站","smallType":"长途汽车站","gcj_lng":121.449526,"gcj_lat":31.259458,"wgs84_loc":"121.444931,31.261329","wgs84Lng":"121.444931","wgs84Lat":"31.261329","__source_file__":"13-常用公服设施点/SHP/上海市_长途汽车站.shp"},"geometry":{"type":"Point","coordinates":[121.444931,31.261329]}},{"id":"77","type":"Feature","properties":{"id":"B0K1OALTRV","name":"沪太长途汽车站(出站口)","address":"[]","type":"交通设施服务;长途汽车站;出站","typecode":150402,"pcode":310000,"pname":"上海市","citycode":21,"cityname":"上海市","adcode":310106,"adname":"静安区","business_a":"和田","location":"121.449224,31.259605","tel":"[]","bigType":"交通设施服务","midType":"长途汽车站","smallType":"出站","gcj_lng":121.449224,"gcj_lat":31.259605,"wgs84_loc":"121.444628,31.261475","wgs84Lng":"121.444628","wgs84Lat":"31.261475","__source_file__":"13-常用公服设施点/SHP/上海市_长途汽车站.shp"},"geometry":{"type":"Point","coordinates":[121.444628,31.261475]}},{"id":"15","type":"Feature","properties":{"id":"B00155FHGB","name":"上海中山客运站","address":"中山北路806号(大统路口)","type":"交通设施服务;长途汽车站;长途汽车站","typecode":150400,"pcode":310000,"pname":"上海市","citycode":21,"cityname":"上海市","adcode":310106,"adname":"静安区","business_a":"和田","location":"121.458722,31.259262","tel":"021-56559069;021-56557926","bigType":"交通设施服务","midType":"长途汽车站","smallType":"长途汽车站","gcj_lng":121.458722,"gcj_lat":31.259262,"wgs84_loc":"121.454151,31.261153","wgs84Lng":"121.454151","wgs84Lat":"31.261153","__source_file__":"13-常用公服设施点/SHP/上海市_长途汽车站.shp"},"geometry":{"type":"Point","coordinates":[121.454151,31.261153]}},{"id":"18","type":"Feature","properties":{"id":"B0H2D7E2U0","name":"上海中山客运站(进站口)","address":"中山北路806号","type":"交通设施服务;长途汽车站;进站","typecode":150401,"pcode":310000,"pname":"上海市","citycode":21,"cityname":"上海市","adcode":310106,"adname":"静安区","business_a":"和田","location":"121.458460,31.259714","tel":"[]","bigType":"交通设施服务","midType":"长途汽车站","smallType":"进站","gcj_lng":121.45846,"gcj_lat":31.259714,"wgs84_loc":"121.453888,31.261604","wgs84Lng":"121.453888","wgs84Lat":"31.261604","__source_file__":"13-常用公服设施点/SHP/上海市_长途汽车站.shp"},"geometry":{"type":"Point","coordinates":[121.453888,31.261604]}},{"id":"69","type":"Feature","properties":{"id":"B0FFG1V4DT","name":"上海中山客运站候车室","address":"中山北路与大统路交叉口西南60米","type":"交通设施服务;长途汽车站;候车室","typecode":150403,"pcode":310000,"pname":"上海市","citycode":21,"cityname":"上海市","adcode":310106,"adname":"静安区","business_a":"和田","location":"121.458427,31.259733","tel":"[]","bigType":"交通设施服务","midType":"长途汽车站","smallType":"候车室","gcj_lng":121.458427,"gcj_lat":31.259733,"wgs84_loc":"121.453855,31.261623","wgs84Lng":"121.453855","wgs84Lat":"31.261623","__source_file__":"13-常用公服设施点/SHP/上海市_长途汽车站.shp"},"geometry":{"type":"Point","coordinates":[121.453855,31.261623]}},{"id":"8","type":"Feature","properties":{"id":"B0FFHVSGDG","name":"北区汽车站候车厅","address":"共和新路1148号附近","type":"交通设施服务;长途汽车站;候车室","typecode":150403,"pcode":310000,"pname":"上海市","citycode":21,"cityname":"上海市","adcode":310106,"adname":"静安区","business_a":"和田","location":"121.460295,31.261317","tel":"[]","bigType":"交通设施服务","midType":"长途汽车站","smallType":"候车室","gcj_lng":121.460295,"gcj_lat":31.261317,"wgs84_loc":"121.455728,31.263211","wgs84Lng":"121.455728","wgs84Lat":"31.263211","__source_file__":"13-常用公服设施点/SHP/上海市_长途汽车站.shp"},"geometry":{"type":"Point","coordinates":[121.455728,31.263211]}},{"id":"16","type":"Feature","properties":{"id":"B00155IVC3","name":"北区汽车站","address":"共和新路1148号甲达誉商务楼","type":"交通设施服务;长途汽车站;长途汽车站","typecode":150400,"pcode":310000,"pname":"上海市","citycode":21,"cityname":"上海市","adcode":310106,"adname":"静安区","business_a":"和田","location":"121.460246,31.2614","tel":"[]","bigType":"交通设施服务","midType":"长途汽车站","smallType":"长途汽车站","gcj_lng":121.460246,"gcj_lat":31.2614,"wgs84_loc":"121.455679,31.263294","wgs84Lng":"121.455679","wgs84Lat":"31.263294","__source_file__":"13-常用公服设施点/SHP/上海市_长途汽车站.shp"},"geometry":{"type":"Point","coordinates":[121.455679,31.263294]}}],"name":"上海市_长途汽车站","crs":{"type":"name","properties":{"name":"urn:ogc:def:crs:OGC:1.3:CRS84"}}}