{"type":"FeatureCollection","features":[{"id":"12","type":"Feature","properties":{"OBJECTID":57,"osm_id":"39961770","code":7202,"fclass":"park","name":"复兴公园","Shape_Leng":0.011324353601,"Shape_Area":6.92054510212e-06,"__source_file__":"13-常用公服设施点/SHP/上海市_功能区.shp"},"geometry":{"type":"Polygon","coordinates":[[[121.46463790001917,31.220253299750027],[121.46500199954266,31.220370899597413],[121.46503130035433,31.220380999883275],[121.4655320468174,31.21937189699511],[121.4641492265292,31.21924943018647],[121.46306800982691,31.219244483050545],[121.46302390023288,31.21928739999356],[121.46291789984127,31.21924949986459],[121.46275700033539,31.219657800167397],[121.46309630015423,31.21977139983028],[121.46311239981742,31.21980009989477],[121.46309170012194,31.22010099956151],[121.46344999991766,31.22025389959782],[121.46347989967774,31.220233299727056],[121.46370149982442,31.220317499652936],[121.46367570007351,31.220368199832592],[121.46368729952928,31.220437899989122],[121.46374600007789,31.220501199670707],[121.46452650009792,31.22076959963738],[121.46468989971913,31.22046429958783],[121.46457060015314,31.22041789996615],[121.46463790001917,31.220253299750027]]]}},{"id":"82","type":"Feature","properties":{"OBJECTID":355,"osm_id":"72233363","code":7202,"fclass":"park","name":"淮茂绿地","Shape_Leng":0.00538739047127,"Shape_Area":1.80349612619e-06,"__source_file__":"13-常用公服设施点/SHP/上海市_功能区.shp"},"geometry":{"type":"Polygon","coordinates":[[[121.45593120979119,31.219681440083917],[121.45524230975182,31.219805655921324],[121.45516409984339,31.219945499585208],[121.455111674764,31.220039306968488],[121.45508340007893,31.220089900128812],[121.45516500006477,31.22010480009652],[121.45520109975098,31.220111400221015],[121.45521649974171,31.22022149972247],[121.4550808999636,31.220572999744206],[121.45502340000996,31.220638299517987],[121.45497479974722,31.220771699554348],[121.45497100011164,31.22089289938782],[121.45502180191465,31.221032155809382],[121.45504440007903,31.22109410021261],[121.45507720015269,31.221131899617546],[121.45525079988454,31.22116800020308],[121.45530290030865,31.221178800161567],[121.45558699974026,31.221237800184383],[121.45566780022887,31.221254599520194],[121.45572780029784,31.221267100096668],[121.45579219985018,31.22126159984299],[121.45587976593856,31.221237071733526],[121.45590180022793,31.221230899686304],[121.45605149957714,31.2211481998296],[121.45645739958934,31.219986899875607],[121.45647409999981,31.21990780000499],[121.45593120979119,31.219681440083917]]]}},{"id":"642","type":"Feature","properties":{"OBJECTID":5234,"osm_id":"449056342","code":7202,"fclass":"park","name":"玉兰园","Shape_Leng":0.00253687194388,"Shape_Area":3.95168944234e-07,"__source_file__":"13-常用公服设施点/SHP/上海市_功能区.shp"},"geometry":{"type":"Polygon","coordinates":[[[121.46662999997454,31.220171699764194],[121.4660728996447,31.220212199833213],[121.46617940005933,31.220926400033363],[121.46672659975286,31.220871299470957],[121.46662999997454,31.220171699764194]]]}},{"id":"393","type":"Feature","properties":{"OBJECTID":1373,"osm_id":"10369752","code":7202,"fclass":"park","name":"太平桥公园","Shape_Leng":0.0138044797732,"Shape_Area":2.38219219747e-06,"__source_file__":"13-常用公服设施点/SHP/上海市_功能区.shp"},"geometry":{"type":"MultiPolygon","coordinates":[[[[121.47549300040168,31.222113899936573],[121.47550559990361,31.22205599978463],[121.47545139956253,31.22200099994626],[121.47531090027792,31.221917200218684],[121.47509120039865,31.221825199573345],[121.47455050010558,31.221620100187522],[121.47446459956166,31.22164149955563],[121.47439099994472,31.22168199962465],[121.47433049985273,31.221844299374993],[121.47429399996815,31.221945500084814],[121.47427480034185,31.222069899706185],[121.4743503002262,31.22213099964597],[121.47442520026289,31.22215170024083],[121.47451750038238,31.222148299904177],[121.47457489961198,31.222178099839482],[121.47459269989326,31.2222231999408],[121.47471129978669,31.22227240005128],[121.47477120003089,31.222233400051437],[121.47483129992463,31.22222639972864],[121.4748812995324,31.2222421000929],[121.4749216997767,31.22230899976057],[121.47490989977211,31.222365300018623],[121.47495509969815,31.222395599977006],[121.4750145997441,31.22240790000461],[121.47507469963773,31.22242399966791],[121.47513650014946,31.222461099400277],[121.47517600017238,31.22249250012885],[121.47522449971098,31.222503699386266],[121.47528120016727,31.222490799510865],[121.47535410011164,31.22239409990783],[121.47543859951179,31.22224000017593],[121.47549300040168,31.222113899936573]]],[[[121.47161000030133,31.22226989993601],[121.47150729952227,31.222272999899076],[121.47147059998827,31.222194599701083],[121.4715292996375,31.222003199687947],[121.47163570022747,31.221852600117472],[121.47171639999192,31.221777299882547],[121.47167599974762,31.22169259993359],[121.47161940001536,31.22158980022914],[121.47162829970637,31.221469800091256],[121.47172009980284,31.221441500225126],[121.47184849960865,31.221466599404096],[121.47190720015726,31.22156079979112],[121.47199529954355,31.22171770001188],[121.47213100004569,31.221767900168516],[121.47224840024353,31.221771000131582],[121.47229980009581,31.22172709972591],[121.47238419967118,31.22153569971283],[121.4724979000581,31.221485499556195],[121.47269240003425,31.221529399961867],[121.47298590007927,31.221636100026046],[121.47313179979278,31.22163989966168],[121.47322159979706,31.221616199827793],[121.47326080034577,31.221537500155534],[121.47326030032264,31.221424100142144],[121.47337430018388,31.221322399409246],[121.47358249953277,31.221309700082656],[121.47373050006263,31.221366100165426],[121.47378349980875,31.22141929956109],[121.47386409974843,31.221442899570206],[121.47398159977104,31.221529599611358],[121.47400919996471,31.221572900169235],[121.47408810018578,31.22160220008152],[121.47412200013025,31.221681200127364],[121.47411740009795,31.221767900168516],[121.47417499987637,31.221783599633454],[121.47428629997285,31.221530099634435],[121.47347840030795,31.2210892996315],[121.47145200020975,31.220646899734675],[121.47121209975865,31.221516399362372],[121.47160619976637,31.221610999947757],[121.47137340036215,31.222535199939557],[121.47168400011662,31.22249229958004],[121.47163930021361,31.222385999714163],[121.4716539996324,31.22231379944236],[121.47161000030133,31.22226989993601]]]]}},{"id":"489","type":"Feature","properties":{"OBJECTID":2572,"osm_id":"372180379","code":7202,"fclass":"park","name":null,"Shape_Leng":0.0022577550514,"Shape_Area":3.32525979272e-07,"__source_file__":"13-常用公服设施点/SHP/上海市_功能区.shp"},"geometry":{"type":"Polygon","coordinates":[[[121.46745619994374,31.22330490000121],[121.46740260034983,31.223330099904217],[121.46736499969506,31.223390899470473],[121.46734759961214,31.223564099903342],[121.46724570012907,31.223837000077538],[121.46725240007822,31.223888599579254],[121.46770969994282,31.224074399513995],[121.46774190016868,31.2240458001736],[121.46789209954079,31.223480400000483],[121.4678559000298,31.223417299968446],[121.46745619994374,31.22330490000121]]]}},{"id":"679","type":"Feature","properties":{"OBJECTID":6037,"osm_id":"499566575","code":7202,"fclass":"park","name":"淮海公园","Shape_Leng":0.00670438670677,"Shape_Area":2.27337287647e-06,"__source_file__":"13-常用公服设施点/SHP/上海市_功能区.shp"},"geometry":{"type":"Polygon","coordinates":[[[121.47268300032022,31.223837500100615],[121.47253280004873,31.22444300014439],[121.47268300032022,31.22477329954819],[121.47219489957502,31.2259796996035],[121.47298880039284,31.226277899505533],[121.4732945995662,31.225644899992176],[121.47393830011254,31.224252600177408],[121.47383100020056,31.224167799504414],[121.47268300032022,31.223837500100615]]]}},{"id":"791","type":"Feature","properties":{"OBJECTID":8103,"osm_id":"10556182","code":7202,"fclass":"park","name":"延中公园","Shape_Leng":0.0470403338275,"Shape_Area":1.37225928619e-05,"__source_file__":"13-常用公服设施点/SHP/上海市_功能区.shp"},"geometry":{"type":"MultiPolygon","coordinates":[[[[121.462828099837,31.223814099740935],[121.46253030013327,31.223744100110196],[121.46247399987521,31.2238736996116],[121.4621736002315,31.22380150023912],[121.46204080004293,31.224720100152524],[121.4621521001394,31.22486580021655],[121.46269400012807,31.225049199860734],[121.4628120001737,31.225029699860784],[121.46284950010443,31.224996499588826],[121.46295010006713,31.22394830017396],[121.46290319952311,31.223876000077382],[121.462828099837,31.223814099740935]]],[[[121.46538019953664,31.22513299958831],[121.46558939983095,31.224910500119563],[121.46561089992315,31.22484740008747],[121.46560679991399,31.22469140008809],[121.46545659964238,31.22446779984915],[121.46530779961529,31.224354300010987],[121.46485580035494,31.224231499384246],[121.46420270009457,31.22413519997957],[121.46329480031488,31.22396320014161],[121.46320889977096,31.223973500077022],[121.46312309995119,31.224042300012172],[121.46303329994691,31.225053799892976],[121.46306409992837,31.225146699860375],[121.46313249966522,31.22520639955576],[121.4639236998189,31.22543569969781],[121.46397740013697,31.225165099989397],[121.46499660001314,31.22519259945892],[121.46495099988874,31.22551140013104],[121.46499660001314,31.225495399393196],[121.46538019953664,31.22513299958831]]],[[[121.46215620014857,31.225401299730265],[121.46252360018411,31.225436899393458],[121.46272609962989,31.225464399762302],[121.46279319984637,31.22545059966552],[121.4628401003904,31.225390999794854],[121.46284950010443,31.225315299361625],[121.46281999964333,31.225261399394128],[121.46273960025246,31.225215499795524],[121.46214829960445,31.2250522998238],[121.46197660014002,31.225006400225254],[121.46157959981872,31.224942199423026],[121.45892549991197,31.224879499589292],[121.45885169974622,31.224925400087216],[121.45881550023523,31.22501019986089],[121.45883829984768,31.225412799361266],[121.45883839967246,31.22541979968406],[121.45890530023951,31.225480399600826],[121.45906629957017,31.22553209982658],[121.45925799995678,31.225558399600516],[121.45983870029579,31.225565300098594],[121.46033230039541,31.22552630009875],[121.46164920015053,31.225403600196046],[121.46215620014857,31.225401299730265]]],[[[121.46310569986827,31.226123799773575],[121.46301720028362,31.22616969937218],[121.46309229996973,31.2272980994278],[121.46309229996973,31.227376099427488],[121.46312450019559,31.22742199992541],[121.4632076002506,31.227438099588653],[121.46337119952125,31.22724080002297],[121.46351610008799,31.227050400055987],[121.4635937997142,31.22692200025017],[121.46363939983848,31.226697199416265],[121.4635751001108,31.226488500044297],[121.46341679964564,31.226295799611535],[121.46320489958646,31.226153599708937],[121.46310569986827,31.226123799773575]]],[[[121.46284149973553,31.226247699371868],[121.46277309999857,31.226120399436923],[121.46265509995294,31.226033199372694],[121.46237339991251,31.225993099501977],[121.46237609967727,31.22631529961143],[121.46189059977144,31.226318799772855],[121.4618812000574,31.225970100239977],[121.45990850027715,31.22609629940473],[121.45926610015044,31.226110099501568],[121.4590274002943,31.226129499676745],[121.45892010038244,31.226197199741023],[121.45889329968611,31.22630930023405],[121.45937750007158,31.22631019955611],[121.46027609996213,31.226311900174096],[121.46074319973889,31.226312799496156],[121.46073880025551,31.22675599978959],[121.46072130034781,31.227263300161212],[121.4627062003309,31.227483500063556],[121.4629286997997,31.22731189952458],[121.46284149973553,31.226247699371868]]],[[[121.46610169953385,31.225541200066402],[121.46598099972346,31.225545800098644],[121.46588980037404,31.225603200227567],[121.46573960010255,31.22575909950291],[121.46577180032841,31.22626139964393],[121.46588439994514,31.226394500206084],[121.46601060000921,31.22651100018254],[121.46626259993911,31.22660090001159],[121.46688219955388,31.2268370997524],[121.46789880038943,31.22724540005521],[121.46845399955248,31.22749769945932],[121.4685640001286,31.227454099427177],[121.46878660032144,31.226951800185475],[121.468767799994,31.226871499720005],[121.46828769961769,31.226692599384023],[121.46825279962707,31.22660550004383],[121.46834399987574,31.226389900173785],[121.46773789998417,31.22610089943703],[121.46786929992834,31.225805000000776],[121.46728189964006,31.225690299567702],[121.46610169953385,31.225541200066402]]],[[[121.46496439978728,31.22685549988148],[121.46470159989894,31.226896799447786],[121.46444680037962,31.22700229981632],[121.4639747003722,31.227367000087042],[121.46393180001257,31.227465599957497],[121.46396400023843,31.227545899523705],[121.46400729989705,31.2275882998602],[121.4651414996805,31.227708700196388],[121.46546870002055,31.227778699827184],[121.46556529979875,31.227795899361297],[121.46562560024131,31.227758000131644],[121.46564439966937,31.227686899730713],[121.46570289966917,31.22709219964537],[121.46569800016266,31.226994199622652],[121.46549280005274,31.22691969978439],[121.46521660026599,31.22685779944794],[121.46496439978728,31.22685549988148]]]]}},{"id":"555","type":"Feature","properties":{"OBJECTID":3530,"osm_id":"407875359","code":7202,"fclass":"park","name":"延中广场公园","Shape_Leng":0.00828532883988,"Shape_Area":4.27474029499e-06,"__source_file__":"13-常用公服设施点/SHP/上海市_功能区.shp"},"geometry":{"type":"Polygon","coordinates":[[[121.4696771000182,31.226387599708005],[121.46949199975609,31.226479299979758],[121.46898509958271,31.227593999763315],[121.46901989974867,31.227722499393906],[121.47137489953207,31.228642200077502],[121.47145810031111,31.228605499644118],[121.47210990015185,31.22731880002266],[121.47207769992599,31.227215600119905],[121.4705809996135,31.226573399642746],[121.4696771000182,31.226387599708005]]]}},{"id":"317","type":"Feature","properties":{"OBJECTID":902,"osm_id":"178702679","code":7202,"fclass":"park","name":"音乐广场","Shape_Leng":0.00822078339381,"Shape_Area":4.18160319439e-06,"__source_file__":"13-常用公服设施点/SHP/上海市_功能区.shp"},"geometry":{"type":"Polygon","coordinates":[[[121.47259530023302,31.22760560011841],[121.4725652997488,31.227608899730967],[121.47252240028865,31.227624999394266],[121.47248540038095,31.22766289952324],[121.47246929981839,31.22769499992438],[121.47238169955585,31.22790020003424],[121.47233930011862,31.22799870007998],[121.47230509980056,31.228088299535443],[121.47219779988859,31.228278599677708],[121.4719248997144,31.228720299901966],[121.47187059954854,31.22880159951427],[121.47185990031426,31.22884969975388],[121.47186319992682,31.228878499643088],[121.4718847000189,31.22891520007647],[121.4719303001433,31.228961099675075],[121.47208049951553,31.22906429957783],[121.47232719974056,31.22924089944803],[121.47275890040294,31.22955739965431],[121.47301109998239,31.229761499893357],[121.47313980016168,31.229850999524047],[121.47329270019804,31.22993349973126],[121.47365479962934,31.230146800034845],[121.47373529974436,31.23018120000245],[121.47378619957351,31.23018120000245],[121.47382109956413,31.230174400228464],[121.47385329979,31.230162899698087],[121.47388199985448,31.230130999845812],[121.47440980027216,31.229365299968663],[121.4746258003405,31.229025299577984],[121.47483499973555,31.228692699708404],[121.47484839963397,31.2286582997408],[121.47483709965252,31.228631799418054],[121.47481079987858,31.228607899934673],[121.47469820026174,31.228552799372267],[121.47463920023893,31.228529899934983],[121.47433879969594,31.22840829990315],[121.47376420035766,31.228186899405955],[121.47344829999906,31.22803909942496],[121.47315320006021,31.227903700195668],[121.47298159952129,31.227814299490376],[121.47267259966077,31.227647899730812],[121.47259530023302,31.22760560011841]]]}},{"id":"641","type":"Feature","properties":{"OBJECTID":5233,"osm_id":"449054865","code":7202,"fclass":"park","name":null,"Shape_Leng":0.00301630356619,"Shape_Area":4.7880672211e-07,"__source_file__":"13-常用公服设施点/SHP/上海市_功能区.shp"},"geometry":{"type":"Polygon","coordinates":[[[121.4442334995764,31.22265589975001],[121.44405109997831,31.2230870994901],[121.44503820035277,31.223399099488915],[121.44512400017254,31.223357799922553],[121.44527419954477,31.22315589942525],[121.44470559958381,31.222793499620366],[121.4442334995764,31.22265589975001]]]}},{"id":"352","type":"Feature","properties":{"OBJECTID":1070,"osm_id":"255628835","code":7202,"fclass":"park","name":"静安公园","Shape_Leng":0.00788092910959,"Shape_Area":2.61004841955e-06,"__source_file__":"13-常用公服设施点/SHP/上海市_功能区.shp"},"geometry":{"type":"Polygon","coordinates":[[[121.44277880030143,31.22420169944894],[121.44328469952927,31.224405100015417],[121.44365099969389,31.223581799460533],[121.44354290028468,31.223545199751243],[121.44298260016694,31.223397700143778],[121.44283160039811,31.223655999824587],[121.4423483002339,31.223423499894636],[121.44245400025193,31.22328149964153],[121.44234253066307,31.223269496890932],[121.44201488607233,31.223386771246194],[121.44094303673002,31.223879656712512],[121.44088709975995,31.224088699633853],[121.44123830030742,31.224250100062136],[121.44137039992404,31.224172600085467],[121.44155159982654,31.224221099624117],[121.44159319976643,31.224324400250907],[121.44158940013074,31.224408299803258],[121.4418188999224,31.224457400089022],[121.44198379961267,31.224514099646058],[121.44231429956528,31.22464909957631],[121.44250730037163,31.224731099760504],[121.44277880030143,31.22420169944894]]]}},{"id":"1728","type":"Feature","properties":{"OBJECTID":15321,"osm_id":"1119075350","code":7202,"fclass":"park","name":null,"Shape_Leng":0.000788351639396,"Shape_Area":2.8224720009e-08,"__source_file__":"13-常用公服设施点/SHP/上海市_功能区.shp"},"geometry":{"type":"Polygon","coordinates":[[[121.43882577540612,31.224910383634374],[121.43867690123452,31.22499567586533],[121.43867289963464,31.22500719972254],[121.43897409967508,31.225029899510332],[121.43898620005314,31.225001999842448],[121.43887919961549,31.224937700114822],[121.43882577540612,31.224910383634374]]]}},{"id":"607","type":"Feature","properties":{"OBJECTID":4926,"osm_id":"432114954","code":7202,"fclass":"park","name":null,"Shape_Leng":0.00281576641814,"Shape_Area":4.77981773146e-07,"__source_file__":"13-常用公服设施点/SHP/上海市_功能区.shp"},"geometry":{"type":"Polygon","coordinates":[[[121.4247154997206,31.24124330003832],[121.42557399974032,31.24151149945618],[121.4256663996847,31.241226199429605],[121.42568779995202,31.241143599397674],[121.4256663996847,31.241074799462467],[121.42560200013224,31.241005999527317],[121.42498999978875,31.24064779955637],[121.4247154997206,31.24124330003832]]]}},{"id":"44","type":"Feature","properties":{"OBJECTID":170,"osm_id":"50372100","code":7202,"fclass":"park","name":null,"Shape_Leng":0.00385751337484,"Shape_Area":5.16475326909e-07,"__source_file__":"13-常用公服设施点/SHP/上海市_功能区.shp"},"geometry":{"type":"Polygon","coordinates":[[[121.45021769998698,31.242349600154],[121.45006749971537,31.242395499752547],[121.44992799957754,31.242468799895278],[121.44969200038554,31.24279910019834],[121.44903520031426,31.243315099712106],[121.44916660025842,31.24336699958741],[121.44954380020624,31.243186699906346],[121.45032159956224,31.242827099690942],[121.4506375997455,31.24257989944283],[121.45047520017044,31.242450499590916],[121.45021769998698,31.242349600154]]]}},{"id":"46","type":"Feature","properties":{"OBJECTID":174,"osm_id":"50832821","code":7202,"fclass":"park","name":"长寿公园","Shape_Leng":0.0075338545125,"Shape_Area":3.39022782628e-06,"__source_file__":"13-常用公服设施点/SHP/上海市_功能区.shp"},"geometry":{"type":"Polygon","coordinates":[[[121.4350584002251,31.244289800234128],[121.43485460035959,31.244298999399348],[121.43341690006991,31.245060299793067],[121.4349081999535,31.246436199571008],[121.4364639002888,31.245216299792446],[121.43573430009792,31.24471179990968],[121.43518720022917,31.244308199463887],[121.4350584002251,31.244289800234128]]]}},{"id":"536","type":"Feature","properties":{"OBJECTID":3366,"osm_id":"405446775","code":7202,"fclass":"park","name":"普陀公园","Shape_Leng":0.00366070454717,"Shape_Area":6.96348361072e-07,"__source_file__":"13-常用公服设施点/SHP/上海市_功能区.shp"},"geometry":{"type":"Polygon","coordinates":[[[121.42355359991882,31.246498299556947],[121.42341419960565,31.246378999990895],[121.42314590036312,31.246388200055435],[121.42259340006547,31.246681700100453],[121.42370969974286,31.24727109958161],[121.424111499746,31.24664499966707],[121.42355359991882,31.246498299556947]]]}},{"id":"394","type":"Feature","properties":{"OBJECTID":1374,"osm_id":"292818815","code":7202,"fclass":"park","name":null,"Shape_Leng":0.00355759033555,"Shape_Area":8.23264004493e-07,"__source_file__":"13-常用公服设施点/SHP/上海市_功能区.shp"},"geometry":{"type":"Polygon","coordinates":[[[121.48161400028596,31.22957949959431],[121.48158799998623,31.230033699495664],[121.48161689970027,31.23023359990077],[121.4816861996585,31.230292899397853],[121.48237029954976,31.230514999567617],[121.4824627003934,31.230522400088716],[121.48254349998263,31.230492799802903],[121.48259260026839,31.2304459001582],[121.48261859966874,31.230374299734194],[121.48273690008796,31.229794200142294],[121.48272829987116,31.229754700119372],[121.48268779980219,31.229722699543004],[121.48161400028596,31.22957949959431]]]}},{"id":"349","type":"Feature","properties":{"OBJECTID":1052,"osm_id":"228110461","code":7202,"fclass":"park","name":"古城公园","Shape_Leng":0.007858467972,"Shape_Area":3.43634586714e-06,"__source_file__":"13-常用公服设施点/SHP/上海市_功能区.shp"},"geometry":{"type":"Polygon","coordinates":[[[121.48982810028667,31.230972099782605],[121.4898994003371,31.231097799823658],[121.49004697044268,31.231056426397128],[121.48950660518585,31.230487103791795],[121.48873296162003,31.229819844429258],[121.48846349959092,31.229838599671666],[121.48837910001555,31.229995999915502],[121.48825299977614,31.230045399675532],[121.48811070004888,31.23004959950947],[121.48802929971248,31.230683899442454],[121.48802450003075,31.231089199606913],[121.48813599977666,31.231261399993684],[121.48839480037975,31.231254100196622],[121.48911240001735,31.23123389962484],[121.48947040033875,31.231229299592542],[121.4894599996793,31.23113849954217],[121.48948829954543,31.231043200183592],[121.48967720034261,31.231002399740987],[121.48982810028667,31.230972099782605]]]}},{"id":"66","type":"Feature","properties":{"OBJECTID":249,"osm_id":"62072386","code":7202,"fclass":"park","name":null,"Shape_Leng":0.00679589914243,"Shape_Area":1.34698804957e-06,"__source_file__":"13-常用公服设施点/SHP/上海市_功能区.shp"},"geometry":{"type":"Polygon","coordinates":[[[121.48307710012818,31.230303200232584],[121.48301939962562,31.230461399973706],[121.4831160003032,31.23048529945703],[121.48309800037248,31.23064669988537],[121.48315350023393,31.230692399834425],[121.48314630026164,31.230760500097063],[121.48383400013904,31.230931099690565],[121.48442029965713,31.231013199699476],[121.48491980020867,31.231083200229534],[121.48522579993073,31.231172600035507],[121.48587969968844,31.231238700205893],[121.48589929951311,31.23092670020708],[121.4858155996103,31.23071690006492],[121.48570459988741,31.23068760015269],[121.48547770003586,31.230686600106537],[121.48547710018806,31.230645600014498],[121.4843320995468,31.23063659959945],[121.4842451998561,31.230456599392596],[121.48307710012818,31.230303200232584]]]}},{"id":"783","type":"Feature","properties":{"OBJECTID":7989,"osm_id":"12980921","code":7202,"fclass":"park","name":"滨江公园","Shape_Leng":0.0306603395561,"Shape_Area":8.47659320541e-06,"__source_file__":"13-常用公服设施点/SHP/上海市_功能区.shp"},"geometry":{"type":"Polygon","coordinates":[[[121.49278969998477,31.242540899442986],[121.49193139961449,31.241940100155546],[121.49151030016026,31.2415984000462],[121.49137890021609,31.241463099742305],[121.49133859979656,31.241389699774857],[121.49111870026786,31.240518200054964],[121.49109460023567,31.240376099977084],[121.49109460023567,31.240279699848315],[121.4911321001664,31.2400366994342],[121.49116700015702,31.23991969943461],[121.4913278996629,31.239545899823497],[121.49169739961542,31.238655499951392],[121.49177920015006,31.23852529970287],[121.49187160009433,31.2383980995927],[121.49195160018621,31.23827689975917],[121.49203160027821,31.238131500068732],[121.49228310018498,31.23823920017901],[121.49246570033188,31.238072599870634],[121.4930877002372,31.238335899781987],[121.4931072002372,31.238519299426173],[121.49314139965588,31.238536900057966],[121.49321879980778,31.238576699555097],[121.49438602277338,31.236725700771853],[121.49389823014431,31.235931134592565],[121.49358149998625,31.236216900089914],[121.49329079953088,31.23646839999674],[121.49317810008927,31.23656589999632],[121.49248049957544,31.237136299500662],[121.4918487995825,31.237729399692114],[121.49170439993816,31.237993199626487],[121.491739200104,31.238007499746345],[121.4917868003206,31.238026999746296],[121.49180120026529,31.23803290019822],[121.4917808000439,31.23806919953398],[121.49156449960208,31.2384538000029],[121.49154160016474,31.23844439938955],[121.49149369957468,31.238424699740165],[121.49141170028975,31.23839099944513],[121.49136129958436,31.23847979940325],[121.4910836995532,31.238356599477527],[121.49103059998231,31.238428199901534],[121.49135459963509,31.238583899527384],[121.49123229993074,31.238807399941606],[121.49099600036516,31.238720999374664],[121.49086070006138,31.23897619999167],[121.49080890001073,31.239171899663518],[121.4908316996233,31.23920750022603],[121.49073099983582,31.239637699919967],[121.49070429986364,31.240015899913885],[121.49072060007575,31.24034670024008],[121.49074520013096,31.24053369987041],[121.49069879960996,31.24054409963054],[121.49073890038005,31.240760900095495],[121.49079240014919,31.240942099997994],[121.49083779972477,31.24093440000263],[121.49101839977936,31.241346199567488],[121.49110390012493,31.241327900162503],[121.49143859991148,31.24197450012315],[121.49161099994774,31.242234799896153],[121.49179799957813,31.242389600199942],[121.49204960020893,31.242599699816367],[121.49221409970096,31.242733900249334],[121.49229039998204,31.242728300170995],[121.49236089963586,31.24277669988487],[121.49270330031709,31.24302149984237],[121.49301840027897,31.2432134997033],[121.49331259999656,31.243381500256078],[121.4935245998804,31.24303389969475],[121.49278969998477,31.242540899442986]]]}},{"id":"784","type":"Feature","properties":{"OBJECTID":7991,"osm_id":"744539221","code":7202,"fclass":"park","name":null,"Shape_Leng":0.00624455283772,"Shape_Area":1.49925243438e-06,"__source_file__":"13-常用公服设施点/SHP/上海市_功能区.shp"},"geometry":{"type":"Polygon","coordinates":[[[121.4943507998496,31.240884899518562],[121.49443840011213,31.24095469949981],[121.4944419002735,31.240928799924234],[121.49443129996462,31.240880900233435],[121.49437759964655,31.24083499973551],[121.49337119982113,31.240313900166427],[121.49334320032847,31.240305899797477],[121.49340390007,31.240367800133924],[121.4934833003141,31.240413699732528],[121.49369339993052,31.240511500105697],[121.49365840011512,31.240571399450573],[121.49338990032368,31.240443700216645],[121.4933268002917,31.240389800249147],[121.49326849994134,31.240339899566777],[121.49315869991415,31.2402160997932],[121.49299990032523,31.240134199433783],[121.49295320033002,31.2401163002271],[121.49285749987382,31.240124199871957],[121.49281780020135,31.24014619998718],[121.49243019959408,31.240725199708265],[121.4923765001754,31.240794999689513],[121.49236720028614,31.24083499973551],[121.49236720028614,31.24086489949559],[121.49239519977868,31.240900799532312],[121.49357010018002,31.241477399862163],[121.49361439988468,31.241485400231113],[121.49368209994907,31.241486299553117],[121.49370550030869,31.24147839990826],[121.49425970032496,31.241087499688433],[121.49418030008087,31.241002699914702],[121.49431809960072,31.24089189984136],[121.4943507998496,31.240884899518562]]]}},{"id":"22","type":"Feature","properties":{"OBJECTID":84,"osm_id":"47280263","code":7202,"fclass":"park","name":"东方明珠公园","Shape_Leng":0.00887431737863,"Shape_Area":2.97498911975e-06,"__source_file__":"13-常用公服设施点/SHP/上海市_功能区.shp"},"geometry":{"type":"Polygon","coordinates":[[[121.49698706277294,31.243406049950178],[121.49687489003803,31.24289735745195],[121.49661589980394,31.24271650016641],[121.49679319279008,31.242526868338],[121.49673453446849,31.24226085852577],[121.49670833789403,31.2421844943516],[121.49653910039922,31.2420537996432],[121.49649489961996,31.242040399744724],[121.4964491996709,31.242046900044443],[121.49641269978633,31.242073000168887],[121.49638699986019,31.242108400182588],[121.49631490031243,31.242242099693215],[121.4962247001099,31.24241239981245],[121.49610980002728,31.2425461002224],[121.4960231998109,31.24259209964572],[121.49591809964068,31.24263279936423],[121.49553669985892,31.24268010010661],[121.49544660038032,31.242687599553108],[121.49534760031156,31.24269209976063],[121.49525619951407,31.24268869942398],[121.49516290024769,31.24267919988523],[121.49508340017883,31.242664599391787],[121.49501089953344,31.24263789941955],[121.49492950009642,31.242605299894706],[121.49486230005516,31.242554499890332],[121.49398249959279,31.243205799707937],[121.49450519995503,31.24349800023259],[121.49485369983847,31.243614000186028],[121.49545280030657,31.24389809961764],[121.49551500011728,31.24391899986199],[121.49557510001091,31.243927699903452],[121.49605320029502,31.24341679954574],[121.49660989952736,31.243799800120712],[121.49698706277294,31.243406049950178]]]}},{"id":"316","type":"Feature","properties":{"OBJECTID":898,"osm_id":"178411796","code":7202,"fclass":"park","name":"黄浦公园","Shape_Leng":0.00713377265127,"Shape_Area":1.85900942485e-06,"__source_file__":"13-常用公服设施点/SHP/上海市_功能区.shp"},"geometry":{"type":"Polygon","coordinates":[[[121.48584529972084,31.244766699923332],[121.48585840014516,31.24481990021826],[121.48640819977868,31.24461609945348],[121.48645329987994,31.244599399942388],[121.48659890011925,31.244548199739654],[121.48662800038198,31.244538700200906],[121.48659849992089,31.24445899958323],[121.48658100001319,31.24440519944045],[121.48656960020696,31.244323200155634],[121.48663799994381,31.24431459993889],[121.48664939975004,31.24436010023851],[121.48668000008195,31.244410099846277],[121.48671859988349,31.24445809936185],[121.48678549955127,31.24449489961995],[121.48685629957868,31.24452709984581],[121.48693340025625,31.244531500228618],[121.48701050003456,31.244522900011873],[121.48707529978537,31.244501899942804],[121.48713959951294,31.244460499652405],[121.48718909999707,31.244406300210642],[121.48722450001071,31.2443387997958],[121.48723260020438,31.244268899989777],[121.48721799971099,31.244196799542692],[121.48719210013542,31.244140399459923],[121.4871554995267,31.244098299496954],[121.48705009988225,31.244031599478774],[121.48697839963347,31.244017499907727],[121.48689190014113,31.2440236000092],[121.48680039951887,31.244039900221253],[121.48676339961128,31.243983799612693],[121.48668739970378,31.243848699857665],[121.4868300996294,31.243759899899487],[121.48673730038615,31.24354409948063],[121.48661559963023,31.24329219937556],[121.48651870037781,31.242984999957855],[121.48648109972305,31.242998800054636],[121.48635770014778,31.24256539967348],[121.48601979967407,31.242611199447367],[121.48599480031987,31.242631999866944],[121.48598679995087,31.242642299802355],[121.48598139952207,31.2426652001389],[121.48598920024142,31.242780100221523],[121.48600000019997,31.242938499612137],[121.4859941995727,31.243128999403837],[121.48597690021381,31.243363399601265],[121.48595540012172,31.2434803996008],[121.4859386295642,31.24353133540285],[121.48590710023257,31.24362709971092],[121.4857757002884,31.243984899483564],[121.48566040000753,31.244374699832576],[121.48564430034423,31.24442979949572],[121.4856335003858,31.244512299702933],[121.48563820024276,31.24467019996979],[121.48564340012285,31.244712899780552],[121.48565870028881,31.244838699646323],[121.48584529972084,31.244766699923332]]]}},{"id":"1244","type":"Feature","properties":{"OBJECTID":9323,"osm_id":"12981054","code":7202,"fclass":"park","name":"上海船厂滨江绿地","Shape_Leng":0.0263345309273,"Shape_Area":4.04249447787e-06,"__source_file__":"13-常用公服设施点/SHP/上海市_功能区.shp"},"geometry":{"type":"Polygon","coordinates":[[[121.49721450024902,31.244660900080532],[121.49714299964978,31.244743899411503],[121.49694379981656,31.244618300094544],[121.49701540024057,31.244535299864253],[121.49705989959477,31.244491799656885],[121.49724363599277,31.24456958467444],[121.49718871253205,31.244320512094795],[121.49699009961341,31.244358799818826],[121.49685330013972,31.24437710012313],[121.49663649967476,31.24435689955135],[121.49644869964789,31.244288199440916],[121.49630079984206,31.244239500252775],[121.4957778000055,31.244058400175106],[121.49555519981266,31.24403309954795],[121.49509649970378,31.243815299936216],[121.49480449972793,31.243669000024397],[121.49447959985366,31.243558499425262],[121.49365919961247,31.243118599643708],[121.49362130038276,31.24312500011871],[121.49361360038745,31.24322870004454],[121.49368569993521,31.243363499425982],[121.49372319986583,31.243473599826814],[121.49359189974643,31.243483899762225],[121.49394920039538,31.243659399761555],[121.49404740006753,31.243707699650656],[121.49439680017224,31.243882900175777],[121.49486799995827,31.244077799450963],[121.49525730028427,31.244206299980817],[121.4956972998906,31.244359600215432],[121.49598979988946,31.244465400058232],[121.49604119974163,31.244476200016663],[121.49608679986602,31.244448400173553],[121.49621349995311,31.244499899850553],[121.49627640033566,31.244525400127145],[121.49639229956506,31.24457239959662],[121.49643899956027,31.244591399573494],[121.49657710035297,31.24464739945796],[121.49654369953214,31.244710499489997],[121.4966392003389,31.244721599822014],[121.49668590033411,31.24471480004803],[121.49674910019087,31.244705500158773],[121.49707330039257,31.244890800070436],[121.49733156321277,31.245043951122796],[121.49731707620205,31.24490262891695],[121.49726384941512,31.244661250588777],[121.49721450024902,31.244660900080532]]]}},{"id":"3","type":"Feature","properties":{"OBJECTID":32,"osm_id":"11764264","code":7202,"fclass":"park","name":null,"Shape_Leng":0.00339042094152,"Shape_Area":3.14926299738e-07,"__source_file__":"13-常用公服设施点/SHP/上海市_功能区.shp"},"geometry":{"type":"Polygon","coordinates":[[[121.48151669993581,31.24548879976834],[121.48145359990383,31.245612599541914],[121.48150890011573,31.245681399477064],[121.48177119998093,31.245743999486024],[121.48236399979885,31.245836899453423],[121.48280379975563,31.245827899937694],[121.4830498003081,31.245777199758038],[121.48298499965802,31.245673199458622],[121.48230499977603,31.245594699435856],[121.48151669993581,31.24548879976834]]]}},{"id":"531","type":"Feature","properties":{"OBJECTID":3358,"osm_id":"404709025","code":7202,"fclass":"park","name":"人民广场","Shape_Leng":0.0151337791058,"Shape_Area":1.20366639973e-05,"__source_file__":"13-常用公服设施点/SHP/上海市_功能区.shp"},"geometry":{"type":"Polygon","coordinates":[[[121.47105430021588,31.22920499941125],[121.47077939994938,31.229169200098568],[121.47060139983478,31.22927750005664],[121.47030770014032,31.229278000079717],[121.46956179973733,31.229222199844685],[121.46778400013159,31.229488099696084],[121.46742110030357,31.229743199589052],[121.46732010014262,31.22989709967146],[121.46740990824071,31.229956719327163],[121.46777288451108,31.230197682776918],[121.46819002784753,31.23047460561861],[121.46827513249139,31.230531102828195],[121.46850841033495,31.230685965185216],[121.46895059079714,31.23097950839764],[121.46934539497408,31.231241601418844],[121.46942923157383,31.231297256862945],[121.47199130025831,31.232998099682618],[121.47252769010083,31.232200988285058],[121.47255515000029,31.232160181547215],[121.47308295761252,31.23137582523418],[121.47314003578413,31.231291003876777],[121.47343369950568,31.23085459976005],[121.47346100022503,31.230811599575702],[121.47347280022962,31.23077249975114],[121.47343630034504,31.23069039974223],[121.47258200015926,31.230217399513435],[121.47105430021588,31.22920499941125]]]}},{"id":"392","type":"Feature","properties":{"OBJECTID":1372,"osm_id":"292718782","code":7202,"fclass":"park","name":"延福绿地","Shape_Leng":0.00513108228507,"Shape_Area":1.59486789128e-06,"__source_file__":"13-常用公服设施点/SHP/上海市_功能区.shp"},"geometry":{"type":"Polygon","coordinates":[[[121.47785999983921,31.231191899486646],[121.47725580021506,31.23208490019806],[121.47780819978868,31.232343100054095],[121.47792469976514,31.232357900196973],[121.47862810000686,31.232616199877782],[121.47873160028314,31.23264199962864],[121.47877909977569,31.232608800256003],[121.47923650036421,31.23194459966362],[121.47923650036421,31.231889299451666],[121.47920199967257,31.231841299936093],[121.47785999983921,31.231191899486646]]]}},{"id":"11","type":"Feature","properties":{"OBJECTID":56,"osm_id":"39763744","code":7202,"fclass":"park","name":"人民公园","Shape_Leng":0.0135042978541,"Shape_Area":9.85462154671e-06,"__source_file__":"13-常用公服设施点/SHP/上海市_功能区.shp"},"geometry":{"type":"Polygon","coordinates":[[[121.47124930021505,31.233797999877822],[121.47113690024776,31.233738400007212],[121.47100250016535,31.233665099864538],[121.4708773999721,31.233801400214475],[121.47034749963746,31.23346430013737],[121.47009000035325,31.2337506002101],[121.46759200027066,31.232149399575178],[121.46715540010166,31.23239779951888],[121.46672020017718,31.233063399456398],[121.46656999990569,31.233188899847903],[121.46618140015153,31.233322100234773],[121.46657919997017,31.234217799811688],[121.46676569957742,31.234514899842793],[121.46723149983393,31.234976000242284],[121.4673278999627,31.23503269979932],[121.46766750015502,31.235187799577318],[121.46783280004377,31.235248399494083],[121.47019649986862,31.23557119945133],[121.47035139999718,31.23553900012479],[121.47082201702256,31.234490135211615],[121.47083362457215,31.234464264414328],[121.4708349996356,31.234461199524787],[121.47124930021505,31.233797999877822]]]}},{"id":"700","type":"Feature","properties":{"OBJECTID":6435,"osm_id":"558913296","code":7202,"fclass":"park","name":null,"Shape_Leng":0.00544535586576,"Shape_Area":1.09549241469e-06,"__source_file__":"13-常用公服设施点/SHP/上海市_功能区.shp"},"geometry":{"type":"Polygon","coordinates":[[[121.46779249962424,31.235404100019252],[121.46776910016388,31.235409299899345],[121.46777099953204,31.235429299922316],[121.46801779958184,31.235605899792517],[121.46841739984325,31.235929299597558],[121.46848989958926,31.235979800127723],[121.46947149971004,31.236293999868224],[121.46972099952461,31.236367300010954],[121.46983360004072,31.236367300010954],[121.46990340002196,31.23633519960981],[121.46995169991112,31.23627330017274],[121.47016359997019,31.235805499823982],[121.47015680019626,31.235779799897898],[121.47012590039003,31.235762099441388],[121.4700833004041,31.235751500031768],[121.47003470014135,31.235740999547545],[121.46991200023865,31.235722099395446],[121.46966999987069,31.235683899792207],[121.46779249962424,31.235404100019252]]]}},{"id":"136","type":"Feature","properties":{"OBJECTID":509,"osm_id":"137191767","code":7202,"fclass":"park","name":"世纪广场","Shape_Leng":0.00421126892387,"Shape_Area":8.4668380294e-07,"__source_file__":"13-常用公服设施点/SHP/上海市_功能区.shp"},"geometry":{"type":"Polygon","coordinates":[[[121.47511159972066,31.236858199446374],[121.47502444192446,31.236911077784043],[121.47450412476564,31.237226755110726],[121.47442400056718,31.23727536616525],[121.47438529644432,31.237298848363196],[121.47420110000087,31.237410599919315],[121.47440212725644,31.237448096252706],[121.47451338778274,31.237468849008224],[121.47575800003176,31.23770100000121],[121.47596159305317,31.237304790183998],[121.47602880028899,31.237173999980143],[121.47549859958076,31.2369913998333],[121.47540130012999,31.236957910878914],[121.47515841033248,31.23687431080083],[121.47511159972066,31.236858199446374]]]}},{"id":"34","type":"Feature","properties":{"OBJECTID":129,"osm_id":"50258395","code":7202,"fclass":"park","name":"大观园绿地","Shape_Leng":0.00462915386861,"Shape_Area":9.34997921115e-07,"__source_file__":"13-常用公服设施点/SHP/上海市_功能区.shp"},"geometry":{"type":"Polygon","coordinates":[[[121.4674399995564,31.239083199530057],[121.46728980018418,31.23912910002798],[121.46695360032845,31.239646800159733],[121.46672869966983,31.240050100231997],[121.46774130032077,31.239881699480918],[121.4686416997547,31.23973450024704],[121.46868460011422,31.23968869957389],[121.46866310002213,31.239652000039825],[121.4674399995564,31.239083199530057]]]}},{"id":"364","type":"Feature","properties":{"OBJECTID":1100,"osm_id":"260232833","code":7202,"fclass":"park","name":"九子公园","Shape_Leng":0.00344724356606,"Shape_Area":6.50779706478e-07,"__source_file__":"13-常用公服设施点/SHP/上海市_功能区.shp"},"geometry":{"type":"Polygon","coordinates":[[[121.45943130021442,31.241838299597873],[121.4590022003913,31.242897799893626],[121.45950639990053,31.242844999796944],[121.45996569985721,31.24275719988492],[121.45987069997284,31.24234390025083],[121.45984969990377,31.242278599577787],[121.45991410035549,31.241941499500626],[121.45943130021442,31.241838299597873]]]}},{"id":"43","type":"Feature","properties":{"OBJECTID":169,"osm_id":"50371371","code":7202,"fclass":"park","name":null,"Shape_Leng":0.0097210569796,"Shape_Area":3.76692337574e-06,"__source_file__":"13-常用公服设施点/SHP/上海市_功能区.shp"},"geometry":{"type":"Polygon","coordinates":[[[121.45595019994187,31.246889199776774],[121.45648079994908,31.246946599905698],[121.45671599964373,31.24695479992414],[121.45688030038559,31.24714689960979],[121.45719619984482,31.246706499805157],[121.45732420035165,31.246508499667584],[121.45730079999203,31.246255899889945],[121.45726380008432,31.245906300135687],[121.45726029992295,31.24535899971812],[121.45721369975251,31.24527759938178],[121.45701399989628,31.245285099727596],[121.45683620033049,31.24542709998076],[121.45664819975468,31.24553179995263],[121.45627369957163,31.245784700103854],[121.45610169973372,31.245939200034115],[121.45605509956329,31.24600399978482],[121.45604049996916,31.246077499576984],[121.45591470010334,31.246229699940727],[121.45506709986682,31.24624800024509],[121.45442340021975,31.246284699779096],[121.45448819997057,31.247658800013653],[121.45506440010206,31.24762390002303],[121.4554748003219,31.247541299991042],[121.45608229955849,31.24735709995025],[121.45596219959589,31.247133399886536],[121.45595019994187,31.246889199776774]]]}},{"id":"52","type":"Feature","properties":{"OBJECTID":198,"osm_id":"51964858","code":7202,"fclass":"park","name":"交通公园","Shape_Leng":0.00681910575527,"Shape_Area":1.23163546636e-06,"__source_file__":"13-常用公服设施点/SHP/上海市_功能区.shp"},"geometry":{"type":"Polygon","coordinates":[[[121.46420229989633,31.249646499586333],[121.46306069959167,31.24926409975842],[121.46183760002532,31.24861289976559],[121.46165709979539,31.248651499567075],[121.46178019989634,31.248905999612248],[121.46200359958652,31.24911549938082],[121.46242639965863,31.2494071998824],[121.46239759976947,31.24955709978036],[121.46307360036644,31.249897199995814],[121.46324350028738,31.24971650011645],[121.46402100016905,31.2502052996349],[121.4642186999331,31.250045900198188],[121.46397840018312,31.24984879938262],[121.46420229989633,31.249646499586333]]]}},{"id":"51","type":"Feature","properties":{"OBJECTID":197,"osm_id":"51964785","code":7202,"fclass":"park","name":null,"Shape_Leng":0.00202821112042,"Shape_Area":2.50366641185e-07,"__source_file__":"13-常用公服设施点/SHP/上海市_功能区.shp"},"geometry":{"type":"Polygon","coordinates":[[[121.47346999974081,31.25373610004101],[121.47313739987112,31.254093799988937],[121.47316540026304,31.254109499453875],[121.47361429956038,31.254360699886433],[121.473922699573,31.254023099786252],[121.47353600008637,31.253777899630393],[121.47346999974081,31.25373610004101]]]}},{"id":"162","type":"Feature","properties":{"OBJECTID":608,"osm_id":"157359668","code":7202,"fclass":"park","name":null,"Shape_Leng":0.00669230289675,"Shape_Area":3.15582381216e-07,"__source_file__":"13-常用公服设施点/SHP/上海市_功能区.shp"},"geometry":{"type":"Polygon","coordinates":[[[121.42914540004028,31.247617999571048],[121.42911939974056,31.24789940013727],[121.42882069981556,31.25089019992282],[121.428914599829,31.250896300024294],[121.42894169999954,31.250518199855094],[121.42909789964847,31.2491034997268],[121.42922059955106,31.2481227998274],[121.42923329977702,31.247981399422088],[121.42922449991079,31.247841799459536],[121.42914540004028,31.247617999571048]]]}},{"id":"161","type":"Feature","properties":{"OBJECTID":607,"osm_id":"157303903","code":7202,"fclass":"park","name":null,"Shape_Leng":0.000873771954864,"Shape_Area":4.29350397482e-08,"__source_file__":"13-常用公服设施点/SHP/上海市_功能区.shp"},"geometry":{"type":"Polygon","coordinates":[[[121.42864329954875,31.2508432993788],[121.42860850028217,31.250896099475483],[121.42850380031018,31.25091670024557],[121.4284588000337,31.250980499950174],[121.42861919951656,31.251145999488358],[121.42869959980669,31.251006199876258],[121.42871470032321,31.250844299424955],[121.42864329954875,31.2508432993788]]]}},{"id":"104","type":"Feature","properties":{"OBJECTID":432,"osm_id":"101312398","code":7202,"fclass":"park","name":"梦清园","Shape_Leng":0.0142466440272,"Shape_Area":7.0465076112e-06,"__source_file__":"13-常用公服设施点/SHP/上海市_功能区.shp"},"geometry":{"type":"Polygon","coordinates":[[[121.43774799997027,31.251564900100107],[121.4366425002512,31.25157539968501],[121.43585320036493,31.251493699874402],[121.4357148999228,31.251781799490516],[121.43551970027397,31.25192749955454],[121.43533340031627,31.251888100255655],[121.4351676004045,31.251491099934356],[121.43523390022438,31.251214599774016],[121.43460320027748,31.2506730999836],[121.43393019981897,31.2506766999698],[121.43434830003412,31.2516344995326],[121.4345057002779,31.25154549992493],[121.43480269958502,31.25184560009444],[121.43488559999048,31.252093699664556],[121.4346384995672,31.252180799904067],[121.43466189992682,31.252255499391822],[121.43496850039605,31.252271000106646],[121.4350349000407,31.25259709967645],[121.43509290001737,31.252994199822524],[121.43493409952919,31.253274299969007],[121.4351303999481,31.253903900044975],[121.43537489953201,31.254472699655423],[121.43568450013959,31.25471679994041],[121.43589779954391,31.25471870020789],[121.43612110030858,31.25467589967309],[121.43638840040444,31.254530099784347],[121.43669679951779,31.25419630021912],[121.43705629990836,31.253567800014025],[121.43722640037811,31.252692199385535],[121.43734279963053,31.252106300065748],[121.43774799997027,31.251564900100107]]]}},{"id":"1123","type":"Feature","properties":{"OBJECTID":9072,"osm_id":"868712055","code":7202,"fclass":"park","name":null,"Shape_Leng":0.0132609184502,"Shape_Area":3.4450994463e-06,"__source_file__":"13-常用公服设施点/SHP/上海市_功能区.shp"},"geometry":{"type":"Polygon","coordinates":[[[121.43512570009102,31.257400399408937],[121.4350954001327,31.257457199690066],[121.43497909980567,31.25741889936279],[121.43500469990704,31.25735499983341],[121.43430009996973,31.25709809949774],[121.43295059979039,31.256579199670398],[121.43263940018824,31.25653180000262],[121.43261470030825,31.25667669966998],[121.43271640014177,31.25688740003352],[121.43296079990102,31.257073600166564],[121.4329972997856,31.257320299492278],[121.43290789997968,31.257459299607035],[121.43273719966214,31.257643499647827],[121.43244850019823,31.25781379976712],[121.43171670026561,31.257987600047727],[121.43175739998412,31.2581892001715],[121.43035070022472,31.258491500082698],[121.43039139994323,31.258710499390077],[121.43225419987152,31.258346499691243],[121.4357636000102,31.257688099726067],[121.43572350013949,31.257617000224457],[121.43512570009102,31.257400399408937]]]}},{"id":"53","type":"Feature","properties":{"OBJECTID":222,"osm_id":"52205482","code":7202,"fclass":"park","name":null,"Shape_Leng":0.00231136805977,"Shape_Area":2.59188624511e-07,"__source_file__":"13-常用公服设施点/SHP/上海市_功能区.shp"},"geometry":{"type":"Polygon","coordinates":[[[121.44663299961326,31.259163099397597],[121.44653639983505,31.25937399941057],[121.44677239992643,31.259484099811402],[121.44670810019875,31.259685899584667],[121.44720159957421,31.259795900160725],[121.44731959961985,31.259594200212234],[121.44733029975362,31.259502400115707],[121.44663299961326,31.259163099397597]]]}},{"id":"54","type":"Feature","properties":{"OBJECTID":229,"osm_id":"52205767","code":7202,"fclass":"park","name":"宜川公园","Shape_Leng":0.00552652297676,"Shape_Area":1.84579575068e-06,"__source_file__":"13-常用公服设施点/SHP/上海市_功能区.shp"},"geometry":{"type":"Polygon","coordinates":[[[121.43566810010282,31.261272499726147],[121.43512089950991,31.26207950006892],[121.4365049003809,31.262978299608903],[121.43678389975719,31.2626665001589],[121.43719160021226,31.261969499492864],[121.43566810010282,31.261272499726147]]]}},{"id":"1440","type":"Feature","properties":{"OBJECTID":9658,"osm_id":"871712754","code":7202,"fclass":"park","name":"沪太公园","Shape_Leng":0.00506235203522,"Shape_Area":1.30863746271e-06,"__source_file__":"13-常用公服设施点/SHP/上海市_功能区.shp"},"geometry":{"type":"Polygon","coordinates":[[[121.43578209996406,31.26953839977739],[121.43518899977255,31.269418700013034],[121.4349882000455,31.269598300021585],[121.43426429975773,31.269478499533193],[121.43410559999347,31.269518499579135],[121.43383000005451,31.27008529999665],[121.43399809953269,31.270520400096416],[121.4356326002644,31.269989499715678],[121.43578209996406,31.26953839977739]]]}},{"id":"49","type":"Feature","properties":{"OBJECTID":178,"osm_id":"51051529","code":7202,"fclass":"park","name":"闸北公园","Shape_Leng":0.0166798673776,"Shape_Area":1.1360365224e-05,"__source_file__":"13-常用公服设施点/SHP/上海市_功能区.shp"},"geometry":{"type":"Polygon","coordinates":[[[121.45828249993747,31.27270369951617],[121.45818590015926,31.272841299386528],[121.4568447996478,31.27206179941254],[121.45451659966136,31.270768800040116],[121.45460250020528,31.27065879946406],[121.45406599974615,31.27038369954812],[121.45346519955933,31.27020029990399],[121.45219919963347,31.272107699910464],[121.45350809991896,31.272841299386528],[121.45407679970458,31.273162199975616],[121.4542699003357,31.27314389967131],[121.45463469953177,31.272877899995137],[121.45483850029666,31.272868799755372],[121.45636199950673,31.273565699697315],[121.45788549961617,31.274345099846528],[121.45881889967256,31.273006299800954],[121.45828249993747,31.27270369951617]]]}},{"id":"314","type":"Feature","properties":{"OBJECTID":894,"osm_id":"177596648","code":7202,"fclass":"park","name":null,"Shape_Leng":0.00224434958916,"Shape_Area":3.00484491701e-07,"__source_file__":"13-常用公服设施点/SHP/上海市_功能区.shp"},"geometry":{"type":"Polygon","coordinates":[[[121.48644619973243,31.2472068996787],[121.48642590023519,31.247212300107606],[121.48640590021216,31.24722529980778],[121.48639789984327,31.247241299646305],[121.4863963997741,31.247267299945975],[121.48639789984327,31.247298599950454],[121.48650519975524,31.24767699959392],[121.4865213003178,31.247699899930467],[121.48654929981035,31.24772600005491],[121.48658829981025,31.24775730005939],[121.48662319980087,31.247780199496674],[121.48693429957837,31.247885699865208],[121.4869585003346,31.247885699865208],[121.48698339986413,31.24787049952397],[121.48717160008937,31.247675499524746],[121.4871930003568,31.247650299621682],[121.4871944995266,31.247628900253574],[121.48717570009853,31.247605900092253],[121.48689140011811,31.247410999917747],[121.48685390018738,31.24739040004698],[121.48647150035947,31.247209999641825],[121.48644619973243,31.2472068996787]]]}},{"id":"781","type":"Feature","properties":{"OBJECTID":7917,"osm_id":"10284795","code":7202,"fclass":"park","name":"星荟中心","Shape_Leng":0.00850195685017,"Shape_Area":1.27424014466e-06,"__source_file__":"13-常用公服设施点/SHP/上海市_功能区.shp"},"geometry":{"type":"Polygon","coordinates":[[[121.4825280999919,31.247805899422758],[121.48252180024099,31.247844099925317],[121.4823609996605,31.247825799621012],[121.48170170037326,31.24775089958439],[121.48171670016563,31.24766069938181],[121.48132350037929,31.24761289951573],[121.48123719963712,31.24813199989194],[121.48130510025021,31.2481402997351],[121.48128079966921,31.248313399443873],[121.48120560015843,31.248302999683744],[121.48117580022301,31.24850939948925],[121.48124500035658,31.2485183999043],[121.48123859988152,31.248554799964097],[121.48148599977912,31.248582199608904],[121.48147869998206,31.248619999913103],[121.48237760024608,31.248723699838933],[121.48238109950819,31.248690799940505],[121.48264469979313,31.248720000028015],[121.4826324995903,31.248769399788046],[121.4829454996352,31.2488082001384],[121.4830822001835,31.24802939983698],[121.48289109964458,31.248008299943137],[121.48292129977824,31.24785370018816],[121.4825280999919,31.247805899422758]],[[121.48248240004284,31.24833000002951],[121.48247489969697,31.248376799849495],[121.48157460008781,31.248267999868347],[121.4815886996588,31.2481746997027],[121.4816305001475,31.24817979975802],[121.48167880003666,31.247888600178783],[121.48249830005659,31.247985399606534],[121.48244180014899,31.248324999798967],[121.48248240004284,31.24833000002951]]]}},{"id":"747","type":"Feature","properties":{"OBJECTID":7141,"osm_id":"656626140","code":7202,"fclass":"park","name":null,"Shape_Leng":0.0181734271565,"Shape_Area":6.07725400721e-06,"__source_file__":"13-常用公服设施点/SHP/上海市_功能区.shp"},"geometry":{"type":"Polygon","coordinates":[[[121.49476919953895,31.25044809950026],[121.49473290020319,31.2504182995649],[121.49471690036478,31.250386200063133],[121.49471550012026,31.2503528999664],[121.4947208996499,31.250326600192523],[121.4947449996821,31.25029330009579],[121.49477319972345,31.250274999791486],[121.4948240995526,31.2502646000313],[121.4948194995203,31.250194599501242],[121.49477409994483,31.250188100100786],[121.49477409994483,31.250104099824398],[121.49489260001349,31.249951000138594],[121.49495179968585,31.24988299970073],[121.49503069990692,31.249830599802408],[121.49514660003558,31.249796100010087],[121.49529289994746,31.249766200250008],[121.49546920034334,31.249752299429133],[121.49556959975723,31.249753599848816],[121.49566099965546,31.2497663998995],[121.49575679993643,31.249786899945548],[121.49585270004218,31.249816899530344],[121.49696639977958,31.250397799518908],[121.49752226511238,31.25052581354986],[121.49755548948157,31.25026961052951],[121.4975581779023,31.250069667656547],[121.49745470017433,31.250042699511027],[121.49729219987523,31.249984499884818],[121.49639229956506,31.24958050014004],[121.4953148002379,31.249137600220138],[121.4936776995662,31.248462099646247],[121.49213249971513,31.247884099971316],[121.49203520026435,31.24805859992449],[121.49172559965677,31.248590899650367],[121.49218300024529,31.248788700138448],[121.49213380013487,31.248874099759973],[121.49251390039626,31.24901429957032],[121.49292729985507,31.24917119979108],[121.49269620016958,31.249519799499183],[121.49360009976488,31.249932600009515],[121.49431880017255,31.250312399897382],[121.49471390022643,31.2505304998827],[121.49476919953895,31.25044809950026]]]}},{"id":"782","type":"Feature","properties":{"OBJECTID":7979,"osm_id":"744525771","code":7202,"fclass":"park","name":"昆山公园","Shape_Leng":0.00368877797287,"Shape_Area":4.15316467021e-07,"__source_file__":"13-常用公服设施点/SHP/上海市_功能区.shp"},"geometry":{"type":"Polygon","coordinates":[[[121.48251720020869,31.250524499606],[121.48268209989908,31.25054980023316],[121.48270719997731,31.250445499560215],[121.4826178001714,31.250367299911034],[121.48246020027807,31.250357299449888],[121.48225669988688,31.25034439957443],[121.48212379987353,31.250335999906497],[121.48209130017347,31.25035339998948],[121.4820831999798,31.250428099477233],[121.48226819951788,31.250443700016774],[121.4822478559538,31.250587974655332],[121.48222139969789,31.250775600213842],[121.48221400277407,31.250774777334186],[121.48216269914928,31.250769071135778],[121.48203440006762,31.25075479979421],[121.48199080003542,31.25105649985761],[121.4819822996435,31.251114800207915],[121.48196929994333,31.2512048996864],[121.48198760024763,31.25124830006905],[121.48200799956953,31.251272699575452],[121.48210875421569,31.251283196462396],[121.48244089992761,31.25131779967677],[121.48248359973843,31.25131779967677],[121.48252020034704,31.25129869987518],[121.48254659994575,31.251258799653954],[121.48257530001013,31.251088799908246],[121.48258119956279,31.25105369936881],[121.48241040031974,31.251006799724053],[121.48245599954475,31.250816499581845],[121.48251720020869,31.250524499606]]]}},{"id":"722","type":"Feature","properties":{"OBJECTID":6706,"osm_id":"610980544","code":7202,"fclass":"park","name":null,"Shape_Leng":0.000978071765946,"Shape_Area":4.43184363149e-08,"__source_file__":"13-常用公服设施点/SHP/上海市_功能区.shp"},"geometry":{"type":"Polygon","coordinates":[[[121.48995750013853,31.250853999512515],[121.48990849967754,31.250967299701188],[121.49025810033118,31.251077599751454],[121.49030800011417,31.250969600166968],[121.48995750013853,31.250853999512515]]]}},{"id":"723","type":"Feature","properties":{"OBJECTID":6707,"osm_id":"610986342","code":7202,"fclass":"park","name":null,"Shape_Leng":0.000886443463815,"Shape_Area":4.55029358469e-08,"__source_file__":"13-常用公服设施点/SHP/上海市_功能区.shp"},"geometry":{"type":"Polygon","coordinates":[[[121.4905877000624,31.25108710018958],[121.49056810023774,31.251098499995805],[121.49061370036202,31.251366899962534],[121.49072439971133,31.25135869994409],[121.49080990005689,31.251297600004307],[121.49084980027817,31.25123429942346],[121.4905877000624,31.25108710018958]]]}},{"id":"1441","type":"Feature","properties":{"OBJECTID":9659,"osm_id":"871712756","code":7202,"fclass":"park","name":null,"Shape_Leng":0.00250818358459,"Shape_Area":3.46349096806e-07,"__source_file__":"13-常用公服设施点/SHP/上海市_功能区.shp"},"geometry":{"type":"Polygon","coordinates":[[[121.49547030021427,31.253031199730117],[121.49538980009925,31.253033500195954],[121.49532279970754,31.25307019972996],[121.4948962998244,31.253615900253635],[121.49526910028885,31.25387039939949],[121.49576270038835,31.25311369993733],[121.49547030021427,31.253031199730117]]]}},{"id":"37","type":"Feature","properties":{"OBJECTID":159,"osm_id":"50326342","code":7202,"fclass":"park","name":"四川北路公园","Shape_Leng":0.00818119018903,"Shape_Area":3.99764146634e-06,"__source_file__":"13-常用公服设施点/SHP/上海市_功能区.shp"},"geometry":{"type":"Polygon","coordinates":[[[121.47982279988241,31.255306399970436],[121.47968829997512,31.255310400154883],[121.47961909984167,31.25539810024219],[121.47943670024358,31.256012599801693],[121.4791385003416,31.25664289955023],[121.47959640005388,31.256873899411005],[121.47963110039507,31.25691610009801],[121.47964460011826,31.25697039936449],[121.47965330015973,31.25701689971021],[121.47964500031662,31.257068299562434],[121.47941320005918,31.25741939938581],[121.48060179983327,31.258296299534663],[121.48067180036333,31.258300199894336],[121.48074179999412,31.2582664995993],[121.48108080033876,31.257823900052983],[121.48124649952638,31.257558899523644],[121.48135390016239,31.25730569989821],[121.48139509990403,31.25707649958082],[121.48136250037919,31.25686730018583],[121.48127320039794,31.256640399434957],[121.48113840011717,31.25643589989693],[121.48051609983816,31.255791999701103],[121.48020989956728,31.255517099434655],[121.48002270028746,31.255390799545808],[121.47982279988241,31.255306399970436]]]}},{"id":"1684","type":"Feature","properties":{"OBJECTID":13950,"osm_id":"1069118321","code":7202,"fclass":"park","name":"爱思儿童公园","Shape_Leng":0.00919998660929,"Shape_Area":2.67591279269e-06,"__source_file__":"13-常用公服设施点/SHP/上海市_功能区.shp"},"geometry":{"type":"Polygon","coordinates":[[[121.48107639995601,31.259425799461155],[121.48134250035616,31.259356100203888],[121.48145409992685,31.25967159946481],[121.48141550012531,31.259855000008315],[121.48154849996331,31.260093500214907],[121.48170319954306,31.26018290002088],[121.48185780019742,31.26025349949947],[121.48208069986447,31.26024759994681],[121.4822970003064,31.260164400067083],[121.4824239998677,31.26011549943081],[121.48250890036547,31.260051500076713],[121.48271580019411,31.260114699933524],[121.48292560033622,31.26030459987743],[121.48308799991128,31.260249299665475],[121.48315510012787,31.260226400228248],[121.48279730035517,31.25952850024015],[121.48367709991828,31.25921669989083],[121.48346679975305,31.25865909953785],[121.48341099951813,31.258684799463992],[121.48340669985942,31.258805799647973],[121.48313639962521,31.259128699429994],[121.482818799548,31.259220399701746],[121.4826642996178,31.25915429953136],[121.48188750030795,31.258541700239334],[121.4816342997832,31.258541700239334],[121.48118369986787,31.25878009972189],[121.48096910004404,31.258974599698092],[121.48072449973597,31.259304699452343],[121.4808028999339,31.259405199590333],[121.48088759988286,31.259513899746707],[121.48107639995601,31.259425799461155]]]}},{"id":"566","type":"Feature","properties":{"OBJECTID":3774,"osm_id":"416291538","code":7202,"fclass":"park","name":"中兴绿地","Shape_Leng":0.00805529088115,"Shape_Area":3.28702912284e-06,"__source_file__":"13-常用公服设施点/SHP/上海市_功能区.shp"},"geometry":{"type":"Polygon","coordinates":[[[121.46643309970784,31.2561885998241],[121.4645019000427,31.25530349965686],[121.46417469970265,31.25671600004341],[121.46431679978059,31.256811099752497],[121.4648129998202,31.256640299610183],[121.46507319976843,31.256829499881576],[121.46497929975499,31.257105799493104],[121.4652905002564,31.257394699505824],[121.46611119997192,31.257779899822594],[121.46631509966221,31.25780280015914],[121.46639559977712,31.25765610004902],[121.46643309970784,31.2561885998241]]]}},{"id":"1703","type":"Feature","properties":{"OBJECTID":14271,"osm_id":"6262915","code":7202,"fclass":"park","name":"鲁迅公园","Shape_Leng":0.045557490048,"Shape_Area":1.67597854242e-05,"__source_file__":"13-常用公服设施点/SHP/上海市_功能区.shp"},"geometry":{"type":"MultiPolygon","coordinates":[[[[121.4793756003038,31.274218899782454],[121.47931189952465,31.274225299358136],[121.47927789975529,31.274276399736095],[121.47924709977394,31.27431839987429],[121.47921200013377,31.274344799472942],[121.47916099958047,31.274410499445025],[121.47915529967736,31.274447100053692],[121.47917600027222,31.274456999790743],[121.47922239989396,31.27445979938028],[121.47922380013836,31.27448650025184],[121.47918709970497,31.27450209989206],[121.47920749992625,31.274537400080987],[121.47929289954777,31.27470160009881],[121.47937529993021,31.2748150001122],[121.47948109977301,31.274926400033394],[121.47960929992928,31.275026299424212],[121.47966079960634,31.275039099474895],[121.47971509977208,31.275107399387025],[121.47978570015005,31.275118399894268],[121.47985099992377,31.275095899756025],[121.47988239975302,31.275058700198883],[121.47986429999753,31.274953000180858],[121.4798388995456,31.27487289936488],[121.47979709995627,31.274798899549637],[121.4797551996428,31.274740299725124],[121.47973159963362,31.274683100145012],[121.47964150015514,31.274553099545983],[121.47962899957872,31.274497900058066],[121.47966760027964,31.274428199901536],[121.47969299983208,31.274377999744956],[121.47967599994752,31.274334799911117],[121.47962510011837,31.274313899666765],[121.47955999999408,31.27429050020646],[121.4795112000819,31.27427739978225],[121.4794311999899,31.27423000011447],[121.4793756003038,31.274218899782454]]],[[[121.48110579969295,31.275348499533663],[121.4809677996243,31.275250499511003],[121.48081939979556,31.27520689947886],[121.48081159997537,31.275173599382185],[121.48067800028957,31.274593800163814],[121.48062599969023,31.27440119955577],[121.48058250038218,31.27417829988866],[121.48043380017975,31.273473399577767],[121.48038000003703,31.273411699790188],[121.4802754997146,31.273332599919627],[121.48022450006067,31.27325109975851],[121.479781500316,31.27139959981173],[121.47962100010909,31.270703499367073],[121.47937679999939,31.270742799740447],[121.47931069982894,31.27065459963012],[121.47922309956641,31.2706215000822],[121.47911769992197,31.270587299764145],[121.47907789952546,31.270586899565842],[121.47901240010219,31.270586199893273],[121.4789046001672,31.270588499459734],[121.47878820001552,31.270610999597977],[121.47873049951295,31.270565699847225],[121.47868400006666,31.270494399796746],[121.47866500008979,31.27046529953401],[121.47859229979485,31.27031510016178],[121.4781678998288,31.270377599446704],[121.47809490005966,31.270394200032342],[121.47759090019997,31.270508899566096],[121.47721389990159,31.270648799902233],[121.47706929970843,31.27070770010033],[121.47648720002428,31.27097660009008],[121.4763639002739,31.271033500195927],[121.47585700010052,31.27133819949836],[121.47591960010948,31.271551699451436],[121.47596820037222,31.27176969961198],[121.47602110029356,31.27183360004068],[121.47611009990123,31.27189939983748],[121.47617160003938,31.27201789990619],[121.47624979968862,31.27224849956866],[121.47681829982469,31.272289800034287],[121.4768583996954,31.272305700048094],[121.47712350004952,31.27241069949423],[121.47733969976741,31.272555699885686],[121.47748069997442,31.272700800101916],[121.47758730021383,31.272877499796834],[121.47768199972461,31.273138599966444],[121.47769980000578,31.273337899624437],[121.47767009989525,31.27351010001115],[121.4776366999738,31.27358140006163],[121.47751669983586,31.27383809984849],[121.47730029956927,31.27405960017046],[121.47716400011859,31.274264599731566],[121.47733809987346,31.27455849997483],[121.47775920022696,31.274402900173754],[121.4779804001754,31.274909999996567],[121.47806489957554,31.27518269962195],[121.4784416003996,31.275194399801762],[121.47879389991863,31.275216699391194],[121.4787779000801,31.275780399845644],[121.47885880039337,31.2759897997895],[121.47892250027326,31.276390599746435],[121.47893771904963,31.27652457851955],[121.48002665022972,31.2760306478325],[121.48001999962332,31.2759966993882],[121.4800162998124,31.27593809956369],[121.4800168996602,31.27589110009427],[121.48001770005692,31.27584789936111],[121.4800160003382,31.275807799490394],[121.48001989979855,31.275776700034726],[121.480014000246,31.275730000039516],[121.47999350019995,31.275662899823033],[121.47995579972041,31.27562320015062],[121.47992840007566,31.275577000178487],[121.47988919952695,31.275518699828183],[121.47983879972094,31.275460899500956],[121.479765200104,31.275429800045288],[121.4796542003811,31.27539800001773],[121.47961270026599,31.275361299584347],[121.47958920008159,31.275317400077995],[121.47948199999439,31.27510290007882],[121.47932580034546,31.274892500088868],[121.47924530023045,31.27475440019549],[121.47917920006012,31.274626299863883],[121.47916210035066,31.274570599453625],[121.47911800029556,31.274507699970457],[121.47904709954412,31.274472599430965],[121.47893340005646,31.27445979938028],[121.47879129997852,31.27440689945888],[121.47872750027398,31.274322099685207],[121.47873279997884,31.27421829993466],[121.47883259954494,31.27404669939574],[121.47892079965527,31.27400530000466],[121.47893609982123,31.273974699672692],[121.47889780039327,31.2739022997514],[121.47882619996926,31.27388200025416],[121.47877909977569,31.273904700041953],[121.47874429960984,31.27389929961305],[121.47869439982674,31.273821199788586],[121.47869739996509,31.273771200180818],[121.47875609961432,31.273701199650702],[121.47876710012167,31.27359909961882],[121.47874479963286,31.273542599711277],[121.4786936003295,31.273480999748415],[121.47866290017282,31.27344430021435],[121.47864240012677,31.27338709973492],[121.47864850022813,31.2732747995924],[121.47871559954535,31.273181999449776],[121.47878490040284,31.273063799754595],[121.4787805000201,31.27301449981934],[121.47873399967443,31.272966299754955],[121.47873310035231,31.272844599898406],[121.47874850034304,31.272790499382097],[121.47881199967412,31.272767500120096],[121.47888439959547,31.272730799686713],[121.47889640014876,31.27264230010212],[121.47889559975215,31.272556199908763],[121.47892260009803,31.272478399558565],[121.47891430025481,31.272417099969232],[121.47887850004281,31.272360199863385],[121.47886929997833,31.27227109953168],[121.47883330011678,31.272201500099186],[121.47876130039378,31.272126299689035],[121.4787159997436,31.27206240015971],[121.47869430000196,31.27198590022914],[121.47867249953629,31.271860899860712],[121.47863110014521,31.271838399722412],[121.47852669964755,31.271829599856176],[121.47841309998466,31.271831599948428],[121.4783183995745,31.271844699473377],[121.47825149990683,31.271871899468636],[121.47820250034522,31.271902300151055],[121.47813840026697,31.27191709939467],[121.47796619988026,31.27193549952375],[121.47789449963147,31.27193039946843],[121.4778086998117,31.271936799943433],[121.4777619998165,31.27196590020617],[121.47772149974753,31.27203649968476],[121.4777075000012,31.27208729968919],[121.47766039980763,31.27211929936624],[121.4776670997569,31.272244699933026],[121.47774290001485,31.27230260008497],[121.47778750009309,31.272363600200038],[121.4778465001159,31.27236310017696],[121.47787770029572,31.272350599600543],[121.47797809970962,31.27237459980796],[121.47806479975077,31.2723952995035],[121.47805459964013,31.27243140008909],[121.47806589962158,31.27247099993673],[121.47812009996267,31.27251240022713],[121.47808629984297,31.272553599968717],[121.47800510005538,31.27256779936448],[121.47786790038333,31.272617899696343],[121.4777834999087,31.27261510010686],[121.47770359964147,31.272566099645815],[121.4776449998169,31.272495299618413],[121.47766089983077,31.27242409939271],[121.47766740013049,31.27236820023228],[121.47762969965095,31.272283600108096],[121.4775607000663,31.27217399973034],[121.47749230032946,31.272117099624495],[121.47744420008985,31.27210090013648],[121.47734799961052,31.272063000007506],[121.47735199979502,31.272036099486456],[121.47732829996119,31.27199830008152],[121.47729359962,31.271939099509893],[121.47721790008609,31.27188030003589],[121.4770980995977,31.27183289946879],[121.47706140006358,31.27177079948285],[121.47706380035413,31.271695199773717],[121.47711940004035,31.271701200050416],[121.47718619988325,31.27154520005098],[121.47708550009577,31.27150930001426],[121.47710569976834,31.27146469993602],[121.4771399000864,31.271478299483988],[121.47718279954665,31.271456799391842],[121.4772052996849,31.271413800106814],[121.4771298996252,31.271365699867204],[121.47708059969,31.271377800245318],[121.47706419965311,31.271331599373866],[121.47710440024798,31.27128249998742],[121.47721330005379,31.27136300010244],[121.47730429975365,31.271393999733334],[121.47738499951822,31.27139659967338],[121.4774641002881,31.271385399516646],[121.47754620029696,31.27135769949831],[121.47760899995546,31.271356399977947],[121.4776521997893,31.271397099696458],[121.47766900002443,31.271467600249593],[121.4776771002181,31.271538299552958],[121.47769980000578,31.27159299991706],[121.47764389994609,31.27161579952957],[121.47762699988618,31.271661499478682],[121.477650199697,31.271703999639897],[121.47770929954459,31.2717458001286],[121.47772619960449,31.27181849952416],[121.47776049974732,31.27186399982378],[121.47784659994068,31.27188649996208],[121.47798169969576,31.271856200003697],[121.47813159959367,31.271838999570207],[121.4782097003175,31.2718316997732],[121.47830349960691,31.27181040022981],[121.47843119974016,31.271800999616516],[121.47858779958733,31.27179309997166],[121.47871320015417,31.271818100225175],[121.47878760016772,31.271859299966764],[121.47881270024595,31.271902099602244],[121.47888009993676,31.27206040006746],[121.47894629993186,31.272159499960992],[121.47896920026847,31.272281799665393],[121.47898160012085,31.272406999683312],[121.47896389966434,31.272522099415426],[121.47896670015314,31.272599099369017],[121.47898200031909,31.272644699493355],[121.4790144001945,31.272712299732916],[121.47902680004688,31.27278860001394],[121.47901569971486,31.272832899718594],[121.47903519971476,31.27286479957087],[121.47905650015741,31.27289489987976],[121.47907559995906,31.272917099644474],[121.47910720033713,31.27293330003181],[121.47911519980664,31.272977499911747],[121.47910260030483,31.273004299708703],[121.47908849983446,31.273028599390386],[121.47909550015731,31.273060299593226],[121.47912470024482,31.273077400201885],[121.47912930027701,31.273102899579214],[121.47911550018023,31.27312880005411],[121.47910749981133,31.273180899578904],[121.47912480006948,31.27320489978632],[121.47915379960818,31.273205800007702],[121.47918969964496,31.27318399954197],[121.47923250017982,31.273178099989366],[121.47928809986593,31.273186300007808],[121.47929670008273,31.273218199860082],[121.47927369992135,31.273243499587863],[121.47923410007377,31.27325639946332],[121.47914940012481,31.273307800214866],[121.47906249953473,31.273353099965618],[121.47902859959027,31.273405499863998],[121.47902610037431,31.273466099780705],[121.47899509984404,31.273521300167943],[121.47893189998729,31.273560800190808],[121.47889929956307,31.27360650013992],[121.47891149976601,31.273638800190554],[121.47895960000562,31.27365110021816],[121.47899409979789,31.27370009977983],[121.47899679956276,31.27371780023634],[121.47906299955787,31.27377459961815],[121.47904549965017,31.273820799590283],[121.47911869996813,31.273874999931365],[121.47921019969101,31.27389119941938],[121.4792941999674,31.273886599387083],[121.47941799974092,31.273911300166446],[121.47955409954216,31.273952499907978],[121.47966649950945,31.27395950023083],[121.4797574002838,31.273913400083416],[121.47984630006681,31.27390019983443],[121.47992149957759,31.273911800189467],[121.47995179953602,31.27394439971431],[121.47994899994649,31.274004799981583],[121.47997119971114,31.274062200110507],[121.4800444000291,31.274144399944134],[121.48012190000577,31.274193199856313],[121.48019789991326,31.27417529975031],[121.4802505003604,31.274198599385898],[121.48032259990816,31.274247599846888],[121.48038960029987,31.274324499975762],[121.48043559972325,31.274362400104735],[121.48046360011517,31.274421499952325],[121.48046660025341,31.274473999675422],[121.48044240039656,31.274550700154748],[121.48043339998151,31.274642600075993],[121.48045199976002,31.27470089952692],[121.48051430029477,31.27486759966007],[121.48050389963532,31.274991899456666],[121.48051159963063,31.27506540014815],[121.48052780001797,31.275242799515638],[121.48054370003183,31.275325000248586],[121.48057330031759,31.27536350022541],[121.48062079981014,31.27540239950116],[121.48063309983775,31.27543819971322],[121.48062849980545,31.275488499694575],[121.48062780013288,31.275552299399124],[121.48063359986077,31.27561469975865],[121.48065329951021,31.275676799744588],[121.48068770037719,31.275725499831992],[121.48068845964842,31.275730456243856],[121.48101819033857,31.275580892975483],[121.48130504714007,31.275418436978025],[121.48110579969295,31.275348499533663]]]]}},{"id":"575","type":"Feature","properties":{"OBJECTID":4025,"osm_id":"6262914","code":7202,"fclass":"park","name":"大宁灵石公园","Shape_Leng":0.0646391895909,"Shape_Area":4.71669631304e-05,"__source_file__":"13-常用公服设施点/SHP/上海市_功能区.shp"},"geometry":{"type":"Polygon","coordinates":[[[121.44256549999784,31.276592299694926],[121.4424389995603,31.276423499644864],[121.44229450009118,31.275993399775643],[121.44221209970874,31.27591029972058],[121.4420928999674,31.27587919936559],[121.44066060010664,31.275798299951646],[121.44065139144939,31.27593376482269],[121.44245935009069,31.276629409481853],[121.44266152940864,31.27668755320007],[121.44256549999784,31.276592299694926]]]}},{"id":"751","type":"Feature","properties":{"OBJECTID":7359,"osm_id":"666304555","code":7202,"fclass":"park","name":"大宁郁金香公园","Shape_Leng":0.0411586088003,"Shape_Area":5.42195452048e-05,"__source_file__":"13-常用公服设施点/SHP/上海市_功能区.shp"},"geometry":{"type":"Polygon","coordinates":[[[121.44256549999784,31.276592299694926],[121.4424389995603,31.276423499644864],[121.44229450009118,31.275993399775643],[121.44221209970874,31.27591029972058],[121.4420928999674,31.27587919936559],[121.44066060010664,31.275798299951646],[121.44065139144939,31.27593376482269],[121.44245935009069,31.276629409481853],[121.44266152940864,31.27668755320007],[121.44256549999784,31.276592299694926]]]}}],"name":"上海市_功能区","crs":{"type":"name","properties":{"name":"urn:ogc:def:crs:OGC:1.3:CRS84"}}}