{"type":"FeatureCollection","features":[{"id":"65","type":"Feature","properties":{"id":"B0HUVX658T","name":"国家电网(武定路营业网点)","address":"武定路1119号","type":"生活服务;电力营业厅;电力营业厅","typecode":"071000","pcode":310000,"pname":"上海市","citycode":21,"cityname":"上海市","adcode":310106,"adname":"静安区","business_a":"曹家渡","location":"121.439724,31.229128","tel":"021-62749531","bigType":"生活服务","midType":"电力营业厅","smallType":"电力营业厅","gcj_lng":121.439724,"gcj_lat":31.229128,"wgs84_loc":"121.43511,31.230995","wgs84Lng":"121.43511","wgs84Lat":"31.230995","__source_file__":"13-常用公服设施点/SHP/上海市_电力营业厅.shp"},"geometry":{"type":"Point","coordinates":[121.43511,31.230995]}},{"id":"64","type":"Feature","properties":{"id":"B0FFJY40HP","name":"国家电网(武定路店)","address":"武定路1119号","type":"生活服务;电力营业厅;电力营业厅","typecode":"071000","pcode":310000,"pname":"上海市","citycode":21,"cityname":"上海市","adcode":310106,"adname":"静安区","business_a":"曹家渡","location":"121.439783,31.229171","tel":"[]","bigType":"生活服务","midType":"电力营业厅","smallType":"电力营业厅","gcj_lng":121.439783,"gcj_lat":31.229171,"wgs84_loc":"121.435169,31.231038","wgs84Lng":"121.435169","wgs84Lat":"31.231038","__source_file__":"13-常用公服设施点/SHP/上海市_电力营业厅.shp"},"geometry":{"type":"Point","coordinates":[121.435169,31.231038]}},{"id":"66","type":"Feature","properties":{"id":"B0FFG4IZWN","name":"国家电网(成都北路)","address":"成都北路737号","type":"生活服务;电力营业厅;电力营业厅","typecode":"071000","pcode":310000,"pname":"上海市","citycode":21,"cityname":"上海市","adcode":310106,"adname":"静安区","business_a":"淮海路","location":"121.464946,31.235529","tel":"95598","bigType":"生活服务","midType":"电力营业厅","smallType":"电力营业厅","gcj_lng":121.464946,"gcj_lat":31.235529,"wgs84_loc":"121.460395,31.237446","wgs84Lng":"121.460395","wgs84Lat":"31.237446","__source_file__":"13-常用公服设施点/SHP/上海市_电力营业厅.shp"},"geometry":{"type":"Point","coordinates":[121.460395,31.237446]}},{"id":"62","type":"Feature","properties":{"id":"B0FFHGFJEQ","name":"国家电网","address":"江西中路320号","type":"生活服务;电力营业厅;电力营业厅","typecode":"071000","pcode":310000,"pname":"上海市","citycode":21,"cityname":"上海市","adcode":310101,"adname":"黄浦区","business_a":"北京东路","location":"121.486323,31.238800","tel":"[]","bigType":"生活服务","midType":"电力营业厅","smallType":"电力营业厅","gcj_lng":121.486323,"gcj_lat":31.2388,"wgs84_loc":"121.481842,31.240774","wgs84Lng":"121.481842","wgs84Lat":"31.240774","__source_file__":"13-常用公服设施点/SHP/上海市_电力营业厅.shp"},"geometry":{"type":"Point","coordinates":[121.481842,31.240774]}},{"id":"134","type":"Feature","properties":{"id":"B0FFIGET2R","name":"国网上海市北供电公司","address":"西康路与长寿路交叉口西120米","type":"生活服务;电力营业厅;电力营业厅","typecode":"071000","pcode":310000,"pname":"上海市","citycode":21,"cityname":"上海市","adcode":310107,"adname":"普陀区","business_a":"长寿路","location":"121.438671,31.242548","tel":"[]","bigType":"生活服务","midType":"电力营业厅","smallType":"电力营业厅","gcj_lng":121.438671,"gcj_lat":31.242548,"wgs84_loc":"121.434054,31.244407","wgs84Lng":"121.434054","wgs84Lat":"31.244407","__source_file__":"13-常用公服设施点/SHP/上海市_电力营业厅.shp"},"geometry":{"type":"Point","coordinates":[121.434054,31.244407]}},{"id":"122","type":"Feature","properties":{"id":"B0HR665GHT","name":"国家电网24小时自助服务厅(九龙路供电营业厅)","address":"九龙路与余杭路交叉口南80米","type":"生活服务;电力营业厅;电力营业厅","typecode":"071000","pcode":310000,"pname":"上海市","citycode":21,"cityname":"上海市","adcode":310109,"adname":"虹口区","business_a":"提篮桥","location":"121.491568,31.250683","tel":"[]","bigType":"生活服务","midType":"电力营业厅","smallType":"电力营业厅","gcj_lng":121.491568,"gcj_lat":31.250683,"wgs84_loc":"121.487105,31.252667","wgs84Lng":"121.487105","wgs84Lat":"31.252667","__source_file__":"13-常用公服设施点/SHP/上海市_电力营业厅.shp"},"geometry":{"type":"Point","coordinates":[121.487105,31.252667]}},{"id":"17","type":"Feature","properties":{"id":"B0FFHO23BQ","name":"国家电网自助服务区","address":"九龙路375号","type":"生活服务;电力营业厅;电力营业厅","typecode":"071000","pcode":310000,"pname":"上海市","citycode":21,"cityname":"上海市","adcode":310109,"adname":"虹口区","business_a":"提篮桥","location":"121.491542,31.250687","tel":"[]","bigType":"生活服务","midType":"电力营业厅","smallType":"电力营业厅","gcj_lng":121.491542,"gcj_lat":31.250687,"wgs84_loc":"121.487079,31.252671","wgs84Lng":"121.487079","wgs84Lat":"31.252671","__source_file__":"13-常用公服设施点/SHP/上海市_电力营业厅.shp"},"geometry":{"type":"Point","coordinates":[121.487079,31.252671]}},{"id":"18","type":"Feature","properties":{"id":"B00155EC3D","name":"国家电网(九龙路供电营业厅)","address":"九龙路286号","type":"生活服务;电力营业厅;电力营业厅","typecode":"071000","pcode":310000,"pname":"上海市","citycode":21,"cityname":"上海市","adcode":310109,"adname":"虹口区","business_a":"提篮桥","location":"121.491499,31.250735","tel":"95598","bigType":"生活服务","midType":"电力营业厅","smallType":"电力营业厅","gcj_lng":121.491499,"gcj_lat":31.250735,"wgs84_loc":"121.487035,31.252719","wgs84Lng":"121.487035","wgs84Lat":"31.252719","__source_file__":"13-常用公服设施点/SHP/上海市_电力营业厅.shp"},"geometry":{"type":"Point","coordinates":[121.487035,31.252719]}},{"id":"88","type":"Feature","properties":{"id":"B0H0SL7C8K","name":"国家电网","address":"长山路与溧阳路交叉口北80米","type":"生活服务;电力营业厅;电力营业厅","typecode":"071000","pcode":310000,"pname":"上海市","citycode":21,"cityname":"上海市","adcode":310109,"adname":"虹口区","business_a":"宝山路","location":"121.485217,31.264228","tel":"[]","bigType":"生活服务","midType":"电力营业厅","smallType":"电力营业厅","gcj_lng":121.485217,"gcj_lat":31.264228,"wgs84_loc":"121.48073,31.266188","wgs84Lng":"121.48073","wgs84Lat":"31.266188","__source_file__":"13-常用公服设施点/SHP/上海市_电力营业厅.shp"},"geometry":{"type":"Point","coordinates":[121.48073,31.266188]}},{"id":"91","type":"Feature","properties":{"id":"B0G1S67MQ8","name":"国网水电路供电营业厅","address":"水电路水电路191弄小区","type":"生活服务;电力营业厅;电力营业厅","typecode":"071000","pcode":310000,"pname":"上海市","citycode":21,"cityname":"上海市","adcode":310109,"adname":"虹口区","business_a":"和田","location":"121.474096,31.274130","tel":"[]","bigType":"生活服务","midType":"电力营业厅","smallType":"电力营业厅","gcj_lng":121.474096,"gcj_lat":31.27413,"wgs84_loc":"121.46957,31.276054","wgs84Lng":"121.46957","wgs84Lat":"31.276054","__source_file__":"13-常用公服设施点/SHP/上海市_电力营业厅.shp"},"geometry":{"type":"Point","coordinates":[121.46957,31.276054]}}],"name":"上海市_电力营业厅","crs":{"type":"name","properties":{"name":"urn:ogc:def:crs:OGC:1.3:CRS84"}}}