{"type":"FeatureCollection","features":[{"id":"340","type":"Feature","properties":{"id":"B0FFFTN0B9","name":"国泰电影院(正门)","address":"淮海中路870号","type":"通行设施;通行设施;通行设施","typecode":990000,"pcode":310000,"pname":"上海市","citycode":21,"cityname":"上海市","adcode":310101,"adname":"黄浦区","business_a":"淮海路","location":"121.461354,31.218048","tel":"[]","bigType":"通行设施","midType":"通行设施","smallType":"通行设施","gcj_lng":121.461354,"gcj_lat":31.218048,"wgs84_loc":"121.456794,31.219964","wgs84Lng":"121.456794","wgs84Lat":"31.219964","__source_file__":"13-常用公服设施点/SHP/上海市_通行设施.shp"},"geometry":{"type":"Point","coordinates":[121.456794,31.219964]}},{"id":"10","type":"Feature","properties":{"id":"B00155LXVA","name":"锦江饭店(西门)","address":"茂名南路59号","type":"通行设施;通行设施;通行设施","typecode":990000,"pcode":310000,"pname":"上海市","citycode":21,"cityname":"上海市","adcode":310101,"adname":"黄浦区","business_a":"淮海路","location":"121.460741,31.219492","tel":"[]","bigType":"通行设施","midType":"通行设施","smallType":"通行设施","gcj_lng":121.460741,"gcj_lat":31.219492,"wgs84_loc":"121.456179,31.221406","wgs84Lng":"121.456179","wgs84Lat":"31.221406","__source_file__":"13-常用公服设施点/SHP/上海市_通行设施.shp"},"geometry":{"type":"Point","coordinates":[121.456179,31.221406]}},{"id":"11","type":"Feature","properties":{"id":"B00155LXV8","name":"锦江饭店锦北楼(西门)","address":"茂名南路59-129号附近","type":"通行设施;通行设施;通行设施","typecode":990000,"pcode":310000,"pname":"上海市","citycode":21,"cityname":"上海市","adcode":310101,"adname":"黄浦区","business_a":"淮海路","location":"121.460481,31.220287","tel":"[]","bigType":"通行设施","midType":"通行设施","smallType":"通行设施","gcj_lng":121.460481,"gcj_lat":31.220287,"wgs84_loc":"121.455918,31.2222","wgs84Lng":"121.455918","wgs84Lat":"31.2222","__source_file__":"13-常用公服设施点/SHP/上海市_通行设施.shp"},"geometry":{"type":"Point","coordinates":[121.455918,31.2222]}},{"id":"9","type":"Feature","properties":{"id":"B00150D6AA","name":"花园饭店(北门)","address":"长乐路193号","type":"通行设施;通行设施;通行设施","typecode":990000,"pcode":310000,"pname":"上海市","citycode":21,"cityname":"上海市","adcode":310101,"adname":"黄浦区","business_a":"淮海路","location":"121.459263,31.220372","tel":"[]","bigType":"通行设施","midType":"通行设施","smallType":"通行设施","gcj_lng":121.459263,"gcj_lat":31.220372,"wgs84_loc":"121.454697,31.222282","wgs84Lng":"121.454697","wgs84Lat":"31.222282","__source_file__":"13-常用公服设施点/SHP/上海市_通行设施.shp"},"geometry":{"type":"Point","coordinates":[121.454697,31.222282]}},{"id":"3","type":"Feature","properties":{"id":"B00156O09C","name":"新锦江大酒店(东门)","address":"瑞金一路与长乐路交叉口南约80米","type":"通行设施;通行设施;通行设施","typecode":990000,"pcode":310000,"pname":"上海市","citycode":21,"cityname":"上海市","adcode":310101,"adname":"黄浦区","business_a":"淮海路","location":"121.463265,31.220522","tel":"[]","bigType":"通行设施","midType":"通行设施","smallType":"通行设施","gcj_lng":121.463265,"gcj_lat":31.220522,"wgs84_loc":"121.45871,31.222442","wgs84Lng":"121.45871","wgs84Lat":"31.222442","__source_file__":"13-常用公服设施点/SHP/上海市_通行设施.shp"},"geometry":{"type":"Point","coordinates":[121.45871,31.222442]}},{"id":"17","type":"Feature","properties":{"id":"B0FFG55ATW","name":"上海市向明中学国际部(西南门)","address":"长乐路141号","type":"通行设施;通行设施;通行设施","typecode":990000,"pcode":310000,"pname":"上海市","citycode":21,"cityname":"上海市","adcode":310101,"adname":"黄浦区","business_a":"淮海路","location":"121.463585,31.220530","tel":"[]","bigType":"通行设施","midType":"通行设施","smallType":"通行设施","gcj_lng":121.463585,"gcj_lat":31.22053,"wgs84_loc":"121.459031,31.222451","wgs84Lng":"121.459031","wgs84Lat":"31.222451","__source_file__":"13-常用公服设施点/SHP/上海市_通行设施.shp"},"geometry":{"type":"Point","coordinates":[121.459031,31.222451]}},{"id":"18","type":"Feature","properties":{"id":"B0FFG55ATU","name":"上海市向明中学国际部(西北1门)","address":"长乐路141号","type":"通行设施;通行设施;通行设施","typecode":990000,"pcode":310000,"pname":"上海市","citycode":21,"cityname":"上海市","adcode":310101,"adname":"黄浦区","business_a":"淮海路","location":"121.464276,31.221379","tel":"[]","bigType":"通行设施","midType":"通行设施","smallType":"通行设施","gcj_lng":121.464276,"gcj_lat":31.221379,"wgs84_loc":"121.459724,31.223301","wgs84Lng":"121.459724","wgs84Lat":"31.223301","__source_file__":"13-常用公服设施点/SHP/上海市_通行设施.shp"},"geometry":{"type":"Point","coordinates":[121.459724,31.223301]}},{"id":"0","type":"Feature","properties":{"id":"B00157HUOJ","name":"城市酒店(西2门)","address":"陕西南路5-7号","type":"通行设施;通行设施;通行设施","typecode":990000,"pcode":310000,"pname":"上海市","citycode":21,"cityname":"上海市","adcode":310101,"adname":"黄浦区","business_a":"淮海路","location":"121.457027,31.222453","tel":"[]","bigType":"通行设施","midType":"通行设施","smallType":"通行设施","gcj_lng":121.457027,"gcj_lat":31.222453,"wgs84_loc":"121.452454,31.224357","wgs84Lng":"121.452454","wgs84Lat":"31.224357","__source_file__":"13-常用公服设施点/SHP/上海市_通行设施.shp"},"geometry":{"type":"Point","coordinates":[121.452454,31.224357]}},{"id":"128","type":"Feature","properties":{"id":"B0FFGZT9WJ","name":"易捷便利店(边门)","address":"延安中路990号附近","type":"通行设施;通行设施;通行设施","typecode":990000,"pcode":310000,"pname":"上海市","citycode":21,"cityname":"上海市","adcode":310106,"adname":"静安区","business_a":"淮海路","location":"121.455690,31.224245","tel":"[]","bigType":"通行设施","midType":"通行设施","smallType":"通行设施","gcj_lng":121.45569,"gcj_lat":31.224245,"wgs84_loc":"121.451114,31.226145","wgs84Lng":"121.451114","wgs84Lat":"31.226145","__source_file__":"13-常用公服设施点/SHP/上海市_通行设施.shp"},"geometry":{"type":"Point","coordinates":[121.451114,31.226145]}},{"id":"416","type":"Feature","properties":{"id":"B0FFFTMVO9","name":"上海展览中心序馆(正门)","address":"延安中路1000号附近","type":"通行设施;通行设施;通行设施","typecode":990000,"pcode":310000,"pname":"上海市","citycode":21,"cityname":"上海市","adcode":310106,"adname":"静安区","business_a":"淮海路","location":"121.452957,31.224415","tel":"[]","bigType":"通行设施","midType":"通行设施","smallType":"通行设施","gcj_lng":121.452957,"gcj_lat":31.224415,"wgs84_loc":"121.448374,31.226309","wgs84Lng":"121.448374","wgs84Lat":"31.226309","__source_file__":"13-常用公服设施点/SHP/上海市_通行设施.shp"},"geometry":{"type":"Point","coordinates":[121.448374,31.226309]}},{"id":"36","type":"Feature","properties":{"id":"B00155KH1I","name":"上海波特曼丽思卡尔顿酒店(南2门)","address":"南京西路1376号","type":"通行设施;通行设施;通行设施","typecode":990000,"pcode":310000,"pname":"上海市","citycode":21,"cityname":"上海市","adcode":310106,"adname":"静安区","business_a":"淮海路","location":"121.451868,31.226301","tel":"[]","bigType":"通行设施","midType":"通行设施","smallType":"通行设施","gcj_lng":121.451868,"gcj_lat":31.226301,"wgs84_loc":"121.447282,31.228192","wgs84Lng":"121.447282","wgs84Lat":"31.228192","__source_file__":"13-常用公服设施点/SHP/上海市_通行设施.shp"},"geometry":{"type":"Point","coordinates":[121.447282,31.228192]}},{"id":"44","type":"Feature","properties":{"id":"B0FFG4C3K0","name":"瑞芝邨(西南10门)","address":"新闸路与胶州路交叉口东南50米","type":"通行设施;通行设施;通行设施","typecode":990000,"pcode":310000,"pname":"上海市","citycode":21,"cityname":"上海市","adcode":310106,"adname":"静安区","business_a":"曹家渡","location":"121.443590,31.227807","tel":"[]","bigType":"通行设施","midType":"通行设施","smallType":"通行设施","gcj_lng":121.44359,"gcj_lat":31.227807,"wgs84_loc":"121.438984,31.229681","wgs84Lng":"121.438984","wgs84Lat":"31.229681","__source_file__":"13-常用公服设施点/SHP/上海市_通行设施.shp"},"geometry":{"type":"Point","coordinates":[121.438984,31.229681]}},{"id":"320","type":"Feature","properties":{"id":"B0FFG1RGCH","name":"瑞金医院卢湾分院(正门)","address":"重庆南路149号(近南昌路)瑞金医院(卢湾分院)","type":"通行设施;通行设施;通行设施","typecode":990000,"pcode":310000,"pname":"上海市","citycode":21,"cityname":"上海市","adcode":310101,"adname":"黄浦区","business_a":"淮海路","location":"121.472449,31.218231","tel":"[]","bigType":"通行设施","midType":"通行设施","smallType":"通行设施","gcj_lng":121.472449,"gcj_lat":31.218231,"wgs84_loc":"121.467923,31.220176","wgs84Lng":"121.467923","wgs84Lat":"31.220176","__source_file__":"13-常用公服设施点/SHP/上海市_通行设施.shp"},"geometry":{"type":"Point","coordinates":[121.467923,31.220176]}},{"id":"321","type":"Feature","properties":{"id":"B0FFFTMMRF","name":"瑞金医院卢湾分院1号楼(正门)","address":"重庆南路149号(近南昌路)瑞金医院(卢湾分院)","type":"通行设施;通行设施;通行设施","typecode":990000,"pcode":310000,"pname":"上海市","citycode":21,"cityname":"上海市","adcode":310101,"adname":"黄浦区","business_a":"淮海路","location":"121.472252,31.218860","tel":"[]","bigType":"通行设施","midType":"通行设施","smallType":"通行设施","gcj_lng":121.472252,"gcj_lat":31.21886,"wgs84_loc":"121.467725,31.220804","wgs84Lng":"121.467725","wgs84Lat":"31.220804","__source_file__":"13-常用公服设施点/SHP/上海市_通行设施.shp"},"geometry":{"type":"Point","coordinates":[121.467725,31.220804]}},{"id":"25","type":"Feature","properties":{"id":"B0FFG51LD8","name":"科学会堂(北门)","address":"雁荡路84号","type":"通行设施;通行设施;通行设施","typecode":990000,"pcode":310000,"pname":"上海市","citycode":21,"cityname":"上海市","adcode":310101,"adname":"黄浦区","business_a":"淮海路","location":"121.468636,31.219045","tel":"[]","bigType":"通行设施","midType":"通行设施","smallType":"通行设施","gcj_lng":121.468636,"gcj_lat":31.219045,"wgs84_loc":"121.464098,31.220979","wgs84Lng":"121.464098","wgs84Lat":"31.220979","__source_file__":"13-常用公服设施点/SHP/上海市_通行设施.shp"},"geometry":{"type":"Point","coordinates":[121.464098,31.220979]}},{"id":"13","type":"Feature","properties":{"id":"B0FFG4YM6A","name":"电信世界(南门)","address":"延安东路1200号","type":"通行设施;通行设施;通行设施","typecode":990000,"pcode":310000,"pname":"上海市","citycode":21,"cityname":"上海市","adcode":310101,"adname":"黄浦区","business_a":"北京东路","location":"121.472351,31.226017","tel":"[]","bigType":"通行设施","midType":"通行设施","smallType":"通行设施","gcj_lng":121.472351,"gcj_lat":31.226017,"wgs84_loc":"121.467824,31.227958","wgs84Lng":"121.467824","wgs84Lat":"31.227958","__source_file__":"13-常用公服设施点/SHP/上海市_通行设施.shp"},"geometry":{"type":"Point","coordinates":[121.467824,31.227958]}},{"id":"482","type":"Feature","properties":{"id":"B0HD0ZWRXP","name":"振兴小区(东门)","address":"重庆北路205号","type":"通行设施;通行设施;通行设施","typecode":990000,"pcode":310000,"pname":"上海市","citycode":21,"cityname":"上海市","adcode":310101,"adname":"黄浦区","business_a":"淮海路","location":"121.469556,31.227210","tel":"[]","bigType":"通行设施","midType":"通行设施","smallType":"通行设施","gcj_lng":121.469556,"gcj_lat":31.22721,"wgs84_loc":"121.46502,31.229143","wgs84Lng":"121.46502","wgs84Lat":"31.229143","__source_file__":"13-常用公服设施点/SHP/上海市_通行设施.shp"},"geometry":{"type":"Point","coordinates":[121.46502,31.229143]}},{"id":"158","type":"Feature","properties":{"id":"B0FFK4IC2K","name":"虹桥枢纽(入口)","address":"延安高架路(上海博物馆东南)","type":"通行设施;通行设施;通行设施","typecode":990000,"pcode":310000,"pname":"上海市","citycode":21,"cityname":"上海市","adcode":310101,"adname":"黄浦区","business_a":"淮海路","location":"121.476013,31.227405","tel":"[]","bigType":"通行设施","midType":"通行设施","smallType":"通行设施","gcj_lng":121.476013,"gcj_lat":31.227405,"wgs84_loc":"121.471498,31.229355","wgs84Lng":"121.471498","wgs84Lat":"31.229355","__source_file__":"13-常用公服设施点/SHP/上海市_通行设施.shp"},"geometry":{"type":"Point","coordinates":[121.471498,31.229355]}},{"id":"467","type":"Feature","properties":{"id":"B0FFH7SU6I","name":"商厦(入口)","address":"人民路与丽水路交叉口东60米","type":"通行设施;通行设施;通行设施","typecode":990000,"pcode":310000,"pname":"上海市","citycode":21,"cityname":"上海市","adcode":310101,"adname":"黄浦区","business_a":"城隍庙","location":"121.491203,31.229247","tel":"[]","bigType":"通行设施","midType":"通行设施","smallType":"通行设施","gcj_lng":121.491203,"gcj_lat":31.229247,"wgs84_loc":"121.48674,31.23124","wgs84Lng":"121.48674","wgs84Lat":"31.23124","__source_file__":"13-常用公服设施点/SHP/上海市_通行设施.shp"},"geometry":{"type":"Point","coordinates":[121.48674,31.23124]}},{"id":"4","type":"Feature","properties":{"id":"B00155M0MM","name":"中福世福汇大酒店(北门)","address":"广东路339号","type":"通行设施;通行设施;通行设施","typecode":990000,"pcode":310000,"pname":"上海市","citycode":21,"cityname":"上海市","adcode":310101,"adname":"黄浦区","business_a":"北京东路","location":"121.484217,31.232512","tel":"[]","bigType":"通行设施","midType":"通行设施","smallType":"通行设施","gcj_lng":121.484217,"gcj_lat":31.232512,"wgs84_loc":"121.479729,31.234483","wgs84Lng":"121.479729","wgs84Lat":"31.234483","__source_file__":"13-常用公服设施点/SHP/上海市_通行设施.shp"},"geometry":{"type":"Point","coordinates":[121.479729,31.234483]}},{"id":"1","type":"Feature","properties":{"id":"B00156GMNW","name":"上海大酒店(南门)","address":"九江路505号","type":"通行设施;通行设施;通行设施","typecode":990000,"pcode":310000,"pname":"上海市","citycode":21,"cityname":"上海市","adcode":310101,"adname":"黄浦区","business_a":"北京东路","location":"121.482074,31.234983","tel":"[]","bigType":"通行设施","midType":"通行设施","smallType":"通行设施","gcj_lng":121.482074,"gcj_lat":31.234983,"wgs84_loc":"121.477579,31.236947","wgs84Lng":"121.477579","wgs84Lat":"31.236947","__source_file__":"13-常用公服设施点/SHP/上海市_通行设施.shp"},"geometry":{"type":"Point","coordinates":[121.477579,31.236947]}},{"id":"263","type":"Feature","properties":{"id":"B0FFIY16SZ","name":"上海静安区人民法院安检入口处","address":"康定路与泰州路交叉口南50米","type":"通行设施;通行设施;通行设施","typecode":990000,"pcode":310000,"pname":"上海市","citycode":21,"cityname":"上海市","adcode":310106,"adname":"静安区","business_a":"曹家渡","location":"121.436416,31.230469","tel":"[]","bigType":"通行设施","midType":"通行设施","smallType":"通行设施","gcj_lng":121.436416,"gcj_lat":31.230469,"wgs84_loc":"121.431796,31.23233","wgs84Lng":"121.431796","wgs84Lat":"31.23233","__source_file__":"13-常用公服设施点/SHP/上海市_通行设施.shp"},"geometry":{"type":"Point","coordinates":[121.431796,31.23233]}},{"id":"480","type":"Feature","properties":{"id":"B00155KK6K","name":"长春小区(北1门)","address":"昌平路923弄1-11号","type":"通行设施;通行设施;通行设施","typecode":990000,"pcode":310000,"pname":"上海市","citycode":21,"cityname":"上海市","adcode":310106,"adname":"静安区","business_a":"曹家渡","location":"121.438908,31.233163","tel":"[]","bigType":"通行设施","midType":"通行设施","smallType":"通行设施","gcj_lng":121.438908,"gcj_lat":31.233163,"wgs84_loc":"121.434292,31.235027","wgs84Lng":"121.434292","wgs84Lat":"31.235027","__source_file__":"13-常用公服设施点/SHP/上海市_通行设施.shp"},"geometry":{"type":"Point","coordinates":[121.434292,31.235027]}},{"id":"40","type":"Feature","properties":{"id":"B0FFG4YM6J","name":"康华楼(东门)","address":"康定路378弄1-2号","type":"通行设施;通行设施;通行设施","typecode":990000,"pcode":310000,"pname":"上海市","citycode":21,"cityname":"上海市","adcode":310106,"adname":"静安区","business_a":"曹家渡","location":"121.449357,31.234926","tel":"[]","bigType":"通行设施","midType":"通行设施","smallType":"通行设施","gcj_lng":121.449357,"gcj_lat":31.234926,"wgs84_loc":"121.444764,31.236808","wgs84Lng":"121.444764","wgs84Lat":"31.236808","__source_file__":"13-常用公服设施点/SHP/上海市_通行设施.shp"},"geometry":{"type":"Point","coordinates":[121.444764,31.236808]}},{"id":"262","type":"Feature","properties":{"id":"B0FFINHSDX","name":"出入口","address":"昌平路与西康路交叉口北50米","type":"通行设施;通行设施;通行设施","typecode":990000,"pcode":310000,"pname":"上海市","citycode":21,"cityname":"上海市","adcode":310106,"adname":"静安区","business_a":"曹家渡","location":"121.445100,31.235964","tel":"[]","bigType":"通行设施","midType":"通行设施","smallType":"通行设施","gcj_lng":121.4451,"gcj_lat":31.235964,"wgs84_loc":"121.440497,31.237837","wgs84Lng":"121.440497","wgs84Lat":"31.237837","__source_file__":"13-常用公服设施点/SHP/上海市_通行设施.shp"},"geometry":{"type":"Point","coordinates":[121.440497,31.237837]}},{"id":"459","type":"Feature","properties":{"id":"B0H1XU4GEA","name":"新上海滩(后门)","address":"新会路与叶家宅南路交叉口东北140米","type":"通行设施;通行设施;通行设施","typecode":990000,"pcode":310000,"pname":"上海市","citycode":21,"cityname":"上海市","adcode":310107,"adname":"普陀区","business_a":"曹家渡","location":"121.434191,31.237415","tel":"[]","bigType":"通行设施","midType":"通行设施","smallType":"通行设施","gcj_lng":121.434191,"gcj_lat":31.237415,"wgs84_loc":"121.429566,31.23927","wgs84Lng":"121.429566","wgs84Lat":"31.23927","__source_file__":"13-常用公服设施点/SHP/上海市_通行设施.shp"},"geometry":{"type":"Point","coordinates":[121.429566,31.23927]}},{"id":"131","type":"Feature","properties":{"id":"B0FFF03JUB","name":"亚新生活广场(东门)","address":"长寿路401号","type":"通行设施;通行设施;通行设施","typecode":990000,"pcode":310000,"pname":"上海市","citycode":21,"cityname":"上海市","adcode":310107,"adname":"普陀区","business_a":"曹家渡","location":"121.438303,31.239050","tel":"[]","bigType":"通行设施","midType":"通行设施","smallType":"通行设施","gcj_lng":121.438303,"gcj_lat":31.23905,"wgs84_loc":"121.433686,31.24091","wgs84Lng":"121.433686","wgs84Lat":"31.24091","__source_file__":"13-常用公服设施点/SHP/上海市_通行设施.shp"},"geometry":{"type":"Point","coordinates":[121.433686,31.24091]}},{"id":"474","type":"Feature","properties":{"id":"B0FFHQ7JL1","name":"出入口","address":"常德路与长寿路交叉口西100米","type":"通行设施;通行设施;通行设施","typecode":990000,"pcode":310000,"pname":"上海市","citycode":21,"cityname":"上海市","adcode":310107,"adname":"普陀区","business_a":"曹家渡","location":"121.437017,31.240447","tel":"[]","bigType":"通行设施","midType":"通行设施","smallType":"通行设施","gcj_lng":121.437017,"gcj_lat":31.240447,"wgs84_loc":"121.432397,31.242304","wgs84Lng":"121.432397","wgs84Lat":"31.242304","__source_file__":"13-常用公服设施点/SHP/上海市_通行设施.shp"},"geometry":{"type":"Point","coordinates":[121.432397,31.242304]}},{"id":"346","type":"Feature","properties":{"id":"B0FFFQ808S","name":"荣年商务楼(正门)","address":"长寿路28弄3号","type":"通行设施;通行设施;通行设施","typecode":990000,"pcode":310000,"pname":"上海市","citycode":21,"cityname":"上海市","adcode":310107,"adname":"普陀区","business_a":"光新","location":"121.445237,31.245058","tel":"[]","bigType":"通行设施","midType":"通行设施","smallType":"通行设施","gcj_lng":121.445237,"gcj_lat":31.245058,"wgs84_loc":"121.440633,31.246927","wgs84Lng":"121.440633","wgs84Lat":"31.246927","__source_file__":"13-常用公服设施点/SHP/上海市_通行设施.shp"},"geometry":{"type":"Point","coordinates":[121.440633,31.246927]}},{"id":"185","type":"Feature","properties":{"id":"B0FFFTLD2N","name":"博士娃幼儿园东区(正门)","address":"中潭路100弄2-360号中远两湾城","type":"通行设施;通行设施;通行设施","typecode":990000,"pcode":310000,"pname":"上海市","citycode":21,"cityname":"上海市","adcode":310107,"adname":"普陀区","business_a":"光新","location":"121.445611,31.253181","tel":"[]","bigType":"通行设施","midType":"通行设施","smallType":"通行设施","gcj_lng":121.445611,"gcj_lat":31.253181,"wgs84_loc":"121.441007,31.255047","wgs84Lng":"121.441007","wgs84Lat":"31.255047","__source_file__":"13-常用公服设施点/SHP/上海市_通行设施.shp"},"geometry":{"type":"Point","coordinates":[121.441007,31.255047]}},{"id":"475","type":"Feature","properties":{"id":"B0FFHJJBXA","name":"克拉玛依石油宾馆(出入口)","address":"交通路与交通西路交叉口西北80米","type":"通行设施;通行设施;通行设施","typecode":990000,"pcode":310000,"pname":"上海市","citycode":21,"cityname":"上海市","adcode":310107,"adname":"普陀区","business_a":"光新","location":"121.447358,31.254095","tel":"[]","bigType":"通行设施","midType":"通行设施","smallType":"通行设施","gcj_lng":121.447358,"gcj_lat":31.254095,"wgs84_loc":"121.442758,31.255964","wgs84Lng":"121.442758","wgs84Lat":"31.255964","__source_file__":"13-常用公服设施点/SHP/上海市_通行设施.shp"},"geometry":{"type":"Point","coordinates":[121.442758,31.255964]}},{"id":"417","type":"Feature","properties":{"id":"B0FFG1VL4Q","name":"上海展览中心中央大厅(正门)","address":"长乐路154号附近","type":"通行设施;通行设施;通行设施","typecode":990000,"pcode":310000,"pname":"上海市","citycode":21,"cityname":"上海市","adcode":310106,"adname":"静安区","business_a":"淮海路","location":"121.452465,31.224896","tel":"[]","bigType":"通行设施","midType":"通行设施","smallType":"通行设施","gcj_lng":121.452465,"gcj_lat":31.224896,"wgs84_loc":"121.44788,31.226789","wgs84Lng":"121.44788","wgs84Lat":"31.226789","__source_file__":"13-常用公服设施点/SHP/上海市_通行设施.shp"},"geometry":{"type":"Point","coordinates":[121.44788,31.226789]}},{"id":"29","type":"Feature","properties":{"id":"B0FFFTJHNQ","name":"美琪大戏院(正门)","address":"江宁路66号(近奉贤路)","type":"通行设施;通行设施;通行设施","typecode":990000,"pcode":310000,"pname":"上海市","citycode":21,"cityname":"上海市","adcode":310106,"adname":"静安区","business_a":"淮海路","location":"121.455938,31.229355","tel":"[]","bigType":"通行设施","midType":"通行设施","smallType":"通行设施","gcj_lng":121.455938,"gcj_lat":31.229355,"wgs84_loc":"121.451362,31.231253","wgs84Lng":"121.451362","wgs84Lat":"31.231253","__source_file__":"13-常用公服设施点/SHP/上海市_通行设施.shp"},"geometry":{"type":"Point","coordinates":[121.451362,31.231253]}},{"id":"19","type":"Feature","properties":{"id":"B0FFG51QTO","name":"南都商厦(西门)","address":"南京西路499号","type":"通行设施;通行设施;通行设施","typecode":990000,"pcode":310000,"pname":"上海市","citycode":21,"cityname":"上海市","adcode":310101,"adname":"黄浦区","business_a":"北京东路","location":"121.467338,31.230518","tel":"[]","bigType":"通行设施","midType":"通行设施","smallType":"通行设施","gcj_lng":121.467338,"gcj_lat":31.230518,"wgs84_loc":"121.462795,31.232443","wgs84Lng":"121.462795","wgs84Lat":"31.232443","__source_file__":"13-常用公服设施点/SHP/上海市_通行设施.shp"},"geometry":{"type":"Point","coordinates":[121.462795,31.232443]}},{"id":"41","type":"Feature","properties":{"id":"B0FFHGH7K4","name":"顺泰小区(东1门)","address":"江宁路368甲附近","type":"通行设施;通行设施;通行设施","typecode":990000,"pcode":310000,"pname":"上海市","citycode":21,"cityname":"上海市","adcode":310106,"adname":"静安区","business_a":"曹家渡","location":"121.453254,31.233712","tel":"[]","bigType":"通行设施","midType":"通行设施","smallType":"通行设施","gcj_lng":121.453254,"gcj_lat":31.233712,"wgs84_loc":"121.448671,31.235602","wgs84Lng":"121.448671","wgs84Lat":"31.235602","__source_file__":"13-常用公服设施点/SHP/上海市_通行设施.shp"},"geometry":{"type":"Point","coordinates":[121.448671,31.235602]}},{"id":"38","type":"Feature","properties":{"id":"B001555VRA","name":"丽都太平洋全套房酒店(东门)","address":"石门二路219丽都太平洋全套房酒店","type":"通行设施;通行设施;通行设施","typecode":990000,"pcode":310000,"pname":"上海市","citycode":21,"cityname":"上海市","adcode":310106,"adname":"静安区","business_a":"淮海路","location":"121.460368,31.234327","tel":"[]","bigType":"通行设施","midType":"通行设施","smallType":"通行设施","gcj_lng":121.460368,"gcj_lat":31.234327,"wgs84_loc":"121.455804,31.236233","wgs84Lng":"121.455804","wgs84Lat":"31.236233","__source_file__":"13-常用公服设施点/SHP/上海市_通行设施.shp"},"geometry":{"type":"Point","coordinates":[121.455804,31.236233]}},{"id":"130","type":"Feature","properties":{"id":"B0FFG2GTL6","name":"现代建筑设计大厦(正门)","address":"石门二路258号","type":"通行设施;通行设施;通行设施","typecode":990000,"pcode":310000,"pname":"上海市","citycode":21,"cityname":"上海市","adcode":310106,"adname":"静安区","business_a":"淮海路","location":"121.460752,31.234857","tel":"[]","bigType":"通行设施","midType":"通行设施","smallType":"通行设施","gcj_lng":121.460752,"gcj_lat":31.234857,"wgs84_loc":"121.456189,31.236764","wgs84Lng":"121.456189","wgs84Lat":"31.236764","__source_file__":"13-常用公服设施点/SHP/上海市_通行设施.shp"},"geometry":{"type":"Point","coordinates":[121.456189,31.236764]}},{"id":"488","type":"Feature","properties":{"id":"B0FFLGDV6O","name":"上海消防总队静安支队恒丰中队(北门)","address":"南苏州路1559号(汉中路地铁站10号口步行340米)","type":"通行设施;通行设施;通行设施","typecode":990000,"pcode":310000,"pname":"上海市","citycode":21,"cityname":"上海市","adcode":310106,"adname":"静安区","business_a":"[]","location":"121.459168,31.238205","tel":"[]","bigType":"通行设施","midType":"通行设施","smallType":"通行设施","gcj_lng":121.459168,"gcj_lat":31.238205,"wgs84_loc":"121.4546,31.240107","wgs84Lng":"121.4546","wgs84Lat":"31.240107","__source_file__":"13-常用公服设施点/SHP/上海市_通行设施.shp"},"geometry":{"type":"Point","coordinates":[121.4546,31.240107]}},{"id":"202","type":"Feature","properties":{"id":"B0FFK3GCBU","name":"人行通道2号口","address":"梅园路与秣陵路交叉口西50米","type":"通行设施;通行设施;通行设施","typecode":990000,"pcode":310000,"pname":"上海市","citycode":21,"cityname":"上海市","adcode":310106,"adname":"静安区","business_a":"[]","location":"121.456870,31.247358","tel":"[]","bigType":"通行设施","midType":"通行设施","smallType":"通行设施","gcj_lng":121.45687,"gcj_lat":31.247358,"wgs84_loc":"121.452295,31.24925","wgs84Lng":"121.452295","wgs84Lat":"31.24925","__source_file__":"13-常用公服设施点/SHP/上海市_通行设施.shp"},"geometry":{"type":"Point","coordinates":[121.452295,31.24925]}},{"id":"261","type":"Feature","properties":{"id":"B0FFHG8ZQH","name":"中铁快运行包托运处(正门)","address":"华康路与秣陵路交叉口西50米","type":"通行设施;通行设施;通行设施","typecode":990000,"pcode":310000,"pname":"上海市","citycode":21,"cityname":"上海市","adcode":310106,"adname":"静安区","business_a":"[]","location":"121.457646,31.247772","tel":"[]","bigType":"通行设施","midType":"通行设施","smallType":"通行设施","gcj_lng":121.457646,"gcj_lat":31.247772,"wgs84_loc":"121.453073,31.249666","wgs84Lng":"121.453073","wgs84Lat":"31.249666","__source_file__":"13-常用公服设施点/SHP/上海市_通行设施.shp"},"geometry":{"type":"Point","coordinates":[121.453073,31.249666]}},{"id":"129","type":"Feature","properties":{"id":"B0FFG62CTH","name":"上海滩·大宁城东区(北门)","address":"柳营路附近","type":"通行设施;通行设施;通行设施","typecode":990000,"pcode":310000,"pname":"上海市","citycode":21,"cityname":"上海市","adcode":310106,"adname":"静安区","business_a":"和田","location":"121.456491,31.261632","tel":"[]","bigType":"通行设施","midType":"通行设施","smallType":"通行设施","gcj_lng":121.456491,"gcj_lat":31.261632,"wgs84_loc":"121.451914,31.263517","wgs84Lng":"121.451914","wgs84Lat":"31.263517","__source_file__":"13-常用公服设施点/SHP/上海市_通行设施.shp"},"geometry":{"type":"Point","coordinates":[121.451914,31.263517]}},{"id":"108","type":"Feature","properties":{"id":"B0FFFTA5LV","name":"中山东一路十二号大楼(正门)","address":"中山东一路12号","type":"通行设施;通行设施;通行设施","typecode":990000,"pcode":310000,"pname":"上海市","citycode":21,"cityname":"上海市","adcode":310101,"adname":"黄浦区","business_a":"北京东路","location":"121.490119,31.236077","tel":"[]","bigType":"通行设施","midType":"通行设施","smallType":"通行设施","gcj_lng":121.490119,"gcj_lat":31.236077,"wgs84_loc":"121.485652,31.238064","wgs84Lng":"121.485652","wgs84Lat":"31.238064","__source_file__":"13-常用公服设施点/SHP/上海市_通行设施.shp"},"geometry":{"type":"Point","coordinates":[121.485652,31.238064]}},{"id":"5","type":"Feature","properties":{"id":"B00156GLTI","name":"上海雅居乐万豪侯爵酒店(北门)","address":"西藏中路555号","type":"通行设施;通行设施;通行设施","typecode":990000,"pcode":310000,"pname":"上海市","citycode":21,"cityname":"上海市","adcode":310101,"adname":"黄浦区","business_a":"北京东路","location":"121.472702,31.236532","tel":"[]","bigType":"通行设施","midType":"通行设施","smallType":"通行设施","gcj_lng":121.472702,"gcj_lat":31.236532,"wgs84_loc":"121.468175,31.238469","wgs84Lng":"121.468175","wgs84Lat":"31.238469","__source_file__":"13-常用公服设施点/SHP/上海市_通行设施.shp"},"geometry":{"type":"Point","coordinates":[121.468175,31.238469]}},{"id":"322","type":"Feature","properties":{"id":"B0FFFTMT21","name":"台湾路19弄4-10号(正门)","address":"台湾路19弄4-10号","type":"通行设施;通行设施;通行设施","typecode":990000,"pcode":310000,"pname":"上海市","citycode":21,"cityname":"上海市","adcode":310101,"adname":"黄浦区","business_a":"北京东路","location":"121.480567,31.237758","tel":"[]","bigType":"通行设施","midType":"通行设施","smallType":"通行设施","gcj_lng":121.480567,"gcj_lat":31.237758,"wgs84_loc":"121.476066,31.239716","wgs84Lng":"121.476066","wgs84Lat":"31.239716","__source_file__":"13-常用公服设施点/SHP/上海市_通行设施.shp"},"geometry":{"type":"Point","coordinates":[121.476066,31.239716]}},{"id":"319","type":"Feature","properties":{"id":"B0FFHH66WH","name":"台湾路42弄2-10号(正门)","address":"台湾路42弄2-10号","type":"通行设施;通行设施;通行设施","typecode":990000,"pcode":310000,"pname":"上海市","citycode":21,"cityname":"上海市","adcode":310101,"adname":"黄浦区","business_a":"北京东路","location":"121.480146,31.237789","tel":"[]","bigType":"通行设施","midType":"通行设施","smallType":"通行设施","gcj_lng":121.480146,"gcj_lat":31.237789,"wgs84_loc":"121.475644,31.239746","wgs84Lng":"121.475644","wgs84Lat":"31.239746","__source_file__":"13-常用公服设施点/SHP/上海市_通行设施.shp"},"geometry":{"type":"Point","coordinates":[121.475644,31.239746]}},{"id":"15","type":"Feature","properties":{"id":"B0FFG51AJY","name":"电场(东北门)","address":"南京东路与江西中路交叉口南50米","type":"通行设施;通行设施;通行设施","typecode":990000,"pcode":310000,"pname":"上海市","citycode":21,"cityname":"上海市","adcode":310101,"adname":"黄浦区","business_a":"北京东路","location":"121.486595,31.237776","tel":"[]","bigType":"通行设施","midType":"通行设施","smallType":"通行设施","gcj_lng":121.486595,"gcj_lat":31.237776,"wgs84_loc":"121.482115,31.239751","wgs84Lng":"121.482115","wgs84Lat":"31.239751","__source_file__":"13-常用公服设施点/SHP/上海市_通行设施.shp"},"geometry":{"type":"Point","coordinates":[121.482115,31.239751]}},{"id":"8","type":"Feature","properties":{"id":"B0FFG2EFMS","name":"罗斯福公馆(正门)","address":"中山东一路与北京东路交叉口西南约40米","type":"通行设施;通行设施;通行设施","typecode":990000,"pcode":310000,"pname":"上海市","citycode":21,"cityname":"上海市","adcode":310101,"adname":"黄浦区","business_a":"北京东路","location":"121.490020,31.240407","tel":"[]","bigType":"通行设施","midType":"通行设施","smallType":"通行设施","gcj_lng":121.49002,"gcj_lat":31.240407,"wgs84_loc":"121.485552,31.242391","wgs84Lng":"121.485552","wgs84Lat":"31.242391","__source_file__":"13-常用公服设施点/SHP/上海市_通行设施.shp"},"geometry":{"type":"Point","coordinates":[121.485552,31.242391]}},{"id":"43","type":"Feature","properties":{"id":"B0FFG5B8XR","name":"天禄里(东门)","address":"浙江北路102弄3-19号","type":"通行设施;通行设施;通行设施","typecode":990000,"pcode":310000,"pname":"上海市","citycode":21,"cityname":"上海市","adcode":310106,"adname":"静安区","business_a":"七浦路","location":"121.476232,31.243416","tel":"[]","bigType":"通行设施","midType":"通行设施","smallType":"通行设施","gcj_lng":121.476232,"gcj_lat":31.243416,"wgs84_loc":"121.471716,31.245359","wgs84Lng":"121.471716","wgs84Lat":"31.245359","__source_file__":"13-常用公服设施点/SHP/上海市_通行设施.shp"},"geometry":{"type":"Point","coordinates":[121.471716,31.245359]}},{"id":"100","type":"Feature","properties":{"id":"B0FFMAVCN6","name":"海湾大厦(入口)","address":"天潼路与黄浦路交叉口西约60米","type":"通行设施;通行设施;通行设施","typecode":990000,"pcode":310000,"pname":"上海市","citycode":21,"cityname":"上海市","adcode":310109,"adname":"虹口区","business_a":"提篮桥","location":"121.491636,31.244470","tel":"[]","bigType":"通行设施","midType":"通行设施","smallType":"通行设施","gcj_lng":121.491636,"gcj_lat":31.24447,"wgs84_loc":"121.487173,31.246457","wgs84Lng":"121.487173","wgs84Lat":"31.246457","__source_file__":"13-常用公服设施点/SHP/上海市_通行设施.shp"},"geometry":{"type":"Point","coordinates":[121.487173,31.246457]}},{"id":"351","type":"Feature","properties":{"id":"B0FFF5RQ9K","name":"海伦路3号(出入口)","address":"四平路与海伦路交叉口东北150米","type":"通行设施;通行设施;通行设施","typecode":990000,"pcode":310000,"pname":"上海市","citycode":21,"cityname":"上海市","adcode":310109,"adname":"虹口区","business_a":"四平路","location":"121.489201,31.258865","tel":"[]","bigType":"通行设施","midType":"通行设施","smallType":"通行设施","gcj_lng":121.489201,"gcj_lat":31.258865,"wgs84_loc":"121.484729,31.260839","wgs84Lng":"121.484729","wgs84Lat":"31.260839","__source_file__":"13-常用公服设施点/SHP/上海市_通行设施.shp"},"geometry":{"type":"Point","coordinates":[121.484729,31.260839]}},{"id":"46","type":"Feature","properties":{"id":"B0FFG37JCG","name":"润德坊(西1门)","address":"东江湾路276附近","type":"通行设施;通行设施;通行设施","typecode":990000,"pcode":310000,"pname":"上海市","citycode":21,"cityname":"上海市","adcode":310109,"adname":"虹口区","business_a":"江湾","location":"121.480116,31.267918","tel":"[]","bigType":"通行设施","midType":"通行设施","smallType":"通行设施","gcj_lng":121.480116,"gcj_lat":31.267918,"wgs84_loc":"121.475611,31.269861","wgs84Lng":"121.475611","wgs84Lat":"31.269861","__source_file__":"13-常用公服设施点/SHP/上海市_通行设施.shp"},"geometry":{"type":"Point","coordinates":[121.475611,31.269861]}},{"id":"127","type":"Feature","properties":{"id":"B0FFH7SUFO","name":"商场(入口)","address":"柳营路765号附近","type":"通行设施;通行设施;通行设施","typecode":990000,"pcode":310000,"pname":"上海市","citycode":21,"cityname":"上海市","adcode":310106,"adname":"静安区","business_a":"和田","location":"121.455136,31.263812","tel":"[]","bigType":"通行设施","midType":"通行设施","smallType":"通行设施","gcj_lng":121.455136,"gcj_lat":31.263812,"wgs84_loc":"121.450555,31.265693","wgs84Lng":"121.450555","wgs84Lat":"31.265693","__source_file__":"13-常用公服设施点/SHP/上海市_通行设施.shp"},"geometry":{"type":"Point","coordinates":[121.450555,31.265693]}},{"id":"415","type":"Feature","properties":{"id":"B0FFG4WR5X","name":"共和新路街道社区文化活动中心(西门)","address":"延长中路755号","type":"通行设施;通行设施;通行设施","typecode":990000,"pcode":310000,"pname":"上海市","citycode":21,"cityname":"上海市","adcode":310106,"adname":"静安区","business_a":"大宁路","location":"121.445618,31.267231","tel":"[]","bigType":"通行设施","midType":"通行设施","smallType":"通行设施","gcj_lng":121.445618,"gcj_lat":31.267231,"wgs84_loc":"121.441013,31.269091","wgs84Lng":"121.441013","wgs84Lat":"31.269091","__source_file__":"13-常用公服设施点/SHP/上海市_通行设施.shp"},"geometry":{"type":"Point","coordinates":[121.441013,31.269091]}}],"name":"上海市_通行设施","crs":{"type":"name","properties":{"name":"urn:ogc:def:crs:OGC:1.3:CRS84"}}}