{"type":"FeatureCollection","features":[{"id":"998","type":"Feature","properties":{"id":"B0FFGDGNGP","name":"98创意园","type":"商务住宅;产业园区;产业园区","addr":"上海市静安区延平路98号云和花园内(近新闸路)","结构":null,"面积":0.0,"时间":null,"装修":null,"价格":0.0,"gcj_lng":121.441836,"gcj_lat":31.228442,"wgs_lng":121.437226448,"wgs_lat":31.2303126783,"bd_lng":121.448262052,"bd_lat":31.2348096076,"gcj_shape":"121.441544,31.2289;121.441662,31.228951;121.441768,31.228952;121.441897,31.228777;121.442177,31.228381;121.442368,31.2281;121.441984,31.227879;121.441282,31.22876;121.441544,31.2289","FID_1":23246,"id_1":"B0FFGDGNGP","type1":"商务住宅","type2":"产业园区","type3":"产业园区","__source_file__":"13-常用公服设施点/SHP/上海市_产业园区-面.shp"},"geometry":{"type":"Polygon","coordinates":[[[121.43704289394569,31.23081276896096],[121.43714908944895,31.230813931085585],[121.43727834217262,31.23063921241951],[121.43755889649583,31.230243828731535],[121.43775027677344,31.229963256692884],[121.4373655817833,31.22974176197433],[121.43666221624089,31.230621278414723],[121.43692468175317,31.23076161160469],[121.43704289394569,31.23081276896096]]]}},{"id":"777","type":"Feature","properties":{"id":"B00155M0H0","name":"静安盛达","type":"商务住宅;产业园区;产业园区","addr":"上海市静安区延平路128号","结构":null,"面积":0.0,"时间":null,"装修":null,"价格":0.0,"gcj_lng":121.441321,"gcj_lat":31.229148,"wgs_lng":121.436710329,"wgs_lat":31.2310174672,"bd_lng":121.447746887,"bd_lat":31.2355164288,"gcj_shape":"121.440939,31.22916;121.441231,31.228801;121.441714,31.229061;121.441483,31.229482;121.440988,31.229285;121.440955,31.229251;121.440941,31.2292;121.440939,31.22916","FID_1":18648,"id_1":"B00155M0H0","type1":"商务住宅","type2":"产业园区","type3":"产业园区","__source_file__":"13-常用公服设施点/SHP/上海市_产业园区-面.shp"},"geometry":{"type":"Polygon","coordinates":[[[121.43632055999373,31.231060558986663],[121.43633458025934,31.231111557794577],[121.4363676374798,31.231145591173174],[121.43686351843647,31.23134325040055],[121.43709497918034,31.230922798167235],[121.43661111908531,31.230662182451255],[121.43631856118583,31.23102057448387],[121.43632055999373,31.231060558986663]]]}},{"id":"624","type":"Feature","properties":{"id":"B00156O1WU","name":"881创意园区","type":"商务住宅;产业园区;产业园区","addr":"上海市静安区武定路881号","结构":null,"面积":0.0,"时间":null,"装修":null,"价格":0.0,"gcj_lng":121.444771,"gcj_lat":31.230156,"wgs_lng":121.440167561,"wgs_lat":31.2320311207,"bd_lng":121.451199586,"bd_lat":31.2365140061,"gcj_shape":"121.444412,31.230274;121.444748,31.229865;121.444842,31.229898;121.445143,31.230072;121.445018,31.230252;121.444944,31.23021;121.444739,31.230461;121.444412,31.230274","FID_1":14605,"id_1":"B00156O1WU","type1":"商务住宅","type2":"产业园区","type3":"产业园区","__source_file__":"13-常用公服设施点/SHP/上海市_产业园区-面.shp"},"geometry":{"type":"Polygon","coordinates":[[[121.44012564817814,31.232326987777704],[121.44033107792761,31.232076444945335],[121.44040522157482,31.232118549253457],[121.44053048860363,31.231938842508313],[121.44022890149786,31.231764418719287],[121.44013471672348,31.23173127805233],[121.43979801696493,31.23213953418636],[121.44012564817814,31.232326987777704]]]}},{"id":"574","type":"Feature","properties":{"id":"B00155LXED","name":"800秀","type":"商务住宅;产业园区;产业园区","addr":"上海市静安区常德路800号","结构":null,"面积":0.0,"时间":null,"装修":null,"价格":0.0,"gcj_lng":121.443871,"gcj_lat":31.233693,"wgs_lng":121.439265292,"wgs_lat":31.2355648498,"bd_lng":121.450298225,"bd_lat":31.2400547623,"gcj_shape":"121.442778,31.233646;121.44349,31.232872;121.443512,31.232861;121.443533,31.232855;121.443551,31.232854;121.443567,31.232854;121.443584,31.232858;121.444122,31.233065;121.444025,31.233238;121.444028,31.233246;121.444034,31.233254;121.444039,31.23326;121.","FID_1":13282,"id_1":"B00155LXED","type1":"商务住宅","type2":"产业园区","type3":"产业园区","__source_file__":"13-常用公服设施点/SHP/上海市_产业园区-面.shp"},"geometry":{"type":"Polygon","coordinates":[[[121.43815856049156,31.235519342191694],[121.43815655631924,31.235528334443096],[121.43815956049158,31.23553933265496],[121.43817158433345,31.23554734934425],[121.43844008024408,31.235687709356306],[121.43839898487667,31.235889552000046],[121.43840098487667,31.235919542463307],[121.43841601229477,31.23594255557633],[121.43842502838804,31.23595256451702],[121.43858031747055,31.236035774921422],[121.43860035382941,31.23605179935933],[121.43861938899613,31.23606682260514],[121.43862940687754,31.236086828565604],[121.43866446469401,31.23618583989048],[121.4388918956356,31.23625117427254],[121.43908429617886,31.235920636804586],[121.43909231227208,31.235913651705737],[121.43910132955745,31.235910667798997],[121.43911435518744,31.235910688660617],[121.43912838081741,31.235916709522243],[121.43998001636888,31.236280934993744],[121.44010227684119,31.236065235997195],[121.44014035134697,31.23608229142951],[121.44044399746133,31.23559102099037],[121.44044900938223,31.23557403767967],[121.44045001176647,31.235561044832224],[121.44044901176645,31.235556044832222],[121.44044500461388,31.23554704244804],[121.4404379903088,31.235534037679663],[121.43942903408433,31.235128558292388],[121.43942402514365,31.235123551735875],[121.43941901560687,31.23511754577541],[121.43941300428202,31.23510954041099],[121.43940999951363,31.235101538026804],[121.43950720455362,31.234928776445386],[121.43896817518142,31.23472099741268],[121.43895114239888,31.234716971782685],[121.43893511259654,31.234716946748733],[121.43891707683375,31.234717915754317],[121.4388960363026,31.234723879991527],[121.43887399338723,31.234734839460373],[121.43816056525995,31.235507349344253],[121.43815856049156,31.235519342191694]]]}},{"id":"844","type":"Feature","properties":{"id":"B00155EGKB","name":"汇智创意","type":"商务住宅;产业园区;产业园区","addr":"上海市静安区余姚路288号(近胶州路)","结构":null,"面积":0.0,"时间":null,"装修":null,"价格":0.0,"gcj_lng":121.438515,"gcj_lat":31.236092,"wgs_lng":121.433898188,"wgs_lat":31.2379536444,"bd_lng":121.444939967,"bd_lat":31.2424599456,"gcj_shape":"121.43843,31.235657;121.438121,31.236175;121.438277,31.236387;121.438348,31.236457;121.438532,31.236556;121.438916,31.235995;121.438917,31.235924;121.438898,31.235877;121.43843,31.235657","FID_1":19891,"id_1":"B00155EGKB","type1":"商务住宅","type2":"产业园区","type3":"产业园区","__source_file__":"13-常用公服设施点/SHP/上海市_产业园区-面.shp"},"geometry":{"type":"Polygon","coordinates":[[[121.43349507279015,31.238028290796287],[121.43365131359292,31.238240410005567],[121.4337224262457,31.238310477358816],[121.433906725461,31.238409689551354],[121.43429142462352,31.23784948765755],[121.43429243177607,31.237778521036155],[121.43427340376188,31.23773151447964],[121.4338046330738,31.23751095598412],[121.43349507279015,31.238028290796287]]]}},{"id":"1024","type":"Feature","properties":{"id":"B00155KVFN","name":"静工园","type":"商务住宅;产业园区;产业园区","addr":"上海市静安区海防路421号","结构":null,"面积":0.0,"时间":null,"装修":null,"价格":0.0,"gcj_lng":121.445497,"gcj_lat":31.237629,"wgs_lng":121.440894524,"wgs_lat":31.2395020381,"bd_lng":121.451924986,"bd_lat":31.2439829391,"gcj_shape":"121.445222,31.237788;121.445537,31.237331;121.445763,31.237467;121.445475,31.237921;121.445222,31.237788","FID_1":23921,"id_1":"B00155KVFN","type1":"商务住宅","type2":"产业园区","type3":"产业园区","__source_file__":"13-常用公服设施点/SHP/上海市_产业园区-面.shp"},"geometry":{"type":"Polygon","coordinates":[[[121.44086247429848,31.239784814592355],[121.44115109895517,31.23933150839043],[121.44092465072825,31.239195186525343],[121.44060897600366,31.239651447427747],[121.44086247429848,31.239784814592355]]]}},{"id":"332","type":"Feature","properties":{"id":"B0FFJAA8RT","name":"创享塔","type":"商务住宅;产业园区;产业园区","addr":"上海市普陀区叶家宅路100号","结构":null,"面积":0.0,"时间":null,"装修":null,"价格":0.0,"gcj_lng":121.431199,"gcj_lat":31.238074,"wgs_lng":121.426569398,"wgs_lat":31.2399242077,"bd_lng":121.437632725,"bd_lat":31.2444048376,"gcj_shape":"121.430716,31.238625;121.430721,31.238647;121.430732,31.238662;121.430745,31.238673;121.430759,31.238674;121.430773,31.23867;121.431303,31.238544;121.431966,31.238384;121.431983,31.238376;121.431993,31.238364;121.431989,31.238341;121.431869,31.238021;121","FID_1":7430,"id_1":"B0FFJAA8RT","type1":"商务住宅","type2":"产业园区","type3":"产业园区","__source_file__":"13-常用公服设施点/SHP/上海市_产业园区-面.shp"},"geometry":{"type":"Polygon","coordinates":[[[121.42608398394202,31.240490110322952],[121.42609499586297,31.240505115091324],[121.42610801136016,31.24051612343597],[121.42612202924155,31.240517138933185],[121.42613604831504,31.24051315562248],[121.42666674449728,31.240387782663348],[121.42733063618277,31.24022858613396],[121.42734766002465,31.24022060759163],[121.42735767552188,31.240208625473024],[121.42735367075349,31.240185630241392],[121.42723353962327,31.239865642162325],[121.42715345021628,31.239649650506976],[121.42715144842815,31.239639653487203],[121.42715545498467,31.239631662427904],[121.42720652412606,31.23961772441674],[121.42722555035209,31.239607750642776],[121.42723356227305,31.239595764947893],[121.4272245527363,31.239576762563708],[121.42712944544792,31.239354757795333],[121.42711943114278,31.239350748258595],[121.42710841683768,31.239350736337663],[121.42709640134046,31.23935172322464],[121.42625728196526,31.239607694448466],[121.42624026050757,31.23960867537498],[121.42622924620247,31.23960166822242],[121.42622023666573,31.239590663454052],[121.42611011507225,31.239374644380568],[121.42609910076712,31.23936363722801],[121.42608708526993,31.239360626499177],[121.42607206679246,31.239360610405924],[121.42580271691321,31.239451284368513],[121.42579470737647,31.23946027244758],[121.42579470618438,31.23947326648712],[121.42579670856856,31.239481264102935],[121.42589581049252,31.23973125516224],[121.42589781108856,31.239752247413634],[121.4258918027439,31.23976923430061],[121.42587578009415,31.23979120688248],[121.4258697705574,31.239808192577364],[121.4258697693653,31.239830184232716],[121.42587377174948,31.23985517708016],[121.42607897917364,31.240468115091318],[121.42608398394202,31.240490110322952]]]}},{"id":"814","type":"Feature","properties":{"id":"B00155QFZT","name":"景源时尚产业园","type":"商务住宅;产业园区;产业园区","addr":"上海市普陀区长寿路652号","结构":null,"面积":0.0,"时间":null,"装修":null,"价格":0.0,"gcj_lng":121.431635,"gcj_lat":31.239099,"wgs_lng":121.427005985,"wgs_lat":31.2409493059,"bd_lng":121.438067341,"bd_lat":31.2454333355,"gcj_shape":"121.431201,31.239813;121.431084,31.239784;121.431173,31.239456;121.431186,31.239371;121.43117,31.239286;121.431143,31.239135;121.431081,31.239004;121.430915,31.238839;121.430768,31.238704;121.432017,31.238412;121.43239,31.239477;121.431201,31.239813","FID_1":19434,"id_1":"B00155QFZT","type1":"商务住宅","type2":"产业园区","type3":"产业园区","__source_file__":"13-常用公服设施点/SHP/上海市_产业园区-面.shp"},"geometry":{"type":"Polygon","coordinates":[[[121.42775511540412,31.24132156944465],[121.42738170353604,31.24025662964535],[121.4261310387783,31.240547134164807],[121.42627821520804,31.24068222953224],[121.42644441547966,31.240847334436417],[121.42650648462106,31.24097834158897],[121.4265335060787,31.241129303441994],[121.42654952038384,31.241214281984327],[121.42653649654198,31.241299229532245],[121.42644735110665,31.241626983961105],[121.42656450131034,31.241656098402025],[121.42775511540412,31.24132156944465]]]}},{"id":"855","type":"Feature","properties":{"id":"B00156ZP7I","name":"仓创意产业园区","type":"商务住宅;产业园区;产业园区","addr":"上海市普陀区宜昌路751号(近常德路)","结构":null,"面积":0.0,"时间":null,"装修":null,"价格":0.0,"gcj_lng":121.430338,"gcj_lat":31.24243,"wgs_lng":121.425706711,"wgs_lat":31.2442771446,"bd_lng":121.436771422,"bd_lat":31.2487526239,"gcj_shape":"121.430243,31.242092;121.430367,31.242054;121.430498,31.242019;121.430607,31.242016;121.430798,31.242073;121.430469,31.242851;121.430361,31.242862;121.429864,31.242724;121.430156,31.242098;121.430243,31.242092","FID_1":20279,"id_1":"B00156ZP7I","type1":"商务住宅","type2":"产业园区","type3":"产业园区","__source_file__":"13-常用公服设施点/SHP/上海市_产业园区-面.shp"},"geometry":{"type":"Polygon","coordinates":[[[121.42551796947097,31.24393896097946],[121.42522555462264,31.244564379238135],[121.42572316020585,31.24470283223343],[121.42583129729653,31.244691950250626],[121.42616078367041,31.243914646432877],[121.42596954525183,31.24385747000312],[121.42586040696906,31.24386035317802],[121.42572923769188,31.24389520059013],[121.42560508033563,31.2439330551548],[121.42551796947097,31.24393896097946]]]}},{"id":"249","type":"Feature","properties":{"id":"B0FFFWUBLB","name":"中华1912创意产业园","type":"商务住宅;产业园区;产业园区","addr":"上海市普陀区澳门路477号5号楼","结构":"板楼","面积":0.0,"时间":null,"装修":null,"价格":0.0,"gcj_lng":121.440417,"gcj_lat":31.245778,"wgs_lng":121.435803059,"wgs_lat":31.2476383653,"bd_lng":121.446836411,"bd_lat":31.2521456118,"gcj_shape":"121.440606,31.246395;121.441162,31.24572;121.440869,31.245564;121.440427,31.245413;121.440135,31.245278;121.439913,31.245532;121.439702,31.245416;121.439579,31.245545;121.440216,31.246063;121.440229,31.246077;121.44025,31.246093;121.440606,31.246395","FID_1":5600,"id_1":"B0FFFWUBLB","type1":"商务住宅","type2":"产业园区","type3":"产业园区","__source_file__":"13-常用公服设施点/SHP/上海市_产业园区-面.shp"},"geometry":{"type":"Polygon","coordinates":[[[121.43654052168083,31.24757339570045],[121.43624700550461,31.247417024959567],[121.43580422945215,31.247265432489392],[121.43551172400475,31.2471300629406],[121.43528931273269,31.24738362305832],[121.43507795450877,31.24726736854648],[121.43495473099136,31.247396131916044],[121.4355928002987,31.24791483167457],[121.43560582175638,31.247928843595503],[121.43562685751917,31.24794486743736],[121.43598346191027,31.248247262020108],[121.43654052168083,31.24757339570045]]]}},{"id":"64","type":"Feature","properties":{"id":"B0FFFDHKKK","name":"228文化创意园","type":"商务住宅;产业园区;产业园区","addr":"上海市黄浦区大沽路288号(淮海中路人民广场南京西路上海电视台)","结构":null,"面积":0.0,"时间":null,"装修":null,"价格":0.0,"gcj_lng":121.468599,"gcj_lat":31.22604,"wgs_lng":121.464060044,"wgs_lat":31.2279706799,"bd_lng":121.47511109,"bd_lat":31.2320715803,"gcj_shape":"121.468802,31.226153;121.468818,31.225857;121.468805,31.225814;121.468494,31.225801;121.468487,31.225927;121.468448,31.225974;121.468359,31.22597;121.468366,31.226256;121.468777,31.22624;121.468771,31.226159;121.468802,31.226153","FID_1":1579,"id_1":"B0FFFDHKKK","type1":"商务住宅","type2":"产业园区","type3":"产业园区","__source_file__":"13-常用公服设施点/SHP/上海市_产业园区-面.shp"},"geometry":{"type":"Polygon","coordinates":[[[121.46426567737393,31.22777581537438],[121.46425264280322,31.227732804645537],[121.46394071535494,31.227719034553534],[121.46393368316842,31.22784495706749],[121.4638945633631,31.227891838454248],[121.46380529931452,31.227887618513115],[121.46381229454616,31.22817350407219],[121.46422452240182,31.228158536424644],[121.46421851048092,31.228077557882315],[121.46424960346414,31.228071638944634],[121.46426567737393,31.22777581537438]]]}},{"id":"369","type":"Feature","properties":{"id":"B0FFG95867","name":"瑞阁·北外滩","type":"商务住宅;产业园区;产业园区","addr":"上海市虹口区溧阳路111号","结构":null,"面积":0.0,"时间":null,"装修":null,"价格":0.0,"gcj_lng":121.495374,"gcj_lat":31.247277,"wgs_lng":121.490924624,"wgs_lat":31.2492742897,"bd_lng":121.501976975,"bd_lat":31.2529262321,"gcj_shape":"121.494979,31.247357;121.495446,31.247642;121.495792,31.247165;121.495312,31.246964;121.495264,31.24696;121.49522,31.24697;121.494979,31.247357","FID_1":8306,"id_1":"B0FFG95867","type1":"商务住宅","type2":"产业园区","type3":"产业园区","__source_file__":"13-常用公服设施点/SHP/上海市_产业园区-面.shp"},"geometry":{"type":"Polygon","coordinates":[[[121.49098067035294,31.249625120441433],[121.49132794946863,31.24914936379433],[121.49084624954415,31.248947021497727],[121.49079807788277,31.248942880830768],[121.49075391814233,31.248952744932176],[121.49051202407267,31.249338853246684],[121.49098067035294,31.249625120441433]]]}},{"id":"381","type":"Feature","properties":{"id":"B00151A861","name":"虹口北外滩开业园区","type":"商务住宅;产业园区;产业园区","addr":"上海市虹口区东大名路391-393号","结构":null,"面积":0.0,"时间":null,"装修":null,"价格":0.0,"gcj_lng":121.496266,"gcj_lat":31.247603,"wgs_lng":121.49181981,"wgs_lat":31.2496028203,"bd_lng":121.502869665,"bd_lat":31.2532484664,"gcj_shape":"121.496246,31.247872;121.496497,31.247426;121.4963,31.24733;121.496029,31.247771;121.496246,31.247872","FID_1":8583,"id_1":"B00151A861","type1":"商务住宅","type2":"产业园区","type3":"产业园区","__source_file__":"13-常用公服设施点/SHP/上海市_产业园区-面.shp"},"geometry":{"type":"Polygon","coordinates":[[[121.49203545703601,31.24941235399342],[121.49183775727748,31.249315808014877],[121.49156574817084,31.249755802484515],[121.49178351826285,31.24985740568352],[121.49203545703601,31.24941235399342]]]}},{"id":"955","type":"Feature","properties":{"id":"B0FFFAA5ML","name":"武夷商务园","type":"商务住宅;产业园区;产业园区","addr":"上海市静安区虬江路865-867号附近","结构":null,"面积":0.0,"时间":null,"装修":null,"价格":0.0,"gcj_lng":121.475275,"gcj_lat":31.252544,"wgs_lng":121.470755203,"wgs_lat":31.2544805731,"bd_lng":121.481807939,"bd_lat":31.2584465174,"gcj_shape":"121.47498,31.252657;121.47507,31.252487;121.475245,31.252257;121.475297,31.252268;121.475582,31.252377;121.475615,31.252401;121.475259,31.25286;121.474993,31.252712;121.47498,31.252657","FID_1":22264,"id_1":"B0FFFAA5ML","type1":"商务住宅","type2":"产业园区","type3":"产业园区","__source_file__":"13-常用公服设施点/SHP/上海市_产业园区-面.shp"},"geometry":{"type":"Polygon","coordinates":[[[121.47045742627907,31.25463461815071],[121.47072426253224,31.25478326009273],[121.47108143972397,31.25432541225052],[121.47104833481981,31.25430133595658],[121.47076243478963,31.25419162189293],[121.47071027028085,31.254180488378523],[121.4705346909237,31.254409920942308],[121.47044439111232,31.25457960801792],[121.47045742627907,31.25463461815071]]]}},{"id":"152","type":"Feature","properties":{"id":"B00156ECHP","name":"兴中心创意园","type":"商务住宅;产业园区;产业园区","addr":"上海市静安区西藏北路605号","结构":null,"面积":0.0,"时间":null,"装修":null,"价格":0.0,"gcj_lng":121.468466,"gcj_lat":31.252615,"wgs_lng":121.463924341,"wgs_lat":31.2545332729,"bd_lng":121.474965782,"bd_lat":31.2586461169,"gcj_shape":"121.468126,31.252269;121.468936,31.252402;121.468826,31.252879;121.468775,31.252923;121.468695,31.252939;121.468598,31.252936;121.468007,31.252836;121.468126,31.252269","FID_1":3482,"id_1":"B00156ECHP","type1":"商务住宅","type2":"产业园区","type3":"产业园区","__source_file__":"13-常用公服设施点/SHP/上海市_产业园区-面.shp"},"geometry":{"type":"Polygon","coordinates":[[[121.46344993046,31.254740603242873],[121.4640426786642,31.25484202838993],[121.46413996774675,31.254845268596654],[121.46422020854953,31.254829476020813],[121.46427136471371,31.254785622648242],[121.46438173545457,31.25430910783005],[121.46356933219528,31.254174148029325],[121.46344993046,31.254740603242873]]]}},{"id":"278","type":"Feature","properties":{"id":"B00157GQYE","name":"1930鑫鑫创意园","type":"商务住宅;产业园区;产业园区","addr":"上海市虹口区辽宁路244号(九龙宾馆后面)","结构":null,"面积":0.0,"时间":null,"装修":null,"价格":0.0,"gcj_lng":121.491186,"gcj_lat":31.255136,"wgs_lng":121.486720933,"wgs_lat":31.2571172969,"bd_lng":121.497774836,"bd_lat":31.2608109109,"gcj_shape":"121.490742,31.2552;121.490977,31.255031;121.491164,31.254955;121.491315,31.254931;121.491437,31.254989;121.491547,31.255088;121.491555,31.255257;121.490906,31.255286;121.490774,31.255276;121.490742,31.2552","FID_1":6190,"id_1":"B00157GQYE","type1":"商务住宅","type2":"产业园区","type3":"产业园区","__source_file__":"13-常用公服设施点/SHP/上海市_产业园区-面.shp"},"geometry":{"type":"Polygon","coordinates":[[[121.48629141361619,31.25724191615677],[121.4864238785324,31.257252300010684],[121.48707517092706,31.25722522285652],[121.48706715781404,31.25705627411652],[121.48695677753639,31.25695699397469],[121.48683435136317,31.25689865959263],[121.4866828167095,31.256922204809186],[121.48649515092562,31.256997621279716],[121.4862593075199,31.257165855360036],[121.48629141361619,31.25724191615677]]]}},{"id":"131","type":"Feature","properties":{"id":"B0FFGDGR18","name":"老洋行1913创业园区","type":"商务住宅;产业园区;产业园区","addr":"上海市虹口区哈尔滨路160号A216室","结构":null,"面积":0.0,"时间":null,"装修":null,"价格":0.0,"gcj_lng":121.490015,"gcj_lat":31.255378,"wgs_lng":121.485545739,"wgs_lat":31.2573557122,"bd_lng":121.496600882,"bd_lat":31.2610634107,"gcj_shape":"121.490138,31.25566;121.490214,31.255543;121.490317,31.25543;121.49037,31.255371;121.490163,31.255268;121.489955,31.255072;121.489667,31.255289;121.490077,31.255709;121.490138,31.25566","FID_1":3030,"id_1":"B0FFGDGR18","type1":"商务住宅","type2":"产业园区","type3":"产业园区","__source_file__":"13-常用公服设施点/SHP/上海市_产业园区-面.shp"},"geometry":{"type":"Polygon","coordinates":[[[121.48572942043683,31.25750715662766],[121.48583279117776,31.257394508295064],[121.4858859842968,31.25733568949319],[121.48567826427268,31.257232126825336],[121.48546955080506,31.2570356029005],[121.48518052024079,31.25725166651154],[121.48559192333411,31.257672683366785],[121.48565314267921,31.25762388363838],[121.48572942043683,31.25750715662766]]]}},{"id":"879","type":"Feature","properties":{"id":"B00157517R","name":"半岛湾时尚文化创意产业园","type":"商务住宅;产业园区;产业园区","addr":"上海市虹口区溧阳路735号2栋2102","结构":null,"面积":0.0,"时间":null,"装修":null,"价格":0.0,"gcj_lng":121.489383,"gcj_lat":31.255406,"wgs_lng":121.48491149,"wgs_lat":31.2573818271,"bd_lng":121.495967261,"bd_lat":31.2610975993,"gcj_shape":"121.48912,31.254757;121.489715,31.255348;121.490103,31.255741;121.489853,31.256048;121.48978,31.256076;121.489731,31.256064;121.489654,31.256025;121.489297,31.255666;121.488996,31.255401;121.488719,31.255201;121.488618,31.255129;121.48884,31.254897;121.4","FID_1":20872,"id_1":"B00157517R","type1":"商务住宅","type2":"产业园区","type3":"产业园区","__source_file__":"13-常用公服设施点/SHP/上海市_产业园区-面.shp"},"geometry":{"type":"Polygon","coordinates":[[[121.48453932559775,31.25675501546288],[121.48435066040989,31.25685742180061],[121.48412786528397,31.25708867435837],[121.48422921039487,31.257160936022757],[121.48450716228103,31.257361656642914],[121.48480919224929,31.25762741958237],[121.48516741295242,31.257987306499484],[121.48524467878914,31.258026515115745],[121.48529384925843,31.258038652206423],[121.48536710913464,31.258010878704074],[121.48561801333715,31.257704744759565],[121.4852286835575,31.257310779760367],[121.48463164984702,31.25671829918099],[121.48453932559775,31.25675501546288]]]}},{"id":"299","type":"Feature","properties":{"id":"B0FFG4J0TO","name":"上海市文化创意产业园区(辽宁路)","type":"商务住宅;产业园区;产业园区","addr":"上海市虹口区辽宁路46号","结构":null,"面积":0.0,"时间":null,"装修":null,"价格":0.0,"gcj_lng":121.491692,"gcj_lat":31.257048,"wgs_lng":121.487228577,"wgs_lat":31.2590299659,"bd_lng":121.498280019,"bd_lat":31.2627182364,"gcj_shape":"121.491828,31.256566;121.491336,31.256764;121.491348,31.256821;121.491087,31.256871;121.491234,31.257315;121.491313,31.257432;121.491829,31.257376;121.492059,31.25736;121.49232,31.257272;121.49222,31.256994;121.492019,31.256775;121.491828,31.256566","FID_1":6565,"id_1":"B0FFG4J0TO","type1":"商务住宅","type2":"产业园区","type3":"产业园区","__source_file__":"13-常用公服设施点/SHP/上海市_产业园区-面.shp"},"geometry":{"type":"Polygon","coordinates":[[[121.48685526910877,31.258730921687125],[121.48686730665969,31.258787931819917],[121.48660538040352,31.25883714146233],[121.486752861413,31.25928138047695],[121.4868321296339,31.259398562867162],[121.48734995830442,31.259344107819558],[121.48758077488803,31.25932879327297],[121.48784270650864,31.259241602108006],[121.48774237629891,31.25896342925453],[121.48754068250085,31.25874393095971],[121.48734902446557,31.25853445650673],[121.48685526910877,31.258730921687125]]]}},{"id":"847","type":"Feature","properties":{"id":"B00155HFN4","name":"孔雀创意园","type":"商务住宅;产业园区;产业园区","addr":"上海市静安区芷江西路130号","结构":null,"面积":0.0,"时间":null,"装修":null,"价格":0.0,"gcj_lng":121.465308,"gcj_lat":31.257205,"wgs_lng":121.460756264,"wgs_lat":31.2591131622,"bd_lng":121.471788018,"bd_lat":31.2632943511,"gcj_shape":"121.464956,31.257743;121.46553,31.257734;121.465528,31.257466;121.465693,31.25746;121.465715,31.257446;121.465723,31.257422;121.465699,31.256711;121.465276,31.256717;121.464956,31.256742;121.464944,31.256748;121.46494,31.256884;121.464944,31.257737;121.4","FID_1":19988,"id_1":"B00155HFN4","type1":"商务住宅","type2":"产业园区","type3":"产业园区","__source_file__":"13-常用公服设施点/SHP/上海市_产业园区-面.shp"},"geometry":{"type":"Polygon","coordinates":[[[121.46096527543547,31.259630417737],[121.46096329331685,31.259362528601642],[121.46112876836585,31.25935692854881],[121.46115083273887,31.259342988153456],[121.46115885896492,31.259319016763683],[121.46113485002424,31.258608268891336],[121.46071063468551,31.258613250247954],[121.46038971617794,31.258637473599435],[121.4603776822033,31.258643443201066],[121.46037365836142,31.25877937405967],[121.46037759637261,31.259632011663435],[121.4603896297512,31.25963803788948],[121.46096527543547,31.259630417737]]]}},{"id":"212","type":"Feature","properties":{"id":"B0FFF0F947","name":"东海广场招商园区","type":"商务住宅;产业园区;产业园区","addr":"上海市静安区愚园路28号东海广场","结构":null,"面积":0.0,"时间":null,"装修":null,"价格":0.0,"gcj_lng":121.448256,"gcj_lat":31.225904,"wgs_lng":121.443660877,"wgs_lat":31.2277877415,"bd_lng":121.454689865,"bd_lat":31.2322396954,"gcj_shape":"121.447558,31.225946;121.447652,31.225667;121.447765,31.225567;121.448289,31.225767;121.448856,31.22592;121.44912,31.226042;121.449023,31.226236;121.448883,31.226161;121.448662,31.226102;121.448436,31.22605;121.448139,31.225997;121.44807,31.226013;121.44","FID_1":4883,"id_1":"B0FFF0F947","type1":"商务住宅","type2":"产业园区","type3":"产业园区","__source_file__":"13-常用公服设施点/SHP/上海市_产业园区-面.shp"},"geometry":{"type":"Polygon","coordinates":[[[121.44340779596712,31.227928679161074],[121.44346391934873,31.22788679896641],[121.44353307014848,31.227870929500575],[121.44383070434188,31.227924439716336],[121.4440571905055,31.227977000000003],[121.44427866636084,31.228036201463702],[121.4444189661722,31.228111422596932],[121.44451619684219,31.227917689029688],[121.44425162821389,31.227795263452535],[121.44368341227911,31.22764130739403],[121.44315830601693,31.227440461008072],[121.44304505746557,31.227540213648794],[121.44295083275603,31.227818916221615],[121.44340779596712,31.227928679161074]]]}},{"id":"465","type":"Feature","properties":{"id":"B0FFFYN451","name":"冠生园互联网金融园区","type":"商务住宅;产业园区;产业园区","addr":"上海市静安区新闸路1418号冠生园","结构":null,"面积":0.0,"时间":null,"装修":null,"价格":0.0,"gcj_lng":121.449312,"gcj_lat":31.231319,"wgs_lng":121.444718922,"wgs_lat":31.2332023339,"bd_lng":121.455748547,"bd_lat":31.2376458601,"gcj_shape":"121.449396,31.231579;121.44946,31.231587;121.449651,31.231388;121.449675,31.231344;121.449679,31.23131;121.449669,31.231269;121.449621,31.231225;121.449115,31.231033;121.448939,31.231386;121.449396,31.231579","FID_1":10596,"id_1":"B0FFFYN451","type1":"商务住宅","type2":"产业园区","type3":"产业园区","__source_file__":"13-常用公服设施点/SHP/上海市_产业园区-面.shp"},"geometry":{"type":"Polygon","coordinates":[[[121.44485646327495,31.233460754858974],[121.44504790375328,31.233262200105663],[121.44507196097373,31.23321826447868],[121.44507597289467,31.233184288320544],[121.44506595382117,31.233143288320548],[121.44501785010908,31.233099220371244],[121.44451075099946,31.232906373985294],[121.44433433495902,31.233258891187667],[121.44479232320404,31.2334526410141],[121.44485646327495,31.233460754858974]]]}},{"id":"959","type":"Feature","properties":{"id":"B00155N7AT","name":"源创创意园","type":"商务住宅;产业园区;产业园区","addr":"上海市静安区陕西北路600号(与新闸路交汇处)","结构":null,"面积":0.0,"时间":null,"装修":null,"价格":0.0,"gcj_lng":121.451979,"gcj_lat":31.232759,"wgs_lng":121.447392362,"wgs_lat":31.2346471623,"bd_lng":121.458422304,"bd_lat":31.2390589347,"gcj_shape":"121.451514,31.233081;121.451503,31.233068;121.451499,31.233056;121.451502,31.233039;121.451507,31.233022;121.452007,31.232373;121.452033,31.232348;121.452066,31.232329;121.452121,31.23232;121.452157,31.232318;121.452208,31.232326;121.452249,31.232337;121","FID_1":22333,"id_1":"B00155N7AT","type1":"商务住宅","type2":"产业园区","type3":"产业园区","__source_file__":"13-常用公服设施点/SHP/上海市_产业园区-面.shp"},"geometry":{"type":"Polygon","coordinates":[[[121.44724371265602,31.235139497434616],[121.44781710740472,31.23442194225121],[121.44786422899818,31.234302087686544],[121.44786623495864,31.23428809841538],[121.44786122482584,31.234273096627234],[121.44785520992468,31.234266087686542],[121.44784218071841,31.23425906563282],[121.44765173904801,31.234215712177278],[121.44761064606476,31.23420463826752],[121.44755952625944,31.23419654230404],[121.44752344221689,31.23419847018242],[121.44746831466296,31.23420735931778],[121.44743523479272,31.23422628660012],[121.44740917280387,31.234251224611285],[121.44690795806122,31.234898959800717],[121.44690294614031,31.234915943111424],[121.44689993660353,31.23493292880631],[121.44690394494822,31.2349449299984],[121.4469149693861,31.234957946091647],[121.44724371265602,31.235139497434616]]]}},{"id":"158","type":"Feature","properties":{"id":"B0FFLBCUH0","name":"极客工社","type":"商务住宅;产业园区;产业园区|购物服务;购物相关场所;购物相关场所","addr":"上海市静安区石门二路343-349号","结构":null,"面积":0.0,"时间":null,"装修":null,"价格":0.0,"gcj_lng":121.459342,"gcj_lat":31.236443,"wgs_lng":121.454774672,"wgs_lat":31.2383458964,"bd_lng":121.465810655,"bd_lat":31.2426406513,"gcj_shape":"121.459378,31.236387;121.459383,31.236401;121.459383,31.23641;121.459281,31.23659;121.459264,31.2366;121.459249,31.236606;121.459228,31.23661;121.459195,31.236611;121.459163,31.236605;121.458801,31.236493;121.458788,31.236481;121.458778,31.236466;121.458","FID_1":3601,"id_1":"B0FFLBCUH0","type1":"商务住宅","type2":"产业园区","type3":"产业园区|购物服务","__source_file__":"13-常用公服设施点/SHP/上海市_产业园区-面.shp"},"geometry":{"type":"Polygon","coordinates":[[[121.45437003734207,31.23811484768295],[121.45434096104816,31.238110785694126],[121.45431890323165,31.238114736222265],[121.45430486568071,31.23812569986343],[121.4542065909033,31.23833039170742],[121.45419656288911,31.23835635892486],[121.45420658673098,31.23837137322998],[121.45421962010957,31.23838339707184],[121.45458256067084,31.238496139745713],[121.4546146447134,31.23850220709896],[121.45464773173619,31.238501281008716],[121.45466878716852,31.238497328096393],[121.45468382769965,31.238491363859183],[121.45470087299921,31.23848140677452],[121.45480315671733,31.23830171433449],[121.45480315910152,31.238292716718675],[121.45479814598846,31.238278713142396],[121.45437003734207,31.23811484768295]]]}},{"id":"164","type":"Feature","properties":{"id":"B00155QDXG","name":"1501 Art Studio","type":"商务住宅;产业园区;产业园区","addr":"上海市静安区南苏州路1501号","结构":null,"面积":0.0,"时间":null,"装修":null,"价格":0.0,"gcj_lng":121.460485,"gcj_lat":31.238751,"wgs_lng":121.455920706,"wgs_lat":31.2406555502,"bd_lng":121.466957589,"bd_lat":31.2449295871,"gcj_shape":"121.460046,31.238965;121.460294,31.23934;121.460373,31.23938;121.461031,31.238465;121.460505,31.238192;121.460006,31.238907;121.460046,31.238965","FID_1":3726,"id_1":"B00155QDXG","type1":"商务住宅","type2":"产业园区","type3":"产业园区","__source_file__":"13-常用公服设施点/SHP/上海市_产业园区-面.shp"},"geometry":{"type":"Polygon","coordinates":[[[121.45571632573034,31.24123240992069],[121.45579553255843,31.2412725690651],[121.4564553838787,31.24035946568489],[121.4559279903221,31.240085403530124],[121.45542759318923,31.240798963481907],[121.45546769451713,31.24085702666283],[121.45571632573034,31.24123240992069]]]}},{"id":"871","type":"Feature","properties":{"id":"B0FFF00K9Z","name":"南苏河创意园区","type":"商务住宅;产业园区;产业园区","addr":"上海市黄浦区南苏州路1305号","结构":null,"面积":0.0,"时间":null,"装修":null,"价格":0.0,"gcj_lng":121.464636,"gcj_lat":31.240602,"wgs_lng":121.460083678,"wgs_lat":31.2425158589,"bd_lng":121.471126483,"bd_lat":31.2467072366,"gcj_shape":"121.46457,31.240853;121.464811,31.240789;121.464772,31.240576;121.464762,31.240376;121.464751,31.240371;121.46443,31.240436;121.46457,31.240853","FID_1":20712,"id_1":"B0FFF00K9Z","type1":"商务住宅","type2":"产业园区","type3":"产业园区","__source_file__":"13-常用公服设施点/SHP/上海市_产业园区-面.shp"},"geometry":{"type":"Polygon","coordinates":[[[121.46024568415739,31.24269119700336],[121.46020659177017,31.242478201175686],[121.46019658104132,31.242278266740797],[121.46018555004693,31.24227324289894],[121.45986363213538,31.242337451349265],[121.46000399453163,31.24275459440041],[121.46024568415739,31.24269119700336]]]}},{"id":"973","type":"Feature","properties":{"id":"B00157I0VE","name":"景裕创意园区","type":"商务住宅;产业园区;产业园区","addr":"上海市静安区中华新路496号","结构":null,"面积":0.0,"时间":null,"装修":null,"价格":0.0,"gcj_lng":121.465177,"gcj_lat":31.253367,"wgs_lng":121.460625201,"wgs_lat":31.2552765157,"bd_lng":121.471660166,"bd_lat":31.2594597427,"gcj_shape":"121.464743,31.2536;121.465478,31.253703;121.465663,31.253187;121.46564,31.253164;121.464823,31.253024;121.464743,31.2536","FID_1":22591,"id_1":"B00157I0VE","type1":"商务住宅","type2":"产业园区","type3":"产业园区","__source_file__":"13-常用公服设施点/SHP/上海市_产业园区-面.shp"},"geometry":{"type":"Polygon","coordinates":[[[121.46091347511103,31.25560105150032],[121.461099052084,31.255085723840722],[121.46107598771093,31.255062678541186],[121.46025665895748,31.25492078251743],[121.46017638179589,31.25549633965492],[121.46091347511103,31.25560105150032]]]}},{"id":"513","type":"Feature","properties":{"id":"B00155F4WJ","name":"欣普都市工业园区","type":"商务住宅;产业园区;产业园区","addr":"上海市静安区普善路300号6号楼101A室","结构":null,"面积":0.0,"时间":null,"装修":null,"价格":0.0,"gcj_lng":121.453766,"gcj_lat":31.258436,"wgs_lng":121.449181705,"wgs_lat":31.2603164807,"bd_lng":121.460197132,"bd_lat":31.2647101477,"gcj_shape":"121.454645,31.259018;121.452805,31.258615;121.452886,31.258243;121.452969,31.258257;121.453015,31.258131;121.453369,31.257833;121.453591,31.258019;121.453739,31.257863;121.453935,31.257867;121.454594,31.258537;121.454683,31.258748;121.454696,31.258872;12","FID_1":11766,"id_1":"B00155F4WJ","type1":"商务住宅","type2":"产业园区","type3":"产业园区","__source_file__":"13-常用公服设施点/SHP/上海市_产业园区-面.shp"},"geometry":{"type":"Polygon","coordinates":[[[121.45011029744532,31.26082774677849],[121.45010228552437,31.26074376823616],[121.45008926406669,31.2606197944622],[121.45000006617929,31.260408703863142],[121.44933952599527,31.259737659589767],[121.44914305392646,31.259733266199113],[121.44899468437768,31.25988890141869],[121.44877216998957,31.259702538426403],[121.44841730154991,31.259999704557416],[121.44837118234062,31.260125559122088],[121.44828798683739,31.26011140176582],[121.44820676272391,31.260483079900737],[121.45005114902976,31.260889600747113],[121.45011029744532,31.26082774677849]]]}},{"id":"869","type":"Feature","properties":{"id":"B0015517S3","name":"上海凤凰都市工业园区","type":"商务住宅;产业园区;产业园区","addr":"上海市静安区共和新路1207号","结构":null,"面积":0.0,"时间":null,"装修":null,"价格":0.0,"gcj_lng":121.461112,"gcj_lat":31.262534,"wgs_lng":121.456547446,"wgs_lat":31.2644295122,"bd_lng":121.46756735,"bd_lat":31.2686968603,"gcj_shape":"121.460603,31.262255;121.461,31.261804;121.461661,31.261993;121.461473,31.262459;121.46186,31.262576;121.461664,31.263141;121.46124,31.263045;121.460768,31.262956;121.460742,31.263062;121.460322,31.262991;121.460603,31.262255","FID_1":20630,"id_1":"B0015517S3","type1":"商务住宅","type2":"产业园区","type3":"产业园区","__source_file__":"13-常用公服设施点/SHP/上海市_产业园区-面.shp"},"geometry":{"type":"Polygon","coordinates":[[[121.45574234924031,31.264873048249243],[121.4561634709997,31.26494496139241],[121.45618955027388,31.26483906570053],[121.45666281985282,31.264929094476706],[121.45708796605012,31.265026017752653],[121.45728455077173,31.264461708570487],[121.45689650411413,31.26434387648964],[121.4570850566492,31.263878505318644],[121.45642227625845,31.263688084939965],[121.45602416761207,31.26413799536705],[121.45574234924031,31.264873048249243]]]}},{"id":"990","type":"Feature","properties":{"id":"B0FFGCEU42","name":"上坊物业·名仕街创意园区","type":"商务住宅;产业园区;产业园区|生活服务;生活服务场所;生活服务场所","addr":"上海市静安区洛川中路1158号(近沪太路)","结构":null,"面积":0.0,"时间":null,"装修":null,"价格":0.0,"gcj_lng":121.448944,"gcj_lat":31.26258,"wgs_lng":121.444347331,"wgs_lat":31.2644486353,"bd_lng":121.455357701,"bd_lat":31.2689044474,"gcj_shape":"121.448558,31.263019;121.448694,31.2628;121.449343,31.263089;121.44973,31.262529;121.449156,31.262251;121.44862,31.261975;121.448438,31.262271;121.448541,31.26232;121.448195,31.262855;121.448558,31.263019","FID_1":22976,"id_1":"B0FFGCEU42","type1":"商务住宅","type2":"产业园区","type3":"产业园区|生活服务","__source_file__":"13-常用公服设施点/SHP/上海市_产业园区-面.shp"},"geometry":{"type":"Polygon","coordinates":[[[121.44408606862447,31.26465847640037],[121.44473646575736,31.264948539747238],[121.44512437055587,31.264389496997833],[121.44454912720298,31.264110556436535],[121.44401198040964,31.26383369574547],[121.44382956019686,31.26412923976993],[121.44393277834989,31.26417840427876],[121.44358598501208,31.264712550144196],[121.44394975510406,31.264877134269714],[121.44408606862447,31.26465847640037]]]}},{"id":"516","type":"Feature","properties":{"id":"B0FFICBOJS","name":"格林德必易园","type":"商务住宅;产业园区;产业园区","addr":"上海市普陀区中山北路1238号","结构":null,"面积":0.0,"时间":null,"装修":null,"价格":0.0,"gcj_lng":121.445669,"gcj_lat":31.256859,"wgs_lng":121.44106524,"wgs_lat":31.2587237764,"bd_lng":121.452082501,"bd_lat":31.2632082202,"gcj_shape":"121.445685,31.257157;121.445835,31.256581;121.445694,31.256538;121.445663,31.256666;121.445611,31.256679;121.445505,31.257126;121.445685,31.257157","FID_1":11797,"id_1":"B0FFICBOJS","type1":"商务住宅","type2":"产业园区","type3":"产业园区","__source_file__":"13-常用公服设施点/SHP/上海市_产业园区-面.shp"},"geometry":{"type":"Polygon","coordinates":[[[121.44122158261303,31.258437130361557],[121.44108029889492,31.25839390863227],[121.44104922438909,31.258521799555773],[121.44099711769675,31.25853470597648],[121.440890863781,31.258981332851405],[121.44107122617723,31.25901262372207],[121.44122158261303,31.258437130361557]]]}},{"id":"603","type":"Feature","properties":{"id":"B00155MQ4Z","name":"新华文化创新科技园","type":"商务住宅;产业园区;产业园区","addr":"上海市静安区沪太路785号","结构":null,"面积":0.0,"时间":null,"装修":null,"价格":0.0,"gcj_lng":121.444686,"gcj_lat":31.266609,"wgs_lng":121.440079211,"wgs_lat":31.2684677359,"bd_lng":121.45108844,"bd_lat":31.2729607309,"gcj_shape":"121.444669,31.266716;121.444636,31.266757;121.444326,31.267182;121.444156,31.267409;121.444576,31.267646;121.444736,31.267437;121.445116,31.266994;121.445161,31.266945;121.445203,31.266889;121.445246,31.266826;121.445382,31.266644;121.44551,31.266447;121","FID_1":13941,"id_1":"B00155MQ4Z","type1":"商务住宅","type2":"产业园区","type3":"产业园区","__source_file__":"13-常用公服设施点/SHP/上海市_产业园区-面.shp"},"geometry":{"type":"Polygon","coordinates":[[[121.44001928409199,31.268606734783166],[121.43970863440134,31.269031042177197],[121.43953828154184,31.26925766547584],[121.43995908739663,31.26949525675392],[121.44011942416289,31.269286610209463],[121.44050022167302,31.26884443275356],[121.44054531525231,31.268795529909134],[121.44058740585137,31.268739622892376],[121.44063049645044,31.26867672302818],[121.44076678732111,31.268495028203958],[121.44089506388664,31.268298328611372],[121.43979893480875,31.267621790811532],[121.43962559148599,31.267648495172494],[121.43926985715677,31.268112715543744],[121.44005235382942,31.268565805712697],[121.44001928409199,31.268606734783166]]]}},{"id":"1071","type":"Feature","properties":{"id":"B00156O6HM","name":"钻石坊经典创意园区","type":"商务住宅;产业园区;产业园区","addr":"上海市静安区中山北路178号(近东宝兴路)","结构":null,"面积":0.0,"时间":null,"装修":null,"价格":0.0,"gcj_lng":121.471098,"gcj_lat":31.265059,"wgs_lng":121.466563568,"wgs_lat":31.2669787944,"bd_lng":121.477598319,"bd_lat":31.2710367559,"gcj_shape":"121.470592,31.265102;121.470971,31.265414;121.471221,31.265189;121.471404,31.265345;121.471648,31.265119;121.471208,31.26479;121.471051,31.264655;121.470942,31.264753;121.470592,31.265102","FID_1":25192,"id_1":"B00156O6HM","type1":"商务住宅","type2":"产业园区","type3":"产业园区","__source_file__":"13-常用公服设施点/SHP/上海市_产业园区-面.shp"},"geometry":{"type":"Polygon","coordinates":[[[121.46642177025889,31.267320619668006],[121.4666725558481,31.267096355189324],[121.46685610480691,31.267252759904864],[121.4671008748989,31.26702748231316],[121.46665955167578,31.266697492876055],[121.46650208139515,31.266562147765164],[121.46639273866842,31.266659827688216],[121.46604164015484,31.267007785202978],[121.46642177025889,31.267320619668006]]]}},{"id":"293","type":"Feature","properties":{"id":"B00155KQS4","name":"德必运动Loft国际体育产业园","type":"商务住宅;产业园区;产业园区","addr":"上海市虹口区花园路128号(近虹口足球场)","结构":null,"面积":0.0,"时间":null,"装修":null,"价格":0.0,"gcj_lng":121.47278,"gcj_lat":31.270585,"wgs_lng":121.468250497,"wgs_lat":31.2725069562,"bd_lng":121.479283414,"bd_lat":31.2765295181,"gcj_shape":"121.472165,31.270893;121.47172,31.27066;121.471745,31.270509;121.471775,31.270415;121.471836,31.270316;121.471921,31.270231;121.47206,31.270142;121.472339,31.26996;121.472389,31.269926;121.472468,31.26986;121.472974,31.270092;121.473112,31.269929;121.473","FID_1":6508,"id_1":"B00155KQS4","type1":"商务住宅","type2":"产业园区","type3":"产业园区","__source_file__":"13-常用公服设施点/SHP/上海市_产业园区-面.shp"},"geometry":{"type":"Polygon","coordinates":[[[121.46806834551144,31.273023437609673],[121.46853277065847,31.273243552812573],[121.46867119742774,31.273307886598587],[121.46877551929285,31.27334914170646],[121.46889288407326,31.273373437345505],[121.46906744733714,31.273187973191263],[121.4689681427574,31.273097750865936],[121.46908652780343,31.272951121606823],[121.46867124928379,31.272705139918322],[121.46922404040336,31.271998884546285],[121.46900235733415,31.2718603612175],[121.46888096513558,31.27201597855568],[121.46856900490472,31.271839238862036],[121.46843056085012,31.272001810304644],[121.46792300397684,31.27176858960152],[121.46784375244522,31.271834357143405],[121.46779359508895,31.27186821409226],[121.46751371294022,31.272049413005828],[121.4673742754421,31.272138016038895],[121.46728900602912,31.272222760931015],[121.46722780933379,31.2723215618515],[121.4671977080059,31.272415446218496],[121.46717261800289,31.272566316876414],[121.46761897400856,31.272800368898395],[121.46806834551144,31.273023437609673]]]}},{"id":"309","type":"Feature","properties":{"id":"B00156CXWF","name":"上海花园坊节能环保产业园","type":"商务住宅;产业园区;产业园区","addr":"上海市虹口区花园路171号(近中山北一路)","结构":null,"面积":0.0,"时间":null,"装修":null,"价格":0.0,"gcj_lng":121.475604,"gcj_lat":31.272301,"wgs_lng":121.471083591,"wgs_lat":31.2742299525,"bd_lng":121.482119505,"bd_lat":31.278192602,"gcj_shape":"121.474236,31.272665;121.47541,31.273474;121.475422,31.27348;121.475436,31.273483;121.475459,31.273483;121.475477,31.273479;121.476508,31.272472;121.476816,31.272208;121.476828,31.272196;121.476832,31.272184;121.476834,31.272172;121.476834,31.272155;121.","FID_1":6780,"id_1":"B00156CXWF","type1":"商务住宅","type2":"产业园区","type3":"产业园区","__source_file__":"13-常用公服设施点/SHP/上海市_产业园区-面.shp"},"geometry":{"type":"Polygon","coordinates":[[[121.47087396374701,31.27538881947899],[121.470886001894,31.27539484808922],[121.47090004600145,31.2753978850441],[121.4709231187191,31.275397945840837],[121.47094117832373,31.275393995908736],[121.47197557578849,31.274390183565146],[121.47228459145165,31.27412712531853],[121.4722966319828,31.274115163465503],[121.47230064628795,31.274103177770613],[121.4723026534405,31.274091189691546],[121.47230265582468,31.274074196844104],[121.47229864271165,31.274060190883638],[121.47228861290932,31.274044170618062],[121.47162155774117,31.273005816400527],[121.47159447191046,31.272995747259145],[121.4715613670063,31.27299066142846],[121.47151923170375,31.272984549967767],[121.47148411905098,31.27298445638848],[121.47145101355075,31.272985367577554],[121.47142894262123,31.272989306184776],[121.47140386155891,31.27299623704338],[121.46968226587487,31.27450203474998],[121.46967323488045,31.27451300613975],[121.46966721580696,31.274526984682083],[121.46966721401883,31.274538980509753],[121.46967523786067,31.27455699362278],[121.46969630342578,31.2745770401144],[121.47087396374701,31.27538881947899]]]}},{"id":"796","type":"Feature","properties":{"id":"B00155KBZV","name":"H671园区","type":"商务住宅;产业园区;产业园区","addr":"上海市静安区沪太路671号","结构":null,"面积":0.0,"时间":null,"装修":null,"价格":0.0,"gcj_lng":121.447669,"gcj_lat":31.263059,"wgs_lng":121.443069279,"wgs_lat":31.2649249115,"bd_lng":121.454079582,"bd_lat":31.2693935668,"gcj_shape":"121.447227,31.263414;121.447403,31.263086;121.44769,31.262558;121.448111,31.262768;121.447643,31.263531;121.447227,31.263414","FID_1":19055,"id_1":"B00155KBZV","type1":"商务住宅","type2":"产业园区","type3":"产业园区","__source_file__":"13-常用公服设施点/SHP/上海市_产业园区-面.shp"},"geometry":{"type":"Polygon","coordinates":[[[121.44303274404336,31.2653872734127],[121.44350181215859,31.264625436895365],[121.44307992881775,31.264414775283804],[121.44279227435877,31.264942039762495],[121.44261587500765,31.265269587959292],[121.44303274404336,31.2653872734127]]]}},{"id":"951","type":"Feature","properties":{"id":"B00155MR9J","name":"红墙创意园","type":"商务住宅;产业园区;产业园区","addr":"上海市静安区共和新路1481号","结构":null,"面积":0.0,"时间":null,"装修":null,"价格":0.0,"gcj_lng":121.459061,"gcj_lat":31.267117,"wgs_lng":121.454490233,"wgs_lat":31.26900568,"bd_lng":121.465503112,"bd_lat":31.2733126616,"gcj_shape":"121.45928,31.26659;121.459687,31.26686;121.460052,31.266989;121.459986,31.267137;121.459883,31.267227;121.459874,31.267227;121.45986,31.267227;121.45943,31.267108;121.458779,31.26781;121.458763,31.267814;121.458751,31.267814;121.458735,31.267811;121.4583","FID_1":22201,"id_1":"B00155MR9J","type1":"商务住宅","type2":"产业园区","type3":"产业园区","__source_file__":"13-常用公服设施点/SHP/上海市_产业园区-面.shp"},"geometry":{"type":"Polygon","coordinates":[[[121.45437443261912,31.268339540349963],[121.45435137241843,31.268330494454382],[121.4543403438082,31.268330469420434],[121.45432530387308,31.268335435445785],[121.45431226870632,31.268348400279052],[121.45373666951372,31.26951465088272],[121.45373666832162,31.26952864492226],[121.45374167905047,31.269540650882718],[121.45375671838954,31.269547680685044],[121.45415073107243,31.26968747879124],[121.45416677219967,31.269690512765884],[121.45417880438617,31.269690537799836],[121.4541948461094,31.269686574754715],[121.45484761875156,31.26898630448151],[121.4552787476635,31.269106206895827],[121.45529278581049,31.26910623789024],[121.45530180965235,31.269106259347915],[121.45540509098626,31.26901652637673],[121.45547127993298,31.268868736781123],[121.45510532029823,31.26873897861004],[121.45469726708416,31.26846819361687],[121.45437443261912,31.268339540349963]]]}},{"id":"802","type":"Feature","properties":{"id":"B0FFGCEU45","name":"都市工业","type":"商务住宅;产业园区;产业园区","addr":"上海市静安区延长中路625号","结构":null,"面积":0.0,"时间":null,"装修":null,"价格":0.0,"gcj_lng":121.448417,"gcj_lat":31.269297,"wgs_lng":121.443818495,"wgs_lat":31.2711617115,"bd_lng":121.454823095,"bd_lat":31.2756241983,"gcj_shape":"121.448464,31.268569;121.449157,31.268998;121.448777,31.269465;121.448392,31.269951;121.447663,31.269732;121.448464,31.268569","FID_1":19222,"id_1":"B0FFGCEU45","type1":"商务住宅","type2":"产业园区","type3":"产业园区","__source_file__":"13-常用公服设施点/SHP/上海市_产业园区-面.shp"},"geometry":{"type":"Polygon","coordinates":[[[121.44305224813274,31.271585669881823],[121.44378279308509,31.271805883432386],[121.44416867046547,31.271320787038803],[121.44454954188537,31.270854679916383],[121.44385506845859,31.27042459749603],[121.44305224813274,31.271585669881823]]]}},{"id":"551","type":"Feature","properties":{"id":"B00155MR24","name":"彩虹雨创意园","type":"商务住宅;产业园区;产业园区","addr":"上海市虹口区北宝兴路355号-601室","结构":null,"面积":0.0,"时间":null,"装修":null,"价格":0.0,"gcj_lng":121.463475,"gcj_lat":31.275437,"wgs_lng":121.458916218,"wgs_lat":31.2773327861,"bd_lng":121.469929559,"bd_lat":31.2815554793,"gcj_shape":"121.463554,31.275793;121.463851,31.275226;121.463655,31.275119;121.463621,31.27511;121.463516,31.275147;121.463336,31.275214;121.463055,31.275583;121.463554,31.275793","FID_1":12485,"id_1":"B00155MR24","type1":"商务住宅","type2":"产业园区","type3":"产业园区","__source_file__":"13-常用公服设施点/SHP/上海市_产业园区-面.shp"},"geometry":{"type":"Polygon","coordinates":[[[121.45927998178101,31.277110975433356],[121.45908344116687,31.277003559988977],[121.45904934639549,31.27699448309899],[121.45894404837227,31.277031223222735],[121.45876353815652,31.27709777261162],[121.45848172276499,31.277465964372638],[121.45898209844017,31.277677042024614],[121.45927998178101,31.277110975433356]]]}}],"name":"上海市_产业园区-面","crs":{"type":"name","properties":{"name":"urn:ogc:def:crs:OGC:1.3:CRS84"}}}