{"type":"FeatureCollection","features":[{"id":"181","type":"Feature","properties":{"id":"B0FFH18CEX","name":"UME国际影城售票处(上海新天地南里)","address":"兴业路123弄1-7号上海新天地南里F1层","type":"生活服务;售票处;售票处","typecode":"070300","pcode":310000,"pname":"上海市","citycode":21,"cityname":"上海市","adcode":310101,"adname":"黄浦区","business_a":"淮海路","location":"121.475460,31.219043","tel":"[]","bigType":"生活服务","midType":"售票处","smallType":"售票处","gcj_lng":121.47546,"gcj_lat":31.219043,"wgs84_loc":"121.470944,31.220995","wgs84Lng":"121.470944","wgs84Lat":"31.220995","__source_file__":"13-常用公服设施点/SHP/上海市_售票处.shp"},"geometry":{"type":"Point","coordinates":[121.470944,31.220995]}},{"id":"927","type":"Feature","properties":{"id":"B0KGHH3GZQ","name":"UME国际影城售票处","address":"UME国际影城(上海新天地店)","type":"生活服务;售票处;售票处","typecode":"070300","pcode":310000,"pname":"上海市","citycode":21,"cityname":"上海市","adcode":310101,"adname":"黄浦区","business_a":"淮海路","location":"121.474468,31.219485","tel":"[]","bigType":"生活服务","midType":"售票处","smallType":"售票处","gcj_lng":121.474468,"gcj_lat":31.219485,"wgs84_loc":"121.469948,31.221434","wgs84Lng":"121.469948","wgs84Lat":"31.221434","__source_file__":"13-常用公服设施点/SHP/上海市_售票处.shp"},"geometry":{"type":"Point","coordinates":[121.469948,31.221434]}},{"id":"429","type":"Feature","properties":{"id":"B0FFJD4DGG","name":"国梦商务公司机票代理","address":"淮海中路与黄陂南路交叉口香港广场南座6楼602号","type":"生活服务;售票处;售票处","typecode":"070300","pcode":310000,"pname":"上海市","citycode":21,"cityname":"上海市","adcode":310101,"adname":"黄浦区","business_a":"淮海路","location":"121.475144,31.222866","tel":"021-56506671","bigType":"生活服务","midType":"售票处","smallType":"售票处","gcj_lng":121.475144,"gcj_lat":31.222866,"wgs84_loc":"121.470626,31.224816","wgs84Lng":"121.470626","wgs84Lat":"31.224816","__source_file__":"13-常用公服设施点/SHP/上海市_售票处.shp"},"geometry":{"type":"Point","coordinates":[121.470626,31.224816]}},{"id":"929","type":"Feature","properties":{"id":"B0KDH6BPW1","name":"上海花树企业商旅服务机票代理","address":"嵩山路与淮海中路交叉口南40米","type":"生活服务;售票处;售票处","typecode":"070300","pcode":310000,"pname":"上海市","citycode":21,"cityname":"上海市","adcode":310101,"adname":"黄浦区","business_a":"淮海路","location":"121.475293,31.223146","tel":"[]","bigType":"生活服务","midType":"售票处","smallType":"售票处","gcj_lng":121.475293,"gcj_lat":31.223146,"wgs84_loc":"121.470776,31.225096","wgs84Lng":"121.470776","wgs84Lat":"31.225096","__source_file__":"13-常用公服设施点/SHP/上海市_售票处.shp"},"geometry":{"type":"Point","coordinates":[121.470776,31.225096]}},{"id":"177","type":"Feature","properties":{"id":"B0FFI0GD2P","name":"自动取票机","address":"淮海中路与龙门路交叉口东南约40米","type":"生活服务;售票处;售票处","typecode":"070300","pcode":310000,"pname":"上海市","citycode":21,"cityname":"上海市","adcode":310101,"adname":"黄浦区","business_a":"淮海路","location":"121.478836,31.224503","tel":"[]","bigType":"生活服务","midType":"售票处","smallType":"售票处","gcj_lng":121.478836,"gcj_lat":31.224503,"wgs84_loc":"121.474331,31.226462","wgs84Lng":"121.474331","wgs84Lat":"31.226462","__source_file__":"13-常用公服设施点/SHP/上海市_售票处.shp"},"geometry":{"type":"Point","coordinates":[121.474331,31.226462]}},{"id":"207","type":"Feature","properties":{"id":"B0FFG8GS64","name":"上海音乐厅售票处","address":"延安东路523号","type":"生活服务;售票处;售票处","typecode":"070300","pcode":310000,"pname":"上海市","citycode":21,"cityname":"上海市","adcode":310101,"adname":"黄浦区","business_a":"淮海路","location":"121.477808,31.227229","tel":"[]","bigType":"生活服务","midType":"售票处","smallType":"售票处","gcj_lng":121.477808,"gcj_lat":31.227229,"wgs84_loc":"121.473299,31.229184","wgs84Lng":"121.473299","wgs84Lat":"31.229184","__source_file__":"13-常用公服设施点/SHP/上海市_售票处.shp"},"geometry":{"type":"Point","coordinates":[121.473299,31.229184]}},{"id":"187","type":"Feature","properties":{"id":"B0HRUHH7IH","name":"上海大世界售票处","address":"地铁8号线大世界站大世界站B1","type":"生活服务;售票处;售票处","typecode":"070300","pcode":310000,"pname":"上海市","citycode":21,"cityname":"上海市","adcode":310101,"adname":"黄浦区","business_a":"淮海路","location":"121.479262,31.227484","tel":"[]","bigType":"生活服务","midType":"售票处","smallType":"售票处","gcj_lng":121.479262,"gcj_lat":31.227484,"wgs84_loc":"121.474758,31.229443","wgs84Lng":"121.474758","wgs84Lat":"31.229443","__source_file__":"13-常用公服设施点/SHP/上海市_售票处.shp"},"geometry":{"type":"Point","coordinates":[121.474758,31.229443]}},{"id":"878","type":"Feature","properties":{"id":"B0FFLA9XYY","name":"上海大世界-自助取票处","address":"西藏南路1号上海大世界内(大世界地铁站1号口旁)","type":"生活服务;售票处;售票处","typecode":"070300","pcode":310000,"pname":"上海市","citycode":21,"cityname":"上海市","adcode":310101,"adname":"黄浦区","business_a":"北京东路","location":"121.479313,31.227857","tel":"[]","bigType":"生活服务","midType":"售票处","smallType":"售票处","gcj_lng":121.479313,"gcj_lat":31.227857,"wgs84_loc":"121.474809,31.229816","wgs84Lng":"121.474809","wgs84Lat":"31.229816","__source_file__":"13-常用公服设施点/SHP/上海市_售票处.shp"},"geometry":{"type":"Point","coordinates":[121.474809,31.229816]}},{"id":"184","type":"Feature","properties":{"id":"B00155QL9V","name":"上海大剧院售票中心","address":"人民大道300号","type":"生活服务;售票处;售票处","typecode":"070300","pcode":310000,"pname":"上海市","citycode":21,"cityname":"上海市","adcode":310101,"adname":"黄浦区","business_a":"北京东路","location":"121.471736,31.229086","tel":"021-63728702","bigType":"生活服务","midType":"售票处","smallType":"售票处","gcj_lng":121.471736,"gcj_lat":31.229086,"wgs84_loc":"121.467207,31.231024","wgs84Lng":"121.467207","wgs84Lat":"31.231024","__source_file__":"13-常用公服设施点/SHP/上海市_售票处.shp"},"geometry":{"type":"Point","coordinates":[121.467207,31.231024]}},{"id":"40","type":"Feature","properties":{"id":"B0FFH189LW","name":"中国邮政售票点","address":"柳林路与寿宁路交叉口西南约20米","type":"生活服务;售票处;售票处","typecode":"070300","pcode":310000,"pname":"上海市","citycode":21,"cityname":"上海市","adcode":310101,"adname":"黄浦区","business_a":"淮海路","location":"121.480232,31.223312","tel":"[]","bigType":"生活服务","midType":"售票处","smallType":"售票处","gcj_lng":121.480232,"gcj_lat":31.223312,"wgs84_loc":"121.475731,31.225276","wgs84Lng":"121.475731","wgs84Lat":"31.225276","__source_file__":"13-常用公服设施点/SHP/上海市_售票处.shp"},"geometry":{"type":"Point","coordinates":[121.475731,31.225276]}},{"id":"200","type":"Feature","properties":{"id":"B0FFLF7ZR8","name":"慈修庵售香花券处","address":"方浜中路与松雪街交叉口西南约80米","type":"生活服务;售票处;售票处","typecode":"070300","pcode":310000,"pname":"上海市","citycode":21,"cityname":"上海市","adcode":310101,"adname":"黄浦区","business_a":"城隍庙","location":"121.486676,31.223787","tel":"[]","bigType":"生活服务","midType":"售票处","smallType":"售票处","gcj_lng":121.486676,"gcj_lat":31.223787,"wgs84_loc":"121.482198,31.225769","wgs84Lng":"121.482198","wgs84Lat":"31.225769","__source_file__":"13-常用公服设施点/SHP/上海市_售票处.shp"},"geometry":{"type":"Point","coordinates":[121.482198,31.225769]}},{"id":"179","type":"Feature","properties":{"id":"B0FFHTN5T2","name":"白云观售票处","address":"大境路白云观","type":"生活服务;售票处;公园景点售票处","typecode":"070306","pcode":310000,"pname":"上海市","citycode":21,"cityname":"上海市","adcode":310101,"adname":"黄浦区","business_a":"城隍庙","location":"121.483858,31.224732","tel":"[]","bigType":"生活服务","midType":"售票处","smallType":"公园景点售票处","gcj_lng":121.483858,"gcj_lat":31.224732,"wgs84_loc":"121.47937,31.226706","wgs84Lng":"121.47937","wgs84Lat":"31.226706","__source_file__":"13-常用公服设施点/SHP/上海市_售票处.shp"},"geometry":{"type":"Point","coordinates":[121.47937,31.226706]}},{"id":"959","type":"Feature","properties":{"id":"B0K3ZUENZX","name":"豫园售票处","address":"王医马路与侯家路交叉口东北20米","type":"生活服务;售票处;公园景点售票处","typecode":"070306","pcode":310000,"pname":"上海市","citycode":21,"cityname":"上海市","adcode":310101,"adname":"黄浦区","business_a":"城隍庙","location":"121.489601,31.226653","tel":"[]","bigType":"生活服务","midType":"售票处","smallType":"公园景点售票处","gcj_lng":121.489601,"gcj_lat":31.226653,"wgs84_loc":"121.485133,31.228642","wgs84Lng":"121.485133","wgs84Lat":"31.228642","__source_file__":"13-常用公服设施点/SHP/上海市_售票处.shp"},"geometry":{"type":"Point","coordinates":[121.485133,31.228642]}},{"id":"983","type":"Feature","properties":{"id":"B0IR2160ZZ","name":"沉香阁售票处","address":"豫园街道沉香阁路29号沉香阁(豫园地铁站7号口步行330米)","type":"生活服务;售票处;公园景点售票处","typecode":"070306","pcode":310000,"pname":"上海市","citycode":21,"cityname":"上海市","adcode":310101,"adname":"黄浦区","business_a":"城隍庙","location":"121.490587,31.226975","tel":"[]","bigType":"生活服务","midType":"售票处","smallType":"公园景点售票处","gcj_lng":121.490587,"gcj_lat":31.226975,"wgs84_loc":"121.486122,31.228967","wgs84Lng":"121.486122","wgs84Lat":"31.228967","__source_file__":"13-常用公服设施点/SHP/上海市_售票处.shp"},"geometry":{"type":"Point","coordinates":[121.486122,31.228967]}},{"id":"180","type":"Feature","properties":{"id":"B0FFHMPOC1","name":"豫园检票处","address":"福佑路与安平街交叉口南约80米","type":"生活服务;售票处;公园景点售票处","typecode":"070306","pcode":310000,"pname":"上海市","citycode":21,"cityname":"上海市","adcode":310101,"adname":"黄浦区","business_a":"城隍庙","location":"121.491803,31.227089","tel":"[]","bigType":"生活服务","midType":"售票处","smallType":"公园景点售票处","gcj_lng":121.491803,"gcj_lat":31.227089,"wgs84_loc":"121.487343,31.229085","wgs84Lng":"121.487343","wgs84Lat":"31.229085","__source_file__":"13-常用公服设施点/SHP/上海市_售票处.shp"},"geometry":{"type":"Point","coordinates":[121.487343,31.229085]}},{"id":"211","type":"Feature","properties":{"id":"B0FFG6GYDI","name":"豫园售票处(豫园新路)(暂停营业)","address":"放浜中路与三牌楼路交汇处豫园内","type":"生活服务;售票处;公园景点售票处","typecode":"070306","pcode":310000,"pname":"上海市","citycode":21,"cityname":"上海市","adcode":310101,"adname":"黄浦区","business_a":"城隍庙","location":"121.491861,31.227128","tel":"[]","bigType":"生活服务","midType":"售票处","smallType":"公园景点售票处","gcj_lng":121.491861,"gcj_lat":31.227128,"wgs84_loc":"121.487401,31.229124","wgs84Lng":"121.487401","wgs84Lat":"31.229124","__source_file__":"13-常用公服设施点/SHP/上海市_售票处.shp"},"geometry":{"type":"Point","coordinates":[121.487401,31.229124]}},{"id":"980","type":"Feature","properties":{"id":"B0LB5K12XE","name":"遇见上海售票处","address":"福民街与福佑路交叉口西北20米","type":"生活服务;售票处;公园景点售票处","typecode":"070306","pcode":310000,"pname":"上海市","citycode":21,"cityname":"上海市","adcode":310101,"adname":"黄浦区","business_a":"城隍庙","location":"121.491451,31.227924","tel":"[]","bigType":"生活服务","midType":"售票处","smallType":"公园景点售票处","gcj_lng":121.491451,"gcj_lat":31.227924,"wgs84_loc":"121.486989,31.229918","wgs84Lng":"121.486989","wgs84Lat":"31.229918","__source_file__":"13-常用公服设施点/SHP/上海市_售票处.shp"},"geometry":{"type":"Point","coordinates":[121.486989,31.229918]}},{"id":"875","type":"Feature","properties":{"id":"B0FFLGIR36","name":"售票加值处","address":"地铁10号线豫园站豫园站B1(豫园地铁站4号口步行50米)","type":"生活服务;售票处;售票处","typecode":"070300","pcode":310000,"pname":"上海市","citycode":21,"cityname":"上海市","adcode":310101,"adname":"黄浦区","business_a":"城隍庙","location":"121.487302,31.228127","tel":"[]","bigType":"生活服务","midType":"售票处","smallType":"售票处","gcj_lng":121.487302,"gcj_lat":31.228127,"wgs84_loc":"121.482825,31.230109","wgs84Lng":"121.482825","wgs84Lat":"31.230109","__source_file__":"13-常用公服设施点/SHP/上海市_售票处.shp"},"geometry":{"type":"Point","coordinates":[121.482825,31.230109]}},{"id":"182","type":"Feature","properties":{"id":"B0FFG0YO60","name":"大麦网(上海分部)","address":"宁海东路200号申鑫大厦1楼","type":"生活服务;售票处;售票处","typecode":"070300","pcode":310000,"pname":"上海市","citycode":21,"cityname":"上海市","adcode":310101,"adname":"黄浦区","business_a":"北京东路","location":"121.481767,31.229117","tel":"4006103721","bigType":"生活服务","midType":"售票处","smallType":"售票处","gcj_lng":121.481767,"gcj_lat":31.229117,"wgs84_loc":"121.477271,31.231082","wgs84Lng":"121.477271","wgs84Lat":"31.231082","__source_file__":"13-常用公服设施点/SHP/上海市_售票处.shp"},"geometry":{"type":"Point","coordinates":[121.477271,31.231082]}},{"id":"877","type":"Feature","properties":{"id":"B0IALHWGLI","name":"豫园售票处","address":"安仁街132号豫园(豫园地铁站7号口步行460米)","type":"生活服务;售票处;售票处","typecode":"070300","pcode":310000,"pname":"上海市","citycode":21,"cityname":"上海市","adcode":310101,"adname":"黄浦区","business_a":"城隍庙","location":"121.491901,31.227030","tel":"[]","bigType":"生活服务","midType":"售票处","smallType":"售票处","gcj_lng":121.491901,"gcj_lat":31.22703,"wgs84_loc":"121.487441,31.229026","wgs84Lng":"121.487441","wgs84Lat":"31.229026","__source_file__":"13-常用公服设施点/SHP/上海市_售票处.shp"},"geometry":{"type":"Point","coordinates":[121.487441,31.229026]}},{"id":"536","type":"Feature","properties":{"id":"B00156POLC","name":"黄浦江游览售票处","address":"中山东二路175号","type":"生活服务;售票处;船票代售点","typecode":"070304","pcode":310000,"pname":"上海市","citycode":21,"cityname":"上海市","adcode":310101,"adname":"黄浦区","business_a":"北京东路","location":"121.494314,31.231122","tel":"[]","bigType":"生活服务","midType":"售票处","smallType":"船票代售点","gcj_lng":121.494314,"gcj_lat":31.231122,"wgs84_loc":"121.489862,31.233123","wgs84Lng":"121.489862","wgs84Lat":"31.233123","__source_file__":"13-常用公服设施点/SHP/上海市_售票处.shp"},"geometry":{"type":"Point","coordinates":[121.489862,31.233123]}},{"id":"7","type":"Feature","properties":{"id":"B0FFG69U30","name":"浦江游船售票处(中山东二路)","address":"中山东二路(外滩)241(豫园地铁站7号口步行420米)","type":"生活服务;售票处;船票代售点","typecode":"070304","pcode":310000,"pname":"上海市","citycode":21,"cityname":"上海市","adcode":310101,"adname":"黄浦区","business_a":"北京路","location":"121.494266,31.231129","tel":"[]","bigType":"生活服务","midType":"售票处","smallType":"船票代售点","gcj_lng":121.494266,"gcj_lat":31.231129,"wgs84_loc":"121.489814,31.23313","wgs84Lng":"121.489814","wgs84Lat":"31.23313","__source_file__":"13-常用公服设施点/SHP/上海市_售票处.shp"},"geometry":{"type":"Point","coordinates":[121.489814,31.23313]}},{"id":"819","type":"Feature","properties":{"id":"B00155QLBK","name":"黄浦江游览票务销售代理点售票处(中山东二路)","address":"中山东二路与金陵东路交叉口东约20米","type":"生活服务;售票处;公园景点售票处|生活服务;售票处;船票代售点","typecode":"070306|070304","pcode":310000,"pname":"上海市","citycode":21,"cityname":"上海市","adcode":310101,"adname":"黄浦区","business_a":"北京东路","location":"121.493244,31.232085","tel":"[]","bigType":"生活服务","midType":"售票处","smallType":"公园景点售票处|生活服务","gcj_lng":121.493244,"gcj_lat":31.232085,"wgs84_loc":"121.488788,31.234083","wgs84Lng":"121.488788","wgs84Lat":"31.234083","__source_file__":"13-常用公服设施点/SHP/上海市_售票处.shp"},"geometry":{"type":"Point","coordinates":[121.488788,31.234083]}},{"id":"740","type":"Feature","properties":{"id":"B0IG1ZDAE7","name":"售票处","address":"北海路与广西北路交叉口东北60米","type":"生活服务;售票处;售票处","typecode":"070300","pcode":310000,"pname":"上海市","citycode":21,"cityname":"上海市","adcode":310101,"adname":"黄浦区","business_a":"北京东路","location":"121.480146,31.230604","tel":"[]","bigType":"生活服务","midType":"售票处","smallType":"售票处","gcj_lng":121.480146,"gcj_lat":31.230604,"wgs84_loc":"121.475644,31.232564","wgs84Lng":"121.475644","wgs84Lat":"31.232564","__source_file__":"13-常用公服设施点/SHP/上海市_售票处.shp"},"geometry":{"type":"Point","coordinates":[121.475644,31.232564]}},{"id":"39","type":"Feature","properties":{"id":"B0GRDCJF77","name":"中国邮政售票点","address":"江西中路与福州路交叉口东南约60米","type":"生活服务;售票处;售票处","typecode":"070300","pcode":310000,"pname":"上海市","citycode":21,"cityname":"上海市","adcode":310101,"adname":"黄浦区","business_a":"北京东路","location":"121.487567,31.234573","tel":"[]","bigType":"生活服务","midType":"售票处","smallType":"售票处","gcj_lng":121.487567,"gcj_lat":31.234573,"wgs84_loc":"121.483091,31.236553","wgs84Lng":"121.483091","wgs84Lat":"31.236553","__source_file__":"13-常用公服设施点/SHP/上海市_售票处.shp"},"geometry":{"type":"Point","coordinates":[121.483091,31.236553]}},{"id":"865","type":"Feature","properties":{"id":"B0G095QLJT","name":"中国邮政售票点","address":"福州路与河南中路交叉口西40米","type":"生活服务;售票处;售票处","typecode":"070300","pcode":310000,"pname":"上海市","citycode":21,"cityname":"上海市","adcode":310101,"adname":"黄浦区","business_a":"北京东路","location":"121.485231,31.234648","tel":"[]","bigType":"生活服务","midType":"售票处","smallType":"售票处","gcj_lng":121.485231,"gcj_lat":31.234648,"wgs84_loc":"121.480747,31.236621","wgs84Lng":"121.480747","wgs84Lat":"31.236621","__source_file__":"13-常用公服设施点/SHP/上海市_售票处.shp"},"geometry":{"type":"Point","coordinates":[121.480747,31.236621]}},{"id":"736","type":"Feature","properties":{"id":"B0FFG962C2","name":"上海黄浦江游览售票点(福州路票点)","address":"福州路与四川中路交叉口东40米","type":"生活服务;售票处;售票处","typecode":"070300","pcode":310000,"pname":"上海市","citycode":21,"cityname":"上海市","adcode":310101,"adname":"黄浦区","business_a":"北京东路","location":"121.489402,31.235281","tel":"021-31131441","bigType":"生活服务","midType":"售票处","smallType":"售票处","gcj_lng":121.489402,"gcj_lat":31.235281,"wgs84_loc":"121.484932,31.237266","wgs84Lng":"121.484932","wgs84Lat":"31.237266","__source_file__":"13-常用公服设施点/SHP/上海市_售票处.shp"},"geometry":{"type":"Point","coordinates":[121.484932,31.237266]}},{"id":"792","type":"Feature","properties":{"id":"B0FFL650SU","name":"会务旅游票务","address":"福州路与四川中路交叉路口东侧(船长酒店东北侧)","type":"生活服务;售票处;售票处","typecode":"070300","pcode":310000,"pname":"上海市","citycode":21,"cityname":"上海市","adcode":310101,"adname":"黄浦区","business_a":"北京东路","location":"121.489688,31.235355","tel":"[]","bigType":"生活服务","midType":"售票处","smallType":"售票处","gcj_lng":121.489688,"gcj_lat":31.235355,"wgs84_loc":"121.485219,31.237341","wgs84Lng":"121.485219","wgs84Lat":"31.237341","__source_file__":"13-常用公服设施点/SHP/上海市_售票处.shp"},"geometry":{"type":"Point","coordinates":[121.485219,31.237341]}},{"id":"173","type":"Feature","properties":{"id":"B0FFFXVQLR","name":"黄浦江游船旅游票务","address":"南京东路353号悦荟广场F1","type":"生活服务;售票处;售票处","typecode":"070300","pcode":310000,"pname":"上海市","citycode":21,"cityname":"上海市","adcode":310101,"adname":"黄浦区","business_a":"北京东路","location":"121.484342,31.237445","tel":"021-33310365","bigType":"生活服务","midType":"售票处","smallType":"售票处","gcj_lng":121.484342,"gcj_lat":31.237445,"wgs84_loc":"121.479854,31.239414","wgs84Lng":"121.479854","wgs84Lat":"31.239414","__source_file__":"13-常用公服设施点/SHP/上海市_售票处.shp"},"geometry":{"type":"Point","coordinates":[121.479854,31.239414]}},{"id":"984","type":"Feature","properties":{"id":"B0I1BSWAJJ","name":"乐合喜剧售票处","address":"乐合喜剧(恒基名人购物中心店)(南京东路地铁站3号口旁)","type":"生活服务;售票处;公园景点售票处","typecode":"070306","pcode":310000,"pname":"上海市","citycode":21,"cityname":"上海市","adcode":310101,"adname":"黄浦区","business_a":"北京路","location":"121.483959,31.237633","tel":"[]","bigType":"生活服务","midType":"售票处","smallType":"公园景点售票处","gcj_lng":121.483959,"gcj_lat":31.237633,"wgs84_loc":"121.47947,31.239601","wgs84Lng":"121.47947","wgs84Lat":"31.239601","__source_file__":"13-常用公服设施点/SHP/上海市_售票处.shp"},"geometry":{"type":"Point","coordinates":[121.47947,31.239601]}},{"id":"212","type":"Feature","properties":{"id":"B0FFFZY4EL","name":"浦江游船售票处(中山东一路)","address":"中山东一路341号","type":"生活服务;售票处;船票代售点","typecode":"070304","pcode":310000,"pname":"上海市","citycode":21,"cityname":"上海市","adcode":310101,"adname":"黄浦区","business_a":"北京东路","location":"121.490370,31.239601","tel":"[]","bigType":"生活服务","midType":"售票处","smallType":"船票代售点","gcj_lng":121.49037,"gcj_lat":31.239601,"wgs84_loc":"121.485903,31.241587","wgs84Lng":"121.485903","wgs84Lat":"31.241587","__source_file__":"13-常用公服设施点/SHP/上海市_售票处.shp"},"geometry":{"type":"Point","coordinates":[121.485903,31.241587]}},{"id":"427","type":"Feature","properties":{"id":"B0HKLSPF0O","name":"航空售票","address":"中山东一路341号","type":"生活服务;售票处;飞机票代售点","typecode":"070301","pcode":310000,"pname":"上海市","citycode":21,"cityname":"上海市","adcode":310101,"adname":"黄浦区","business_a":"北京东路","location":"121.490398,31.239769","tel":"021-58886000","bigType":"生活服务","midType":"售票处","smallType":"飞机票代售点","gcj_lng":121.490398,"gcj_lat":31.239769,"wgs84_loc":"121.485931,31.241755","wgs84Lng":"121.485931","wgs84Lat":"31.241755","__source_file__":"13-常用公服设施点/SHP/上海市_售票处.shp"},"geometry":{"type":"Point","coordinates":[121.485931,31.241755]}},{"id":"176","type":"Feature","properties":{"id":"B0FFF4EOJP","name":"外滩观光隧道售票处","address":"中山东一路351号B1层","type":"生活服务;售票处;公园景点售票处","typecode":"070306","pcode":310000,"pname":"上海市","citycode":21,"cityname":"上海市","adcode":310101,"adname":"黄浦区","business_a":"北京东路","location":"121.490370,31.239845","tel":"[]","bigType":"生活服务","midType":"售票处","smallType":"公园景点售票处","gcj_lng":121.49037,"gcj_lat":31.239845,"wgs84_loc":"121.485903,31.241831","wgs84Lng":"121.485903","wgs84Lat":"31.241831","__source_file__":"13-常用公服设施点/SHP/上海市_售票处.shp"},"geometry":{"type":"Point","coordinates":[121.485903,31.241831]}},{"id":"926","type":"Feature","properties":{"id":"B0I1FOVZJV","name":"东方明珠观光售票处","address":"中山东二路与金陵东路交叉口东20米","type":"生活服务;售票处;公园景点售票处","typecode":"070306","pcode":310000,"pname":"上海市","citycode":21,"cityname":"上海市","adcode":310101,"adname":"黄浦区","business_a":"北京路","location":"121.493432,31.232102","tel":"[]","bigType":"生活服务","midType":"售票处","smallType":"公园景点售票处","gcj_lng":121.493432,"gcj_lat":31.232102,"wgs84_loc":"121.488977,31.2341","wgs84Lng":"121.488977","wgs84Lat":"31.2341","__source_file__":"13-常用公服设施点/SHP/上海市_售票处.shp"},"geometry":{"type":"Point","coordinates":[121.488977,31.2341]}},{"id":"99","type":"Feature","properties":{"id":"B0FFF5WK8D","name":"黄浦江游览售票处","address":"中山东二路141号金陵东路旅游码头","type":"生活服务;售票处;船票代售点","typecode":"070304","pcode":310000,"pname":"上海市","citycode":21,"cityname":"上海市","adcode":310101,"adname":"黄浦区","business_a":"北京东路","location":"121.493051,31.232396","tel":"[]","bigType":"生活服务","midType":"售票处","smallType":"船票代售点","gcj_lng":121.493051,"gcj_lat":31.232396,"wgs84_loc":"121.488595,31.234393","wgs84Lng":"121.488595","wgs84Lat":"31.234393","__source_file__":"13-常用公服设施点/SHP/上海市_售票处.shp"},"geometry":{"type":"Point","coordinates":[121.488595,31.234393]}},{"id":"41","type":"Feature","properties":{"id":"B00155QLBI","name":"金陵东路渡口轮渡售票处","address":"中山东二路75号金陵东路渡口内","type":"生活服务;售票处;售票处","typecode":"070300","pcode":310000,"pname":"上海市","citycode":21,"cityname":"上海市","adcode":310101,"adname":"黄浦区","business_a":"北京东路","location":"121.493048,31.232405","tel":"[]","bigType":"生活服务","midType":"售票处","smallType":"售票处","gcj_lng":121.493048,"gcj_lat":31.232405,"wgs84_loc":"121.488592,31.234402","wgs84Lng":"121.488592","wgs84Lat":"31.234402","__source_file__":"13-常用公服设施点/SHP/上海市_售票处.shp"},"geometry":{"type":"Point","coordinates":[121.488592,31.234402]}},{"id":"6","type":"Feature","properties":{"id":"B00155QLBI","name":"上海金陵东路渡口轮渡售票处","address":"中山东二路75号金陵东路渡口内","type":"生活服务;售票处;售票处","typecode":"070300","pcode":310000,"pname":"上海市","citycode":21,"cityname":"上海市","adcode":310101,"adname":"黄浦区","business_a":"北京路","location":"121.493048,31.232405","tel":"[]","bigType":"生活服务","midType":"售票处","smallType":"售票处","gcj_lng":121.493048,"gcj_lat":31.232405,"wgs84_loc":"121.488592,31.234402","wgs84Lng":"121.488592","wgs84Lat":"31.234402","__source_file__":"13-常用公服设施点/SHP/上海市_售票处.shp"},"geometry":{"type":"Point","coordinates":[121.488592,31.234402]}},{"id":"843","type":"Feature","properties":{"id":"B0FFHEE836","name":"浦江游船+观光隧道门票","address":"中山东二路与金陵东路交叉口北40米","type":"生活服务;售票处;售票处","typecode":"070300","pcode":310000,"pname":"上海市","citycode":21,"cityname":"上海市","adcode":310101,"adname":"黄浦区","business_a":"北京东路","location":"121.493031,31.232442","tel":"[]","bigType":"生活服务","midType":"售票处","smallType":"售票处","gcj_lng":121.493031,"gcj_lat":31.232442,"wgs84_loc":"121.488574,31.234439","wgs84Lng":"121.488574","wgs84Lat":"31.234439","__source_file__":"13-常用公服设施点/SHP/上海市_售票处.shp"},"geometry":{"type":"Point","coordinates":[121.488574,31.234439]}},{"id":"940","type":"Feature","properties":{"id":"B0KBN9H93U","name":"浦江游船售票处","address":"浦江游船","type":"生活服务;售票处;公园景点售票处","typecode":"070306","pcode":310000,"pname":"上海市","citycode":21,"cityname":"上海市","adcode":310101,"adname":"黄浦区","business_a":"北京路","location":"121.492979,31.232551","tel":"[]","bigType":"生活服务","midType":"售票处","smallType":"公园景点售票处","gcj_lng":121.492979,"gcj_lat":31.232551,"wgs84_loc":"121.488522,31.234548","wgs84Lng":"121.488522","wgs84Lat":"31.234548","__source_file__":"13-常用公服设施点/SHP/上海市_售票处.shp"},"geometry":{"type":"Point","coordinates":[121.488522,31.234548]}},{"id":"196","type":"Feature","properties":{"id":"B0H2N9JR9Y","name":"黄浦江游览售票处","address":"中山东一路(外滩)69号","type":"生活服务;售票处;售票处","typecode":"070300","pcode":310000,"pname":"上海市","citycode":21,"cityname":"上海市","adcode":310101,"adname":"黄浦区","business_a":"北京东路","location":"121.492294,31.233457","tel":"[]","bigType":"生活服务","midType":"售票处","smallType":"售票处","gcj_lng":121.492294,"gcj_lat":31.233457,"wgs84_loc":"121.487835,31.235451","wgs84Lng":"121.487835","wgs84Lat":"31.235451","__source_file__":"13-常用公服设施点/SHP/上海市_售票处.shp"},"geometry":{"type":"Point","coordinates":[121.487835,31.235451]}},{"id":"968","type":"Feature","properties":{"id":"B0JRZU7KHX","name":"外滩观光隧道售票处","address":"滨江大道2777号外滩观光隧道","type":"生活服务;售票处;公园景点售票处","typecode":"070306","pcode":310000,"pname":"上海市","citycode":21,"cityname":"上海市","adcode":310115,"adname":"浦东新区","business_a":"陆家嘴","location":"121.497243,31.238272","tel":"[]","bigType":"生活服务","midType":"售票处","smallType":"公园景点售票处","gcj_lng":121.497243,"gcj_lat":31.238272,"wgs84_loc":"121.492801,31.240279","wgs84Lng":"121.492801","wgs84Lat":"31.240279","__source_file__":"13-常用公服设施点/SHP/上海市_售票处.shp"},"geometry":{"type":"Point","coordinates":[121.492801,31.240279]}},{"id":"981","type":"Feature","properties":{"id":"B0JK0COBPU","name":"东方明珠广播电视塔售票处","address":"丰和路与明珠塔路交叉口东南60米","type":"生活服务;售票处;公园景点售票处","typecode":"070306","pcode":310000,"pname":"上海市","citycode":21,"cityname":"上海市","adcode":310115,"adname":"浦东新区","business_a":"陆家嘴","location":"121.499576,31.238776","tel":"[]","bigType":"生活服务","midType":"售票处","smallType":"公园景点售票处","gcj_lng":121.499576,"gcj_lat":31.238776,"wgs84_loc":"121.495143,31.24079","wgs84Lng":"121.495143","wgs84Lat":"31.24079","__source_file__":"13-常用公服设施点/SHP/上海市_售票处.shp"},"geometry":{"type":"Point","coordinates":[121.495143,31.24079]}},{"id":"467","type":"Feature","properties":{"id":"B0FFF9ZD1J","name":"东方明珠广播电视塔售票处(丰和路)","address":"世纪大道1号东方明珠广播电视塔","type":"生活服务;售票处;公园景点售票处","typecode":"070306","pcode":310000,"pname":"上海市","citycode":21,"cityname":"上海市","adcode":310115,"adname":"浦东新区","business_a":"陆家嘴","location":"121.500650,31.238874","tel":"021-58824999","bigType":"生活服务","midType":"售票处","smallType":"公园景点售票处","gcj_lng":121.50065,"gcj_lat":31.238874,"wgs84_loc":"121.49622,31.240891","wgs84Lng":"121.49622","wgs84Lat":"31.240891","__source_file__":"13-常用公服设施点/SHP/上海市_售票处.shp"},"geometry":{"type":"Point","coordinates":[121.49622,31.240891]}},{"id":"154","type":"Feature","properties":{"id":"B0HU1HAX2A","name":"东方明珠广播电视塔TICKETS","address":"陆家嘴环路与明珠环岛交叉口北约40米","type":"生活服务;售票处;公园景点售票处","typecode":"070306","pcode":310000,"pname":"上海市","citycode":21,"cityname":"上海市","adcode":310115,"adname":"浦东新区","business_a":"陆家嘴","location":"121.500680,31.238926","tel":"[]","bigType":"生活服务","midType":"售票处","smallType":"公园景点售票处","gcj_lng":121.50068,"gcj_lat":31.238926,"wgs84_loc":"121.49625,31.240943","wgs84Lng":"121.49625","wgs84Lat":"31.240943","__source_file__":"13-常用公服设施点/SHP/上海市_售票处.shp"},"geometry":{"type":"Point","coordinates":[121.49625,31.240943]}},{"id":"741","type":"Feature","properties":{"id":"B0FFHOHZAJ","name":"TICKETS售票处","address":"陆家嘴环路东方明珠广播电视塔","type":"生活服务;售票处;售票处","typecode":"070300","pcode":310000,"pname":"上海市","citycode":21,"cityname":"上海市","adcode":310115,"adname":"浦东新区","business_a":"陆家嘴","location":"121.500668,31.238997","tel":"[]","bigType":"生活服务","midType":"售票处","smallType":"售票处","gcj_lng":121.500668,"gcj_lat":31.238997,"wgs84_loc":"121.496238,31.241014","wgs84Lng":"121.496238","wgs84Lat":"31.241014","__source_file__":"13-常用公服设施点/SHP/上海市_售票处.shp"},"geometry":{"type":"Point","coordinates":[121.496238,31.241014]}},{"id":"766","type":"Feature","properties":{"id":"B0FFL92ET2","name":"空中基地-售票台","address":"世纪大道1号东方明珠内","type":"生活服务;售票处;售票处","typecode":"070300","pcode":310000,"pname":"上海市","citycode":21,"cityname":"上海市","adcode":310115,"adname":"浦东新区","business_a":"陆家嘴","location":"121.499980,31.239513","tel":"[]","bigType":"生活服务","midType":"售票处","smallType":"售票处","gcj_lng":121.49998,"gcj_lat":31.239513,"wgs84_loc":"121.495548,31.241528","wgs84Lng":"121.495548","wgs84Lat":"31.241528","__source_file__":"13-常用公服设施点/SHP/上海市_售票处.shp"},"geometry":{"type":"Point","coordinates":[121.495548,31.241528]}},{"id":"758","type":"Feature","properties":{"id":"B0FFL6FDIM","name":"5D360度星影立体影院售票处","address":"世纪大道1号东方明珠内","type":"生活服务;售票处;售票处","typecode":"070300","pcode":310000,"pname":"上海市","citycode":21,"cityname":"上海市","adcode":310115,"adname":"浦东新区","business_a":"陆家嘴","location":"121.499980,31.239513","tel":"[]","bigType":"生活服务","midType":"售票处","smallType":"售票处","gcj_lng":121.49998,"gcj_lat":31.239513,"wgs84_loc":"121.495548,31.241528","wgs84Lng":"121.495548","wgs84Lat":"31.241528","__source_file__":"13-常用公服设施点/SHP/上海市_售票处.shp"},"geometry":{"type":"Point","coordinates":[121.495548,31.241528]}},{"id":"756","type":"Feature","properties":{"id":"B0FFL2LQVS","name":"高空VR过山车售票处","address":"世纪大道1号东方明珠内","type":"生活服务;售票处;售票处","typecode":"070300","pcode":310000,"pname":"上海市","citycode":21,"cityname":"上海市","adcode":310115,"adname":"浦东新区","business_a":"陆家嘴","location":"121.499989,31.239517","tel":"[]","bigType":"生活服务","midType":"售票处","smallType":"售票处","gcj_lng":121.499989,"gcj_lat":31.239517,"wgs84_loc":"121.495557,31.241532","wgs84Lng":"121.495557","wgs84Lat":"31.241532","__source_file__":"13-常用公服设施点/SHP/上海市_售票处.shp"},"geometry":{"type":"Point","coordinates":[121.495557,31.241532]}},{"id":"466","type":"Feature","properties":{"id":"B0FFF9ZD1O","name":"上海大自然野生昆虫馆售票处","address":"丰和路1号","type":"生活服务;售票处;公园景点售票处","typecode":"070306","pcode":310000,"pname":"上海市","citycode":21,"cityname":"上海市","adcode":310115,"adname":"浦东新区","business_a":"陆家嘴","location":"121.497506,31.240307","tel":"021-58405921","bigType":"生活服务","midType":"售票处","smallType":"公园景点售票处","gcj_lng":121.497506,"gcj_lat":31.240307,"wgs84_loc":"121.493065,31.242314","wgs84Lng":"121.493065","wgs84Lat":"31.242314","__source_file__":"13-常用公服设施点/SHP/上海市_售票处.shp"},"geometry":{"type":"Point","coordinates":[121.493065,31.242314]}},{"id":"985","type":"Feature","properties":{"id":"B0I217P0FX","name":"东方明珠号浦江游览售票处","address":"东方明珠号浦江游览","type":"生活服务;售票处;公园景点售票处","typecode":"070306","pcode":310000,"pname":"上海市","citycode":21,"cityname":"上海市","adcode":310115,"adname":"浦东新区","business_a":"陆家嘴","location":"121.497206,31.240374","tel":"[]","bigType":"生活服务","midType":"售票处","smallType":"公园景点售票处","gcj_lng":121.497206,"gcj_lat":31.240374,"wgs84_loc":"121.492764,31.24238","wgs84Lng":"121.492764","wgs84Lat":"31.24238","__source_file__":"13-常用公服设施点/SHP/上海市_售票处.shp"},"geometry":{"type":"Point","coordinates":[121.492764,31.24238]}},{"id":"458","type":"Feature","properties":{"id":"B0FFF9ZD3V","name":"东方明珠游船码头售票处","address":"滨江大道2967号滨江公园内","type":"生活服务;售票处;公园景点售票处","typecode":"070306","pcode":310000,"pname":"上海市","citycode":21,"cityname":"上海市","adcode":310115,"adname":"浦东新区","business_a":"陆家嘴","location":"121.497223,31.240419","tel":"[]","bigType":"生活服务","midType":"售票处","smallType":"公园景点售票处","gcj_lng":121.497223,"gcj_lat":31.240419,"wgs84_loc":"121.492781,31.242425","wgs84Lng":"121.492781","wgs84Lat":"31.242425","__source_file__":"13-常用公服设施点/SHP/上海市_售票处.shp"},"geometry":{"type":"Point","coordinates":[121.492781,31.242425]}},{"id":"566","type":"Feature","properties":{"id":"B0FFL9IRPY","name":"魔都矩阵售票处","address":"东大名路北外滩滨江绿地","type":"生活服务;售票处;售票处","typecode":"070300","pcode":310000,"pname":"上海市","citycode":21,"cityname":"上海市","adcode":310109,"adname":"虹口区","business_a":"北外滩","location":"121.498492,31.247075","tel":"[]","bigType":"生活服务","midType":"售票处","smallType":"售票处","gcj_lng":121.498492,"gcj_lat":31.247075,"wgs84_loc":"121.494054,31.249082","wgs84Lng":"121.494054","wgs84Lat":"31.249082","__source_file__":"13-常用公服设施点/SHP/上海市_售票处.shp"},"geometry":{"type":"Point","coordinates":[121.494054,31.249082]}},{"id":"979","type":"Feature","properties":{"id":"B0KUPDC88D","name":"黄浦公园-黄浦江游览售票处","address":"中山东一路与北京东路交叉口东北80米","type":"生活服务;售票处;公园景点售票处","typecode":"070306","pcode":310000,"pname":"上海市","citycode":21,"cityname":"上海市","adcode":310101,"adname":"黄浦区","business_a":"北京路","location":"121.491010,31.240933","tel":"[]","bigType":"生活服务","midType":"售票处","smallType":"公园景点售票处","gcj_lng":121.49101,"gcj_lat":31.240933,"wgs84_loc":"121.486546,31.24292","wgs84Lng":"121.486546","wgs84Lat":"31.24292","__source_file__":"13-常用公服设施点/SHP/上海市_售票处.shp"},"geometry":{"type":"Point","coordinates":[121.486546,31.24292]}},{"id":"189","type":"Feature","properties":{"id":"B0HR05W0IO","name":"中国东方航空南苏州路售票处","address":"南苏州路333号华隆大厦","type":"生活服务;售票处;售票处","typecode":"070300","pcode":310000,"pname":"上海市","citycode":21,"cityname":"上海市","adcode":310101,"adname":"黄浦区","business_a":"北京东路","location":"121.483879,31.242038","tel":"021-63616911","bigType":"生活服务","midType":"售票处","smallType":"售票处","gcj_lng":121.483879,"gcj_lat":31.242038,"wgs84_loc":"121.479389,31.244004","wgs84Lng":"121.479389","wgs84Lat":"31.244004","__source_file__":"13-常用公服设施点/SHP/上海市_售票处.shp"},"geometry":{"type":"Point","coordinates":[121.479389,31.244004]}},{"id":"38","type":"Feature","properties":{"id":"B0FFGX3IO1","name":"中国东方航空","address":"南苏州路333号大堂","type":"生活服务;售票处;飞机票代售点","typecode":"070301","pcode":310000,"pname":"上海市","citycode":21,"cityname":"上海市","adcode":310101,"adname":"黄浦区","business_a":"北京东路","location":"121.483929,31.242077","tel":"021-63617337;021-63293371","bigType":"生活服务","midType":"售票处","smallType":"飞机票代售点","gcj_lng":121.483929,"gcj_lat":31.242077,"wgs84_loc":"121.479439,31.244043","wgs84Lng":"121.479439","wgs84Lat":"31.244043","__source_file__":"13-常用公服设施点/SHP/上海市_售票处.shp"},"geometry":{"type":"Point","coordinates":[121.479439,31.244043]}},{"id":"100","type":"Feature","properties":{"id":"B00155E8NS","name":"上海港订舱中心","address":"黄浦路53号海湾大厦3楼","type":"生活服务;售票处;船票代售点","typecode":"070304","pcode":310000,"pname":"上海市","citycode":21,"cityname":"上海市","adcode":310109,"adname":"虹口区","business_a":"提篮桥","location":"121.491652,31.244506","tel":"[]","bigType":"生活服务","midType":"售票处","smallType":"船票代售点","gcj_lng":121.491652,"gcj_lat":31.244506,"wgs84_loc":"121.48719,31.246493","wgs84Lng":"121.48719","wgs84Lat":"31.246493","__source_file__":"13-常用公服设施点/SHP/上海市_售票处.shp"},"geometry":{"type":"Point","coordinates":[121.48719,31.246493]}},{"id":"75","type":"Feature","properties":{"id":"B0FFLG6PB9","name":"火车票代售处(安高代售点)","address":"天目东路80号","type":"生活服务;售票处;火车票代售点","typecode":"070302","pcode":310000,"pname":"上海市","citycode":21,"cityname":"上海市","adcode":310109,"adname":"虹口区","business_a":"七浦路","location":"121.489481,31.247159","tel":"[]","bigType":"生活服务","midType":"售票处","smallType":"火车票代售点","gcj_lng":121.489481,"gcj_lat":31.247159,"wgs84_loc":"121.485011,31.249139","wgs84Lng":"121.485011","wgs84Lat":"31.249139","__source_file__":"13-常用公服设施点/SHP/上海市_售票处.shp"},"geometry":{"type":"Point","coordinates":[121.485011,31.249139]}},{"id":"35","type":"Feature","properties":{"id":"B0G0R5DT1P","name":"火车票售票处(申桂商务楼店)","address":"宝源路293号(东宝兴路地铁站2号口步行100米)","type":"生活服务;售票处;火车票代售点","typecode":"070302","pcode":310000,"pname":"上海市","citycode":21,"cityname":"上海市","adcode":310106,"adname":"静安区","business_a":"宝山路","location":"121.480059,31.258358","tel":"021-56985757","bigType":"生活服务","midType":"售票处","smallType":"火车票代售点","gcj_lng":121.480059,"gcj_lat":31.258358,"wgs84_loc":"121.475555,31.260305","wgs84Lng":"121.475555","wgs84Lat":"31.260305","__source_file__":"13-常用公服设施点/SHP/上海市_售票处.shp"},"geometry":{"type":"Point","coordinates":[121.475555,31.260305]}},{"id":"371","type":"Feature","properties":{"id":"B0G0R5DT1P","name":"火车票售票处","address":"宝源路293号","type":"生活服务;售票处;火车票代售点","typecode":"070302","pcode":310000,"pname":"上海市","citycode":21,"cityname":"上海市","adcode":310106,"adname":"静安区","business_a":"宝山路","location":"121.480031,31.258372","tel":"021-56985757","bigType":"生活服务","midType":"售票处","smallType":"火车票代售点","gcj_lng":121.480031,"gcj_lat":31.258372,"wgs84_loc":"121.475527,31.260319","wgs84Lng":"121.475527","wgs84Lat":"31.260319","__source_file__":"13-常用公服设施点/SHP/上海市_售票处.shp"},"geometry":{"type":"Point","coordinates":[121.475527,31.260319]}},{"id":"12","type":"Feature","properties":{"id":"B0FFJ1YQJZ","name":"火车票代售处(宝源路)","address":"宝源路293-1号(东宝兴路地铁站2号口步行90米)","type":"生活服务;售票处;火车票代售点|生活服务;售票处;飞机票代售点|公司企业;公司;公司","typecode":"070302|070301|170200","pcode":310000,"pname":"上海市","citycode":21,"cityname":"上海市","adcode":310106,"adname":"静安区","business_a":"宝山路","location":"121.480052,31.258440","tel":"021-56985757","bigType":"生活服务","midType":"售票处","smallType":"火车票代售点|生活服务","gcj_lng":121.480052,"gcj_lat":31.25844,"wgs84_loc":"121.475548,31.260387","wgs84Lng":"121.475548","wgs84Lat":"31.260387","__source_file__":"13-常用公服设施点/SHP/上海市_售票处.shp"},"geometry":{"type":"Point","coordinates":[121.475548,31.260387]}},{"id":"567","type":"Feature","properties":{"id":"B0FFL6Z4BD","name":"鲁迅公园游乐场售票处","address":"四川北路2288号鲁迅公园内","type":"生活服务;售票处;售票处","typecode":"070300","pcode":310000,"pname":"上海市","citycode":21,"cityname":"上海市","adcode":310109,"adname":"虹口区","business_a":"曲阳","location":"121.481917,31.269056","tel":"[]","bigType":"生活服务","midType":"售票处","smallType":"售票处","gcj_lng":121.481917,"gcj_lat":31.269056,"wgs84_loc":"121.477418,31.271004","wgs84Lng":"121.477418","wgs84Lat":"31.271004","__source_file__":"13-常用公服设施点/SHP/上海市_售票处.shp"},"geometry":{"type":"Point","coordinates":[121.477418,31.271004]}},{"id":"76","type":"Feature","properties":{"id":"B0FFH0M9PJ","name":"虹口体育场足球场票务中心(东江湾路)","address":"东江湾路444号5号门","type":"生活服务;售票处;售票处","typecode":"070300","pcode":310000,"pname":"上海市","citycode":21,"cityname":"上海市","adcode":310109,"adname":"虹口区","business_a":"江湾","location":"121.480001,31.270191","tel":"021-56967633","bigType":"生活服务","midType":"售票处","smallType":"售票处","gcj_lng":121.480001,"gcj_lat":31.270191,"wgs84_loc":"121.475496,31.272133","wgs84Lng":"121.475496","wgs84Lat":"31.272133","__source_file__":"13-常用公服设施点/SHP/上海市_售票处.shp"},"geometry":{"type":"Point","coordinates":[121.475496,31.272133]}},{"id":"377","type":"Feature","properties":{"id":"B0FFF59VIG","name":"铁路客票代售点(东华路)","address":"东华路55号甲","type":"生活服务;售票处;火车票代售点|生活服务;旅行社;旅行社","typecode":"070302|070100","pcode":310000,"pname":"上海市","citycode":21,"cityname":"上海市","adcode":310106,"adname":"静安区","business_a":"宝山路","location":"121.478485,31.251826","tel":"[]","bigType":"生活服务","midType":"售票处","smallType":"火车票代售点|生活服务","gcj_lng":121.478485,"gcj_lat":31.251826,"wgs84_loc":"121.473976,31.253772","wgs84Lng":"121.473976","wgs84Lat":"31.253772","__source_file__":"13-常用公服设施点/SHP/上海市_售票处.shp"},"geometry":{"type":"Point","coordinates":[121.473976,31.253772]}},{"id":"889","type":"Feature","properties":{"id":"B0HRVL2CNO","name":"邮政票务航空机票代售点","address":"华昌路192号","type":"生活服务;售票处;售票处","typecode":"070300","pcode":310000,"pname":"上海市","citycode":21,"cityname":"上海市","adcode":310109,"adname":"虹口区","business_a":"和田","location":"121.475116,31.264572","tel":"[]","bigType":"生活服务","midType":"售票处","smallType":"售票处","gcj_lng":121.475116,"gcj_lat":31.264572,"wgs84_loc":"121.470595,31.266503","wgs84Lng":"121.470595","wgs84Lat":"31.266503","__source_file__":"13-常用公服设施点/SHP/上海市_售票处.shp"},"geometry":{"type":"Point","coordinates":[121.470595,31.266503]}},{"id":"937","type":"Feature","properties":{"id":"B0K0J9DK6W","name":"TICKETS售票区","address":"西江湾路388号凯德虹口商业中心F6层","type":"生活服务;售票处;售票处","typecode":"070300","pcode":310000,"pname":"上海市","citycode":21,"cityname":"上海市","adcode":310109,"adname":"虹口区","business_a":"和田","location":"121.477784,31.270640","tel":"[]","bigType":"生活服务","midType":"售票处","smallType":"售票处","gcj_lng":121.477784,"gcj_lat":31.27064,"wgs84_loc":"121.473271,31.272576","wgs84Lng":"121.473271","wgs84Lat":"31.272576","__source_file__":"13-常用公服设施点/SHP/上海市_售票处.shp"},"geometry":{"type":"Point","coordinates":[121.473271,31.272576]}},{"id":"77","type":"Feature","properties":{"id":"B0FFF5VQRN","name":"永乐票务(足球场票务中心)","address":"东江湾路444号虹口足球场内","type":"生活服务;售票处;售票处","typecode":"070300","pcode":310000,"pname":"上海市","citycode":21,"cityname":"上海市","adcode":310109,"adname":"虹口区","business_a":"江湾","location":"121.479970,31.270204","tel":"021-56967633","bigType":"生活服务","midType":"售票处","smallType":"售票处","gcj_lng":121.47997,"gcj_lat":31.270204,"wgs84_loc":"121.475464,31.272146","wgs84Lng":"121.475464","wgs84Lat":"31.272146","__source_file__":"13-常用公服设施点/SHP/上海市_售票处.shp"},"geometry":{"type":"Point","coordinates":[121.475464,31.272146]}},{"id":"571","type":"Feature","properties":{"id":"B0G2FZ0CYI","name":"鲁迅公园游船码头售票处(暂停营业)","address":"四川北路甜爱支路280号鲁迅公园-游船码头内","type":"生活服务;售票处;售票处","typecode":"070300","pcode":310000,"pname":"上海市","citycode":21,"cityname":"上海市","adcode":310109,"adname":"虹口区","business_a":"曲阳","location":"121.483725,31.271259","tel":"[]","bigType":"生活服务","midType":"售票处","smallType":"售票处","gcj_lng":121.483725,"gcj_lat":31.271259,"wgs84_loc":"121.479232,31.273211","wgs84Lng":"121.479232","wgs84Lat":"31.273211","__source_file__":"13-常用公服设施点/SHP/上海市_售票处.shp"},"geometry":{"type":"Point","coordinates":[121.479232,31.273211]}},{"id":"568","type":"Feature","properties":{"id":"B0FFJRTWEA","name":"尹奉吉义士生平事迹陈列室售票处","address":"四川北路2288号尹奉吉义士生平事迹陈列室内","type":"生活服务;售票处;售票处","typecode":"070300","pcode":310000,"pname":"上海市","citycode":21,"cityname":"上海市","adcode":310109,"adname":"虹口区","business_a":"江湾","location":"121.483216,31.272357","tel":"[]","bigType":"生活服务","midType":"售票处","smallType":"售票处","gcj_lng":121.483216,"gcj_lat":31.272357,"wgs84_loc":"121.478721,31.274307","wgs84Lng":"121.478721","wgs84Lat":"31.274307","__source_file__":"13-常用公服设施点/SHP/上海市_售票处.shp"},"geometry":{"type":"Point","coordinates":[121.478721,31.274307]}},{"id":"885","type":"Feature","properties":{"id":"B0HKLHSYBX","name":"龙宫岩售票处","address":"南京西路1649号静安公园八景园","type":"生活服务;售票处;售票处","typecode":"070300","pcode":310000,"pname":"上海市","citycode":21,"cityname":"上海市","adcode":310106,"adname":"静安区","business_a":"曹家渡","location":"121.447261,31.221924","tel":"[]","bigType":"生活服务","midType":"售票处","smallType":"售票处","gcj_lng":121.447261,"gcj_lat":31.221924,"wgs84_loc":"121.442664,31.223808","wgs84Lng":"121.442664","wgs84Lat":"31.223808","__source_file__":"13-常用公服设施点/SHP/上海市_售票处.shp"},"geometry":{"type":"Point","coordinates":[121.442664,31.223808]}},{"id":"252","type":"Feature","properties":{"id":"B0FFG28RQR","name":"八景园售票处","address":"华山路189号静安公园内","type":"生活服务;售票处;公园景点售票处","typecode":"070306","pcode":310000,"pname":"上海市","citycode":21,"cityname":"上海市","adcode":310106,"adname":"静安区","business_a":"曹家渡","location":"121.447205,31.222083","tel":"[]","bigType":"生活服务","midType":"售票处","smallType":"公园景点售票处","gcj_lng":121.447205,"gcj_lat":31.222083,"wgs84_loc":"121.442608,31.223966","wgs84Lng":"121.442608","wgs84Lat":"31.223966","__source_file__":"13-常用公服设施点/SHP/上海市_售票处.shp"},"geometry":{"type":"Point","coordinates":[121.442608,31.223966]}},{"id":"241","type":"Feature","properties":{"id":"B0FFH1EGST","name":"静安寺售票处","address":"2号线vs7号线地铁站静安寺站静安寺站B1","type":"生活服务;售票处;公园景点售票处","typecode":"070306","pcode":310000,"pname":"上海市","citycode":21,"cityname":"上海市","adcode":310106,"adname":"静安区","business_a":"曹家渡","location":"121.445804,31.223169","tel":"[]","bigType":"生活服务","midType":"售票处","smallType":"公园景点售票处","gcj_lng":121.445804,"gcj_lat":31.223169,"wgs84_loc":"121.441203,31.225049","wgs84Lng":"121.441203","wgs84Lat":"31.225049","__source_file__":"13-常用公服设施点/SHP/上海市_售票处.shp"},"geometry":{"type":"Point","coordinates":[121.441203,31.225049]}},{"id":"853","type":"Feature","properties":{"id":"B00155G6NS","name":"长乐港口代理服务公司城市航站楼售票处","address":"南京西路1598-1600号上海机场城市航站楼3层315","type":"生活服务;售票处;船票代售点","typecode":"070304","pcode":310000,"pname":"上海市","citycode":21,"cityname":"上海市","adcode":310106,"adname":"静安区","business_a":"曹家渡","location":"121.447184,31.224066","tel":"[]","bigType":"生活服务","midType":"售票处","smallType":"船票代售点","gcj_lng":121.447184,"gcj_lat":31.224066,"wgs84_loc":"121.442587,31.225949","wgs84Lng":"121.442587","wgs84Lat":"31.225949","__source_file__":"13-常用公服设施点/SHP/上海市_售票处.shp"},"geometry":{"type":"Point","coordinates":[121.442587,31.225949]}},{"id":"233","type":"Feature","properties":{"id":"B00155QL9S","name":"云峰剧院售票处","address":"北京西路1700号","type":"生活服务;售票处;售票处","typecode":"070300","pcode":310000,"pname":"上海市","citycode":21,"cityname":"上海市","adcode":310106,"adname":"静安区","business_a":"曹家渡","location":"121.443083,31.226052","tel":"[]","bigType":"生活服务","midType":"售票处","smallType":"售票处","gcj_lng":121.443083,"gcj_lat":31.226052,"wgs84_loc":"121.438476,31.227926","wgs84Lng":"121.438476","wgs84Lat":"31.227926","__source_file__":"13-常用公服设施点/SHP/上海市_售票处.shp"},"geometry":{"type":"Point","coordinates":[121.438476,31.227926]}},{"id":"834","type":"Feature","properties":{"id":"B0FFJCJCDS","name":"国梦机票代理","address":"铜仁路与南阳路交叉口西南40米","type":"生活服务;售票处;飞机票代售点","typecode":"070301","pcode":310000,"pname":"上海市","citycode":21,"cityname":"上海市","adcode":310106,"adname":"静安区","business_a":"曹家渡","location":"121.449269,31.226998","tel":"[]","bigType":"生活服务","midType":"售票处","smallType":"飞机票代售点","gcj_lng":121.449269,"gcj_lat":31.226998,"wgs84_loc":"121.444676,31.228883","wgs84Lng":"121.444676","wgs84Lat":"31.228883","__source_file__":"13-常用公服设施点/SHP/上海市_售票处.shp"},"geometry":{"type":"Point","coordinates":[121.444676,31.228883]}},{"id":"837","type":"Feature","properties":{"id":"B001571R5T","name":"上海外航服务公司(锦江票务处)","address":"茂名南路59号锦江饭店峻岭楼西楼二组W2323-2324","type":"生活服务;售票处;飞机票代售点","typecode":"070301","pcode":310000,"pname":"上海市","citycode":21,"cityname":"上海市","adcode":310101,"adname":"黄浦区","business_a":"淮海路","location":"121.460721,31.219736","tel":"[]","bigType":"生活服务","midType":"售票处","smallType":"飞机票代售点","gcj_lng":121.460721,"gcj_lat":31.219736,"wgs84_loc":"121.456159,31.22165","wgs84Lng":"121.456159","wgs84Lat":"31.22165","__source_file__":"13-常用公服设施点/SHP/上海市_售票处.shp"},"geometry":{"type":"Point","coordinates":[121.456159,31.22165]}},{"id":"198","type":"Feature","properties":{"id":"B0H1DLNKPB","name":"自动售票机","address":"淮海中路与思南路交叉口西北约140米","type":"生活服务;售票处;售票处","typecode":"070300","pcode":310000,"pname":"上海市","citycode":21,"cityname":"上海市","adcode":310101,"adname":"黄浦区","business_a":"淮海路","location":"121.464541,31.220312","tel":"[]","bigType":"生活服务","midType":"售票处","smallType":"售票处","gcj_lng":121.464541,"gcj_lat":31.220312,"wgs84_loc":"121.45999,31.222235","wgs84Lng":"121.45999","wgs84Lat":"31.222235","__source_file__":"13-常用公服设施点/SHP/上海市_售票处.shp"},"geometry":{"type":"Point","coordinates":[121.45999,31.222235]}},{"id":"205","type":"Feature","properties":{"id":"B0FFINIKRN","name":"新锦江大酒店-旅游票务中心","address":"长乐路161号新锦江大酒店6层","type":"生活服务;售票处;售票处","typecode":"070300","pcode":310000,"pname":"上海市","citycode":21,"cityname":"上海市","adcode":310101,"adname":"黄浦区","business_a":"淮海路","location":"121.462980,31.220901","tel":"[]","bigType":"生活服务","midType":"售票处","smallType":"售票处","gcj_lng":121.46298,"gcj_lat":31.220901,"wgs84_loc":"121.458424,31.22282","wgs84Lng":"121.458424","wgs84Lat":"31.22282","__source_file__":"13-常用公服设施点/SHP/上海市_售票处.shp"},"geometry":{"type":"Point","coordinates":[121.458424,31.22282]}},{"id":"430","type":"Feature","properties":{"id":"B0FFGM6I11","name":"马汉航空","address":"陕西南路5-7号城市酒店2楼","type":"生活服务;售票处;售票处","typecode":"070300","pcode":310000,"pname":"上海市","citycode":21,"cityname":"上海市","adcode":310101,"adname":"黄浦区","business_a":"淮海路","location":"121.456989,31.222838","tel":"[]","bigType":"生活服务","midType":"售票处","smallType":"售票处","gcj_lng":121.456989,"gcj_lat":31.222838,"wgs84_loc":"121.452416,31.224742","wgs84Lng":"121.452416","wgs84Lat":"31.224742","__source_file__":"13-常用公服设施点/SHP/上海市_售票处.shp"},"geometry":{"type":"Point","coordinates":[121.452416,31.224742]}},{"id":"60","type":"Feature","properties":{"id":"B0G25GSZU6","name":"中国东方航空","address":"威海路258号招商局广场","type":"生活服务;售票处;售票处","typecode":"070300","pcode":310000,"pname":"上海市","citycode":21,"cityname":"上海市","adcode":310106,"adname":"静安区","business_a":"淮海路","location":"121.466269,31.227676","tel":"[]","bigType":"生活服务","midType":"售票处","smallType":"售票处","gcj_lng":121.466269,"gcj_lat":31.227676,"wgs84_loc":"121.461723,31.2296","wgs84Lng":"121.461723","wgs84Lat":"31.2296","__source_file__":"13-常用公服设施点/SHP/上海市_售票处.shp"},"geometry":{"type":"Point","coordinates":[121.461723,31.2296]}},{"id":"247","type":"Feature","properties":{"id":"B0FFM5BPZO","name":"奇境售票处(中信泰富广场)","address":"南京西路1168号中信泰富广场F4","type":"生活服务;售票处;售票处","typecode":"070300","pcode":310000,"pname":"上海市","citycode":21,"cityname":"上海市","adcode":310106,"adname":"静安区","business_a":"淮海路","location":"121.455848,31.228304","tel":"[]","bigType":"生活服务","midType":"售票处","smallType":"售票处","gcj_lng":121.455848,"gcj_lat":31.228304,"wgs84_loc":"121.451272,31.230203","wgs84Lng":"121.451272","wgs84Lat":"31.230203","__source_file__":"13-常用公服设施点/SHP/上海市_售票处.shp"},"geometry":{"type":"Point","coordinates":[121.451272,31.230203]}},{"id":"245","type":"Feature","properties":{"id":"B0HAD1GQJZ","name":"南京西路站自动售票机","address":"吴江路与茂名北路交叉口东北约40米","type":"生活服务;售票处;售票处","typecode":"070300","pcode":310000,"pname":"上海市","citycode":21,"cityname":"上海市","adcode":310106,"adname":"静安区","business_a":"淮海路","location":"121.459009,31.229410","tel":"[]","bigType":"生活服务","midType":"售票处","smallType":"售票处","gcj_lng":121.459009,"gcj_lat":31.22941,"wgs84_loc":"121.454441,31.231315","wgs84Lng":"121.454441","wgs84Lat":"31.231315","__source_file__":"13-常用公服设施点/SHP/上海市_售票处.shp"},"geometry":{"type":"Point","coordinates":[121.454441,31.231315]}},{"id":"243","type":"Feature","properties":{"id":"B00155E6BT","name":"美琪大戏院售票处","address":"江宁路66号(奉贤路与江宁路交叉口北50米路东)","type":"生活服务;售票处;售票处","typecode":"070300","pcode":310000,"pname":"上海市","citycode":21,"cityname":"上海市","adcode":310106,"adname":"静安区","business_a":"淮海路","location":"121.455843,31.229444","tel":"021-62173311;021-62472010","bigType":"生活服务","midType":"售票处","smallType":"售票处","gcj_lng":121.455843,"gcj_lat":31.229444,"wgs84_loc":"121.451267,31.231342","wgs84Lng":"121.451267","wgs84Lat":"31.231342","__source_file__":"13-常用公服设施点/SHP/上海市_售票处.shp"},"geometry":{"type":"Point","coordinates":[121.451267,31.231342]}},{"id":"250","type":"Feature","properties":{"id":"B0FFK5W1NO","name":"现代戏剧谷售票处","address":"奉贤路九久商务楼","type":"生活服务;售票处;售票处","typecode":"070300","pcode":310000,"pname":"上海市","citycode":21,"cityname":"上海市","adcode":310106,"adname":"静安区","business_a":"淮海路","location":"121.455802,31.229512","tel":"[]","bigType":"生活服务","midType":"售票处","smallType":"售票处","gcj_lng":121.455802,"gcj_lat":31.229512,"wgs84_loc":"121.451226,31.23141","wgs84Lng":"121.451226","wgs84Lat":"31.23141","__source_file__":"13-常用公服设施点/SHP/上海市_售票处.shp"},"geometry":{"type":"Point","coordinates":[121.451226,31.23141]}},{"id":"234","type":"Feature","properties":{"id":"B00154D37E","name":"强生票务中心(南西店)","address":"南京西路920号南泰大厦2楼","type":"生活服务;售票处;售票处","typecode":"070300","pcode":310000,"pname":"上海市","citycode":21,"cityname":"上海市","adcode":310106,"adname":"静安区","business_a":"淮海路","location":"121.459170,31.230399","tel":"021-62151585","bigType":"生活服务","midType":"售票处","smallType":"售票处","gcj_lng":121.45917,"gcj_lat":31.230399,"wgs84_loc":"121.454603,31.232304","wgs84Lng":"121.454603","wgs84Lat":"31.232304","__source_file__":"13-常用公服设施点/SHP/上海市_售票处.shp"},"geometry":{"type":"Point","coordinates":[121.454603,31.232304]}},{"id":"537","type":"Feature","properties":{"id":"B0HKLHSG5A","name":"海南省中国国际旅行社邦溪营业部","address":"南京西路1376号上海商城东办公楼6楼617室","type":"生活服务;售票处;售票处","typecode":"070300","pcode":310000,"pname":"上海市","citycode":21,"cityname":"上海市","adcode":310106,"adname":"静安区","business_a":"淮海路","location":"121.452204,31.227123","tel":"[]","bigType":"生活服务","midType":"售票处","smallType":"售票处","gcj_lng":121.452204,"gcj_lat":31.227123,"wgs84_loc":"121.447618,31.229014","wgs84Lng":"121.447618","wgs84Lat":"31.229014","__source_file__":"13-常用公服设施点/SHP/上海市_售票处.shp"},"geometry":{"type":"Point","coordinates":[121.447618,31.229014]}},{"id":"101","type":"Feature","properties":{"id":"B00155KM5W","name":"歌诗达邮轮专卖","address":"北京西路1277号国旅大厦","type":"生活服务;售票处;船票代售点","typecode":"070304","pcode":310000,"pname":"上海市","citycode":21,"cityname":"上海市","adcode":310106,"adname":"静安区","business_a":"曹家渡","location":"121.451170,31.228671","tel":"021-62895595","bigType":"生活服务","midType":"售票处","smallType":"船票代售点","gcj_lng":121.45117,"gcj_lat":31.228671,"wgs84_loc":"121.446582,31.230559","wgs84Lng":"121.446582","wgs84Lat":"31.230559","__source_file__":"13-常用公服设施点/SHP/上海市_售票处.shp"},"geometry":{"type":"Point","coordinates":[121.446582,31.230559]}},{"id":"237","type":"Feature","properties":{"id":"B0GKYBFVJG","name":"瑞旅机票代理企业商旅机票","address":"西康路静安豪景苑","type":"生活服务;售票处;售票处","typecode":"070300","pcode":310000,"pname":"上海市","citycode":21,"cityname":"上海市","adcode":310106,"adname":"静安区","business_a":"曹家渡","location":"121.447652,31.232731","tel":"[]","bigType":"生活服务","midType":"售票处","smallType":"售票处","gcj_lng":121.447652,"gcj_lat":31.232731,"wgs84_loc":"121.443055,31.23461","wgs84Lng":"121.443055","wgs84Lat":"31.23461","__source_file__":"13-常用公服设施点/SHP/上海市_售票处.shp"},"geometry":{"type":"Point","coordinates":[121.443055,31.23461]}},{"id":"232","type":"Feature","properties":{"id":"B0H2HOM4QE","name":"艺海剧场票务中心","address":"康定路211号江宁路466号","type":"生活服务;售票处;售票处","typecode":"070300","pcode":310000,"pname":"上海市","citycode":21,"cityname":"上海市","adcode":310106,"adname":"静安区","business_a":"曹家渡","location":"121.452208,31.235128","tel":"021-22009936","bigType":"生活服务","midType":"售票处","smallType":"售票处","gcj_lng":121.452208,"gcj_lat":31.235128,"wgs84_loc":"121.447622,31.237016","wgs84Lng":"121.447622","wgs84Lat":"31.237016","__source_file__":"13-常用公服设施点/SHP/上海市_售票处.shp"},"geometry":{"type":"Point","coordinates":[121.447622,31.237016]}},{"id":"378","type":"Feature","properties":{"id":"B0H6RXCFJZ","name":"火车票代售处(长寿路营业厅)","address":"长寿路784号","type":"生活服务;售票处;售票处","typecode":"070300","pcode":310000,"pname":"上海市","citycode":21,"cityname":"上海市","adcode":310107,"adname":"普陀区","business_a":"曹家渡","location":"121.431175,31.236373","tel":"[]","bigType":"生活服务","midType":"售票处","smallType":"售票处","gcj_lng":121.431175,"gcj_lat":31.236373,"wgs84_loc":"121.426546,31.238224","wgs84Lng":"121.426546","wgs84Lat":"31.238224","__source_file__":"13-常用公服设施点/SHP/上海市_售票处.shp"},"geometry":{"type":"Point","coordinates":[121.426546,31.238224]}},{"id":"70","type":"Feature","properties":{"id":"B0FFKZXK7P","name":"海阔天空不夜城航空票务中心销售部","address":"长寿路699号504室","type":"生活服务;售票处;售票处","typecode":"070300","pcode":310000,"pname":"上海市","citycode":21,"cityname":"上海市","adcode":310107,"adname":"普陀区","business_a":"曹家渡","location":"121.433138,31.237179","tel":"[]","bigType":"生活服务","midType":"售票处","smallType":"售票处","gcj_lng":121.433138,"gcj_lat":31.237179,"wgs84_loc":"121.428512,31.239032","wgs84Lng":"121.428512","wgs84Lat":"31.239032","__source_file__":"13-常用公服设施点/SHP/上海市_售票处.shp"},"geometry":{"type":"Point","coordinates":[121.428512,31.239032]}},{"id":"373","type":"Feature","properties":{"id":"B0FFHFIZHY","name":"常德路客票代售点","address":"常德路1091号","type":"生活服务;售票处;火车票代售点","typecode":"070302","pcode":310000,"pname":"上海市","citycode":21,"cityname":"上海市","adcode":310106,"adname":"静安区","business_a":"曹家渡","location":"121.439974,31.237735","tel":"021-62984246","bigType":"生活服务","midType":"售票处","smallType":"火车票代售点","gcj_lng":121.439974,"gcj_lat":31.237735,"wgs84_loc":"121.43536,31.239598","wgs84Lng":"121.43536","wgs84Lat":"31.239598","__source_file__":"13-常用公服设施点/SHP/上海市_售票处.shp"},"geometry":{"type":"Point","coordinates":[121.43536,31.239598]}},{"id":"379","type":"Feature","properties":{"id":"B0FFINMTM1","name":"上铁国旅成都北路营业部火车票售票处","address":"成都北路同益里","type":"生活服务;售票处;火车票代售点","typecode":"070302","pcode":310000,"pname":"上海市","citycode":21,"cityname":"上海市","adcode":310101,"adname":"黄浦区","business_a":"北京东路","location":"121.467376,31.229764","tel":"13003220111","bigType":"生活服务","midType":"售票处","smallType":"火车票代售点","gcj_lng":121.467376,"gcj_lat":31.229764,"wgs84_loc":"121.462833,31.23169","wgs84Lng":"121.462833","wgs84Lat":"31.23169","__source_file__":"13-常用公服设施点/SHP/上海市_售票处.shp"},"geometry":{"type":"Point","coordinates":[121.462833,31.23169]}},{"id":"621","type":"Feature","properties":{"id":"B0FFK1WO28","name":"沪嘉专线","address":"成都北路367-4号","type":"生活服务;售票处;长途汽车票代售点","typecode":"070303","pcode":310000,"pname":"上海市","citycode":21,"cityname":"上海市","adcode":310106,"adname":"静安区","business_a":"淮海路","location":"121.466656,31.229809","tel":"[]","bigType":"生活服务","midType":"售票处","smallType":"长途汽车票代售点","gcj_lng":121.466656,"gcj_lat":31.229809,"wgs84_loc":"121.462111,31.231733","wgs84Lng":"121.462111","wgs84Lat":"31.231733","__source_file__":"13-常用公服设施点/SHP/上海市_售票处.shp"},"geometry":{"type":"Point","coordinates":[121.462111,31.231733]}},{"id":"206","type":"Feature","properties":{"id":"B0FFI4GUKD","name":"仙乐斯广场售票处","address":"南京西路388号仙乐斯广场F1室","type":"生活服务;售票处;售票处","typecode":"070300","pcode":310000,"pname":"上海市","citycode":21,"cityname":"上海市","adcode":310101,"adname":"黄浦区","business_a":"北京东路","location":"121.469435,31.231478","tel":"[]","bigType":"生活服务","midType":"售票处","smallType":"售票处","gcj_lng":121.469435,"gcj_lat":31.231478,"wgs84_loc":"121.464898,31.233408","wgs84Lng":"121.464898","wgs84Lat":"31.233408","__source_file__":"13-常用公服设施点/SHP/上海市_售票处.shp"},"geometry":{"type":"Point","coordinates":[121.464898,31.233408]}},{"id":"195","type":"Feature","properties":{"id":"B0H3DRT8WL","name":"上海天蟾逸夫舞台票务中心","address":"福州路703号","type":"生活服务;售票处;售票处","typecode":"070300","pcode":310000,"pname":"上海市","citycode":21,"cityname":"上海市","adcode":310101,"adname":"黄浦区","business_a":"北京东路","location":"121.477531,31.231894","tel":"[]","bigType":"生活服务","midType":"售票处","smallType":"售票处","gcj_lng":121.477531,"gcj_lat":31.231894,"wgs84_loc":"121.47302,31.233846","wgs84Lng":"121.47302","wgs84Lat":"31.233846","__source_file__":"13-常用公服设施点/SHP/上海市_售票处.shp"},"geometry":{"type":"Point","coordinates":[121.47302,31.233846]}},{"id":"183","type":"Feature","properties":{"id":"B0FFFDTKXS","name":"和平影都售票处(来福士广场)","address":"西藏中路268号来福士广场L1层","type":"生活服务;售票处;售票处","typecode":"070300","pcode":310000,"pname":"上海市","citycode":21,"cityname":"上海市","adcode":310101,"adname":"黄浦区","business_a":"北京东路","location":"121.476032,31.232683","tel":"021-63225252","bigType":"生活服务","midType":"售票处","smallType":"售票处","gcj_lng":121.476032,"gcj_lat":31.232683,"wgs84_loc":"121.471516,31.234631","wgs84Lng":"121.471516","wgs84Lat":"31.234631","__source_file__":"13-常用公服设施点/SHP/上海市_售票处.shp"},"geometry":{"type":"Point","coordinates":[121.471516,31.234631]}},{"id":"202","type":"Feature","properties":{"id":"B0FFL340KQ","name":"上海来福士广场售票处","address":"西藏中路268号来福士广场F1","type":"生活服务;售票处;售票处","typecode":"070300","pcode":310000,"pname":"上海市","citycode":21,"cityname":"上海市","adcode":310101,"adname":"黄浦区","business_a":"北京东路","location":"121.476058,31.232776","tel":"[]","bigType":"生活服务","midType":"售票处","smallType":"售票处","gcj_lng":121.476058,"gcj_lat":31.232776,"wgs84_loc":"121.471542,31.234724","wgs84Lng":"121.471542","wgs84Lat":"31.234724","__source_file__":"13-常用公服设施点/SHP/上海市_售票处.shp"},"geometry":{"type":"Point","coordinates":[121.471542,31.234724]}},{"id":"224","type":"Feature","properties":{"id":"B0FFIELASY","name":"上海公共交通卡服务中心(九江路营业部)","address":"九江路609号","type":"生活服务;售票处;公交卡/月票代售点","typecode":"070305","pcode":310000,"pname":"上海市","citycode":21,"cityname":"上海市","adcode":310101,"adname":"黄浦区","business_a":"北京东路","location":"121.478952,31.234491","tel":"021-63601952;021-63611100","bigType":"生活服务","midType":"售票处","smallType":"公交卡/月票代售点","gcj_lng":121.478952,"gcj_lat":31.234491,"wgs84_loc":"121.474446,31.236446","wgs84Lng":"121.474446","wgs84Lat":"31.236446","__source_file__":"13-常用公服设施点/SHP/上海市_售票处.shp"},"geometry":{"type":"Point","coordinates":[121.474446,31.236446]}},{"id":"928","type":"Feature","properties":{"id":"B0JGUSGT4B","name":"演艺大世界尾票亭","address":"南京东路步行街1号亭(南京东路近西藏中路旅游咨询亭)","type":"生活服务;售票处;售票处","typecode":"070300","pcode":310000,"pname":"上海市","citycode":21,"cityname":"上海市","adcode":310101,"adname":"黄浦区","business_a":"北京路","location":"121.475059,31.234803","tel":"[]","bigType":"生活服务","midType":"售票处","smallType":"售票处","gcj_lng":121.475059,"gcj_lat":31.234803,"wgs84_loc":"121.47054,31.236747","wgs84Lng":"121.47054","wgs84Lat":"31.236747","__source_file__":"13-常用公服设施点/SHP/上海市_售票处.shp"},"geometry":{"type":"Point","coordinates":[121.47054,31.236747]}},{"id":"208","type":"Feature","properties":{"id":"B0FFFXVEWF","name":"上海杜莎夫人蜡像馆售票处","address":"南京西路2-68号新世界商厦10层上海杜莎夫人蜡像馆内","type":"生活服务;售票处;售票处","typecode":"070300","pcode":310000,"pname":"上海市","citycode":21,"cityname":"上海市","adcode":310101,"adname":"黄浦区","business_a":"北京东路","location":"121.473637,31.235151","tel":"4000988966","bigType":"生活服务","midType":"售票处","smallType":"售票处","gcj_lng":121.473637,"gcj_lat":31.235151,"wgs84_loc":"121.469113,31.237091","wgs84Lng":"121.469113","wgs84Lat":"31.237091","__source_file__":"13-常用公服设施点/SHP/上海市_售票处.shp"},"geometry":{"type":"Point","coordinates":[121.469113,31.237091]}},{"id":"175","type":"Feature","properties":{"id":"B0FFIYHK3Z","name":"大上海电影院售票处","address":"凤阳路与西藏中路交叉口东南约40米","type":"生活服务;售票处;售票处","typecode":"070300","pcode":310000,"pname":"上海市","citycode":21,"cityname":"上海市","adcode":310101,"adname":"黄浦区","business_a":"北京东路","location":"121.474238,31.235827","tel":"[]","bigType":"生活服务","midType":"售票处","smallType":"售票处","gcj_lng":121.474238,"gcj_lat":31.235827,"wgs84_loc":"121.469716,31.237768","wgs84Lng":"121.469716","wgs84Lat":"31.237768","__source_file__":"13-常用公服设施点/SHP/上海市_售票处.shp"},"geometry":{"type":"Point","coordinates":[121.469716,31.237768]}},{"id":"62","type":"Feature","properties":{"id":"B0FFIK8ZD4","name":"中国东方航空江宁路售票处","address":"江宁路212号凯迪克大厦1层","type":"生活服务;售票处;售票处","typecode":"070300","pcode":310000,"pname":"上海市","citycode":21,"cityname":"上海市","adcode":310106,"adname":"静安区","business_a":"淮海路","location":"121.454586,31.231614","tel":"95530","bigType":"生活服务","midType":"售票处","smallType":"售票处","gcj_lng":121.454586,"gcj_lat":31.231614,"wgs84_loc":"121.450006,31.233508","wgs84Lng":"121.450006","wgs84Lat":"31.233508","__source_file__":"13-常用公服设施点/SHP/上海市_售票处.shp"},"geometry":{"type":"Point","coordinates":[121.450006,31.233508]}},{"id":"248","type":"Feature","properties":{"id":"B0FFL6YIB7","name":"上海自然博物馆售票处","address":"北京西路510号上海自然博物馆内","type":"生活服务;售票处;售票处","typecode":"070300","pcode":310000,"pname":"上海市","citycode":21,"cityname":"上海市","adcode":310106,"adname":"静安区","business_a":"淮海路","location":"121.462646,31.235006","tel":"[]","bigType":"生活服务","midType":"售票处","smallType":"售票处","gcj_lng":121.462646,"gcj_lat":31.235006,"wgs84_loc":"121.458088,31.236917","wgs84Lng":"121.458088","wgs84Lat":"31.236917","__source_file__":"13-常用公服设施点/SHP/上海市_售票处.shp"},"geometry":{"type":"Point","coordinates":[121.458088,31.236917]}},{"id":"246","type":"Feature","properties":{"id":"B0GKUUHR0A","name":"自动售票机","address":"山海关路与慈溪路交叉口东约80米","type":"生活服务;售票处;售票处","typecode":"070300","pcode":310000,"pname":"上海市","citycode":21,"cityname":"上海市","adcode":310106,"adname":"静安区","business_a":"淮海路","location":"121.462659,31.235012","tel":"[]","bigType":"生活服务","midType":"售票处","smallType":"售票处","gcj_lng":121.462659,"gcj_lat":31.235012,"wgs84_loc":"121.458101,31.236924","wgs84Lng":"121.458101","wgs84Lat":"31.236924","__source_file__":"13-常用公服设施点/SHP/上海市_售票处.shp"},"geometry":{"type":"Point","coordinates":[121.458101,31.236924]}},{"id":"244","type":"Feature","properties":{"id":"B0HKVD9RQA","name":"中亚国金商务-前台预订中心","address":"天目西路237号","type":"生活服务;售票处;售票处","typecode":"070300","pcode":310000,"pname":"上海市","citycode":21,"cityname":"上海市","adcode":310106,"adname":"静安区","business_a":"[]","location":"121.456707,31.246455","tel":"[]","bigType":"生活服务","midType":"售票处","smallType":"售票处","gcj_lng":121.456707,"gcj_lat":31.246455,"wgs84_loc":"121.452132,31.248347","wgs84Lng":"121.452132","wgs84Lat":"31.248347","__source_file__":"13-常用公服设施点/SHP/上海市_售票处.shp"},"geometry":{"type":"Point","coordinates":[121.452132,31.248347]}},{"id":"385","type":"Feature","properties":{"id":"B0H0C7XS1O","name":"上海公共交通卡服务站(上海火车站)","address":"秣陵路228号名品商厦B2","type":"生活服务;售票处;售票处","typecode":"070300","pcode":310000,"pname":"上海市","citycode":21,"cityname":"上海市","adcode":310106,"adname":"静安区","business_a":"[]","location":"121.455362,31.246874","tel":"[]","bigType":"生活服务","midType":"售票处","smallType":"售票处","gcj_lng":121.455362,"gcj_lat":31.246874,"wgs84_loc":"121.450783,31.248763","wgs84Lng":"121.450783","wgs84Lat":"31.248763","__source_file__":"13-常用公服设施点/SHP/上海市_售票处.shp"},"geometry":{"type":"Point","coordinates":[121.450783,31.248763]}},{"id":"66","type":"Feature","properties":{"id":"B0HGVBNEUT","name":"交通大众汽车站售票窗口","address":"梅园路与秣陵路交叉口东约60米","type":"生活服务;售票处;售票处","typecode":"070300","pcode":310000,"pname":"上海市","citycode":21,"cityname":"上海市","adcode":310106,"adname":"静安区","business_a":"宝山路","location":"121.457735,31.247206","tel":"[]","bigType":"生活服务","midType":"售票处","smallType":"售票处","gcj_lng":121.457735,"gcj_lat":31.247206,"wgs84_loc":"121.453162,31.2491","wgs84Lng":"121.453162","wgs84Lat":"31.2491","__source_file__":"13-常用公服设施点/SHP/上海市_售票处.shp"},"geometry":{"type":"Point","coordinates":[121.453162,31.2491]}},{"id":"987","type":"Feature","properties":{"id":"B0GKVC5134","name":"上海站自助取票处(联合售票大楼店)","address":"天目西路街道秣陵路100号联合售票大楼F1层","type":"生活服务;售票处;火车票代售点","typecode":"070302","pcode":310000,"pname":"上海市","citycode":21,"cityname":"上海市","adcode":310106,"adname":"静安区","business_a":"宝山路","location":"121.457537,31.247256","tel":"[]","bigType":"生活服务","midType":"售票处","smallType":"火车票代售点","gcj_lng":121.457537,"gcj_lat":31.247256,"wgs84_loc":"121.452964,31.24915","wgs84Lng":"121.452964","wgs84Lat":"31.24915","__source_file__":"13-常用公服设施点/SHP/上海市_售票处.shp"},"geometry":{"type":"Point","coordinates":[121.452964,31.24915]}},{"id":"67","type":"Feature","properties":{"id":"B0GKVC5134","name":"上海站自助取票处","address":"梅园路与秣陵路交叉口东约40米","type":"生活服务;售票处;火车票代售点","typecode":"070302","pcode":310000,"pname":"上海市","citycode":21,"cityname":"上海市","adcode":310106,"adname":"静安区","business_a":"宝山路","location":"121.457537,31.247256","tel":"[]","bigType":"生活服务","midType":"售票处","smallType":"火车票代售点","gcj_lng":121.457537,"gcj_lat":31.247256,"wgs84_loc":"121.452964,31.24915","wgs84Lng":"121.452964","wgs84Lat":"31.24915","__source_file__":"13-常用公服设施点/SHP/上海市_售票处.shp"},"geometry":{"type":"Point","coordinates":[121.452964,31.24915]}},{"id":"384","type":"Feature","properties":{"id":"B0FFG3W1HO","name":"上海站人工售票窗口1-4","address":"秣陵路303号上海站1层","type":"生活服务;售票处;火车票代售点","typecode":"070302","pcode":310000,"pname":"上海市","citycode":21,"cityname":"上海市","adcode":310106,"adname":"静安区","business_a":"宝山路","location":"121.457717,31.247267","tel":"[]","bigType":"生活服务","midType":"售票处","smallType":"火车票代售点","gcj_lng":121.457717,"gcj_lat":31.247267,"wgs84_loc":"121.453144,31.249161","wgs84Lng":"121.453144","wgs84Lat":"31.249161","__source_file__":"13-常用公服设施点/SHP/上海市_售票处.shp"},"geometry":{"type":"Point","coordinates":[121.453144,31.249161]}},{"id":"236","type":"Feature","properties":{"id":"B0FFGX8DIX","name":"自助取票处","address":"梅园路联合售票大楼","type":"生活服务;售票处;售票处","typecode":"070300","pcode":310000,"pname":"上海市","citycode":21,"cityname":"上海市","adcode":310106,"adname":"静安区","business_a":"宝山路","location":"121.457531,31.247297","tel":"[]","bigType":"生活服务","midType":"售票处","smallType":"售票处","gcj_lng":121.457531,"gcj_lat":31.247297,"wgs84_loc":"121.452958,31.249191","wgs84Lng":"121.452958","wgs84Lat":"31.249191","__source_file__":"13-常用公服设施点/SHP/上海市_售票处.shp"},"geometry":{"type":"Point","coordinates":[121.452958,31.249191]}},{"id":"194","type":"Feature","properties":{"id":"B0H3TDHI7J","name":"上海市第一百货商店-大上海电影院售票处","address":"南京东路830号上海市第一百货商店F1","type":"生活服务;售票处;售票处","typecode":"070300","pcode":310000,"pname":"上海市","citycode":21,"cityname":"上海市","adcode":310101,"adname":"黄浦区","business_a":"北京东路","location":"121.474393,31.236036","tel":"[]","bigType":"生活服务","midType":"售票处","smallType":"售票处","gcj_lng":121.474393,"gcj_lat":31.236036,"wgs84_loc":"121.469872,31.237978","wgs84Lng":"121.469872","wgs84Lat":"31.237978","__source_file__":"13-常用公服设施点/SHP/上海市_售票处.shp"},"geometry":{"type":"Point","coordinates":[121.469872,31.237978]}},{"id":"425","type":"Feature","properties":{"id":"B00155QF63","name":"航空机票代售点(新闸路)","address":"新闸路81号","type":"生活服务;售票处;飞机票代售点","typecode":"070301","pcode":310000,"pname":"上海市","citycode":21,"cityname":"上海市","adcode":310101,"adname":"黄浦区","business_a":"北京东路","location":"121.471734,31.237878","tel":"[]","bigType":"生活服务","midType":"售票处","smallType":"飞机票代售点","gcj_lng":121.471734,"gcj_lat":31.237878,"wgs84_loc":"121.467204,31.239812","wgs84Lng":"121.467204","wgs84Lat":"31.239812","__source_file__":"13-常用公服设施点/SHP/上海市_售票处.shp"},"geometry":{"type":"Point","coordinates":[121.467204,31.239812]}},{"id":"874","type":"Feature","properties":{"id":"B0FFGZVWFG","name":"交通卡售卡、充资、退卡点(新闸路)","address":"新闸路81号(新闸路地铁站6号口步行250米)","type":"生活服务;售票处;公交卡/月票代售点","typecode":"070305","pcode":310000,"pname":"上海市","citycode":21,"cityname":"上海市","adcode":310101,"adname":"黄浦区","business_a":"北京东路","location":"121.471794,31.237991","tel":"[]","bigType":"生活服务","midType":"售票处","smallType":"公交卡/月票代售点","gcj_lng":121.471794,"gcj_lat":31.237991,"wgs84_loc":"121.467264,31.239925","wgs84Lng":"121.467264","wgs84Lat":"31.239925","__source_file__":"13-常用公服设施点/SHP/上海市_售票处.shp"},"geometry":{"type":"Point","coordinates":[121.467264,31.239925]}},{"id":"761","type":"Feature","properties":{"id":"B0FFHR5Z7F","name":"中国邮政售票点","address":"新闸路(地铁站)6号口步行246米","type":"生活服务;售票处;售票处","typecode":"070300","pcode":310000,"pname":"上海市","citycode":21,"cityname":"上海市","adcode":310101,"adname":"黄浦区","business_a":"北京东路","location":"121.471791,31.237998","tel":"[]","bigType":"生活服务","midType":"售票处","smallType":"售票处","gcj_lng":121.471791,"gcj_lat":31.237998,"wgs84_loc":"121.467261,31.239932","wgs84Lng":"121.467261","wgs84Lat":"31.239932","__source_file__":"13-常用公服设施点/SHP/上海市_售票处.shp"},"geometry":{"type":"Point","coordinates":[121.467261,31.239932]}},{"id":"199","type":"Feature","properties":{"id":"B0FFMB1NGM","name":"摩天轮票务","address":"厦门路新金桥广场东北侧约140米","type":"生活服务;售票处;售票处","typecode":"070300","pcode":310000,"pname":"上海市","citycode":21,"cityname":"上海市","adcode":310101,"adname":"黄浦区","business_a":"北京东路","location":"121.473770,31.238788","tel":"[]","bigType":"生活服务","midType":"售票处","smallType":"售票处","gcj_lng":121.47377,"gcj_lat":31.238788,"wgs84_loc":"121.469246,31.240727","wgs84Lng":"121.469246","wgs84Lat":"31.240727","__source_file__":"13-常用公服设施点/SHP/上海市_售票处.shp"},"geometry":{"type":"Point","coordinates":[121.469246,31.240727]}},{"id":"759","type":"Feature","properties":{"id":"B0FFG28Q2R","name":"自助售票机","address":"西藏北路与曲阜路交叉口东北40米","type":"生活服务;售票处;售票处","typecode":"070300","pcode":310000,"pname":"上海市","citycode":21,"cityname":"上海市","adcode":310106,"adname":"静安区","business_a":"七浦路","location":"121.471887,31.242751","tel":"[]","bigType":"生活服务","midType":"售票处","smallType":"售票处","gcj_lng":121.471887,"gcj_lat":31.242751,"wgs84_loc":"121.467357,31.244683","wgs84Lng":"121.467357","wgs84Lat":"31.244683","__source_file__":"13-常用公服设施点/SHP/上海市_售票处.shp"},"geometry":{"type":"Point","coordinates":[121.467357,31.244683]}},{"id":"251","type":"Feature","properties":{"id":"B0FFGVWD7F","name":"上海大悦城北座-摩天轮售票处","address":"西藏北路166号上海大悦城北座F8","type":"生活服务;售票处;售票处","typecode":"070300","pcode":310000,"pname":"上海市","citycode":21,"cityname":"上海市","adcode":310106,"adname":"静安区","business_a":"七浦路","location":"121.472451,31.244599","tel":"[]","bigType":"生活服务","midType":"售票处","smallType":"售票处","gcj_lng":121.472451,"gcj_lat":31.244599,"wgs84_loc":"121.467923,31.246531","wgs84Lng":"121.467923","wgs84Lat":"31.246531","__source_file__":"13-常用公服设施点/SHP/上海市_售票处.shp"},"geometry":{"type":"Point","coordinates":[121.467923,31.246531]}},{"id":"13","type":"Feature","properties":{"id":"B0FFFAA4RT","name":"天目东路客票代售点(上铁国旅办公楼店)","address":"天目东路218号上铁国旅","type":"生活服务;售票处;火车票代售点","typecode":"070302","pcode":310000,"pname":"上海市","citycode":21,"cityname":"上海市","adcode":310106,"adname":"静安区","business_a":"宝山路","location":"121.475778,31.249665","tel":"021-63565000","bigType":"生活服务","midType":"售票处","smallType":"火车票代售点","gcj_lng":121.475778,"gcj_lat":31.249665,"wgs84_loc":"121.47126,31.251604","wgs84Lng":"121.47126","wgs84Lat":"31.251604","__source_file__":"13-常用公服设施点/SHP/上海市_售票处.shp"},"geometry":{"type":"Point","coordinates":[121.47126,31.251604]}},{"id":"838","type":"Feature","properties":{"id":"B0FFFAA4RT","name":"天目东路客票代售点","address":"天目东路218号上铁国旅","type":"生活服务;售票处;火车票代售点","typecode":"070302","pcode":310000,"pname":"上海市","citycode":21,"cityname":"上海市","adcode":310106,"adname":"静安区","business_a":"宝山路","location":"121.475778,31.249665","tel":"021-63565000","bigType":"生活服务","midType":"售票处","smallType":"火车票代售点","gcj_lng":121.475778,"gcj_lat":31.249665,"wgs84_loc":"121.47126,31.251604","wgs84Lng":"121.47126","wgs84Lat":"31.251604","__source_file__":"13-常用公服设施点/SHP/上海市_售票处.shp"},"geometry":{"type":"Point","coordinates":[121.47126,31.251604]}},{"id":"369","type":"Feature","properties":{"id":"B0IGB7OR6M","name":"火车票代售处(东华路店)","address":"[]","type":"生活服务;售票处;火车票代售点|生活服务;旅行社;旅行社","typecode":"070302|070100","pcode":310000,"pname":"上海市","citycode":21,"cityname":"上海市","adcode":310106,"adname":"静安区","business_a":"宝山路","location":"121.478349,31.251753","tel":"[]","bigType":"生活服务","midType":"售票处","smallType":"火车票代售点|生活服务","gcj_lng":121.478349,"gcj_lat":31.251753,"wgs84_loc":"121.47384,31.253698","wgs84Lng":"121.47384","wgs84Lat":"31.253698","__source_file__":"13-常用公服设施点/SHP/上海市_售票处.shp"},"geometry":{"type":"Point","coordinates":[121.47384,31.253698]}},{"id":"432","type":"Feature","properties":{"id":"B0GK55A98H","name":"不丹皇家航空","address":"陕西北路与海防路交叉口西约20米","type":"生活服务;售票处;飞机票代售点","typecode":"070301","pcode":310000,"pname":"上海市","citycode":21,"cityname":"上海市","adcode":310106,"adname":"静安区","business_a":"曹家渡","location":"121.446223,31.238573","tel":"[]","bigType":"生活服务","midType":"售票处","smallType":"飞机票代售点","gcj_lng":121.446223,"gcj_lat":31.238573,"wgs84_loc":"121.441622,31.240447","wgs84Lng":"121.441622","wgs84Lat":"31.240447","__source_file__":"13-常用公服设施点/SHP/上海市_售票处.shp"},"geometry":{"type":"Point","coordinates":[121.441622,31.240447]}},{"id":"262","type":"Feature","properties":{"id":"B0FFI4GMAO","name":"亚新生活广场星光影城售票","address":"长寿路401号亚新生活广场F4","type":"生活服务;售票处;售票处","typecode":"070300","pcode":310000,"pname":"上海市","citycode":21,"cityname":"上海市","adcode":310107,"adname":"普陀区","business_a":"曹家渡","location":"121.437592,31.239008","tel":"021-62881357","bigType":"生活服务","midType":"售票处","smallType":"售票处","gcj_lng":121.437592,"gcj_lat":31.239008,"wgs84_loc":"121.432973,31.240867","wgs84Lng":"121.432973","wgs84Lat":"31.240867","__source_file__":"13-常用公服设施点/SHP/上海市_售票处.shp"},"geometry":{"type":"Point","coordinates":[121.432973,31.240867]}},{"id":"433","type":"Feature","properties":{"id":"B001571GEI","name":"广旭航空票务代理有限公司","address":"安远路395号明精大楼7012室","type":"生活服务;售票处;售票处","typecode":"070300","pcode":310000,"pname":"上海市","citycode":21,"cityname":"上海市","adcode":310106,"adname":"静安区","business_a":"曹家渡","location":"121.442136,31.239003","tel":"021-56506671","bigType":"生活服务","midType":"售票处","smallType":"售票处","gcj_lng":121.442136,"gcj_lat":31.239003,"wgs84_loc":"121.437526,31.240869","wgs84Lng":"121.437526","wgs84Lat":"31.240869","__source_file__":"13-常用公服设施点/SHP/上海市_售票处.shp"},"geometry":{"type":"Point","coordinates":[121.437526,31.240869]}},{"id":"456","type":"Feature","properties":{"id":"B0FFG4JZPZ","name":"玉佛禅寺售票处","address":"安远路170号玉佛禅寺","type":"生活服务;售票处;公园景点售票处","typecode":"070306","pcode":310000,"pname":"上海市","citycode":21,"cityname":"上海市","adcode":310107,"adname":"普陀区","business_a":"曹家渡","location":"121.445053,31.240999","tel":"[]","bigType":"生活服务","midType":"售票处","smallType":"公园景点售票处","gcj_lng":121.445053,"gcj_lat":31.240999,"wgs84_loc":"121.440449,31.24287","wgs84Lng":"121.440449","wgs84Lat":"31.24287","__source_file__":"13-常用公服设施点/SHP/上海市_售票处.shp"},"geometry":{"type":"Point","coordinates":[121.440449,31.24287]}},{"id":"652","type":"Feature","properties":{"id":"B0FFK36T7C","name":"香花券售票处","address":"江宁路(地铁站)3号口步行556米","type":"生活服务;售票处;公园景点售票处","typecode":"070306","pcode":310000,"pname":"上海市","citycode":21,"cityname":"上海市","adcode":310107,"adname":"普陀区","business_a":"曹家渡","location":"121.445112,31.241039","tel":"[]","bigType":"生活服务","midType":"售票处","smallType":"公园景点售票处","gcj_lng":121.445112,"gcj_lat":31.241039,"wgs84_loc":"121.440508,31.24291","wgs84Lng":"121.440508","wgs84Lat":"31.24291","__source_file__":"13-常用公服设施点/SHP/上海市_售票处.shp"},"geometry":{"type":"Point","coordinates":[121.440508,31.24291]}},{"id":"653","type":"Feature","properties":{"id":"B0FFJB4C7B","name":"巴黎春天百货万幕电影售票处","address":"长寿路155号巴黎春天百货F4层","type":"生活服务;售票处;售票处","typecode":"070300","pcode":310000,"pname":"上海市","citycode":21,"cityname":"上海市","adcode":310107,"adname":"普陀区","business_a":"曹家渡","location":"121.442054,31.242443","tel":"[]","bigType":"生活服务","midType":"售票处","smallType":"售票处","gcj_lng":121.442054,"gcj_lat":31.242443,"wgs84_loc":"121.437444,31.244308","wgs84Lng":"121.437444","wgs84Lat":"31.244308","__source_file__":"13-常用公服设施点/SHP/上海市_售票处.shp"},"geometry":{"type":"Point","coordinates":[121.437444,31.244308]}},{"id":"258","type":"Feature","properties":{"id":"B00155QRX7","name":"火车票代售处(岚皋路)","address":"岚皋路10号","type":"生活服务;售票处;火车票代售点","typecode":"070302","pcode":310000,"pname":"上海市","citycode":21,"cityname":"上海市","adcode":310107,"adname":"普陀区","business_a":"光新","location":"121.426540,31.246271","tel":"[]","bigType":"生活服务","midType":"售票处","smallType":"火车票代售点","gcj_lng":121.42654,"gcj_lat":31.246271,"wgs84_loc":"121.421903,31.248112","wgs84Lng":"121.421903","wgs84Lat":"31.248112","__source_file__":"13-常用公服设施点/SHP/上海市_售票处.shp"},"geometry":{"type":"Point","coordinates":[121.421903,31.248112]}},{"id":"930","type":"Feature","properties":{"id":"B0IUPH2DCM","name":"火车票代售处(恒丰路)","address":"上海邮电大厦西北门旁(上海火车站地铁站2号口步行420米)","type":"生活服务;售票处;火车票代售点","typecode":"070302","pcode":310000,"pname":"上海市","citycode":21,"cityname":"上海市","adcode":310106,"adname":"静安区","business_a":"不夜城","location":"121.452000,31.248819","tel":"[]","bigType":"生活服务","midType":"售票处","smallType":"火车票代售点","gcj_lng":121.452,"gcj_lat":31.248819,"wgs84_loc":"121.447412,31.2507","wgs84Lng":"121.447412","wgs84Lat":"31.2507","__source_file__":"13-常用公服设施点/SHP/上海市_售票处.shp"},"geometry":{"type":"Point","coordinates":[121.447412,31.2507]}},{"id":"253","type":"Feature","properties":{"id":"B0FFGCX5EF","name":"沪太长途汽车站售票处","address":"中山北路1013-1015号","type":"生活服务;售票处;售票处","typecode":"070300","pcode":310000,"pname":"上海市","citycode":21,"cityname":"上海市","adcode":310106,"adname":"静安区","business_a":"和田","location":"121.449980,31.258728","tel":"[]","bigType":"生活服务","midType":"售票处","smallType":"售票处","gcj_lng":121.44998,"gcj_lat":31.258728,"wgs84_loc":"121.445386,31.2606","wgs84Lng":"121.445386","wgs84Lat":"31.2606","__source_file__":"13-常用公服设施点/SHP/上海市_售票处.shp"},"geometry":{"type":"Point","coordinates":[121.445386,31.2606]}},{"id":"65","type":"Feature","properties":{"id":"B00152A8FB","name":"上海站售票处(联合售票大楼西)","address":"秣陵路100联合售票大楼1-2、4层","type":"生活服务;售票处;火车票代售点","typecode":"070302","pcode":310000,"pname":"上海市","citycode":21,"cityname":"上海市","adcode":310106,"adname":"静安区","business_a":"宝山路","location":"121.457617,31.247405","tel":"[]","bigType":"生活服务","midType":"售票处","smallType":"火车票代售点","gcj_lng":121.457617,"gcj_lat":31.247405,"wgs84_loc":"121.453044,31.249299","wgs84Lng":"121.453044","wgs84Lat":"31.249299","__source_file__":"13-常用公服设施点/SHP/上海市_售票处.shp"},"geometry":{"type":"Point","coordinates":[121.453044,31.249299]}},{"id":"648","type":"Feature","properties":{"id":"B0FFFDDATU","name":"上海公共交通卡售、退卡处","address":"华康路与秣陵路交叉口西南20米","type":"生活服务;售票处;公交卡/月票代售点","typecode":"070305","pcode":310000,"pname":"上海市","citycode":21,"cityname":"上海市","adcode":310106,"adname":"静安区","business_a":"宝山路","location":"121.457869,31.247523","tel":"[]","bigType":"生活服务","midType":"售票处","smallType":"公交卡/月票代售点","gcj_lng":121.457869,"gcj_lat":31.247523,"wgs84_loc":"121.453297,31.249417","wgs84Lng":"121.453297","wgs84Lat":"31.249417","__source_file__":"13-常用公服设施点/SHP/上海市_售票处.shp"},"geometry":{"type":"Point","coordinates":[121.453297,31.249417]}},{"id":"64","type":"Feature","properties":{"id":"B00155QHA8","name":"上海站北广场售票处","address":"中兴路1688号上海站北广场附近","type":"生活服务;售票处;售票处","typecode":"070300","pcode":310000,"pname":"上海市","citycode":21,"cityname":"上海市","adcode":310106,"adname":"静安区","business_a":"[]","location":"121.456716,31.250679","tel":"[]","bigType":"生活服务","midType":"售票处","smallType":"售票处","gcj_lng":121.456716,"gcj_lat":31.250679,"wgs84_loc":"121.45214,31.252569","wgs84Lng":"121.45214","wgs84Lat":"31.252569","__source_file__":"13-常用公服设施点/SHP/上海市_售票处.shp"},"geometry":{"type":"Point","coordinates":[121.45214,31.252569]}},{"id":"63","type":"Feature","properties":{"id":"B001521C0F","name":"上海站售票处","address":"[]","type":"生活服务;售票处;火车票代售点","typecode":"070302","pcode":310000,"pname":"上海市","citycode":21,"cityname":"上海市","adcode":310106,"adname":"静安区","business_a":"[]","location":"121.456726,31.250721","tel":"021-51234692;021-67131575","bigType":"生活服务","midType":"售票处","smallType":"火车票代售点","gcj_lng":121.456726,"gcj_lat":31.250721,"wgs84_loc":"121.45215,31.252611","wgs84Lng":"121.45215","wgs84Lat":"31.252611","__source_file__":"13-常用公服设施点/SHP/上海市_售票处.shp"},"geometry":{"type":"Point","coordinates":[121.45215,31.252611]}},{"id":"255","type":"Feature","properties":{"id":"B00155NEPG","name":"上海长途汽车客运总站售票处","address":"中山北路1015号","type":"生活服务;售票处;售票处","typecode":"070300","pcode":310000,"pname":"上海市","citycode":21,"cityname":"上海市","adcode":310106,"adname":"静安区","business_a":"和田","location":"121.454540,31.252108","tel":"[]","bigType":"生活服务","midType":"售票处","smallType":"售票处","gcj_lng":121.45454,"gcj_lat":31.252108,"wgs84_loc":"121.449958,31.253993","wgs84Lng":"121.449958","wgs84Lat":"31.253993","__source_file__":"13-常用公服设施点/SHP/上海市_售票处.shp"},"geometry":{"type":"Point","coordinates":[121.449958,31.253993]}},{"id":"868","type":"Feature","properties":{"id":"B0GRHBPIP2","name":"中国邮政售票点","address":"沪太路与普善路交叉口东120米","type":"生活服务;售票处;售票处","typecode":"070300","pcode":310000,"pname":"上海市","citycode":21,"cityname":"上海市","adcode":310106,"adname":"静安区","business_a":"和田","location":"121.456434,31.253691","tel":"[]","bigType":"生活服务","midType":"售票处","smallType":"售票处","gcj_lng":121.456434,"gcj_lat":31.253691,"wgs84_loc":"121.451857,31.255579","wgs84Lng":"121.451857","wgs84Lat":"31.255579","__source_file__":"13-常用公服设施点/SHP/上海市_售票处.shp"},"geometry":{"type":"Point","coordinates":[121.451857,31.255579]}},{"id":"442","type":"Feature","properties":{"id":"B0G2GBKZEK","name":"长途汽车售票处","address":"中山北路806号","type":"生活服务;售票处;售票处","typecode":"070300","pcode":310000,"pname":"上海市","citycode":21,"cityname":"上海市","adcode":310106,"adname":"静安区","business_a":"和田","location":"121.458784,31.259727","tel":"[]","bigType":"生活服务","midType":"售票处","smallType":"售票处","gcj_lng":121.458784,"gcj_lat":31.259727,"wgs84_loc":"121.454213,31.261618","wgs84Lng":"121.454213","wgs84Lat":"31.261618","__source_file__":"13-常用公服设施点/SHP/上海市_售票处.shp"},"geometry":{"type":"Point","coordinates":[121.454213,31.261618]}},{"id":"254","type":"Feature","properties":{"id":"B00156EPIY","name":"上海中山客运站售票处","address":"中山北路806号","type":"生活服务;售票处;售票处","typecode":"070300","pcode":310000,"pname":"上海市","citycode":21,"cityname":"上海市","adcode":310106,"adname":"静安区","business_a":"和田","location":"121.458703,31.259736","tel":"021-56559069","bigType":"生活服务","midType":"售票处","smallType":"售票处","gcj_lng":121.458703,"gcj_lat":31.259736,"wgs84_loc":"121.454132,31.261627","wgs84Lng":"121.454132","wgs84Lat":"31.261627","__source_file__":"13-常用公服设施点/SHP/上海市_售票处.shp"},"geometry":{"type":"Point","coordinates":[121.454132,31.261627]}},{"id":"370","type":"Feature","properties":{"id":"B0FFI72PVA","name":"上铁国旅火车票代售处","address":"柳营路福泰公寓","type":"生活服务;售票处;火车票代售点","typecode":"070302","pcode":310000,"pname":"上海市","citycode":21,"cityname":"上海市","adcode":310106,"adname":"静安区","business_a":"和田","location":"121.456547,31.264460","tel":"[]","bigType":"生活服务","midType":"售票处","smallType":"火车票代售点","gcj_lng":121.456547,"gcj_lat":31.26446,"wgs84_loc":"121.45197,31.266344","wgs84Lng":"121.45197","wgs84Lat":"31.266344","__source_file__":"13-常用公服设施点/SHP/上海市_售票处.shp"},"geometry":{"type":"Point","coordinates":[121.45197,31.266344]}},{"id":"4","type":"Feature","properties":{"id":"B0FFI72PVA","name":"火车票代售处","address":"福泰公寓东南1门旁","type":"生活服务;售票处;火车票代售点","typecode":"070302","pcode":310000,"pname":"上海市","citycode":21,"cityname":"上海市","adcode":310106,"adname":"静安区","business_a":"和田","location":"121.456614,31.264466","tel":"021-62227779","bigType":"生活服务","midType":"售票处","smallType":"火车票代售点","gcj_lng":121.456614,"gcj_lat":31.264466,"wgs84_loc":"121.452037,31.26635","wgs84Lng":"121.452037","wgs84Lat":"31.26635","__source_file__":"13-常用公服设施点/SHP/上海市_售票处.shp"},"geometry":{"type":"Point","coordinates":[121.452037,31.26635]}},{"id":"36","type":"Feature","properties":{"id":"B0FFGE8UAN","name":"火车票代售处(延长中路营业部)","address":"延长中路720号","type":"生活服务;售票处;火车票代售点","typecode":"070302","pcode":310000,"pname":"上海市","citycode":21,"cityname":"上海市","adcode":310106,"adname":"静安区","business_a":"和田","location":"121.446959,31.267087","tel":"021-56310010;021-56536315;15618055578","bigType":"生活服务","midType":"售票处","smallType":"火车票代售点","gcj_lng":121.446959,"gcj_lat":31.267087,"wgs84_loc":"121.442357,31.26895","wgs84Lng":"121.442357","wgs84Lat":"31.26895","__source_file__":"13-常用公服设施点/SHP/上海市_售票处.shp"},"geometry":{"type":"Point","coordinates":[121.442357,31.26895]}},{"id":"61","type":"Feature","properties":{"id":"B0FFFDLVWK","name":"中国东方航空(延长中路售票处)","address":"延长中路720号","type":"生活服务;售票处;飞机票代售点","typecode":"070301","pcode":310000,"pname":"上海市","citycode":21,"cityname":"上海市","adcode":310106,"adname":"静安区","business_a":"和田","location":"121.446917,31.267088","tel":"021-56539456;021-56536320","bigType":"生活服务","midType":"售票处","smallType":"飞机票代售点","gcj_lng":121.446917,"gcj_lat":31.267088,"wgs84_loc":"121.442315,31.268951","wgs84Lng":"121.442315","wgs84Lat":"31.268951","__source_file__":"13-常用公服设施点/SHP/上海市_售票处.shp"},"geometry":{"type":"Point","coordinates":[121.442315,31.268951]}},{"id":"863","type":"Feature","properties":{"id":"B0FFGYOKXR","name":"沪北电影院售票处","address":"洛川东路502号","type":"生活服务;售票处;售票处","typecode":"070300","pcode":310000,"pname":"上海市","citycode":21,"cityname":"上海市","adcode":310106,"adname":"静安区","business_a":"和田","location":"121.458513,31.268253","tel":"021-56980611","bigType":"生活服务","midType":"售票处","smallType":"售票处","gcj_lng":121.458513,"gcj_lat":31.268253,"wgs84_loc":"121.453941,31.27014","wgs84Lng":"121.453941","wgs84Lat":"31.27014","__source_file__":"13-常用公服设施点/SHP/上海市_售票处.shp"},"geometry":{"type":"Point","coordinates":[121.453941,31.27014]}},{"id":"828","type":"Feature","properties":{"id":"B0FFLGIQ8Q","name":"自动售票机","address":"地铁1号线延长路站延长路站B1","type":"生活服务;售票处;售票处","typecode":"070300","pcode":310000,"pname":"上海市","citycode":21,"cityname":"上海市","adcode":310106,"adname":"静安区","business_a":"大宁路","location":"121.455523,31.271081","tel":"[]","bigType":"生活服务","midType":"售票处","smallType":"售票处","gcj_lng":121.455523,"gcj_lat":31.271081,"wgs84_loc":"121.450942,31.27296","wgs84Lng":"121.450942","wgs84Lat":"31.27296","__source_file__":"13-常用公服设施点/SHP/上海市_售票处.shp"},"geometry":{"type":"Point","coordinates":[121.450942,31.27296]}},{"id":"772","type":"Feature","properties":{"id":"B0FFIDKSPX","name":"MAKEMAKER创客没空","address":"共和新路1898号大宁国际5座3楼","type":"生活服务;售票处;售票处","typecode":"070300","pcode":310000,"pname":"上海市","citycode":21,"cityname":"上海市","adcode":310106,"adname":"静安区","business_a":"大宁路","location":"121.453186,31.273895","tel":"13472765894","bigType":"生活服务","midType":"售票处","smallType":"售票处","gcj_lng":121.453186,"gcj_lat":31.273895,"wgs84_loc":"121.448599,31.275768","wgs84Lng":"121.448599","wgs84Lat":"31.275768","__source_file__":"13-常用公服设施点/SHP/上海市_售票处.shp"},"geometry":{"type":"Point","coordinates":[121.448599,31.275768]}}],"name":"上海市_售票处","crs":{"type":"name","properties":{"name":"urn:ogc:def:crs:OGC:1.3:CRS84"}}}