{"type":"FeatureCollection","features":[{"id":"407","type":"Feature","properties":{"id":"B0GUSZL5JT","name":"上海黄浦区爱以德养老院","address":"广东路525号","type":"体育休闲服务;度假疗养场所;疗养院","typecode":"080402","pcode":310000,"pname":"上海市","citycode":21,"cityname":"上海市","adcode":310101,"adname":"黄浦区","business_a":"北京东路","location":"121.481673,31.231836","tel":"4006233918","bigType":"体育休闲服务","midType":"度假疗养场所","smallType":"疗养院","gcj_lng":121.481673,"gcj_lat":31.231836,"wgs84_loc":"121.477177,31.2338","wgs84Lng":"121.477177","wgs84Lat":"31.2338","__source_file__":"13-常用公服设施点/SHP/上海市_度假疗养场所.shp"},"geometry":{"type":"Point","coordinates":[121.477177,31.2338]}},{"id":"703","type":"Feature","properties":{"id":"B0G0OATK02","name":"爱以德养老院.浦岸护理院","address":"湖北路与广东路交叉口东南40米","type":"体育休闲服务;度假疗养场所;疗养院","typecode":"080402","pcode":310000,"pname":"上海市","citycode":21,"cityname":"上海市","adcode":310101,"adname":"黄浦区","business_a":"北京东路","location":"121.481549,31.231870","tel":"[]","bigType":"体育休闲服务","midType":"度假疗养场所","smallType":"疗养院","gcj_lng":121.481549,"gcj_lat":31.23187,"wgs84_loc":"121.477052,31.233834","wgs84Lng":"121.477052","wgs84Lat":"31.233834","__source_file__":"13-常用公服设施点/SHP/上海市_度假疗养场所.shp"},"geometry":{"type":"Point","coordinates":[121.477052,31.233834]}},{"id":"274","type":"Feature","properties":{"id":"B0G3OD8J0R","name":"上海爱以德浦岸护理院","address":"广东路495号","type":"体育休闲服务;度假疗养场所;疗养院","typecode":"080402","pcode":310000,"pname":"上海市","citycode":21,"cityname":"上海市","adcode":310101,"adname":"黄浦区","business_a":"北京东路","location":"121.481445,31.231907","tel":"4006233918","bigType":"体育休闲服务","midType":"度假疗养场所","smallType":"疗养院","gcj_lng":121.481445,"gcj_lat":31.231907,"wgs84_loc":"121.476948,31.23387","wgs84Lng":"121.476948","wgs84Lat":"31.23387","__source_file__":"13-常用公服设施点/SHP/上海市_度假疗养场所.shp"},"geometry":{"type":"Point","coordinates":[121.476948,31.23387]}},{"id":"279","type":"Feature","properties":{"id":"B0FFG16LFA","name":"平望老人日托所","address":"广东路487号2楼202室","type":"体育休闲服务;度假疗养场所;疗养院","typecode":"080402","pcode":310000,"pname":"上海市","citycode":21,"cityname":"上海市","adcode":310101,"adname":"黄浦区","business_a":"北京东路","location":"121.481766,31.232087","tel":"[]","bigType":"体育休闲服务","midType":"度假疗养场所","smallType":"疗养院","gcj_lng":121.481766,"gcj_lat":31.232087,"wgs84_loc":"121.47727,31.234051","wgs84Lng":"121.47727","wgs84Lat":"31.234051","__source_file__":"13-常用公服设施点/SHP/上海市_度假疗养场所.shp"},"geometry":{"type":"Point","coordinates":[121.47727,31.234051]}},{"id":"156","type":"Feature","properties":{"id":"B0FFFA088U","name":"上海天使海滩度假村","address":"延安东路142号","type":"体育休闲服务;度假疗养场所;度假村","typecode":"080401","pcode":310000,"pname":"上海市","citycode":21,"cityname":"上海市","adcode":310101,"adname":"黄浦区","business_a":"北京东路","location":"121.489182,31.23233","tel":"[]","bigType":"体育休闲服务","midType":"度假疗养场所","smallType":"度假村","gcj_lng":121.489182,"gcj_lat":31.23233,"wgs84_loc":"121.484712,31.234316","wgs84Lng":"121.484712","wgs84Lat":"31.234316","__source_file__":"13-常用公服设施点/SHP/上海市_度假疗养场所.shp"},"geometry":{"type":"Point","coordinates":[121.484712,31.234316]}},{"id":"827","type":"Feature","properties":{"id":"B0FFI7MFBF","name":"曰月新养老院","address":"余姚路","type":"体育休闲服务;度假疗养场所;疗养院","typecode":"080402","pcode":310000,"pname":"上海市","citycode":21,"cityname":"上海市","adcode":310106,"adname":"静安区","business_a":"曹家渡","location":"121.437443,31.235336","tel":"[]","bigType":"体育休闲服务","midType":"度假疗养场所","smallType":"疗养院","gcj_lng":121.437443,"gcj_lat":31.235336,"wgs84_loc":"121.432824,31.237196","wgs84Lng":"121.432824","wgs84Lat":"31.237196","__source_file__":"13-常用公服设施点/SHP/上海市_度假疗养场所.shp"},"geometry":{"type":"Point","coordinates":[121.432824,31.237196]}},{"id":"1003","type":"Feature","properties":{"id":"B00156O276","name":"江宁乐龄家园","address":"常德路545弄43号(昌平路地铁站2号口步行480米)","type":"体育休闲服务;度假疗养场所;疗养院","typecode":"080402","pcode":310000,"pname":"上海市","citycode":21,"cityname":"上海市","adcode":310106,"adname":"静安区","business_a":"[]","location":"121.445544,31.229885","tel":"[]","bigType":"体育休闲服务","midType":"度假疗养场所","smallType":"疗养院","gcj_lng":121.445544,"gcj_lat":31.229885,"wgs84_loc":"121.440942,31.231762","wgs84Lng":"121.440942","wgs84Lat":"31.231762","__source_file__":"13-常用公服设施点/SHP/上海市_度假疗养场所.shp"},"geometry":{"type":"Point","coordinates":[121.440942,31.231762]}},{"id":"178","type":"Feature","properties":{"id":"B00155GE3L","name":"上海静安区曹家渡爱华养老院","address":"胶州路485号(近康定路)","type":"体育休闲服务;度假疗养场所;疗养院","typecode":"080402","pcode":310000,"pname":"上海市","citycode":21,"cityname":"上海市","adcode":310106,"adname":"静安区","business_a":"曹家渡","location":"121.441755,31.231759","tel":"021-62157096","bigType":"体育休闲服务","midType":"度假疗养场所","smallType":"疗养院","gcj_lng":121.441755,"gcj_lat":31.231759,"wgs84_loc":"121.437145,31.233628","wgs84Lng":"121.437145","wgs84Lat":"31.233628","__source_file__":"13-常用公服设施点/SHP/上海市_度假疗养场所.shp"},"geometry":{"type":"Point","coordinates":[121.437145,31.233628]}},{"id":"199","type":"Feature","properties":{"id":"B0FFF004W1","name":"蝴蝶湾敬老院","address":"石门二路505-1号","type":"体育休闲服务;度假疗养场所;疗养院","typecode":"080402","pcode":310000,"pname":"上海市","citycode":21,"cityname":"上海市","adcode":310106,"adname":"静安区","business_a":"淮海路","location":"121.458635,31.237575","tel":"[]","bigType":"体育休闲服务","midType":"度假疗养场所","smallType":"疗养院","gcj_lng":121.458635,"gcj_lat":31.237575,"wgs84_loc":"121.454066,31.239476","wgs84Lng":"121.454066","wgs84Lat":"31.239476","__source_file__":"13-常用公服设施点/SHP/上海市_度假疗养场所.shp"},"geometry":{"type":"Point","coordinates":[121.454066,31.239476]}},{"id":"201","type":"Feature","properties":{"id":"B0FFJ7Y562","name":"宝龙养老院","address":"光复路921号附近","type":"体育休闲服务;度假疗养场所;疗养院","typecode":"080402","pcode":310000,"pname":"上海市","citycode":21,"cityname":"上海市","adcode":310106,"adname":"静安区","business_a":"[]","location":"121.456711,31.239088","tel":"[]","bigType":"体育休闲服务","midType":"度假疗养场所","smallType":"疗养院","gcj_lng":121.456711,"gcj_lat":31.239088,"wgs84_loc":"121.452136,31.240984","wgs84Lng":"121.452136","wgs84Lat":"31.240984","__source_file__":"13-常用公服设施点/SHP/上海市_度假疗养场所.shp"},"geometry":{"type":"Point","coordinates":[121.452136,31.240984]}},{"id":"188","type":"Feature","properties":{"id":"B0H35H4JYX","name":"江宁路街道社区综合为老服务中心","address":"江宁路街道淮安路771号","type":"体育休闲服务;度假疗养场所;疗养院","typecode":"080402","pcode":310000,"pname":"上海市","citycode":21,"cityname":"上海市","adcode":310106,"adname":"静安区","business_a":"曹家渡","location":"121.450392,31.239252","tel":"021-62991007","bigType":"体育休闲服务","midType":"度假疗养场所","smallType":"疗养院","gcj_lng":121.450392,"gcj_lat":31.239252,"wgs84_loc":"121.445801,31.241134","wgs84Lng":"121.445801","wgs84Lat":"31.241134","__source_file__":"13-常用公服设施点/SHP/上海市_度假疗养场所.shp"},"geometry":{"type":"Point","coordinates":[121.445801,31.241134]}},{"id":"760","type":"Feature","properties":{"id":"B0FFHG8KKP","name":"上海普陀区妇女儿童保健所(西康路分院)","address":"西康路与安远路交叉口北100米","type":"体育休闲服务;度假疗养场所;疗养院","typecode":"080402","pcode":310000,"pname":"上海市","citycode":21,"cityname":"上海市","adcode":310107,"adname":"普陀区","business_a":"曹家渡","location":"121.442403,31.240364","tel":"[]","bigType":"体育休闲服务","midType":"度假疗养场所","smallType":"疗养院","gcj_lng":121.442403,"gcj_lat":31.240364,"wgs84_loc":"121.437794,31.24223","wgs84Lng":"121.437794","wgs84Lat":"31.24223","__source_file__":"13-常用公服设施点/SHP/上海市_度假疗养场所.shp"},"geometry":{"type":"Point","coordinates":[121.437794,31.24223]}},{"id":"826","type":"Feature","properties":{"id":"B0FFK6UVHE","name":"上海静安区北站街道敬老院","address":"南星路80号","type":"体育休闲服务;度假疗养场所;疗养院","typecode":"080402","pcode":310000,"pname":"上海市","citycode":21,"cityname":"上海市","adcode":310106,"adname":"静安区","business_a":"七浦路","location":"121.465522,31.242908","tel":"[]","bigType":"体育休闲服务","midType":"度假疗养场所","smallType":"疗养院","gcj_lng":121.465522,"gcj_lat":31.242908,"wgs84_loc":"121.460972,31.244823","wgs84Lng":"121.460972","wgs84Lat":"31.244823","__source_file__":"13-常用公服设施点/SHP/上海市_度假疗养场所.shp"},"geometry":{"type":"Point","coordinates":[121.460972,31.244823]}},{"id":"845","type":"Feature","properties":{"id":"B00155M09E","name":"北站老年护理院","address":"大统路159弄2号楼","type":"体育休闲服务;度假疗养场所;疗养院","typecode":"080402","pcode":310000,"pname":"上海市","citycode":21,"cityname":"上海市","adcode":310106,"adname":"静安区","business_a":"七浦路","location":"121.464710,31.243601","tel":"[]","bigType":"体育休闲服务","midType":"度假疗养场所","smallType":"疗养院","gcj_lng":121.46471,"gcj_lat":31.243601,"wgs84_loc":"121.460158,31.245514","wgs84Lng":"121.460158","wgs84Lat":"31.245514","__source_file__":"13-常用公服设施点/SHP/上海市_度假疗养场所.shp"},"geometry":{"type":"Point","coordinates":[121.460158,31.245514]}},{"id":"205","type":"Feature","properties":{"id":"B0FFF00ONJ","name":"普陀区宜川养老院","address":"远景路69号","type":"体育休闲服务;度假疗养场所;疗养院","typecode":"080402","pcode":310000,"pname":"上海市","citycode":21,"cityname":"上海市","adcode":310107,"adname":"普陀区","business_a":"光新","location":"121.450003,31.2516","tel":"4000066559;021-66317661","bigType":"体育休闲服务","midType":"度假疗养场所","smallType":"疗养院","gcj_lng":121.450003,"gcj_lat":31.2516,"wgs84_loc":"121.44541,31.253476","wgs84Lng":"121.44541","wgs84Lat":"31.253476","__source_file__":"13-常用公服设施点/SHP/上海市_度假疗养场所.shp"},"geometry":{"type":"Point","coordinates":[121.44541,31.253476]}},{"id":"617","type":"Feature","properties":{"id":"B0IBKGHD51","name":"养老院","address":"[]","type":"体育休闲服务;度假疗养场所;疗养院","typecode":"080402","pcode":310000,"pname":"上海市","citycode":21,"cityname":"上海市","adcode":310107,"adname":"普陀区","business_a":"光新","location":"121.450641,31.251601","tel":"[]","bigType":"体育休闲服务","midType":"度假疗养场所","smallType":"疗养院","gcj_lng":121.450641,"gcj_lat":31.251601,"wgs84_loc":"121.446049,31.253478","wgs84Lng":"121.446049","wgs84Lat":"31.253478","__source_file__":"13-常用公服设施点/SHP/上海市_度假疗养场所.shp"},"geometry":{"type":"Point","coordinates":[121.446049,31.253478]}},{"id":"27","type":"Feature","properties":{"id":"B0FFHJTK77","name":"长寿安远长者照护之家","address":"长寿社区安远路676号","type":"体育休闲服务;度假疗养场所;疗养院","typecode":"080402","pcode":310000,"pname":"上海市","citycode":21,"cityname":"上海市","adcode":310107,"adname":"普陀区","business_a":"曹家渡","location":"121.435084,31.235380","tel":"[]","bigType":"体育休闲服务","midType":"度假疗养场所","smallType":"疗养院","gcj_lng":121.435084,"gcj_lat":31.23538,"wgs84_loc":"121.430461,31.237237","wgs84Lng":"121.430461","wgs84Lat":"31.237237","__source_file__":"13-常用公服设施点/SHP/上海市_度假疗养场所.shp"},"geometry":{"type":"Point","coordinates":[121.430461,31.237237]}},{"id":"25","type":"Feature","properties":{"id":"B0FFFSTG3N","name":"上海静安区日月星养老院","address":"余姚路338之1-2","type":"体育休闲服务;度假疗养场所;疗养院","typecode":"080402","pcode":310000,"pname":"上海市","citycode":21,"cityname":"上海市","adcode":310106,"adname":"静安区","business_a":"曹家渡","location":"121.43713,31.235435","tel":"4000066559","bigType":"体育休闲服务","midType":"度假疗养场所","smallType":"疗养院","gcj_lng":121.43713,"gcj_lat":31.235435,"wgs84_loc":"121.432511,31.237295","wgs84Lng":"121.432511","wgs84Lat":"31.237295","__source_file__":"13-常用公服设施点/SHP/上海市_度假疗养场所.shp"},"geometry":{"type":"Point","coordinates":[121.432511,31.237295]}},{"id":"602","type":"Feature","properties":{"id":"B0FFF00ONY","name":"长寿家园养老院","address":"宜昌路555号4-5层","type":"体育休闲服务;度假疗养场所;疗养院","typecode":"080402","pcode":310000,"pname":"上海市","citycode":21,"cityname":"上海市","adcode":310107,"adname":"普陀区","business_a":"曹家渡","location":"121.433874,31.244179","tel":"021-31169927","bigType":"体育休闲服务","midType":"度假疗养场所","smallType":"疗养院","gcj_lng":121.433874,"gcj_lat":31.244179,"wgs84_loc":"121.429248,31.24603","wgs84Lng":"121.429248","wgs84Lat":"31.24603","__source_file__":"13-常用公服设施点/SHP/上海市_度假疗养场所.shp"},"geometry":{"type":"Point","coordinates":[121.429248,31.24603]}},{"id":"615","type":"Feature","properties":{"id":"B0FFHPWGD4","name":"申养镇坪路望年荟养老院","address":"中山北路2020号","type":"体育休闲服务;度假疗养场所;疗养院","typecode":"080402","pcode":310000,"pname":"上海市","citycode":21,"cityname":"上海市","adcode":310107,"adname":"普陀区","business_a":"光新","location":"121.431636,31.248243","tel":"021-67337337","bigType":"体育休闲服务","midType":"度假疗养场所","smallType":"疗养院","gcj_lng":121.431636,"gcj_lat":31.248243,"wgs84_loc":"121.427006,31.250089","wgs84Lng":"121.427006","wgs84Lat":"31.250089","__source_file__":"13-常用公服设施点/SHP/上海市_度假疗养场所.shp"},"geometry":{"type":"Point","coordinates":[121.427006,31.250089]}},{"id":"34","type":"Feature","properties":{"id":"B0G0CDVIUX","name":"申养·望年荟","address":"凯旋北路与镇坪路交叉口东北约100米","type":"体育休闲服务;度假疗养场所;疗养院","typecode":"080402","pcode":310000,"pname":"上海市","citycode":21,"cityname":"上海市","adcode":310107,"adname":"普陀区","business_a":"光新","location":"121.431704,31.248286","tel":"[]","bigType":"体育休闲服务","midType":"度假疗养场所","smallType":"疗养院","gcj_lng":121.431704,"gcj_lat":31.248286,"wgs84_loc":"121.427074,31.250132","wgs84Lng":"121.427074","wgs84Lat":"31.250132","__source_file__":"13-常用公服设施点/SHP/上海市_度假疗养场所.shp"},"geometry":{"type":"Point","coordinates":[121.427074,31.250132]}},{"id":"207","type":"Feature","properties":{"id":"B00156NZF1","name":"上海普陀区石岚敬老院","address":"岚皋路200弄32号","type":"体育休闲服务;度假疗养场所;疗养院","typecode":"080402","pcode":310000,"pname":"上海市","citycode":21,"cityname":"上海市","adcode":310107,"adname":"普陀区","business_a":"光新","location":"121.426812,31.249281","tel":"021-62047435","bigType":"体育休闲服务","midType":"度假疗养场所","smallType":"疗养院","gcj_lng":121.426812,"gcj_lat":31.249281,"wgs84_loc":"121.422175,31.251121","wgs84Lng":"121.422175","wgs84Lat":"31.251121","__source_file__":"13-常用公服设施点/SHP/上海市_度假疗养场所.shp"},"geometry":{"type":"Point","coordinates":[121.422175,31.251121]}},{"id":"215","type":"Feature","properties":{"id":"B0FFLFG8EH","name":"中山北路养老院","address":"中山北路与石泉东路交叉口西南约160米","type":"体育休闲服务;度假疗养场所;疗养院","typecode":"080402","pcode":310000,"pname":"上海市","citycode":21,"cityname":"上海市","adcode":310107,"adname":"普陀区","business_a":"光新","location":"121.435638,31.252635","tel":"[]","bigType":"体育休闲服务","midType":"度假疗养场所","smallType":"疗养院","gcj_lng":121.435638,"gcj_lat":31.252635,"wgs84_loc":"121.431014,31.254485","wgs84Lng":"121.431014","wgs84Lat":"31.254485","__source_file__":"13-常用公服设施点/SHP/上海市_度假疗养场所.shp"},"geometry":{"type":"Point","coordinates":[121.431014,31.254485]}},{"id":"598","type":"Feature","properties":{"id":"B0FFF4MQX5","name":"上海泾惠敬老院","address":"交通路2107弄27号","type":"体育休闲服务;度假疗养场所;疗养院","typecode":"080402","pcode":310000,"pname":"上海市","citycode":21,"cityname":"上海市","adcode":310107,"adname":"普陀区","business_a":"大宁路","location":"121.435037,31.257904","tel":"021-56947530","bigType":"体育休闲服务","midType":"度假疗养场所","smallType":"疗养院","gcj_lng":121.435037,"gcj_lat":31.257904,"wgs84_loc":"121.430412,31.259751","wgs84Lng":"121.430412","wgs84Lat":"31.259751","__source_file__":"13-常用公服设施点/SHP/上海市_度假疗养场所.shp"},"geometry":{"type":"Point","coordinates":[121.430412,31.259751]}},{"id":"600","type":"Feature","properties":{"id":"B00156EJIQ","name":"宜福敬老院","address":"宜川路78号宜川六村","type":"体育休闲服务;度假疗养场所;疗养院","typecode":"080402","pcode":310000,"pname":"上海市","citycode":21,"cityname":"上海市","adcode":310107,"adname":"普陀区","business_a":"大宁路","location":"121.437200,31.258140","tel":"021-56947233","bigType":"体育休闲服务","midType":"度假疗养场所","smallType":"疗养院","gcj_lng":121.4372,"gcj_lat":31.25814,"wgs84_loc":"121.432579,31.25999","wgs84Lng":"121.432579","wgs84Lat":"31.25999","__source_file__":"13-常用公服设施点/SHP/上海市_度假疗养场所.shp"},"geometry":{"type":"Point","coordinates":[121.432579,31.25999]}},{"id":"28","type":"Feature","properties":{"id":"B0G2JZIHYD","name":"红枫会养老院","address":"泾惠路30号","type":"体育休闲服务;度假疗养场所;疗养院","typecode":"080402","pcode":310000,"pname":"上海市","citycode":21,"cityname":"上海市","adcode":310107,"adname":"普陀区","business_a":"大宁路","location":"121.435251,31.259159","tel":"021-66073872","bigType":"体育休闲服务","midType":"度假疗养场所","smallType":"疗养院","gcj_lng":121.435251,"gcj_lat":31.259159,"wgs84_loc":"121.430626,31.261005","wgs84Lng":"121.430626","wgs84Lat":"31.261005","__source_file__":"13-常用公服设施点/SHP/上海市_度假疗养场所.shp"},"geometry":{"type":"Point","coordinates":[121.430626,31.261005]}},{"id":"997","type":"Feature","properties":{"id":"B0KBLA1ZCT","name":"日月星养老院(黄浦区)","address":"广东路与福建中路交叉口东北40米","type":"体育休闲服务;度假疗养场所;疗养院","typecode":"080402","pcode":310000,"pname":"上海市","citycode":21,"cityname":"上海市","adcode":310101,"adname":"黄浦区","business_a":"北京路","location":"121.482869,31.233096","tel":"15921373774","bigType":"体育休闲服务","midType":"度假疗养场所","smallType":"疗养院","gcj_lng":121.482869,"gcj_lat":31.233096,"wgs84_loc":"121.478377,31.235063","wgs84Lng":"121.478377","wgs84Lat":"31.235063","__source_file__":"13-常用公服设施点/SHP/上海市_度假疗养场所.shp"},"geometry":{"type":"Point","coordinates":[121.478377,31.235063]}},{"id":"405","type":"Feature","properties":{"id":"B00152C459","name":"上海市黄浦区老年公寓(长沙路)","address":"长沙路149弄16号","type":"体育休闲服务;度假疗养场所;疗养院","typecode":"080402","pcode":310000,"pname":"上海市","citycode":21,"cityname":"上海市","adcode":310101,"adname":"黄浦区","business_a":"北京东路","location":"121.471362,31.237555","tel":"[]","bigType":"体育休闲服务","midType":"度假疗养场所","smallType":"疗养院","gcj_lng":121.471362,"gcj_lat":31.237555,"wgs84_loc":"121.466831,31.239488","wgs84Lng":"121.466831","wgs84Lat":"31.239488","__source_file__":"13-常用公服设施点/SHP/上海市_度假疗养场所.shp"},"geometry":{"type":"Point","coordinates":[121.466831,31.239488]}},{"id":"424","type":"Feature","properties":{"id":"B0FFLIQEVC","name":"虹德养老院","address":"上海市虹口区衡水路367号","type":"体育休闲服务;度假疗养场所;疗养院","typecode":"080402","pcode":310000,"pname":"上海市","citycode":21,"cityname":"上海市","adcode":310109,"adname":"虹口区","business_a":"宝山路","location":"121.481841,31.251798","tel":"021-63063650","bigType":"体育休闲服务","midType":"度假疗养场所","smallType":"疗养院","gcj_lng":121.481841,"gcj_lat":31.251798,"wgs84_loc":"121.477343,31.253753","wgs84Lng":"121.477343","wgs84Lat":"31.253753","__source_file__":"13-常用公服设施点/SHP/上海市_度假疗养场所.shp"},"geometry":{"type":"Point","coordinates":[121.477343,31.253753]}},{"id":"441","type":"Feature","properties":{"id":"B0I6TSO3H6","name":"叶老年公寓","address":"[]","type":"体育休闲服务;度假疗养场所;疗养院","typecode":"080402","pcode":310000,"pname":"上海市","citycode":21,"cityname":"上海市","adcode":310109,"adname":"虹口区","business_a":"[]","location":"121.488493,31.261170","tel":"[]","bigType":"体育休闲服务","midType":"度假疗养场所","smallType":"疗养院","gcj_lng":121.488493,"gcj_lat":31.26117,"wgs84_loc":"121.484018,31.263141","wgs84Lng":"121.484018","wgs84Lat":"31.263141","__source_file__":"13-常用公服设施点/SHP/上海市_度假疗养场所.shp"},"geometry":{"type":"Point","coordinates":[121.484018,31.263141]}},{"id":"409","type":"Feature","properties":{"id":"B0FFFFWVY1","name":"虹叶老年公寓","address":"溧阳路1084弄28号","type":"体育休闲服务;度假疗养场所;疗养院","typecode":"080402","pcode":310000,"pname":"上海市","citycode":21,"cityname":"上海市","adcode":310109,"adname":"虹口区","business_a":"宝山路","location":"121.486466,31.261828","tel":"021-56719977","bigType":"体育休闲服务","midType":"度假疗养场所","smallType":"疗养院","gcj_lng":121.486466,"gcj_lat":31.261828,"wgs84_loc":"121.481984,31.263792","wgs84Lng":"121.481984","wgs84Lat":"31.263792","__source_file__":"13-常用公服设施点/SHP/上海市_度假疗养场所.shp"},"geometry":{"type":"Point","coordinates":[121.481984,31.263792]}},{"id":"439","type":"Feature","properties":{"id":"B0FFJRRRJC","name":"吉祥养老院","address":"[]","type":"体育休闲服务;度假疗养场所;疗养院","typecode":"080402","pcode":310000,"pname":"上海市","citycode":21,"cityname":"上海市","adcode":310109,"adname":"虹口区","business_a":"曲阳","location":"121.487592,31.265638","tel":"[]","bigType":"体育休闲服务","midType":"度假疗养场所","smallType":"疗养院","gcj_lng":121.487592,"gcj_lat":31.265638,"wgs84_loc":"121.483113,31.267604","wgs84Lng":"121.483113","wgs84Lat":"31.267604","__source_file__":"13-常用公服设施点/SHP/上海市_度假疗养场所.shp"},"geometry":{"type":"Point","coordinates":[121.483113,31.267604]}},{"id":"427","type":"Feature","properties":{"id":"B001522403","name":"欧祥养老院","address":"欧阳路175号2层","type":"体育休闲服务;度假疗养场所;疗养院","typecode":"080402","pcode":310000,"pname":"上海市","citycode":21,"cityname":"上海市","adcode":310109,"adname":"虹口区","business_a":"曲阳","location":"121.488595,31.267032","tel":"021-56668849;021-65405109","bigType":"体育休闲服务","midType":"度假疗养场所","smallType":"疗养院","gcj_lng":121.488595,"gcj_lat":31.267032,"wgs84_loc":"121.48412,31.269","wgs84Lng":"121.48412","wgs84Lat":"31.269","__source_file__":"13-常用公服设施点/SHP/上海市_度假疗养场所.shp"},"geometry":{"type":"Point","coordinates":[121.48412,31.269]}},{"id":"437","type":"Feature","properties":{"id":"B00156O1R9","name":"祥云敬老院","address":"四达路109号","type":"体育休闲服务;度假疗养场所;疗养院","typecode":"080402","pcode":310000,"pname":"上海市","citycode":21,"cityname":"上海市","adcode":310109,"adname":"虹口区","business_a":"曲阳","location":"121.488828,31.267127","tel":"[]","bigType":"体育休闲服务","midType":"度假疗养场所","smallType":"疗养院","gcj_lng":121.488828,"gcj_lat":31.267127,"wgs84_loc":"121.484354,31.269096","wgs84Lng":"121.484354","wgs84Lat":"31.269096","__source_file__":"13-常用公服设施点/SHP/上海市_度假疗养场所.shp"},"geometry":{"type":"Point","coordinates":[121.484354,31.269096]}},{"id":"429","type":"Feature","properties":{"id":"B0FFI76BKV","name":"长寿家园养护院","address":"山阴路277号","type":"体育休闲服务;度假疗养场所;疗养院","typecode":"080402","pcode":310000,"pname":"上海市","citycode":21,"cityname":"上海市","adcode":310109,"adname":"虹口区","business_a":"曲阳","location":"121.485168,31.268490","tel":"[]","bigType":"体育休闲服务","midType":"度假疗养场所","smallType":"疗养院","gcj_lng":121.485168,"gcj_lat":31.26849,"wgs84_loc":"121.480681,31.270448","wgs84Lng":"121.480681","wgs84Lat":"31.270448","__source_file__":"13-常用公服设施点/SHP/上海市_度假疗养场所.shp"},"geometry":{"type":"Point","coordinates":[121.480681,31.270448]}},{"id":"430","type":"Feature","properties":{"id":"B0FFFXI4DV","name":"祥德敬老院","address":"祥德路302号","type":"体育休闲服务;度假疗养场所;疗养院","typecode":"080402","pcode":310000,"pname":"上海市","citycode":21,"cityname":"上海市","adcode":310109,"adname":"虹口区","business_a":"曲阳","location":"121.489224,31.271169","tel":"021-65556350","bigType":"体育休闲服务","midType":"度假疗养场所","smallType":"疗养院","gcj_lng":121.489224,"gcj_lat":31.271169,"wgs84_loc":"121.484751,31.273138","wgs84Lng":"121.484751","wgs84Lat":"31.273138","__source_file__":"13-常用公服设施点/SHP/上海市_度假疗养场所.shp"},"geometry":{"type":"Point","coordinates":[121.484751,31.273138]}},{"id":"183","type":"Feature","properties":{"id":"B00155MPZ4","name":"上海天目西社区敬老院","address":"沪太路453弄84号(毛家弄)","type":"体育休闲服务;度假疗养场所;疗养院","typecode":"080402","pcode":310000,"pname":"上海市","citycode":21,"cityname":"上海市","adcode":310106,"adname":"静安区","business_a":"和田","location":"121.452548,31.257008","tel":"[]","bigType":"体育休闲服务","midType":"度假疗养场所","smallType":"疗养院","gcj_lng":121.452548,"gcj_lat":31.257008,"wgs84_loc":"121.447961,31.258886","wgs84Lng":"121.447961","wgs84Lat":"31.258886","__source_file__":"13-常用公服设施点/SHP/上海市_度假疗养场所.shp"},"geometry":{"type":"Point","coordinates":[121.447961,31.258886]}},{"id":"176","type":"Feature","properties":{"id":"B0G2M4U7KU","name":"上海静安区和养天目西养护院","address":"沪太路453弄84号(毛家弄内)","type":"体育休闲服务;度假疗养场所;疗养院","typecode":"080402","pcode":310000,"pname":"上海市","citycode":21,"cityname":"上海市","adcode":310106,"adname":"静安区","business_a":"和田","location":"121.452800,31.257165","tel":"[]","bigType":"体育休闲服务","midType":"度假疗养场所","smallType":"疗养院","gcj_lng":121.4528,"gcj_lat":31.257165,"wgs84_loc":"121.448213,31.259044","wgs84Lng":"121.448213","wgs84Lat":"31.259044","__source_file__":"13-常用公服设施点/SHP/上海市_度假疗养场所.shp"},"geometry":{"type":"Point","coordinates":[121.448213,31.259044]}},{"id":"1004","type":"Feature","properties":{"id":"B0HRPY56X8","name":"芷江西路社区长者照护之家","address":"芷江西路与大统路交叉口西180米","type":"体育休闲服务;度假疗养场所;疗养院","typecode":"080402","pcode":310000,"pname":"上海市","citycode":21,"cityname":"上海市","adcode":310106,"adname":"静安区","business_a":"不夜城","location":"121.457696,31.257594","tel":"[]","bigType":"体育休闲服务","midType":"度假疗养场所","smallType":"疗养院","gcj_lng":121.457696,"gcj_lat":31.257594,"wgs84_loc":"121.453122,31.259484","wgs84Lng":"121.453122","wgs84Lat":"31.259484","__source_file__":"13-常用公服设施点/SHP/上海市_度假疗养场所.shp"},"geometry":{"type":"Point","coordinates":[121.453122,31.259484]}},{"id":"210","type":"Feature","properties":{"id":"B0FFG4E5DA","name":"上海普陀区宜川泰山敬老院","address":"泰山三村52号","type":"体育休闲服务;度假疗养场所;疗养院","typecode":"080402","pcode":310000,"pname":"上海市","citycode":21,"cityname":"上海市","adcode":310107,"adname":"普陀区","business_a":"大宁路","location":"121.447929,31.258895","tel":"021-56095362","bigType":"体育休闲服务","midType":"度假疗养场所","smallType":"疗养院","gcj_lng":121.447929,"gcj_lat":31.258895,"wgs84_loc":"121.44333,31.260763","wgs84Lng":"121.44333","wgs84Lat":"31.260763","__source_file__":"13-常用公服设施点/SHP/上海市_度假疗养场所.shp"},"geometry":{"type":"Point","coordinates":[121.44333,31.260763]}},{"id":"180","type":"Feature","properties":{"id":"B00155FAYI","name":"上海静安之星养老院","address":"芷江中路芷江中路413弄小区","type":"体育休闲服务;度假疗养场所;疗养院","typecode":"080402","pcode":310000,"pname":"上海市","citycode":21,"cityname":"上海市","adcode":310106,"adname":"静安区","business_a":"和田","location":"121.470232,31.259754","tel":"021-56729778","bigType":"体育休闲服务","midType":"度假疗养场所","smallType":"疗养院","gcj_lng":121.470232,"gcj_lat":31.259754,"wgs84_loc":"121.465695,31.261674","wgs84Lng":"121.465695","wgs84Lat":"31.261674","__source_file__":"13-常用公服设施点/SHP/上海市_度假疗养场所.shp"},"geometry":{"type":"Point","coordinates":[121.465695,31.261674]}},{"id":"26","type":"Feature","properties":{"id":"B0FFGHEBEO","name":"上海市静安区宝山路街道敬老院","address":"止园路400弄7号甲","type":"体育休闲服务;度假疗养场所;疗养院","typecode":"080402","pcode":310000,"pname":"上海市","citycode":21,"cityname":"上海市","adcode":310106,"adname":"静安区","business_a":"宝山路","location":"121.468850,31.259790","tel":"[]","bigType":"体育休闲服务","midType":"度假疗养场所","smallType":"疗养院","gcj_lng":121.46885,"gcj_lat":31.25979,"wgs84_loc":"121.464309,31.261706","wgs84Lng":"121.464309","wgs84Lat":"31.261706","__source_file__":"13-常用公服设施点/SHP/上海市_度假疗养场所.shp"},"geometry":{"type":"Point","coordinates":[121.464309,31.261706]}},{"id":"200","type":"Feature","properties":{"id":"B0FFGYNWAP","name":"东风芷江养老院","address":"青云路755号","type":"体育休闲服务;度假疗养场所;疗养院","typecode":"080402","pcode":310000,"pname":"上海市","citycode":21,"cityname":"上海市","adcode":310106,"adname":"静安区","business_a":"和田","location":"121.465386,31.260624","tel":"021-56987689","bigType":"体育休闲服务","midType":"度假疗养场所","smallType":"疗养院","gcj_lng":121.465386,"gcj_lat":31.260624,"wgs84_loc":"121.460834,31.262531","wgs84Lng":"121.460834","wgs84Lat":"31.262531","__source_file__":"13-常用公服设施点/SHP/上海市_度假疗养场所.shp"},"geometry":{"type":"Point","coordinates":[121.460834,31.262531]}},{"id":"179","type":"Feature","properties":{"id":"B0H2CUTPKG","name":"上海彭江护理院","address":"中山北路588号","type":"体育休闲服务;度假疗养场所;疗养院","typecode":"080402","pcode":310000,"pname":"上海市","citycode":21,"cityname":"上海市","adcode":310106,"adname":"静安区","business_a":"和田","location":"121.463763,31.261388","tel":"[]","bigType":"体育休闲服务","midType":"度假疗养场所","smallType":"疗养院","gcj_lng":121.463763,"gcj_lat":31.261388,"wgs84_loc":"121.459206,31.26329","wgs84Lng":"121.459206","wgs84Lat":"31.26329","__source_file__":"13-常用公服设施点/SHP/上海市_度假疗养场所.shp"},"geometry":{"type":"Point","coordinates":[121.459206,31.26329]}},{"id":"611","type":"Feature","properties":{"id":"B00156EKJH","name":"颐和爱心敬老院","address":"延长西路172号","type":"体育休闲服务;度假疗养场所;疗养院","typecode":"080402","pcode":310000,"pname":"上海市","citycode":21,"cityname":"上海市","adcode":310107,"adname":"普陀区","business_a":"大宁路","location":"121.440093,31.263122","tel":"021-36397118","bigType":"体育休闲服务","midType":"度假疗养场所","smallType":"疗养院","gcj_lng":121.440093,"gcj_lat":31.263122,"wgs84_loc":"121.435477,31.264974","wgs84Lng":"121.435477","wgs84Lat":"31.264974","__source_file__":"13-常用公服设施点/SHP/上海市_度假疗养场所.shp"},"geometry":{"type":"Point","coordinates":[121.435477,31.264974]}},{"id":"192","type":"Feature","properties":{"id":"B0FFJ2FOKM","name":"益福养老院","address":"西藏北路1375号","type":"体育休闲服务;度假疗养场所;疗养院","typecode":"080402","pcode":310000,"pname":"上海市","citycode":21,"cityname":"上海市","adcode":310106,"adname":"静安区","business_a":"和田","location":"121.464455,31.265211","tel":"[]","bigType":"体育休闲服务","midType":"度假疗养场所","smallType":"疗养院","gcj_lng":121.464455,"gcj_lat":31.265211,"wgs84_loc":"121.4599,31.267114","wgs84Lng":"121.4599","wgs84Lat":"31.267114","__source_file__":"13-常用公服设施点/SHP/上海市_度假疗养场所.shp"},"geometry":{"type":"Point","coordinates":[121.4599,31.267114]}},{"id":"209","type":"Feature","properties":{"id":"B0FFF00L8P","name":"上海普陀区宜川第二敬老院","address":"宜川路宜川二村120号","type":"体育休闲服务;度假疗养场所;疗养院","typecode":"080402","pcode":310000,"pname":"上海市","citycode":21,"cityname":"上海市","adcode":310107,"adname":"普陀区","business_a":"大宁路","location":"121.437882,31.260329","tel":"021-56615274","bigType":"体育休闲服务","midType":"度假疗养场所","smallType":"疗养院","gcj_lng":121.437882,"gcj_lat":31.260329,"wgs84_loc":"121.433262,31.262179","wgs84Lng":"121.433262","wgs84Lat":"31.262179","__source_file__":"13-常用公服设施点/SHP/上海市_度假疗养场所.shp"},"geometry":{"type":"Point","coordinates":[121.433262,31.262179]}},{"id":"198","type":"Feature","properties":{"id":"B00156D9N9","name":"颐和养老院(普善路)","address":"普善路858弄2号","type":"体育休闲服务;度假疗养场所;疗养院","typecode":"080402","pcode":310000,"pname":"上海市","citycode":21,"cityname":"上海市","adcode":310106,"adname":"静安区","business_a":"和田","location":"121.450490,31.265688","tel":"021-55159758","bigType":"体育休闲服务","midType":"度假疗养场所","smallType":"疗养院","gcj_lng":121.45049,"gcj_lat":31.265688,"wgs84_loc":"121.445897,31.267558","wgs84Lng":"121.445897","wgs84Lat":"31.267558","__source_file__":"13-常用公服设施点/SHP/上海市_度假疗养场所.shp"},"geometry":{"type":"Point","coordinates":[121.445897,31.267558]}},{"id":"36","type":"Feature","properties":{"id":"B001571KBG","name":"合阳老年公寓","address":"延长西路40弄42号","type":"体育休闲服务;度假疗养场所;疗养院","typecode":"080402","pcode":310000,"pname":"上海市","citycode":21,"cityname":"上海市","adcode":310107,"adname":"普陀区","business_a":"大宁路","location":"121.441580,31.266330","tel":"021-56376038","bigType":"体育休闲服务","midType":"度假疗养场所","smallType":"疗养院","gcj_lng":121.44158,"gcj_lat":31.26633,"wgs84_loc":"121.436967,31.268183","wgs84Lng":"121.436967","wgs84Lat":"31.268183","__source_file__":"13-常用公服设施点/SHP/上海市_度假疗养场所.shp"},"geometry":{"type":"Point","coordinates":[121.436967,31.268183]}},{"id":"880","type":"Feature","properties":{"id":"B00157HRVO","name":"杏圆养老共和新路街道敬老院","address":"柳营路319弄45甲","type":"体育休闲服务;度假疗养场所;疗养院","typecode":"080402","pcode":310000,"pname":"上海市","citycode":21,"cityname":"上海市","adcode":310106,"adname":"静安区","business_a":"和田","location":"121.462048,31.268563","tel":"021-56422960;021-56902240","bigType":"体育休闲服务","midType":"度假疗养场所","smallType":"疗养院","gcj_lng":121.462048,"gcj_lat":31.268563,"wgs84_loc":"121.457486,31.270458","wgs84Lng":"121.457486","wgs84Lat":"31.270458","__source_file__":"13-常用公服设施点/SHP/上海市_度假疗养场所.shp"},"geometry":{"type":"Point","coordinates":[121.457486,31.270458]}},{"id":"1059","type":"Feature","properties":{"id":"B0K6CHXBRG","name":"长者照护之家","address":"北宝兴路157号","type":"体育休闲服务;度假疗养场所;疗养院","typecode":"080402","pcode":310000,"pname":"上海市","citycode":21,"cityname":"上海市","adcode":310109,"adname":"虹口区","business_a":"和田","location":"121.465986,31.273306","tel":"[]","bigType":"体育休闲服务","midType":"度假疗养场所","smallType":"疗养院","gcj_lng":121.465986,"gcj_lat":31.273306,"wgs84_loc":"121.461435,31.275209","wgs84Lng":"121.461435","wgs84Lat":"31.275209","__source_file__":"13-常用公服设施点/SHP/上海市_度假疗养场所.shp"},"geometry":{"type":"Point","coordinates":[121.461435,31.275209]}},{"id":"1007","type":"Feature","properties":{"id":"B0K3F67EYB","name":"九洲锦静安康养社区","address":"平型关路与民晏路交叉口西北160米","type":"体育休闲服务;度假疗养场所;疗养院","typecode":"080402","pcode":310000,"pname":"上海市","citycode":21,"cityname":"上海市","adcode":310106,"adname":"静安区","business_a":"大宁路","location":"121.460525,31.275875","tel":"[]","bigType":"体育休闲服务","midType":"度假疗养场所","smallType":"疗养院","gcj_lng":121.460525,"gcj_lat":31.275875,"wgs84_loc":"121.455958,31.277763","wgs84Lng":"121.455958","wgs84Lat":"31.277763","__source_file__":"13-常用公服设施点/SHP/上海市_度假疗养场所.shp"},"geometry":{"type":"Point","coordinates":[121.455958,31.277763]}},{"id":"410","type":"Feature","properties":{"id":"B0H2TZN2PD","name":"上海虹口长寿家园南苑养护院","address":"广中路街道水电路54号","type":"体育休闲服务;度假疗养场所;疗养院","typecode":"080402","pcode":310000,"pname":"上海市","citycode":21,"cityname":"上海市","adcode":310109,"adname":"虹口区","business_a":"和田","location":"121.471159,31.272997","tel":"[]","bigType":"体育休闲服务","midType":"度假疗养场所","smallType":"疗养院","gcj_lng":121.471159,"gcj_lat":31.272997,"wgs84_loc":"121.466624,31.274914","wgs84Lng":"121.466624","wgs84Lat":"31.274914","__source_file__":"13-常用公服设施点/SHP/上海市_度假疗养场所.shp"},"geometry":{"type":"Point","coordinates":[121.466624,31.274914]}},{"id":"428","type":"Feature","properties":{"id":"B00155MSEW","name":"民建大铭敬老院","address":"广中支路24弄13号","type":"体育休闲服务;度假疗养场所;疗养院","typecode":"080402","pcode":310000,"pname":"上海市","citycode":21,"cityname":"上海市","adcode":310109,"adname":"虹口区","business_a":"江湾","location":"121.475504,31.274203","tel":"021-36395190;021-56904974","bigType":"体育休闲服务","midType":"度假疗养场所","smallType":"疗养院","gcj_lng":121.475504,"gcj_lat":31.274203,"wgs84_loc":"121.470983,31.276131","wgs84Lng":"121.470983","wgs84Lat":"31.276131","__source_file__":"13-常用公服设施点/SHP/上海市_度假疗养场所.shp"},"geometry":{"type":"Point","coordinates":[121.470983,31.276131]}}],"name":"上海市_度假疗养场所","crs":{"type":"name","properties":{"name":"urn:ogc:def:crs:OGC:1.3:CRS84"}}}