{"type":"FeatureCollection","features":[{"id":"324","type":"Feature","properties":{"id":"B0K39LCBLB","name":"摩擦LOVETOYS","address":"石门一路与威海路交叉口南100米","type":"摩托车服务;摩托车服务相关;摩托车服务相关","typecode":"040000","pcode":310000,"pname":"上海市","citycode":21,"cityname":"上海市","adcode":310106,"adname":"静安区","business_a":"淮海路","location":"121.463266,31.226134","tel":"[]","bigType":"摩托车服务","midType":"摩托车服务相关","smallType":"摩托车服务相关","gcj_lng":121.463266,"gcj_lat":31.226134,"wgs84_loc":"121.458711,31.228051","wgs84Lng":"121.458711","wgs84Lat":"31.228051","__source_file__":"13-常用公服设施点/SHP/上海市_摩托车服务相关.shp"},"geometry":{"type":"Point","coordinates":[121.458711,31.228051]}},{"id":"293","type":"Feature","properties":{"id":"B0LBLLIDIT","name":"AsahiHuiliPutuoDistriCT","address":"常德路与新会路交叉口北80米(长寿路地铁站出入口旁)","type":"摩托车服务;摩托车服务相关;摩托车服务相关","typecode":"040000","pcode":310000,"pname":"上海市","citycode":21,"cityname":"上海市","adcode":310107,"adname":"普陀区","business_a":"长寿路","location":"121.438775,31.240075","tel":"[]","bigType":"摩托车服务","midType":"摩托车服务相关","smallType":"摩托车服务相关","gcj_lng":121.438775,"gcj_lat":31.240075,"wgs84_loc":"121.434158,31.241935","wgs84Lng":"121.434158","wgs84Lat":"31.241935","__source_file__":"13-常用公服设施点/SHP/上海市_摩托车服务相关.shp"},"geometry":{"type":"Point","coordinates":[121.434158,31.241935]}},{"id":"292","type":"Feature","properties":{"id":"B0LBUUMVBK","name":"香港维修佬","address":"民立路与秣陵路交叉口南20米(上海火车站地铁站5号口旁)","type":"摩托车服务;摩托车服务相关;摩托车服务相关","typecode":"040000","pcode":310000,"pname":"上海市","citycode":21,"cityname":"上海市","adcode":310106,"adname":"静安区","business_a":"不夜城","location":"121.455865,31.246737","tel":"[]","bigType":"摩托车服务","midType":"摩托车服务相关","smallType":"摩托车服务相关","gcj_lng":121.455865,"gcj_lat":31.246737,"wgs84_loc":"121.451287,31.248627","wgs84Lng":"121.451287","wgs84Lat":"31.248627","__source_file__":"13-常用公服设施点/SHP/上海市_摩托车服务相关.shp"},"geometry":{"type":"Point","coordinates":[121.451287,31.248627]}},{"id":"14","type":"Feature","properties":{"id":"B0FFKSVVAP","name":"K1摩托租赁","address":"共和新路359号","type":"摩托车服务;摩托车服务相关;摩托车服务相关","typecode":"040000","pcode":310000,"pname":"上海市","citycode":21,"cityname":"上海市","adcode":310106,"adname":"静安区","business_a":"宝山路","location":"121.463700,31.248847","tel":"021-65727666","bigType":"摩托车服务","midType":"摩托车服务相关","smallType":"摩托车服务相关","gcj_lng":121.4637,"gcj_lat":31.248847,"wgs84_loc":"121.459144,31.250755","wgs84Lng":"121.459144","wgs84Lat":"31.250755","__source_file__":"13-常用公服设施点/SHP/上海市_摩托车服务相关.shp"},"geometry":{"type":"Point","coordinates":[121.459144,31.250755]}},{"id":"249","type":"Feature","properties":{"id":"B0FFGFJ0M0","name":"上海卓德实业有限公司","address":"共和新路1162号易捷便利店内","type":"摩托车服务;摩托车服务相关;摩托车服务相关","typecode":"040000","pcode":310000,"pname":"上海市","citycode":21,"cityname":"上海市","adcode":310106,"adname":"静安区","business_a":"和田","location":"121.460274,31.261706","tel":"[]","bigType":"摩托车服务","midType":"摩托车服务相关","smallType":"摩托车服务相关","gcj_lng":121.460274,"gcj_lat":31.261706,"wgs84_loc":"121.455707,31.2636","wgs84Lng":"121.455707","wgs84Lat":"31.2636","__source_file__":"13-常用公服设施点/SHP/上海市_摩托车服务相关.shp"},"geometry":{"type":"Point","coordinates":[121.455707,31.2636]}},{"id":"2","type":"Feature","properties":{"id":"B0FFLE1NAT","name":"卿馨摩配","address":"人民路中国人寿大厦东侧","type":"摩托车服务;摩托车服务相关;摩托车服务相关","typecode":"040000","pcode":310000,"pname":"上海市","citycode":21,"cityname":"上海市","adcode":310101,"adname":"黄浦区","business_a":"淮海路","location":"121.483205,31.226186","tel":"[]","bigType":"摩托车服务","midType":"摩托车服务相关","smallType":"摩托车服务相关","gcj_lng":121.483205,"gcj_lat":31.226186,"wgs84_loc":"121.478714,31.228157","wgs84Lng":"121.478714","wgs84Lat":"31.228157","__source_file__":"13-常用公服设施点/SHP/上海市_摩托车服务相关.shp"},"geometry":{"type":"Point","coordinates":[121.478714,31.228157]}},{"id":"288","type":"Feature","properties":{"id":"B0KKUHGRUY","name":"摩多摩多","address":"宁波路与云南北路交叉口南20米","type":"摩托车服务;摩托车服务相关;摩托车服务相关","typecode":"040000","pcode":310000,"pname":"上海市","citycode":21,"cityname":"上海市","adcode":310101,"adname":"黄浦区","business_a":"北京路","location":"121.475326,31.236311","tel":"[]","bigType":"摩托车服务","midType":"摩托车服务相关","smallType":"摩托车服务相关","gcj_lng":121.475326,"gcj_lat":31.236311,"wgs84_loc":"121.470808,31.238255","wgs84Lng":"121.470808","wgs84Lat":"31.238255","__source_file__":"13-常用公服设施点/SHP/上海市_摩托车服务相关.shp"},"geometry":{"type":"Point","coordinates":[121.470808,31.238255]}},{"id":"57","type":"Feature","properties":{"id":"B0FFLBV42I","name":"YAMAHA雅马哈发电机服务中心","address":"西安路93号","type":"摩托车服务;摩托车服务相关;摩托车服务相关","typecode":"040000","pcode":310000,"pname":"上海市","citycode":21,"cityname":"上海市","adcode":310109,"adname":"虹口区","business_a":"提篮桥","location":"121.494006,31.249793","tel":"18809888190","bigType":"摩托车服务","midType":"摩托车服务相关","smallType":"摩托车服务相关","gcj_lng":121.494006,"gcj_lat":31.249793,"wgs84_loc":"121.489551,31.251785","wgs84Lng":"121.489551","wgs84Lat":"31.251785","__source_file__":"13-常用公服设施点/SHP/上海市_摩托车服务相关.shp"},"geometry":{"type":"Point","coordinates":[121.489551,31.251785]}},{"id":"54","type":"Feature","properties":{"id":"B0FFF9ZNBA","name":"雅马哈车友会","address":"宝山路地铁站1号口步行460米","type":"摩托车服务;摩托车服务相关;摩托车服务相关","typecode":"040000","pcode":310000,"pname":"上海市","citycode":21,"cityname":"上海市","adcode":310106,"adname":"静安区","business_a":"宝山路","location":"121.473740,31.255080","tel":"[]","bigType":"摩托车服务","midType":"摩托车服务相关","smallType":"摩托车服务相关","gcj_lng":121.47374,"gcj_lat":31.25508,"wgs84_loc":"121.469215,31.257011","wgs84Lng":"121.469215","wgs84Lat":"31.257011","__source_file__":"13-常用公服设施点/SHP/上海市_摩托车服务相关.shp"},"geometry":{"type":"Point","coordinates":[121.469215,31.257011]}},{"id":"325","type":"Feature","properties":{"id":"B0KBLKYBLT","name":"黑骑士部落","address":"和颐苑西南2门西北50米","type":"摩托车服务;摩托车服务相关;摩托车服务相关","typecode":"040000","pcode":310000,"pname":"上海市","citycode":21,"cityname":"上海市","adcode":310106,"adname":"静安区","business_a":"和田","location":"121.471648,31.262021","tel":"[]","bigType":"摩托车服务","midType":"摩托车服务相关","smallType":"摩托车服务相关","gcj_lng":121.471648,"gcj_lat":31.262021,"wgs84_loc":"121.467116,31.263944","wgs84Lng":"121.467116","wgs84Lat":"31.263944","__source_file__":"13-常用公服设施点/SHP/上海市_摩托车服务相关.shp"},"geometry":{"type":"Point","coordinates":[121.467116,31.263944]}},{"id":"56","type":"Feature","properties":{"id":"B0FFHGFLB7","name":"新大洲依莱达特约维修店","address":"宝安路溧阳华府","type":"摩托车服务;摩托车服务相关;摩托车服务相关","typecode":"040000","pcode":310000,"pname":"上海市","citycode":21,"cityname":"上海市","adcode":310109,"adname":"虹口区","business_a":"[]","location":"121.488278,31.262839","tel":"[]","bigType":"摩托车服务","midType":"摩托车服务相关","smallType":"摩托车服务相关","gcj_lng":121.488278,"gcj_lat":31.262839,"wgs84_loc":"121.483802,31.264808","wgs84Lng":"121.483802","wgs84Lat":"31.264808","__source_file__":"13-常用公服设施点/SHP/上海市_摩托车服务相关.shp"},"geometry":{"type":"Point","coordinates":[121.483802,31.264808]}}],"name":"上海市_摩托车服务相关","crs":{"type":"name","properties":{"name":"urn:ogc:def:crs:OGC:1.3:CRS84"}}}