{"type":"FeatureCollection","features":[{"id":"27","type":"Feature","properties":{"id":"B0FFLHZBRB","name":"黄浦区免费旅游观光车(金辰大酒店站)","address":"淮海中路与瑞金二路交叉口西南约40米","type":"交通设施服务;交通服务相关;交通服务相关","typecode":150000,"pcode":310000,"pname":"上海市","citycode":21,"cityname":"上海市","adcode":310101,"adname":"黄浦区","business_a":"淮海路","location":"121.463644,31.218505","tel":"[]","bigType":"交通设施服务","midType":"交通服务相关","smallType":"交通服务相关","gcj_lng":121.463644,"gcj_lat":31.218505,"wgs84_loc":"121.459091,31.220427","wgs84Lng":"121.459091","wgs84Lat":"31.220427","__source_file__":"13-常用公服设施点/SHP/上海市_交通服务相关.shp"},"geometry":{"type":"Point","coordinates":[121.459091,31.220427]}},{"id":"441","type":"Feature","properties":{"id":"B0FFJX0CKD","name":"京台路浏河路停车场","address":"浏河口路与西藏南路交叉口西南50米","type":"交通设施服务;交通服务相关;交通服务相关","typecode":150000,"pcode":310000,"pname":"上海市","citycode":21,"cityname":"上海市","adcode":310101,"adname":"黄浦区","business_a":"淮海路","location":"121.481122,31.221526","tel":"[]","bigType":"交通设施服务","midType":"交通服务相关","smallType":"交通服务相关","gcj_lng":121.481122,"gcj_lat":31.221526,"wgs84_loc":"121.476625,31.223493","wgs84Lng":"121.476625","wgs84Lat":"31.223493","__source_file__":"13-常用公服设施点/SHP/上海市_交通服务相关.shp"},"geometry":{"type":"Point","coordinates":[121.476625,31.223493]}},{"id":"33","type":"Feature","properties":{"id":"B0FFH0ZYUQ","name":"8号线大世界站1号(出口)","address":"西藏南路111号附近","type":"交通设施服务;交通服务相关;交通服务相关","typecode":150000,"pcode":310000,"pname":"上海市","citycode":21,"cityname":"上海市","adcode":310101,"adname":"黄浦区","business_a":"北京东路","location":"121.479679,31.227571","tel":"[]","bigType":"交通设施服务","midType":"交通服务相关","smallType":"交通服务相关","gcj_lng":121.479679,"gcj_lat":31.227571,"wgs84_loc":"121.475176,31.229531","wgs84Lng":"121.475176","wgs84Lat":"31.229531","__source_file__":"13-常用公服设施点/SHP/上海市_交通服务相关.shp"},"geometry":{"type":"Point","coordinates":[121.475176,31.229531]}},{"id":"28","type":"Feature","properties":{"id":"B0FFHOB1CR","name":"八号线大世界站(1号口)","address":"西藏南路111号附近","type":"交通设施服务;交通服务相关;交通服务相关","typecode":150000,"pcode":310000,"pname":"上海市","citycode":21,"cityname":"上海市","adcode":310101,"adname":"黄浦区","business_a":"北京东路","location":"121.479681,31.227579","tel":"[]","bigType":"交通设施服务","midType":"交通服务相关","smallType":"交通服务相关","gcj_lng":121.479681,"gcj_lat":31.227579,"wgs84_loc":"121.475178,31.229539","wgs84Lng":"121.475178","wgs84Lat":"31.229539","__source_file__":"13-常用公服设施点/SHP/上海市_交通服务相关.shp"},"geometry":{"type":"Point","coordinates":[121.475178,31.229539]}},{"id":"32","type":"Feature","properties":{"id":"B0FFFA0B7B","name":"大世界地铁站4号口","address":"西藏南路与宁海东路交叉口西约40米","type":"交通设施服务;交通服务相关;交通服务相关","typecode":150000,"pcode":310000,"pname":"上海市","citycode":21,"cityname":"上海市","adcode":310101,"adname":"黄浦区","business_a":"北京东路","location":"121.478627,31.227620","tel":"[]","bigType":"交通设施服务","midType":"交通服务相关","smallType":"交通服务相关","gcj_lng":121.478627,"gcj_lat":31.22762,"wgs84_loc":"121.474121,31.229577","wgs84Lng":"121.474121","wgs84Lat":"31.229577","__source_file__":"13-常用公服设施点/SHP/上海市_交通服务相关.shp"},"geometry":{"type":"Point","coordinates":[121.474121,31.229577]}},{"id":"23","type":"Feature","properties":{"id":"B0FFKX2STP","name":"黄陂北路站","address":"黄陂北路与人民大道辅路交叉口东南约20米","type":"交通设施服务;交通服务相关;交通服务相关","typecode":150000,"pcode":310000,"pname":"上海市","citycode":21,"cityname":"上海市","adcode":310101,"adname":"黄浦区","business_a":"北京东路","location":"121.471890,31.227944","tel":"[]","bigType":"交通设施服务","midType":"交通服务相关","smallType":"交通服务相关","gcj_lng":121.47189,"gcj_lat":31.227944,"wgs84_loc":"121.467361,31.229883","wgs84Lng":"121.467361","wgs84Lat":"31.229883","__source_file__":"13-常用公服设施点/SHP/上海市_交通服务相关.shp"},"geometry":{"type":"Point","coordinates":[121.467361,31.229883]}},{"id":"578","type":"Feature","properties":{"id":"B0FFFRTZCN","name":"中创大厦地下车库(入口)","address":"南京西路821附近","type":"交通设施服务;交通服务相关;交通服务相关","typecode":150000,"pcode":310000,"pname":"上海市","citycode":21,"cityname":"上海市","adcode":310106,"adname":"静安区","business_a":"淮海路","location":"121.460760,31.230234","tel":"[]","bigType":"交通设施服务","midType":"交通服务相关","smallType":"交通服务相关","gcj_lng":121.46076,"gcj_lat":31.230234,"wgs84_loc":"121.456197,31.232143","wgs84Lng":"121.456197","wgs84Lat":"31.232143","__source_file__":"13-常用公服设施点/SHP/上海市_交通服务相关.shp"},"geometry":{"type":"Point","coordinates":[121.456197,31.232143]}},{"id":"305","type":"Feature","properties":{"id":"B0FFFQ9CYC","name":"百米香榭商业街(北出入口)","address":"汉口路","type":"交通设施服务;交通服务相关;交通服务相关","typecode":150000,"pcode":310000,"pname":"上海市","citycode":21,"cityname":"上海市","adcode":310101,"adname":"黄浦区","business_a":"北京东路","location":"121.478256,31.233636","tel":"[]","bigType":"交通设施服务","midType":"交通服务相关","smallType":"交通服务相关","gcj_lng":121.478256,"gcj_lat":31.233636,"wgs84_loc":"121.473748,31.235589","wgs84Lng":"121.473748","wgs84Lat":"31.235589","__source_file__":"13-常用公服设施点/SHP/上海市_交通服务相关.shp"},"geometry":{"type":"Point","coordinates":[121.473748,31.235589]}},{"id":"582","type":"Feature","properties":{"id":"B0FFKILDSN","name":"熔岩瑜伽丽馆停车场(入口)","address":"石门二路188-1号附近","type":"交通设施服务;交通服务相关;交通服务相关","typecode":150000,"pcode":310000,"pname":"上海市","citycode":21,"cityname":"上海市","adcode":310106,"adname":"静安区","business_a":"淮海路","location":"121.460920,31.234148","tel":"[]","bigType":"交通设施服务","midType":"交通服务相关","smallType":"交通服务相关","gcj_lng":121.46092,"gcj_lat":31.234148,"wgs84_loc":"121.456357,31.236056","wgs84Lng":"121.456357","wgs84Lat":"31.236056","__source_file__":"13-常用公服设施点/SHP/上海市_交通服务相关.shp"},"geometry":{"type":"Point","coordinates":[121.456357,31.236056]}},{"id":"225","type":"Feature","properties":{"id":"B0FFHWHV7A","name":"豫园(3号出口)","address":"吴家弄与河南南路交叉口西50米","type":"交通设施服务;交通服务相关;交通服务相关","typecode":150000,"pcode":310000,"pname":"上海市","citycode":21,"cityname":"上海市","adcode":310101,"adname":"黄浦区","business_a":"城隍庙","location":"121.487322,31.227182","tel":"[]","bigType":"交通设施服务","midType":"交通服务相关","smallType":"交通服务相关","gcj_lng":121.487322,"gcj_lat":31.227182,"wgs84_loc":"121.482846,31.229165","wgs84Lng":"121.482846","wgs84Lat":"31.229165","__source_file__":"13-常用公服设施点/SHP/上海市_交通服务相关.shp"},"geometry":{"type":"Point","coordinates":[121.482846,31.229165]}},{"id":"298","type":"Feature","properties":{"id":"B0FFJ42B3M","name":"全季酒店上海外滩金陵东路店停车场","address":"紫金路新上海城市广场","type":"交通设施服务;交通服务相关;交通服务相关","typecode":150000,"pcode":310000,"pname":"上海市","citycode":21,"cityname":"上海市","adcode":310101,"adname":"黄浦区","business_a":"城隍庙","location":"121.487417,31.229532","tel":"[]","bigType":"交通设施服务","midType":"交通服务相关","smallType":"交通服务相关","gcj_lng":121.487417,"gcj_lat":31.229532,"wgs84_loc":"121.482941,31.231514","wgs84Lng":"121.482941","wgs84Lat":"31.231514","__source_file__":"13-常用公服设施点/SHP/上海市_交通服务相关.shp"},"geometry":{"type":"Point","coordinates":[121.482941,31.231514]}},{"id":"41","type":"Feature","properties":{"id":"B0FFKEBSXK","name":"停车场","address":"河南南路33号","type":"交通设施服务;交通服务相关;交通服务相关","typecode":150000,"pcode":310000,"pname":"上海市","citycode":21,"cityname":"上海市","adcode":310101,"adname":"黄浦区","business_a":"城隍庙","location":"121.487785,31.230006","tel":"[]","bigType":"交通设施服务","midType":"交通服务相关","smallType":"交通服务相关","gcj_lng":121.487785,"gcj_lat":31.230006,"wgs84_loc":"121.48331,31.231989","wgs84Lng":"121.48331","wgs84Lat":"31.231989","__source_file__":"13-常用公服设施点/SHP/上海市_交通服务相关.shp"},"geometry":{"type":"Point","coordinates":[121.48331,31.231989]}},{"id":"14","type":"Feature","properties":{"id":"B0FFJV9XKJ","name":"创业酒店停车场","address":"延安东路128弄8号星程创业酒店","type":"交通设施服务;交通服务相关;交通服务相关","typecode":150000,"pcode":310000,"pname":"上海市","citycode":21,"cityname":"上海市","adcode":310101,"adname":"黄浦区","business_a":"北京东路","location":"121.488984,31.233065","tel":"[]","bigType":"交通设施服务","midType":"交通服务相关","smallType":"交通服务相关","gcj_lng":121.488984,"gcj_lat":31.233065,"wgs84_loc":"121.484513,31.23505","wgs84Lng":"121.484513","wgs84Lat":"31.23505","__source_file__":"13-常用公服设施点/SHP/上海市_交通服务相关.shp"},"geometry":{"type":"Point","coordinates":[121.484513,31.23505]}},{"id":"222","type":"Feature","properties":{"id":"B0FFKL75A3","name":"上海外滩停车场","address":"四川中路申华金融大厦东北侧","type":"交通设施服务;交通服务相关;交通服务相关","typecode":150000,"pcode":310000,"pname":"上海市","citycode":21,"cityname":"上海市","adcode":310101,"adname":"黄浦区","business_a":"北京东路","location":"121.486855,31.240013","tel":"[]","bigType":"交通设施服务","midType":"交通服务相关","smallType":"交通服务相关","gcj_lng":121.486855,"gcj_lat":31.240013,"wgs84_loc":"121.482376,31.241988","wgs84Lng":"121.482376","wgs84Lat":"31.241988","__source_file__":"13-常用公服设施点/SHP/上海市_交通服务相关.shp"},"geometry":{"type":"Point","coordinates":[121.482376,31.241988]}},{"id":"223","type":"Feature","properties":{"id":"B0FFKB80ET","name":"停车点","address":"圆明园路益丰·外滩源西门南侧约60米","type":"交通设施服务;交通服务相关;交通服务相关","typecode":150000,"pcode":310000,"pname":"上海市","citycode":21,"cityname":"上海市","adcode":310101,"adname":"黄浦区","business_a":"北京东路","location":"121.488330,31.240026","tel":"[]","bigType":"交通设施服务","midType":"交通服务相关","smallType":"交通服务相关","gcj_lng":121.48833,"gcj_lat":31.240026,"wgs84_loc":"121.483856,31.242006","wgs84Lng":"121.483856","wgs84Lat":"31.242006","__source_file__":"13-常用公服设施点/SHP/上海市_交通服务相关.shp"},"geometry":{"type":"Point","coordinates":[121.483856,31.242006]}},{"id":"56","type":"Feature","properties":{"id":"B0FFINM1CT","name":"7号线静安寺站(9号口)","address":"常德路1号附近","type":"交通设施服务;交通服务相关;交通服务相关","typecode":150000,"pcode":310000,"pname":"上海市","citycode":21,"cityname":"上海市","adcode":310106,"adname":"静安区","business_a":"湖南路","location":"121.448485,31.222199","tel":"[]","bigType":"交通设施服务","midType":"交通服务相关","smallType":"交通服务相关","gcj_lng":121.448485,"gcj_lat":31.222199,"wgs84_loc":"121.443891,31.224085","wgs84Lng":"121.443891","wgs84Lat":"31.224085","__source_file__":"13-常用公服设施点/SHP/上海市_交通服务相关.shp"},"geometry":{"type":"Point","coordinates":[121.443891,31.224085]}},{"id":"309","type":"Feature","properties":{"id":"B0FFHSS2FW","name":"7号线静安寺站(6号口)","address":"南京西路1391附近","type":"交通设施服务;交通服务相关;交通服务相关","typecode":150000,"pcode":310000,"pname":"上海市","citycode":21,"cityname":"上海市","adcode":310106,"adname":"静安区","business_a":"曹家渡","location":"121.448563,31.223905","tel":"[]","bigType":"交通设施服务","midType":"交通服务相关","smallType":"交通服务相关","gcj_lng":121.448563,"gcj_lat":31.223905,"wgs84_loc":"121.443969,31.22579","wgs84Lng":"121.443969","wgs84Lat":"31.22579","__source_file__":"13-常用公服设施点/SHP/上海市_交通服务相关.shp"},"geometry":{"type":"Point","coordinates":[121.443969,31.22579]}},{"id":"63","type":"Feature","properties":{"id":"B0FFIB8PA5","name":"南京西路站(13号口)","address":"茂名北路233号附近","type":"交通设施服务;交通服务相关;交通服务相关","typecode":150000,"pcode":310000,"pname":"上海市","citycode":21,"cityname":"上海市","adcode":310106,"adname":"静安区","business_a":"淮海路","location":"121.459160,31.227679","tel":"[]","bigType":"交通设施服务","midType":"交通服务相关","smallType":"交通服务相关","gcj_lng":121.45916,"gcj_lat":31.227679,"wgs84_loc":"121.454593,31.229586","wgs84Lng":"121.454593","wgs84Lat":"31.229586","__source_file__":"13-常用公服设施点/SHP/上海市_交通服务相关.shp"},"geometry":{"type":"Point","coordinates":[121.454593,31.229586]}},{"id":"61","type":"Feature","properties":{"id":"B0FFIB3S1T","name":"7号线昌平路站(3号口)","address":"常德路775附近","type":"交通设施服务;交通服务相关;交通服务相关","typecode":150000,"pcode":310000,"pname":"上海市","citycode":21,"cityname":"上海市","adcode":310106,"adname":"静安区","business_a":"曹家渡","location":"121.442892,31.233031","tel":"[]","bigType":"交通设施服务","midType":"交通服务相关","smallType":"交通服务相关","gcj_lng":121.442892,"gcj_lat":31.233031,"wgs84_loc":"121.438284,31.234901","wgs84Lng":"121.438284","wgs84Lat":"31.234901","__source_file__":"13-常用公服设施点/SHP/上海市_交通服务相关.shp"},"geometry":{"type":"Point","coordinates":[121.438284,31.234901]}},{"id":"55","type":"Feature","properties":{"id":"B0FFH10R89","name":"昌平路站(4号口)","address":"常德路与昌平路交叉口南约60米","type":"交通设施服务;交通服务相关;交通服务相关","typecode":150000,"pcode":310000,"pname":"上海市","citycode":21,"cityname":"上海市","adcode":310106,"adname":"静安区","business_a":"曹家渡","location":"121.442190,31.233870","tel":"[]","bigType":"交通设施服务","midType":"交通服务相关","smallType":"交通服务相关","gcj_lng":121.44219,"gcj_lat":31.23387,"wgs84_loc":"121.437581,31.235739","wgs84Lng":"121.437581","wgs84Lat":"31.235739","__source_file__":"13-常用公服设施点/SHP/上海市_交通服务相关.shp"},"geometry":{"type":"Point","coordinates":[121.437581,31.235739]}},{"id":"248","type":"Feature","properties":{"id":"B0FFHWHVCS","name":"武宁路2号(出口)","address":"长寿路831号附近","type":"交通设施服务;交通服务相关;交通服务相关","typecode":150000,"pcode":310000,"pname":"上海市","citycode":21,"cityname":"上海市","adcode":310106,"adname":"静安区","business_a":"曹家渡","location":"121.430570,31.234040","tel":"[]","bigType":"交通设施服务","midType":"交通服务相关","smallType":"交通服务相关","gcj_lng":121.43057,"gcj_lat":31.23404,"wgs84_loc":"121.42594,31.235891","wgs84Lng":"121.42594","wgs84Lat":"31.235891","__source_file__":"13-常用公服设施点/SHP/上海市_交通服务相关.shp"},"geometry":{"type":"Point","coordinates":[121.42594,31.235891]}},{"id":"230","type":"Feature","properties":{"id":"B0FFFDX1UZ","name":"7号线长寿路站","address":"常德路与长寿路交叉口南50米","type":"交通设施服务;交通服务相关;交通服务相关","typecode":150000,"pcode":310000,"pname":"上海市","citycode":21,"cityname":"上海市","adcode":310107,"adname":"普陀区","business_a":"曹家渡","location":"121.437610,31.240189","tel":"[]","bigType":"交通设施服务","midType":"交通服务相关","smallType":"交通服务相关","gcj_lng":121.43761,"gcj_lat":31.240189,"wgs84_loc":"121.432991,31.242047","wgs84Lng":"121.432991","wgs84Lat":"31.242047","__source_file__":"13-常用公服设施点/SHP/上海市_交通服务相关.shp"},"geometry":{"type":"Point","coordinates":[121.432991,31.242047]}},{"id":"224","type":"Feature","properties":{"id":"B0FFHWHTW8","name":"人民广场6号(出口)","address":"南京西路31附近","type":"交通设施服务;交通服务相关;交通服务相关","typecode":150000,"pcode":310000,"pname":"上海市","citycode":21,"cityname":"上海市","adcode":310101,"adname":"黄浦区","business_a":"北京东路","location":"121.473769,31.234323","tel":"[]","bigType":"交通设施服务","midType":"交通服务相关","smallType":"交通服务相关","gcj_lng":121.473769,"gcj_lat":31.234323,"wgs84_loc":"121.469246,31.236264","wgs84Lng":"121.469246","wgs84Lat":"31.236264","__source_file__":"13-常用公服设施点/SHP/上海市_交通服务相关.shp"},"geometry":{"type":"Point","coordinates":[121.469246,31.236264]}},{"id":"36","type":"Feature","properties":{"id":"B0FFF59FLE","name":"BUSTOUR上海观光旅游(新世界站)","address":"南京路步行街766号附近","type":"交通设施服务;交通服务相关;交通服务相关","typecode":150000,"pcode":310000,"pname":"上海市","citycode":21,"cityname":"上海市","adcode":310101,"adname":"黄浦区","business_a":"北京东路","location":"121.473984,31.234478","tel":"[]","bigType":"交通设施服务","midType":"交通服务相关","smallType":"交通服务相关","gcj_lng":121.473984,"gcj_lat":31.234478,"wgs84_loc":"121.469462,31.236419","wgs84Lng":"121.469462","wgs84Lat":"31.236419","__source_file__":"13-常用公服设施点/SHP/上海市_交通服务相关.shp"},"geometry":{"type":"Point","coordinates":[121.469462,31.236419]}},{"id":"16","type":"Feature","properties":{"id":"B0FFFRRH2W","name":"观光巴士停靠站","address":"南京路步行街与石潭弄交叉口西南50米","type":"交通设施服务;交通服务相关;交通服务相关","typecode":150000,"pcode":310000,"pname":"上海市","citycode":21,"cityname":"上海市","adcode":310101,"adname":"黄浦区","business_a":"北京东路","location":"121.480670,31.235693","tel":"[]","bigType":"交通设施服务","midType":"交通服务相关","smallType":"交通服务相关","gcj_lng":121.48067,"gcj_lat":31.235693,"wgs84_loc":"121.47617,31.237652","wgs84Lng":"121.47617","wgs84Lat":"31.237652","__source_file__":"13-常用公服设施点/SHP/上海市_交通服务相关.shp"},"geometry":{"type":"Point","coordinates":[121.47617,31.237652]}},{"id":"281","type":"Feature","properties":{"id":"B0FFHWO0VG","name":"13号线自然博物馆站(3号口)","address":"大田路与新闸路交叉口南100米","type":"交通设施服务;交通服务相关;交通服务相关","typecode":150000,"pcode":310000,"pname":"上海市","citycode":21,"cityname":"上海市","adcode":310106,"adname":"静安区","business_a":"[]","location":"121.462262,31.237001","tel":"[]","bigType":"交通设施服务","midType":"交通服务相关","smallType":"交通服务相关","gcj_lng":121.462262,"gcj_lat":31.237001,"wgs84_loc":"121.457703,31.238911","wgs84Lng":"121.457703","wgs84Lat":"31.238911","__source_file__":"13-常用公服设施点/SHP/上海市_交通服务相关.shp"},"geometry":{"type":"Point","coordinates":[121.457703,31.238911]}},{"id":"53","type":"Feature","properties":{"id":"B0FFH1X7TL","name":"腾飞新北站","address":"国庆路与晋元路交叉口西北约20米","type":"交通设施服务;交通服务相关;交通服务相关","typecode":150000,"pcode":310000,"pname":"上海市","citycode":21,"cityname":"上海市","adcode":310106,"adname":"静安区","business_a":"北京东路","location":"121.470145,31.240612","tel":"[]","bigType":"交通设施服务","midType":"交通服务相关","smallType":"交通服务相关","gcj_lng":121.470145,"gcj_lat":31.240612,"wgs84_loc":"121.46561,31.24254","wgs84Lng":"121.46561","wgs84Lat":"31.24254","__source_file__":"13-常用公服设施点/SHP/上海市_交通服务相关.shp"},"geometry":{"type":"Point","coordinates":[121.46561,31.24254]}},{"id":"57","type":"Feature","properties":{"id":"B0FFH10AWP","name":"曲阜路站(3号口)","address":"曲阜西路与曲阜路交叉口西南50米","type":"交通设施服务;交通服务相关;交通服务相关","typecode":150000,"pcode":310000,"pname":"上海市","citycode":21,"cityname":"上海市","adcode":310106,"adname":"静安区","business_a":"北京东路","location":"121.471277,31.241969","tel":"[]","bigType":"交通设施服务","midType":"交通服务相关","smallType":"交通服务相关","gcj_lng":121.471277,"gcj_lat":31.241969,"wgs84_loc":"121.466745,31.243899","wgs84Lng":"121.466745","wgs84Lat":"31.243899","__source_file__":"13-常用公服设施点/SHP/上海市_交通服务相关.shp"},"geometry":{"type":"Point","coordinates":[121.466745,31.243899]}},{"id":"64","type":"Feature","properties":{"id":"B0FFHS7Y3P","name":"地铁8号12号线曲阜路站","address":"曲阜西路与曲阜路交叉口西100米","type":"交通设施服务;交通服务相关;交通服务相关","typecode":150000,"pcode":310000,"pname":"上海市","citycode":21,"cityname":"上海市","adcode":310106,"adname":"静安区","business_a":"七浦路","location":"121.470784,31.242441","tel":"[]","bigType":"交通设施服务","midType":"交通服务相关","smallType":"交通服务相关","gcj_lng":121.470784,"gcj_lat":31.242441,"wgs84_loc":"121.466251,31.24437","wgs84Lng":"121.466251","wgs84Lat":"31.24437","__source_file__":"13-常用公服设施点/SHP/上海市_交通服务相关.shp"},"geometry":{"type":"Point","coordinates":[121.466251,31.24437]}},{"id":"308","type":"Feature","properties":{"id":"B0FFJ0NE15","name":"申养北站智汇坊","address":"新疆路485号","type":"交通设施服务;交通服务相关;交通服务相关","typecode":150000,"pcode":310000,"pname":"上海市","citycode":21,"cityname":"上海市","adcode":310106,"adname":"静安区","business_a":"七浦路","location":"121.465702,31.242710","tel":"[]","bigType":"交通设施服务","midType":"交通服务相关","smallType":"交通服务相关","gcj_lng":121.465702,"gcj_lat":31.24271,"wgs84_loc":"121.461153,31.244626","wgs84Lng":"121.461153","wgs84Lat":"31.244626","__source_file__":"13-常用公服设施点/SHP/上海市_交通服务相关.shp"},"geometry":{"type":"Point","coordinates":[121.461153,31.244626]}},{"id":"52","type":"Feature","properties":{"id":"B0FFJXSFA2","name":"宝山路站","address":"宝山路与虬江路交叉口南50米","type":"交通设施服务;交通服务相关;交通服务相关","typecode":150000,"pcode":310000,"pname":"上海市","citycode":21,"cityname":"上海市","adcode":310106,"adname":"静安区","business_a":"宝山路","location":"121.476982,31.252092","tel":"[]","bigType":"交通设施服务","midType":"交通服务相关","smallType":"交通服务相关","gcj_lng":121.476982,"gcj_lat":31.252092,"wgs84_loc":"121.472468,31.254034","wgs84Lng":"121.472468","wgs84Lat":"31.254034","__source_file__":"13-常用公服设施点/SHP/上海市_交通服务相关.shp"},"geometry":{"type":"Point","coordinates":[121.472468,31.254034]}},{"id":"465","type":"Feature","properties":{"id":"B0FFIQ3U4X","name":"上海音像城停车场(入口)","address":"宝昌路与虬江路交叉口东50米","type":"交通设施服务;交通服务相关;交通服务相关","typecode":150000,"pcode":310000,"pname":"上海市","citycode":21,"cityname":"上海市","adcode":310106,"adname":"静安区","business_a":"宝山路","location":"121.479106,31.253202","tel":"[]","bigType":"交通设施服务","midType":"交通服务相关","smallType":"交通服务相关","gcj_lng":121.479106,"gcj_lat":31.253202,"wgs84_loc":"121.474599,31.255149","wgs84Lng":"121.474599","wgs84Lat":"31.255149","__source_file__":"13-常用公服设施点/SHP/上海市_交通服务相关.shp"},"geometry":{"type":"Point","coordinates":[121.474599,31.255149]}},{"id":"54","type":"Feature","properties":{"id":"B0FFIB7TAM","name":"汉中路站(3号口)","address":"梅园路88号附近","type":"交通设施服务;交通服务相关;交通服务相关","typecode":150000,"pcode":310000,"pname":"上海市","citycode":21,"cityname":"上海市","adcode":310106,"adname":"静安区","business_a":"[]","location":"121.459700,31.241613","tel":"[]","bigType":"交通设施服务","midType":"交通服务相关","smallType":"交通服务相关","gcj_lng":121.4597,"gcj_lat":31.241613,"wgs84_loc":"121.455133,31.243514","wgs84Lng":"121.455133","wgs84Lat":"31.243514","__source_file__":"13-常用公服设施点/SHP/上海市_交通服务相关.shp"},"geometry":{"type":"Point","coordinates":[121.455133,31.243514]}},{"id":"315","type":"Feature","properties":{"id":"B0FFIAPW3E","name":"1号线汉中站(2号口)","address":"梅园路与长安路交叉口西北50米","type":"交通设施服务;交通服务相关;交通服务相关","typecode":150000,"pcode":310000,"pname":"上海市","citycode":21,"cityname":"上海市","adcode":310106,"adname":"静安区","business_a":"[]","location":"121.459811,31.241689","tel":"[]","bigType":"交通设施服务","midType":"交通服务相关","smallType":"交通服务相关","gcj_lng":121.459811,"gcj_lat":31.241689,"wgs84_loc":"121.455245,31.243591","wgs84Lng":"121.455245","wgs84Lat":"31.243591","__source_file__":"13-常用公服设施点/SHP/上海市_交通服务相关.shp"},"geometry":{"type":"Point","coordinates":[121.455245,31.243591]}},{"id":"240","type":"Feature","properties":{"id":"B0FFHTWIY8","name":"13号线江宁路站(4号口)","address":"长寿路78附近","type":"交通设施服务;交通服务相关;交通服务相关","typecode":150000,"pcode":310000,"pname":"上海市","citycode":21,"cityname":"上海市","adcode":310107,"adname":"普陀区","business_a":"光新","location":"121.443830,31.244504","tel":"[]","bigType":"交通设施服务","midType":"交通服务相关","smallType":"交通服务相关","gcj_lng":121.44383,"gcj_lat":31.244504,"wgs84_loc":"121.439223,31.246371","wgs84Lng":"121.439223","wgs84Lat":"31.246371","__source_file__":"13-常用公服设施点/SHP/上海市_交通服务相关.shp"},"geometry":{"type":"Point","coordinates":[121.439223,31.246371]}},{"id":"59","type":"Feature","properties":{"id":"B0FFJ65X6C","name":"上海站东进口","address":"梅园路308附近","type":"交通设施服务;交通服务相关;交通服务相关","typecode":150000,"pcode":310000,"pname":"上海市","citycode":21,"cityname":"上海市","adcode":310106,"adname":"静安区","business_a":"[]","location":"121.457138,31.245508","tel":"[]","bigType":"交通设施服务","midType":"交通服务相关","smallType":"交通服务相关","gcj_lng":121.457138,"gcj_lat":31.245508,"wgs84_loc":"121.452564,31.247402","wgs84Lng":"121.452564","wgs84Lat":"31.247402","__source_file__":"13-常用公服设施点/SHP/上海市_交通服务相关.shp"},"geometry":{"type":"Point","coordinates":[121.452564,31.247402]}},{"id":"229","type":"Feature","properties":{"id":"B0FFH0ZMQ6","name":"镇坪路站(3号口)","address":"[]","type":"交通设施服务;交通服务相关;交通服务相关","typecode":150000,"pcode":310000,"pname":"上海市","citycode":21,"cityname":"上海市","adcode":310107,"adname":"普陀区","business_a":"光新","location":"121.429516,31.246312","tel":"[]","bigType":"交通设施服务","midType":"交通服务相关","smallType":"交通服务相关","gcj_lng":121.429516,"gcj_lat":31.246312,"wgs84_loc":"121.424883,31.248156","wgs84Lng":"121.424883","wgs84Lat":"31.248156","__source_file__":"13-常用公服设施点/SHP/上海市_交通服务相关.shp"},"geometry":{"type":"Point","coordinates":[121.424883,31.248156]}},{"id":"60","type":"Feature","properties":{"id":"B0FFFFFPFA","name":"上海火车站(4号口)","address":"秣陵路与民立路交叉口西约60米","type":"交通设施服务;交通服务相关;交通服务相关","typecode":150000,"pcode":310000,"pname":"上海市","citycode":21,"cityname":"上海市","adcode":310106,"adname":"静安区","business_a":"[]","location":"121.455093,31.246959","tel":"[]","bigType":"交通设施服务","midType":"交通服务相关","smallType":"交通服务相关","gcj_lng":121.455093,"gcj_lat":31.246959,"wgs84_loc":"121.450513,31.248847","wgs84Lng":"121.450513","wgs84Lat":"31.248847","__source_file__":"13-常用公服设施点/SHP/上海市_交通服务相关.shp"},"geometry":{"type":"Point","coordinates":[121.450513,31.248847]}},{"id":"228","type":"Feature","properties":{"id":"B0FFHJKYA0","name":"镇坪路站","address":"旬阳路与石泉路交叉口南150米","type":"交通设施服务;交通服务相关;交通服务相关","typecode":150000,"pcode":310000,"pname":"上海市","citycode":21,"cityname":"上海市","adcode":310107,"adname":"普陀区","business_a":"光新","location":"121.426703,31.250048","tel":"[]","bigType":"交通设施服务","midType":"交通服务相关","smallType":"交通服务相关","gcj_lng":121.426703,"gcj_lat":31.250048,"wgs84_loc":"121.422066,31.251887","wgs84Lng":"121.422066","wgs84Lat":"31.251887","__source_file__":"13-常用公服设施点/SHP/上海市_交通服务相关.shp"},"geometry":{"type":"Point","coordinates":[121.422066,31.251887]}},{"id":"327","type":"Feature","properties":{"id":"B00156NAUS","name":"晶彩码头","address":"中潭路33号","type":"交通设施服务;交通服务相关;交通服务相关","typecode":150000,"pcode":310000,"pname":"上海市","citycode":21,"cityname":"上海市","adcode":310107,"adname":"普陀区","business_a":"光新","location":"121.443453,31.251105","tel":"[]","bigType":"交通设施服务","midType":"交通服务相关","smallType":"交通服务相关","gcj_lng":121.443453,"gcj_lat":31.251105,"wgs84_loc":"121.438845,31.252968","wgs84Lng":"121.438845","wgs84Lat":"31.252968","__source_file__":"13-常用公服设施点/SHP/上海市_交通服务相关.shp"},"geometry":{"type":"Point","coordinates":[121.438845,31.252968]}},{"id":"245","type":"Feature","properties":{"id":"B0HD1H3XSI","name":"中远两湾城西区-停车场","address":"上海市普陀区中潭路99号-143号","type":"交通设施服务;交通服务相关;交通服务相关","typecode":150000,"pcode":310000,"pname":"上海市","citycode":21,"cityname":"上海市","adcode":310107,"adname":"普陀区","business_a":"光新","location":"121.437280,31.251489","tel":"[]","bigType":"交通设施服务","midType":"交通服务相关","smallType":"交通服务相关","gcj_lng":121.43728,"gcj_lat":31.251489,"wgs84_loc":"121.43266,31.253342","wgs84Lng":"121.43266","wgs84Lat":"31.253342","__source_file__":"13-常用公服设施点/SHP/上海市_交通服务相关.shp"},"geometry":{"type":"Point","coordinates":[121.43266,31.253342]}},{"id":"236","type":"Feature","properties":{"id":"B0FFIB5E0Z","name":"3号线4号线中潭路站(2号口)","address":"中潭路与远景路交叉口东50米","type":"交通设施服务;交通服务相关;交通服务相关","typecode":150000,"pcode":310000,"pname":"上海市","citycode":21,"cityname":"上海市","adcode":310107,"adname":"普陀区","business_a":"光新","location":"121.441688,31.254604","tel":"[]","bigType":"交通设施服务","midType":"交通服务相关","smallType":"交通服务相关","gcj_lng":121.441688,"gcj_lat":31.254604,"wgs84_loc":"121.437076,31.256463","wgs84Lng":"121.437076","wgs84Lat":"31.256463","__source_file__":"13-常用公服设施点/SHP/上海市_交通服务相关.shp"},"geometry":{"type":"Point","coordinates":[121.437076,31.256463]}},{"id":"299","type":"Feature","properties":{"id":"B0FFFOG4FZ","name":"春秋都市观光旅游巴士","address":"中山东一路外滩391号","type":"交通设施服务;交通服务相关;交通服务相关","typecode":150000,"pcode":310000,"pname":"上海市","citycode":21,"cityname":"上海市","adcode":310101,"adname":"黄浦区","business_a":"北京东路","location":"121.490481,31.240161","tel":"4008206222","bigType":"交通设施服务","midType":"交通服务相关","smallType":"交通服务相关","gcj_lng":121.490481,"gcj_lat":31.240161,"wgs84_loc":"121.486015,31.242147","wgs84Lng":"121.486015","wgs84Lat":"31.242147","__source_file__":"13-常用公服设施点/SHP/上海市_交通服务相关.shp"},"geometry":{"type":"Point","coordinates":[121.486015,31.242147]}},{"id":"179","type":"Feature","properties":{"id":"B0FFG8HPYA","name":"国际货运码头","address":"东大名路500号","type":"交通设施服务;交通服务相关;交通服务相关","typecode":150000,"pcode":310000,"pname":"上海市","citycode":21,"cityname":"上海市","adcode":310109,"adname":"虹口区","business_a":"提篮桥","location":"121.496742,31.246471","tel":"[]","bigType":"交通设施服务","midType":"交通服务相关","smallType":"交通服务相关","gcj_lng":121.496742,"gcj_lat":31.246471,"wgs84_loc":"121.492298,31.248473","wgs84Lng":"121.492298","wgs84Lat":"31.248473","__source_file__":"13-常用公服设施点/SHP/上海市_交通服务相关.shp"},"geometry":{"type":"Point","coordinates":[121.492298,31.248473]}},{"id":"178","type":"Feature","properties":{"id":"B0FFK9EXNP","name":"北外滩上海港国际客运中心码头","address":"东大名路与旅顺路交叉口东约40米","type":"交通设施服务;交通服务相关;交通服务相关","typecode":150000,"pcode":310000,"pname":"上海市","citycode":21,"cityname":"上海市","adcode":310109,"adname":"虹口区","business_a":"北外滩","location":"121.497147,31.247444","tel":"[]","bigType":"交通设施服务","midType":"交通服务相关","smallType":"交通服务相关","gcj_lng":121.497147,"gcj_lat":31.247444,"wgs84_loc":"121.492704,31.249447","wgs84Lng":"121.492704","wgs84Lat":"31.249447","__source_file__":"13-常用公服设施点/SHP/上海市_交通服务相关.shp"},"geometry":{"type":"Point","coordinates":[121.492704,31.249447]}},{"id":"684","type":"Feature","properties":{"id":"B0IAJ70CLE","name":"国际客运中心站地铁站安检区","address":"地铁12号线国际客运中心站国际客运中心站B1","type":"交通设施服务;交通服务相关;交通服务相关","typecode":150000,"pcode":310000,"pname":"上海市","citycode":21,"cityname":"上海市","adcode":310109,"adname":"虹口区","business_a":"提篮桥","location":"121.497823,31.249801","tel":"[]","bigType":"交通设施服务","midType":"交通服务相关","smallType":"交通服务相关","gcj_lng":121.497823,"gcj_lat":31.249801,"wgs84_loc":"121.493382,31.251805","wgs84Lng":"121.493382","wgs84Lat":"31.251805","__source_file__":"13-常用公服设施点/SHP/上海市_交通服务相关.shp"},"geometry":{"type":"Point","coordinates":[121.493382,31.251805]}},{"id":"82","type":"Feature","properties":{"id":"B0FFFWVAPU","name":"耀江国际广场峨眉路地库","address":"峨嵋路299弄","type":"交通设施服务;交通服务相关;交通服务相关","typecode":150000,"pcode":310000,"pname":"上海市","citycode":21,"cityname":"上海市","adcode":310109,"adname":"虹口区","business_a":"北外滩","location":"121.490903,31.249833","tel":"[]","bigType":"交通设施服务","midType":"交通服务相关","smallType":"交通服务相关","gcj_lng":121.490903,"gcj_lat":31.249833,"wgs84_loc":"121.486437,31.251816","wgs84Lng":"121.486437","wgs84Lat":"31.251816","__source_file__":"13-常用公服设施点/SHP/上海市_交通服务相关.shp"},"geometry":{"type":"Point","coordinates":[121.486437,31.251816]}},{"id":"81","type":"Feature","properties":{"id":"B0FFH10MZD","name":"海伦路站(5号口)","address":"四平路95号附近","type":"交通设施服务;交通服务相关;交通服务相关","typecode":150000,"pcode":310000,"pname":"上海市","citycode":21,"cityname":"上海市","adcode":310109,"adname":"虹口区","business_a":"宝山路","location":"121.488200,31.258630","tel":"[]","bigType":"交通设施服务","midType":"交通服务相关","smallType":"交通服务相关","gcj_lng":121.4882,"gcj_lat":31.25863,"wgs84_loc":"121.483724,31.260601","wgs84Lng":"121.483724","wgs84Lat":"31.260601","__source_file__":"13-常用公服设施点/SHP/上海市_交通服务相关.shp"},"geometry":{"type":"Point","coordinates":[121.483724,31.260601]}},{"id":"67","type":"Feature","properties":{"id":"B0FFH17YC9","name":"修车换电瓶","address":"邢家桥北路与海伦路交叉口东北约40米","type":"交通设施服务;交通服务相关;交通服务相关","typecode":150000,"pcode":310000,"pname":"上海市","citycode":21,"cityname":"上海市","adcode":310109,"adname":"虹口区","business_a":"宝山路","location":"121.486480,31.258907","tel":"[]","bigType":"交通设施服务","midType":"交通服务相关","smallType":"交通服务相关","gcj_lng":121.48648,"gcj_lat":31.258907,"wgs84_loc":"121.481998,31.260873","wgs84Lng":"121.481998","wgs84Lat":"31.260873","__source_file__":"13-常用公服设施点/SHP/上海市_交通服务相关.shp"},"geometry":{"type":"Point","coordinates":[121.481998,31.260873]}},{"id":"80","type":"Feature","properties":{"id":"B0FFH161DX","name":"海伦路站(1号口)","address":"同嘉路与天水路交叉口西南50米","type":"交通设施服务;交通服务相关;交通服务相关","typecode":150000,"pcode":310000,"pname":"上海市","citycode":21,"cityname":"上海市","adcode":310109,"adname":"虹口区","business_a":"四平路","location":"121.490430,31.259520","tel":"[]","bigType":"交通设施服务","midType":"交通服务相关","smallType":"交通服务相关","gcj_lng":121.49043,"gcj_lat":31.25952,"wgs84_loc":"121.485962,31.261497","wgs84Lng":"121.485962","wgs84Lat":"31.261497","__source_file__":"13-常用公服设施点/SHP/上海市_交通服务相关.shp"},"geometry":{"type":"Point","coordinates":[121.485962,31.261497]}},{"id":"250","type":"Feature","properties":{"id":"B0FFHWKZ2P","name":"中兴路(1号出口)","address":"西藏北路661-1号附近","type":"交通设施服务;交通服务相关;交通服务相关","typecode":150000,"pcode":310000,"pname":"上海市","citycode":21,"cityname":"上海市","adcode":310106,"adname":"静安区","business_a":"宝山路","location":"121.469003,31.253697","tel":"[]","bigType":"交通设施服务","midType":"交通服务相关","smallType":"交通服务相关","gcj_lng":121.469003,"gcj_lat":31.253697,"wgs84_loc":"121.464463,31.255616","wgs84Lng":"121.464463","wgs84Lat":"31.255616","__source_file__":"13-常用公服设施点/SHP/上海市_交通服务相关.shp"},"geometry":{"type":"Point","coordinates":[121.464463,31.255616]}},{"id":"402","type":"Feature","properties":{"id":"B0FFIB4YMH","name":"扬波大厦停车场(出入口)","address":"永兴路与鸿兴路交叉口东50米","type":"交通设施服务;交通服务相关;交通服务相关","typecode":150000,"pcode":310000,"pname":"上海市","citycode":21,"cityname":"上海市","adcode":310106,"adname":"静安区","business_a":"宝山路","location":"121.476153,31.255042","tel":"[]","bigType":"交通设施服务","midType":"交通服务相关","smallType":"交通服务相关","gcj_lng":121.476153,"gcj_lat":31.255042,"wgs84_loc":"121.471636,31.25698","wgs84Lng":"121.471636","wgs84Lat":"31.25698","__source_file__":"13-常用公服设施点/SHP/上海市_交通服务相关.shp"},"geometry":{"type":"Point","coordinates":[121.471636,31.25698]}},{"id":"586","type":"Feature","properties":{"id":"B0IASORI8S","name":"西藏北路站地铁站安检区","address":"8号线地铁站西藏北路站西藏北路站B1","type":"交通设施服务;交通服务相关;交通服务相关","typecode":150000,"pcode":310000,"pname":"上海市","citycode":21,"cityname":"上海市","adcode":310106,"adname":"静安区","business_a":"宝山路","location":"121.468794,31.263286","tel":"[]","bigType":"交通设施服务","midType":"交通服务相关","smallType":"交通服务相关","gcj_lng":121.468794,"gcj_lat":31.263286,"wgs84_loc":"121.464252,31.2652","wgs84Lng":"121.464252","wgs84Lat":"31.2652","__source_file__":"13-常用公服设施点/SHP/上海市_交通服务相关.shp"},"geometry":{"type":"Point","coordinates":[121.464252,31.2652]}},{"id":"50","type":"Feature","properties":{"id":"B0FFL48WUV","name":"东宝志明收费站","address":"华昌路169号","type":"交通设施服务;交通服务相关;交通服务相关","typecode":150000,"pcode":310000,"pname":"上海市","citycode":21,"cityname":"上海市","adcode":310109,"adname":"虹口区","business_a":"宝山路","location":"121.475639,31.263775","tel":"[]","bigType":"交通设施服务","midType":"交通服务相关","smallType":"交通服务相关","gcj_lng":121.475639,"gcj_lat":31.263775,"wgs84_loc":"121.471119,31.265708","wgs84Lng":"121.471119","wgs84Lat":"31.265708","__source_file__":"13-常用公服设施点/SHP/上海市_交通服务相关.shp"},"geometry":{"type":"Point","coordinates":[121.471119,31.265708]}},{"id":"68","type":"Feature","properties":{"id":"B0FFHSFUTS","name":"97终点站","address":"四川北路2130号附近","type":"交通设施服务;交通服务相关;交通服务相关","typecode":150000,"pcode":310000,"pname":"上海市","citycode":21,"cityname":"上海市","adcode":310109,"adname":"虹口区","business_a":"江湾","location":"121.481981,31.265900","tel":"[]","bigType":"交通设施服务","midType":"交通服务相关","smallType":"交通服务相关","gcj_lng":121.481981,"gcj_lat":31.2659,"wgs84_loc":"121.477483,31.26785","wgs84Lng":"121.477483","wgs84Lat":"31.26785","__source_file__":"13-常用公服设施点/SHP/上海市_交通服务相关.shp"},"geometry":{"type":"Point","coordinates":[121.477483,31.26785]}},{"id":"237","type":"Feature","properties":{"id":"B0FFIB5BS6","name":"3号线4号线中潭路站(1号口)","address":"中潭路与远景路交叉口东50米","type":"交通设施服务;交通服务相关;交通服务相关","typecode":150000,"pcode":310000,"pname":"上海市","citycode":21,"cityname":"上海市","adcode":310107,"adname":"普陀区","business_a":"光新","location":"121.441637,31.254783","tel":"[]","bigType":"交通设施服务","midType":"交通服务相关","smallType":"交通服务相关","gcj_lng":121.441637,"gcj_lat":31.254783,"wgs84_loc":"121.437025,31.256641","wgs84Lng":"121.437025","wgs84Lat":"31.256641","__source_file__":"13-常用公服设施点/SHP/上海市_交通服务相关.shp"},"geometry":{"type":"Point","coordinates":[121.437025,31.256641]}},{"id":"174","type":"Feature","properties":{"id":"B0FFINOC9X","name":"上海交运巴士客运(中山北路)","address":"中山北路辅路与中山北路交叉口东北约80米","type":"交通设施服务;交通服务相关;交通服务相关","typecode":150000,"pcode":310000,"pname":"上海市","citycode":21,"cityname":"上海市","adcode":310106,"adname":"静安区","business_a":"和田","location":"121.450570,31.258702","tel":"[]","bigType":"交通设施服务","midType":"交通服务相关","smallType":"交通服务相关","gcj_lng":121.45057,"gcj_lat":31.258702,"wgs84_loc":"121.445978,31.260576","wgs84Lng":"121.445978","wgs84Lat":"31.260576","__source_file__":"13-常用公服设施点/SHP/上海市_交通服务相关.shp"},"geometry":{"type":"Point","coordinates":[121.445978,31.260576]}},{"id":"401","type":"Feature","properties":{"id":"B0FFH1083D","name":"旅客(出口)","address":"中山北路与大统路交叉口西南20米","type":"交通设施服务;交通服务相关;交通服务相关","typecode":150000,"pcode":310000,"pname":"上海市","citycode":21,"cityname":"上海市","adcode":310106,"adname":"静安区","business_a":"和田","location":"121.458752,31.259769","tel":"[]","bigType":"交通设施服务","midType":"交通服务相关","smallType":"交通服务相关","gcj_lng":121.458752,"gcj_lat":31.259769,"wgs84_loc":"121.454181,31.26166","wgs84Lng":"121.454181","wgs84Lat":"31.26166","__source_file__":"13-常用公服设施点/SHP/上海市_交通服务相关.shp"},"geometry":{"type":"Point","coordinates":[121.454181,31.26166]}},{"id":"509","type":"Feature","properties":{"id":"B0FFH16715","name":"安全(出口)","address":"洛川路与宜川路交叉口西南60米","type":"交通设施服务;交通服务相关;交通服务相关","typecode":150000,"pcode":310000,"pname":"上海市","citycode":21,"cityname":"上海市","adcode":310107,"adname":"普陀区","business_a":"大宁路","location":"121.439194,31.259917","tel":"[]","bigType":"交通设施服务","midType":"交通服务相关","smallType":"交通服务相关","gcj_lng":121.439194,"gcj_lat":31.259917,"wgs84_loc":"121.434576,31.261769","wgs84Lng":"121.434576","wgs84Lat":"31.261769","__source_file__":"13-常用公服设施点/SHP/上海市_交通服务相关.shp"},"geometry":{"type":"Point","coordinates":[121.434576,31.261769]}},{"id":"66","type":"Feature","properties":{"id":"B0FFIR33ZM","name":"安鲜达(闸北站)","address":"民宴路165号","type":"交通设施服务;交通服务相关;交通服务相关","typecode":150000,"pcode":310000,"pname":"上海市","citycode":21,"cityname":"上海市","adcode":310106,"adname":"静安区","business_a":"和田","location":"121.460682,31.274519","tel":"[]","bigType":"交通设施服务","midType":"交通服务相关","smallType":"交通服务相关","gcj_lng":121.460682,"gcj_lat":31.274519,"wgs84_loc":"121.456115,31.276408","wgs84Lng":"121.456115","wgs84Lat":"31.276408","__source_file__":"13-常用公服设施点/SHP/上海市_交通服务相关.shp"},"geometry":{"type":"Point","coordinates":[121.456115,31.276408]}}],"name":"上海市_交通服务相关","crs":{"type":"name","properties":{"name":"urn:ogc:def:crs:OGC:1.3:CRS84"}}}