{"type":"FeatureCollection","features":[{"id":"4","type":"Feature","properties":{"id":"B00154QIXD","name":"上海市中山学社","address":"陕西北路128上海民主党派大厦10层","type":"政府机构及社会团体;民主党派;民主党派","typecode":130300,"pcode":310000,"pname":"上海市","citycode":21,"cityname":"上海市","adcode":310106,"adname":"静安区","business_a":"淮海路","location":"121.456338,31.226272","tel":"[]","bigType":"政府机构及社会团体","midType":"民主党派","smallType":"民主党派","gcj_lng":121.456338,"gcj_lat":31.226272,"wgs84_loc":"121.451763,31.228173","wgs84Lng":"121.451763","wgs84Lat":"31.228173","__source_file__":"13-常用公服设施点/SHP/上海市_民主党派.shp"},"geometry":{"type":"Point","coordinates":[121.451763,31.228173]}},{"id":"5","type":"Feature","properties":{"id":"B00154QG20","name":"中国农工民主党上海市委员会","address":"陕西北路128上海民主党派大厦20-21层","type":"政府机构及社会团体;民主党派;民主党派","typecode":130300,"pcode":310000,"pname":"上海市","citycode":21,"cityname":"上海市","adcode":310106,"adname":"静安区","business_a":"淮海路","location":"121.456338,31.226272","tel":"[]","bigType":"政府机构及社会团体","midType":"民主党派","smallType":"民主党派","gcj_lng":121.456338,"gcj_lat":31.226272,"wgs84_loc":"121.451763,31.228173","wgs84Lng":"121.451763","wgs84Lat":"31.228173","__source_file__":"13-常用公服设施点/SHP/上海市_民主党派.shp"},"geometry":{"type":"Point","coordinates":[121.451763,31.228173]}},{"id":"6","type":"Feature","properties":{"id":"B00154QG12","name":"中国民主同盟上海市委员会","address":"陕西北路128上海民主党派大厦17-18层","type":"政府机构及社会团体;民主党派;民主党派","typecode":130300,"pcode":310000,"pname":"上海市","citycode":21,"cityname":"上海市","adcode":310106,"adname":"静安区","business_a":"淮海路","location":"121.456338,31.226272","tel":"[]","bigType":"政府机构及社会团体","midType":"民主党派","smallType":"民主党派","gcj_lng":121.456338,"gcj_lat":31.226272,"wgs84_loc":"121.451763,31.228173","wgs84Lng":"121.451763","wgs84Lat":"31.228173","__source_file__":"13-常用公服设施点/SHP/上海市_民主党派.shp"},"geometry":{"type":"Point","coordinates":[121.451763,31.228173]}},{"id":"7","type":"Feature","properties":{"id":"B00154QG0N","name":"中国民主建国会上海市委员会","address":"陕西北路128上海民主党派大厦11-12层","type":"政府机构及社会团体;民主党派;民主党派","typecode":130300,"pcode":310000,"pname":"上海市","citycode":21,"cityname":"上海市","adcode":310106,"adname":"静安区","business_a":"淮海路","location":"121.456338,31.226272","tel":"[]","bigType":"政府机构及社会团体","midType":"民主党派","smallType":"民主党派","gcj_lng":121.456338,"gcj_lat":31.226272,"wgs84_loc":"121.451763,31.228173","wgs84Lng":"121.451763","wgs84Lat":"31.228173","__source_file__":"13-常用公服设施点/SHP/上海市_民主党派.shp"},"geometry":{"type":"Point","coordinates":[121.451763,31.228173]}},{"id":"13","type":"Feature","properties":{"id":"B00155CC4Y","name":"中国国民党革命委员会静安区委员会","address":"康定路759号","type":"政府机构及社会团体;民主党派;民主党派","typecode":130300,"pcode":310000,"pname":"上海市","citycode":21,"cityname":"上海市","adcode":310106,"adname":"静安区","business_a":"曹家渡","location":"121.442502,31.231641","tel":"021-52281850","bigType":"政府机构及社会团体","midType":"民主党派","smallType":"民主党派","gcj_lng":121.442502,"gcj_lat":31.231641,"wgs84_loc":"121.437894,31.233511","wgs84Lng":"121.437894","wgs84Lat":"31.233511","__source_file__":"13-常用公服设施点/SHP/上海市_民主党派.shp"},"geometry":{"type":"Point","coordinates":[121.437894,31.233511]}},{"id":"14","type":"Feature","properties":{"id":"B00155CCL5","name":"中国民主同盟静安区委员会","address":"康定路759号","type":"政府机构及社会团体;民主党派;民主党派","typecode":130300,"pcode":310000,"pname":"上海市","citycode":21,"cityname":"上海市","adcode":310106,"adname":"静安区","business_a":"曹家渡","location":"121.442502,31.231641","tel":"021-52286678","bigType":"政府机构及社会团体","midType":"民主党派","smallType":"民主党派","gcj_lng":121.442502,"gcj_lat":31.231641,"wgs84_loc":"121.437894,31.233511","wgs84Lng":"121.437894","wgs84Lat":"31.233511","__source_file__":"13-常用公服设施点/SHP/上海市_民主党派.shp"},"geometry":{"type":"Point","coordinates":[121.437894,31.233511]}},{"id":"12","type":"Feature","properties":{"id":"B0FFH182MM","name":"九三学社健康咨询基地","address":"昌平路931号","type":"政府机构及社会团体;民主党派;民主党派","typecode":130300,"pcode":310000,"pname":"上海市","citycode":21,"cityname":"上海市","adcode":310106,"adname":"静安区","business_a":"曹家渡","location":"121.438290,31.233228","tel":"[]","bigType":"政府机构及社会团体","midType":"民主党派","smallType":"民主党派","gcj_lng":121.43829,"gcj_lat":31.233228,"wgs84_loc":"121.433673,31.235091","wgs84Lng":"121.433673","wgs84Lat":"31.235091","__source_file__":"13-常用公服设施点/SHP/上海市_民主党派.shp"},"geometry":{"type":"Point","coordinates":[121.433673,31.235091]}},{"id":"8","type":"Feature","properties":{"id":"B00154QG09","name":"中国民主促进会上海市委员会","address":"陕西北路128上海民主党派大厦16-17层","type":"政府机构及社会团体;民主党派;民主党派","typecode":130300,"pcode":310000,"pname":"上海市","citycode":21,"cityname":"上海市","adcode":310106,"adname":"静安区","business_a":"淮海路","location":"121.456338,31.226272","tel":"[]","bigType":"政府机构及社会团体","midType":"民主党派","smallType":"民主党派","gcj_lng":121.456338,"gcj_lat":31.226272,"wgs84_loc":"121.451763,31.228173","wgs84Lng":"121.451763","wgs84Lat":"31.228173","__source_file__":"13-常用公服设施点/SHP/上海市_民主党派.shp"},"geometry":{"type":"Point","coordinates":[121.451763,31.228173]}},{"id":"9","type":"Feature","properties":{"id":"B00154QFI0","name":"中国国民党革命委员会上海市委员会","address":"陕西北路128上海民主党派大厦13-14层","type":"政府机构及社会团体;民主党派;民主党派","typecode":130300,"pcode":310000,"pname":"上海市","citycode":21,"cityname":"上海市","adcode":310106,"adname":"静安区","business_a":"淮海路","location":"121.456338,31.226272","tel":"[]","bigType":"政府机构及社会团体","midType":"民主党派","smallType":"民主党派","gcj_lng":121.456338,"gcj_lat":31.226272,"wgs84_loc":"121.451763,31.228173","wgs84Lng":"121.451763","wgs84Lat":"31.228173","__source_file__":"13-常用公服设施点/SHP/上海市_民主党派.shp"},"geometry":{"type":"Point","coordinates":[121.451763,31.228173]}},{"id":"10","type":"Feature","properties":{"id":"B00154NA4X","name":"台湾民主自治同盟上海市委员会","address":"陕西北路128上海民主党派大厦10层","type":"政府机构及社会团体;民主党派;民主党派","typecode":130300,"pcode":310000,"pname":"上海市","citycode":21,"cityname":"上海市","adcode":310106,"adname":"静安区","business_a":"淮海路","location":"121.456338,31.226272","tel":"[]","bigType":"政府机构及社会团体","midType":"民主党派","smallType":"民主党派","gcj_lng":121.456338,"gcj_lat":31.226272,"wgs84_loc":"121.451763,31.228173","wgs84Lng":"121.451763","wgs84Lat":"31.228173","__source_file__":"13-常用公服设施点/SHP/上海市_民主党派.shp"},"geometry":{"type":"Point","coordinates":[121.451763,31.228173]}},{"id":"11","type":"Feature","properties":{"id":"B00154J57P","name":"九三学社上海市委员会","address":"陕西北路128上海民主党派大厦14-15层","type":"政府机构及社会团体;民主党派;民主党派","typecode":130300,"pcode":310000,"pname":"上海市","citycode":21,"cityname":"上海市","adcode":310106,"adname":"静安区","business_a":"淮海路","location":"121.456338,31.226272","tel":"[]","bigType":"政府机构及社会团体","midType":"民主党派","smallType":"民主党派","gcj_lng":121.456338,"gcj_lat":31.226272,"wgs84_loc":"121.451763,31.228173","wgs84Lng":"121.451763","wgs84Lat":"31.228173","__source_file__":"13-常用公服设施点/SHP/上海市_民主党派.shp"},"geometry":{"type":"Point","coordinates":[121.451763,31.228173]}},{"id":"84","type":"Feature","properties":{"id":"B0KG35MU4J","name":"中国民主建国会虹口区委员会","address":"临平北路55号","type":"政府机构及社会团体;民主党派;民主党派","typecode":130300,"pcode":310000,"pname":"上海市","citycode":21,"cityname":"上海市","adcode":310109,"adname":"虹口区","business_a":"四平路","location":"121.492421,31.263784","tel":"[]","bigType":"政府机构及社会团体","midType":"民主党派","smallType":"民主党派","gcj_lng":121.492421,"gcj_lat":31.263784,"wgs84_loc":"121.48796,31.265765","wgs84Lng":"121.48796","wgs84Lat":"31.265765","__source_file__":"13-常用公服设施点/SHP/上海市_民主党派.shp"},"geometry":{"type":"Point","coordinates":[121.48796,31.265765]}},{"id":"21","type":"Feature","properties":{"id":"B00155BJAW","name":"上海外国语大学九三学社","address":"中山北一路160号上海虹口商厦2层","type":"政府机构及社会团体;民主党派;民主党派","typecode":130300,"pcode":310000,"pname":"上海市","citycode":21,"cityname":"上海市","adcode":310109,"adname":"虹口区","business_a":"江湾","location":"121.477870,31.272837","tel":"[]","bigType":"政府机构及社会团体","midType":"民主党派","smallType":"民主党派","gcj_lng":121.47787,"gcj_lat":31.272837,"wgs84_loc":"121.473357,31.274772","wgs84Lng":"121.473357","wgs84Lat":"31.274772","__source_file__":"13-常用公服设施点/SHP/上海市_民主党派.shp"},"geometry":{"type":"Point","coordinates":[121.473357,31.274772]}}],"name":"上海市_民主党派","crs":{"type":"name","properties":{"name":"urn:ogc:def:crs:OGC:1.3:CRS84"}}}