{"type":"FeatureCollection","features":[{"id":"123","type":"Feature","properties":{"id":"B00154BDE9","name":"静安寺","type":"风景名胜;风景名胜;寺庙道观","addr":"上海市静安区南京西路1686号","结构":null,"面积":0.0,"时间":null,"装修":null,"价格":0.0,"gcj_lng":121.44532,"gcj_lat":31.223505,"wgs_lng":121.440718354,"wgs_lat":31.2253842321,"bd_lng":121.4517482,"bd_lat":31.229859987,"gcj_shape":"121.444751,31.223852;121.444755,31.223885;121.444771,31.223932;121.445295,31.224215;121.445316,31.224217;121.445334,31.224206;121.445974,31.223156;121.445983,31.223135;121.445974,31.223117;121.445353,31.222829;121.445322,31.222834;121.445278,31.22287;121","FID_1":10079,"id_1":"B00154BDE9","type1":"风景名胜","type2":"风景名胜","type3":"寺庙道观","__source_file__":"13-常用公服设施点/SHP/上海市_旅游景点-面.shp"},"geometry":{"type":"Polygon","coordinates":[[[121.44014225137713,31.225754060993197],[121.44015827879525,31.225801066953665],[121.44068330399514,31.22608481081963],[121.4407043445263,31.226086844198228],[121.44072238267327,31.226075879961016],[121.44136377444174,31.225027456503867],[121.44137279411126,31.225006482133857],[121.44136377742197,31.224988474981302],[121.44074154002953,31.224699554685593],[121.44071047684864,31.2247045010414],[121.44066638624957,31.224740410442347],[121.44018336104966,31.225430280338287],[121.44016431932641,31.22546723146248],[121.44013824660874,31.22572107052994],[121.44014225137713,31.225754060993197]]]}},{"id":"121","type":"Feature","properties":{"id":"B00155CAZU","name":"中共二大会址纪念馆","type":"风景名胜;风景名胜;纪念馆","addr":"上海市静安区老成都北路7弄30号(近延安中路)","结构":null,"面积":0.0,"时间":null,"装修":null,"价格":0.0,"gcj_lng":121.466714,"gcj_lat":31.224169,"wgs_lng":121.462169383,"wgs_lat":31.2260956837,"bd_lng":121.473216437,"bd_lat":31.2302361369,"gcj_shape":"121.466504,31.224328;121.466494,31.224321;121.466491,31.224308;121.466499,31.224011;121.466507,31.223996;121.466518,31.223988;121.466545,31.223987;121.466913,31.224019;121.46692,31.224022;121.466929,31.224034;121.466951,31.22432;121.466948,31.224328;121.","FID_1":10035,"id_1":"B00155CAZU","type1":"风景名胜","type2":"风景名胜","type3":"纪念馆","__source_file__":"13-常用公服设施点/SHP/上海市_旅游景点-面.shp"},"geometry":{"type":"Polygon","coordinates":[[[121.46237724143029,31.226250867162705],[121.46239027957728,31.22624290292549],[121.46239328792191,31.226234913654327],[121.46237124858285,31.225948993524554],[121.46236222474099,31.225936976835257],[121.46235520328332,31.22593396014595],[121.46198613280191,31.2259010625],[121.46195905410573,31.225902011240002],[121.46194802191923,31.225909981437685],[121.46193999688529,31.225924954019554],[121.4619319480095,31.226221797855374],[121.46193495635413,31.226234799047468],[121.46194498377227,31.226241819313046],[121.46237724143029,31.226250867162705]]]}},{"id":"314","type":"Feature","properties":{"id":"B00155KKT5","name":"刘长胜故居","type":"风景名胜;风景名胜;纪念馆","addr":"上海市静安区愚园路81号(近久光百货)","结构":null,"面积":0.0,"时间":null,"装修":null,"价格":0.0,"gcj_lng":121.446569,"gcj_lat":31.224707,"wgs_lng":121.441970066,"wgs_lat":31.2265880254,"bd_lng":121.452999443,"bd_lat":31.2310547901,"gcj_shape":"121.446509,31.224639;121.446469,31.22471;121.446469,31.224726;121.44647,31.224738;121.446478,31.224749;121.446489,31.224755;121.446587,31.224795;121.446596,31.224796;121.446607,31.224796;121.446615,31.224794;121.446623,31.224789;121.446668,31.224702;121.","FID_1":25014,"id_1":"B00155KKT5","type1":"风景名胜","type2":"风景名胜","type3":"纪念馆","__source_file__":"13-常用公服设施点/SHP/上海市_旅游景点-面.shp"},"geometry":{"type":"Polygon","coordinates":[[[121.44185965718651,31.22658158465385],[121.44185965659047,31.226597575713157],[121.44186065837863,31.22660957154083],[121.44186867327976,31.22662058167362],[121.44187969533348,31.226626596574782],[121.4419778956051,31.226666749162668],[121.44198691348652,31.22666776465988],[121.44199793732835,31.22666778373337],[121.44200595282555,31.22666579684639],[121.44201396951485,31.226660813535688],[121.44205907084276,31.226573931552885],[121.44206107561112,31.226564941089627],[121.44205907382299,31.226552941685675],[121.44205306130601,31.226541936321258],[121.44204905474949,31.226533933341024],[121.44203803150367,31.226524918439864],[121.44194083361629,31.22649076585197],[121.44192880858233,31.226489745586388],[121.44191477877999,31.22649372055244],[121.4419067620907,31.226498703863143],[121.44189974718954,31.226510685385698],[121.44185965718651,31.22658158465385]]]}},{"id":"37","type":"Feature","properties":{"id":"B00153A24A","name":"新恩堂","type":"风景名胜;风景名胜;教堂","addr":"上海市静安区乌鲁木齐北路25号","结构":null,"面积":0.0,"时间":null,"装修":null,"价格":0.0,"gcj_lng":121.44083,"gcj_lat":31.224723,"wgs_lng":121.436218717,"wgs_lat":31.2265936931,"bd_lng":121.447255049,"bd_lat":31.2310917699,"gcj_shape":"121.440522,31.22468;121.44054,31.224738;121.440567,31.224789;121.440842,31.225034;121.44119,31.224722;121.440758,31.224416;121.440522,31.22468","FID_1":2551,"id_1":"B00153A24A","type1":"风景名胜","type2":"风景名胜","type3":"教堂","__source_file__":"13-常用公服设施点/SHP/上海市_旅游景点-面.shp"},"geometry":{"type":"Polygon","coordinates":[[[121.43622174476818,31.226896341165542],[121.43657039922718,31.226585009929654],[121.43631989003319,31.226407581070102],[121.43595800254046,31.226661487192402],[121.43622174476818,31.226896341165542]]]}},{"id":"132","type":"Feature","properties":{"id":"B00156R50A","name":"虞哲光旧居","type":"风景名胜;风景名胜;纪念馆","addr":"上海市静安区胶州路125弄1-15号","结构":null,"面积":0.0,"时间":null,"装修":null,"价格":0.0,"gcj_lng":121.443975,"gcj_lat":31.226122,"wgs_lng":121.439370173,"wgs_lat":31.2279975397,"bd_lng":121.450402315,"bd_lat":31.2324833473,"gcj_shape":"121.443518,31.226072;121.443628,31.225884;121.443705,31.225856;121.444422,31.226161;121.44429,31.226409;121.443518,31.226072","FID_1":10547,"id_1":"B00156R50A","type1":"风景名胜","type2":"风景名胜","type3":"纪念馆","__source_file__":"13-常用公服设施点/SHP/上海市_旅游景点-面.shp"},"geometry":{"type":"Polygon","coordinates":[[[121.4396761117363,31.22827612026596],[121.43980839426234,31.22802845285988],[121.43909001858714,31.227722422891617],[121.43901286719131,31.22775028580093],[121.43890263950158,31.22793801996422],[121.4396761117363,31.22827612026596]]]}},{"id":"63","type":"Feature","properties":{"id":"B00155KURV","name":"史量才旧居","type":"风景名胜;风景名胜;纪念馆","addr":"上海市静安区铜仁路257号附近","结构":null,"面积":0.0,"时间":null,"装修":null,"价格":0.0,"gcj_lng":121.449543,"gcj_lat":31.22656,"wgs_lng":121.444950891,"wgs_lat":31.2284460049,"bd_lng":121.45597983,"bd_lat":31.2328847033,"gcj_shape":"121.449535,31.22634;121.449478,31.226446;121.449283,31.226373;121.449179,31.226625;121.449736,31.226804;121.449791,31.226667;121.449825,31.226572;121.449856,31.226432;121.449535,31.22634","FID_1":5102,"id_1":"B00155KURV","type1":"风景名胜","type2":"风景名胜","type3":"纪念馆","__source_file__":"13-常用公服设施点/SHP/上海市_旅游景点-面.shp"},"geometry":{"type":"Polygon","coordinates":[[[121.4448749502449,31.228322161098482],[121.44467952466772,31.228248835657126],[121.44457527432823,31.22850052809715],[121.445133490263,31.228680474618912],[121.4451886237774,31.22854363912773],[121.445222708416,31.22844874760819],[121.44525379067039,31.228308870393754],[121.44493208435536,31.228216316666604],[121.4448749502449,31.228322161098482]]]}},{"id":"130","type":"Feature","properties":{"id":"B00155ETXT","name":"荣宗敬故居","type":"风景名胜;风景名胜;纪念馆","addr":"上海市静安区陕西北路186号(近南京西路)","结构":null,"面积":0.0,"时间":null,"装修":null,"价格":0.0,"gcj_lng":121.455852,"gcj_lat":31.22669,"wgs_lng":121.451275945,"wgs_lat":31.2285893861,"bd_lng":121.462307858,"bd_lat":31.2329408059,"gcj_shape":"121.455483,31.226962;121.455485,31.226969;121.455487,31.226976;121.455483,31.226986;121.455476,31.226996;121.455479,31.227008;121.455487,31.227014;121.455677,31.227134;121.455689,31.227138;121.455701,31.227138;121.455713,31.227137;121.455723,31.227133;12","FID_1":10461,"id_1":"B00155ETXT","type1":"风景名胜","type2":"风景名胜","type3":"纪念馆","__source_file__":"13-常用公服设施点/SHP/上海市_旅游景点-面.shp"},"geometry":{"type":"Polygon","coordinates":[[[121.45089599727156,31.228856703537943],[121.450898002636,31.228863705326077],[121.45089399190712,31.228873692213057],[121.45088697402576,31.228883671947475],[121.45088997998621,31.228895673139576],[121.45089799905972,31.22890168744469],[121.45108846039963,31.229022024806973],[121.45110048900989,31.229026048648834],[121.45111251881221,31.22902607368279],[121.45112454980662,31.229025099908824],[121.45113457364846,31.2290211213665],[121.45114760821917,31.229009153553008],[121.45116966543964,31.228984210773465],[121.45167898270228,31.228438528036115],[121.45170705601596,31.22840960015774],[121.45171006257249,31.22840460790634],[121.45171206853297,31.228393618635174],[121.45171106734088,31.228379622211452],[121.45170405184365,31.228364613866802],[121.45169001786901,31.228346593005185],[121.45143038665583,31.228144144182203],[121.45142036162187,31.228137126300805],[121.4514043222828,31.22813209649849],[121.45139229367257,31.228132070272444],[121.45137926029398,31.228132044046404],[121.45136823168374,31.228136017820354],[121.45135720366956,31.22814399219036],[121.45134717923165,31.22815496536827],[121.45083685958483,31.22876262426376],[121.45083184706785,31.2287726093626],[121.45082883872318,31.22878459863376],[121.45083184408762,31.228795599229805],[121.45083585362437,31.22880360399818],[121.45084487508203,31.228814618303296],[121.4508939942913,31.2288497017498],[121.45089599727156,31.228856703537943]]]}},{"id":"95","type":"Feature","properties":{"id":"B00154G2X1","name":"上海佛教居士林","type":"风景名胜;风景名胜;寺庙道观","addr":"上海市静安区常德路418号","结构":null,"面积":0.0,"时间":null,"装修":null,"价格":0.0,"gcj_lng":121.447061,"gcj_lat":31.228105,"wgs_lng":121.4424629,"wgs_lat":31.229985387,"bd_lng":121.45349292,"bd_lat":31.2344496791,"gcj_shape":"121.447179,31.228322;121.447292,31.227996;121.446922,31.22789;121.446848,31.228226;121.447179,31.228322","FID_1":8169,"id_1":"B00154G2X1","type1":"风景名胜","type2":"风景名胜","type3":"寺庙道观","__source_file__":"13-常用公服设施点/SHP/上海市_旅游景点-面.shp"},"geometry":{"type":"Polygon","coordinates":[[[121.44268409246635,31.229867496438978],[121.44231332475854,31.22976089562416],[121.44223914117623,31.23009661190605],[121.44257082543754,31.23019314596366],[121.44268409246635,31.229867496438978]]]}},{"id":"62","type":"Feature","properties":{"id":"B00155L9RD","name":"黄宾虹旧居","type":"风景名胜;风景名胜;纪念馆","addr":"上海市黄浦区自忠路420号(黄陂南路自忠路)","结构":null,"面积":0.0,"时间":null,"装修":null,"价格":0.0,"gcj_lng":121.472425,"gcj_lat":31.217954,"wgs_lng":121.467898876,"wgs_lat":31.2198986276,"bd_lng":121.478952503,"bd_lat":31.2239118735,"gcj_shape":"121.471692,31.217856;121.471667,31.217719;121.47167,31.217694;121.473119,31.218038;121.473166,31.218067;121.473147,31.218212;121.471692,31.217856","FID_1":5005,"id_1":"B00155L9RD","type1":"风景名胜","type2":"风景名胜","type3":"纪念馆","__source_file__":"13-常用公服设施点/SHP/上海市_旅游景点-面.shp"},"geometry":{"type":"Polygon","coordinates":[[[121.46860858075331,31.220145467388154],[121.46862765227888,31.220000586597447],[121.46858050922776,31.219971476924897],[121.46712704007149,31.219623877996447],[121.4671240287466,31.219648858326913],[121.46714909371565,31.21978585773087],[121.46860858075331,31.220145467388154]]]}},{"id":"202","type":"Feature","properties":{"id":"B00154QFBG","name":"中国共产党第一次全国代表大会会址纪念馆","type":"风景名胜;风景名胜;纪念馆","addr":"上海市黄浦区兴业路76号","结构":null,"面积":0.0,"时间":null,"装修":null,"价格":0.0,"gcj_lng":121.475234,"gcj_lat":31.220113,"wgs_lng":121.470716853,"wgs_lat":31.2220642675,"bd_lng":121.48177618,"bd_lat":31.2260187,"gcj_shape":"121.47493,31.220209;121.474923,31.220201;121.474919,31.220192;121.474918,31.220173;121.474919,31.220163;121.475019,31.219894;121.475023,31.219886;121.475031,31.219882;121.475511,31.220012;121.47552,31.220016;121.475531,31.220028;121.475538,31.220045;121.","FID_1":15913,"id_1":"B00154QFBG","type1":"风景名胜","type2":"风景名胜","type3":"纪念馆","__source_file__":"13-常用公服设施点/SHP/上海市_旅游景点-面.shp"},"geometry":{"type":"Polygon","coordinates":[[[121.47092269039535,31.222275564777373],[121.47093573211862,31.222273599348064],[121.47094175000001,31.22226561995864],[121.47100397053717,31.22201790213966],[121.47100698245814,31.221999918828963],[121.47100698424627,31.221983926577565],[121.47099996278858,31.221966915848732],[121.47098892821789,31.221954892006877],[121.4709799002037,31.221950869953158],[121.47049838147737,31.221819651634213],[121.47049035465527,31.221823627196315],[121.47048634213832,31.221831612295155],[121.47038600119973,31.222100221288677],[121.47038499643136,31.22211021413613],[121.4703859982195,31.22212920757962],[121.47039000954439,31.222138212944035],[121.47039703100205,31.222146229633335],[121.47092269039535,31.222275564777373]]]}},{"id":"8","type":"Feature","properties":{"id":"B00152D7EC","name":"大境阁","type":"风景名胜;风景名胜;寺庙道观","addr":"上海市黄浦区大境路259-269","结构":null,"面积":0.0,"时间":null,"装修":null,"价格":0.0,"gcj_lng":121.483338,"gcj_lat":31.224569,"wgs_lng":121.478847906,"wgs_lat":31.2265410972,"bd_lng":121.489916822,"bd_lat":31.2303394465,"gcj_shape":"121.483223,31.224331;121.483505,31.224408;121.483518,31.224415;121.483527,31.224426;121.483536,31.224438;121.48354,31.224453;121.483541,31.224471;121.48353,31.224752;121.483526,31.224767;121.48352,31.224779;121.483509,31.224787;121.483496,31.224791;121.4","FID_1":612,"id_1":"B00152D7EC","type1":"风景名胜","type2":"风景名胜","type3":"寺庙道观","__source_file__":"13-常用公服设施点/SHP/上海市_旅游景点-面.shp"},"geometry":{"type":"Polygon","coordinates":[[[121.47870089302732,31.22628604417134],[121.47868483759501,31.22628699708367],[121.47867279706384,31.226291961320875],[121.47866176010896,31.226300926750188],[121.47865674103545,31.226310907676698],[121.47865573745918,31.22632689694786],[121.47862560632896,31.226666653760923],[121.47862861467362,31.2266776573372],[121.47863563851547,31.226689671642312],[121.47865169215967,31.226698713365558],[121.47866874938012,31.226702758665084],[121.47897176861954,31.226751591938015],[121.47899083299257,31.226749646774294],[121.47900387650394,31.226745685517308],[121.47901491524698,31.226737719491958],[121.47902093670461,31.226725743333816],[121.47902495100976,31.226710760023117],[121.47903601270056,31.226429923637866],[121.47903501061441,31.226411929300312],[121.47903099869347,31.226396924531933],[121.47902197008324,31.226384903074262],[121.47901294028094,31.226373882808687],[121.47899989617346,31.226366850622178],[121.47871694726754,31.226289087682723],[121.47870089302732,31.22628604417134]]]}},{"id":"86","type":"Feature","properties":{"id":"B0015179D2","name":"白云观","type":"风景名胜;风景名胜;寺庙道观","addr":"上海市黄浦区大境路239号","结构":null,"面积":0.0,"时间":null,"装修":null,"价格":0.0,"gcj_lng":121.483763,"gcj_lat":31.224904,"wgs_lng":121.479274351,"wgs_lat":31.2268771712,"bd_lng":121.490343497,"bd_lat":31.2306683166,"gcj_shape":"121.483714,31.224628;121.483691,31.224642;121.483677,31.22466;121.483666,31.224678;121.483536,31.22506;121.48353,31.225091;121.483543,31.22511;121.483558,31.225122;121.483591,31.225126;121.483817,31.225181;121.483829,31.225182;121.483839,31.225181;121.48","FID_1":7839,"id_1":"B0015179D2","type1":"风景名胜","type2":"风景名胜","type3":"寺庙道观","__source_file__":"13-常用公服设施点/SHP/上海市_旅游景点-面.shp"},"geometry":{"type":"Polygon","coordinates":[[[121.47918650771715,31.226601269046782],[121.47917245884133,31.226619220170974],[121.47916141890623,31.22663718142796],[121.47903094504929,31.22701863485336],[121.47902492239953,31.227049602666852],[121.47903796412277,31.22706863008499],[121.47905301538276,31.227080667039864],[121.47908612624741,31.227084758831026],[121.47931288978289,31.227140375739097],[121.47932493091011,31.227141408521653],[121.47933496428871,31.22714043713188],[121.47933998097801,31.22713545382119],[121.4793449988594,31.227132469318395],[121.4793510203171,31.227122490776065],[121.4794835054989,31.226697064172754],[121.47948551265145,31.22669007370949],[121.47948551384354,31.226676079669954],[121.4794794953661,31.226666067152983],[121.47947447927285,31.226659057020193],[121.47946243874168,31.226653026025772],[121.47944136721614,31.226645968805308],[121.47924570918082,31.226580446668628],[121.47920958758738,31.226587339380266],[121.47918650771715,31.226601269046782]]]}},{"id":"232","type":"Feature","properties":{"id":"B00155IMGN","name":"四明公所","type":"风景名胜;风景名胜;风景名胜","addr":"上海市黄浦区人民路582号","结构":null,"面积":0.0,"时间":null,"装修":null,"价格":0.0,"gcj_lng":121.482668,"gcj_lat":31.225387,"wgs_lng":121.478175519,"wgs_lat":31.2273567803,"bd_lng":121.489244486,"bd_lat":31.2311674376,"gcj_shape":"121.482781,31.225616;121.482742,31.225088;121.482669,31.225069;121.4826,31.2253;121.482552,31.22529;121.482542,31.225331;121.482523,31.225422;121.482569,31.22544;121.482559,31.225615;121.482781,31.225616","FID_1":17920,"id_1":"B00155IMGN","type1":"风景名胜","type2":"风景名胜","type3":"风景名胜","__source_file__":"13-常用公服设施点/SHP/上海市_旅游景点-面.shp"},"geometry":{"type":"Polygon","coordinates":[[[121.47823425449562,31.22704437583733],[121.47816100892447,31.227025180334095],[121.4780917562008,31.227255877542504],[121.47804359646037,31.22724574641228],[121.47803355831337,31.22728669872857],[121.4780144867878,31.227377603361134],[121.47806063997173,31.22739572555065],[121.47805059169198,31.227570615282062],[121.47827334151839,31.227572241130833],[121.47823425449562,31.22704437583733]]]}},{"id":"266","type":"Feature","properties":{"id":"B0FFHTLRD0","name":"上海大世界","type":"风景名胜;风景名胜;风景名胜","addr":"上海市黄浦区西藏南路1号","结构":null,"面积":0.0,"时间":null,"装修":null,"价格":0.0,"gcj_lng":121.479242,"gcj_lat":31.228258,"wgs_lng":121.474737553,"wgs_lat":31.2302166554,"bd_lng":121.485804876,"bd_lat":31.2340934063,"gcj_shape":"121.478665,31.228363;121.479115,31.227649;121.479128,31.227634;121.479151,31.227623;121.479168,31.227623;121.479186,31.227625;121.479203,31.227631;121.479768,31.22791;121.479785,31.227927;121.479793,31.227941;121.479796,31.227964;121.479796,31.227979;121","FID_1":20084,"id_1":"B0FFHTLRD0","type1":"风景名胜","type2":"风景名胜","type3":"风景名胜","__source_file__":"13-常用公服设施点/SHP/上海市_旅游景点-面.shp"},"geometry":{"type":"Polygon","coordinates":[[[121.47412633800315,31.23034545116615],[121.47411931177709,31.230376417787554],[121.47412031177709,31.230417401098244],[121.47412833561896,31.23044141301918],[121.47414639224338,31.230471448185924],[121.47417046853734,31.230501499445914],[121.47419053231431,31.23051754772568],[121.47480953860665,31.230796115327834],[121.47483662741756,31.230799187449456],[121.47486371563242,31.230797263743405],[121.47487976987267,31.230793308446884],[121.47489582232473,31.2307863561306],[121.47490886702822,31.23077539725781],[121.47527611693764,31.23030162690163],[121.4750864994335,31.230204150064473],[121.47527213362693,31.229941781873706],[121.47527815568064,31.229925806311613],[121.47527815627669,31.22991081406021],[121.4752751485281,31.22988781584835],[121.47526712289809,31.229873799755097],[121.47525006925392,31.229856760416034],[121.47468322866246,31.229576332288744],[121.4746661726341,31.229570288181307],[121.47464811422154,31.229568239305493],[121.47463105819318,31.229568192813872],[121.47460798070716,31.22957912486458],[121.47459493600365,31.22959408135319],[121.47414339581967,31.230306516135215],[121.47412633800315,31.23034545116615]]]}},{"id":"70","type":"Feature","properties":{"id":"B00155LLO3","name":"上海基督教沐恩堂","type":"风景名胜;风景名胜;教堂","addr":"上海市黄浦区西藏中路316号","结构":null,"面积":0.0,"时间":null,"装修":null,"价格":0.0,"gcj_lng":121.475855,"gcj_lat":31.233273,"wgs_lng":121.471338775,"wgs_lat":31.2352198571,"bd_lng":121.482402364,"bd_lat":31.2391679276,"gcj_shape":"121.475928,31.23354;121.475912,31.233544;121.475893,31.233545;121.475871,31.233541;121.475423,31.233428;121.4754,31.233417;121.475388,31.233401;121.475386,31.233393;121.475385,31.233384;121.475613,31.233018;121.47564,31.233002;121.475668,31.232995;121.47","FID_1":5859,"id_1":"B00155LLO3","type1":"风景名胜","type2":"风景名胜","type3":"教堂","__source_file__":"13-常用公服设施点/SHP/上海市_旅游景点-面.shp"},"geometry":{"type":"Polygon","coordinates":[[[121.47140509630297,31.235459740973475],[121.47149740207482,31.235333045553205],[121.47150542830087,31.235327069395062],[121.47151546167947,31.235323098005296],[121.47152649565412,31.235321129595754],[121.47153853558925,31.235323159994124],[121.47168098620034,31.235376517621994],[121.47169703865242,31.235378560537335],[121.47170807262707,31.235378589743604],[121.4717201125622,31.23537162491035],[121.47181944694425,31.235178979557986],[121.47182546840192,31.235158004591945],[121.4718254707861,31.235137014128682],[121.47181443561934,31.235119993267055],[121.4717953772068,31.235107946775436],[121.47118844840051,31.23493140420723],[121.47116437210659,31.2349263422184],[121.47113628329564,31.234928266520505],[121.47110819210053,31.23493518843842],[121.47108110507773,31.234951108568197],[121.47085234452248,31.23531633132363],[121.47085334690667,31.23532533132363],[121.47085535227107,31.235333331919676],[121.47086738982199,31.235349357549673],[121.47089046134761,31.235360412385944],[121.47133988608493,31.235474593750006],[121.47136195623207,31.235478616399767],[121.47138101822091,31.235477668851857],[121.47139706948087,31.235473712959294],[121.47140509630297,31.235459740973475]]]}},{"id":"308","type":"Feature","properties":{"id":"B00157HXLZ","name":"建设大楼","type":"风景名胜;风景名胜;风景名胜","addr":"上海市黄浦区江西中路181号505座附近","结构":null,"面积":0.0,"时间":null,"装修":null,"价格":0.0,"gcj_lng":121.487211,"gcj_lat":31.234625,"wgs_lng":121.482733582,"wgs_lat":31.2366037401,"bd_lng":121.493803273,"bd_lat":31.2403440781,"gcj_shape":"121.487009,31.234881;121.487154,31.234352;121.487422,31.234408;121.487287,31.234815;121.487256,31.234856;121.48721,31.234875;121.487151,31.234889;121.487009,31.234881","FID_1":24127,"id_1":"B00157HXLZ","type1":"风景名胜","type2":"风景名胜","type3":"风景名胜","__source_file__":"13-常用公服设施点/SHP/上海市_旅游景点-面.shp"},"geometry":{"type":"Polygon","coordinates":[[[121.48265750119782,31.236853459419255],[121.48271670742992,31.236839634656917],[121.48276286717035,31.236820777708054],[121.48279397922707,31.236779884996423],[121.48292948109815,31.23637346316147],[121.48266055722621,31.236316713335043],[121.48251501065161,31.23684505231953],[121.48265750119782,31.236853459419255]]]}},{"id":"261","type":"Feature","properties":{"id":"B00155MF55","name":"豫园","type":"风景名胜;风景名胜;国家级景点","addr":"上海市黄浦区豫园老街279号","结构":null,"面积":0.0,"时间":null,"装修":null,"价格":0.0,"gcj_lng":121.491983,"gcj_lat":31.227029,"wgs_lng":121.487523178,"wgs_lat":31.2290253806,"bd_lng":121.498587684,"bd_lat":31.2327010852,"gcj_shape":"121.492235,31.226353;121.492496,31.226387;121.492657,31.225716;121.492948,31.225757;121.492885,31.226077;121.49292,31.226181;121.492862,31.226379;121.492786,31.226754;121.492583,31.227729;121.492555,31.227745;121.491504,31.227744;121.491535,31.227488;121","FID_1":19480,"id_1":"B00155MF55","type1":"风景名胜","type2":"风景名胜","type3":"国家级景点","__source_file__":"13-常用公服设施点/SHP/上海市_旅游景点-面.shp"},"geometry":{"type":"Polygon","coordinates":[[[121.48759843861964,31.228886525587086],[121.48753521212197,31.22892931816292],[121.48724519407463,31.228878488466265],[121.48705748239519,31.22946866473007],[121.48702635007285,31.22972445372963],[121.48808107178687,31.229728555555347],[121.4881091719227,31.229712646154404],[121.48818553919956,31.229347698403018],[121.48760902977357,31.22885046514331],[121.48759843861964,31.228886525587086]]]}},{"id":"138","type":"Feature","properties":{"id":"B0FFGEQZWW","name":"会德丰大楼","type":"风景名胜;风景名胜;风景名胜","addr":"上海市黄浦区延安东路110号","结构":null,"面积":0.0,"时间":null,"装修":null,"价格":0.0,"gcj_lng":121.489629,"gcj_lat":31.232668,"wgs_lng":121.485160306,"wgs_lat":31.2346547754,"bd_lng":121.496228401,"bd_lat":31.238360891,"gcj_shape":"121.489675,31.232891;121.489433,31.232816;121.489528,31.232588;121.489471,31.232523;121.489695,31.232442;121.48976,31.232512;121.489799,31.232587;121.489801,31.232666;121.489675,31.232891","FID_1":10739,"id_1":"B0FFGEQZWW","type1":"风景名胜","type2":"风景名胜","type3":"风景名胜","__source_file__":"13-常用公服设施点/SHP/上海市_旅游景点-面.shp"},"geometry":{"type":"Polygon","coordinates":[[[121.48531693303681,31.234639185539248],[121.48531493184473,31.234560215341567],[121.48527580190657,31.234485135471342],[121.48521057958125,31.234414978711122],[121.48498578743553,31.234495285509112],[121.48504298293878,31.23456042379189],[121.48494763007926,31.234788039937975],[121.48519047169685,31.23486371466256],[121.48531693303681,31.234639185539248]]]}},{"id":"75","type":"Feature","properties":{"id":"B0015585XA","name":"亚细亚大楼(延安东路)","type":"风景名胜;风景名胜;风景名胜","addr":"上海市黄浦区中山东一路1号","结构":null,"面积":0.0,"时间":null,"装修":null,"价格":0.0,"gcj_lng":121.491224,"gcj_lat":31.233444,"wgs_lng":121.486760919,"wgs_lat":31.2354351545,"bd_lng":121.497827036,"bd_lat":31.2391222321,"gcj_shape":"121.490926,31.233611;121.491095,31.233157;121.491473,31.233274;121.491503,31.233297;121.491505,31.23334;121.491363,31.233718;121.490926,31.233611","FID_1":6234,"id_1":"B0015585XA","type1":"风景名胜","type2":"风景名胜","type3":"风景名胜","__source_file__":"13-常用公服设施点/SHP/上海市_旅游景点-面.shp"},"geometry":{"type":"Polygon","coordinates":[[[121.48688434156227,31.235695289915085],[121.48702687561988,31.23531788119316],[121.48702487085151,31.23527489549828],[121.48699476713944,31.23525181801224],[121.48661544272423,31.235133758241652],[121.48644580733873,31.235587053714752],[121.48688434156227,31.235695289915085]]]}},{"id":"97","type":"Feature","properties":{"id":"B00155FXB3","name":"外滩","type":"风景名胜;风景名胜;风景名胜","addr":"上海市黄浦区中山东一路","结构":null,"面积":0.0,"时间":null,"装修":null,"价格":0.0,"gcj_lng":121.492156,"gcj_lat":31.233462,"wgs_lng":121.487696248,"wgs_lat":31.2354559224,"bd_lng":121.49876096,"bd_lat":31.2391327324,"gcj_shape":"121.497589,31.228845;121.497321,31.229085;121.497271,31.229121;121.497198,31.229171;121.497062,31.229221;121.496784,31.229447;121.496625,31.229531;121.496263,31.229904;121.49586,31.230155;121.495471,31.230468;121.49461,31.23116;121.493931,31.231741;121.4","FID_1":8398,"id_1":"B00155FXB3","type1":"风景名胜","type2":"风景名胜","type3":"风景名胜","__source_file__":"13-常用公服设施点/SHP/上海市_旅游景点-面.shp"},"geometry":{"type":"Polygon","coordinates":[[[121.49083363952448,31.232124600824356],[121.49029567733956,31.232651760232926],[121.49019030004216,31.232690429427144],[121.49010398830987,31.232736152265545],[121.48964632474421,31.23315960075665],[121.48872297198295,31.234060455419545],[121.48791003705026,31.234769730295184],[121.48769124311639,31.23500997689247],[121.48753768283271,31.235223426145552],[121.4872807446556,31.235598499889377],[121.48688328434179,31.23630001096535],[121.48650590985869,31.236864646018986],[121.48621785545255,31.237371571347232],[121.486069296957,31.237799940134046],[121.4860100686712,31.238037659396163],[121.48589259421824,31.238773981095314],[121.48577913585854,31.239488323656083],[121.48567168405532,31.240360614360817],[121.48565360716533,31.240524487402922],[121.48563351358604,31.24080730084038],[121.48566057795904,31.24115022454643],[121.48577491651344,31.24187623169899],[121.48584513705063,31.24216930441666],[121.48592536950875,31.242736284151086],[121.48594140765573,31.242959229314806],[121.48592332480526,31.24318907374669],[121.48590826222039,31.243310974206928],[121.48581389326763,31.243741505118372],[121.48571050404931,31.24406205867958],[121.48561915893843,31.2443526611166],[121.48561312257957,31.244535560384755],[121.48561913450052,31.244650527006158],[121.48566328232002,31.2447296199894],[121.48542744904708,31.24481689162064],[121.48573744921302,31.245799357728963],[121.48598331705665,31.24573710397911],[121.48598030871202,31.24569811232377],[121.48658043302154,31.24551095529938],[121.48659547951317,31.24557896841241],[121.48682227877353,31.24556265625001],[121.48681425541793,31.245505656250003],[121.48713840176295,31.245438624825475],[121.48749566359331,31.24540868996048],[121.48786094747734,31.24548073304176],[121.48747465405654,31.244651966526032],[121.48730609258081,31.2442856363163],[121.48719471111107,31.244139374055862],[121.48714855375479,31.2440762667675],[121.48703817109299,31.244016969936368],[121.48697394578744,31.244004785161977],[121.48688663822747,31.2440045300541],[121.4868083616619,31.24402229163551],[121.48677524960519,31.243969217725756],[121.48684249040795,31.24392743468666],[121.48694986949349,31.243905758935924],[121.48695388618279,31.243880782777794],[121.48700506738089,31.243858942518237],[121.48673417271517,31.24317545554829],[121.48655860706711,31.242582206996914],[121.48642417254923,31.242126019242285],[121.4862827487602,31.241268992420196],[121.48622158484746,31.240691074078555],[121.48621959676838,31.240458174214368],[121.48624473028279,31.23993148535061],[121.48628391088485,31.23943382688522],[121.48639034123039,31.23877243842888],[121.48649273938943,31.23830994864464],[121.48671256252955,31.237722861191756],[121.4868611174488,31.237359462602612],[121.48712508781244,31.23686446396065],[121.48738002598952,31.236403423595434],[121.48769619126033,31.235825617476465],[121.48794509903905,31.23547751095009],[121.48833452001381,31.234965893777847],[121.4885472960663,31.2347016412201],[121.48871788853646,31.234839083486563],[121.48911633454514,31.23443344604874],[121.48889556683733,31.234271869075783],[121.48946162021734,31.233726792517665],[121.49014309202195,31.23314807954788],[121.49100723080252,31.2324589632206],[121.49121823775428,31.232290460134447],[121.49095376434448,31.23201181399869],[121.49083363952448,31.232124600824356]]]}},{"id":"140","type":"Feature","properties":{"id":"B0FFG7HY0E","name":"万国博览建筑群","type":"风景名胜;风景名胜;风景名胜","addr":"上海市黄浦区中山东一路","结构":null,"面积":0.0,"时间":null,"装修":null,"价格":0.0,"gcj_lng":121.48927,"gcj_lat":31.237204,"wgs_lng":121.484799644,"wgs_lat":31.2391876349,"bd_lng":121.495867315,"bd_lat":31.2429001861,"gcj_shape":"121.486859,31.240535;121.487183,31.239642;121.487473,31.238961;121.48769,31.238491;121.487721,31.238452;121.487748,31.238438;121.487777,31.238434;121.48789,31.238184;121.488166,31.237699;121.488296,31.237451;121.488381,31.237102;121.488545,31.2366;121.48","FID_1":10788,"id_1":"B0FFG7HY0E","type1":"风景名胜","type2":"风景名胜","type3":"风景名胜","__source_file__":"13-常用公服设施点/SHP/上海市_旅游景点-面.shp"},"geometry":{"type":"Polygon","coordinates":[[[121.48234292644312,31.242578955858235],[121.48235095088101,31.242610963606836],[121.48238305876544,31.24263004764939],[121.4824332316189,31.242635189508434],[121.48256669176672,31.242648568593985],[121.48376784859468,31.242667031623842],[121.48436492641258,31.24264877327156],[121.48500114608956,31.242630632936482],[121.48554003198052,31.242608213651664],[121.48557615953447,31.242602322132115],[121.48561630377768,31.242550463991172],[121.48565042835138,31.242492589756964],[121.48565745576953,31.24244862909603],[121.48544781263541,31.2413954926014],[121.48537158613777,31.24093747829629],[121.48549508920098,31.240099217393876],[121.48559852669905,31.239206924304966],[121.48569593081854,31.238480538232807],[121.48575617340948,31.2381118833437],[121.4858073754692,31.237832159313207],[121.48584953878594,31.237654363161084],[121.4859187950859,31.237511631381985],[121.48600711873912,31.237331971724508],[121.48616871061324,31.23704457551956],[121.48634836507225,31.236763229978564],[121.48657719834517,31.236428053714754],[121.48680804115489,31.23606389890862],[121.48705898171616,31.235391941989903],[121.48707103059198,31.235312014707567],[121.48704293880084,31.235225970600133],[121.48702889230918,31.235195943181992],[121.48598123973656,31.234850029706955],[121.4858979584026,31.234741836587908],[121.4855336941881,31.23460683344173],[121.48541025967026,31.234635459720614],[121.48520750788117,31.235134656250004],[121.48518241447638,31.235199535848615],[121.48493349537276,31.235786542835235],[121.48489334874532,31.23585639382363],[121.4846434063959,31.236690285773278],[121.4844386416683,31.237293414949413],[121.48431617913627,31.237704871355064],[121.48419572614097,31.238095344450002],[121.48406623914917,31.2385287734375],[121.484056200428,31.238567723369602],[121.48389158530807,31.239069017650603],[121.4838062598667,31.23941761353111],[121.48367578541374,31.239665122388836],[121.48339878286362,31.240149100765237],[121.48328536861133,31.240398660286914],[121.48325626847553,31.24040257445622],[121.48322917370416,31.24041648922158],[121.48319806164741,31.240455381933216],[121.48298026771354,31.240924540315632],[121.4826892031746,31.241604392330174],[121.48236400512124,31.242496053609848],[121.48234292644312,31.242578955858235]]]}},{"id":"274","type":"Feature","properties":{"id":"B001533722","name":"滨江大道","type":"风景名胜;风景名胜;风景名胜","addr":"上海市浦东新区滨江大道2967号","结构":null,"面积":0.0,"时间":null,"装修":null,"价格":0.0,"gcj_lng":121.495983,"gcj_lat":31.2367,"wgs_lng":121.491536719,"wgs_lat":31.2387038913,"bd_lng":121.502592835,"bd_lat":31.2423482211,"gcj_shape":"121.495387,31.239028;121.495425,31.239125;121.495462,31.239209;121.495494,31.239342;121.495586,31.23933;121.495929,31.239968;121.496364,31.239885;121.496135,31.239683;121.495995,31.239573;121.495907,31.239449;121.495822,31.23928;121.495714,31.238803;121.","FID_1":20579,"id_1":"B001533722","type1":"风景名胜","type2":"风景名胜","type3":"风景名胜","__source_file__":"13-常用公服设施点/SHP/上海市_旅游景点-面.shp"},"geometry":{"type":"Polygon","coordinates":[[[121.49096032481194,31.241111874341968],[121.49099744878961,31.24119594825173],[121.49102955250169,31.241328982822424],[121.49112188390353,31.241317261772156],[121.49146605811501,31.241955997293474],[121.49190262452507,31.241874334821702],[121.49167282045839,31.241671741755482],[121.491532327528,31.241561373994827],[121.4914440223522,31.241437166570662],[121.49135873386575,31.241267990140912],[121.49125038637065,31.240790883448604],[121.49120223318673,31.240574837553027],[121.49116411814975,31.240336832188603],[121.49117517537022,31.240125960934634],[121.49126652465343,31.23984436028576],[121.49138497347641,31.239548847255705],[121.49143315705871,31.2394150499115],[121.49145022399341,31.239342135742184],[121.49156365416147,31.23905760185051],[121.49167908808326,31.238804059614182],[121.49183767697713,31.23852865804482],[121.49199023666476,31.238377181969646],[121.49209563899612,31.238067636753087],[121.49224419360976,31.2378051875],[121.49233652710532,31.23777848671532],[121.49244490857507,31.237849777585986],[121.49252218573666,31.237834015408524],[121.49265467151452,31.23771146661568],[121.49297384393789,31.23736657705021],[121.49328397940636,31.23708463145637],[121.49374065191267,31.236698172832487],[121.49404978559303,31.236420225450516],[121.49414601005294,31.236334743674725],[121.49383861936693,31.235834034503693],[121.49340147531697,31.23621238009072],[121.49276414358329,31.236779217634208],[121.49262565482522,31.236690845701226],[121.4925313162708,31.236704557214743],[121.49167216676139,31.2375865936718],[121.49159084489631,31.237956183591848],[121.49167513815118,31.238052391016012],[121.49149547177126,31.238334727020263],[121.49141015765476,31.238436427208896],[121.49134089837455,31.23859314885521],[121.49130375770761,31.23867200341987],[121.49124152405739,31.23881875069619],[121.4911522010002,31.238863465785982],[121.49103277303888,31.238880102197648],[121.49097656919102,31.238932910270687],[121.49092738501263,31.23901972490024],[121.49085410904314,31.239188431049346],[121.49081194572639,31.23934723435402],[121.49076073591806,31.239665936330802],[121.49075569777108,31.239908812353143],[121.49075767094898,31.240306636519435],[121.49081484320641,31.240667643075945],[121.49089510785106,31.24092276705361],[121.49092219606592,31.241014805200585],[121.49096032481194,31.241111874341968]]]}},{"id":"265","type":"Feature","properties":{"id":"B0FFFZXPUI","name":"大清银行","type":"风景名胜;风景名胜;风景名胜","addr":"上海市黄浦区四川中路268-270号","结构":null,"面积":0.0,"时间":null,"装修":null,"价格":0.0,"gcj_lng":121.488896,"gcj_lat":31.236858,"wgs_lng":121.484424347,"wgs_lat":31.2388406864,"bd_lng":121.495492447,"bd_lat":31.2425580805,"gcj_shape":"121.488505,31.236894;121.489206,31.237069;121.489234,31.237054;121.489249,31.237039;121.489306,31.236832;121.489288,31.236815;121.48861,31.236657;121.488576,31.236665;121.488542,31.236691;121.488464,31.236877;121.488505,31.236894","FID_1":20049,"id_1":"B0FFFZXPUI","type1":"风景名胜","type2":"风景名胜","type3":"风景名胜","__source_file__":"13-常用公服设施点/SHP/上海市_旅游景点-面.shp"},"geometry":{"type":"Polygon","coordinates":[[[121.48471946957683,31.23903843700314],[121.48474757030868,31.239023525814062],[121.48476262395286,31.239008577074053],[121.48481984091379,31.2388018369503],[121.48480177892492,31.238784791650772],[121.48412142334936,31.238624886686324],[121.4840873041401,31.238632784166334],[121.4840531825466,31.23865867449379],[121.48397489406014,31.23884436216545],[121.4840160371113,31.238861474222183],[121.48471946957683,31.23903843700314]]]}},{"id":"38","type":"Feature","properties":{"id":"B00150F6D6","name":"东方明珠广播电视塔","type":"风景名胜;风景名胜;国家级景点","addr":"上海市浦东新区世纪大道1号(近二号线陆家嘴站)","结构":null,"面积":0.0,"时间":null,"装修":null,"价格":0.0,"gcj_lng":121.499717,"gcj_lat":31.239702,"wgs_lng":121.495283946,"wgs_lat":31.2417157463,"bd_lng":121.506327632,"bd_lat":31.2453418921,"gcj_shape":"121.497967,31.239862;121.498585,31.2394;121.499288,31.238943;121.499772,31.238645;121.499784,31.238639;121.499811,31.238638;121.499823,31.238638;121.499838,31.238647;121.499859,31.238669;121.499876,31.23867;121.499892,31.238666;121.500026,31.238595;121.5","FID_1":2705,"id_1":"B00150F6D6","type1":"风景名胜","type2":"风景名胜","type3":"国家级景点","__source_file__":"13-常用公服设施点/SHP/上海市_旅游景点-面.shp"},"geometry":{"type":"Polygon","coordinates":[[[121.49349633465005,31.241871093656542],[121.4934842893505,31.241887050741198],[121.49348428577423,31.24192603285981],[121.49350234895513,31.241962072198874],[121.49352241809655,31.2419911174984],[121.49356155637932,31.242019222402583],[121.49359367082022,31.242030313001642],[121.49420485831072,31.242112104717254],[121.49424199063301,31.242124210813515],[121.49426507169531,31.242139272802355],[121.49428112831971,31.242154315121653],[121.49472568876935,31.242597446417804],[121.49477285625841,31.242640568607328],[121.49492439806461,31.242673007893565],[121.49503378966713,31.242692325586326],[121.49514920451546,31.242699668909076],[121.49528670042608,31.24269308375741],[121.49536598652838,31.242677329328536],[121.49568815597152,31.242581339031222],[121.49570120246315,31.242584375986098],[121.4957864992943,31.242695582218175],[121.49579653624914,31.2426976120205],[121.49588184619333,31.24266488143349],[121.49589489387702,31.242664921964654],[121.4959390488491,31.242694041173934],[121.49595410368536,31.24269908408928],[121.49602938025092,31.242647332044612],[121.49610666277695,31.242593588344576],[121.49618695960808,31.24251186610222],[121.49626625345898,31.242403153992647],[121.49632949128153,31.242293393007273],[121.49635157651615,31.24223348658657],[121.4963515771122,31.242213495527267],[121.49634455446244,31.242200480030057],[121.496293369688,31.242189331018444],[121.49628534107782,31.242180311944956],[121.496285343462,31.242158321481696],[121.4963094346571,31.24210241863728],[121.49638773208429,31.241941726793286],[121.49640680599401,31.24187181500816],[121.49640681076241,31.241815841234207],[121.49640682149123,31.241696894878384],[121.49637873685265,31.24149590083885],[121.49638376009845,31.241440940773963],[121.49639078692056,31.241422969980235],[121.49640483937264,31.241395024816512],[121.49642692043494,31.241372101110457],[121.49642918718894,31.241370757689218],[121.49621520745299,31.240746997286774],[121.49621320279502,31.240745743482584],[121.49617807762527,31.240746637386323],[121.49610380940439,31.240745414464946],[121.49601950661278,31.240741164125446],[121.49593319666863,31.240731909017562],[121.49586394811725,31.240715709342005],[121.4957846649952,31.240685484632493],[121.49571240750313,31.240653281976705],[121.4956190749092,31.24060002567673],[121.4956060284176,31.24059399110604],[121.49559398550221,31.240592955343253],[121.49557792828176,31.24059590527535],[121.49544343713953,31.240666468969344],[121.49542737872699,31.240670420093537],[121.49541031793021,31.240669368833544],[121.49538924402046,31.240647316381455],[121.49537418918419,31.2406382758503],[121.49536214686489,31.24063823829937],[121.49533504970933,31.2406391578331],[121.49532300560188,31.240645118494044],[121.49483723176766,31.24094152824211],[121.49413165625096,31.241396209025382],[121.49351138948632,31.24185614610863],[121.49349633465005,31.241871093656542]]]}},{"id":"213","type":"Feature","properties":{"id":"B00156O17Z","name":"海关图书馆旧址","type":"风景名胜;风景名胜;纪念馆","addr":"上海市静安区新闸路1708号","结构":null,"面积":0.0,"时间":null,"装修":null,"价格":0.0,"gcj_lng":121.44488,"gcj_lat":31.228814,"wgs_lng":121.440276918,"wgs_lat":31.2306899428,"bd_lng":121.451308687,"bd_lat":31.2351714769,"gcj_shape":"121.444842,31.228643;121.444698,31.228902;121.444931,31.228972;121.445057,31.228739;121.444842,31.228643","FID_1":16528,"id_1":"B00156O17Z","type1":"风景名胜","type2":"风景名胜","type3":"纪念馆","__source_file__":"13-常用公服设施点/SHP/上海市_旅游景点-面.shp"},"geometry":{"type":"Polygon","coordinates":[[[121.44008470182229,31.230768639852528],[121.44031815958596,31.230838995096207],[121.44044443138316,31.23060631219292],[121.44022901057436,31.23050999867249],[121.44008470182229,31.230768639852528]]]}},{"id":"206","type":"Feature","properties":{"id":"B00155L12A","name":"上海市基督教怀恩堂","type":"风景名胜;风景名胜;教堂","addr":"上海市静安区陕西北路375号(近北京西路)","结构":null,"面积":0.0,"时间":null,"装修":null,"价格":0.0,"gcj_lng":121.453139,"gcj_lat":31.229221,"wgs_lng":121.448555617,"wgs_lat":31.2311132622,"bd_lng":121.459585976,"bd_lat":31.2355074605,"gcj_shape":"121.452976,31.229073;121.452876,31.229322;121.452865,31.229354;121.452864,31.229364;121.452866,31.229375;121.452873,31.229387;121.452886,31.229395;121.453078,31.229453;121.453097,31.229458;121.453114,31.229458;121.453145,31.22945;121.453228,31.229412;121","FID_1":16162,"id_1":"B00155L12A","type1":"风景名胜","type2":"风景名胜","type3":"教堂","__source_file__":"13-常用公服设施点/SHP/上海市_旅游景点-面.shp"},"geometry":{"type":"Polygon","coordinates":[[[121.44828047592736,31.23120333120537],[121.44826944731713,31.23123529544258],[121.44826844314481,31.231245288886072],[121.44827044731713,31.231256288290027],[121.44827746341036,31.23126829603863],[121.44829049321272,31.231276318688394],[121.44848294322779,31.231334672143937],[121.44850198793125,31.231339707310674],[121.44851902786638,31.23133974009323],[121.44855010296826,31.231331805658336],[121.44863330323983,31.231293989240648],[121.44869545344352,31.231259127523415],[121.44871049039841,31.2312441644783],[121.44872051543237,31.231231191896434],[121.44882878961371,31.231052489919662],[121.44882879020976,31.231038495284082],[121.4488287919979,31.23102550184059],[121.44882077292445,31.231017489919658],[121.44880072583676,31.231002455945017],[121.44871552735327,31.230951311105727],[121.44870349993514,31.230945288455963],[121.44869247490121,31.230935272958753],[121.44867242960166,31.23091024434853],[121.44864035509589,31.23088219249248],[121.44863233781052,31.230867183551787],[121.4486333413868,31.230844196664812],[121.44863133840657,31.23082720083714],[121.44862432290937,31.2308181901083],[121.44861229489518,31.23081116924667],[121.44857821383286,31.230801107257843],[121.448562176878,31.230801075071334],[121.44855115065195,31.230801053613668],[121.44854212919427,31.23080603215599],[121.4485371154852,31.230816018446923],[121.44849500521661,31.230937879568096],[121.44848999329568,31.230944865262984],[121.44848197422218,31.230948848573682],[121.44847195038037,31.230949827116014],[121.44845791700172,31.23094680088996],[121.44842484070779,31.230936741285326],[121.44841080673314,31.230933713271142],[121.44840078348733,31.230933693601607],[121.44839476918222,31.230935681680684],[121.44839075964546,31.230938672143942],[121.44838073341944,31.23095464591789],[121.44828047592736,31.23120333120537]]]}},{"id":"112","type":"Feature","properties":{"id":"B00156O42L","name":"许崇智住宅","type":"风景名胜;风景名胜;纪念馆","addr":"上海市静安区陕西北路380号","结构":null,"面积":0.0,"时间":null,"装修":null,"价格":0.0,"gcj_lng":121.453556,"gcj_lat":31.229464,"wgs_lng":121.448973669,"wgs_lat":31.2313570478,"bd_lng":121.460004299,"bd_lat":31.2357453456,"gcj_shape":"121.453414,31.229585;121.453532,31.229636;121.453632,31.229475;121.4537,31.229504;121.453766,31.229404;121.453628,31.229335;121.453571,31.229303;121.453546,31.229307;121.453373,31.229532;121.453375,31.22956;121.453414,31.229585","FID_1":9758,"id_1":"B00156O42L","type1":"风景名胜","type2":"风景名胜","type3":"纪念馆","__source_file__":"13-常用公服设施点/SHP/上海市_旅游景点-面.shp"},"geometry":{"type":"Polygon","coordinates":[[[121.44893800895883,31.23151849230385],[121.44903826168252,31.23135776648521],[121.44910642380717,31.231386890462872],[121.44917258950807,31.23128706808472],[121.44903426466274,31.231217823109624],[121.44897713174439,31.23118572476196],[121.44895207094766,31.231189671117775],[121.44877863821793,31.23141422169876],[121.44878064060211,31.231442214546203],[121.4488197317972,31.231467279515265],[121.44893800895883,31.23151849230385]]]}},{"id":"290","type":"Feature","properties":{"id":"B00154QFXR","name":"中国劳动组合书记部旧址陈列馆","type":"风景名胜;风景名胜;纪念馆","addr":"上海市静安区成都北路893弄7号","结构":null,"面积":0.0,"时间":null,"装修":null,"价格":0.0,"gcj_lng":121.464912,"gcj_lat":31.237278,"wgs_lng":121.460360792,"wgs_lat":31.2391940609,"bd_lng":121.471405309,"bd_lat":31.2433785571,"gcj_shape":"121.463955,31.237762;121.463887,31.237949;121.463887,31.237958;121.463891,31.237969;121.463903,31.237975;121.463911,31.237979;121.464022,31.23801;121.464037,31.238012;121.464052,31.238012;121.464064,31.238009;121.464264,31.237649;121.464265,31.237633;121","FID_1":22718,"id_1":"B00154QFXR","type1":"风景名胜","type2":"风景名胜","type3":"纪念馆","__source_file__":"13-常用公服设施点/SHP/上海市_旅游景点-面.shp"},"geometry":{"type":"Polygon","coordinates":[[[121.4593193142767,31.239850293396948],[121.45931931368065,31.239859289224626],[121.45932332321738,31.239870293992993],[121.45933535659597,31.239876317834856],[121.4593433786497,31.239880336312297],[121.45945468799783,31.23991158247948],[121.45946973091316,31.23991361824227],[121.4594847738285,31.239913654005058],[121.4594968072071,31.23991068261528],[121.45969740325356,31.239551319192884],[121.45969840802192,31.23953532872963],[121.45969339610099,31.239519323961254],[121.45968336749075,31.23950930488777],[121.45966832695962,31.23950027389335],[121.45964927212333,31.23949922859382],[121.459634229208,31.239506190446853],[121.45962119106102,31.239517154684066],[121.45954095502663,31.23964790672875],[121.45952691330339,31.239659867389676],[121.45951187158013,31.23966882805062],[121.45949682866478,31.23966879228783],[121.45948078336525,31.239665756525035],[121.45944668859387,31.239649683211326],[121.45942362541294,31.239641633143428],[121.45940958547783,31.239641599168777],[121.45939855448341,31.239646570558556],[121.45939153302572,31.239653551485063],[121.45938752229691,31.239663538372046],[121.4593193142767,31.239850293396948]]]}},{"id":"56","type":"Feature","properties":{"id":"B00155R1B1","name":"玉佛禅寺(暂停营业)","type":"风景名胜;风景名胜;寺庙道观","addr":"上海市普陀区安远路170号","结构":null,"面积":0.0,"时间":null,"装修":null,"价格":0.0,"gcj_lng":121.445125,"gcj_lat":31.241445,"wgs_lng":121.440521364,"wgs_lat":31.2433156143,"bd_lng":121.451550624,"bd_lat":31.2478004107,"gcj_shape":"121.445302,31.241973;121.444803,31.241689;121.444484,31.241585;121.444468,31.241574;121.444466,31.241556;121.444468,31.241537;121.444482,31.241513;121.444824,31.241045;121.444928,31.240902;121.444945,31.240896;121.444962,31.240894;121.444985,31.240903;12","FID_1":4530,"id_1":"B00155R1B1","type1":"风景名胜","type2":"风景名胜","type3":"寺庙道观","__source_file__":"13-常用公服设施点/SHP/上海市_旅游景点-面.shp"},"geometry":{"type":"Polygon","coordinates":[[[121.44071282043554,31.243841730217937],[121.44072384308531,31.243835750483512],[121.4407438854046,31.243816792802818],[121.44113572106173,31.243332673759458],[121.44113572225382,31.243306684488296],[121.44113372046569,31.243276695813172],[121.44112670794871,31.24325269402504],[121.44111067933846,31.243224679719923],[121.44037122975351,31.242764642599106],[121.440348184454,31.24275560922051],[121.44033114988326,31.242757579418182],[121.44031411531259,31.242763547231675],[121.44020989596748,31.24290631119728],[121.43986717653944,31.243373533356674],[121.43985314733317,31.24339749818993],[121.4398511425648,31.243416486269],[121.43985314375689,31.243434482692717],[121.43986917415525,31.24344550355434],[121.44018879821587,31.243549984563828],[121.44068877334789,31.243834692667008],[121.44071282043554,31.243841730217937]]]}},{"id":"35","type":"Feature","properties":{"id":"B001529F5F","name":"沪西清真寺","type":"风景名胜;风景名胜;回教寺","addr":"上海市普陀区常德路1328弄3号(近长寿路)","结构":null,"面积":0.0,"时间":null,"装修":null,"价格":0.0,"gcj_lng":121.43465,"gcj_lat":31.242642,"wgs_lng":121.430025619,"wgs_lat":31.2444948264,"bd_lng":121.441075204,"bd_lat":31.2489960344,"gcj_shape":"121.434576,31.242843;121.434589,31.242859;121.434601,31.242864;121.434615,31.242865;121.434623,31.242863;121.434888,31.242731;121.434908,31.242723;121.434923,31.242712;121.434931,31.242699;121.434927,31.242685;121.434817,31.242528;121.434793,31.242514;12","FID_1":2492,"id_1":"B001529F5F","type1":"风景名胜","type2":"风景名胜","type3":"回教寺","__source_file__":"13-常用公服设施点/SHP/上海市_旅游景点-面.shp"},"geometry":{"type":"Polygon","coordinates":[[[121.42995694781683,31.244704649480823],[121.42996896331405,31.24470966259385],[121.42998298536776,31.2447106786871],[121.4299909972887,31.24470868941593],[121.43025640200426,31.244577077442166],[121.4302764335947,31.244569105456357],[121.43029145564844,31.244558128702167],[121.43029946876146,31.24454514419937],[121.43029546518517,31.244531145391463],[121.43018531378937,31.244374079826354],[121.43016128041077,31.244360055984494],[121.43014125001243,31.244353035122877],[121.43012021961405,31.244350009492877],[121.4301011921959,31.244349986843112],[121.43007315047262,31.244351949888227],[121.43005011470984,31.244352921278008],[121.43003208907986,31.244349901608473],[121.4300140628538,31.24433788372707],[121.42998101934242,31.244288866441728],[121.42996699788475,31.244279852136614],[121.42994396450615,31.244279823526384],[121.42992393470382,31.24428679610824],[121.42976869986151,31.244365570802685],[121.42975868436432,31.244372555305482],[121.4297546766157,31.244384545172693],[121.42975467601966,31.24439653980827],[121.42975868078804,31.244405539808277],[121.42994392874337,31.24468863994408],[121.42995694781683,31.244704649480823]]]}},{"id":"122","type":"Feature","properties":{"id":"B00155HNGD","name":"顾正红纪念馆","type":"风景名胜;风景名胜;纪念馆","addr":"上海市普陀区澳门路300号(陕西北路宜昌路)","结构":null,"面积":0.0,"时间":null,"装修":null,"价格":0.0,"gcj_lng":121.442528,"gcj_lat":31.247088,"wgs_lng":121.437918269,"wgs_lat":31.2489513931,"bd_lng":121.448947198,"bd_lat":31.2534522589,"gcj_shape":"121.442435,31.246998;121.442419,31.247166;121.44242,31.247175;121.442422,31.247182;121.442428,31.247189;121.442442,31.247195;121.442477,31.247201;121.442583,31.247207;121.442593,31.247207;121.442603,31.247204;121.442608,31.247199;121.442612,31.247193;121","FID_1":10046,"id_1":"B00155HNGD","type1":"风景名胜","type2":"风景名胜","type3":"纪念馆","__source_file__":"13-常用公服设施点/SHP/上海市_旅游景点-面.shp"},"geometry":{"type":"Polygon","coordinates":[[[121.43779971274759,31.249020687929153],[121.43780071393968,31.249029684352873],[121.43780271751595,31.249036685544972],[121.43780872764877,31.24904369090938],[121.4378227538748,31.249049709982877],[121.43785782003596,31.249055761838918],[121.43796401792335,31.249061926347736],[121.43797403699685,31.249061943037034],[121.43798405487823,31.249058958534242],[121.4379890656071,31.24905396926308],[121.43799307395173,31.24904797760773],[121.43799908706472,31.24903599310494],[121.4380030966015,31.24900301456261],[121.43802014130496,31.248862103373533],[121.438020141901,31.24885110754586],[121.43801913951683,31.248845109930045],[121.43801613474847,31.24884010754586],[121.43800912282754,31.248837098009112],[121.4379950966015,31.248834076551447],[121.43784681765177,31.24882484766961],[121.43783379380992,31.248828826211934],[121.43782277235223,31.248831807138444],[121.43781776281548,31.24883979521752],[121.43781575804712,31.248852788064966],[121.43779971274759,31.249020687929153]]]}},{"id":"188","type":"Feature","properties":{"id":"B00155FV88","name":"世博钟楼","type":"风景名胜;风景名胜;风景名胜","addr":"上海市静安区秣陵路303号","结构":null,"面积":0.0,"时间":null,"装修":null,"价格":0.0,"gcj_lng":121.454746,"gcj_lat":31.24792,"wgs_lng":121.450165175,"wgs_lat":31.2498072563,"bd_lng":121.461190288,"bd_lat":31.254183994,"gcj_shape":"121.454625,31.248103;121.454509,31.247876;121.454506,31.247857;121.454517,31.247843;121.454521,31.247838;121.454829,31.247716;121.454844,31.247716;121.454855,31.247722;121.454863,31.247729;121.454985,31.24797;121.454983,31.247986;121.454978,31.247996;121","FID_1":14980,"id_1":"B00155FV88","type1":"风景名胜","type2":"风景名胜","type3":"风景名胜","__source_file__":"13-常用公服设施点/SHP/上海市_旅游景点-面.shp"},"geometry":{"type":"Polygon","coordinates":[[[121.45004307349777,31.24999536137009],[121.45005510330009,31.24999938401985],[121.45006713191032,31.249999407861708],[121.45008317065337,31.24999644183636],[121.45038291451931,31.249878108216286],[121.45038592107582,31.24987311596489],[121.45039093538094,31.249863130270008],[121.45039294074535,31.24984714159489],[121.45027066239166,31.249605997947693],[121.45026264451027,31.249598984834677],[121.45025161828423,31.249592965761188],[121.45023658013724,31.249592934766774],[121.44992781719779,31.24971425050545],[121.44992380766104,31.24971924096871],[121.4499127790508,31.24973321235848],[121.44991578381922,31.249752209974297],[121.45003204846384,31.24997934587288],[121.45004307349777,31.24999536137009]]]}},{"id":"18","type":"Feature","properties":{"id":"B001517881","name":"上海市基督教普安堂","type":"风景名胜;风景名胜;教堂","addr":"上海市普陀区镇坪路152号(近中山北路)","结构":null,"面积":0.0,"时间":null,"装修":null,"价格":0.0,"gcj_lng":121.429576,"gcj_lat":31.249743,"wgs_lng":121.424942949,"wgs_lat":31.2515859344,"bd_lng":121.43600578,"bd_lat":31.2560569122,"gcj_shape":"121.429692,31.249955;121.42984,31.249789;121.429479,31.249523;121.42931,31.249716;121.429692,31.249955","FID_1":1284,"id_1":"B001517881","type1":"风景名胜","type2":"风景名胜","type3":"教堂","__source_file__":"13-常用公服设施点/SHP/上海市_旅游景点-面.shp"},"geometry":{"type":"Polygon","coordinates":[[[121.4252009073162,31.251626207078928],[121.42483949008371,31.25135995912361],[121.4246702707386,31.25155270401573],[121.42505271181298,31.251791982965464],[121.4252009073162,31.251626207078928]]]}},{"id":"207","type":"Feature","properties":{"id":"B00155KM9A","name":"怡和洋行","type":"风景名胜;风景名胜;风景名胜","addr":"上海市黄浦区中山东一路27号(北京东路口)","结构":null,"面积":0.0,"时间":null,"装修":null,"价格":0.0,"gcj_lng":121.489782,"gcj_lat":31.240397,"wgs_lng":121.48531319,"wgs_lat":31.2423807003,"bd_lng":121.496379194,"bd_lat":31.2460877216,"gcj_shape":"121.48955,31.240656;121.490015,31.240635;121.490066,31.240584;121.49001,31.240131;121.489496,31.240171;121.48955,31.240656","FID_1":16236,"id_1":"B00155KM9A","type1":"风景名胜","type2":"风景名胜","type3":"风景名胜","__source_file__":"13-常用公服设施点/SHP/上海市_旅游景点-面.shp"},"geometry":{"type":"Polygon","coordinates":[[[121.4855310009861,31.242605189809808],[121.48558218456839,31.24255436147118],[121.48552602602004,31.242101403194436],[121.48501021999931,31.242139880891806],[121.48506436662672,31.242624820095063],[121.4855310009861,31.242605189809808]]]}},{"id":"13","type":"Feature","properties":{"id":"B00155QL38","name":"安培洋行","type":"风景名胜;风景名胜;风景名胜","addr":"上海市黄浦区圆明园路97号·外滩源","结构":null,"面积":0.0,"时间":null,"装修":null,"价格":0.0,"gcj_lng":121.488105,"gcj_lat":31.241069,"wgs_lng":121.483630187,"wgs_lat":31.2430474381,"bd_lng":121.494697332,"bd_lat":31.2467771363,"gcj_shape":"121.488239,31.240968;121.487992,31.240956;121.487977,31.241171;121.488211,31.241186;121.488239,31.240968","FID_1":1011,"id_1":"B00155QL38","type1":"风景名胜","type2":"风景名胜","type3":"风景名胜","__source_file__":"13-常用公服设施点/SHP/上海市_旅游景点-面.shp"},"geometry":{"type":"Polygon","coordinates":[[[121.48350090088081,31.242920143514638],[121.48348583054732,31.24313500403977],[121.48372064236258,31.243150677572253],[121.4837487591877,31.24293285638619],[121.48350090088081,31.242920143514638]]]}},{"id":"304","type":"Feature","properties":{"id":"B00155QPRT","name":"女青年会大楼","type":"风景名胜;风景名胜;风景名胜","addr":"上海市黄浦区圆明园路133号","结构":null,"面积":0.0,"时间":null,"装修":null,"价格":0.0,"gcj_lng":121.488065,"gcj_lat":31.241744,"wgs_lng":121.483589988,"wgs_lat":31.2437220151,"bd_lng":121.494656834,"bd_lat":31.2474524834,"gcj_shape":"121.487917,31.241848;121.488168,31.241883;121.488218,31.241641;121.487955,31.241606;121.487917,31.241848","FID_1":23691,"id_1":"B00155QPRT","type1":"风景名胜","type2":"风景名胜","type3":"风景名胜","__source_file__":"13-常用公服设施点/SHP/上海市_旅游景点-面.shp"},"geometry":{"type":"Polygon","coordinates":[[[121.48367743255423,31.24384723888207],[121.48372762805747,31.243605491605763],[121.48346371551038,31.24356974475957],[121.48342556232643,31.243811526010518],[121.48367743255423,31.24384723888207]]]}},{"id":"196","type":"Feature","properties":{"id":"B001557POD","name":"上海市人民英雄纪念塔","type":"风景名胜;风景名胜;风景名胜","addr":"上海市黄浦区中山东一路475号黄浦公园(近黄浦公园)","结构":null,"面积":0.0,"时间":null,"装修":null,"价格":0.0,"gcj_lng":121.491409,"gcj_lat":31.242287,"wgs_lng":121.486945826,"wgs_lat":31.244274679,"bd_lng":121.4980089,"bd_lat":31.2479627675,"gcj_shape":"121.491298,31.242106;121.491351,31.242088;121.491409,31.242079;121.491455,31.242081;121.491502,31.242093;121.491537,31.242109;121.491579,31.24214;121.491612,31.242181;121.491625,31.242211;121.491638,31.242249;121.491641,31.242278;121.491643,31.242296;121","FID_1":15439,"id_1":"B001557POD","type1":"风景名胜","type2":"风景名胜","type3":"风景名胜","__source_file__":"13-常用公服设施点/SHP/上海市_旅游景点-面.shp"},"geometry":{"type":"Polygon","coordinates":[[[121.4867762424526,31.244099162889476],[121.48674513158798,31.24411706394577],[121.48672706602287,31.244139000764847],[121.48671201059055,31.24415994771671],[121.48669795754242,31.244193889900206],[121.48669293846893,31.24422686128998],[121.48669193131639,31.244256844600685],[121.48669594442941,31.244286843408588],[121.48670196350287,31.244310850561142],[121.48672303264425,31.2443578910923],[121.48674811728287,31.244391949504855],[121.48677420788192,31.24442101149368],[121.48682036702631,31.244446136067396],[121.4868785708742,31.24446230057621],[121.48692674074744,31.24446643945503],[121.48698394221114,31.24446460754013],[121.48703211268045,31.24445375416756],[121.48705920804787,31.244441839998245],[121.48709032010461,31.244422940134044],[121.48711139639855,31.244406009275437],[121.4871304655399,31.244382076032643],[121.48714150607108,31.244358118947986],[121.48715555733108,31.24432417497635],[121.48716358832547,31.24428921550751],[121.48716459547805,31.244270227428437],[121.48716258951757,31.244252228620525],[121.48715958117293,31.244223232196806],[121.48714653766156,31.244185211335186],[121.4871334947462,31.244155186301228],[121.48710038090135,31.244114108219144],[121.4870582366581,31.244082997354504],[121.48702311387254,31.24406690317917],[121.48697594817162,31.244054768472672],[121.486929786047,31.244052634958265],[121.4868715798149,31.244061459720612],[121.48681839146423,31.24407929521179],[121.4867762424526,31.244099162889476]]]}},{"id":"61","type":"Feature","properties":{"id":"B00156R4JP","name":"外滩源33","type":"风景名胜;风景名胜;风景名胜","addr":"上海市黄浦区中山东一路33号英国领事馆及领事官邸旧址内","结构":null,"面积":0.0,"时间":null,"装修":null,"价格":0.0,"gcj_lng":121.488837,"gcj_lat":31.242365,"wgs_lng":121.484364667,"wgs_lat":31.2443450137,"bd_lng":121.495430617,"bd_lat":31.248065011,"gcj_shape":"121.488042,31.242803;121.488246,31.241645;121.48825,31.241632;121.488256,31.241627;121.488264,31.24162;121.488276,31.241616;121.488294,31.241613;121.488318,31.241612;121.489966,31.241794;121.489984,31.2418;121.489994,31.24181;121.49,31.241824;121.489998,","FID_1":4946,"id_1":"B00156R4JP","type1":"风景名胜","type2":"风景名胜","type3":"风景名胜","__source_file__":"13-常用公服设施点/SHP/上海市_旅游景点-面.shp"},"geometry":{"type":"Polygon","coordinates":[[[121.48354690028475,31.24477944196797],[121.48354388836383,31.244805420510303],[121.4835468973045,31.24482242229844],[121.48366125970074,31.245220574886325],[121.48367129307937,31.24524159395981],[121.48368634314724,31.245260629722594],[121.48370239798354,31.24527367025376],[121.48371845401189,31.245279714361196],[121.48373049454304,31.245283747739798],[121.48375257202909,31.24528481092072],[121.48377263997838,31.24528386933327],[121.4843356134882,31.245106582966805],[121.48440285011861,31.2450727933712],[121.48453933291626,31.244987228485105],[121.48457646404646,31.24495835007858],[121.48463667981531,31.2449015491581],[121.48468886637781,31.24484572618389],[121.48499496250722,31.244516765092854],[121.48525489591597,31.24421865797043],[121.48551383647728,31.243811596147538],[121.48551584601401,31.243793610452656],[121.48550982515239,31.24377959912777],[121.48549979236984,31.24376957349778],[121.4854817291889,31.24376352462197],[121.48382797972488,31.243576795589455],[121.48380389627837,31.243577726448063],[121.48378583190535,31.24358067161179],[121.48377379018211,31.24358463465692],[121.4837657615719,31.24359160843087],[121.48375974011421,31.24359658935738],[121.48375572580909,31.243609572668078],[121.4835509151859,31.24476645925332],[121.48354690028475,31.24477944196797]]]}},{"id":"11","type":"Feature","properties":{"id":"B00155IL1T","name":"外白渡桥","type":"风景名胜;风景名胜;省级景点|地名地址信息;交通地名;桥","addr":"上海市黄浦区北苏州路111","结构":null,"面积":0.0,"时间":null,"装修":null,"价格":0.0,"gcj_lng":121.4902,"gcj_lat":31.243417,"wgs_lng":121.485732418,"wgs_lat":31.2454005764,"bd_lng":121.496796442,"bd_lat":31.2491032699,"gcj_shape":"121.490351,31.24355;121.490277,31.243361;121.490236,31.243218;121.490136,31.242824;121.489936,31.24287;121.490067,31.24331;121.490142,31.243531;121.490231,31.243765;121.49042,31.243728;121.490351,31.24355","FID_1":791,"id_1":"B00155IL1T","type1":"风景名胜","type2":"风景名胜","type3":"省级景点|地名地址信息","__source_file__":"13-常用公服设施点/SHP/上海市_旅游景点-面.shp"},"geometry":{"type":"Polygon","coordinates":[[[121.4857936876316,31.245330732046128],[121.48575255411717,31.245187674825665],[121.4856522370205,31.24479356038475],[121.4854515301094,31.244838953609474],[121.48558295330238,31.245279138383864],[121.48565819887352,31.245500259977348],[121.48574749034023,31.245734415545463],[121.48593715791226,31.245697986557964],[121.4858679314146,31.245519863772394],[121.4857936876316,31.245330732046128]]]}},{"id":"90","type":"Feature","properties":{"id":"B001549103","name":"景灵堂","type":"风景名胜;风景名胜;教堂","addr":"上海市虹口区昆山路135号(近乍浦路)","结构":null,"面积":0.0,"时间":null,"装修":null,"价格":0.0,"gcj_lng":121.487049,"gcj_lat":31.25002,"wgs_lng":121.482569696,"wgs_lat":31.2519913194,"bd_lng":121.493631675,"bd_lat":31.2557386595,"gcj_shape":"121.487792,31.249367;121.487813,31.249218;121.487817,31.249209;121.487823,31.249203;121.487831,31.249198;121.487843,31.249196;121.488075,31.249224;121.488091,31.249228;121.488099,31.249233;121.488104,31.249239;121.488108,31.249255;121.488082,31.249425;12","FID_1":7988,"id_1":"B001549103","type1":"风景名胜","type2":"风景名胜","type3":"教堂","__source_file__":"13-常用公服设施点/SHP/上海市_旅游景点-面.shp"},"geometry":{"type":"Polygon","coordinates":[[[121.48330449838353,31.251345813237194],[121.48331051805303,31.251356825754165],[121.48331653712654,31.251367837675097],[121.48332657169723,31.25137486509323],[121.4835523525181,31.251405505247114],[121.48357242165946,31.251403562467573],[121.4835804502697,31.251399588693623],[121.48358747411157,31.251394610151294],[121.48359048603248,31.25138562445641],[121.48361659093663,31.251215774660118],[121.48361257901573,31.25119976989174],[121.48360756232645,31.25119375797081],[121.48359953490831,31.251188737705235],[121.48358347947597,31.251184691809662],[121.48335067362119,31.251156031390195],[121.48333863249397,31.251157995031356],[121.48333060447978,31.251162970593455],[121.48332458242606,31.251168949731827],[121.4833205675249,31.251177934830665],[121.48329948229025,31.25132680668068],[121.48330449838353,31.251345813237194]]]}},{"id":"298","type":"Feature","properties":{"id":"B0FFFE5HKR","name":"雷士德工学院旧址","type":"风景名胜;风景名胜;纪念馆","addr":"上海市虹口区东长治路505号","结构":null,"面积":0.0,"时间":null,"装修":null,"价格":0.0,"gcj_lng":121.497655,"gcj_lat":31.250816,"wgs_lng":121.493213549,"wgs_lat":31.2528185637,"bd_lng":121.504257006,"bd_lat":31.2564565554,"gcj_shape":"121.497524,31.250615;121.497795,31.250528;121.49803,31.250363;121.498229,31.250533;121.497932,31.25076;121.497973,31.250851;121.498006,31.250969;121.497917,31.251001;121.497936,31.251061;121.497758,31.251106;121.497737,31.251202;121.497128,31.25114;121.4","FID_1":23187,"id_1":"B0FFFE5HKR","type1":"风景名胜","type2":"风景名胜","type3":"纪念馆","__source_file__":"13-常用公服设施点/SHP/上海市_旅游景点-面.shp"},"geometry":{"type":"Polygon","coordinates":[[[121.492749741086,31.252606070441246],[121.4927156010151,31.252826871957787],[121.49312707205772,31.252860085508345],[121.49317725325585,31.252854238096234],[121.49319630928417,31.252996232135768],[121.49269150385952,31.252938750960354],[121.49266840551186,31.253126597776415],[121.49327959181022,31.2531903954525],[121.49330067525673,31.253094500356674],[121.49347931898689,31.253050055871967],[121.49346025699805,31.252990024877548],[121.49354957945918,31.25295830561543],[121.4935164715748,31.252840258527755],[121.49347533090781,31.25274917508125],[121.49377342048072,31.25252316690254],[121.49357371774197,31.252352645361903],[121.49333785764694,31.252516866329195],[121.4930658741703,31.252603016366955],[121.492749741086,31.252606070441246]]]}},{"id":"236","type":"Feature","properties":{"id":"B0FFG4F6H2","name":"上海音乐谷","type":"风景名胜;风景名胜;省级景点","addr":"上海市虹口区溧阳路651号,溧阳路649号","结构":null,"面积":0.0,"时间":null,"装修":null,"价格":0.0,"gcj_lng":121.490522,"gcj_lat":31.255912,"wgs_lng":121.486054498,"wgs_lat":31.2578909828,"bd_lng":121.49710857,"bd_lat":31.2615925544,"gcj_shape":"121.48862,31.255041;121.488773,31.254861;121.488896,31.254783;121.489034,31.254732;121.489464,31.254611;121.49037,31.254337;121.491165,31.254107;121.491638,31.253945;121.491651,31.254195;121.49266,31.254183;121.492654,31.255005;121.491824,31.255029;121.4","FID_1":18176,"id_1":"B0FFG4F6H2","type1":"风景名胜","type2":"风景名胜","type3":"省级景点","__source_file__":"13-常用公服设施点/SHP/上海市_旅游景点-面.shp"},"geometry":{"type":"Polygon","coordinates":[[[121.4838980475082,31.257289918571477],[121.48443087617872,31.257595332393652],[121.48466166415213,31.25777892486382],[121.48503794922826,31.25811787138558],[121.48525167640494,31.258349393522266],[121.48497970604132,31.258576501836778],[121.48402734076308,31.259129491802213],[121.48425909774207,31.25968692214775],[121.48435843868063,31.259759179639822],[121.48450594889638,31.25979659210396],[121.48593897714426,31.2595848645649],[121.48639257931708,31.259464245008473],[121.48726565968514,31.259358853307717],[121.4875898052864,31.25933981532669],[121.48786177326582,31.25925265456009],[121.4878838537321,31.259220732642177],[121.48788385671233,31.259175752311712],[121.48786580187607,31.25909073562241],[121.4878407190256,31.25901969330311],[121.4874032199688,31.25848863770485],[121.4871844695463,31.258238103051184],[121.48706004933356,31.258035824697494],[121.48699884667778,31.257892707872394],[121.48697777992058,31.257793688798905],[121.48697176621151,31.257713706084253],[121.4869717751522,31.257612750787736],[121.48702297780801,31.257351015432363],[121.48730697916602,31.257332857049946],[121.48734514248275,31.2569981157341],[121.4881780857601,31.25697657979012],[121.48818417695523,31.256154955895433],[121.48717160246468,31.256163971490864],[121.48715857862283,31.255914043016432],[121.48668389240741,31.256074578530317],[121.48588607191562,31.256302141892434],[121.48497686756991,31.256573367892265],[121.48454535241986,31.25669305897427],[121.48440686485384,31.2567436345892],[121.4842834279518,31.256821241794583],[121.48412987958909,31.257000717273712],[121.4838980475082,31.257289918571477]]]}},{"id":"168","type":"Feature","properties":{"id":"B0FFIAN3X4","name":"四行仓库","type":"风景名胜;风景名胜;纪念馆","addr":"上海市静安区光复路21号","结构":null,"面积":0.0,"时间":null,"装修":null,"价格":0.0,"gcj_lng":121.47115,"gcj_lat":31.240346,"wgs_lng":121.466617861,"wgs_lat":31.2422768352,"bd_lng":121.477672236,"bd_lat":31.2463283388,"gcj_shape":"121.470741,31.239913;121.470643,31.240512;121.470646,31.240521;121.47065,31.24053;121.47066,31.240538;121.470682,31.240544;121.470729,31.240547;121.470963,31.240554;121.471026,31.240554;121.471074,31.240559;121.471133,31.240568;121.471238,31.240593;121.4","FID_1":13891,"id_1":"B0FFIAN3X4","type1":"风景名胜","type2":"风景名胜","type3":"纪念馆","__source_file__":"13-常用公服设施点/SHP/上海市_旅游景点-面.shp"},"geometry":{"type":"Polygon","coordinates":[[[121.4660949212246,31.2424287149067],[121.46609793016528,31.24243771907902],[121.46610194089412,31.242446725039486],[121.46611197129246,31.242454745901114],[121.46613403804966,31.242460800737383],[121.46618118050479,31.242463918158528],[121.46641589635655,31.242471513608933],[121.46647908828353,31.24247167454148],[121.46652723491096,31.24247679494286],[121.46658641432093,31.24248594216634],[121.46669173558999,31.242511200254448],[121.46709395748519,31.242622181346896],[121.46710800159266,31.242625215917585],[121.46712003854753,31.242625248104098],[121.46713408146286,31.242620286251068],[121.46714712318612,31.242612323205947],[121.46715815656472,31.242601356584544],[121.46723641584491,31.24240064805126],[121.4672384235935,31.242384659376143],[121.4672384235935,31.242371666528705],[121.46722939736745,31.242353649839394],[121.46721334968376,31.242339616460796],[121.46628956733895,31.24182148499871],[121.46626750058175,31.241812432546624],[121.46625044812967,31.241806392015462],[121.4662263742199,31.241806330026634],[121.46621233130455,31.241809294263845],[121.46619929256151,31.24181525790501],[121.46619327289201,31.24183023585129],[121.4660949212246,31.2424287149067]]]}},{"id":"43","type":"Feature","properties":{"id":"B00155LYCU","name":"真光大楼","type":"风景名胜;风景名胜;风景名胜","addr":"上海市黄浦区圆明园路209号·外滩源","结构":null,"面积":0.0,"时间":null,"装修":null,"价格":0.0,"gcj_lng":121.487829,"gcj_lat":31.24299,"wgs_lng":121.483353048,"wgs_lat":31.2449667576,"bd_lng":121.494419391,"bd_lat":31.2487009454,"gcj_shape":"121.487722,31.242872;121.487953,31.242894;121.487943,31.243102;121.487701,31.243088;121.487722,31.242872","FID_1":2916,"id_1":"B00155LYCU","type1":"风景名胜","type2":"风景名胜","type3":"风景名胜","__source_file__":"13-常用公服设施点/SHP/上海市_旅游景点-面.shp"},"geometry":{"type":"Polygon","coordinates":[[[121.48320870580768,31.24505034166622],[121.48345154563714,31.24506503725243],[121.48346159808924,31.244857158845903],[121.48322979700279,31.244834498426442],[121.48320870580768,31.24505034166622]]]}},{"id":"227","type":"Feature","properties":{"id":"B001558CF6","name":"中共三大后中央局机关历史纪念馆","type":"风景名胜;风景名胜;纪念馆","addr":"上海市静安区浙江北路118号(天潼路浙江北路)","结构":null,"面积":0.0,"时间":null,"装修":null,"价格":0.0,"gcj_lng":121.476282,"gcj_lat":31.243664,"wgs_lng":121.471766299,"wgs_lat":31.245607316,"bd_lng":121.482826898,"bd_lat":31.2495500404,"gcj_shape":"121.476141,31.243753;121.476156,31.243766;121.476408,31.243773;121.476414,31.243565;121.47617,31.243546;121.476141,31.243753","FID_1":17547,"id_1":"B001558CF6","type1":"风景名胜","type2":"风景名胜","type3":"纪念馆","__source_file__":"13-常用公服设施点/SHP/上海市_旅游景点-面.shp"},"geometry":{"type":"Polygon","coordinates":[[[121.47162491927719,31.24569569560623],[121.47187772870828,31.245703369138724],[121.47188376685526,31.24549547881127],[121.47163898365022,31.245475831504827],[121.47160987278556,31.245682661035545],[121.47162491927719,31.24569569560623]]]}},{"id":"198","type":"Feature","properties":{"id":"B00155L3B4","name":"沈尹默故居","type":"风景名胜;风景名胜;纪念馆","addr":"上海市虹口区海伦路504号(近四平路)","结构":null,"面积":0.0,"时间":null,"装修":null,"价格":0.0,"gcj_lng":121.487422,"gcj_lat":31.258552,"wgs_lng":121.482943281,"wgs_lat":31.2605206644,"bd_lng":121.49399763,"bd_lat":31.2642641386,"gcj_shape":"121.487621,31.258569;121.487579,31.258449;121.487219,31.258536;121.487271,31.258656;121.487621,31.258569","FID_1":15500,"id_1":"B00155L3B4","type1":"风景名胜","type2":"风景名胜","type3":"纪念馆","__source_file__":"13-常用公服设施点/SHP/上海市_旅游景点-面.shp"},"geometry":{"type":"Polygon","coordinates":[[[121.48308496117974,31.260404209970474],[121.48272370471383,31.26049012993431],[121.48277587458708,31.260610228281976],[121.48312709707835,31.260524279111863],[121.48308496117974,31.260404209970474]]]}},{"id":"139","type":"Feature","properties":{"id":"B0FFFWQ8SW","name":"白公馆","type":"风景名胜;风景名胜;风景名胜","addr":"上海市虹口区多伦路210号(东江湾路黄渡路)","结构":null,"面积":0.0,"时间":null,"装修":null,"价格":0.0,"gcj_lng":121.481848,"gcj_lat":31.264025,"wgs_lng":121.477349383,"wgs_lat":31.2659750837,"bd_lng":121.488398472,"bd_lat":31.2698120948,"gcj_shape":"121.481664,31.264158;121.481672,31.263944;121.481714,31.263898;121.481769,31.263891;121.482019,31.263888;121.482026,31.264152;121.481664,31.264158","FID_1":10763,"id_1":"B0FFFWQ8SW","type1":"风景名胜","type2":"风景名胜","type3":"风景名胜","__source_file__":"13-常用公服设施点/SHP/上海市_旅游景点-面.shp"},"geometry":{"type":"Polygon","coordinates":[[[121.47751247940158,31.266088901211745],[121.47750547820948,31.265824994194986],[121.47725463838003,31.265827291456226],[121.47719945360564,31.265834135292053],[121.47715730876637,31.265879997605325],[121.47714926406289,31.266093883760455],[121.47751247940158,31.266088901211745]]]}},{"id":"242","type":"Feature","properties":{"id":"B00156O8C5","name":"淞沪铁路天通庵站遗址","type":"风景名胜;风景名胜;风景名胜","addr":"上海市虹口区同心路、宝山路交汇处","结构":null,"面积":0.0,"时间":null,"装修":null,"价格":0.0,"gcj_lng":121.479592,"gcj_lat":31.265479,"wgs_lng":121.475085548,"wgs_lat":31.2674220214,"bd_lng":121.486131672,"bd_lat":31.2713021535,"gcj_shape":"121.479552,31.265516;121.479649,31.265477;121.47963,31.265442;121.479533,31.265484;121.479552,31.265516","FID_1":18418,"id_1":"B00156O8C5","type1":"风景名胜","type2":"风景名胜","type3":"风景名胜","__source_file__":"13-常用公服设施点/SHP/上海市_旅游景点-面.shp"},"geometry":{"type":"Polygon","coordinates":[[[121.47512743873502,31.26740671408367],[121.47510837853432,31.26737167772484],[121.47501105428506,31.26741339162254],[121.47503011388969,31.267445429769516],[121.47512743873502,31.26740671408367]]]}},{"id":"157","type":"Feature","properties":{"id":"B00155MRU8","name":"日本海军特别陆战队司令部旧址","type":"风景名胜;风景名胜;风景名胜","addr":"上海市虹口区黄渡路8-6号","结构":null,"面积":0.0,"时间":null,"装修":null,"价格":0.0,"gcj_lng":121.481607,"gcj_lat":31.26587,"wgs_lng":121.477107397,"wgs_lat":31.2678186003,"bd_lng":121.4881547,"bd_lat":31.2716603886,"gcj_shape":"121.481447,31.266252;121.481179,31.265756;121.481048,31.265547;121.48104,31.265523;121.481042,31.265503;121.481049,31.265487;121.481064,31.265476;121.481661,31.265263;121.481681,31.265264;121.4817,31.265271;121.481716,31.26528;121.481731,31.265301;121.48","FID_1":12697,"id_1":"B00155MRU8","type1":"风景名胜","type2":"风景名胜","type3":"风景名胜","__source_file__":"13-常用公服设施点/SHP/上海市_旅游景点-面.shp"},"geometry":{"type":"Polygon","coordinates":[[[121.47703869424245,31.26842058199501],[121.47704671927642,31.2684295998764],[121.47705675384714,31.268435624910353],[121.47707380868337,31.26844167020989],[121.47708986292362,31.26843771610546],[121.47737883745955,31.268353560703275],[121.47735977845097,31.268300529112814],[121.47762868563366,31.268218317086223],[121.47721638982868,31.2672365815649],[121.47720134095287,31.2672155493784],[121.47718528909684,31.267206508251185],[121.47716622472379,31.26719945818329],[121.47714615856266,31.26719840155888],[121.47654714213755,31.267409642625807],[121.47653209087753,31.267420596134187],[121.47652506584359,31.26743656871605],[121.47652305690288,31.26745655500698],[121.4765310813408,31.26748056752396],[121.47666250095747,31.26768984408951],[121.4769313556881,31.268186381723403],[121.47703869424245,31.26842058199501]]]}},{"id":"3","type":"Feature","properties":{"id":"B00155L3BC","name":"李白烈士故居","type":"风景名胜;风景名胜;纪念馆","addr":"上海市虹口区黄渡路107弄1-22号","结构":null,"面积":0.0,"时间":null,"装修":null,"价格":0.0,"gcj_lng":121.481454,"gcj_lat":31.267877,"wgs_lng":121.476953699,"wgs_lat":31.2698243041,"bd_lng":121.487999181,"bd_lat":31.2736693021,"gcj_shape":"121.481629,31.267627;121.481599,31.267614;121.48136,31.267728;121.48116,31.267875;121.481411,31.268157;121.481648,31.267965;121.481662,31.267872;121.481663,31.267841;121.481664,31.267748;121.481658,31.267724;121.481629,31.267627","FID_1":350,"id_1":"B00155L3BC","type1":"风景名胜","type2":"风景名胜","type3":"纪念馆","__source_file__":"13-常用公服设施点/SHP/上海市_旅游景点-面.shp"},"geometry":{"type":"Polygon","coordinates":[[[121.47708374788664,31.269548227943417],[121.47684393666744,31.269661510899546],[121.47664325479029,31.269807889819155],[121.47689507137393,31.270090470368388],[121.47713288199712,31.26989921542644],[121.47714693742941,31.26980629350853],[121.47714794219777,31.26977531019783],[121.47714895411872,31.269682353113176],[121.47714293504521,31.269658345960615],[121.47711384683035,31.269561305429455],[121.47708374788664,31.269548227943417]]]}},{"id":"113","type":"Feature","properties":{"id":"B0015371A9","name":"鲁迅纪念馆","type":"风景名胜;风景名胜;纪念馆","addr":"上海市虹口区甜爱路200号","结构":null,"面积":0.0,"时间":null,"装修":null,"价格":0.0,"gcj_lng":121.483811,"gcj_lat":31.269706,"wgs_lng":121.479318682,"wgs_lat":31.2716593199,"bd_lng":121.490363652,"bd_lat":31.2754624005,"gcj_shape":"121.483429,31.270007;121.483328,31.269538;121.483325,31.269521;121.483328,31.269507;121.483333,31.269498;121.483348,31.269489;121.484113,31.269379;121.484133,31.269379;121.484149,31.269383;121.484166,31.26939;121.484177,31.269397;121.484188,31.269405;121","FID_1":9767,"id_1":"B0015371A9","type1":"风景名胜","type2":"风景名胜","type3":"纪念馆","__source_file__":"13-常用公服设施点/SHP/上海市_旅游景点-面.shp"},"geometry":{"type":"Polygon","coordinates":[[[121.47893175484276,31.27195939669228],[121.47894780729484,31.27196543960762],[121.47896285855487,31.271970478946685],[121.47897991577528,31.2719705266304],[121.4797525443401,31.27187075703621],[121.47976860036849,31.271864805912017],[121.47977662778663,31.27185783094597],[121.47978064209175,31.271851845251078],[121.47978465639684,31.271838861940388],[121.47969439056013,31.271363805912017],[121.4796813476448,31.271345777301786],[121.47967031068993,31.271337749883656],[121.47965927492714,31.271330721273422],[121.4796422165146,31.271323674781804],[121.4796261628704,31.271319630674363],[121.47960609432506,31.271319575242046],[121.47883848483373,31.271427356757165],[121.47882343297766,31.27143631086159],[121.4788184150963,31.271445292980196],[121.4788154037714,31.271459278079035],[121.47881841152002,31.271476279867173],[121.47891971431162,31.27194536808205],[121.47893175484276,31.27195939669228]]]}}],"name":"上海市_旅游景点-面","crs":{"type":"name","properties":{"name":"urn:ogc:def:crs:OGC:1.3:CRS84"}}}