{"type":"FeatureCollection","features":[{"id":"28","type":"Feature","properties":{"id":"B0FFK710QK","name":"璞丽酒店-会议室","address":"常德路1号璞丽酒店3层","type":"科教文化服务;会展中心;会展中心","typecode":"140300","pcode":310000,"pname":"上海市","citycode":21,"cityname":"上海市","adcode":310106,"adname":"静安区","business_a":"曹家渡","location":"121.448206,31.222347","tel":"[]","bigType":"科教文化服务","midType":"会展中心","smallType":"会展中心","gcj_lng":121.448206,"gcj_lat":31.222347,"wgs84_loc":"121.443611,31.224232","wgs84Lng":"121.443611","wgs84Lat":"31.224232","__source_file__":"13-常用公服设施点/SHP/上海市_会展中心.shp"},"geometry":{"type":"Point","coordinates":[121.443611,31.224232]}},{"id":"236","type":"Feature","properties":{"id":"B0FFG2R47W","name":"百乐门精品酒店会议中心","address":"南京西路1728号10层","type":"科教文化服务;会展中心;会展中心","typecode":"140300","pcode":310000,"pname":"上海市","citycode":21,"cityname":"上海市","adcode":310106,"adname":"静安区","business_a":"中山公园","location":"121.444562,31.222603","tel":"[]","bigType":"科教文化服务","midType":"会展中心","smallType":"会展中心","gcj_lng":121.444562,"gcj_lat":31.222603,"wgs84_loc":"121.439959,31.224481","wgs84Lng":"121.439959","wgs84Lat":"31.224481","__source_file__":"13-常用公服设施点/SHP/上海市_会展中心.shp"},"geometry":{"type":"Point","coordinates":[121.439959,31.224481]}},{"id":"182","type":"Feature","properties":{"id":"B00153206C","name":"友谊会堂(北环道)","address":"南京西路1333号","type":"科教文化服务;会展中心;会展中心","typecode":"140300","pcode":310000,"pname":"上海市","citycode":21,"cityname":"上海市","adcode":310106,"adname":"静安区","business_a":"淮海路","location":"121.452304,31.225756","tel":"021-62472751","bigType":"科教文化服务","midType":"会展中心","smallType":"会展中心","gcj_lng":121.452304,"gcj_lat":31.225756,"wgs84_loc":"121.447719,31.227648","wgs84Lng":"121.447719","wgs84Lat":"31.227648","__source_file__":"13-常用公服设施点/SHP/上海市_会展中心.shp"},"geometry":{"type":"Point","coordinates":[121.447719,31.227648]}},{"id":"181","type":"Feature","properties":{"id":"B00155KLWR","name":"美国商务处会议中心","address":"南京西路1376号上海商城7层731室","type":"科教文化服务;会展中心;会展中心","typecode":"140300","pcode":310000,"pname":"上海市","citycode":21,"cityname":"上海市","adcode":310106,"adname":"静安区","business_a":"淮海路","location":"121.451936,31.22676","tel":"[]","bigType":"科教文化服务","midType":"会展中心","smallType":"会展中心","gcj_lng":121.451936,"gcj_lat":31.22676,"wgs84_loc":"121.44735,31.228651","wgs84Lng":"121.44735","wgs84Lat":"31.228651","__source_file__":"13-常用公服设施点/SHP/上海市_会展中心.shp"},"geometry":{"type":"Point","coordinates":[121.44735,31.228651]}},{"id":"233","type":"Feature","properties":{"id":"B00156O4EU","name":"静安体育馆会议中心","address":"西康路99静安体育馆3层","type":"科教文化服务;会展中心;会展中心","typecode":"140300","pcode":310000,"pname":"上海市","citycode":21,"cityname":"上海市","adcode":310106,"adname":"静安区","business_a":"淮海路","location":"121.451794,31.227621","tel":"[]","bigType":"科教文化服务","midType":"会展中心","smallType":"会展中心","gcj_lng":121.451794,"gcj_lat":31.227621,"wgs84_loc":"121.447207,31.229511","wgs84Lng":"121.447207","wgs84Lat":"31.229511","__source_file__":"13-常用公服设施点/SHP/上海市_会展中心.shp"},"geometry":{"type":"Point","coordinates":[121.447207,31.229511]}},{"id":"145","type":"Feature","properties":{"id":"B00155KLZK","name":"阿斯利康中国会议中心","address":"南京西路1168号中信泰富广场4202-4204号","type":"科教文化服务;会展中心;会展中心","typecode":"140300","pcode":310000,"pname":"上海市","citycode":21,"cityname":"上海市","adcode":310106,"adname":"静安区","business_a":"淮海路","location":"121.455680,31.228616","tel":"[]","bigType":"科教文化服务","midType":"会展中心","smallType":"会展中心","gcj_lng":121.45568,"gcj_lat":31.228616,"wgs84_loc":"121.451103,31.230514","wgs84Lng":"121.451103","wgs84Lat":"31.230514","__source_file__":"13-常用公服设施点/SHP/上海市_会展中心.shp"},"geometry":{"type":"Point","coordinates":[121.451103,31.230514]}},{"id":"13","type":"Feature","properties":{"id":"B00155GER6","name":"科学会堂国际会议厅","address":"南昌路57号","type":"科教文化服务;会展中心;会展中心","typecode":"140300","pcode":310000,"pname":"上海市","citycode":21,"cityname":"上海市","adcode":310101,"adname":"黄浦区","business_a":"淮海路","location":"121.467308,31.218154","tel":"021-53822040","bigType":"科教文化服务","midType":"会展中心","smallType":"会展中心","gcj_lng":121.467308,"gcj_lat":31.218154,"wgs84_loc":"121.462766,31.220085","wgs84Lng":"121.462766","wgs84Lat":"31.220085","__source_file__":"13-常用公服设施点/SHP/上海市_会展中心.shp"},"geometry":{"type":"Point","coordinates":[121.462766,31.220085]}},{"id":"14","type":"Feature","properties":{"id":"B00155L36V","name":"科学会堂(雁荡路)","address":"南昌路47号","type":"科教文化服务;会展中心;会展中心","typecode":"140300","pcode":310000,"pname":"上海市","citycode":21,"cityname":"上海市","adcode":310101,"adname":"黄浦区","business_a":"淮海路","location":"121.469303,31.218563","tel":"021-53822040","bigType":"科教文化服务","midType":"会展中心","smallType":"会展中心","gcj_lng":121.469303,"gcj_lat":31.218563,"wgs84_loc":"121.464767,31.220499","wgs84Lng":"121.464767","wgs84Lat":"31.220499","__source_file__":"13-常用公服设施点/SHP/上海市_会展中心.shp"},"geometry":{"type":"Point","coordinates":[121.464767,31.220499]}},{"id":"154","type":"Feature","properties":{"id":"B0FFF00I7G","name":"瑞金社区服务综合楼会议室","address":"南昌路44号瑞金社区服务综合楼3层","type":"科教文化服务;会展中心;会展中心","typecode":"140300","pcode":310000,"pname":"上海市","citycode":21,"cityname":"上海市","adcode":310101,"adname":"黄浦区","business_a":"淮海路","location":"121.470626,31.219768","tel":"[]","bigType":"科教文化服务","midType":"会展中心","smallType":"会展中心","gcj_lng":121.470626,"gcj_lat":31.219768,"wgs84_loc":"121.466094,31.221707","wgs84Lng":"121.466094","wgs84Lat":"31.221707","__source_file__":"13-常用公服设施点/SHP/上海市_会展中心.shp"},"geometry":{"type":"Point","coordinates":[121.466094,31.221707]}},{"id":"157","type":"Feature","properties":{"id":"B00155LZTU","name":"锦江小礼堂","address":"茂名南路59号","type":"科教文化服务;会展中心;会展中心","typecode":"140300","pcode":310000,"pname":"上海市","citycode":21,"cityname":"上海市","adcode":310101,"adname":"黄浦区","business_a":"淮海路","location":"121.461261,31.220012","tel":"021-32189888;021-62582582","bigType":"科教文化服务","midType":"会展中心","smallType":"会展中心","gcj_lng":121.461261,"gcj_lat":31.220012,"wgs84_loc":"121.456701,31.221927","wgs84Lng":"121.456701","wgs84Lat":"31.221927","__source_file__":"13-常用公服设施点/SHP/上海市_会展中心.shp"},"geometry":{"type":"Point","coordinates":[121.456701,31.221927]}},{"id":"12","type":"Feature","properties":{"id":"B0FFFTI4W4","name":"新锦江大酒店-茶花厅","address":"长乐路161号新锦江大酒店2层","type":"科教文化服务;会展中心;会展中心","typecode":"140300","pcode":310000,"pname":"上海市","citycode":21,"cityname":"上海市","adcode":310101,"adname":"黄浦区","business_a":"淮海路","location":"121.462979,31.220900","tel":"021-64151188","bigType":"科教文化服务","midType":"会展中心","smallType":"会展中心","gcj_lng":121.462979,"gcj_lat":31.2209,"wgs84_loc":"121.458423,31.222819","wgs84Lng":"121.458423","wgs84Lat":"31.222819","__source_file__":"13-常用公服设施点/SHP/上海市_会展中心.shp"},"geometry":{"type":"Point","coordinates":[121.458423,31.222819]}},{"id":"271","type":"Feature","properties":{"id":"B00155IWDS","name":"上海社会科学院-小礼堂","address":"淮海中路622弄7号","type":"科教文化服务;会展中心;会展中心","typecode":"140300","pcode":310000,"pname":"上海市","citycode":21,"cityname":"上海市","adcode":310101,"adname":"黄浦区","business_a":"淮海路","location":"121.465880,31.221191","tel":"[]","bigType":"科教文化服务","midType":"会展中心","smallType":"会展中心","gcj_lng":121.46588,"gcj_lat":31.221191,"wgs84_loc":"121.461333,31.223117","wgs84Lng":"121.461333","wgs84Lat":"31.223117","__source_file__":"13-常用公服设施点/SHP/上海市_会展中心.shp"},"geometry":{"type":"Point","coordinates":[121.461333,31.223117]}},{"id":"293","type":"Feature","properties":{"id":"B0FFFZS9CD","name":"上海御花园酒店小礼堂","address":"长乐路139-16号附近","type":"科教文化服务;会展中心;会展中心","typecode":"140300","pcode":310000,"pname":"上海市","citycode":21,"cityname":"上海市","adcode":310101,"adname":"黄浦区","business_a":"淮海路","location":"121.466023,31.221273","tel":"[]","bigType":"科教文化服务","midType":"会展中心","smallType":"会展中心","gcj_lng":121.466023,"gcj_lat":31.221273,"wgs84_loc":"121.461477,31.223199","wgs84Lng":"121.461477","wgs84Lat":"31.223199","__source_file__":"13-常用公服设施点/SHP/上海市_会展中心.shp"},"geometry":{"type":"Point","coordinates":[121.461477,31.223199]}},{"id":"79","type":"Feature","properties":{"id":"B0FFIB5BW6","name":"马勒别墅饭店-会议厅","address":"陕西南路与延安中路交叉口西南约100米","type":"科教文化服务;会展中心;会展中心","typecode":"140300","pcode":310000,"pname":"上海市","citycode":21,"cityname":"上海市","adcode":310106,"adname":"静安区","business_a":"淮海路","location":"121.456530,31.222957","tel":"[]","bigType":"科教文化服务","midType":"会展中心","smallType":"会展中心","gcj_lng":121.45653,"gcj_lat":31.222957,"wgs84_loc":"121.451956,31.22486","wgs84Lng":"121.451956","wgs84Lat":"31.22486","__source_file__":"13-常用公服设施点/SHP/上海市_会展中心.shp"},"geometry":{"type":"Point","coordinates":[121.451956,31.22486]}},{"id":"158","type":"Feature","properties":{"id":"B00155IL22","name":"上海投资咨询公司会议中心","address":"延安东路1200号电信世界14层","type":"科教文化服务;会展中心;会展中心","typecode":"140300","pcode":310000,"pname":"上海市","citycode":21,"cityname":"上海市","adcode":310101,"adname":"黄浦区","business_a":"北京东路","location":"121.472673,31.226184","tel":"[]","bigType":"科教文化服务","midType":"会展中心","smallType":"会展中心","gcj_lng":121.472673,"gcj_lat":31.226184,"wgs84_loc":"121.468147,31.228125","wgs84Lng":"121.468147","wgs84Lat":"31.228125","__source_file__":"13-常用公服设施点/SHP/上海市_会展中心.shp"},"geometry":{"type":"Point","coordinates":[121.468147,31.228125]}},{"id":"230","type":"Feature","properties":{"id":"B00156GMYI","name":"爱尔兰中心","address":"黄陂北路227中区广场203室","type":"科教文化服务;会展中心;会展中心","typecode":"140300","pcode":310000,"pname":"上海市","citycode":21,"cityname":"上海市","adcode":310101,"adname":"黄浦区","business_a":"北京东路","location":"121.470474,31.229229","tel":"[]","bigType":"科教文化服务","midType":"会展中心","smallType":"会展中心","gcj_lng":121.470474,"gcj_lat":31.229229,"wgs84_loc":"121.465941,31.231163","wgs84Lng":"121.465941","wgs84Lat":"31.231163","__source_file__":"13-常用公服设施点/SHP/上海市_会展中心.shp"},"geometry":{"type":"Point","coordinates":[121.465941,31.231163]}},{"id":"9","type":"Feature","properties":{"id":"B0FFFVLPRS","name":"东方商旅-会议厅","address":"金陵东路与中山东二路交叉口西南约40米","type":"科教文化服务;会展中心;会展中心","typecode":"140300","pcode":310000,"pname":"上海市","citycode":21,"cityname":"上海市","adcode":310101,"adname":"黄浦区","business_a":"北京东路","location":"121.492840,31.231682","tel":"021-63200088","bigType":"科教文化服务","midType":"会展中心","smallType":"会展中心","gcj_lng":121.49284,"gcj_lat":31.231682,"wgs84_loc":"121.488383,31.233679","wgs84Lng":"121.488383","wgs84Lat":"31.233679","__source_file__":"13-常用公服设施点/SHP/上海市_会展中心.shp"},"geometry":{"type":"Point","coordinates":[121.488383,31.233679]}},{"id":"231","type":"Feature","properties":{"id":"B00155HWG3","name":"波尔多厅海潮厅","address":"南京东路505号海仑宾馆4层","type":"科教文化服务;会展中心;会展中心","typecode":"140300","pcode":310000,"pname":"上海市","citycode":21,"cityname":"上海市","adcode":310101,"adname":"黄浦区","business_a":"北京东路","location":"121.480834,31.235650","tel":"[]","bigType":"科教文化服务","midType":"会展中心","smallType":"会展中心","gcj_lng":121.480834,"gcj_lat":31.23565,"wgs84_loc":"121.476334,31.23761","wgs84Lng":"121.476334","wgs84Lat":"31.23761","__source_file__":"13-常用公服设施点/SHP/上海市_会展中心.shp"},"geometry":{"type":"Point","coordinates":[121.476334,31.23761]}},{"id":"316","type":"Feature","properties":{"id":"B00155I1IJ","name":"华盛大厦会议中心","address":"汉口路398-400号上海华盛大厦602-604","type":"科教文化服务;会展中心;会展中心","typecode":"140300","pcode":310000,"pname":"上海市","citycode":21,"cityname":"上海市","adcode":310101,"adname":"黄浦区","business_a":"北京路","location":"121.482567,31.23565","tel":"15601712625","bigType":"科教文化服务","midType":"会展中心","smallType":"会展中心","gcj_lng":121.482567,"gcj_lat":31.23565,"wgs84_loc":"121.478073,31.237615","wgs84Lng":"121.478073","wgs84Lat":"31.237615","__source_file__":"13-常用公服设施点/SHP/上海市_会展中心.shp"},"geometry":{"type":"Point","coordinates":[121.478073,31.237615]}},{"id":"318","type":"Feature","properties":{"id":"B00155HVPF","name":"奥利厅&奥普拉厅","address":"南京东路505号海仑宾馆3层","type":"科教文化服务;会展中心;会展中心","typecode":"140300","pcode":310000,"pname":"上海市","citycode":21,"cityname":"上海市","adcode":310101,"adname":"黄浦区","business_a":"北京路","location":"121.480884,31.235680","tel":"[]","bigType":"科教文化服务","midType":"会展中心","smallType":"会展中心","gcj_lng":121.480884,"gcj_lat":31.23568,"wgs84_loc":"121.476385,31.23764","wgs84Lng":"121.476385","wgs84Lat":"31.23764","__source_file__":"13-常用公服设施点/SHP/上海市_会展中心.shp"},"geometry":{"type":"Point","coordinates":[121.476385,31.23764]}},{"id":"315","type":"Feature","properties":{"id":"B0KAOZ25AC","name":"悦来集·会议中心(南京东路店)","address":"天津路180号应氏大厦F8层","type":"科教文化服务;会展中心;会展中心","typecode":"140300","pcode":310000,"pname":"上海市","citycode":21,"cityname":"上海市","adcode":310101,"adname":"黄浦区","business_a":"北京路","location":"121.482597,31.238238","tel":"19821586899","bigType":"科教文化服务","midType":"会展中心","smallType":"会展中心","gcj_lng":121.482597,"gcj_lat":31.238238,"wgs84_loc":"121.478103,31.240202","wgs84Lng":"121.478103","wgs84Lat":"31.240202","__source_file__":"13-常用公服设施点/SHP/上海市_会展中心.shp"},"geometry":{"type":"Point","coordinates":[121.478103,31.240202]}},{"id":"257","type":"Feature","properties":{"id":"B0FFHFZRSH","name":"滨江厅(上海国际会议中心)","address":"滨江大道2727号上海国际会议中心F1层","type":"科教文化服务;会展中心;会展中心","typecode":"140300","pcode":310000,"pname":"上海市","citycode":21,"cityname":"上海市","adcode":310115,"adname":"浦东新区","business_a":"陆家嘴","location":"121.496258,31.239074","tel":"[]","bigType":"科教文化服务","midType":"会展中心","smallType":"会展中心","gcj_lng":121.496258,"gcj_lat":31.239074,"wgs84_loc":"121.491813,31.241078","wgs84Lng":"121.491813","wgs84Lat":"31.241078","__source_file__":"13-常用公服设施点/SHP/上海市_会展中心.shp"},"geometry":{"type":"Point","coordinates":[121.491813,31.241078]}},{"id":"256","type":"Feature","properties":{"id":"B0FFHFZRSC","name":"欧洲厅(上海国际会议中心)","address":"滨江大道2727号上海国际会议中心F5层","type":"科教文化服务;会展中心;会展中心","typecode":"140300","pcode":310000,"pname":"上海市","citycode":21,"cityname":"上海市","adcode":310115,"adname":"浦东新区","business_a":"陆家嘴","location":"121.496259,31.239074","tel":"[]","bigType":"科教文化服务","midType":"会展中心","smallType":"会展中心","gcj_lng":121.496259,"gcj_lat":31.239074,"wgs84_loc":"121.491814,31.241078","wgs84Lng":"121.491814","wgs84Lat":"31.241078","__source_file__":"13-常用公服设施点/SHP/上海市_会展中心.shp"},"geometry":{"type":"Point","coordinates":[121.491814,31.241078]}},{"id":"8","type":"Feature","properties":{"id":"B00155L3F8","name":"上海国际会议中心","address":"滨江大道2727号","type":"科教文化服务;会展中心;会展中心","typecode":"140300","pcode":310000,"pname":"上海市","citycode":21,"cityname":"上海市","adcode":310115,"adname":"浦东新区","business_a":"陆家嘴","location":"121.496732,31.239472","tel":"021-50370000","bigType":"科教文化服务","midType":"会展中心","smallType":"会展中心","gcj_lng":121.496732,"gcj_lat":31.239472,"wgs84_loc":"121.492288,31.241477","wgs84Lng":"121.492288","wgs84Lat":"31.241477","__source_file__":"13-常用公服设施点/SHP/上海市_会展中心.shp"},"geometry":{"type":"Point","coordinates":[121.492288,31.241477]}},{"id":"131","type":"Feature","properties":{"id":"B0FFHIT1IF","name":"签名墙(上海国际会议中心)","address":"滨江大道2727号上海国际会议中心F3层","type":"科教文化服务;会展中心;会展中心","typecode":"140300","pcode":310000,"pname":"上海市","citycode":21,"cityname":"上海市","adcode":310115,"adname":"浦东新区","business_a":"陆家嘴","location":"121.497223,31.239815","tel":"[]","bigType":"科教文化服务","midType":"会展中心","smallType":"会展中心","gcj_lng":121.497223,"gcj_lat":31.239815,"wgs84_loc":"121.492781,31.241821","wgs84Lng":"121.492781","wgs84Lat":"31.241821","__source_file__":"13-常用公服设施点/SHP/上海市_会展中心.shp"},"geometry":{"type":"Point","coordinates":[121.492781,31.241821]}},{"id":"237","type":"Feature","properties":{"id":"B0FFL1JLX9","name":"WEWORK大会议室","address":"南京西路819号中创大厦3楼","type":"科教文化服务;会展中心;会展中心","typecode":"140300","pcode":310000,"pname":"上海市","citycode":21,"cityname":"上海市","adcode":310106,"adname":"静安区","business_a":"淮海路","location":"121.460922,31.230431","tel":"[]","bigType":"科教文化服务","midType":"会展中心","smallType":"会展中心","gcj_lng":121.460922,"gcj_lat":31.230431,"wgs84_loc":"121.45636,31.23234","wgs84Lng":"121.45636","wgs84Lat":"31.23234","__source_file__":"13-常用公服设施点/SHP/上海市_会展中心.shp"},"geometry":{"type":"Point","coordinates":[121.45636,31.23234]}},{"id":"310","type":"Feature","properties":{"id":"B0IK0RUDOO","name":"荟立方会议中心(人民广场店)","address":"南京西路388号仙乐斯广场2楼","type":"科教文化服务;会展中心;会展中心","typecode":"140300","pcode":310000,"pname":"上海市","citycode":21,"cityname":"上海市","adcode":310101,"adname":"黄浦区","business_a":"淮海路","location":"121.468967,31.231680","tel":"17621606822","bigType":"科教文化服务","midType":"会展中心","smallType":"会展中心","gcj_lng":121.468967,"gcj_lat":31.23168,"wgs84_loc":"121.464429,31.233609","wgs84Lng":"121.464429","wgs84Lat":"31.233609","__source_file__":"13-常用公服设施点/SHP/上海市_会展中心.shp"},"geometry":{"type":"Point","coordinates":[121.464429,31.233609]}},{"id":"295","type":"Feature","properties":{"id":"B0FFGHBZRH","name":"新世界会议中心","address":"南京西路2-68号13楼","type":"科教文化服务;会展中心;会展中心","typecode":"140300","pcode":310000,"pname":"上海市","citycode":21,"cityname":"上海市","adcode":310101,"adname":"黄浦区","business_a":"北京东路","location":"121.473740,31.234861","tel":"[]","bigType":"科教文化服务","midType":"会展中心","smallType":"会展中心","gcj_lng":121.47374,"gcj_lat":31.234861,"wgs84_loc":"121.469217,31.236801","wgs84Lng":"121.469217","wgs84Lat":"31.236801","__source_file__":"13-常用公服设施点/SHP/上海市_会展中心.shp"},"geometry":{"type":"Point","coordinates":[121.469217,31.236801]}},{"id":"156","type":"Feature","properties":{"id":"B0FFFZDRY8","name":"新一百大厦会议中心","address":"六合路58号新一百大厦16层I座","type":"科教文化服务;会展中心;会展中心","typecode":"140300","pcode":310000,"pname":"上海市","citycode":21,"cityname":"上海市","adcode":310101,"adname":"黄浦区","business_a":"北京东路","location":"121.475213,31.235871","tel":"[]","bigType":"科教文化服务","midType":"会展中心","smallType":"会展中心","gcj_lng":121.475213,"gcj_lat":31.235871,"wgs84_loc":"121.470694,31.237815","wgs84Lng":"121.470694","wgs84Lat":"31.237815","__source_file__":"13-常用公服设施点/SHP/上海市_会展中心.shp"},"geometry":{"type":"Point","coordinates":[121.470694,31.237815]}},{"id":"229","type":"Feature","properties":{"id":"B0FFFS1UW7","name":"上海雅居乐万豪侯爵酒店宴会厅","address":"西藏中路555号上海雅居乐万豪侯爵酒店5层(近新世界百货)","type":"科教文化服务;会展中心;会展中心","typecode":"140300","pcode":310000,"pname":"上海市","citycode":21,"cityname":"上海市","adcode":310101,"adname":"黄浦区","business_a":"北京东路","location":"121.473213,31.236438","tel":"021-23129888","bigType":"科教文化服务","midType":"会展中心","smallType":"会展中心","gcj_lng":121.473213,"gcj_lat":31.236438,"wgs84_loc":"121.468688,31.238376","wgs84Lng":"121.468688","wgs84Lat":"31.238376","__source_file__":"13-常用公服设施点/SHP/上海市_会展中心.shp"},"geometry":{"type":"Point","coordinates":[121.468688,31.238376]}},{"id":"252","type":"Feature","properties":{"id":"B0FFK6UIWO","name":"铂尔曼会议中心","address":"天目西路与梅园路交叉口西北约80米","type":"科教文化服务;会展中心;会展中心","typecode":"140300","pcode":310000,"pname":"上海市","citycode":21,"cityname":"上海市","adcode":310106,"adname":"静安区","business_a":"[]","location":"121.456683,31.246563","tel":"[]","bigType":"科教文化服务","midType":"会展中心","smallType":"会展中心","gcj_lng":121.456683,"gcj_lat":31.246563,"wgs84_loc":"121.452107,31.248455","wgs84Lng":"121.452107","wgs84Lat":"31.248455","__source_file__":"13-常用公服设施点/SHP/上海市_会展中心.shp"},"geometry":{"type":"Point","coordinates":[121.452107,31.248455]}},{"id":"270","type":"Feature","properties":{"id":"B0FFI8YP7W","name":"上海市静安区闸北中心医院-会议中心","address":"中华新路619号","type":"科教文化服务;会展中心;会展中心","typecode":"140300","pcode":310000,"pname":"上海市","citycode":21,"cityname":"上海市","adcode":310106,"adname":"静安区","business_a":"宝山路","location":"121.462390,31.254080","tel":"[]","bigType":"科教文化服务","midType":"会展中心","smallType":"会展中心","gcj_lng":121.46239,"gcj_lat":31.25408,"wgs84_loc":"121.45783,31.255982","wgs84Lng":"121.45783","wgs84Lat":"31.255982","__source_file__":"13-常用公服设施点/SHP/上海市_会展中心.shp"},"geometry":{"type":"Point","coordinates":[121.45783,31.255982]}},{"id":"240","type":"Feature","properties":{"id":"B00155HFLD","name":"商务广场会务中心","address":"共和新路1301号蓝天绿地商务广场B4层","type":"科教文化服务;会展中心;会展中心","typecode":"140300","pcode":310000,"pname":"上海市","citycode":21,"cityname":"上海市","adcode":310106,"adname":"静安区","business_a":"和田","location":"121.460330,31.263423","tel":"[]","bigType":"科教文化服务","midType":"会展中心","smallType":"会展中心","gcj_lng":121.46033,"gcj_lat":31.263423,"wgs84_loc":"121.455763,31.265316","wgs84Lng":"121.455763","wgs84Lat":"31.265316","__source_file__":"13-常用公服设施点/SHP/上海市_会展中心.shp"},"geometry":{"type":"Point","coordinates":[121.455763,31.265316]}},{"id":"180","type":"Feature","properties":{"id":"B0FFHBVUGI","name":"上海市儿童医院大礼堂","address":"新闸路1519附近","type":"科教文化服务;会展中心;会展中心","typecode":"140300","pcode":310000,"pname":"上海市","citycode":21,"cityname":"上海市","adcode":310106,"adname":"静安区","business_a":"曹家渡","location":"121.448175,31.230174","tel":"[]","bigType":"科教文化服务","midType":"会展中心","smallType":"会展中心","gcj_lng":121.448175,"gcj_lat":31.230174,"wgs84_loc":"121.443579,31.232056","wgs84Lng":"121.443579","wgs84Lat":"31.232056","__source_file__":"13-常用公服设施点/SHP/上海市_会展中心.shp"},"geometry":{"type":"Point","coordinates":[121.443579,31.232056]}},{"id":"239","type":"Feature","properties":{"id":"B00156NUSR","name":"新城大厦会议中心","address":"江宁路167号新城大厦26层","type":"科教文化服务;会展中心;会展中心","typecode":"140300","pcode":310000,"pname":"上海市","citycode":21,"cityname":"上海市","adcode":310106,"adname":"静安区","business_a":"淮海路","location":"121.454466,31.230600","tel":"021-62551850","bigType":"科教文化服务","midType":"会展中心","smallType":"会展中心","gcj_lng":121.454466,"gcj_lat":31.2306,"wgs84_loc":"121.449886,31.232495","wgs84Lng":"121.449886","wgs84Lat":"31.232495","__source_file__":"13-常用公服设施点/SHP/上海市_会展中心.shp"},"geometry":{"type":"Point","coordinates":[121.449886,31.232495]}},{"id":"235","type":"Feature","properties":{"id":"B0H2H1J7JN","name":"威盾会议","address":"武宁南路488号智慧广场2109","type":"科教文化服务;会展中心;会展中心","typecode":"140300","pcode":310000,"pname":"上海市","citycode":21,"cityname":"上海市","adcode":310106,"adname":"静安区","business_a":"曹家渡","location":"121.430853,31.233662","tel":"[]","bigType":"科教文化服务","midType":"会展中心","smallType":"会展中心","gcj_lng":121.430853,"gcj_lat":31.233662,"wgs84_loc":"121.426223,31.235514","wgs84Lng":"121.426223","wgs84Lat":"31.235514","__source_file__":"13-常用公服设施点/SHP/上海市_会展中心.shp"},"geometry":{"type":"Point","coordinates":[121.426223,31.235514]}},{"id":"291","type":"Feature","properties":{"id":"B0FFGE71HU","name":"上海第二工业大学多功能会议室","address":"宜昌路575号","type":"科教文化服务;会展中心;会展中心","typecode":"140300","pcode":310000,"pname":"上海市","citycode":21,"cityname":"上海市","adcode":310107,"adname":"普陀区","business_a":"曹家渡","location":"121.433970,31.244035","tel":"[]","bigType":"科教文化服务","midType":"会展中心","smallType":"会展中心","gcj_lng":121.43397,"gcj_lat":31.244035,"wgs84_loc":"121.429344,31.245886","wgs84Lng":"121.429344","wgs84Lat":"31.245886","__source_file__":"13-常用公服设施点/SHP/上海市_会展中心.shp"},"geometry":{"type":"Point","coordinates":[121.429344,31.245886]}},{"id":"36","type":"Feature","properties":{"id":"B0FFKTAXW2","name":"合一文化会馆","address":"莫干山路50号7号楼404A","type":"科教文化服务;会展中心;会展中心","typecode":"140300","pcode":310000,"pname":"上海市","citycode":21,"cityname":"上海市","adcode":310107,"adname":"普陀区","business_a":"光新","location":"121.449479,31.247648","tel":"021-50888777","bigType":"科教文化服务","midType":"会展中心","smallType":"会展中心","gcj_lng":121.449479,"gcj_lat":31.247648,"wgs84_loc":"121.444885,31.249524","wgs84Lng":"121.444885","wgs84Lat":"31.249524","__source_file__":"13-常用公服设施点/SHP/上海市_会展中心.shp"},"geometry":{"type":"Point","coordinates":[121.444885,31.249524]}},{"id":"160","type":"Feature","properties":{"id":"B0FFI2I86V","name":"星尚·Show3D创意空间(静安馆)","address":"洛川中路1158号名仕街时尚创意园A3幢2层","type":"科教文化服务;会展中心;会展中心","typecode":"140300","pcode":310000,"pname":"上海市","citycode":21,"cityname":"上海市","adcode":310106,"adname":"静安区","business_a":"和田","location":"121.448137,31.262956","tel":"4006035258","bigType":"科教文化服务","midType":"会展中心","smallType":"会展中心","gcj_lng":121.448137,"gcj_lat":31.262956,"wgs84_loc":"121.443538,31.264823","wgs84Lng":"121.443538","wgs84Lat":"31.264823","__source_file__":"13-常用公服设施点/SHP/上海市_会展中心.shp"},"geometry":{"type":"Point","coordinates":[121.443538,31.264823]}},{"id":"333","type":"Feature","properties":{"id":"B0JDU7YJ69","name":"星尚·Show5D沉浸式艺术空间(静安馆)","address":"洛川中路1158号名仕街时尚创意园A3幢2层","type":"科教文化服务;会展中心;会展中心","typecode":"140300","pcode":310000,"pname":"上海市","citycode":21,"cityname":"上海市","adcode":310106,"adname":"静安区","business_a":"和田","location":"121.448281,31.263283","tel":"13361939390;13818081505","bigType":"科教文化服务","midType":"会展中心","smallType":"会展中心","gcj_lng":121.448281,"gcj_lat":31.263283,"wgs84_loc":"121.443683,31.26515","wgs84Lng":"121.443683","wgs84Lat":"31.26515","__source_file__":"13-常用公服设施点/SHP/上海市_会展中心.shp"},"geometry":{"type":"Point","coordinates":[121.443683,31.26515]}},{"id":"258","type":"Feature","properties":{"id":"B0FFHFZRSD","name":"世纪厅(上海国际会议中心)","address":"滨江大道2727号上海国际会议中心F1层","type":"科教文化服务;会展中心;会展中心","typecode":"140300","pcode":310000,"pname":"上海市","citycode":21,"cityname":"上海市","adcode":310115,"adname":"浦东新区","business_a":"陆家嘴","location":"121.497016,31.239917","tel":"[]","bigType":"科教文化服务","midType":"会展中心","smallType":"会展中心","gcj_lng":121.497016,"gcj_lat":31.239917,"wgs84_loc":"121.492573,31.241923","wgs84Lng":"121.492573","wgs84Lat":"31.241923","__source_file__":"13-常用公服设施点/SHP/上海市_会展中心.shp"},"geometry":{"type":"Point","coordinates":[121.492573,31.241923]}},{"id":"132","type":"Feature","properties":{"id":"B0FFHIT1IO","name":"技术会场(上海国际会议中心)","address":"滨江大道2727号上海国际会议中心F3层","type":"科教文化服务;会展中心;会展中心","typecode":"140300","pcode":310000,"pname":"上海市","citycode":21,"cityname":"上海市","adcode":310115,"adname":"浦东新区","business_a":"陆家嘴","location":"121.497017,31.239918","tel":"[]","bigType":"科教文化服务","midType":"会展中心","smallType":"会展中心","gcj_lng":121.497017,"gcj_lat":31.239918,"wgs84_loc":"121.492574,31.241924","wgs84Lng":"121.492574","wgs84Lat":"31.241924","__source_file__":"13-常用公服设施点/SHP/上海市_会展中心.shp"},"geometry":{"type":"Point","coordinates":[121.492574,31.241924]}},{"id":"10","type":"Feature","properties":{"id":"B0FFMGKT5S","name":"上海半岛酒店商务中心","address":"中山东一路32号","type":"科教文化服务;会展中心;会展中心","typecode":"140300","pcode":310000,"pname":"上海市","citycode":21,"cityname":"上海市","adcode":310101,"adname":"黄浦区","business_a":"北京东路","location":"121.488481,31.240987","tel":"[]","bigType":"科教文化服务","midType":"会展中心","smallType":"会展中心","gcj_lng":121.488481,"gcj_lat":31.240987,"wgs84_loc":"121.484008,31.242967","wgs84Lng":"121.484008","wgs84Lat":"31.242967","__source_file__":"13-常用公服设施点/SHP/上海市_会展中心.shp"},"geometry":{"type":"Point","coordinates":[121.484008,31.242967]}},{"id":"273","type":"Feature","properties":{"id":"B0FFGE4YD8","name":"智骏会展","address":"昆山路239号","type":"科教文化服务;会展中心;会展中心","typecode":"140300","pcode":310000,"pname":"上海市","citycode":21,"cityname":"上海市","adcode":310109,"adname":"虹口区","business_a":"北外滩","location":"121.485972,31.249197","tel":"[]","bigType":"科教文化服务","midType":"会展中心","smallType":"会展中心","gcj_lng":121.485972,"gcj_lat":31.249197,"wgs84_loc":"121.481489,31.251166","wgs84Lng":"121.481489","wgs84Lat":"31.251166","__source_file__":"13-常用公服设施点/SHP/上海市_会展中心.shp"},"geometry":{"type":"Point","coordinates":[121.481489,31.251166]}},{"id":"77","type":"Feature","properties":{"id":"B00155G8J8","name":"多功能会议厅","address":"海宁路307号爱思大厦3层","type":"科教文化服务;会展中心;会展中心","typecode":"140300","pcode":310000,"pname":"上海市","citycode":21,"cityname":"上海市","adcode":310109,"adname":"虹口区","business_a":"北外滩","location":"121.487193,31.250623","tel":"[]","bigType":"科教文化服务","midType":"会展中心","smallType":"会展中心","gcj_lng":121.487193,"gcj_lat":31.250623,"wgs84_loc":"121.482714,31.252594","wgs84Lng":"121.482714","wgs84Lat":"31.252594","__source_file__":"13-常用公服设施点/SHP/上海市_会展中心.shp"},"geometry":{"type":"Point","coordinates":[121.482714,31.252594]}},{"id":"283","type":"Feature","properties":{"id":"B0FFF2PC8Q","name":"九龙宾馆-上海厅","address":"溧阳路601号绿地九龙宾馆2层","type":"科教文化服务;会展中心;会展中心","typecode":"140300","pcode":310000,"pname":"上海市","citycode":21,"cityname":"上海市","adcode":310109,"adname":"虹口区","business_a":"提篮桥","location":"121.491980,31.253940","tel":"021-65418228","bigType":"科教文化服务","midType":"会展中心","smallType":"会展中心","gcj_lng":121.49198,"gcj_lat":31.25394,"wgs84_loc":"121.487518,31.255924","wgs84Lng":"121.487518","wgs84Lat":"31.255924","__source_file__":"13-常用公服设施点/SHP/上海市_会展中心.shp"},"geometry":{"type":"Point","coordinates":[121.487518,31.255924]}},{"id":"91","type":"Feature","properties":{"id":"B0FFFV62NG","name":"1933会展中心","address":"溧阳路611号","type":"科教文化服务;会展中心;会展中心","typecode":"140300","pcode":310000,"pname":"上海市","citycode":21,"cityname":"上海市","adcode":310109,"adname":"虹口区","business_a":"提篮桥","location":"121.491581,31.254368","tel":"[]","bigType":"科教文化服务","midType":"会展中心","smallType":"会展中心","gcj_lng":121.491581,"gcj_lat":31.254368,"wgs84_loc":"121.487117,31.256351","wgs84Lng":"121.487117","wgs84Lat":"31.256351","__source_file__":"13-常用公服设施点/SHP/上海市_会展中心.shp"},"geometry":{"type":"Point","coordinates":[121.487117,31.256351]}},{"id":"78","type":"Feature","properties":{"id":"B001573G1Q","name":"上海花园坊节能环保产业园会议中心","address":"中山北一路121号","type":"科教文化服务;会展中心;会展中心","typecode":"140300","pcode":310000,"pname":"上海市","citycode":21,"cityname":"上海市","adcode":310109,"adname":"虹口区","business_a":"和田","location":"121.47541,31.272533","tel":"[]","bigType":"科教文化服务","midType":"会展中心","smallType":"会展中心","gcj_lng":121.47541,"gcj_lat":31.272533,"wgs84_loc":"121.470889,31.274461","wgs84Lng":"121.470889","wgs84Lat":"31.274461","__source_file__":"13-常用公服设施点/SHP/上海市_会展中心.shp"},"geometry":{"type":"Point","coordinates":[121.470889,31.274461]}}],"name":"上海市_会展中心","crs":{"type":"name","properties":{"name":"urn:ogc:def:crs:OGC:1.3:CRS84"}}}