{"type":"FeatureCollection","features":[{"id":"16","type":"Feature","properties":{"id":"B00155KQA4","name":"报刊亭","address":"天目西路与民立路交叉口东北50米","type":"公共设施;报刊亭;报刊亭","typecode":"200100","pcode":310000,"pname":"上海市","citycode":21,"cityname":"上海市","adcode":310106,"adname":"静安区","business_a":"[]","location":"121.456211,31.246251","tel":"[]","bigType":"公共设施","midType":"报刊亭","smallType":"报刊亭","gcj_lng":121.456211,"gcj_lat":31.246251,"wgs84_loc":"121.451634,31.248142","wgs84Lng":"121.451634","wgs84Lat":"31.248142","__source_file__":"13-常用公服设施点/SHP/上海市_报刊亭.shp"},"geometry":{"type":"Point","coordinates":[121.451634,31.248142]}},{"id":"38","type":"Feature","properties":{"id":"B0FFHP623D","name":"东方书报亭","address":"四平路与邢家桥北路交叉口西南80米","type":"公共设施;报刊亭;报刊亭","typecode":"200100","pcode":310000,"pname":"上海市","citycode":21,"cityname":"上海市","adcode":310109,"adname":"虹口区","business_a":"宝山路","location":"121.488464,31.259660","tel":"[]","bigType":"公共设施","midType":"报刊亭","smallType":"报刊亭","gcj_lng":121.488464,"gcj_lat":31.25966,"wgs84_loc":"121.483989,31.261631","wgs84Lng":"121.483989","wgs84Lat":"31.261631","__source_file__":"13-常用公服设施点/SHP/上海市_报刊亭.shp"},"geometry":{"type":"Point","coordinates":[121.483989,31.261631]}}],"name":"上海市_报刊亭","crs":{"type":"name","properties":{"name":"urn:ogc:def:crs:OGC:1.3:CRS84"}}}