{"type":"FeatureCollection","features":[{"id":"40","type":"Feature","properties":{"id":"B0FFK2QKT5","name":"奢广汇名品","address":"长乐路588号(近上海第一妇婴保健院西院)","type":"购物服务;特殊买卖场所;特殊买卖场所","typecode":"061300","pcode":310000,"pname":"上海市","citycode":21,"cityname":"上海市","adcode":310106,"adname":"静安区","business_a":"淮海路","location":"121.455225,31.219448","tel":"18601702999;18621613999","bigType":"购物服务","midType":"特殊买卖场所","smallType":"特殊买卖场所","gcj_lng":121.455225,"gcj_lat":31.219448,"wgs84_loc":"121.450648,31.221349","wgs84Lng":"121.450648","wgs84Lat":"31.221349","__source_file__":"13-常用公服设施点/SHP/上海市_特殊买卖场所.shp"},"geometry":{"type":"Point","coordinates":[121.450648,31.221349]}},{"id":"451","type":"Feature","properties":{"id":"B0GKSAI9PV","name":"来来","address":"巨鹿路与茂名南路交叉口西60米","type":"购物服务;特殊买卖场所;特殊买卖场所","typecode":"061300","pcode":310000,"pname":"上海市","citycode":21,"cityname":"上海市","adcode":310101,"adname":"黄浦区","business_a":"淮海路","location":"121.459679,31.222905","tel":"[]","bigType":"购物服务","midType":"特殊买卖场所","smallType":"特殊买卖场所","gcj_lng":121.459679,"gcj_lat":31.222905,"wgs84_loc":"121.455114,31.224815","wgs84Lng":"121.455114","wgs84Lat":"31.224815","__source_file__":"13-常用公服设施点/SHP/上海市_特殊买卖场所.shp"},"geometry":{"type":"Point","coordinates":[121.455114,31.224815]}},{"id":"72","type":"Feature","properties":{"id":"B0FFJCMPIM","name":"来来luxury","address":"上海市黄浦区巨鹿路360号-2号","type":"购物服务;特殊买卖场所;特殊买卖场所","typecode":"061300","pcode":310000,"pname":"上海市","citycode":21,"cityname":"上海市","adcode":310101,"adname":"黄浦区","business_a":"淮海路","location":"121.459718,31.222908","tel":"18117250402","bigType":"购物服务","midType":"特殊买卖场所","smallType":"特殊买卖场所","gcj_lng":121.459718,"gcj_lat":31.222908,"wgs84_loc":"121.455153,31.224818","wgs84Lng":"121.455153","wgs84Lat":"31.224818","__source_file__":"13-常用公服设施点/SHP/上海市_特殊买卖场所.shp"},"geometry":{"type":"Point","coordinates":[121.455153,31.224818]}},{"id":"101","type":"Feature","properties":{"id":"B0FFLNRSLP","name":"品鸿二手中古奢侈品回收寄卖(静安寺店)","address":"华山路与南京西路交叉口西北约40米","type":"购物服务;特殊买卖场所;特殊买卖场所","typecode":"061300","pcode":310000,"pname":"上海市","citycode":21,"cityname":"上海市","adcode":310106,"adname":"静安区","business_a":"中山公园","location":"121.444681,31.222818","tel":"13482836770","bigType":"购物服务","midType":"特殊买卖场所","smallType":"特殊买卖场所","gcj_lng":121.444681,"gcj_lat":31.222818,"wgs84_loc":"121.440078,31.224696","wgs84Lng":"121.440078","wgs84Lat":"31.224696","__source_file__":"13-常用公服设施点/SHP/上海市_特殊买卖场所.shp"},"geometry":{"type":"Point","coordinates":[121.440078,31.224696]}},{"id":"475","type":"Feature","properties":{"id":"B0IADDUL76","name":"妃鱼奢侈品寄卖(久光店)","address":"南京西路1618号久光百货F1(静安寺地铁站2号口旁)","type":"购物服务;特殊买卖场所;特殊买卖场所","typecode":"061300","pcode":310000,"pname":"上海市","citycode":21,"cityname":"上海市","adcode":310106,"adname":"静安区","business_a":"曹家渡","location":"121.445851,31.223436","tel":"[]","bigType":"购物服务","midType":"特殊买卖场所","smallType":"特殊买卖场所","gcj_lng":121.445851,"gcj_lat":31.223436,"wgs84_loc":"121.441251,31.225316","wgs84Lng":"121.441251","wgs84Lat":"31.225316","__source_file__":"13-常用公服设施点/SHP/上海市_特殊买卖场所.shp"},"geometry":{"type":"Point","coordinates":[121.441251,31.225316]}},{"id":"182","type":"Feature","properties":{"id":"B0I64Z3C62","name":"程鑫奢侈品","address":"万航渡路130-1号","type":"购物服务;特殊买卖场所;典当行","typecode":"061302","pcode":310000,"pname":"上海市","citycode":21,"cityname":"上海市","adcode":310106,"adname":"静安区","business_a":"曹家渡","location":"121.442125,31.224799","tel":"[]","bigType":"购物服务","midType":"特殊买卖场所","smallType":"典当行","gcj_lng":121.442125,"gcj_lat":31.224799,"wgs84_loc":"121.437516,31.226672","wgs84Lng":"121.437516","wgs84Lat":"31.226672","__source_file__":"13-常用公服设施点/SHP/上海市_特殊买卖场所.shp"},"geometry":{"type":"Point","coordinates":[121.437516,31.226672]}},{"id":"181","type":"Feature","properties":{"id":"B0FFK2SL9C","name":"融通典当","address":"新闸路1950-3号","type":"购物服务;特殊买卖场所;典当行","typecode":"061302","pcode":310000,"pname":"上海市","citycode":21,"cityname":"上海市","adcode":310106,"adname":"静安区","business_a":"曹家渡","location":"121.441001,31.226272","tel":"[]","bigType":"购物服务","midType":"特殊买卖场所","smallType":"典当行","gcj_lng":121.441001,"gcj_lat":31.226272,"wgs84_loc":"121.43639,31.228142","wgs84Lng":"121.43639","wgs84Lat":"31.228142","__source_file__":"13-常用公服设施点/SHP/上海市_特殊买卖场所.shp"},"geometry":{"type":"Point","coordinates":[121.43639,31.228142]}},{"id":"92","type":"Feature","properties":{"id":"B0FFG4GYSJ","name":"桃屋中古寄售","address":"胶州路377号","type":"购物服务;特殊买卖场所;特殊买卖场所","typecode":"061300","pcode":310000,"pname":"上海市","citycode":21,"cityname":"上海市","adcode":310106,"adname":"静安区","business_a":"曹家渡","location":"121.442304,31.230213","tel":"13916007033","bigType":"购物服务","midType":"特殊买卖场所","smallType":"特殊买卖场所","gcj_lng":121.442304,"gcj_lat":31.230213,"wgs84_loc":"121.437695,31.232084","wgs84Lng":"121.437695","wgs84Lat":"31.232084","__source_file__":"13-常用公服设施点/SHP/上海市_特殊买卖场所.shp"},"geometry":{"type":"Point","coordinates":[121.437695,31.232084]}},{"id":"94","type":"Feature","properties":{"id":"B0HKJMWBQK","name":"欧奢汇名品","address":"威海路834号","type":"购物服务;特殊买卖场所;典当行","typecode":"061302","pcode":310000,"pname":"上海市","citycode":21,"cityname":"上海市","adcode":310106,"adname":"静安区","business_a":"淮海路","location":"121.456072,31.225203","tel":"[]","bigType":"购物服务","midType":"特殊买卖场所","smallType":"典当行","gcj_lng":121.456072,"gcj_lat":31.225203,"wgs84_loc":"121.451497,31.227104","wgs84Lng":"121.451497","wgs84Lat":"31.227104","__source_file__":"13-常用公服设施点/SHP/上海市_特殊买卖场所.shp"},"geometry":{"type":"Point","coordinates":[121.451497,31.227104]}},{"id":"102","type":"Feature","properties":{"id":"B0FFG6TDOM","name":"上海银锭鉴定拍卖中心","address":"北京西路1465号国立大厦","type":"购物服务;特殊买卖场所;拍卖行","typecode":"061301","pcode":310000,"pname":"上海市","citycode":21,"cityname":"上海市","adcode":310106,"adname":"静安区","business_a":"曹家渡","location":"121.447835,31.227185","tel":"[]","bigType":"购物服务","midType":"特殊买卖场所","smallType":"拍卖行","gcj_lng":121.447835,"gcj_lat":31.227185,"wgs84_loc":"121.443239,31.229067","wgs84Lng":"121.443239","wgs84Lat":"31.229067","__source_file__":"13-常用公服设施点/SHP/上海市_特殊买卖场所.shp"},"geometry":{"type":"Point","coordinates":[121.443239,31.229067]}},{"id":"97","type":"Feature","properties":{"id":"B0FFG6V7DB","name":"上海恐龙蛋化石检测拍卖中心","address":"北京西路1465号国立大厦6层","type":"购物服务;特殊买卖场所;拍卖行","typecode":"061301","pcode":310000,"pname":"上海市","citycode":21,"cityname":"上海市","adcode":310106,"adname":"静安区","business_a":"曹家渡","location":"121.447824,31.227204","tel":"[]","bigType":"购物服务","midType":"特殊买卖场所","smallType":"拍卖行","gcj_lng":121.447824,"gcj_lat":31.227204,"wgs84_loc":"121.443228,31.229086","wgs84Lng":"121.443228","wgs84Lat":"31.229086","__source_file__":"13-常用公服设施点/SHP/上海市_特殊买卖场所.shp"},"geometry":{"type":"Point","coordinates":[121.443228,31.229086]}},{"id":"52","type":"Feature","properties":{"id":"B0FFG6PYTB","name":"错版币鉴定交易","address":"北京西路1465号国立大厦6层","type":"购物服务;特殊买卖场所;特殊买卖场所","typecode":"061300","pcode":310000,"pname":"上海市","citycode":21,"cityname":"上海市","adcode":310106,"adname":"静安区","business_a":"曹家渡","location":"121.448016,31.227230","tel":"[]","bigType":"购物服务","midType":"特殊买卖场所","smallType":"特殊买卖场所","gcj_lng":121.448016,"gcj_lat":31.22723,"wgs84_loc":"121.44342,31.229113","wgs84Lng":"121.44342","wgs84Lat":"31.229113","__source_file__":"13-常用公服设施点/SHP/上海市_特殊买卖场所.shp"},"geometry":{"type":"Point","coordinates":[121.44342,31.229113]}},{"id":"175","type":"Feature","properties":{"id":"B0H2GATVQE","name":"奢侈品回收(名品汇)","address":"泰兴路345号","type":"购物服务;特殊买卖场所;典当行","typecode":"061302","pcode":310000,"pname":"上海市","citycode":21,"cityname":"上海市","adcode":310106,"adname":"静安区","business_a":"淮海路","location":"121.457426,31.231937","tel":"15961288677","bigType":"购物服务","midType":"特殊买卖场所","smallType":"典当行","gcj_lng":121.457426,"gcj_lat":31.231937,"wgs84_loc":"121.452854,31.233838","wgs84Lng":"121.452854","wgs84Lat":"31.233838","__source_file__":"13-常用公服设施点/SHP/上海市_特殊买卖场所.shp"},"geometry":{"type":"Point","coordinates":[121.452854,31.233838]}},{"id":"91","type":"Feature","properties":{"id":"B0FFGPXKLO","name":"祥瑞寄售(新闸路)","address":"新闸路894号","type":"购物服务;特殊买卖场所;特殊买卖场所","typecode":"061300","pcode":310000,"pname":"上海市","citycode":21,"cityname":"上海市","adcode":310106,"adname":"静安区","business_a":"淮海路","location":"121.458235,31.234188","tel":"[]","bigType":"购物服务","midType":"特殊买卖场所","smallType":"特殊买卖场所","gcj_lng":121.458235,"gcj_lat":31.234188,"wgs84_loc":"121.453665,31.236089","wgs84Lng":"121.453665","wgs84Lat":"31.236089","__source_file__":"13-常用公服设施点/SHP/上海市_特殊买卖场所.shp"},"geometry":{"type":"Point","coordinates":[121.453665,31.236089]}},{"id":"38","type":"Feature","properties":{"id":"B0FFF46V16","name":"上海祥瑞名表回收公司(新闸路)","address":"新闸路894号","type":"购物服务;特殊买卖场所;特殊买卖场所","typecode":"061300","pcode":310000,"pname":"上海市","citycode":21,"cityname":"上海市","adcode":310106,"adname":"静安区","business_a":"淮海路","location":"121.458251,31.234206","tel":"021-66400781;13524222669","bigType":"购物服务","midType":"特殊买卖场所","smallType":"特殊买卖场所","gcj_lng":121.458251,"gcj_lat":31.234206,"wgs84_loc":"121.453681,31.236107","wgs84Lng":"121.453681","wgs84Lat":"31.236107","__source_file__":"13-常用公服设施点/SHP/上海市_特殊买卖场所.shp"},"geometry":{"type":"Point","coordinates":[121.453681,31.236107]}},{"id":"441","type":"Feature","properties":{"id":"B00155I2TL","name":"上海金搥商品拍卖有限公司","address":"江宁路445号时美大厦15层D座","type":"购物服务;特殊买卖场所;拍卖行","typecode":"061301","pcode":310000,"pname":"上海市","citycode":21,"cityname":"上海市","adcode":310106,"adname":"静安区","business_a":"曹家渡","location":"121.452012,31.234625","tel":"[]","bigType":"购物服务","midType":"特殊买卖场所","smallType":"拍卖行","gcj_lng":121.452012,"gcj_lat":31.234625,"wgs84_loc":"121.447425,31.236512","wgs84Lng":"121.447425","wgs84Lat":"31.236512","__source_file__":"13-常用公服设施点/SHP/上海市_特殊买卖场所.shp"},"geometry":{"type":"Point","coordinates":[121.447425,31.236512]}},{"id":"183","type":"Feature","properties":{"id":"B0FFLGH27W","name":"元利当","address":"武定路与泰兴路交叉口西南约80米","type":"购物服务;特殊买卖场所;典当行","typecode":"061302","pcode":310000,"pname":"上海市","citycode":21,"cityname":"上海市","adcode":310106,"adname":"静安区","business_a":"淮海路","location":"121.456143,31.235247","tel":"[]","bigType":"购物服务","midType":"特殊买卖场所","smallType":"典当行","gcj_lng":121.456143,"gcj_lat":31.235247,"wgs84_loc":"121.451567,31.237143","wgs84Lng":"121.451567","wgs84Lat":"31.237143","__source_file__":"13-常用公服设施点/SHP/上海市_特殊买卖场所.shp"},"geometry":{"type":"Point","coordinates":[121.451567,31.237143]}},{"id":"437","type":"Feature","properties":{"id":"B0FFF004V6","name":"宁波富邦拍卖有限公司(上海办事处)","address":"康定路211-1号艺海大厦4层403室","type":"购物服务;特殊买卖场所;拍卖行","typecode":"061301","pcode":310000,"pname":"上海市","citycode":21,"cityname":"上海市","adcode":310106,"adname":"静安区","business_a":"曹家渡","location":"121.452509,31.235613","tel":"[]","bigType":"购物服务","midType":"特殊买卖场所","smallType":"拍卖行","gcj_lng":121.452509,"gcj_lat":31.235613,"wgs84_loc":"121.447923,31.237501","wgs84Lng":"121.447923","wgs84Lat":"31.237501","__source_file__":"13-常用公服设施点/SHP/上海市_特殊买卖场所.shp"},"geometry":{"type":"Point","coordinates":[121.447923,31.237501]}},{"id":"423","type":"Feature","properties":{"id":"B0FFHCTR32","name":"香港工匠·奢侈品之家(常德路店)","address":"常德路577号","type":"购物服务;特殊买卖场所;特殊买卖场所","typecode":"061300","pcode":310000,"pname":"上海市","citycode":21,"cityname":"上海市","adcode":310106,"adname":"静安区","business_a":"曹家渡","location":"121.445513,31.230617","tel":"[]","bigType":"购物服务","midType":"特殊买卖场所","smallType":"特殊买卖场所","gcj_lng":121.445513,"gcj_lat":31.230617,"wgs84_loc":"121.440911,31.232493","wgs84Lng":"121.440911","wgs84Lat":"31.232493","__source_file__":"13-常用公服设施点/SHP/上海市_特殊买卖场所.shp"},"geometry":{"type":"Point","coordinates":[121.440911,31.232493]}},{"id":"574","type":"Feature","properties":{"id":"B0J647M513","name":"歇石轩旧货调剂商店","address":"常德路641号(昌平路地铁站2号口步行240米)","type":"购物服务;特殊买卖场所;典当行","typecode":"061302","pcode":310000,"pname":"上海市","citycode":21,"cityname":"上海市","adcode":310106,"adname":"静安区","business_a":"[]","location":"121.444623,31.231495","tel":"15301686269","bigType":"购物服务","midType":"特殊买卖场所","smallType":"典当行","gcj_lng":121.444623,"gcj_lat":31.231495,"wgs84_loc":"121.440019,31.233369","wgs84Lng":"121.440019","wgs84Lat":"31.233369","__source_file__":"13-常用公服设施点/SHP/上海市_特殊买卖场所.shp"},"geometry":{"type":"Point","coordinates":[121.440019,31.233369]}},{"id":"591","type":"Feature","properties":{"id":"B0KD1DJYFG","name":"上海金槌商品拍卖有限公司","address":"常德路814号南203室(昌平路地铁站3号口步行110米)","type":"购物服务;特殊买卖场所;拍卖行","typecode":"061301","pcode":310000,"pname":"上海市","citycode":21,"cityname":"上海市","adcode":310106,"adname":"静安区","business_a":"[]","location":"121.442789,31.233957","tel":"[]","bigType":"购物服务","midType":"特殊买卖场所","smallType":"拍卖行","gcj_lng":121.442789,"gcj_lat":31.233957,"wgs84_loc":"121.438181,31.235827","wgs84Lng":"121.438181","wgs84Lat":"31.235827","__source_file__":"13-常用公服设施点/SHP/上海市_特殊买卖场所.shp"},"geometry":{"type":"Point","coordinates":[121.438181,31.235827]}},{"id":"44","type":"Feature","properties":{"id":"B00155QGTC","name":"庆宏调剂商店","address":"安远路727-1号","type":"购物服务;特殊买卖场所;特殊买卖场所","typecode":"061300","pcode":310000,"pname":"上海市","citycode":21,"cityname":"上海市","adcode":310106,"adname":"静安区","business_a":"曹家渡","location":"121.435326,31.235218","tel":"[]","bigType":"购物服务","midType":"特殊买卖场所","smallType":"特殊买卖场所","gcj_lng":121.435326,"gcj_lat":31.235218,"wgs84_loc":"121.430703,31.237075","wgs84Lng":"121.430703","wgs84Lat":"31.237075","__source_file__":"13-常用公服设施点/SHP/上海市_特殊买卖场所.shp"},"geometry":{"type":"Point","coordinates":[121.430703,31.237075]}},{"id":"99","type":"Feature","properties":{"id":"B0G0DXELIA","name":"阿里拍卖·老酒集市","address":"昌平路静安鼎鑫佳园","type":"购物服务;特殊买卖场所;拍卖行","typecode":"061301","pcode":310000,"pname":"上海市","citycode":21,"cityname":"上海市","adcode":310106,"adname":"静安区","business_a":"曹家渡","location":"121.444874,31.235425","tel":"[]","bigType":"购物服务","midType":"特殊买卖场所","smallType":"拍卖行","gcj_lng":121.444874,"gcj_lat":31.235425,"wgs84_loc":"121.44027,31.237298","wgs84Lng":"121.44027","wgs84Lat":"31.237298","__source_file__":"13-常用公服设施点/SHP/上海市_特殊买卖场所.shp"},"geometry":{"type":"Point","coordinates":[121.44027,31.237298]}},{"id":"167","type":"Feature","properties":{"id":"B001518B18","name":"家鑫典当行","address":"西康路709号","type":"购物服务;特殊买卖场所;典当行","typecode":"061302","pcode":310000,"pname":"上海市","citycode":21,"cityname":"上海市","adcode":310106,"adname":"静安区","business_a":"曹家渡","location":"121.444547,31.235877","tel":"021-62583256;021-62151611","bigType":"购物服务","midType":"特殊买卖场所","smallType":"典当行","gcj_lng":121.444547,"gcj_lat":31.235877,"wgs84_loc":"121.439943,31.237749","wgs84Lng":"121.439943","wgs84Lat":"31.237749","__source_file__":"13-常用公服设施点/SHP/上海市_特殊买卖场所.shp"},"geometry":{"type":"Point","coordinates":[121.439943,31.237749]}},{"id":"305","type":"Feature","properties":{"id":"B0FFFAEZ4H","name":"上海古董拍卖行","address":"长寿路587号沙田大厦27层","type":"购物服务;特殊买卖场所;拍卖行","typecode":"061301","pcode":310000,"pname":"上海市","citycode":21,"cityname":"上海市","adcode":310107,"adname":"普陀区","business_a":"曹家渡","location":"121.434261,31.237284","tel":"[]","bigType":"购物服务","midType":"特殊买卖场所","smallType":"拍卖行","gcj_lng":121.434261,"gcj_lat":31.237284,"wgs84_loc":"121.429636,31.239139","wgs84Lng":"121.429636","wgs84Lat":"31.239139","__source_file__":"13-常用公服设施点/SHP/上海市_特殊买卖场所.shp"},"geometry":{"type":"Point","coordinates":[121.429636,31.239139]}},{"id":"103","type":"Feature","properties":{"id":"B00150F144","name":"恒隆典当","address":"长寿路730号(武宁路地铁站2号口步行430米)","type":"购物服务;特殊买卖场所;典当行","typecode":"061302","pcode":310000,"pname":"上海市","citycode":21,"cityname":"上海市","adcode":310107,"adname":"普陀区","business_a":"曹家渡","location":"121.432873,31.237639","tel":"021-62777810;021-62989807","bigType":"购物服务","midType":"特殊买卖场所","smallType":"典当行","gcj_lng":121.432873,"gcj_lat":31.237639,"wgs84_loc":"121.428246,31.239492","wgs84Lng":"121.428246","wgs84Lat":"31.239492","__source_file__":"13-常用公服设施点/SHP/上海市_特殊买卖场所.shp"},"geometry":{"type":"Point","coordinates":[121.428246,31.239492]}},{"id":"507","type":"Feature","properties":{"id":"B0JDO791LC","name":"UD回收寄卖(创享塔店)","address":"叶家宅路100号创享塔","type":"购物服务;特殊买卖场所;特殊买卖场所","typecode":"061300","pcode":310000,"pname":"上海市","citycode":21,"cityname":"上海市","adcode":310107,"adname":"普陀区","business_a":"长寿路","location":"121.430819,31.237908","tel":"18049987033","bigType":"购物服务","midType":"特殊买卖场所","smallType":"特殊买卖场所","gcj_lng":121.430819,"gcj_lat":31.237908,"wgs84_loc":"121.426189,31.239758","wgs84Lng":"121.426189","wgs84Lat":"31.239758","__source_file__":"13-常用公服设施点/SHP/上海市_特殊买卖场所.shp"},"geometry":{"type":"Point","coordinates":[121.426189,31.239758]}},{"id":"343","type":"Feature","properties":{"id":"B0FFK9C62D","name":"国信典当","address":"常德路1155号","type":"购物服务;特殊买卖场所;典当行","typecode":"061302","pcode":310000,"pname":"上海市","citycode":21,"cityname":"上海市","adcode":310107,"adname":"普陀区","business_a":"曹家渡","location":"121.439611,31.238153","tel":"021-66106896","bigType":"购物服务","midType":"特殊买卖场所","smallType":"典当行","gcj_lng":121.439611,"gcj_lat":31.238153,"wgs84_loc":"121.434996,31.240015","wgs84Lng":"121.434996","wgs84Lat":"31.240015","__source_file__":"13-常用公服设施点/SHP/上海市_特殊买卖场所.shp"},"geometry":{"type":"Point","coordinates":[121.434996,31.240015]}},{"id":"98","type":"Feature","properties":{"id":"B0I6A7C85Q","name":"嘉泰拍卖","address":"西康路928弄创展大厦701室","type":"购物服务;特殊买卖场所;拍卖行","typecode":"061301","pcode":310000,"pname":"上海市","citycode":21,"cityname":"上海市","adcode":310106,"adname":"静安区","business_a":"曹家渡","location":"121.443446,31.239345","tel":"[]","bigType":"购物服务","midType":"特殊买卖场所","smallType":"拍卖行","gcj_lng":121.443446,"gcj_lat":31.239345,"wgs84_loc":"121.438839,31.241214","wgs84Lng":"121.438839","wgs84Lat":"31.241214","__source_file__":"13-常用公服设施点/SHP/上海市_特殊买卖场所.shp"},"geometry":{"type":"Point","coordinates":[121.438839,31.241214]}},{"id":"573","type":"Feature","properties":{"id":"B0I0TNSIBC","name":"鲲珹典当(中环商务大厦店)","address":"长寿路468号中环商务大厦1101室","type":"购物服务;特殊买卖场所;典当行","typecode":"061302","pcode":310000,"pname":"上海市","citycode":21,"cityname":"上海市","adcode":310107,"adname":"普陀区","business_a":"长寿路","location":"121.436601,31.240122","tel":"[]","bigType":"购物服务","midType":"特殊买卖场所","smallType":"典当行","gcj_lng":121.436601,"gcj_lat":31.240122,"wgs84_loc":"121.43198,31.241979","wgs84Lng":"121.43198","wgs84Lat":"31.241979","__source_file__":"13-常用公服设施点/SHP/上海市_特殊买卖场所.shp"},"geometry":{"type":"Point","coordinates":[121.43198,31.241979]}},{"id":"571","type":"Feature","properties":{"id":"B0KUZLPZ68","name":"睿金典當","address":"长寿路360号1412室(长寿路地铁站3号口步行100米)","type":"购物服务;特殊买卖场所;典当行","typecode":"061302","pcode":310000,"pname":"上海市","citycode":21,"cityname":"上海市","adcode":310107,"adname":"普陀区","business_a":"长寿路","location":"121.438888,31.241857","tel":"17621371434;18602146655","bigType":"购物服务","midType":"特殊买卖场所","smallType":"典当行","gcj_lng":121.438888,"gcj_lat":31.241857,"wgs84_loc":"121.434271,31.243717","wgs84Lng":"121.434271","wgs84Lat":"31.243717","__source_file__":"13-常用公服设施点/SHP/上海市_特殊买卖场所.shp"},"geometry":{"type":"Point","coordinates":[121.434271,31.243717]}},{"id":"238","type":"Feature","properties":{"id":"B0FFH0RDYJ","name":"上海泰珑寄售服务有限公司","address":"陕西北路新会路路口1388号银座大厦5楼","type":"购物服务;特殊买卖场所;特殊买卖场所","typecode":"061300","pcode":310000,"pname":"上海市","citycode":21,"cityname":"上海市","adcode":310107,"adname":"普陀区","business_a":"曹家渡","location":"121.442820,31.242448","tel":"[]","bigType":"购物服务","midType":"特殊买卖场所","smallType":"特殊买卖场所","gcj_lng":121.44282,"gcj_lat":31.242448,"wgs84_loc":"121.438211,31.244314","wgs84Lng":"121.438211","wgs84Lat":"31.244314","__source_file__":"13-常用公服设施点/SHP/上海市_特殊买卖场所.shp"},"geometry":{"type":"Point","coordinates":[121.438211,31.244314]}},{"id":"158","type":"Feature","properties":{"id":"B0FFGC35A5","name":"上海产权拍卖有限公司","address":"江宁路1158号12楼","type":"购物服务;特殊买卖场所;拍卖行","typecode":"061301","pcode":310000,"pname":"上海市","citycode":21,"cityname":"上海市","adcode":310107,"adname":"普陀区","business_a":"曹家渡","location":"121.444589,31.243758","tel":"021-62416066","bigType":"购物服务","midType":"特殊买卖场所","smallType":"拍卖行","gcj_lng":121.444589,"gcj_lat":31.243758,"wgs84_loc":"121.439984,31.245627","wgs84Lng":"121.439984","wgs84Lat":"31.245627","__source_file__":"13-常用公服设施点/SHP/上海市_特殊买卖场所.shp"},"geometry":{"type":"Point","coordinates":[121.439984,31.245627]}},{"id":"129","type":"Feature","properties":{"id":"B0G21S6ZZU","name":"二手奢侈品珠宝","address":"长寿路76号","type":"购物服务;特殊买卖场所;特殊买卖场所","typecode":"061300","pcode":310000,"pname":"上海市","citycode":21,"cityname":"上海市","adcode":310107,"adname":"普陀区","business_a":"光新","location":"121.444254,31.244488","tel":"13564281899","bigType":"购物服务","midType":"特殊买卖场所","smallType":"特殊买卖场所","gcj_lng":121.444254,"gcj_lat":31.244488,"wgs84_loc":"121.439648,31.246356","wgs84Lng":"121.439648","wgs84Lat":"31.246356","__source_file__":"13-常用公服设施点/SHP/上海市_特殊买卖场所.shp"},"geometry":{"type":"Point","coordinates":[121.439648,31.246356]}},{"id":"439","type":"Feature","properties":{"id":"B0G0RSEEAQ","name":"锦泰拍卖","address":"陕西北路与普陀路交叉路口北侧(华生大厦)","type":"购物服务;特殊买卖场所;拍卖行","typecode":"061301","pcode":310000,"pname":"上海市","citycode":21,"cityname":"上海市","adcode":310107,"adname":"普陀区","business_a":"曹家渡","location":"121.440030,31.244550","tel":"[]","bigType":"购物服务","midType":"特殊买卖场所","smallType":"拍卖行","gcj_lng":121.44003,"gcj_lat":31.24455,"wgs84_loc":"121.435415,31.24641","wgs84Lng":"121.435415","wgs84Lat":"31.24641","__source_file__":"13-常用公服设施点/SHP/上海市_特殊买卖场所.shp"},"geometry":{"type":"Point","coordinates":[121.435415,31.24641]}},{"id":"341","type":"Feature","properties":{"id":"B00151B1CE","name":"上海石泉典当行(场中路分行)","address":"中山北路2317-2319号","type":"购物服务;特殊买卖场所;典当行","typecode":"061302","pcode":310000,"pname":"上海市","citycode":21,"cityname":"上海市","adcode":310107,"adname":"普陀区","business_a":"光新","location":"121.426316,31.245713","tel":"021-62052565;021-62057215","bigType":"购物服务","midType":"特殊买卖场所","smallType":"典当行","gcj_lng":121.426316,"gcj_lat":31.245713,"wgs84_loc":"121.421679,31.247554","wgs84Lng":"121.421679","wgs84Lat":"31.247554","__source_file__":"13-常用公服设施点/SHP/上海市_特殊买卖场所.shp"},"geometry":{"type":"Point","coordinates":[121.421679,31.247554]}},{"id":"237","type":"Feature","properties":{"id":"B0FFHEJXDN","name":"亚太香港艺术品拍卖集团有限公司","address":"光新路88号中一国际大厦11层1106室","type":"购物服务;特殊买卖场所;拍卖行","typecode":"061301","pcode":310000,"pname":"上海市","citycode":21,"cityname":"上海市","adcode":310107,"adname":"普陀区","business_a":"光新","location":"121.432956,31.251125","tel":"[]","bigType":"购物服务","midType":"特殊买卖场所","smallType":"拍卖行","gcj_lng":121.432956,"gcj_lat":31.251125,"wgs84_loc":"121.428328,31.252972","wgs84Lng":"121.428328","wgs84Lat":"31.252972","__source_file__":"13-常用公服设施点/SHP/上海市_特殊买卖场所.shp"},"geometry":{"type":"Point","coordinates":[121.428328,31.252972]}},{"id":"166","type":"Feature","properties":{"id":"B00155HNJT","name":"友邦典当行","address":"江宁路580号","type":"购物服务;特殊买卖场所;典当行","typecode":"061302","pcode":310000,"pname":"上海市","citycode":21,"cityname":"上海市","adcode":310106,"adname":"静安区","business_a":"曹家渡","location":"121.450606,31.236137","tel":"[]","bigType":"购物服务","midType":"特殊买卖场所","smallType":"典当行","gcj_lng":121.450606,"gcj_lat":31.236137,"wgs84_loc":"121.446016,31.238021","wgs84Lng":"121.446016","wgs84Lat":"31.238021","__source_file__":"13-常用公服设施点/SHP/上海市_特殊买卖场所.shp"},"geometry":{"type":"Point","coordinates":[121.446016,31.238021]}},{"id":"95","type":"Feature","properties":{"id":"B0FFL2U7C7","name":"德康拍卖","address":"江宁路585号","type":"购物服务;特殊买卖场所;拍卖行","typecode":"061301","pcode":310000,"pname":"上海市","citycode":21,"cityname":"上海市","adcode":310106,"adname":"静安区","business_a":"曹家渡","location":"121.450565,31.236152","tel":"021-62994958","bigType":"购物服务","midType":"特殊买卖场所","smallType":"拍卖行","gcj_lng":121.450565,"gcj_lat":31.236152,"wgs84_loc":"121.445975,31.238036","wgs84Lng":"121.445975","wgs84Lat":"31.238036","__source_file__":"13-常用公服设施点/SHP/上海市_特殊买卖场所.shp"},"geometry":{"type":"Point","coordinates":[121.445975,31.238036]}},{"id":"410","type":"Feature","properties":{"id":"B00154529D","name":"上海信仁拍卖有限公司","address":"汉中路158号汉中广场12层1223","type":"购物服务;特殊买卖场所;拍卖行","typecode":"061301","pcode":310000,"pname":"上海市","citycode":21,"cityname":"上海市","adcode":310106,"adname":"静安区","business_a":"[]","location":"121.458269,31.242283","tel":"[]","bigType":"购物服务","midType":"特殊买卖场所","smallType":"拍卖行","gcj_lng":121.458269,"gcj_lat":31.242283,"wgs84_loc":"121.453698,31.244181","wgs84Lng":"121.453698","wgs84Lat":"31.244181","__source_file__":"13-常用公服设施点/SHP/上海市_特殊买卖场所.shp"},"geometry":{"type":"Point","coordinates":[121.453698,31.244181]}},{"id":"456","type":"Feature","properties":{"id":"B0FFKB4TPP","name":"尊旺寄售有限公司","address":"共和路219号企业公馆","type":"购物服务;特殊买卖场所;特殊买卖场所","typecode":"061300","pcode":310000,"pname":"上海市","citycode":21,"cityname":"上海市","adcode":310106,"adname":"静安区","business_a":"[]","location":"121.457947,31.244707","tel":"[]","bigType":"购物服务","midType":"特殊买卖场所","smallType":"特殊买卖场所","gcj_lng":121.457947,"gcj_lat":31.244707,"wgs84_loc":"121.453375,31.246603","wgs84Lng":"121.453375","wgs84Lat":"31.246603","__source_file__":"13-常用公服设施点/SHP/上海市_特殊买卖场所.shp"},"geometry":{"type":"Point","coordinates":[121.453375,31.246603]}},{"id":"427","type":"Feature","properties":{"id":"B0FFF7POLU","name":"上海豪宇拍卖有限公司","address":"长寿路28弄15号楼3303室","type":"购物服务;特殊买卖场所;拍卖行","typecode":"061301","pcode":310000,"pname":"上海市","citycode":21,"cityname":"上海市","adcode":310107,"adname":"普陀区","business_a":"光新","location":"121.446326,31.245283","tel":"021-62663629","bigType":"购物服务","midType":"特殊买卖场所","smallType":"拍卖行","gcj_lng":121.446326,"gcj_lat":31.245283,"wgs84_loc":"121.441725,31.247154","wgs84Lng":"121.441725","wgs84Lat":"31.247154","__source_file__":"13-常用公服设施点/SHP/上海市_特殊买卖场所.shp"},"geometry":{"type":"Point","coordinates":[121.441725,31.247154]}},{"id":"575","type":"Feature","properties":{"id":"B0IUFHV07O","name":"来押手机抵押典当(恒汇国际大厦店)","address":"恒丰路568号恒汇国际大厦F7层","type":"购物服务;特殊买卖场所;典当行","typecode":"061302","pcode":310000,"pname":"上海市","citycode":21,"cityname":"上海市","adcode":310106,"adname":"静安区","business_a":"不夜城","location":"121.452512,31.246131","tel":"15862336645","bigType":"购物服务","midType":"特殊买卖场所","smallType":"典当行","gcj_lng":121.452512,"gcj_lat":31.246131,"wgs84_loc":"121.447926,31.248014","wgs84Lng":"121.447926","wgs84Lat":"31.248014","__source_file__":"13-常用公服设施点/SHP/上海市_特殊买卖场所.shp"},"geometry":{"type":"Point","coordinates":[121.447926,31.248014]}},{"id":"506","type":"Feature","properties":{"id":"B0KRSCL7ZJ","name":"上海益置拍卖有限公司","address":"莫干山路101号","type":"购物服务;特殊买卖场所;拍卖行","typecode":"061301","pcode":310000,"pname":"上海市","citycode":21,"cityname":"上海市","adcode":310107,"adname":"普陀区","business_a":"长寿路","location":"121.446509,31.247547","tel":"[]","bigType":"购物服务","midType":"特殊买卖场所","smallType":"拍卖行","gcj_lng":121.446509,"gcj_lat":31.247547,"wgs84_loc":"121.441908,31.249417","wgs84Lng":"121.441908","wgs84Lat":"31.249417","__source_file__":"13-常用公服设施点/SHP/上海市_特殊买卖场所.shp"},"geometry":{"type":"Point","coordinates":[121.441908,31.249417]}},{"id":"176","type":"Feature","properties":{"id":"B0FFM5OH41","name":"國信典当(静安店)","address":"芷江西路201号","type":"购物服务;特殊买卖场所;典当行","typecode":"061302","pcode":310000,"pname":"上海市","citycode":21,"cityname":"上海市","adcode":310106,"adname":"静安区","business_a":"和田","location":"121.462967,31.257941","tel":"[]","bigType":"购物服务","midType":"特殊买卖场所","smallType":"典当行","gcj_lng":121.462967,"gcj_lat":31.257941,"wgs84_loc":"121.458408,31.259843","wgs84Lng":"121.458408","wgs84Lat":"31.259843","__source_file__":"13-常用公服设施点/SHP/上海市_特殊买卖场所.shp"},"geometry":{"type":"Point","coordinates":[121.458408,31.259843]}},{"id":"169","type":"Feature","properties":{"id":"B00157I46S","name":"国信典当(总店)","address":"中山北路900号","type":"购物服务;特殊买卖场所;典当行","typecode":"061302","pcode":310000,"pname":"上海市","citycode":21,"cityname":"上海市","adcode":310106,"adname":"静安区","business_a":"和田","location":"121.455525,31.259123","tel":"021-56625106;4008206919","bigType":"购物服务","midType":"特殊买卖场所","smallType":"典当行","gcj_lng":121.455525,"gcj_lat":31.259123,"wgs84_loc":"121.450945,31.261007","wgs84Lng":"121.450945","wgs84Lat":"31.261007","__source_file__":"13-常用公服设施点/SHP/上海市_特殊买卖场所.shp"},"geometry":{"type":"Point","coordinates":[121.450945,31.261007]}},{"id":"594","type":"Feature","properties":{"id":"B0J25AI7NZ","name":"晟安拍卖","address":"洛川中路1158号B2幢东区4楼427-429","type":"购物服务;特殊买卖场所;特殊买卖场所","typecode":"061300","pcode":310000,"pname":"上海市","citycode":21,"cityname":"上海市","adcode":310106,"adname":"静安区","business_a":"和田","location":"121.449191,31.262807","tel":"021-65050850","bigType":"购物服务","midType":"特殊买卖场所","smallType":"特殊买卖场所","gcj_lng":121.449191,"gcj_lat":31.262807,"wgs84_loc":"121.444595,31.264676","wgs84Lng":"121.444595","wgs84Lat":"31.264676","__source_file__":"13-常用公服设施点/SHP/上海市_特殊买卖场所.shp"},"geometry":{"type":"Point","coordinates":[121.444595,31.264676]}},{"id":"342","type":"Feature","properties":{"id":"B0FFG8QOOP","name":"瑞祥典当","address":"镇坪路(地铁站)4号口步行696米","type":"购物服务;特殊买卖场所;典当行","typecode":"061302","pcode":310000,"pname":"上海市","citycode":21,"cityname":"上海市","adcode":310107,"adname":"普陀区","business_a":"光新","location":"121.433958,31.251645","tel":"13564878012","bigType":"购物服务","midType":"特殊买卖场所","smallType":"典当行","gcj_lng":121.433958,"gcj_lat":31.251645,"wgs84_loc":"121.429332,31.253493","wgs84Lng":"121.429332","wgs84Lat":"31.253493","__source_file__":"13-常用公服设施点/SHP/上海市_特殊买卖场所.shp"},"geometry":{"type":"Point","coordinates":[121.429332,31.253493]}},{"id":"160","type":"Feature","properties":{"id":"B00155I33B","name":"上海金顺典当有限公司","address":"光新路234号","type":"购物服务;特殊买卖场所;典当行","typecode":"061302","pcode":310000,"pname":"上海市","citycode":21,"cityname":"上海市","adcode":310107,"adname":"普陀区","business_a":"光新","location":"121.431858,31.252867","tel":"15026694864","bigType":"购物服务","midType":"特殊买卖场所","smallType":"典当行","gcj_lng":121.431858,"gcj_lat":31.252867,"wgs84_loc":"121.427228,31.254711","wgs84Lng":"121.427228","wgs84Lat":"31.254711","__source_file__":"13-常用公服设施点/SHP/上海市_特殊买卖场所.shp"},"geometry":{"type":"Point","coordinates":[121.427228,31.254711]}},{"id":"156","type":"Feature","properties":{"id":"B0GKM7SNP9","name":"上海鼎圣拍卖有限公司","address":"中山北路1482号万业远景大厦B座302室","type":"购物服务;特殊买卖场所;拍卖行","typecode":"061301","pcode":310000,"pname":"上海市","citycode":21,"cityname":"上海市","adcode":310107,"adname":"普陀区","business_a":"光新","location":"121.440452,31.254894","tel":"[]","bigType":"购物服务","midType":"特殊买卖场所","smallType":"拍卖行","gcj_lng":121.440452,"gcj_lat":31.254894,"wgs84_loc":"121.435837,31.25675","wgs84Lng":"121.435837","wgs84Lat":"31.25675","__source_file__":"13-常用公服设施点/SHP/上海市_特殊买卖场所.shp"},"geometry":{"type":"Point","coordinates":[121.435837,31.25675]}},{"id":"336","type":"Feature","properties":{"id":"B00154V3XB","name":"华盛典当行","address":"延长西路418号","type":"购物服务;特殊买卖场所;典当行","typecode":"061302","pcode":310000,"pname":"上海市","citycode":21,"cityname":"上海市","adcode":310107,"adname":"普陀区","business_a":"光新","location":"121.436595,31.261070","tel":"021-56059222","bigType":"购物服务","midType":"特殊买卖场所","smallType":"典当行","gcj_lng":121.436595,"gcj_lat":31.26107,"wgs84_loc":"121.431972,31.262918","wgs84Lng":"121.431972","wgs84Lat":"31.262918","__source_file__":"13-常用公服设施点/SHP/上海市_特殊买卖场所.shp"},"geometry":{"type":"Point","coordinates":[121.431972,31.262918]}},{"id":"48","type":"Feature","properties":{"id":"B0G3OHAG0K","name":"闲致奢品汇","address":"万荣路388弄27号","type":"购物服务;特殊买卖场所;特殊买卖场所","typecode":"061300","pcode":310000,"pname":"上海市","citycode":21,"cityname":"上海市","adcode":310106,"adname":"静安区","business_a":"大宁路","location":"121.444039,31.272684","tel":"[]","bigType":"购物服务","midType":"特殊买卖场所","smallType":"特殊买卖场所","gcj_lng":121.444039,"gcj_lat":31.272684,"wgs84_loc":"121.43943,31.274539","wgs84Lng":"121.43943","wgs84Lat":"31.274539","__source_file__":"13-常用公服设施点/SHP/上海市_特殊买卖场所.shp"},"geometry":{"type":"Point","coordinates":[121.43943,31.274539]}},{"id":"177","type":"Feature","properties":{"id":"B0FFF65YFM","name":"泰优汇典当(洛川中路)","address":"洛川中路825号(近延长路地铁站)","type":"购物服务;特殊买卖场所;典当行","typecode":"061302","pcode":310000,"pname":"上海市","citycode":21,"cityname":"上海市","adcode":310106,"adname":"静安区","business_a":"和田","location":"121.452050,31.265898","tel":"13918445842","bigType":"购物服务","midType":"特殊买卖场所","smallType":"典当行","gcj_lng":121.45205,"gcj_lat":31.265898,"wgs84_loc":"121.447461,31.267772","wgs84Lng":"121.447461","wgs84Lat":"31.267772","__source_file__":"13-常用公服设施点/SHP/上海市_特殊买卖场所.shp"},"geometry":{"type":"Point","coordinates":[121.447461,31.267772]}},{"id":"47","type":"Feature","properties":{"id":"B0FFKPW7QM","name":"壹玖八八奢品汇","address":"洛川中路628号","type":"购物服务;特殊买卖场所;特殊买卖场所","typecode":"061300","pcode":310000,"pname":"上海市","citycode":21,"cityname":"上海市","adcode":310106,"adname":"静安区","business_a":"和田","location":"121.455365,31.267016","tel":"13482382222","bigType":"购物服务","midType":"特殊买卖场所","smallType":"特殊买卖场所","gcj_lng":121.455365,"gcj_lat":31.267016,"wgs84_loc":"121.450784,31.268896","wgs84Lng":"121.450784","wgs84Lat":"31.268896","__source_file__":"13-常用公服设施点/SHP/上海市_特殊买卖场所.shp"},"geometry":{"type":"Point","coordinates":[121.450784,31.268896]}},{"id":"180","type":"Feature","properties":{"id":"B0FFJRXOKE","name":"众盛典当","address":"老沪太路216-1号临附近","type":"购物服务;特殊买卖场所;典当行","typecode":"061302","pcode":310000,"pname":"上海市","citycode":21,"cityname":"上海市","adcode":310106,"adname":"静安区","business_a":"和田","location":"121.452622,31.267850","tel":"[]","bigType":"购物服务","midType":"特殊买卖场所","smallType":"典当行","gcj_lng":121.452622,"gcj_lat":31.26785,"wgs84_loc":"121.448034,31.269724","wgs84Lng":"121.448034","wgs84Lat":"31.269724","__source_file__":"13-常用公服设施点/SHP/上海市_特殊买卖场所.shp"},"geometry":{"type":"Point","coordinates":[121.448034,31.269724]}},{"id":"165","type":"Feature","properties":{"id":"B00155MVN7","name":"中财典当行(共和新路店)","address":"共和新路1566号","type":"购物服务;特殊买卖场所;典当行","typecode":"061302","pcode":310000,"pname":"上海市","citycode":21,"cityname":"上海市","adcode":310106,"adname":"静安区","business_a":"和田","location":"121.457134,31.268639","tel":"021-56638787","bigType":"购物服务","midType":"特殊买卖场所","smallType":"典当行","gcj_lng":121.457134,"gcj_lat":31.268639,"wgs84_loc":"121.452558,31.270523","wgs84Lng":"121.452558","wgs84Lat":"31.270523","__source_file__":"13-常用公服设施点/SHP/上海市_特殊买卖场所.shp"},"geometry":{"type":"Point","coordinates":[121.452558,31.270523]}},{"id":"170","type":"Feature","properties":{"id":"B00157HZ3R","name":"银信典当(延长中路店)","address":"延长中路300号4楼楼梯口","type":"购物服务;特殊买卖场所;典当行","typecode":"061302","pcode":310000,"pname":"上海市","citycode":21,"cityname":"上海市","adcode":310106,"adname":"静安区","business_a":"大宁路","location":"121.454155,31.270806","tel":"[]","bigType":"购物服务","midType":"特殊买卖场所","smallType":"典当行","gcj_lng":121.454155,"gcj_lat":31.270806,"wgs84_loc":"121.449571,31.272682","wgs84Lng":"121.449571","wgs84Lat":"31.272682","__source_file__":"13-常用公服设施点/SHP/上海市_特殊买卖场所.shp"},"geometry":{"type":"Point","coordinates":[121.449571,31.272682]}},{"id":"84","type":"Feature","properties":{"id":"B0I69Z5G7T","name":"鼎成寄售行","address":"侯家路与沉香阁路交叉口北约40米","type":"购物服务;特殊买卖场所;特殊买卖场所","typecode":"061300","pcode":310000,"pname":"上海市","citycode":21,"cityname":"上海市","adcode":310101,"adname":"黄浦区","business_a":"城隍庙","location":"121.489426,31.227205","tel":"[]","bigType":"购物服务","midType":"特殊买卖场所","smallType":"特殊买卖场所","gcj_lng":121.489426,"gcj_lat":31.227205,"wgs84_loc":"121.484957,31.229194","wgs84Lng":"121.484957","wgs84Lat":"31.229194","__source_file__":"13-常用公服设施点/SHP/上海市_特殊买卖场所.shp"},"geometry":{"type":"Point","coordinates":[121.484957,31.229194]}},{"id":"33","type":"Feature","properties":{"id":"B0I6FUJM68","name":"祥和钱币","address":"[]","type":"购物服务;特殊买卖场所;特殊买卖场所","typecode":"061300","pcode":310000,"pname":"上海市","citycode":21,"cityname":"上海市","adcode":310101,"adname":"黄浦区","business_a":"城隍庙","location":"121.492008,31.228573","tel":"[]","bigType":"购物服务","midType":"特殊买卖场所","smallType":"特殊买卖场所","gcj_lng":121.492008,"gcj_lat":31.228573,"wgs84_loc":"121.487548,31.230569","wgs84Lng":"121.487548","wgs84Lat":"31.230569","__source_file__":"13-常用公服设施点/SHP/上海市_特殊买卖场所.shp"},"geometry":{"type":"Point","coordinates":[121.487548,31.230569]}},{"id":"79","type":"Feature","properties":{"id":"B0G13L44OK","name":"V2·中古二手奢侈品寄卖","address":"自忠路与马当路交叉口西约60米","type":"购物服务;特殊买卖场所;特殊买卖场所","typecode":"061300","pcode":310000,"pname":"上海市","citycode":21,"cityname":"上海市","adcode":310101,"adname":"黄浦区","business_a":"淮海路","location":"121.473958,31.218109","tel":"[]","bigType":"购物服务","midType":"特殊买卖场所","smallType":"特殊买卖场所","gcj_lng":121.473958,"gcj_lat":31.218109,"wgs84_loc":"121.469437,31.220058","wgs84Lng":"121.469437","wgs84Lat":"31.220058","__source_file__":"13-常用公服设施点/SHP/上海市_特殊买卖场所.shp"},"geometry":{"type":"Point","coordinates":[121.469437,31.220058]}},{"id":"153","type":"Feature","properties":{"id":"B0GRXM9FMO","name":"初·色TRUE COLOR奢侈品彩绘寄卖回收养护","address":"湖滨路168号无极限荟L1-W02","type":"购物服务;特殊买卖场所;典当行","typecode":"061302","pcode":310000,"pname":"上海市","citycode":21,"cityname":"上海市","adcode":310101,"adname":"黄浦区","business_a":"淮海路","location":"121.477322,31.220689","tel":"13774221133","bigType":"购物服务","midType":"特殊买卖场所","smallType":"典当行","gcj_lng":121.477322,"gcj_lat":31.220689,"wgs84_loc":"121.472812,31.222646","wgs84Lng":"121.472812","wgs84Lat":"31.222646","__source_file__":"13-常用公服设施点/SHP/上海市_特殊买卖场所.shp"},"geometry":{"type":"Point","coordinates":[121.472812,31.222646]}},{"id":"27","type":"Feature","properties":{"id":"B00155IQ6O","name":"上海市福星典当行有限公司","address":"金陵东路569号汇通大厦11层04室","type":"购物服务;特殊买卖场所;典当行","typecode":"061302","pcode":310000,"pname":"上海市","citycode":21,"cityname":"上海市","adcode":310101,"adname":"黄浦区","business_a":"北京东路","location":"121.480847,31.226849","tel":"[]","bigType":"购物服务","midType":"特殊买卖场所","smallType":"典当行","gcj_lng":121.480847,"gcj_lat":31.226849,"wgs84_loc":"121.476348,31.228813","wgs84Lng":"121.476348","wgs84Lat":"31.228813","__source_file__":"13-常用公服设施点/SHP/上海市_特殊买卖场所.shp"},"geometry":{"type":"Point","coordinates":[121.476348,31.228813]}},{"id":"595","type":"Feature","properties":{"id":"B0FFIDCP6S","name":"上海匡时拍卖公司(恒利国际大厦店)","address":"成都北路199号恒利国际大厦F19层","type":"购物服务;特殊买卖场所;拍卖行","typecode":"061301","pcode":310000,"pname":"上海市","citycode":21,"cityname":"上海市","adcode":310106,"adname":"静安区","business_a":"淮海路","location":"121.466652,31.227175","tel":"[]","bigType":"购物服务","midType":"特殊买卖场所","smallType":"拍卖行","gcj_lng":121.466652,"gcj_lat":31.227175,"wgs84_loc":"121.462107,31.2291","wgs84Lng":"121.462107","wgs84Lat":"31.2291","__source_file__":"13-常用公服设施点/SHP/上海市_特殊买卖场所.shp"},"geometry":{"type":"Point","coordinates":[121.462107,31.2291]}},{"id":"5","type":"Feature","properties":{"id":"B00155EFII","name":"华联寄售","address":"威海路161号(近成都北路)","type":"购物服务;特殊买卖场所;典当行","typecode":"061302","pcode":310000,"pname":"上海市","citycode":21,"cityname":"上海市","adcode":310101,"adname":"黄浦区","business_a":"北京路","location":"121.468269,31.227550","tel":"021-63276123","bigType":"购物服务","midType":"特殊买卖场所","smallType":"典当行","gcj_lng":121.468269,"gcj_lat":31.22755,"wgs84_loc":"121.463729,31.229479","wgs84Lng":"121.463729","wgs84Lat":"31.229479","__source_file__":"13-常用公服设施点/SHP/上海市_特殊买卖场所.shp"},"geometry":{"type":"Point","coordinates":[121.463729,31.229479]}},{"id":"273","type":"Feature","properties":{"id":"B0IG29E8RM","name":"有来由往名表奢侈品鉴定评估中心","address":"威海路228号101室(南京西路地铁站8号口步行330米)","type":"购物服务;特殊买卖场所;典当行","typecode":"061302","pcode":310000,"pname":"上海市","citycode":21,"cityname":"上海市","adcode":310106,"adname":"静安区","business_a":"淮海路","location":"121.466119,31.227783","tel":"13012838888","bigType":"购物服务","midType":"特殊买卖场所","smallType":"典当行","gcj_lng":121.466119,"gcj_lat":31.227783,"wgs84_loc":"121.461572,31.229706","wgs84Lng":"121.461572","wgs84Lat":"31.229706","__source_file__":"13-常用公服设施点/SHP/上海市_特殊买卖场所.shp"},"geometry":{"type":"Point","coordinates":[121.461572,31.229706]}},{"id":"155","type":"Feature","properties":{"id":"B0FFMGYWSF","name":"押呗手机抵押典当(黄埔分店)","address":"成都北路500号峻岭广场38层","type":"购物服务;特殊买卖场所;典当行","typecode":"061302","pcode":310000,"pname":"上海市","citycode":21,"cityname":"上海市","adcode":310101,"adname":"黄浦区","business_a":"北京东路","location":"121.467637,31.232133","tel":"13524997402","bigType":"购物服务","midType":"特殊买卖场所","smallType":"典当行","gcj_lng":121.467637,"gcj_lat":31.232133,"wgs84_loc":"121.463095,31.234058","wgs84Lng":"121.463095","wgs84Lat":"31.234058","__source_file__":"13-常用公服设施点/SHP/上海市_特殊买卖场所.shp"},"geometry":{"type":"Point","coordinates":[121.463095,31.234058]}},{"id":"78","type":"Feature","properties":{"id":"B0FFFHHKPO","name":"青莲阁","address":"福州路515号3楼","type":"购物服务;特殊买卖场所;拍卖行","typecode":"061301","pcode":310000,"pname":"上海市","citycode":21,"cityname":"上海市","adcode":310101,"adname":"黄浦区","business_a":"北京东路","location":"121.480818,31.233154","tel":"021-51701227","bigType":"购物服务","midType":"特殊买卖场所","smallType":"拍卖行","gcj_lng":121.480818,"gcj_lat":31.233154,"wgs84_loc":"121.476318,31.235115","wgs84Lng":"121.476318","wgs84Lat":"31.235115","__source_file__":"13-常用公服设施点/SHP/上海市_特殊买卖场所.shp"},"geometry":{"type":"Point","coordinates":[121.476318,31.235115]}},{"id":"77","type":"Feature","properties":{"id":"B00156NM9K","name":"上海青莲阁拍卖有限责任公司","address":"福州路515号3层(近上海书城)","type":"购物服务;特殊买卖场所;拍卖行|商务住宅;住宅区;住宅小区","typecode":"061301|120302","pcode":310000,"pname":"上海市","citycode":21,"cityname":"上海市","adcode":310101,"adname":"黄浦区","business_a":"北京东路","location":"121.480818,31.233154","tel":"021-51701227","bigType":"购物服务","midType":"特殊买卖场所","smallType":"拍卖行|商务住宅","gcj_lng":121.480818,"gcj_lat":31.233154,"wgs84_loc":"121.476318,31.235115","wgs84Lng":"121.476318","wgs84Lat":"31.235115","__source_file__":"13-常用公服设施点/SHP/上海市_特殊买卖场所.shp"},"geometry":{"type":"Point","coordinates":[121.476318,31.235115]}},{"id":"85","type":"Feature","properties":{"id":"B0HD4GHSWP","name":"麦闲奢二手奢侈品寄卖","address":"延安东路175号旺角广场10楼1007","type":"购物服务;特殊买卖场所;特殊买卖场所","typecode":"061300","pcode":310000,"pname":"上海市","citycode":21,"cityname":"上海市","adcode":310101,"adname":"黄浦区","business_a":"北京东路","location":"121.484773,31.230661","tel":"[]","bigType":"购物服务","midType":"特殊买卖场所","smallType":"特殊买卖场所","gcj_lng":121.484773,"gcj_lat":31.230661,"wgs84_loc":"121.480287,31.232634","wgs84Lng":"121.480287","wgs84Lat":"31.232634","__source_file__":"13-常用公服设施点/SHP/上海市_特殊买卖场所.shp"},"geometry":{"type":"Point","coordinates":[121.480287,31.232634]}},{"id":"28","type":"Feature","properties":{"id":"B00155GC7X","name":"上海黄浦拍卖行有限公司","address":"延安东路45-55号上海工商联大厦5层","type":"购物服务;特殊买卖场所;拍卖行","typecode":"061301","pcode":310000,"pname":"上海市","citycode":21,"cityname":"上海市","adcode":310101,"adname":"黄浦区","business_a":"北京东路","location":"121.489110,31.231291","tel":"[]","bigType":"购物服务","midType":"特殊买卖场所","smallType":"拍卖行","gcj_lng":121.48911,"gcj_lat":31.231291,"wgs84_loc":"121.48464,31.233277","wgs84Lng":"121.48464","wgs84Lat":"31.233277","__source_file__":"13-常用公服设施点/SHP/上海市_特殊买卖场所.shp"},"geometry":{"type":"Point","coordinates":[121.48464,31.233277]}},{"id":"25","type":"Feature","properties":{"id":"B00152CD29","name":"上海国际商品拍卖有限公司(总部)","address":"福州路108号","type":"购物服务;特殊买卖场所;拍卖行","typecode":"061301","pcode":310000,"pname":"上海市","citycode":21,"cityname":"上海市","adcode":310101,"adname":"黄浦区","business_a":"北京东路","location":"121.488593,31.235347","tel":"021-63392222;962227","bigType":"购物服务","midType":"特殊买卖场所","smallType":"拍卖行","gcj_lng":121.488593,"gcj_lat":31.235347,"wgs84_loc":"121.48412,31.237329","wgs84Lng":"121.48412","wgs84Lat":"31.237329","__source_file__":"13-常用公服设施点/SHP/上海市_特殊买卖场所.shp"},"geometry":{"type":"Point","coordinates":[121.48412,31.237329]}},{"id":"29","type":"Feature","properties":{"id":"B0HG2U0RRV","name":"上海紫晶拍卖有限公司","address":"上海市上海市黄浦区","type":"购物服务;特殊买卖场所;典当行","typecode":"061302","pcode":310000,"pname":"上海市","citycode":21,"cityname":"上海市","adcode":310101,"adname":"黄浦区","business_a":"北京东路","location":"121.488698,31.235390","tel":"[]","bigType":"购物服务","midType":"特殊买卖场所","smallType":"典当行","gcj_lng":121.488698,"gcj_lat":31.23539,"wgs84_loc":"121.484226,31.237373","wgs84Lng":"121.484226","wgs84Lat":"31.237373","__source_file__":"13-常用公服设施点/SHP/上海市_特殊买卖场所.shp"},"geometry":{"type":"Point","coordinates":[121.484226,31.237373]}},{"id":"17","type":"Feature","properties":{"id":"B00155LYDX","name":"华联寄售(河南路店)","address":"河南中路376号华联商厦4层","type":"购物服务;特殊买卖场所;特殊买卖场所","typecode":"061300","pcode":310000,"pname":"上海市","citycode":21,"cityname":"上海市","adcode":310101,"adname":"黄浦区","business_a":"北京东路","location":"121.485220,31.237067","tel":"021-33130618;021-63212654","bigType":"购物服务","midType":"特殊买卖场所","smallType":"特殊买卖场所","gcj_lng":121.48522,"gcj_lat":31.237067,"wgs84_loc":"121.480735,31.239039","wgs84Lng":"121.480735","wgs84Lat":"31.239039","__source_file__":"13-常用公服设施点/SHP/上海市_特殊买卖场所.shp"},"geometry":{"type":"Point","coordinates":[121.480735,31.239039]}},{"id":"154","type":"Feature","properties":{"id":"B0FFK2A0OK","name":"回收名牌包包爱马仕香奈儿典当","address":"河南中路与南京路步行街交叉口西约40米","type":"购物服务;特殊买卖场所;典当行","typecode":"061302","pcode":310000,"pname":"上海市","citycode":21,"cityname":"上海市","adcode":310101,"adname":"黄浦区","business_a":"北京东路","location":"121.484413,31.237706","tel":"18601652932","bigType":"购物服务","midType":"特殊买卖场所","smallType":"典当行","gcj_lng":121.484413,"gcj_lat":31.237706,"wgs84_loc":"121.479926,31.239675","wgs84Lng":"121.479926","wgs84Lat":"31.239675","__source_file__":"13-常用公服设施点/SHP/上海市_特殊买卖场所.shp"},"geometry":{"type":"Point","coordinates":[121.479926,31.239675]}},{"id":"36","type":"Feature","properties":{"id":"B0FFF3Z4HK","name":"慎昌洋行","address":"圆明园路43号2楼","type":"购物服务;特殊买卖场所;特殊买卖场所","typecode":"061300","pcode":310000,"pname":"上海市","citycode":21,"cityname":"上海市","adcode":310101,"adname":"黄浦区","business_a":"北京东路","location":"121.488077,31.240347","tel":"[]","bigType":"购物服务","midType":"特殊买卖场所","smallType":"特殊买卖场所","gcj_lng":121.488077,"gcj_lat":31.240347,"wgs84_loc":"121.483602,31.242326","wgs84Lng":"121.483602","wgs84Lat":"31.242326","__source_file__":"13-常用公服设施点/SHP/上海市_特殊买卖场所.shp"},"geometry":{"type":"Point","coordinates":[121.483602,31.242326]}},{"id":"468","type":"Feature","properties":{"id":"B0FFGHEMZM","name":"佳士得","address":"圆明园路97号安培洋行1层","type":"购物服务;特殊买卖场所;拍卖行","typecode":"061301","pcode":310000,"pname":"上海市","citycode":21,"cityname":"上海市","adcode":310101,"adname":"黄浦区","business_a":"北京东路","location":"121.488204,31.241067","tel":"021-63551766","bigType":"购物服务","midType":"特殊买卖场所","smallType":"拍卖行","gcj_lng":121.488204,"gcj_lat":31.241067,"wgs84_loc":"121.48373,31.243046","wgs84Lng":"121.48373","wgs84Lat":"31.243046","__source_file__":"13-常用公服设施点/SHP/上海市_特殊买卖场所.shp"},"geometry":{"type":"Point","coordinates":[121.48373,31.243046]}},{"id":"453","type":"Feature","properties":{"id":"B0FFLC21XP","name":"英明(上海)拍卖有限公司","address":"北外滩街道丰和路1号北8楼港务大厦","type":"购物服务;特殊买卖场所;拍卖行","typecode":"061301","pcode":310000,"pname":"上海市","citycode":21,"cityname":"上海市","adcode":310115,"adname":"浦东新区","business_a":"陆家嘴","location":"121.498589,31.241141","tel":"021-64888321","bigType":"购物服务","midType":"特殊买卖场所","smallType":"拍卖行","gcj_lng":121.498589,"gcj_lat":31.241141,"wgs84_loc":"121.494152,31.243151","wgs84Lng":"121.494152","wgs84Lat":"31.243151","__source_file__":"13-常用公服设施点/SHP/上海市_特殊买卖场所.shp"},"geometry":{"type":"Point","coordinates":[121.494152,31.243151]}},{"id":"422","type":"Feature","properties":{"id":"B0FFIITI8C","name":"CHRISTIE‘S","address":"圆明园路97号附近","type":"购物服务;特殊买卖场所;拍卖行","typecode":"061301","pcode":310000,"pname":"上海市","citycode":21,"cityname":"上海市","adcode":310101,"adname":"黄浦区","business_a":"北京东路","location":"121.488151,31.241363","tel":"021-63551766","bigType":"购物服务","midType":"特殊买卖场所","smallType":"拍卖行","gcj_lng":121.488151,"gcj_lat":31.241363,"wgs84_loc":"121.483676,31.243341","wgs84Lng":"121.483676","wgs84Lat":"31.243341","__source_file__":"13-常用公服设施点/SHP/上海市_特殊买卖场所.shp"},"geometry":{"type":"Point","coordinates":[121.483676,31.243341]}},{"id":"489","type":"Feature","properties":{"id":"B0KGHHXY77","name":"上海工美拍卖有限公司","address":"黄河路11号5楼","type":"购物服务;特殊买卖场所;拍卖行","typecode":"061301","pcode":310000,"pname":"上海市","citycode":21,"cityname":"上海市","adcode":310101,"adname":"黄浦区","business_a":"北京路","location":"121.471411,31.233214","tel":"021-63606287","bigType":"购物服务","midType":"特殊买卖场所","smallType":"拍卖行","gcj_lng":121.471411,"gcj_lat":31.233214,"wgs84_loc":"121.46688,31.235149","wgs84Lng":"121.46688","wgs84Lat":"31.235149","__source_file__":"13-常用公服设施点/SHP/上海市_特殊买卖场所.shp"},"geometry":{"type":"Point","coordinates":[121.46688,31.235149]}},{"id":"467","type":"Feature","properties":{"id":"B0IGOZH3LL","name":"人人微拍卖","address":"浙江中路188号中福古玩城2A17","type":"购物服务;特殊买卖场所;拍卖行","typecode":"061301","pcode":310000,"pname":"上海市","citycode":21,"cityname":"上海市","adcode":310101,"adname":"黄浦区","business_a":"北京东路","location":"121.479400,31.233561","tel":"15601909202","bigType":"购物服务","midType":"特殊买卖场所","smallType":"拍卖行","gcj_lng":121.4794,"gcj_lat":31.233561,"wgs84_loc":"121.474896,31.235518","wgs84Lng":"121.474896","wgs84Lat":"31.235518","__source_file__":"13-常用公服设施点/SHP/上海市_特殊买卖场所.shp"},"geometry":{"type":"Point","coordinates":[121.474896,31.235518]}},{"id":"619","type":"Feature","properties":{"id":"B0FFGITKAA","name":"上海鸿生拍卖有限公司","address":"福州路431号吴宫大酒店二楼","type":"购物服务;特殊买卖场所;拍卖行","typecode":"061301","pcode":310000,"pname":"上海市","citycode":21,"cityname":"上海市","adcode":310101,"adname":"黄浦区","business_a":"北京东路","location":"121.482390,31.233587","tel":"15221583313;021-63307078","bigType":"购物服务","midType":"特殊买卖场所","smallType":"拍卖行","gcj_lng":121.48239,"gcj_lat":31.233587,"wgs84_loc":"121.477896,31.235552","wgs84Lng":"121.477896","wgs84Lat":"31.235552","__source_file__":"13-常用公服设施点/SHP/上海市_特殊买卖场所.shp"},"geometry":{"type":"Point","coordinates":[121.477896,31.235552]}},{"id":"74","type":"Feature","properties":{"id":"B0FFGITKAA","name":"上海鸿生拍卖行","address":"福州路431号吴宫大酒店二楼","type":"购物服务;特殊买卖场所;拍卖行","typecode":"061301","pcode":310000,"pname":"上海市","citycode":21,"cityname":"上海市","adcode":310101,"adname":"黄浦区","business_a":"北京东路","location":"121.482390,31.233587","tel":"021-63307078","bigType":"购物服务","midType":"特殊买卖场所","smallType":"拍卖行","gcj_lng":121.48239,"gcj_lat":31.233587,"wgs84_loc":"121.477896,31.235552","wgs84Lng":"121.477896","wgs84Lat":"31.235552","__source_file__":"13-常用公服设施点/SHP/上海市_特殊买卖场所.shp"},"geometry":{"type":"Point","coordinates":[121.477896,31.235552]}},{"id":"443","type":"Feature","properties":{"id":"B001511EE1","name":"上海博古斋拍卖有限公司","address":"福州路401号","type":"购物服务;特殊买卖场所;拍卖行","typecode":"061301","pcode":310000,"pname":"上海市","citycode":21,"cityname":"上海市","adcode":310101,"adname":"黄浦区","business_a":"北京东路","location":"121.482768,31.233796","tel":"021-63757760;021-63281845","bigType":"购物服务","midType":"特殊买卖场所","smallType":"拍卖行","gcj_lng":121.482768,"gcj_lat":31.233796,"wgs84_loc":"121.478275,31.235762","wgs84Lng":"121.478275","wgs84Lat":"31.235762","__source_file__":"13-常用公服设施点/SHP/上海市_特殊买卖场所.shp"},"geometry":{"type":"Point","coordinates":[121.478275,31.235762]}},{"id":"32","type":"Feature","properties":{"id":"B00152ADFE","name":"上海工美拍卖有限公司","address":"南京东路432号4楼","type":"购物服务;特殊买卖场所;拍卖行","typecode":"061301","pcode":310000,"pname":"上海市","citycode":21,"cityname":"上海市","adcode":310101,"adname":"黄浦区","business_a":"北京东路","location":"121.482058,31.236640","tel":"021-63606287","bigType":"购物服务","midType":"特殊买卖场所","smallType":"拍卖行","gcj_lng":121.482058,"gcj_lat":31.23664,"wgs84_loc":"121.477562,31.238603","wgs84Lng":"121.477562","wgs84Lat":"31.238603","__source_file__":"13-常用公服设施点/SHP/上海市_特殊买卖场所.shp"},"geometry":{"type":"Point","coordinates":[121.477562,31.238603]}},{"id":"24","type":"Feature","properties":{"id":"B00154ST8S","name":"上海申之江拍卖有限公司","address":"云南北路30号","type":"购物服务;特殊买卖场所;拍卖行","typecode":"061301","pcode":310000,"pname":"上海市","citycode":21,"cityname":"上海市","adcode":310101,"adname":"黄浦区","business_a":"北京东路","location":"121.475340,31.236901","tel":"021-63221182","bigType":"购物服务","midType":"特殊买卖场所","smallType":"拍卖行","gcj_lng":121.47534,"gcj_lat":31.236901,"wgs84_loc":"121.470822,31.238845","wgs84Lng":"121.470822","wgs84Lat":"31.238845","__source_file__":"13-常用公服设施点/SHP/上海市_特殊买卖场所.shp"},"geometry":{"type":"Point","coordinates":[121.470822,31.238845]}},{"id":"430","type":"Feature","properties":{"id":"B0FFI0TQBM","name":"上海(鸿生)拍卖有限公司","address":"福建中路516号","type":"购物服务;特殊买卖场所;拍卖行","typecode":"061301","pcode":310000,"pname":"上海市","citycode":21,"cityname":"上海市","adcode":310101,"adname":"黄浦区","business_a":"北京东路","location":"121.479245,31.238929","tel":"[]","bigType":"购物服务","midType":"特殊买卖场所","smallType":"拍卖行","gcj_lng":121.479245,"gcj_lat":31.238929,"wgs84_loc":"121.47474,31.240883","wgs84Lng":"121.47474","wgs84Lat":"31.240883","__source_file__":"13-常用公服设施点/SHP/上海市_特殊买卖场所.shp"},"geometry":{"type":"Point","coordinates":[121.47474,31.240883]}},{"id":"452","type":"Feature","properties":{"id":"B0FFH1YMAJ","name":"忆徽堂调剂商店","address":"浙江中路585号","type":"购物服务;特殊买卖场所;特殊买卖场所","typecode":"061300","pcode":310000,"pname":"上海市","citycode":21,"cityname":"上海市","adcode":310101,"adname":"黄浦区","business_a":"北京东路","location":"121.476516,31.239020","tel":"[]","bigType":"购物服务","midType":"特殊买卖场所","smallType":"特殊买卖场所","gcj_lng":121.476516,"gcj_lat":31.23902,"wgs84_loc":"121.472001,31.240966","wgs84Lng":"121.472001","wgs84Lat":"31.240966","__source_file__":"13-常用公服设施点/SHP/上海市_特殊买卖场所.shp"},"geometry":{"type":"Point","coordinates":[121.472001,31.240966]}},{"id":"275","type":"Feature","properties":{"id":"B0FFHU8P8A","name":"收奢侈品珠宝公司","address":"恒通东路与南星路交叉口西北60米","type":"购物服务;特殊买卖场所;典当行","typecode":"061302","pcode":310000,"pname":"上海市","citycode":21,"cityname":"上海市","adcode":310106,"adname":"静安区","business_a":"七浦路","location":"121.464062,31.243022","tel":"[]","bigType":"购物服务","midType":"特殊买卖场所","smallType":"典当行","gcj_lng":121.464062,"gcj_lat":31.243022,"wgs84_loc":"121.459508,31.244933","wgs84Lng":"121.459508","wgs84Lat":"31.244933","__source_file__":"13-常用公服设施点/SHP/上海市_特殊买卖场所.shp"},"geometry":{"type":"Point","coordinates":[121.459508,31.244933]}},{"id":"424","type":"Feature","properties":{"id":"B0FFF00GN7","name":"上海邦成典当有限公司","address":"天目中路428号凯旋门大厦28楼d座","type":"购物服务;特殊买卖场所;典当行","typecode":"061302","pcode":310000,"pname":"上海市","citycode":21,"cityname":"上海市","adcode":310106,"adname":"静安区","business_a":"七浦路","location":"121.467037,31.243759","tel":"[]","bigType":"购物服务","midType":"特殊买卖场所","smallType":"典当行","gcj_lng":121.467037,"gcj_lat":31.243759,"wgs84_loc":"121.462492,31.245678","wgs84Lng":"121.462492","wgs84Lat":"31.245678","__source_file__":"13-常用公服设施点/SHP/上海市_特殊买卖场所.shp"},"geometry":{"type":"Point","coordinates":[121.462492,31.245678]}},{"id":"100","type":"Feature","properties":{"id":"B0H2A775M6","name":"英明拍卖","address":"海宁路899号裙楼3楼","type":"购物服务;特殊买卖场所;拍卖行","typecode":"061301","pcode":310000,"pname":"上海市","citycode":21,"cityname":"上海市","adcode":310106,"adname":"静安区","business_a":"七浦路","location":"121.477173,31.245990","tel":"[]","bigType":"购物服务","midType":"特殊买卖场所","smallType":"拍卖行","gcj_lng":121.477173,"gcj_lat":31.24599,"wgs84_loc":"121.47266,31.247935","wgs84Lng":"121.47266","wgs84Lat":"31.247935","__source_file__":"13-常用公服设施点/SHP/上海市_特殊买卖场所.shp"},"geometry":{"type":"Point","coordinates":[121.47266,31.247935]}},{"id":"11","type":"Feature","properties":{"id":"B00155FLBQ","name":"华联典当(虬江路店)","address":"虬江路1230号","type":"购物服务;特殊买卖场所;典当行","typecode":"061302","pcode":310000,"pname":"上海市","citycode":21,"cityname":"上海市","adcode":310106,"adname":"静安区","business_a":"宝山路","location":"121.469958,31.250218","tel":"021-56329062;021-56322354","bigType":"购物服务","midType":"特殊买卖场所","smallType":"典当行","gcj_lng":121.469958,"gcj_lat":31.250218,"wgs84_loc":"121.465421,31.252141","wgs84Lng":"121.465421","wgs84Lat":"31.252141","__source_file__":"13-常用公服设施点/SHP/上海市_特殊买卖场所.shp"},"geometry":{"type":"Point","coordinates":[121.465421,31.252141]}},{"id":"416","type":"Feature","properties":{"id":"B00157I5R4","name":"中财典当行(虬江路店)","address":"虬江路756号","type":"购物服务;特殊买卖场所;典当行","typecode":"061302","pcode":310000,"pname":"上海市","citycode":21,"cityname":"上海市","adcode":310106,"adname":"静安区","business_a":"宝山路","location":"121.477788,31.252601","tel":"[]","bigType":"购物服务","midType":"特殊买卖场所","smallType":"典当行","gcj_lng":121.477788,"gcj_lat":31.252601,"wgs84_loc":"121.473277,31.254545","wgs84Lng":"121.473277","wgs84Lat":"31.254545","__source_file__":"13-常用公服设施点/SHP/上海市_特殊买卖场所.shp"},"geometry":{"type":"Point","coordinates":[121.473277,31.254545]}},{"id":"171","type":"Feature","properties":{"id":"B0FFGZW8EA","name":"银达典当(中华新路店)","address":"共和新路598号(靠近中华新路)","type":"购物服务;特殊买卖场所;典当行","typecode":"061302","pcode":310000,"pname":"上海市","citycode":21,"cityname":"上海市","adcode":310106,"adname":"静安区","business_a":"宝山路","location":"121.463353,31.253389","tel":"021-66287779","bigType":"购物服务","midType":"特殊买卖场所","smallType":"典当行","gcj_lng":121.463353,"gcj_lat":31.253389,"wgs84_loc":"121.458796,31.255294","wgs84Lng":"121.458796","wgs84Lat":"31.255294","__source_file__":"13-常用公服设施点/SHP/上海市_特殊买卖场所.shp"},"geometry":{"type":"Point","coordinates":[121.458796,31.255294]}},{"id":"474","type":"Feature","properties":{"id":"B0FFHCQ5J1","name":"荣庆调剂(鸿兴路)","address":"鸿兴路35(宝山路地铁站1号口步行310米)","type":"购物服务;特殊买卖场所;特殊买卖场所","typecode":"061300","pcode":310000,"pname":"上海市","citycode":21,"cityname":"上海市","adcode":310106,"adname":"静安区","business_a":"宝山路","location":"121.476232,31.254456","tel":"[]","bigType":"购物服务","midType":"特殊买卖场所","smallType":"特殊买卖场所","gcj_lng":121.476232,"gcj_lat":31.254456,"wgs84_loc":"121.471715,31.256394","wgs84Lng":"121.471715","wgs84Lat":"31.256394","__source_file__":"13-常用公服设施点/SHP/上海市_特殊买卖场所.shp"},"geometry":{"type":"Point","coordinates":[121.471715,31.256394]}},{"id":"287","type":"Feature","properties":{"id":"B0G0OOW8DC","name":"恒天奢侈品","address":"四川北路1606号","type":"购物服务;特殊买卖场所;典当行","typecode":"061302","pcode":310000,"pname":"上海市","citycode":21,"cityname":"上海市","adcode":310109,"adname":"虹口区","business_a":"宝山路","location":"121.483211,31.256945","tel":"13062770059","bigType":"购物服务","midType":"特殊买卖场所","smallType":"典当行","gcj_lng":121.483211,"gcj_lat":31.256945,"wgs84_loc":"121.478718,31.258902","wgs84Lng":"121.478718","wgs84Lat":"31.258902","__source_file__":"13-常用公服设施点/SHP/上海市_特殊买卖场所.shp"},"geometry":{"type":"Point","coordinates":[121.478718,31.258902]}},{"id":"559","type":"Feature","properties":{"id":"B0IKCBHM00","name":"华联典当(凯润商务楼店)","address":"四川北路1611号凯润商务楼F5层","type":"购物服务;特殊买卖场所;典当行","typecode":"061302","pcode":310000,"pname":"上海市","citycode":21,"cityname":"上海市","adcode":310109,"adname":"虹口区","business_a":"宝山路","location":"121.482267,31.257295","tel":"[]","bigType":"购物服务","midType":"特殊买卖场所","smallType":"典当行","gcj_lng":121.482267,"gcj_lat":31.257295,"wgs84_loc":"121.47777,31.259249","wgs84Lng":"121.47777","wgs84Lat":"31.259249","__source_file__":"13-常用公服设施点/SHP/上海市_特殊买卖场所.shp"},"geometry":{"type":"Point","coordinates":[121.47777,31.259249]}},{"id":"172","type":"Feature","properties":{"id":"B00156O3V1","name":"上海海达典当行(陆丰路店)","address":"陆丰路70弄2号","type":"购物服务;特殊买卖场所;典当行","typecode":"061302","pcode":310000,"pname":"上海市","citycode":21,"cityname":"上海市","adcode":310106,"adname":"静安区","business_a":"和田","location":"121.474908,31.258361","tel":"[]","bigType":"购物服务","midType":"特殊买卖场所","smallType":"典当行","gcj_lng":121.474908,"gcj_lat":31.258361,"wgs84_loc":"121.470386,31.260294","wgs84Lng":"121.470386","wgs84Lat":"31.260294","__source_file__":"13-常用公服设施点/SHP/上海市_特殊买卖场所.shp"},"geometry":{"type":"Point","coordinates":[121.470386,31.260294]}},{"id":"557","type":"Feature","properties":{"id":"B0JUDAVTXH","name":"汇通典当行(嘉杰烟酒行店)","address":"四川北路1727弄11-25号","type":"购物服务;特殊买卖场所;典当行","typecode":"061302","pcode":310000,"pname":"上海市","citycode":21,"cityname":"上海市","adcode":310109,"adname":"虹口区","business_a":"宝山路","location":"121.481188,31.259685","tel":"[]","bigType":"购物服务","midType":"特殊买卖场所","smallType":"典当行","gcj_lng":121.481188,"gcj_lat":31.259685,"wgs84_loc":"121.476687,31.261635","wgs84Lng":"121.476687","wgs84Lat":"31.261635","__source_file__":"13-常用公服设施点/SHP/上海市_特殊买卖场所.shp"},"geometry":{"type":"Point","coordinates":[121.476687,31.261635]}},{"id":"149","type":"Feature","properties":{"id":"B00155FX96","name":"宝裕典当(江西中路)","address":"江西中路441号","type":"购物服务;特殊买卖场所;典当行","typecode":"061302","pcode":310000,"pname":"上海市","citycode":21,"cityname":"上海市","adcode":310101,"adname":"黄浦区","business_a":"北京东路","location":"121.485132,31.241482","tel":"021-63231822","bigType":"购物服务","midType":"特殊买卖场所","smallType":"典当行","gcj_lng":121.485132,"gcj_lat":31.241482,"wgs84_loc":"121.480647,31.243452","wgs84Lng":"121.480647","wgs84Lat":"31.243452","__source_file__":"13-常用公服设施点/SHP/上海市_特殊买卖场所.shp"},"geometry":{"type":"Point","coordinates":[121.480647,31.243452]}},{"id":"146","type":"Feature","properties":{"id":"B00155HPXV","name":"滙通典当行","address":"四川中路586号","type":"购物服务;特殊买卖场所;典当行","typecode":"061302","pcode":310000,"pname":"上海市","citycode":21,"cityname":"上海市","adcode":310101,"adname":"黄浦区","business_a":"北京东路","location":"121.486511,31.241731","tel":"[]","bigType":"购物服务","midType":"特殊买卖场所","smallType":"典当行","gcj_lng":121.486511,"gcj_lat":31.241731,"wgs84_loc":"121.482031,31.243704","wgs84Lng":"121.482031","wgs84Lat":"31.243704","__source_file__":"13-常用公服设施点/SHP/上海市_特殊买卖场所.shp"},"geometry":{"type":"Point","coordinates":[121.482031,31.243704]}},{"id":"0","type":"Feature","properties":{"id":"B00152B99C","name":"上海华联寄售有限公司","address":"江西中路457号(南京东路地铁站6号口步行430米)","type":"购物服务;特殊买卖场所;特殊买卖场所","typecode":"061300","pcode":310000,"pname":"上海市","citycode":21,"cityname":"上海市","adcode":310101,"adname":"黄浦区","business_a":"北京路","location":"121.484990,31.241923","tel":"[]","bigType":"购物服务","midType":"特殊买卖场所","smallType":"特殊买卖场所","gcj_lng":121.48499,"gcj_lat":31.241923,"wgs84_loc":"121.480504,31.243892","wgs84Lng":"121.480504","wgs84Lat":"31.243892","__source_file__":"13-常用公服设施点/SHP/上海市_特殊买卖场所.shp"},"geometry":{"type":"Point","coordinates":[121.480504,31.243892]}},{"id":"251","type":"Feature","properties":{"id":"B0H0MCL9JI","name":"上海醉真实老酒拍卖行(外滩店)","address":"北外滩街道黄浦路53号海湾大厦办公楼802","type":"购物服务;特殊买卖场所;拍卖行","typecode":"061301","pcode":310000,"pname":"上海市","citycode":21,"cityname":"上海市","adcode":310109,"adname":"虹口区","business_a":"提篮桥","location":"121.491816,31.244523","tel":"[]","bigType":"购物服务","midType":"特殊买卖场所","smallType":"拍卖行","gcj_lng":121.491816,"gcj_lat":31.244523,"wgs84_loc":"121.487354,31.246511","wgs84Lng":"121.487354","wgs84Lat":"31.246511","__source_file__":"13-常用公服设施点/SHP/上海市_特殊买卖场所.shp"},"geometry":{"type":"Point","coordinates":[121.487354,31.246511]}},{"id":"2","type":"Feature","properties":{"id":"B001546885","name":"上海拍卖行有限责任公司","address":"四川北路73-3号(天潼路地铁站3号口步行380米)","type":"购物服务;特殊买卖场所;拍卖行","typecode":"061301","pcode":310000,"pname":"上海市","citycode":21,"cityname":"上海市","adcode":310109,"adname":"虹口区","business_a":"七浦路","location":"121.484788,31.245913","tel":"021-63077777","bigType":"购物服务","midType":"特殊买卖场所","smallType":"拍卖行","gcj_lng":121.484788,"gcj_lat":31.245913,"wgs84_loc":"121.480301,31.24788","wgs84Lng":"121.480301","wgs84Lat":"31.24788","__source_file__":"13-常用公服设施点/SHP/上海市_特殊买卖场所.shp"},"geometry":{"type":"Point","coordinates":[121.480301,31.24788]}},{"id":"163","type":"Feature","properties":{"id":"B0FFGANZBP","name":"上海国傲拍卖有限公司","address":"东长治路271号","type":"购物服务;特殊买卖场所;拍卖行","typecode":"061301","pcode":310000,"pname":"上海市","citycode":21,"cityname":"上海市","adcode":310109,"adname":"虹口区","business_a":"北外滩","location":"121.494203,31.248670","tel":"021-33770000","bigType":"购物服务","midType":"特殊买卖场所","smallType":"拍卖行","gcj_lng":121.494203,"gcj_lat":31.24867,"wgs84_loc":"121.489749,31.250663","wgs84Lng":"121.489749","wgs84Lat":"31.250663","__source_file__":"13-常用公服设施点/SHP/上海市_特殊买卖场所.shp"},"geometry":{"type":"Point","coordinates":[121.489749,31.250663]}},{"id":"289","type":"Feature","properties":{"id":"B0FFINIVFW","name":"二手名表典当黄金钻石","address":"四川北路132号附近","type":"购物服务;特殊买卖场所;典当行","typecode":"061302","pcode":310000,"pname":"上海市","citycode":21,"cityname":"上海市","adcode":310109,"adname":"虹口区","business_a":"宝山路","location":"121.485171,31.253430","tel":"[]","bigType":"购物服务","midType":"特殊买卖场所","smallType":"典当行","gcj_lng":121.485171,"gcj_lat":31.25343,"wgs84_loc":"121.480685,31.255394","wgs84Lng":"121.480685","wgs84Lat":"31.255394","__source_file__":"13-常用公服设施点/SHP/上海市_特殊买卖场所.shp"},"geometry":{"type":"Point","coordinates":[121.480685,31.255394]}},{"id":"161","type":"Feature","properties":{"id":"B0FFF9ZWKO","name":"宝安旧货调剂店","address":"宝安路120号","type":"购物服务;特殊买卖场所;特殊买卖场所","typecode":"061300","pcode":310000,"pname":"上海市","citycode":21,"cityname":"上海市","adcode":310109,"adname":"虹口区","business_a":"[]","location":"121.487880,31.264003","tel":"13795491699","bigType":"购物服务","midType":"特殊买卖场所","smallType":"特殊买卖场所","gcj_lng":121.48788,"gcj_lat":31.264003,"wgs84_loc":"121.483402,31.265971","wgs84Lng":"121.483402","wgs84Lat":"31.265971","__source_file__":"13-常用公服设施点/SHP/上海市_特殊买卖场所.shp"},"geometry":{"type":"Point","coordinates":[121.483402,31.265971]}},{"id":"477","type":"Feature","properties":{"id":"B0IGUAV133","name":"怀旧堂旧货调剂店","address":"长山路与山阴路交叉口东北20米","type":"购物服务;特殊买卖场所;特殊买卖场所","typecode":"061300","pcode":310000,"pname":"上海市","citycode":21,"cityname":"上海市","adcode":310109,"adname":"虹口区","business_a":"宝山路","location":"121.484825,31.264907","tel":"[]","bigType":"购物服务","midType":"特殊买卖场所","smallType":"特殊买卖场所","gcj_lng":121.484825,"gcj_lat":31.264907,"wgs84_loc":"121.480337,31.266865","wgs84Lng":"121.480337","wgs84Lat":"31.266865","__source_file__":"13-常用公服设施点/SHP/上海市_特殊买卖场所.shp"},"geometry":{"type":"Point","coordinates":[121.480337,31.266865]}},{"id":"418","type":"Feature","properties":{"id":"B0FFJ2FNTH","name":"上海大众典当有限公司","address":"东宝兴路928号","type":"购物服务;特殊买卖场所;典当行","typecode":"061302","pcode":310000,"pname":"上海市","citycode":21,"cityname":"上海市","adcode":310106,"adname":"静安区","business_a":"和田","location":"121.472703,31.264532","tel":"[]","bigType":"购物服务","midType":"特殊买卖场所","smallType":"典当行","gcj_lng":121.472703,"gcj_lat":31.264532,"wgs84_loc":"121.468174,31.266456","wgs84Lng":"121.468174","wgs84Lat":"31.266456","__source_file__":"13-常用公服设施点/SHP/上海市_特殊买卖场所.shp"},"geometry":{"type":"Point","coordinates":[121.468174,31.266456]}},{"id":"3","type":"Feature","properties":{"id":"B0FFGQKRHY","name":"上海天星拍卖行","address":"中山北路219号(西藏北路地铁站1号口步行120米)","type":"购物服务;特殊买卖场所;拍卖行","typecode":"061301","pcode":310000,"pname":"上海市","citycode":21,"cityname":"上海市","adcode":310106,"adname":"静安区","business_a":"和田","location":"121.469757,31.264940","tel":"18621655047","bigType":"购物服务","midType":"特殊买卖场所","smallType":"拍卖行","gcj_lng":121.469757,"gcj_lat":31.26494,"wgs84_loc":"121.465218,31.266856","wgs84Lng":"121.465218","wgs84Lat":"31.266856","__source_file__":"13-常用公服设施点/SHP/上海市_特殊买卖场所.shp"},"geometry":{"type":"Point","coordinates":[121.465218,31.266856]}},{"id":"50","type":"Feature","properties":{"id":"B0FFF9ZWU8","name":"上海景诚拍卖有限公司","address":"中山北路178号钻石坊b栋1楼","type":"购物服务;特殊买卖场所;拍卖行","typecode":"061301","pcode":310000,"pname":"上海市","citycode":21,"cityname":"上海市","adcode":310106,"adname":"静安区","business_a":"和田","location":"121.470984,31.265335","tel":"[]","bigType":"购物服务","midType":"特殊买卖场所","smallType":"拍卖行","gcj_lng":121.470984,"gcj_lat":31.265335,"wgs84_loc":"121.466449,31.267254","wgs84Lng":"121.466449","wgs84Lat":"31.267254","__source_file__":"13-常用公服设施点/SHP/上海市_特殊买卖场所.shp"},"geometry":{"type":"Point","coordinates":[121.466449,31.267254]}},{"id":"49","type":"Feature","properties":{"id":"B0FFFA57NX","name":"上海和韵拍卖有限公司","address":"俞泾港路18号","type":"购物服务;特殊买卖场所;拍卖行","typecode":"061301","pcode":310000,"pname":"上海市","citycode":21,"cityname":"上海市","adcode":310106,"adname":"静安区","business_a":"和田","location":"121.466325,31.266104","tel":"[]","bigType":"购物服务","midType":"特殊买卖场所","smallType":"拍卖行","gcj_lng":121.466325,"gcj_lat":31.266104,"wgs84_loc":"121.461776,31.268011","wgs84Lng":"121.461776","wgs84Lat":"31.268011","__source_file__":"13-常用公服设施点/SHP/上海市_特殊买卖场所.shp"},"geometry":{"type":"Point","coordinates":[121.461776,31.268011]}},{"id":"285","type":"Feature","properties":{"id":"B0GRYCUL8D","name":"银丰典当行(花园路)","address":"虹口区花园路48号","type":"购物服务;特殊买卖场所;典当行","typecode":"061302","pcode":310000,"pname":"上海市","citycode":21,"cityname":"上海市","adcode":310109,"adname":"虹口区","business_a":"江湾","location":"121.477604,31.270011","tel":"021-60955099","bigType":"购物服务","midType":"特殊买卖场所","smallType":"典当行","gcj_lng":121.477604,"gcj_lat":31.270011,"wgs84_loc":"121.47309,31.271946","wgs84Lng":"121.47309","wgs84Lat":"31.271946","__source_file__":"13-常用公服设施点/SHP/上海市_特殊买卖场所.shp"},"geometry":{"type":"Point","coordinates":[121.47309,31.271946]}}],"name":"上海市_特殊买卖场所","crs":{"type":"name","properties":{"name":"urn:ogc:def:crs:OGC:1.3:CRS84"}}}