{"type":"FeatureCollection","features":[{"id":"116","type":"Feature","properties":{"id":"B001570WU2","name":"上海市第一妇婴保健院-急诊","address":"长乐路536号","type":"医疗保健服务;急救中心;急救中心","typecode":90400,"pcode":310000,"pname":"上海市","citycode":21,"cityname":"上海市","adcode":310106,"adname":"静安区","business_a":"淮海路","location":"121.456443,31.220394","tel":"021-67692811","bigType":"医疗保健服务","midType":"急救中心","smallType":"急救中心","gcj_lng":121.456443,"gcj_lat":31.220394,"wgs84_loc":"121.451869,31.222298","wgs84Lng":"121.451869","wgs84Lat":"31.222298","__source_file__":"13-常用公服设施点/SHP/上海市_急救中心.shp"},"geometry":{"type":"Point","coordinates":[121.451869,31.222298]}},{"id":"61","type":"Feature","properties":{"id":"B0H33MRPI0","name":"上海急救","address":"凤阳路同福里","type":"医疗保健服务;急救中心;急救中心","typecode":90400,"pcode":310000,"pname":"上海市","citycode":21,"cityname":"上海市","adcode":310101,"adname":"黄浦区","business_a":"北京东路","location":"121.470228,31.233718","tel":"[]","bigType":"医疗保健服务","midType":"急救中心","smallType":"急救中心","gcj_lng":121.470228,"gcj_lat":31.233718,"wgs84_loc":"121.465694,31.235649","wgs84Lng":"121.465694","wgs84Lat":"31.235649","__source_file__":"13-常用公服设施点/SHP/上海市_急救中心.shp"},"geometry":{"type":"Point","coordinates":[121.465694,31.235649]}},{"id":"63","type":"Feature","properties":{"id":"B0GK57CGTO","name":"上海市医疗急救中心曹家渡分站","address":"淮安路与昌化路交叉口东100米","type":"医疗保健服务;急救中心;急救中心","typecode":90400,"pcode":310000,"pname":"上海市","citycode":21,"cityname":"上海市","adcode":310106,"adname":"静安区","business_a":"曹家渡","location":"121.450948,31.239566","tel":"[]","bigType":"医疗保健服务","midType":"急救中心","smallType":"急救中心","gcj_lng":121.450948,"gcj_lat":31.239566,"wgs84_loc":"121.446358,31.241449","wgs84Lng":"121.446358","wgs84Lat":"31.241449","__source_file__":"13-常用公服设施点/SHP/上海市_急救中心.shp"},"geometry":{"type":"Point","coordinates":[121.446358,31.241449]}},{"id":"15","type":"Feature","properties":{"id":"B0FFL0ET70","name":"上海市医疗急救中心江宁分站","address":"普陀路200附近","type":"医疗保健服务;急救中心;急救中心","typecode":90400,"pcode":310000,"pname":"上海市","citycode":21,"cityname":"上海市","adcode":310107,"adname":"普陀区","business_a":"曹家渡","location":"121.440973,31.245439","tel":"[]","bigType":"医疗保健服务","midType":"急救中心","smallType":"急救中心","gcj_lng":121.440973,"gcj_lat":31.245439,"wgs84_loc":"121.43636,31.2473","wgs84Lng":"121.43636","wgs84Lat":"31.2473","__source_file__":"13-常用公服设施点/SHP/上海市_急救中心.shp"},"geometry":{"type":"Point","coordinates":[121.43636,31.2473]}},{"id":"64","type":"Feature","properties":{"id":"B0FFG958WT","name":"上海市医疗急救中心闸北分站","address":"中华新路619号上海市静安区中心医院13号楼","type":"医疗保健服务;急救中心;急救中心","typecode":90400,"pcode":310000,"pname":"上海市","citycode":21,"cityname":"上海市","adcode":310106,"adname":"静安区","business_a":"宝山路","location":"121.461046,31.253964","tel":"[]","bigType":"医疗保健服务","midType":"急救中心","smallType":"急救中心","gcj_lng":121.461046,"gcj_lat":31.253964,"wgs84_loc":"121.456482,31.255863","wgs84Lng":"121.456482","wgs84Lat":"31.255863","__source_file__":"13-常用公服设施点/SHP/上海市_急救中心.shp"},"geometry":{"type":"Point","coordinates":[121.456482,31.255863]}},{"id":"86","type":"Feature","properties":{"id":"B0FFF9LHVL","name":"同济大学附属口腔医院-急诊室","address":"延长中路399号","type":"医疗保健服务;急救中心;急救中心","typecode":90400,"pcode":310000,"pname":"上海市","citycode":21,"cityname":"上海市","adcode":310106,"adname":"静安区","business_a":"大宁路","location":"121.453026,31.270706","tel":"[]","bigType":"医疗保健服务","midType":"急救中心","smallType":"急救中心","gcj_lng":121.453026,"gcj_lat":31.270706,"wgs84_loc":"121.448439,31.27258","wgs84Lng":"121.448439","wgs84Lat":"31.27258","__source_file__":"13-常用公服设施点/SHP/上海市_急救中心.shp"},"geometry":{"type":"Point","coordinates":[121.448439,31.27258]}},{"id":"124","type":"Feature","properties":{"id":"B0K3UMV3YW","name":"上海市医疗急救中心外滩分站","address":"四川中路109号","type":"医疗保健服务;急救中心;急救中心","typecode":90400,"pcode":310000,"pname":"上海市","citycode":21,"cityname":"上海市","adcode":310101,"adname":"黄浦区","business_a":"北京路","location":"121.489001,31.234293","tel":"[]","bigType":"医疗保健服务","midType":"急救中心","smallType":"急救中心","gcj_lng":121.489001,"gcj_lat":31.234293,"wgs84_loc":"121.48453,31.236277","wgs84Lng":"121.48453","wgs84Lat":"31.236277","__source_file__":"13-常用公服设施点/SHP/上海市_急救中心.shp"},"geometry":{"type":"Point","coordinates":[121.48453,31.236277]}},{"id":"59","type":"Feature","properties":{"id":"B0FFHPMJMK","name":"上海市医疗急救中心","address":"北京西路106号","type":"医疗保健服务;急救中心;急救中心","typecode":90400,"pcode":310000,"pname":"上海市","citycode":21,"cityname":"上海市","adcode":310101,"adname":"黄浦区","business_a":"北京东路","location":"121.471474,31.236868","tel":"[]","bigType":"医疗保健服务","midType":"急救中心","smallType":"急救中心","gcj_lng":121.471474,"gcj_lat":31.236868,"wgs84_loc":"121.466943,31.238801","wgs84Lng":"121.466943","wgs84Lat":"31.238801","__source_file__":"13-常用公服设施点/SHP/上海市_急救中心.shp"},"geometry":{"type":"Point","coordinates":[121.466943,31.238801]}},{"id":"101","type":"Feature","properties":{"id":"B00155C09J","name":"上海市医疗急救中心黄浦分站","address":"北京西路100-106号","type":"医疗保健服务;急救中心;急救中心","typecode":90400,"pcode":310000,"pname":"上海市","citycode":21,"cityname":"上海市","adcode":310101,"adname":"黄浦区","business_a":"北京东路","location":"121.471484,31.236871","tel":"[]","bigType":"医疗保健服务","midType":"急救中心","smallType":"急救中心","gcj_lng":121.471484,"gcj_lat":31.236871,"wgs84_loc":"121.466953,31.238804","wgs84Lng":"121.466953","wgs84Lat":"31.238804","__source_file__":"13-常用公服设施点/SHP/上海市_急救中心.shp"},"geometry":{"type":"Point","coordinates":[121.466953,31.238804]}},{"id":"44","type":"Feature","properties":{"id":"B00155KCF8","name":"上海市医疗急救中心虹口分站","address":"海宁路68号","type":"医疗保健服务;急救中心;急救中心","typecode":90400,"pcode":310000,"pname":"上海市","citycode":21,"cityname":"上海市","adcode":310109,"adname":"虹口区","business_a":"七浦路","location":"121.488072,31.252108","tel":"[]","bigType":"医疗保健服务","midType":"急救中心","smallType":"急救中心","gcj_lng":121.488072,"gcj_lat":31.252108,"wgs84_loc":"121.483596,31.254081","wgs84Lng":"121.483596","wgs84Lat":"31.254081","__source_file__":"13-常用公服设施点/SHP/上海市_急救中心.shp"},"geometry":{"type":"Point","coordinates":[121.483596,31.254081]}},{"id":"45","type":"Feature","properties":{"id":"B001549355","name":"上海市心脏病急救中心(海宁路)","address":"海宁路100号","type":"医疗保健服务;急救中心;急救中心","typecode":90400,"pcode":310000,"pname":"上海市","citycode":21,"cityname":"上海市","adcode":310109,"adname":"虹口区","business_a":"[]","location":"121.489273,31.253352","tel":"[]","bigType":"医疗保健服务","midType":"急救中心","smallType":"急救中心","gcj_lng":121.489273,"gcj_lat":31.253352,"wgs84_loc":"121.484801,31.255328","wgs84Lng":"121.484801","wgs84Lat":"31.255328","__source_file__":"13-常用公服设施点/SHP/上海市_急救中心.shp"},"geometry":{"type":"Point","coordinates":[121.484801,31.255328]}},{"id":"88","type":"Feature","properties":{"id":"B0FFM34YQO","name":"上海长海医院-急救中心","address":"东江湾路15号","type":"医疗保健服务;急救中心;急救中心","typecode":90400,"pcode":310000,"pname":"上海市","citycode":21,"cityname":"上海市","adcode":310109,"adname":"虹口区","business_a":"宝山路","location":"121.480483,31.265561","tel":"[]","bigType":"医疗保健服务","midType":"急救中心","smallType":"急救中心","gcj_lng":121.480483,"gcj_lat":31.265561,"wgs84_loc":"121.47598,31.267507","wgs84Lng":"121.47598","wgs84Lat":"31.267507","__source_file__":"13-常用公服设施点/SHP/上海市_急救中心.shp"},"geometry":{"type":"Point","coordinates":[121.47598,31.267507]}}],"name":"上海市_急救中心","crs":{"type":"name","properties":{"name":"urn:ogc:def:crs:OGC:1.3:CRS84"}}}