{"type":"FeatureCollection","features":[{"id":"15","type":"Feature","properties":{"id":"B0HGV9SS3U","name":"A001(中信泰富广场)","address":"南京西路1168号中信泰富广场B2层","type":"室内设施;室内设施;室内设施","typecode":"970000","pcode":310000,"pname":"上海市","citycode":21,"cityname":"上海市","adcode":310106,"adname":"静安区","business_a":"淮海路","location":"121.455647,31.228481","tel":"[]","bigType":"室内设施","midType":"室内设施","smallType":"室内设施","gcj_lng":121.455647,"gcj_lat":31.228481,"wgs84_loc":"121.45107,31.230379","wgs84Lng":"121.45107","wgs84Lat":"31.230379","__source_file__":"13-常用公服设施点/SHP/上海市_室内设施.shp"},"geometry":{"type":"Point","coordinates":[121.45107,31.230379]}},{"id":"13","type":"Feature","properties":{"id":"B0FFGXLHBX","name":"药房(上海长征医院门诊楼)","address":"成都北路440号上海长征医院门诊楼F1层","type":"室内设施;室内设施;室内设施","typecode":"970000","pcode":310000,"pname":"上海市","citycode":21,"cityname":"上海市","adcode":310101,"adname":"黄浦区","business_a":"北京东路","location":"121.467426,31.231345","tel":"[]","bigType":"室内设施","midType":"室内设施","smallType":"室内设施","gcj_lng":121.467426,"gcj_lat":31.231345,"wgs84_loc":"121.462883,31.23327","wgs84Lng":"121.462883","wgs84Lat":"31.23327","__source_file__":"13-常用公服设施点/SHP/上海市_室内设施.shp"},"geometry":{"type":"Point","coordinates":[121.462883,31.23327]}},{"id":"18","type":"Feature","properties":{"id":"B0FFJEPO1F","name":"楼梯(新世界城)","address":"南京西路2-68号新世界城3F层","type":"室内设施;室内设施;室内设施","typecode":"970000","pcode":310000,"pname":"上海市","citycode":21,"cityname":"上海市","adcode":310101,"adname":"黄浦区","business_a":"北京东路","location":"121.473266,31.235334","tel":"[]","bigType":"室内设施","midType":"室内设施","smallType":"室内设施","gcj_lng":121.473266,"gcj_lat":31.235334,"wgs84_loc":"121.468741,31.237273","wgs84Lng":"121.468741","wgs84Lat":"31.237273","__source_file__":"13-常用公服设施点/SHP/上海市_室内设施.shp"},"geometry":{"type":"Point","coordinates":[121.468741,31.237273]}},{"id":"9","type":"Feature","properties":{"id":"B0FFL02RHD","name":"09(上海置地广场)","address":"南京东路409号上海置地广场B3层","type":"室内设施;室内设施;室内设施","typecode":"970000","pcode":310000,"pname":"上海市","citycode":21,"cityname":"上海市","adcode":310101,"adname":"黄浦区","business_a":"北京东路","location":"121.482208,31.236234","tel":"[]","bigType":"室内设施","midType":"室内设施","smallType":"室内设施","gcj_lng":121.482208,"gcj_lat":31.236234,"wgs84_loc":"121.477713,31.238197","wgs84Lng":"121.477713","wgs84Lat":"31.238197","__source_file__":"13-常用公服设施点/SHP/上海市_室内设施.shp"},"geometry":{"type":"Point","coordinates":[121.477713,31.238197]}},{"id":"19","type":"Feature","properties":{"id":"B0FFJDWDBA","name":"大悦城商管中心(上海静安大悦城北座)","address":"西藏北路166号上海静安大悦城北座L2层","type":"室内设施;室内设施;室内设施","typecode":"970000","pcode":310000,"pname":"上海市","citycode":21,"cityname":"上海市","adcode":310106,"adname":"静安区","business_a":"七浦路","location":"121.472503,31.244286","tel":"[]","bigType":"室内设施","midType":"室内设施","smallType":"室内设施","gcj_lng":121.472503,"gcj_lat":31.244286,"wgs84_loc":"121.467975,31.246219","wgs84Lng":"121.467975","wgs84Lat":"31.246219","__source_file__":"13-常用公服设施点/SHP/上海市_室内设施.shp"},"geometry":{"type":"Point","coordinates":[121.467975,31.246219]}},{"id":"5","type":"Feature","properties":{"id":"B0FFIK0EP0","name":"57(圣和圣时尚汇东区)","address":"河南北路233号圣和圣时尚汇东区B2层","type":"室内设施;室内设施;室内设施","typecode":"970000","pcode":310000,"pname":"上海市","citycode":21,"cityname":"上海市","adcode":310106,"adname":"静安区","business_a":"七浦路","location":"121.481122,31.247266","tel":"[]","bigType":"室内设施","midType":"室内设施","smallType":"室内设施","gcj_lng":121.481122,"gcj_lat":31.247266,"wgs84_loc":"121.476622,31.249221","wgs84Lng":"121.476622","wgs84Lat":"31.249221","__source_file__":"13-常用公服设施点/SHP/上海市_室内设施.shp"},"geometry":{"type":"Point","coordinates":[121.476622,31.249221]}},{"id":"14","type":"Feature","properties":{"id":"B0FFHFC5I8","name":"服务台(利通广场)","address":"四川北路1350号利通广场F1层","type":"室内设施;室内设施;室内设施","typecode":"970000","pcode":310000,"pname":"上海市","citycode":21,"cityname":"上海市","adcode":310109,"adname":"虹口区","business_a":"宝山路","location":"121.484890,31.253195","tel":"[]","bigType":"室内设施","midType":"室内设施","smallType":"室内设施","gcj_lng":121.48489,"gcj_lat":31.253195,"wgs84_loc":"121.480403,31.255159","wgs84Lng":"121.480403","wgs84Lat":"31.255159","__source_file__":"13-常用公服设施点/SHP/上海市_室内设施.shp"},"geometry":{"type":"Point","coordinates":[121.480403,31.255159]}}],"name":"上海市_室内设施","crs":{"type":"name","properties":{"name":"urn:ogc:def:crs:OGC:1.3:CRS84"}}}