{"type":"FeatureCollection","features":[{"id":"536","type":"Feature","properties":{"id":"B0FFHD9G52","name":"欧瑞泽基金","address":"淮海中路街道湖滨路150号企业天地二期5号28楼","type":"金融保险服务;保险公司;保险公司","typecode":"160400","pcode":310000,"pname":"上海市","citycode":21,"cityname":"上海市","adcode":310101,"adname":"黄浦区","business_a":"淮海路","location":"121.478350,31.220621","tel":"[]","bigType":"金融保险服务","midType":"保险公司","smallType":"保险公司","gcj_lng":121.47835,"gcj_lat":31.220621,"wgs84_loc":"121.473843,31.222581","wgs84Lng":"121.473843","wgs84Lat":"31.222581","__source_file__":"13-常用公服设施点/SHP/上海市_保险公司.shp"},"geometry":{"type":"Point","coordinates":[121.473843,31.222581]}},{"id":"385","type":"Feature","properties":{"id":"B0HK5CLDEJ","name":"中国人寿","address":"会稽路8号金天地1层","type":"金融保险服务;保险公司;中国人寿保险公司","typecode":"160402","pcode":310000,"pname":"上海市","citycode":21,"cityname":"上海市","adcode":310101,"adname":"黄浦区","business_a":"淮海路","location":"121.482809,31.223059","tel":"[]","bigType":"金融保险服务","midType":"保险公司","smallType":"中国人寿保险公司","gcj_lng":121.482809,"gcj_lat":31.223059,"wgs84_loc":"121.478317,31.22503","wgs84Lng":"121.478317","wgs84Lat":"31.22503","__source_file__":"13-常用公服设施点/SHP/上海市_保险公司.shp"},"geometry":{"type":"Point","coordinates":[121.478317,31.22503]}},{"id":"254","type":"Feature","properties":{"id":"B00155IUON","name":"中国人民财产保险股份有限公司(黄浦支公司)","address":"普安路177-1十方大厦名都商务楼5层、6层","type":"金融保险服务;保险公司;中国人民保险公司","typecode":"160401","pcode":310000,"pname":"上海市","citycode":21,"cityname":"上海市","adcode":310101,"adname":"黄浦区","business_a":"淮海路","location":"121.478391,31.223217","tel":"[]","bigType":"金融保险服务","midType":"保险公司","smallType":"中国人民保险公司","gcj_lng":121.478391,"gcj_lat":31.223217,"wgs84_loc":"121.473884,31.225176","wgs84Lng":"121.473884","wgs84Lat":"31.225176","__source_file__":"13-常用公服设施点/SHP/上海市_保险公司.shp"},"geometry":{"type":"Point","coordinates":[121.473884,31.225176]}},{"id":"691","type":"Feature","properties":{"id":"B0J32C80AN","name":"中国人民财产保险上海市分公司","address":"普安路177十方大厦名都商务楼F5层","type":"金融保险服务;保险公司;中国人民保险公司","typecode":"160401","pcode":310000,"pname":"上海市","citycode":21,"cityname":"上海市","adcode":310101,"adname":"黄浦区","business_a":"淮海路","location":"121.478280,31.223261","tel":"[]","bigType":"金融保险服务","midType":"保险公司","smallType":"中国人民保险公司","gcj_lng":121.47828,"gcj_lat":31.223261,"wgs84_loc":"121.473773,31.225219","wgs84Lng":"121.473773","wgs84Lat":"31.225219","__source_file__":"13-常用公服设施点/SHP/上海市_保险公司.shp"},"geometry":{"type":"Point","coordinates":[121.473773,31.225219]}},{"id":"639","type":"Feature","properties":{"id":"B0J2BZP5IY","name":"中国太平洋人寿保险股份有限公司","address":"寿宁路71号","type":"金融保险服务;保险公司;中国太平洋保险","typecode":"160405","pcode":310000,"pname":"上海市","citycode":21,"cityname":"上海市","adcode":310101,"adname":"黄浦区","business_a":"淮海路","location":"121.480836,31.223378","tel":"[]","bigType":"金融保险服务","midType":"保险公司","smallType":"中国太平洋保险","gcj_lng":121.480836,"gcj_lat":31.223378,"wgs84_loc":"121.476337,31.225343","wgs84Lng":"121.476337","wgs84Lat":"31.225343","__source_file__":"13-常用公服设施点/SHP/上海市_保险公司.shp"},"geometry":{"type":"Point","coordinates":[121.476337,31.225343]}},{"id":"387","type":"Feature","properties":{"id":"B0FFH85B1T","name":"中国人寿(人民路客户服务中心)","address":"人民路864号中国人寿大厦","type":"金融保险服务;保险公司;中国人寿保险公司","typecode":"160402","pcode":310000,"pname":"上海市","citycode":21,"cityname":"上海市","adcode":310101,"adname":"黄浦区","business_a":"城隍庙","location":"121.482675,31.225264","tel":"021-20712000","bigType":"金融保险服务","midType":"保险公司","smallType":"中国人寿保险公司","gcj_lng":121.482675,"gcj_lat":31.225264,"wgs84_loc":"121.478183,31.227234","wgs84Lng":"121.478183","wgs84Lat":"31.227234","__source_file__":"13-常用公服设施点/SHP/上海市_保险公司.shp"},"geometry":{"type":"Point","coordinates":[121.478183,31.227234]}},{"id":"384","type":"Feature","properties":{"id":"B0G3OOCC91","name":"中国人寿(上海客户服务中心)","address":"人民路858号中国人寿大厦(上海市总部)","type":"金融保险服务;保险公司;中国人寿保险公司","typecode":"160402","pcode":310000,"pname":"上海市","citycode":21,"cityname":"上海市","adcode":310101,"adname":"黄浦区","business_a":"淮海路","location":"121.482655,31.225294","tel":"021-23221342;95519","bigType":"金融保险服务","midType":"保险公司","smallType":"中国人寿保险公司","gcj_lng":121.482655,"gcj_lat":31.225294,"wgs84_loc":"121.478162,31.227264","wgs84Lng":"121.478162","wgs84Lat":"31.227264","__source_file__":"13-常用公服设施点/SHP/上海市_保险公司.shp"},"geometry":{"type":"Point","coordinates":[121.478162,31.227264]}},{"id":"388","type":"Feature","properties":{"id":"B0I6F7L282","name":"中国人寿","address":"[]","type":"金融保险服务;保险公司;中国人寿保险公司","typecode":"160402","pcode":310000,"pname":"上海市","citycode":21,"cityname":"上海市","adcode":310101,"adname":"黄浦区","business_a":"城隍庙","location":"121.484580,31.226927","tel":"[]","bigType":"金融保险服务","midType":"保险公司","smallType":"中国人寿保险公司","gcj_lng":121.48458,"gcj_lat":31.226927,"wgs84_loc":"121.480094,31.228902","wgs84Lng":"121.480094","wgs84Lat":"31.228902","__source_file__":"13-常用公服设施点/SHP/上海市_保险公司.shp"},"geometry":{"type":"Point","coordinates":[121.480094,31.228902]}},{"id":"603","type":"Feature","properties":{"id":"B00155I7WA","name":"瑞士苏黎世保险公司上海代表处","address":"西藏中路268号来福士广场47层3室","type":"金融保险服务;保险公司;保险公司","typecode":"160400","pcode":310000,"pname":"上海市","citycode":21,"cityname":"上海市","adcode":310101,"adname":"黄浦区","business_a":"北京东路","location":"121.476680,31.232940","tel":"[]","bigType":"金融保险服务","midType":"保险公司","smallType":"保险公司","gcj_lng":121.47668,"gcj_lat":31.23294,"wgs84_loc":"121.472167,31.234889","wgs84Lng":"121.472167","wgs84Lat":"31.234889","__source_file__":"13-常用公服设施点/SHP/上海市_保险公司.shp"},"geometry":{"type":"Point","coordinates":[121.472167,31.234889]}},{"id":"706","type":"Feature","properties":{"id":"B0J06UM6FQ","name":"中国平安财产保险股份有限公司","address":"中山东二路15号外滩华融大厦F6层","type":"金融保险服务;保险公司;中国平安保险公司","typecode":"160403","pcode":310000,"pname":"上海市","citycode":21,"cityname":"上海市","adcode":310101,"adname":"黄浦区","business_a":"城隍庙","location":"121.493411,31.231350","tel":"[]","bigType":"金融保险服务","midType":"保险公司","smallType":"中国平安保险公司","gcj_lng":121.493411,"gcj_lat":31.23135,"wgs84_loc":"121.488956,31.233349","wgs84Lng":"121.488956","wgs84Lat":"31.233349","__source_file__":"13-常用公服设施点/SHP/上海市_保险公司.shp"},"geometry":{"type":"Point","coordinates":[121.488956,31.233349]}},{"id":"245","type":"Feature","properties":{"id":"B0HG7HLAH8","name":"长安责任保险股份有限公司(上海市分公司)","address":"金陵东路2号23楼","type":"金融保险服务;保险公司;保险公司","typecode":"160400","pcode":310000,"pname":"上海市","citycode":21,"cityname":"上海市","adcode":310101,"adname":"黄浦区","business_a":"北京东路","location":"121.492380,31.232014","tel":"[]","bigType":"金融保险服务","midType":"保险公司","smallType":"保险公司","gcj_lng":121.49238,"gcj_lat":31.232014,"wgs84_loc":"121.487921,31.234009","wgs84Lng":"121.487921","wgs84Lat":"31.234009","__source_file__":"13-常用公服设施点/SHP/上海市_保险公司.shp"},"geometry":{"type":"Point","coordinates":[121.487921,31.234009]}},{"id":"242","type":"Feature","properties":{"id":"B0FFH1GUTR","name":"中国平安人寿保险股份有限公司(外滩客户服务中心)","address":"汉口路99号1楼","type":"金融保险服务;保险公司;中国平安保险公司","typecode":"160403","pcode":310000,"pname":"上海市","citycode":21,"cityname":"上海市","adcode":310101,"adname":"黄浦区","business_a":"北京东路","location":"121.487805,31.236362","tel":"[]","bigType":"金融保险服务","midType":"保险公司","smallType":"中国平安保险公司","gcj_lng":121.487805,"gcj_lat":31.236362,"wgs84_loc":"121.48333,31.238342","wgs84Lng":"121.48333","wgs84Lat":"31.238342","__source_file__":"13-常用公服设施点/SHP/上海市_保险公司.shp"},"geometry":{"type":"Point","coordinates":[121.48333,31.238342]}},{"id":"253","type":"Feature","properties":{"id":"B0FFHTO0JW","name":"康联人寿保险","address":"西藏中路336号华旭国际大厦12楼","type":"金融保险服务;保险公司;保险公司","typecode":"160400","pcode":310000,"pname":"上海市","citycode":21,"cityname":"上海市","adcode":310101,"adname":"黄浦区","business_a":"北京东路","location":"121.475835,31.233751","tel":"[]","bigType":"金融保险服务","midType":"保险公司","smallType":"保险公司","gcj_lng":121.475835,"gcj_lat":31.233751,"wgs84_loc":"121.471319,31.235698","wgs84Lng":"121.471319","wgs84Lat":"31.235698","__source_file__":"13-常用公服设施点/SHP/上海市_保险公司.shp"},"geometry":{"type":"Point","coordinates":[121.471319,31.235698]}},{"id":"258","type":"Feature","properties":{"id":"B0HK5CKKHO","name":"交银人寿保险公司","address":"西藏中路336号华旭国际大厦1层","type":"金融保险服务;保险公司;保险公司","typecode":"160400","pcode":310000,"pname":"上海市","citycode":21,"cityname":"上海市","adcode":310101,"adname":"黄浦区","business_a":"北京东路","location":"121.476119,31.233853","tel":"[]","bigType":"金融保险服务","midType":"保险公司","smallType":"保险公司","gcj_lng":121.476119,"gcj_lat":31.233853,"wgs84_loc":"121.471604,31.2358","wgs84Lng":"121.471604","wgs84Lat":"31.2358","__source_file__":"13-常用公服设施点/SHP/上海市_保险公司.shp"},"geometry":{"type":"Point","coordinates":[121.471604,31.2358]}},{"id":"243","type":"Feature","properties":{"id":"B0FFF53CA5","name":"北大方正人寿保险","address":"九江路686号宝龙大厦3层UnitA","type":"金融保险服务;保险公司;保险公司","typecode":"160400","pcode":310000,"pname":"上海市","citycode":21,"cityname":"上海市","adcode":310101,"adname":"黄浦区","business_a":"北京东路","location":"121.477670,31.234540","tel":"[]","bigType":"金融保险服务","midType":"保险公司","smallType":"保险公司","gcj_lng":121.47767,"gcj_lat":31.23454,"wgs84_loc":"121.47316,31.236491","wgs84Lng":"121.47316","wgs84Lat":"31.236491","__source_file__":"13-常用公服设施点/SHP/上海市_保险公司.shp"},"geometry":{"type":"Point","coordinates":[121.47316,31.236491]}},{"id":"241","type":"Feature","properties":{"id":"B0FFH10BOO","name":"中国平安人寿保险股份有限公司","address":"汉口路110-130号附近","type":"金融保险服务;保险公司;中国平安保险公司","typecode":"160403","pcode":310000,"pname":"上海市","citycode":21,"cityname":"上海市","adcode":310101,"adname":"黄浦区","business_a":"北京东路","location":"121.487685,31.236334","tel":"[]","bigType":"金融保险服务","midType":"保险公司","smallType":"中国平安保险公司","gcj_lng":121.487685,"gcj_lat":31.236334,"wgs84_loc":"121.483209,31.238313","wgs84Lng":"121.483209","wgs84Lat":"31.238313","__source_file__":"13-常用公服设施点/SHP/上海市_保险公司.shp"},"geometry":{"type":"Point","coordinates":[121.483209,31.238313]}},{"id":"264","type":"Feature","properties":{"id":"B0GKBMEU0I","name":"上海环亚保险经纪有限公司","address":"六合路98号港陆黄浦中心13层","type":"金融保险服务;保险公司;保险公司","typecode":"160400","pcode":310000,"pname":"上海市","citycode":21,"cityname":"上海市","adcode":310101,"adname":"黄浦区","business_a":"北京东路","location":"121.475000,31.236576","tel":"021-63616888","bigType":"金融保险服务","midType":"保险公司","smallType":"保险公司","gcj_lng":121.475,"gcj_lat":31.236576,"wgs84_loc":"121.470481,31.238519","wgs84Lng":"121.470481","wgs84Lat":"31.238519","__source_file__":"13-常用公服设施点/SHP/上海市_保险公司.shp"},"geometry":{"type":"Point","coordinates":[121.470481,31.238519]}},{"id":"382","type":"Feature","properties":{"id":"B0H2H1LG2M","name":"中国人寿(黄浦支公司)","address":"北京东路398号3层","type":"金融保险服务;保险公司;中国人寿保险公司","typecode":"160402","pcode":310000,"pname":"上海市","citycode":21,"cityname":"上海市","adcode":310101,"adname":"黄浦区","business_a":"北京东路","location":"121.482294,31.240370","tel":"021-63506171","bigType":"金融保险服务","midType":"保险公司","smallType":"中国人寿保险公司","gcj_lng":121.482294,"gcj_lat":31.24037,"wgs84_loc":"121.477799,31.242332","wgs84Lng":"121.477799","wgs84Lat":"31.242332","__source_file__":"13-常用公服设施点/SHP/上海市_保险公司.shp"},"geometry":{"type":"Point","coordinates":[121.477799,31.242332]}},{"id":"737","type":"Feature","properties":{"id":"B0JB6SFY00","name":"中国人寿","address":"景云大楼北京东路398号3楼","type":"金融保险服务;保险公司;中国人寿保险公司","typecode":"160402","pcode":310000,"pname":"上海市","citycode":21,"cityname":"上海市","adcode":310101,"adname":"黄浦区","business_a":"北京路","location":"121.482223,31.240476","tel":"[]","bigType":"金融保险服务","midType":"保险公司","smallType":"中国人寿保险公司","gcj_lng":121.482223,"gcj_lat":31.240476,"wgs84_loc":"121.477728,31.242438","wgs84Lng":"121.477728","wgs84Lat":"31.242438","__source_file__":"13-常用公服设施点/SHP/上海市_保险公司.shp"},"geometry":{"type":"Point","coordinates":[121.477728,31.242438]}},{"id":"642","type":"Feature","properties":{"id":"B0JBOZOAOV","name":"中国融通财产保险有限公司","address":"北京东路240号(南京东路地铁站6号口步行280米)","type":"金融保险服务;保险公司;保险公司","typecode":"160400","pcode":310000,"pname":"上海市","citycode":21,"cityname":"上海市","adcode":310101,"adname":"黄浦区","business_a":"北京路","location":"121.485385,31.240708","tel":"[]","bigType":"金融保险服务","midType":"保险公司","smallType":"保险公司","gcj_lng":121.485385,"gcj_lat":31.240708,"wgs84_loc":"121.480901,31.242679","wgs84Lng":"121.480901","wgs84Lat":"31.242679","__source_file__":"13-常用公服设施点/SHP/上海市_保险公司.shp"},"geometry":{"type":"Point","coordinates":[121.480901,31.242679]}},{"id":"263","type":"Feature","properties":{"id":"B0H2A786TW","name":"众安保险","address":"虎丘路14号中实大楼4楼","type":"金融保险服务;保险公司;保险公司","typecode":"160400","pcode":310000,"pname":"上海市","citycode":21,"cityname":"上海市","adcode":310101,"adname":"黄浦区","business_a":"北京东路","location":"121.487624,31.240966","tel":"[]","bigType":"金融保险服务","midType":"保险公司","smallType":"保险公司","gcj_lng":121.487624,"gcj_lat":31.240966,"wgs84_loc":"121.483147,31.242943","wgs84Lng":"121.483147","wgs84Lat":"31.242943","__source_file__":"13-常用公服设施点/SHP/上海市_保险公司.shp"},"geometry":{"type":"Point","coordinates":[121.483147,31.242943]}},{"id":"255","type":"Feature","properties":{"id":"B00155LY6O","name":"中国人民财产保险股份有限公司(上海市分公司直属支公司)","address":"南苏州路333号华隆大厦18层","type":"金融保险服务;保险公司;中国人民保险公司","typecode":"160401","pcode":310000,"pname":"上海市","citycode":21,"cityname":"上海市","adcode":310101,"adname":"黄浦区","business_a":"北京东路","location":"121.484011,31.241887","tel":"021-63619090","bigType":"金融保险服务","midType":"保险公司","smallType":"中国人民保险公司","gcj_lng":121.484011,"gcj_lat":31.241887,"wgs84_loc":"121.479522,31.243853","wgs84Lng":"121.479522","wgs84Lat":"31.243853","__source_file__":"13-常用公服设施点/SHP/上海市_保险公司.shp"},"geometry":{"type":"Point","coordinates":[121.479522,31.243853]}},{"id":"736","type":"Feature","properties":{"id":"B0K3MCK3GU","name":"中国人寿保险公司","address":"四川中路与汉口路交叉口北20米","type":"金融保险服务;保险公司;中国人寿保险公司","typecode":"160402","pcode":310000,"pname":"上海市","citycode":21,"cityname":"上海市","adcode":310101,"adname":"黄浦区","business_a":"北京路","location":"121.488565,31.236822","tel":"[]","bigType":"金融保险服务","midType":"保险公司","smallType":"中国人寿保险公司","gcj_lng":121.488565,"gcj_lat":31.236822,"wgs84_loc":"121.484092,31.238804","wgs84Lng":"121.484092","wgs84Lat":"31.238804","__source_file__":"13-常用公服设施点/SHP/上海市_保险公司.shp"},"geometry":{"type":"Point","coordinates":[121.484092,31.238804]}},{"id":"140","type":"Feature","properties":{"id":"B0FFH92NIX","name":"民生人寿保险","address":"陆家嘴西路99号万向大厦19楼","type":"金融保险服务;保险公司;保险公司","typecode":"160400","pcode":310000,"pname":"上海市","citycode":21,"cityname":"上海市","adcode":310115,"adname":"浦东新区","business_a":"陆家嘴","location":"121.497745,31.237662","tel":"[]","bigType":"金融保险服务","midType":"保险公司","smallType":"保险公司","gcj_lng":121.497745,"gcj_lat":31.237662,"wgs84_loc":"121.493305,31.239671","wgs84Lng":"121.493305","wgs84Lat":"31.239671","__source_file__":"13-常用公服设施点/SHP/上海市_保险公司.shp"},"geometry":{"type":"Point","coordinates":[121.493305,31.239671]}},{"id":"237","type":"Feature","properties":{"id":"B00154258C","name":"中银保险上海分公司","address":"四川中路321号中央大厦11层","type":"金融保险服务;保险公司;保险公司|金融保险服务;银行相关;银行相关","typecode":"160400|160200","pcode":310000,"pname":"上海市","citycode":21,"cityname":"上海市","adcode":310101,"adname":"黄浦区","business_a":"北京东路","location":"121.487928,31.237727","tel":"021-63392880","bigType":"金融保险服务","midType":"保险公司","smallType":"保险公司|金融保险服务","gcj_lng":121.487928,"gcj_lat":31.237727,"wgs84_loc":"121.483453,31.239706","wgs84Lng":"121.483453","wgs84Lat":"31.239706","__source_file__":"13-常用公服设施点/SHP/上海市_保险公司.shp"},"geometry":{"type":"Point","coordinates":[121.483453,31.239706]}},{"id":"246","type":"Feature","properties":{"id":"B00155HC9T","name":"友邦保险","address":"中山东一路17友邦大厦","type":"金融保险服务;保险公司;保险公司","typecode":"160400","pcode":310000,"pname":"上海市","citycode":21,"cityname":"上海市","adcode":310101,"adname":"黄浦区","business_a":"北京东路","location":"121.489713,31.238166","tel":"021-53599988","bigType":"金融保险服务","midType":"保险公司","smallType":"保险公司","gcj_lng":121.489713,"gcj_lat":31.238166,"wgs84_loc":"121.485244,31.240151","wgs84Lng":"121.485244","wgs84Lat":"31.240151","__source_file__":"13-常用公服设施点/SHP/上海市_保险公司.shp"},"geometry":{"type":"Point","coordinates":[121.485244,31.240151]}},{"id":"641","type":"Feature","properties":{"id":"B0K27R995A","name":"友邦人寿保险有限公司","address":"中山东一路17号(近外滩)友邦大厦7层","type":"金融保险服务;保险公司;保险公司","typecode":"160400","pcode":310000,"pname":"上海市","citycode":21,"cityname":"上海市","adcode":310101,"adname":"黄浦区","business_a":"北京路","location":"121.489654,31.238177","tel":"[]","bigType":"金融保险服务","midType":"保险公司","smallType":"保险公司","gcj_lng":121.489654,"gcj_lat":31.238177,"wgs84_loc":"121.485185,31.240161","wgs84Lng":"121.485185","wgs84Lat":"31.240161","__source_file__":"13-常用公服设施点/SHP/上海市_保险公司.shp"},"geometry":{"type":"Point","coordinates":[121.485185,31.240161]}},{"id":"238","type":"Feature","properties":{"id":"B0FFGMP1H3","name":"众安保险","address":"圆明园路219号","type":"金融保险服务;保险公司;保险公司","typecode":"160400","pcode":310000,"pname":"上海市","citycode":21,"cityname":"上海市","adcode":310101,"adname":"黄浦区","business_a":"北京东路","location":"121.487891,31.243451","tel":"[]","bigType":"金融保险服务","midType":"保险公司","smallType":"保险公司","gcj_lng":121.487891,"gcj_lat":31.243451,"wgs84_loc":"121.483415,31.245428","wgs84Lng":"121.483415","wgs84Lat":"31.245428","__source_file__":"13-常用公服设施点/SHP/上海市_保险公司.shp"},"geometry":{"type":"Point","coordinates":[121.483415,31.245428]}},{"id":"599","type":"Feature","properties":{"id":"B00155GRRK","name":"中国人寿(上海市分公司)","address":"天潼路133号家化大厦7楼","type":"金融保险服务;保险公司;中国人寿保险公司","typecode":"160402","pcode":310000,"pname":"上海市","citycode":21,"cityname":"上海市","adcode":310109,"adname":"虹口区","business_a":"提篮桥","location":"121.490334,31.245483","tel":"021-36720765","bigType":"金融保险服务","midType":"保险公司","smallType":"中国人寿保险公司","gcj_lng":121.490334,"gcj_lat":31.245483,"wgs84_loc":"121.485867,31.247466","wgs84Lng":"121.485867","wgs84Lat":"31.247466","__source_file__":"13-常用公服设施点/SHP/上海市_保险公司.shp"},"geometry":{"type":"Point","coordinates":[121.485867,31.247466]}},{"id":"82","type":"Feature","properties":{"id":"B0FFJWWDOR","name":"中国人寿(客户服务部)","address":"天潼路133号1楼","type":"金融保险服务;保险公司;中国人寿保险公司","typecode":"160402","pcode":310000,"pname":"上海市","citycode":21,"cityname":"上海市","adcode":310109,"adname":"虹口区","business_a":"提篮桥","location":"121.490342,31.245621","tel":"[]","bigType":"金融保险服务","midType":"保险公司","smallType":"中国人寿保险公司","gcj_lng":121.490342,"gcj_lat":31.245621,"wgs84_loc":"121.485875,31.247604","wgs84Lng":"121.485875","wgs84Lat":"31.247604","__source_file__":"13-常用公服设施点/SHP/上海市_保险公司.shp"},"geometry":{"type":"Point","coordinates":[121.485875,31.247604]}},{"id":"71","type":"Feature","properties":{"id":"B0IGBLPO2X","name":"大地保险意健险","address":"峨嵋路与武昌路交叉口西约20米","type":"金融保险服务;保险公司;保险公司","typecode":"160400","pcode":310000,"pname":"上海市","citycode":21,"cityname":"上海市","adcode":310109,"adname":"虹口区","business_a":"北外滩","location":"121.490479,31.246484","tel":"[]","bigType":"金融保险服务","midType":"保险公司","smallType":"保险公司","gcj_lng":121.490479,"gcj_lat":31.246484,"wgs84_loc":"121.486012,31.248467","wgs84Lng":"121.486012","wgs84Lat":"31.248467","__source_file__":"13-常用公服设施点/SHP/上海市_保险公司.shp"},"geometry":{"type":"Point","coordinates":[121.486012,31.248467]}},{"id":"49","type":"Feature","properties":{"id":"B00155LXFV","name":"中意人寿保险有限公司上海分公司","address":"吴淞路218号宝矿国际大厦20层、1902室、1903室、1905室、502室、503 室","type":"金融保险服务;保险公司;保险公司","typecode":"160400","pcode":310000,"pname":"上海市","citycode":21,"cityname":"上海市","adcode":310109,"adname":"虹口区","business_a":"提篮桥","location":"121.491007,31.248384","tel":"021-61055588","bigType":"金融保险服务","midType":"保险公司","smallType":"保险公司","gcj_lng":121.491007,"gcj_lat":31.248384,"wgs84_loc":"121.486542,31.250368","wgs84Lng":"121.486542","wgs84Lat":"31.250368","__source_file__":"13-常用公服设施点/SHP/上海市_保险公司.shp"},"geometry":{"type":"Point","coordinates":[121.486542,31.250368]}},{"id":"67","type":"Feature","properties":{"id":"B0GKBZFBAT","name":"新华保险客户服务中心(上海分公司本部)","address":"东大名路558号B1","type":"金融保险服务;保险公司;新华人寿保险公司","typecode":"160406","pcode":310000,"pname":"上海市","citycode":21,"cityname":"上海市","adcode":310109,"adname":"虹口区","business_a":"北外滩","location":"121.499632,31.248548","tel":"[]","bigType":"金融保险服务","midType":"保险公司","smallType":"新华人寿保险公司","gcj_lng":121.499632,"gcj_lat":31.248548,"wgs84_loc":"121.495198,31.250558","wgs84Lng":"121.495198","wgs84Lat":"31.250558","__source_file__":"13-常用公服设施点/SHP/上海市_保险公司.shp"},"geometry":{"type":"Point","coordinates":[121.495198,31.250558]}},{"id":"55","type":"Feature","properties":{"id":"B00157I1RN","name":"新华保险股份有限公司","address":"东大名路558号新华保险大厦","type":"金融保险服务;保险公司;新华人寿保险公司","typecode":"160406","pcode":310000,"pname":"上海市","citycode":21,"cityname":"上海市","adcode":310109,"adname":"虹口区","business_a":"提篮桥","location":"121.499704,31.248622","tel":"021-62189313","bigType":"金融保险服务","midType":"保险公司","smallType":"新华人寿保险公司","gcj_lng":121.499704,"gcj_lat":31.248622,"wgs84_loc":"121.49527,31.250632","wgs84Lng":"121.49527","wgs84Lat":"31.250632","__source_file__":"13-常用公服设施点/SHP/上海市_保险公司.shp"},"geometry":{"type":"Point","coordinates":[121.49527,31.250632]}},{"id":"627","type":"Feature","properties":{"id":"B0I0X7E5M9","name":"信泰保险","address":"东大名路638号国投大厦F6层","type":"金融保险服务;保险公司;保险公司","typecode":"160400","pcode":310000,"pname":"上海市","citycode":21,"cityname":"上海市","adcode":310109,"adname":"虹口区","business_a":"提篮桥","location":"121.501352,31.248680","tel":"[]","bigType":"金融保险服务","midType":"保险公司","smallType":"保险公司","gcj_lng":121.501352,"gcj_lat":31.24868,"wgs84_loc":"121.496924,31.250695","wgs84Lng":"121.496924","wgs84Lat":"31.250695","__source_file__":"13-常用公服设施点/SHP/上海市_保险公司.shp"},"geometry":{"type":"Point","coordinates":[121.496924,31.250695]}},{"id":"79","type":"Feature","properties":{"id":"B0H14STMAM","name":"南华保险经纪有限公司(上海分公司)","address":"吴淞路308号701室","type":"金融保险服务;保险公司;保险公司","typecode":"160400","pcode":310000,"pname":"上海市","citycode":21,"cityname":"上海市","adcode":310109,"adname":"虹口区","business_a":"提篮桥","location":"121.489738,31.249794","tel":"021-23560459","bigType":"金融保险服务","midType":"保险公司","smallType":"保险公司","gcj_lng":121.489738,"gcj_lat":31.249794,"wgs84_loc":"121.485268,31.251773","wgs84Lng":"121.485268","wgs84Lat":"31.251773","__source_file__":"13-常用公服设施点/SHP/上海市_保险公司.shp"},"geometry":{"type":"Point","coordinates":[121.485268,31.251773]}},{"id":"81","type":"Feature","properties":{"id":"B0FFFPIW8G","name":"中国太平洋财产保险股份有限公司(上海分公司)","address":"四川北路街道吴淞路400号","type":"金融保险服务;保险公司;中国太平洋保险","typecode":"160405","pcode":310000,"pname":"上海市","citycode":21,"cityname":"上海市","adcode":310109,"adname":"虹口区","business_a":"提篮桥","location":"121.489463,31.250505","tel":"[]","bigType":"金融保险服务","midType":"保险公司","smallType":"中国太平洋保险","gcj_lng":121.489463,"gcj_lat":31.250505,"wgs84_loc":"121.484992,31.252483","wgs84Lng":"121.484992","wgs84Lat":"31.252483","__source_file__":"13-常用公服设施点/SHP/上海市_保险公司.shp"},"geometry":{"type":"Point","coordinates":[121.484992,31.252483]}},{"id":"59","type":"Feature","properties":{"id":"B0FFHF9SV9","name":"中国太平洋保险(集团)股份有限公司(上海分公司)","address":"吴淞路400号太保大厦","type":"金融保险服务;保险公司;中国太平洋保险","typecode":"160405","pcode":310000,"pname":"上海市","citycode":21,"cityname":"上海市","adcode":310109,"adname":"虹口区","business_a":"北外滩","location":"121.489446,31.250537","tel":"[]","bigType":"金融保险服务","midType":"保险公司","smallType":"中国太平洋保险","gcj_lng":121.489446,"gcj_lat":31.250537,"wgs84_loc":"121.484975,31.252515","wgs84Lng":"121.484975","wgs84Lat":"31.252515","__source_file__":"13-常用公服设施点/SHP/上海市_保险公司.shp"},"geometry":{"type":"Point","coordinates":[121.484975,31.252515]}},{"id":"58","type":"Feature","properties":{"id":"B0FFHCFVO3","name":"中国太平洋人寿保险股份有限公司","address":"吴淞路400号太保大厦21楼","type":"金融保险服务;保险公司;中国太平洋保险","typecode":"160405","pcode":310000,"pname":"上海市","citycode":21,"cityname":"上海市","adcode":310109,"adname":"虹口区","business_a":"提篮桥","location":"121.489602,31.250618","tel":"[]","bigType":"金融保险服务","midType":"保险公司","smallType":"中国太平洋保险","gcj_lng":121.489602,"gcj_lat":31.250618,"wgs84_loc":"121.485132,31.252597","wgs84Lng":"121.485132","wgs84Lat":"31.252597","__source_file__":"13-常用公服设施点/SHP/上海市_保险公司.shp"},"geometry":{"type":"Point","coordinates":[121.485132,31.252597]}},{"id":"73","type":"Feature","properties":{"id":"B0I6VM73BS","name":"中国太平","address":"[]","type":"金融保险服务;保险公司;保险公司","typecode":"160400","pcode":310000,"pname":"上海市","citycode":21,"cityname":"上海市","adcode":310109,"adname":"虹口区","business_a":"七浦路","location":"121.488170,31.252249","tel":"[]","bigType":"金融保险服务","midType":"保险公司","smallType":"保险公司","gcj_lng":121.48817,"gcj_lat":31.252249,"wgs84_loc":"121.483694,31.254223","wgs84Lng":"121.483694","wgs84Lat":"31.254223","__source_file__":"13-常用公服设施点/SHP/上海市_保险公司.shp"},"geometry":{"type":"Point","coordinates":[121.483694,31.254223]}},{"id":"68","type":"Feature","properties":{"id":"B0G0A7X2FB","name":"友邦保险(天潼路店)","address":"四川北路街道天潼路328号上海星荟中心2号楼","type":"金融保险服务;保险公司;保险公司","typecode":"160400","pcode":310000,"pname":"上海市","citycode":21,"cityname":"上海市","adcode":310109,"adname":"虹口区","business_a":"北外滩","location":"121.487186,31.246134","tel":"[]","bigType":"金融保险服务","midType":"保险公司","smallType":"保险公司","gcj_lng":121.487186,"gcj_lat":31.246134,"wgs84_loc":"121.482708,31.248107","wgs84Lng":"121.482708","wgs84Lat":"31.248107","__source_file__":"13-常用公服设施点/SHP/上海市_保险公司.shp"},"geometry":{"type":"Point","coordinates":[121.482708,31.248107]}},{"id":"77","type":"Feature","properties":{"id":"B0H2A77P51","name":"众安保险","address":"天潼路328号星荟中心3楼","type":"金融保险服务;保险公司;保险公司","typecode":"160400","pcode":310000,"pname":"上海市","citycode":21,"cityname":"上海市","adcode":310109,"adname":"虹口区","business_a":"北外滩","location":"121.486577,31.246150","tel":"[]","bigType":"金融保险服务","midType":"保险公司","smallType":"保险公司","gcj_lng":121.486577,"gcj_lat":31.24615,"wgs84_loc":"121.482096,31.248122","wgs84Lng":"121.482096","wgs84Lat":"31.248122","__source_file__":"13-常用公服设施点/SHP/上海市_保险公司.shp"},"geometry":{"type":"Point","coordinates":[121.482096,31.248122]}},{"id":"61","type":"Feature","properties":{"id":"B0HGKCIWP1","name":"真意保险代理有限公司上海分公司","address":"四川北路88号星荟中心一座20楼2006室","type":"金融保险服务;保险公司;保险公司","typecode":"160400","pcode":310000,"pname":"上海市","citycode":21,"cityname":"上海市","adcode":310109,"adname":"虹口区","business_a":"北外滩","location":"121.486963,31.246349","tel":"[]","bigType":"金融保险服务","midType":"保险公司","smallType":"保险公司","gcj_lng":121.486963,"gcj_lat":31.246349,"wgs84_loc":"121.482484,31.248322","wgs84Lng":"121.482484","wgs84Lat":"31.248322","__source_file__":"13-常用公服设施点/SHP/上海市_保险公司.shp"},"geometry":{"type":"Point","coordinates":[121.482484,31.248322]}},{"id":"80","type":"Feature","properties":{"id":"B0FFGT3YO3","name":"民生人寿","address":"塘沽路463号华虹国际大厦7楼","type":"金融保险服务;保险公司;保险公司","typecode":"160400","pcode":310000,"pname":"上海市","citycode":21,"cityname":"上海市","adcode":310109,"adname":"虹口区","business_a":"北外滩","location":"121.485978,31.248088","tel":"[]","bigType":"金融保险服务","midType":"保险公司","smallType":"保险公司","gcj_lng":121.485978,"gcj_lat":31.248088,"wgs84_loc":"121.481495,31.250057","wgs84Lng":"121.481495","wgs84Lat":"31.250057","__source_file__":"13-常用公服设施点/SHP/上海市_保险公司.shp"},"geometry":{"type":"Point","coordinates":[121.481495,31.250057]}},{"id":"613","type":"Feature","properties":{"id":"B0FFLGFKJW","name":"中国平安人寿保险股份有限公司","address":"武进路456号(四川北路地铁站3号口步行180米)","type":"金融保险服务;保险公司;中国平安保险公司","typecode":"160403","pcode":310000,"pname":"上海市","citycode":21,"cityname":"上海市","adcode":310109,"adname":"虹口区","business_a":"七浦路","location":"121.482181,31.251041","tel":"[]","bigType":"金融保险服务","midType":"保险公司","smallType":"中国平安保险公司","gcj_lng":121.482181,"gcj_lat":31.251041,"wgs84_loc":"121.477685,31.252998","wgs84Lng":"121.477685","wgs84Lat":"31.252998","__source_file__":"13-常用公服设施点/SHP/上海市_保险公司.shp"},"geometry":{"type":"Point","coordinates":[121.477685,31.252998]}},{"id":"66","type":"Feature","properties":{"id":"B0GRL5MRK5","name":"阳光保险集团人寿保险","address":"四川北路1318号盛邦国际大厦16楼","type":"金融保险服务;保险公司;保险公司","typecode":"160400","pcode":310000,"pname":"上海市","citycode":21,"cityname":"上海市","adcode":310109,"adname":"虹口区","business_a":"七浦路","location":"121.484301,31.251609","tel":"95510","bigType":"金融保险服务","midType":"保险公司","smallType":"保险公司","gcj_lng":121.484301,"gcj_lat":31.251609,"wgs84_loc":"121.479812,31.253572","wgs84Lng":"121.479812","wgs84Lat":"31.253572","__source_file__":"13-常用公服设施点/SHP/上海市_保险公司.shp"},"geometry":{"type":"Point","coordinates":[121.479812,31.253572]}},{"id":"72","type":"Feature","properties":{"id":"B0IB9Z4UV0","name":"上海安国保险经纪有限公司上海分公司","address":"四川北路1500号305室","type":"金融保险服务;保险公司;保险公司","typecode":"160400","pcode":310000,"pname":"上海市","citycode":21,"cityname":"上海市","adcode":310109,"adname":"虹口区","business_a":"宝山路","location":"121.483756,31.255099","tel":"[]","bigType":"金融保险服务","midType":"保险公司","smallType":"保险公司","gcj_lng":121.483756,"gcj_lat":31.255099,"wgs84_loc":"121.479265,31.257058","wgs84Lng":"121.479265","wgs84Lat":"31.257058","__source_file__":"13-常用公服设施点/SHP/上海市_保险公司.shp"},"geometry":{"type":"Point","coordinates":[121.479265,31.257058]}},{"id":"78","type":"Feature","properties":{"id":"B0H1MCY6O0","name":"富德生命人寿东宝兴路营销服务部","address":"东宝兴路118号谊华大厦705室","type":"金融保险服务;保险公司;保险公司","typecode":"160400","pcode":310000,"pname":"上海市","citycode":21,"cityname":"上海市","adcode":310109,"adname":"虹口区","business_a":"宝山路","location":"121.484348,31.257036","tel":"[]","bigType":"金融保险服务","midType":"保险公司","smallType":"保险公司","gcj_lng":121.484348,"gcj_lat":31.257036,"wgs84_loc":"121.479859,31.258996","wgs84Lng":"121.479859","wgs84Lat":"31.258996","__source_file__":"13-常用公服设施点/SHP/上海市_保险公司.shp"},"geometry":{"type":"Point","coordinates":[121.479859,31.258996]}},{"id":"69","type":"Feature","properties":{"id":"B0FFHT5I51","name":"浙商财产保险股份有限公司(上海分公司)","address":"四川北路1717号嘉杰国际广场19层","type":"金融保险服务;保险公司;保险公司","typecode":"160400","pcode":310000,"pname":"上海市","citycode":21,"cityname":"上海市","adcode":310109,"adname":"虹口区","business_a":"宝山路","location":"121.482567,31.258710","tel":"021-36531290","bigType":"金融保险服务","midType":"保险公司","smallType":"保险公司","gcj_lng":121.482567,"gcj_lat":31.25871,"wgs84_loc":"121.478071,31.260664","wgs84Lng":"121.478071","wgs84Lat":"31.260664","__source_file__":"13-常用公服设施点/SHP/上海市_保险公司.shp"},"geometry":{"type":"Point","coordinates":[121.478071,31.260664]}},{"id":"364","type":"Feature","properties":{"id":"B0FFMAX1VX","name":"中国平安人寿保险股份有限公司黄浦西藏中路营销服务部","address":"中山北一路9号1幢4-6层","type":"金融保险服务;保险公司;中国平安保险公司","typecode":"160403","pcode":310000,"pname":"上海市","citycode":21,"cityname":"上海市","adcode":310109,"adname":"虹口区","business_a":"和田","location":"121.473870,31.268709","tel":"[]","bigType":"金融保险服务","midType":"保险公司","smallType":"中国平安保险公司","gcj_lng":121.47387,"gcj_lat":31.268709,"wgs84_loc":"121.469344,31.270635","wgs84Lng":"121.469344","wgs84Lat":"31.270635","__source_file__":"13-常用公服设施点/SHP/上海市_保险公司.shp"},"geometry":{"type":"Point","coordinates":[121.469344,31.270635]}},{"id":"57","type":"Feature","properties":{"id":"B0FFJAPG2A","name":"中国人寿","address":"四平路273号福龙大厦6楼","type":"金融保险服务;保险公司;保险公司","typecode":"160400","pcode":310000,"pname":"上海市","citycode":21,"cityname":"上海市","adcode":310109,"adname":"虹口区","business_a":"[]","location":"121.489256,31.262359","tel":"[]","bigType":"金融保险服务","midType":"保险公司","smallType":"保险公司","gcj_lng":121.489256,"gcj_lat":31.262359,"wgs84_loc":"121.484783,31.264331","wgs84Lng":"121.484783","wgs84Lat":"31.264331","__source_file__":"13-常用公服设施点/SHP/上海市_保险公司.shp"},"geometry":{"type":"Point","coordinates":[121.484783,31.264331]}},{"id":"366","type":"Feature","properties":{"id":"B0FFK3G2DY","name":"中国平安人寿保险股份有限公司上海分公司中山北一路营销服务部","address":"中山北一路9号1幢4-6层","type":"金融保险服务;保险公司;中国平安保险公司","typecode":"160403","pcode":310000,"pname":"上海市","citycode":21,"cityname":"上海市","adcode":310109,"adname":"虹口区","business_a":"和田","location":"121.473869,31.268724","tel":"[]","bigType":"金融保险服务","midType":"保险公司","smallType":"中国平安保险公司","gcj_lng":121.473869,"gcj_lat":31.268724,"wgs84_loc":"121.469343,31.27065","wgs84Lng":"121.469343","wgs84Lat":"31.27065","__source_file__":"13-常用公服设施点/SHP/上海市_保险公司.shp"},"geometry":{"type":"Point","coordinates":[121.469343,31.27065]}},{"id":"75","type":"Feature","properties":{"id":"B0HDC5IU5S","name":"安诚财产保险股份有限公司上海市虹口支公司","address":"花园路66弄嘉和国际大厦2011-2012室","type":"金融保险服务;保险公司;保险公司","typecode":"160400","pcode":310000,"pname":"上海市","citycode":21,"cityname":"上海市","adcode":310109,"adname":"虹口区","business_a":"江湾","location":"121.477364,31.270108","tel":"[]","bigType":"金融保险服务","midType":"保险公司","smallType":"保险公司","gcj_lng":121.477364,"gcj_lat":31.270108,"wgs84_loc":"121.47285,31.272043","wgs84Lng":"121.47285","wgs84Lat":"31.272043","__source_file__":"13-常用公服设施点/SHP/上海市_保险公司.shp"},"geometry":{"type":"Point","coordinates":[121.47285,31.272043]}},{"id":"52","type":"Feature","properties":{"id":"B00157I0SY","name":"中宏人寿保险有限公司上海分公司","address":"西江湾路388号凯德龙之梦虹口广场A栋25层4单元、B栋8、11-12层、15-20层、23层1-3单元","type":"金融保险服务;保险公司;保险公司","typecode":"160400","pcode":310000,"pname":"上海市","citycode":21,"cityname":"上海市","adcode":310109,"adname":"虹口区","business_a":"江湾","location":"121.478311,31.270786","tel":"4008188888;021-36691888","bigType":"金融保险服务","midType":"保险公司","smallType":"保险公司","gcj_lng":121.478311,"gcj_lat":31.270786,"wgs84_loc":"121.4738,31.272723","wgs84Lng":"121.4738","wgs84Lat":"31.272723","__source_file__":"13-常用公服设施点/SHP/上海市_保险公司.shp"},"geometry":{"type":"Point","coordinates":[121.4738,31.272723]}},{"id":"722","type":"Feature","properties":{"id":"B0IR412PRB","name":"中宏保险","address":"西江湾路388号凯德龙之梦虹口店B座L1层","type":"金融保险服务;保险公司;保险公司","typecode":"160400","pcode":310000,"pname":"上海市","citycode":21,"cityname":"上海市","adcode":310109,"adname":"虹口区","business_a":"江湾","location":"121.477215,31.271143","tel":"[]","bigType":"金融保险服务","midType":"保险公司","smallType":"保险公司","gcj_lng":121.477215,"gcj_lat":31.271143,"wgs84_loc":"121.4727,31.273077","wgs84Lng":"121.4727","wgs84Lat":"31.273077","__source_file__":"13-常用公服设施点/SHP/上海市_保险公司.shp"},"geometry":{"type":"Point","coordinates":[121.4727,31.273077]}},{"id":"54","type":"Feature","properties":{"id":"B0FFG4DNW0","name":"上海磐石保险代理有限公司","address":"花园路171号上海花园坊节能环保产业园B3栋","type":"金融保险服务;保险公司;保险公司","typecode":"160400","pcode":310000,"pname":"上海市","citycode":21,"cityname":"上海市","adcode":310109,"adname":"虹口区","business_a":"江湾","location":"121.475687,31.272858","tel":"021-60879990","bigType":"金融保险服务","midType":"保险公司","smallType":"保险公司","gcj_lng":121.475687,"gcj_lat":31.272858,"wgs84_loc":"121.471167,31.274787","wgs84Lng":"121.471167","wgs84Lat":"31.274787","__source_file__":"13-常用公服设施点/SHP/上海市_保险公司.shp"},"geometry":{"type":"Point","coordinates":[121.471167,31.274787]}},{"id":"562","type":"Feature","properties":{"id":"B00155I1JG","name":"华泰财产保险股份有限公司(卢湾支公司)","address":"巨鹿路417欣广大厦10层1005","type":"金融保险服务;保险公司;华泰财产保险股份有限公司","typecode":"160407","pcode":310000,"pname":"上海市","citycode":21,"cityname":"上海市","adcode":310101,"adname":"黄浦区","business_a":"淮海路","location":"121.457585,31.222057","tel":"[]","bigType":"金融保险服务","midType":"保险公司","smallType":"华泰财产保险股份有限公司","gcj_lng":121.457585,"gcj_lat":31.222057,"wgs84_loc":"121.453014,31.223962","wgs84Lng":"121.453014","wgs84Lat":"31.223962","__source_file__":"13-常用公服设施点/SHP/上海市_保险公司.shp"},"geometry":{"type":"Point","coordinates":[121.453014,31.223962]}},{"id":"257","type":"Feature","properties":{"id":"B0I65HAEF4","name":"上海全安保险经纪有限公司","address":"淮海中路381号中环广场2层赛生","type":"金融保险服务;保险公司;保险公司","typecode":"160400","pcode":310000,"pname":"上海市","citycode":21,"cityname":"上海市","adcode":310101,"adname":"黄浦区","business_a":"淮海路","location":"121.472938,31.222032","tel":"[]","bigType":"金融保险服务","midType":"保险公司","smallType":"保险公司","gcj_lng":121.472938,"gcj_lat":31.222032,"wgs84_loc":"121.468413,31.223976","wgs84Lng":"121.468413","wgs84Lat":"31.223976","__source_file__":"13-常用公服设施点/SHP/上海市_保险公司.shp"},"geometry":{"type":"Point","coordinates":[121.468413,31.223976]}},{"id":"240","type":"Feature","properties":{"id":"B0FFI9COM4","name":"中国平安人寿保险股份有限公司(上海分公司客户服务中心)","address":"巨鹿路417号欣广大厦102-103室","type":"金融保险服务;保险公司;中国平安保险公司","typecode":"160403","pcode":310000,"pname":"上海市","citycode":21,"cityname":"上海市","adcode":310101,"adname":"黄浦区","business_a":"淮海路","location":"121.457632,31.222072","tel":"17871048137","bigType":"金融保险服务","midType":"保险公司","smallType":"中国平安保险公司","gcj_lng":121.457632,"gcj_lat":31.222072,"wgs84_loc":"121.453061,31.223978","wgs84Lng":"121.453061","wgs84Lat":"31.223978","__source_file__":"13-常用公服设施点/SHP/上海市_保险公司.shp"},"geometry":{"type":"Point","coordinates":[121.453061,31.223978]}},{"id":"10","type":"Feature","properties":{"id":"B0015184C7","name":"中国平安人寿保险股份有限公司","address":"巨鹿路417欣广大厦1-8层","type":"金融保险服务;保险公司;中国平安保险公司","typecode":"160403","pcode":310000,"pname":"上海市","citycode":21,"cityname":"上海市","adcode":310101,"adname":"黄浦区","business_a":"淮海路","location":"121.457644,31.222106","tel":"[]","bigType":"金融保险服务","midType":"保险公司","smallType":"中国平安保险公司","gcj_lng":121.457644,"gcj_lat":31.222106,"wgs84_loc":"121.453073,31.224012","wgs84Lng":"121.453073","wgs84Lat":"31.224012","__source_file__":"13-常用公服设施点/SHP/上海市_保险公司.shp"},"geometry":{"type":"Point","coordinates":[121.453073,31.224012]}},{"id":"405","type":"Feature","properties":{"id":"B0H1M5Y5ZN","name":"富德生命人寿陕西北路营销服务部","address":"陕西北路66号科恩国际中心1606-1608室","type":"金融保险服务;保险公司;保险公司","typecode":"160400","pcode":310000,"pname":"上海市","citycode":21,"cityname":"上海市","adcode":310106,"adname":"静安区","business_a":"淮海路","location":"121.456840,31.224872","tel":"[]","bigType":"金融保险服务","midType":"保险公司","smallType":"保险公司","gcj_lng":121.45684,"gcj_lat":31.224872,"wgs84_loc":"121.452267,31.226774","wgs84Lng":"121.452267","wgs84Lat":"31.226774","__source_file__":"13-常用公服设施点/SHP/上海市_保险公司.shp"},"geometry":{"type":"Point","coordinates":[121.452267,31.226774]}},{"id":"293","type":"Feature","properties":{"id":"B0I6DUWFTB","name":"寰宇保险代理(上海)有限公司","address":"威海路567号晶采世纪大厦21层","type":"金融保险服务;保险公司;保险公司","typecode":"160400","pcode":310000,"pname":"上海市","citycode":21,"cityname":"上海市","adcode":310106,"adname":"静安区","business_a":"淮海路","location":"121.460897,31.226572","tel":"021-24266400","bigType":"金融保险服务","midType":"保险公司","smallType":"保险公司","gcj_lng":121.460897,"gcj_lat":31.226572,"wgs84_loc":"121.456335,31.228483","wgs84Lng":"121.456335","wgs84Lat":"31.228483","__source_file__":"13-常用公服设施点/SHP/上海市_保险公司.shp"},"geometry":{"type":"Point","coordinates":[121.456335,31.228483]}},{"id":"36","type":"Feature","properties":{"id":"B00156GLSC","name":"长生人寿(吴江路)","address":"吴江路31号东方众鑫大厦1104F","type":"金融保险服务;保险公司;保险公司","typecode":"160400","pcode":310000,"pname":"上海市","citycode":21,"cityname":"上海市","adcode":310106,"adname":"静安区","business_a":"淮海路","location":"121.463356,31.230314","tel":"021-38999888","bigType":"金融保险服务","midType":"保险公司","smallType":"保险公司","gcj_lng":121.463356,"gcj_lat":31.230314,"wgs84_loc":"121.458801,31.232229","wgs84Lng":"121.458801","wgs84Lat":"31.232229","__source_file__":"13-常用公服设施点/SHP/上海市_保险公司.shp"},"geometry":{"type":"Point","coordinates":[121.458801,31.232229]}},{"id":"617","type":"Feature","properties":{"id":"B0KGLUTTWM","name":"新华保险静安支公司","address":"南京西路580号魔贸580商场","type":"金融保险服务;保险公司;新华人寿保险公司","typecode":"160406","pcode":310000,"pname":"上海市","citycode":21,"cityname":"上海市","adcode":310106,"adname":"静安区","business_a":"淮海路","location":"121.466321,31.231336","tel":"[]","bigType":"金融保险服务","midType":"保险公司","smallType":"新华人寿保险公司","gcj_lng":121.466321,"gcj_lat":31.231336,"wgs84_loc":"121.461775,31.233258","wgs84Lng":"121.461775","wgs84Lat":"31.233258","__source_file__":"13-常用公服设施点/SHP/上海市_保险公司.shp"},"geometry":{"type":"Point","coordinates":[121.461775,31.233258]}},{"id":"37","type":"Feature","properties":{"id":"B0FFGHRSEN","name":"康泰人寿保险股份有限公司(银保业务二部)","address":"南京西路580号仲益大厦B座7层715-717","type":"金融保险服务;保险公司;保险公司","typecode":"160400","pcode":310000,"pname":"上海市","citycode":21,"cityname":"上海市","adcode":310106,"adname":"静安区","business_a":"淮海路","location":"121.465910,31.231381","tel":"[]","bigType":"金融保险服务","midType":"保险公司","smallType":"保险公司","gcj_lng":121.46591,"gcj_lat":31.231381,"wgs84_loc":"121.461362,31.233302","wgs84Lng":"121.461362","wgs84Lat":"31.233302","__source_file__":"13-常用公服设施点/SHP/上海市_保险公司.shp"},"geometry":{"type":"Point","coordinates":[121.461362,31.233302]}},{"id":"538","type":"Feature","properties":{"id":"B0FFHI1OQZ","name":"乾道基金","address":"南京西路688号恒基广场12楼1207室","type":"金融保险服务;保险公司;保险公司","typecode":"160400","pcode":310000,"pname":"上海市","citycode":21,"cityname":"上海市","adcode":310106,"adname":"静安区","business_a":"淮海路","location":"121.464554,31.231592","tel":"[]","bigType":"金融保险服务","midType":"保险公司","smallType":"保险公司","gcj_lng":121.464554,"gcj_lat":31.231592,"wgs84_loc":"121.460002,31.23351","wgs84Lng":"121.460002","wgs84Lat":"31.23351","__source_file__":"13-常用公服设施点/SHP/上海市_保险公司.shp"},"geometry":{"type":"Point","coordinates":[121.460002,31.23351]}},{"id":"363","type":"Feature","properties":{"id":"B0FFIYWGU1","name":"中国平安","address":"[]","type":"金融保险服务;保险公司;中国平安保险公司","typecode":"160403","pcode":310000,"pname":"上海市","citycode":21,"cityname":"上海市","adcode":310106,"adname":"静安区","business_a":"曹家渡","location":"121.441344,31.225378","tel":"[]","bigType":"金融保险服务","midType":"保险公司","smallType":"中国平安保险公司","gcj_lng":121.441344,"gcj_lat":31.225378,"wgs84_loc":"121.436734,31.227249","wgs84Lng":"121.436734","wgs84Lat":"31.227249","__source_file__":"13-常用公服设施点/SHP/上海市_保险公司.shp"},"geometry":{"type":"Point","coordinates":[121.436734,31.227249]}},{"id":"292","type":"Feature","properties":{"id":"B00155FCVM","name":"中国人民财产保险股份有限公司","address":"常德路319-1号","type":"金融保险服务;保险公司;中国人民保险公司","typecode":"160401","pcode":310000,"pname":"上海市","citycode":21,"cityname":"上海市","adcode":310106,"adname":"静安区","business_a":"曹家渡","location":"121.446770,31.226885","tel":"021-62717518;021-63171313","bigType":"金融保险服务","midType":"保险公司","smallType":"中国人民保险公司","gcj_lng":121.44677,"gcj_lat":31.226885,"wgs84_loc":"121.442171,31.228765","wgs84Lng":"121.442171","wgs84Lat":"31.228765","__source_file__":"13-常用公服设施点/SHP/上海市_保险公司.shp"},"geometry":{"type":"Point","coordinates":[121.442171,31.228765]}},{"id":"606","type":"Feature","properties":{"id":"B0FFFZDS0A","name":"幸福人寿保险股份有限公司(上海分公司客户服务中心)","address":"北京西路1399号信达大厦1层","type":"金融保险服务;保险公司;保险公司","typecode":"160400","pcode":310000,"pname":"上海市","citycode":21,"cityname":"上海市","adcode":310106,"adname":"静安区","business_a":"曹家渡","location":"121.448589,31.227403","tel":"[]","bigType":"金融保险服务","midType":"保险公司","smallType":"保险公司","gcj_lng":121.448589,"gcj_lat":31.227403,"wgs84_loc":"121.443995,31.229287","wgs84Lng":"121.443995","wgs84Lat":"31.229287","__source_file__":"13-常用公服设施点/SHP/上海市_保险公司.shp"},"geometry":{"type":"Point","coordinates":[121.443995,31.229287]}},{"id":"277","type":"Feature","properties":{"id":"B00156EICT","name":"信达财产保险股份有限公司(上海分公司)","address":"北京西路1399号信达大厦2层B、15层A2、18层","type":"金融保险服务;保险公司;保险公司","typecode":"160400","pcode":310000,"pname":"上海市","citycode":21,"cityname":"上海市","adcode":310106,"adname":"静安区","business_a":"曹家渡","location":"121.448589,31.227404","tel":"021-62792888;4008667788","bigType":"金融保险服务","midType":"保险公司","smallType":"保险公司","gcj_lng":121.448589,"gcj_lat":31.227404,"wgs84_loc":"121.443995,31.229288","wgs84Lng":"121.443995","wgs84Lat":"31.229288","__source_file__":"13-常用公服设施点/SHP/上海市_保险公司.shp"},"geometry":{"type":"Point","coordinates":[121.443995,31.229288]}},{"id":"41","type":"Feature","properties":{"id":"B00156EHIH","name":"幸福人寿保险股份有限公司上海市静安支公司","address":"北京西路1399号16层D室","type":"金融保险服务;保险公司;保险公司","typecode":"160400","pcode":310000,"pname":"上海市","citycode":21,"cityname":"上海市","adcode":310106,"adname":"静安区","business_a":"曹家渡","location":"121.448589,31.227404","tel":"021-61031155","bigType":"金融保险服务","midType":"保险公司","smallType":"保险公司","gcj_lng":121.448589,"gcj_lat":31.227404,"wgs84_loc":"121.443995,31.229288","wgs84Lng":"121.443995","wgs84Lat":"31.229288","__source_file__":"13-常用公服设施点/SHP/上海市_保险公司.shp"},"geometry":{"type":"Point","coordinates":[121.443995,31.229288]}},{"id":"283","type":"Feature","properties":{"id":"B00155HVNI","name":"安信农业保险股份有限公司营业部","address":"延平路121三和大厦22层","type":"金融保险服务;保险公司;保险公司","typecode":"160400","pcode":310000,"pname":"上海市","citycode":21,"cityname":"上海市","adcode":310106,"adname":"静安区","business_a":"曹家渡","location":"121.440983,31.228478","tel":"[]","bigType":"金融保险服务","midType":"保险公司","smallType":"保险公司","gcj_lng":121.440983,"gcj_lat":31.228478,"wgs84_loc":"121.436372,31.230347","wgs84Lng":"121.436372","wgs84Lat":"31.230347","__source_file__":"13-常用公服设施点/SHP/上海市_保险公司.shp"},"geometry":{"type":"Point","coordinates":[121.436372,31.230347]}},{"id":"291","type":"Feature","properties":{"id":"B00155CBAY","name":"中国大地保险(延平路)","address":"延平路121三和大厦19层","type":"金融保险服务;保险公司;保险公司","typecode":"160400","pcode":310000,"pname":"上海市","citycode":21,"cityname":"上海市","adcode":310106,"adname":"静安区","business_a":"曹家渡","location":"121.441060,31.228510","tel":"021-62462200","bigType":"金融保险服务","midType":"保险公司","smallType":"保险公司","gcj_lng":121.44106,"gcj_lat":31.22851,"wgs84_loc":"121.436449,31.230379","wgs84Lng":"121.436449","wgs84Lat":"31.230379","__source_file__":"13-常用公服设施点/SHP/上海市_保险公司.shp"},"geometry":{"type":"Point","coordinates":[121.436449,31.230379]}},{"id":"285","type":"Feature","properties":{"id":"B0FFJGJJ0B","name":"中国太平洋保险(静安支公司)","address":"新闸路1718号","type":"金融保险服务;保险公司;中国太平洋保险","typecode":"160405","pcode":310000,"pname":"上海市","citycode":21,"cityname":"上海市","adcode":310106,"adname":"静安区","business_a":"曹家渡","location":"121.444440,31.228535","tel":"[]","bigType":"金融保险服务","midType":"保险公司","smallType":"中国太平洋保险","gcj_lng":121.44444,"gcj_lat":31.228535,"wgs84_loc":"121.439836,31.23041","wgs84Lng":"121.439836","wgs84Lat":"31.23041","__source_file__":"13-常用公服设施点/SHP/上海市_保险公司.shp"},"geometry":{"type":"Point","coordinates":[121.439836,31.23041]}},{"id":"39","type":"Feature","properties":{"id":"B0FFHGHSM7","name":"中国太平洋财产保险股份有限公司(静安支公司)","address":"新闸路1718-2号宝城商务楼","type":"金融保险服务;保险公司;中国太平洋保险","typecode":"160405","pcode":310000,"pname":"上海市","citycode":21,"cityname":"上海市","adcode":310106,"adname":"静安区","business_a":"曹家渡","location":"121.444368,31.228542","tel":"[]","bigType":"金融保险服务","midType":"保险公司","smallType":"中国太平洋保险","gcj_lng":121.444368,"gcj_lat":31.228542,"wgs84_loc":"121.439764,31.230417","wgs84Lng":"121.439764","wgs84Lat":"31.230417","__source_file__":"13-常用公服设施点/SHP/上海市_保险公司.shp"},"geometry":{"type":"Point","coordinates":[121.439764,31.230417]}},{"id":"675","type":"Feature","properties":{"id":"B0K6USLX4Q","name":"中国太平洋财产保险股份有限公司","address":"新闸路与胶州路交叉口东北120米","type":"金融保险服务;保险公司;中国太平洋保险","typecode":"160405","pcode":310000,"pname":"上海市","citycode":21,"cityname":"上海市","adcode":310106,"adname":"静安区","business_a":"[]","location":"121.444395,31.228566","tel":"[]","bigType":"金融保险服务","midType":"保险公司","smallType":"中国太平洋保险","gcj_lng":121.444395,"gcj_lat":31.228566,"wgs84_loc":"121.439791,31.230441","wgs84Lng":"121.439791","wgs84Lat":"31.230441","__source_file__":"13-常用公服设施点/SHP/上海市_保险公司.shp"},"geometry":{"type":"Point","coordinates":[121.439791,31.230441]}},{"id":"403","type":"Feature","properties":{"id":"B0IGBLR99Q","name":"富德生命人寿","address":"北京西路与西康路交叉口东北约20米","type":"金融保险服务;保险公司;保险公司","typecode":"160400","pcode":310000,"pname":"上海市","citycode":21,"cityname":"上海市","adcode":310106,"adname":"静安区","business_a":"曹家渡","location":"121.451437,31.229337","tel":"[]","bigType":"金融保险服务","midType":"保险公司","smallType":"保险公司","gcj_lng":121.451437,"gcj_lat":31.229337,"wgs84_loc":"121.446849,31.231226","wgs84Lng":"121.446849","wgs84Lat":"31.231226","__source_file__":"13-常用公服设施点/SHP/上海市_保险公司.shp"},"geometry":{"type":"Point","coordinates":[121.446849,31.231226]}},{"id":"575","type":"Feature","properties":{"id":"B0G39HMX6V","name":"国彰保险代理总部","address":"武定路555号","type":"金融保险服务;保险公司;保险公司","typecode":"160400","pcode":310000,"pname":"上海市","citycode":21,"cityname":"上海市","adcode":310106,"adname":"静安区","business_a":"曹家渡","location":"121.450067,31.233234","tel":"[]","bigType":"金融保险服务","midType":"保险公司","smallType":"保险公司","gcj_lng":121.450067,"gcj_lat":31.233234,"wgs84_loc":"121.445476,31.235118","wgs84Lng":"121.445476","wgs84Lat":"31.235118","__source_file__":"13-常用公服设施点/SHP/上海市_保险公司.shp"},"geometry":{"type":"Point","coordinates":[121.445476,31.235118]}},{"id":"401","type":"Feature","properties":{"id":"B0FFF00LYF","name":"中国人寿(静安支公司)","address":"武宁南路488智慧广场18层","type":"金融保险服务;保险公司;中国人寿保险公司","typecode":"160402","pcode":310000,"pname":"上海市","citycode":21,"cityname":"上海市","adcode":310106,"adname":"静安区","business_a":"曹家渡","location":"121.430943,31.233610","tel":"021-62306553","bigType":"金融保险服务","midType":"保险公司","smallType":"中国人寿保险公司","gcj_lng":121.430943,"gcj_lat":31.23361,"wgs84_loc":"121.426313,31.235462","wgs84Lng":"121.426313","wgs84Lat":"31.235462","__source_file__":"13-常用公服设施点/SHP/上海市_保险公司.shp"},"geometry":{"type":"Point","coordinates":[121.426313,31.235462]}},{"id":"294","type":"Feature","properties":{"id":"B0I6CLL5WB","name":"信康诚保险经纪","address":"西康路928号创展大厦4层","type":"金融保险服务;保险公司;保险公司","typecode":"160400","pcode":310000,"pname":"上海市","citycode":21,"cityname":"上海市","adcode":310106,"adname":"静安区","business_a":"曹家渡","location":"121.443446,31.239345","tel":"[]","bigType":"金融保险服务","midType":"保险公司","smallType":"保险公司","gcj_lng":121.443446,"gcj_lat":31.239345,"wgs84_loc":"121.438839,31.241214","wgs84Lng":"121.438839","wgs84Lat":"31.241214","__source_file__":"13-常用公服设施点/SHP/上海市_保险公司.shp"},"geometry":{"type":"Point","coordinates":[121.438839,31.241214]}},{"id":"624","type":"Feature","properties":{"id":"B0JR7CEI75","name":"中国人寿江宁路服务中心","address":"昌化路579号","type":"金融保险服务;保险公司;中国人寿保险公司","typecode":"160402","pcode":310000,"pname":"上海市","citycode":21,"cityname":"上海市","adcode":310106,"adname":"静安区","business_a":"[]","location":"121.448147,31.240438","tel":"[]","bigType":"金融保险服务","midType":"保险公司","smallType":"中国人寿保险公司","gcj_lng":121.448147,"gcj_lat":31.240438,"wgs84_loc":"121.44355,31.242315","wgs84Lng":"121.44355","wgs84Lat":"31.242315","__source_file__":"13-常用公服设施点/SHP/上海市_保险公司.shp"},"geometry":{"type":"Point","coordinates":[121.44355,31.242315]}},{"id":"586","type":"Feature","properties":{"id":"B00154ZVOU","name":"中国人民财产保险股份有限公司(上海市分公司普陀长寿路营销服务部)","address":"长寿路285号14楼","type":"金融保险服务;保险公司;中国人民保险公司","typecode":"160401","pcode":310000,"pname":"上海市","citycode":21,"cityname":"上海市","adcode":310107,"adname":"普陀区","business_a":"曹家渡","location":"121.438853,31.240838","tel":"[]","bigType":"金融保险服务","midType":"保险公司","smallType":"中国人民保险公司","gcj_lng":121.438853,"gcj_lat":31.240838,"wgs84_loc":"121.434236,31.242698","wgs84Lng":"121.434236","wgs84Lat":"31.242698","__source_file__":"13-常用公服设施点/SHP/上海市_保险公司.shp"},"geometry":{"type":"Point","coordinates":[121.434236,31.242698]}},{"id":"43","type":"Feature","properties":{"id":"B0FFGBRB6T","name":"新华人寿保险公司","address":"常德路1339号金昌商务中心A座5层","type":"金融保险服务;保险公司;保险公司","typecode":"160400","pcode":310000,"pname":"上海市","citycode":21,"cityname":"上海市","adcode":310107,"adname":"普陀区","business_a":"曹家渡","location":"121.434831,31.241754","tel":"95567","bigType":"金融保险服务","midType":"保险公司","smallType":"保险公司","gcj_lng":121.434831,"gcj_lat":31.241754,"wgs84_loc":"121.430207,31.243607","wgs84Lng":"121.430207","wgs84Lat":"31.243607","__source_file__":"13-常用公服设施点/SHP/上海市_保险公司.shp"},"geometry":{"type":"Point","coordinates":[121.430207,31.243607]}},{"id":"8","type":"Feature","properties":{"id":"B0FFJE2BCM","name":"泰康人寿保险公司","address":"南京西路338号天安中心19楼1903室","type":"金融保险服务;保险公司;保险公司","typecode":"160400","pcode":310000,"pname":"上海市","citycode":21,"cityname":"上海市","adcode":310101,"adname":"黄浦区","business_a":"北京东路","location":"121.469719,31.231741","tel":"[]","bigType":"金融保险服务","midType":"保险公司","smallType":"保险公司","gcj_lng":121.469719,"gcj_lat":31.231741,"wgs84_loc":"121.465183,31.233672","wgs84Lng":"121.465183","wgs84Lat":"31.233672","__source_file__":"13-常用公服设施点/SHP/上海市_保险公司.shp"},"geometry":{"type":"Point","coordinates":[121.465183,31.233672]}},{"id":"256","type":"Feature","properties":{"id":"B0IGG7YI0R","name":"中宏保险","address":"南京西路288号创兴金融中心1楼","type":"金融保险服务;保险公司;保险公司","typecode":"160400","pcode":310000,"pname":"上海市","citycode":21,"cityname":"上海市","adcode":310101,"adname":"黄浦区","business_a":"北京东路","location":"121.470322,31.232195","tel":"[]","bigType":"金融保险服务","midType":"保险公司","smallType":"保险公司","gcj_lng":121.470322,"gcj_lat":31.232195,"wgs84_loc":"121.465788,31.234127","wgs84Lng":"121.465788","wgs84Lat":"31.234127","__source_file__":"13-常用公服设施点/SHP/上海市_保险公司.shp"},"geometry":{"type":"Point","coordinates":[121.465788,31.234127]}},{"id":"274","type":"Feature","properties":{"id":"B00155FUBF","name":"新华人寿保险股份有限公司(北京西路)","address":"北京西路669号东展商业大厦7-8层","type":"金融保险服务;保险公司;新华人寿保险公司","typecode":"160406","pcode":310000,"pname":"上海市","citycode":21,"cityname":"上海市","adcode":310106,"adname":"静安区","business_a":"淮海路","location":"121.461845,31.232654","tel":"[]","bigType":"金融保险服务","midType":"保险公司","smallType":"新华人寿保险公司","gcj_lng":121.461845,"gcj_lat":31.232654,"wgs84_loc":"121.457285,31.234565","wgs84Lng":"121.457285","wgs84Lat":"31.234565","__source_file__":"13-常用公服设施点/SHP/上海市_保险公司.shp"},"geometry":{"type":"Point","coordinates":[121.457285,31.234565]}},{"id":"275","type":"Feature","properties":{"id":"B001570I74","name":"新华保险股份有限公司客户服务中心(北京西路)","address":"北京西路669号东展商业大厦8层","type":"金融保险服务;保险公司;保险公司","typecode":"160400","pcode":310000,"pname":"上海市","citycode":21,"cityname":"上海市","adcode":310106,"adname":"静安区","business_a":"淮海路","location":"121.461845,31.232654","tel":"[]","bigType":"金融保险服务","midType":"保险公司","smallType":"保险公司","gcj_lng":121.461845,"gcj_lat":31.232654,"wgs84_loc":"121.457285,31.234565","wgs84Lng":"121.457285","wgs84Lat":"31.234565","__source_file__":"13-常用公服设施点/SHP/上海市_保险公司.shp"},"geometry":{"type":"Point","coordinates":[121.457285,31.234565]}},{"id":"700","type":"Feature","properties":{"id":"B0FFH0RKDV","name":"中华保险","address":"南京东路街道成都北路600号","type":"金融保险服务;保险公司;保险公司","typecode":"160400","pcode":310000,"pname":"上海市","citycode":21,"cityname":"上海市","adcode":310101,"adname":"黄浦区","business_a":"北京路","location":"121.466890,31.233978","tel":"[]","bigType":"金融保险服务","midType":"保险公司","smallType":"保险公司","gcj_lng":121.46689,"gcj_lat":31.233978,"wgs84_loc":"121.462345,31.235901","wgs84Lng":"121.462345","wgs84Lat":"31.235901","__source_file__":"13-常用公服设施点/SHP/上海市_保险公司.shp"},"geometry":{"type":"Point","coordinates":[121.462345,31.235901]}},{"id":"287","type":"Feature","properties":{"id":"B001530C88","name":"亚太保险代理","address":"江宁路418-422和一大厦2603","type":"金融保险服务;保险公司;保险公司","typecode":"160400","pcode":310000,"pname":"上海市","citycode":21,"cityname":"上海市","adcode":310106,"adname":"静安区","business_a":"曹家渡","location":"121.453736,31.234952","tel":"[]","bigType":"金融保险服务","midType":"保险公司","smallType":"保险公司","gcj_lng":121.453736,"gcj_lat":31.234952,"wgs84_loc":"121.449154,31.236843","wgs84Lng":"121.449154","wgs84Lat":"31.236843","__source_file__":"13-常用公服设施点/SHP/上海市_保险公司.shp"},"geometry":{"type":"Point","coordinates":[121.449154,31.236843]}},{"id":"270","type":"Feature","properties":{"id":"B001523217","name":"中国人寿保险股份有限公司上海市分公司黄浦北京西路营销服务部","address":"北京西路199号5-8层","type":"金融保险服务;保险公司;中国人寿保险公司","typecode":"160402","pcode":310000,"pname":"上海市","citycode":21,"cityname":"上海市","adcode":310101,"adname":"黄浦区","business_a":"北京东路","location":"121.470246,31.235890","tel":"13127933668","bigType":"金融保险服务","midType":"保险公司","smallType":"中国人寿保险公司","gcj_lng":121.470246,"gcj_lat":31.23589,"wgs84_loc":"121.465711,31.23782","wgs84Lng":"121.465711","wgs84Lat":"31.23782","__source_file__":"13-常用公服设施点/SHP/上海市_保险公司.shp"},"geometry":{"type":"Point","coordinates":[121.465711,31.23782]}},{"id":"619","type":"Feature","properties":{"id":"B0J6PLAJEA","name":"中国人寿保险股份有限公司","address":"北京西路199号黄河大楼","type":"金融保险服务;保险公司;中国人寿保险公司","typecode":"160402","pcode":310000,"pname":"上海市","citycode":21,"cityname":"上海市","adcode":310101,"adname":"黄浦区","business_a":"北京路","location":"121.470183,31.235912","tel":"[]","bigType":"金融保险服务","midType":"保险公司","smallType":"中国人寿保险公司","gcj_lng":121.470183,"gcj_lat":31.235912,"wgs84_loc":"121.465648,31.237842","wgs84Lng":"121.465648","wgs84Lat":"31.237842","__source_file__":"13-常用公服设施点/SHP/上海市_保险公司.shp"},"geometry":{"type":"Point","coordinates":[121.465648,31.237842]}},{"id":"386","type":"Feature","properties":{"id":"B00156R9BH","name":"中国人寿(北京西路客户服务中心)","address":"北京西路199号黄河大楼","type":"金融保险服务;保险公司;中国人寿保险公司","typecode":"160402","pcode":310000,"pname":"上海市","citycode":21,"cityname":"上海市","adcode":310101,"adname":"黄浦区","business_a":"北京东路","location":"121.470148,31.235936","tel":"13127933668","bigType":"金融保险服务","midType":"保险公司","smallType":"中国人寿保险公司","gcj_lng":121.470148,"gcj_lat":31.235936,"wgs84_loc":"121.465613,31.237866","wgs84Lng":"121.465613","wgs84Lat":"31.237866","__source_file__":"13-常用公服设施点/SHP/上海市_保险公司.shp"},"geometry":{"type":"Point","coordinates":[121.465613,31.237866]}},{"id":"539","type":"Feature","properties":{"id":"B0IGBLQ0R2","name":"国富基金","address":"恒丰路与恒通路交叉口西约60米","type":"金融保险服务;保险公司;保险公司","typecode":"160400","pcode":310000,"pname":"上海市","citycode":21,"cityname":"上海市","adcode":310106,"adname":"静安区","business_a":"[]","location":"121.456928,31.241372","tel":"[]","bigType":"金融保险服务","midType":"保险公司","smallType":"保险公司","gcj_lng":121.456928,"gcj_lat":31.241372,"wgs84_loc":"121.452354,31.243267","wgs84Lng":"121.452354","wgs84Lat":"31.243267","__source_file__":"13-常用公服设施点/SHP/上海市_保险公司.shp"},"geometry":{"type":"Point","coordinates":[121.452354,31.243267]}},{"id":"281","type":"Feature","properties":{"id":"B00157HXF1","name":"凯尔保险代理(上海)有限公司","address":"汉中路158号汉中广场11层1103","type":"金融保险服务;保险公司;保险公司","typecode":"160400","pcode":310000,"pname":"上海市","citycode":21,"cityname":"上海市","adcode":310106,"adname":"静安区","business_a":"[]","location":"121.458269,31.242283","tel":"[]","bigType":"金融保险服务","midType":"保险公司","smallType":"保险公司","gcj_lng":121.458269,"gcj_lat":31.242283,"wgs84_loc":"121.453698,31.244181","wgs84Lng":"121.453698","wgs84Lat":"31.244181","__source_file__":"13-常用公服设施点/SHP/上海市_保险公司.shp"},"geometry":{"type":"Point","coordinates":[121.453698,31.244181]}},{"id":"592","type":"Feature","properties":{"id":"B0FFFZBYPN","name":"上海星坛境外医疗保险代理公司","address":"汉中路158号汉中广场7层708","type":"金融保险服务;保险公司;保险公司","typecode":"160400","pcode":310000,"pname":"上海市","citycode":21,"cityname":"上海市","adcode":310106,"adname":"静安区","business_a":"[]","location":"121.458269,31.242283","tel":"[]","bigType":"金融保险服务","midType":"保险公司","smallType":"保险公司","gcj_lng":121.458269,"gcj_lat":31.242283,"wgs84_loc":"121.453698,31.244181","wgs84Lng":"121.453698","wgs84Lat":"31.244181","__source_file__":"13-常用公服设施点/SHP/上海市_保险公司.shp"},"geometry":{"type":"Point","coordinates":[121.453698,31.244181]}},{"id":"297","type":"Feature","properties":{"id":"B0H2A77QKL","name":"永达理保险经纪公司","address":"永达理保险经纪有限公司(上海分公司)民立路288号太阳CITY商务办公区9楼","type":"金融保险服务;保险公司;保险公司","typecode":"160400","pcode":310000,"pname":"上海市","citycode":21,"cityname":"上海市","adcode":310106,"adname":"静安区","business_a":"[]","location":"121.456926,31.242742","tel":"[]","bigType":"金融保险服务","midType":"保险公司","smallType":"保险公司","gcj_lng":121.456926,"gcj_lat":31.242742,"wgs84_loc":"121.452351,31.244636","wgs84Lng":"121.452351","wgs84Lat":"31.244636","__source_file__":"13-常用公服设施点/SHP/上海市_保险公司.shp"},"geometry":{"type":"Point","coordinates":[121.452351,31.244636]}},{"id":"296","type":"Feature","properties":{"id":"B0H2A78LIO","name":"永达理保险经纪有限公司","address":"民立路288号太阳CITY9楼","type":"金融保险服务;保险公司;保险公司","typecode":"160400","pcode":310000,"pname":"上海市","citycode":21,"cityname":"上海市","adcode":310106,"adname":"静安区","business_a":"[]","location":"121.456683,31.242905","tel":"[]","bigType":"金融保险服务","midType":"保险公司","smallType":"保险公司","gcj_lng":121.456683,"gcj_lat":31.242905,"wgs84_loc":"121.452108,31.244799","wgs84Lng":"121.452108","wgs84Lat":"31.244799","__source_file__":"13-常用公服设施点/SHP/上海市_保险公司.shp"},"geometry":{"type":"Point","coordinates":[121.452108,31.244799]}},{"id":"301","type":"Feature","properties":{"id":"B0FFHIEJ0B","name":"ydl保险经纪公司","address":"民立路与汉中路交叉口西北约100米","type":"金融保险服务;保险公司;保险公司","typecode":"160400","pcode":310000,"pname":"上海市","citycode":21,"cityname":"上海市","adcode":310106,"adname":"静安区","business_a":"[]","location":"121.457072,31.243028","tel":"[]","bigType":"金融保险服务","midType":"保险公司","smallType":"保险公司","gcj_lng":121.457072,"gcj_lat":31.243028,"wgs84_loc":"121.452498,31.244923","wgs84Lng":"121.452498","wgs84Lat":"31.244923","__source_file__":"13-常用公服设施点/SHP/上海市_保险公司.shp"},"geometry":{"type":"Point","coordinates":[121.452498,31.244923]}},{"id":"295","type":"Feature","properties":{"id":"B0H2H1K0B0","name":"安联保险","address":"恒丰路436号环智国际","type":"金融保险服务;保险公司;保险公司","typecode":"160400","pcode":310000,"pname":"上海市","citycode":21,"cityname":"上海市","adcode":310106,"adname":"静安区","business_a":"[]","location":"121.454609,31.243803","tel":"[]","bigType":"金融保险服务","midType":"保险公司","smallType":"保险公司","gcj_lng":121.454609,"gcj_lat":31.243803,"wgs84_loc":"121.450028,31.245692","wgs84Lng":"121.450028","wgs84Lat":"31.245692","__source_file__":"13-常用公服设施点/SHP/上海市_保险公司.shp"},"geometry":{"type":"Point","coordinates":[121.450028,31.245692]}},{"id":"302","type":"Feature","properties":{"id":"B0FFGJ9JMB","name":"天安人寿保险股份有限公司上海市静安支公司","address":"228号2301、2310-2313、2315-2320室","type":"金融保险服务;保险公司;保险公司","typecode":"160400","pcode":310000,"pname":"上海市","citycode":21,"cityname":"上海市","adcode":310106,"adname":"静安区","business_a":"[]","location":"121.457169,31.243815","tel":"021-60750789","bigType":"金融保险服务","midType":"保险公司","smallType":"保险公司","gcj_lng":121.457169,"gcj_lat":31.243815,"wgs84_loc":"121.452595,31.24571","wgs84Lng":"121.452595","wgs84Lat":"31.24571","__source_file__":"13-常用公服设施点/SHP/上海市_保险公司.shp"},"geometry":{"type":"Point","coordinates":[121.452595,31.24571]}},{"id":"719","type":"Feature","properties":{"id":"B0IUKG0SGM","name":"中国人保财险","address":"恒丰路399号达邦协作广场","type":"金融保险服务;保险公司;中国人民保险公司","typecode":"160401","pcode":310000,"pname":"上海市","citycode":21,"cityname":"上海市","adcode":310106,"adname":"静安区","business_a":"不夜城","location":"121.455295,31.244683","tel":"[]","bigType":"金融保险服务","midType":"保险公司","smallType":"中国人民保险公司","gcj_lng":121.455295,"gcj_lat":31.244683,"wgs84_loc":"121.450716,31.246573","wgs84Lng":"121.450716","wgs84Lat":"31.246573","__source_file__":"13-常用公服设施点/SHP/上海市_保险公司.shp"},"geometry":{"type":"Point","coordinates":[121.450716,31.246573]}},{"id":"718","type":"Feature","properties":{"id":"B0J3HLRAGU","name":"中汇人寿","address":"天目西路128号嘉里不夜城企业中心第1座F1层","type":"金融保险服务;保险公司;保险公司","typecode":"160400","pcode":310000,"pname":"上海市","citycode":21,"cityname":"上海市","adcode":310106,"adname":"静安区","business_a":"不夜城","location":"121.458606,31.245388","tel":"[]","bigType":"金融保险服务","midType":"保险公司","smallType":"保险公司","gcj_lng":121.458606,"gcj_lat":31.245388,"wgs84_loc":"121.454036,31.247285","wgs84Lng":"121.454036","wgs84Lat":"31.247285","__source_file__":"13-常用公服设施点/SHP/上海市_保险公司.shp"},"geometry":{"type":"Point","coordinates":[121.454036,31.247285]}},{"id":"290","type":"Feature","properties":{"id":"B0HK5CJPVB","name":"都邦保险","address":"天目西路218号嘉里不夜城1座3层","type":"金融保险服务;保险公司;保险公司","typecode":"160400","pcode":310000,"pname":"上海市","citycode":21,"cityname":"上海市","adcode":310106,"adname":"静安区","business_a":"[]","location":"121.456729,31.245408","tel":"[]","bigType":"金融保险服务","midType":"保险公司","smallType":"保险公司","gcj_lng":121.456729,"gcj_lat":31.245408,"wgs84_loc":"121.452154,31.247301","wgs84Lng":"121.452154","wgs84Lat":"31.247301","__source_file__":"13-常用公服设施点/SHP/上海市_保险公司.shp"},"geometry":{"type":"Point","coordinates":[121.452154,31.247301]}},{"id":"300","type":"Feature","properties":{"id":"B0FFL0OIYO","name":"交银康联人寿保险","address":"天目西路547号联通国际大厦6楼","type":"金融保险服务;保险公司;保险公司","typecode":"160400","pcode":310000,"pname":"上海市","citycode":21,"cityname":"上海市","adcode":310106,"adname":"静安区","business_a":"光新","location":"121.449830,31.245876","tel":"[]","bigType":"金融保险服务","midType":"保险公司","smallType":"保险公司","gcj_lng":121.44983,"gcj_lat":31.245876,"wgs84_loc":"121.445237,31.247754","wgs84Lng":"121.445237","wgs84Lat":"31.247754","__source_file__":"13-常用公服设施点/SHP/上海市_保险公司.shp"},"geometry":{"type":"Point","coordinates":[121.445237,31.247754]}},{"id":"544","type":"Feature","properties":{"id":"B0FFMAWVMH","name":"中国人民人寿保险股份有限公司江宁路营销服务部","address":"江宁路1306弄7号501、502、506单元、1103-4、1105-6、1107-8室","type":"金融保险服务;保险公司;中国人民保险公司","typecode":"160401","pcode":310000,"pname":"上海市","citycode":21,"cityname":"上海市","adcode":310107,"adname":"普陀区","business_a":"光新","location":"121.442373,31.246074","tel":"[]","bigType":"金融保险服务","midType":"保险公司","smallType":"中国人民保险公司","gcj_lng":121.442373,"gcj_lat":31.246074,"wgs84_loc":"121.437763,31.247938","wgs84Lng":"121.437763","wgs84Lat":"31.247938","__source_file__":"13-常用公服设施点/SHP/上海市_保险公司.shp"},"geometry":{"type":"Point","coordinates":[121.437763,31.247938]}},{"id":"648","type":"Feature","properties":{"id":"B0K3RM2EYF","name":"中国人民财产保险股份有限公司上海市普陀支公司","address":"纺博大厦-附楼","type":"金融保险服务;保险公司;中国人民保险公司","typecode":"160401","pcode":310000,"pname":"上海市","citycode":21,"cityname":"上海市","adcode":310107,"adname":"普陀区","business_a":"光新","location":"121.446175,31.247075","tel":"[]","bigType":"金融保险服务","midType":"保险公司","smallType":"中国人民保险公司","gcj_lng":121.446175,"gcj_lat":31.247075,"wgs84_loc":"121.441573,31.248945","wgs84Lng":"121.441573","wgs84Lat":"31.248945","__source_file__":"13-常用公服设施点/SHP/上海市_保险公司.shp"},"geometry":{"type":"Point","coordinates":[121.441573,31.248945]}},{"id":"412","type":"Feature","properties":{"id":"B0FFLF1IS7","name":"中国太平洋保险(集团)股份有限公司(普陀支公司)","address":"中山北路2000中期大厦11层","type":"金融保险服务;保险公司;中国太平洋保险","typecode":"160405","pcode":310000,"pname":"上海市","citycode":21,"cityname":"上海市","adcode":310107,"adname":"普陀区","business_a":"光新","location":"121.431973,31.248802","tel":"021-62050740","bigType":"金融保险服务","midType":"保险公司","smallType":"中国太平洋保险","gcj_lng":121.431973,"gcj_lat":31.248802,"wgs84_loc":"121.427344,31.250648","wgs84Lng":"121.427344","wgs84Lat":"31.250648","__source_file__":"13-常用公服设施点/SHP/上海市_保险公司.shp"},"geometry":{"type":"Point","coordinates":[121.427344,31.250648]}},{"id":"44","type":"Feature","properties":{"id":"B00155GRSE","name":"中国太平洋人寿保险股份有限公司(上海市普陀支公司)","address":"中山北路2000号中期大厦11楼","type":"金融保险服务;保险公司;中国太平洋保险","typecode":"160405","pcode":310000,"pname":"上海市","citycode":21,"cityname":"上海市","adcode":310107,"adname":"普陀区","business_a":"光新","location":"121.431973,31.248802","tel":"[]","bigType":"金融保险服务","midType":"保险公司","smallType":"中国太平洋保险","gcj_lng":121.431973,"gcj_lat":31.248802,"wgs84_loc":"121.427344,31.250648","wgs84Lng":"121.427344","wgs84Lat":"31.250648","__source_file__":"13-常用公服设施点/SHP/上海市_保险公司.shp"},"geometry":{"type":"Point","coordinates":[121.427344,31.250648]}},{"id":"298","type":"Feature","properties":{"id":"B0H2A75ZNS","name":"太行保险","address":"恒丰路600号上海机电大厦6楼6C","type":"金融保险服务;保险公司;保险公司","typecode":"160400","pcode":310000,"pname":"上海市","citycode":21,"cityname":"上海市","adcode":310106,"adname":"静安区","business_a":"[]","location":"121.452313,31.246797","tel":"[]","bigType":"金融保险服务","midType":"保险公司","smallType":"保险公司","gcj_lng":121.452313,"gcj_lat":31.246797,"wgs84_loc":"121.447726,31.24868","wgs84Lng":"121.447726","wgs84Lat":"31.24868","__source_file__":"13-常用公服设施点/SHP/上海市_保险公司.shp"},"geometry":{"type":"Point","coordinates":[121.447726,31.24868]}},{"id":"404","type":"Feature","properties":{"id":"B0FFM9GME4","name":"合众人寿上海分公司静安营销服务部","address":"恒丰路600号8楼C区","type":"金融保险服务;保险公司;保险公司","typecode":"160400","pcode":310000,"pname":"上海市","citycode":21,"cityname":"上海市","adcode":310106,"adname":"静安区","business_a":"[]","location":"121.452370,31.246870","tel":"[]","bigType":"金融保险服务","midType":"保险公司","smallType":"保险公司","gcj_lng":121.45237,"gcj_lat":31.24687,"wgs84_loc":"121.447783,31.248753","wgs84Lng":"121.447783","wgs84Lat":"31.248753","__source_file__":"13-常用公服设施点/SHP/上海市_保险公司.shp"},"geometry":{"type":"Point","coordinates":[121.447783,31.248753]}},{"id":"279","type":"Feature","properties":{"id":"B0FFG8GYJW","name":"中邮人寿保险股份有限公司(上海分公司)","address":"恒丰路601号7层","type":"金融保险服务;保险公司;保险公司","typecode":"160400","pcode":310000,"pname":"上海市","citycode":21,"cityname":"上海市","adcode":310106,"adname":"静安区","business_a":"[]","location":"121.452850,31.247999","tel":"021-63178888","bigType":"金融保险服务","midType":"保险公司","smallType":"保险公司","gcj_lng":121.45285,"gcj_lat":31.247999,"wgs84_loc":"121.448264,31.249882","wgs84Lng":"121.448264","wgs84Lat":"31.249882","__source_file__":"13-常用公服设施点/SHP/上海市_保险公司.shp"},"geometry":{"type":"Point","coordinates":[121.448264,31.249882]}},{"id":"70","type":"Feature","properties":{"id":"B0FFHI1OZH","name":"阳光保险集团","address":"柳营路明凯大厦商务楼14F1506","type":"金融保险服务;保险公司;保险公司","typecode":"160400","pcode":310000,"pname":"上海市","citycode":21,"cityname":"上海市","adcode":310109,"adname":"虹口区","business_a":"凉城","location":"121.468337,31.271389","tel":"[]","bigType":"金融保险服务","midType":"保险公司","smallType":"保险公司","gcj_lng":121.468337,"gcj_lat":31.271389,"wgs84_loc":"121.463793,31.273299","wgs84Lng":"121.463793","wgs84Lat":"31.273299","__source_file__":"13-常用公服设施点/SHP/上海市_保险公司.shp"},"geometry":{"type":"Point","coordinates":[121.463793,31.273299]}}],"name":"上海市_保险公司","crs":{"type":"name","properties":{"name":"urn:ogc:def:crs:OGC:1.3:CRS84"}}}