{"type":"FeatureCollection","features":[{"id":"49","type":"Feature","properties":{"id":"B0H2KH83IO","name":"信萌宠物医院静安分院","address":"武定路1127号","type":"医疗保健服务;动物医疗场所;宠物诊所","typecode":"090701","pcode":310000,"pname":"上海市","citycode":21,"cityname":"上海市","adcode":310106,"adname":"静安区","business_a":"曹家渡","location":"121.439361,31.228946","tel":"021-63806956","bigType":"医疗保健服务","midType":"动物医疗场所","smallType":"宠物诊所","gcj_lng":121.439361,"gcj_lat":31.228946,"wgs84_loc":"121.434746,31.230812","wgs84Lng":"121.434746","wgs84Lat":"31.230812","__source_file__":"13-常用公服设施点/SHP/上海市_动物医疗场所.shp"},"geometry":{"type":"Point","coordinates":[121.434746,31.230812]}},{"id":"37","type":"Feature","properties":{"id":"B0FFFPS56T","name":"瑞派申生宠物医院(静安店)","address":"常德路1022-1026号(近余姚路)","type":"医疗保健服务;动物医疗场所;宠物诊所","typecode":"090701","pcode":310000,"pname":"上海市","citycode":21,"cityname":"上海市","adcode":310106,"adname":"静安区","business_a":"曹家渡","location":"121.441114,31.236741","tel":"021-62266112;021-62123211","bigType":"医疗保健服务","midType":"动物医疗场所","smallType":"宠物诊所","gcj_lng":121.441114,"gcj_lat":31.236741,"wgs84_loc":"121.436502,31.238607","wgs84Lng":"121.436502","wgs84Lat":"31.238607","__source_file__":"13-常用公服设施点/SHP/上海市_动物医疗场所.shp"},"geometry":{"type":"Point","coordinates":[121.436502,31.238607]}},{"id":"935","type":"Feature","properties":{"id":"B0IRZ50MPB","name":"宠爱国际动物医院(长寿路店)","address":"安远路537-539号(长寿路地铁站5号口步行320米)","type":"医疗保健服务;动物医疗场所;宠物诊所","typecode":"090701","pcode":310000,"pname":"上海市","citycode":21,"cityname":"上海市","adcode":310106,"adname":"静安区","business_a":"[]","location":"121.439147,31.237412","tel":"13044102728","bigType":"医疗保健服务","midType":"动物医疗场所","smallType":"宠物诊所","gcj_lng":121.439147,"gcj_lat":31.237412,"wgs84_loc":"121.434531,31.239274","wgs84Lng":"121.434531","wgs84Lat":"31.239274","__source_file__":"13-常用公服设施点/SHP/上海市_动物医疗场所.shp"},"geometry":{"type":"Point","coordinates":[121.434531,31.239274]}},{"id":"883","type":"Feature","properties":{"id":"B0H6SCZS4J","name":"Bububobo猫咪疗愈馆","address":"陕西南路39弄8号","type":"医疗保健服务;动物医疗场所;宠物诊所","typecode":"090701","pcode":310000,"pname":"上海市","citycode":21,"cityname":"上海市","adcode":310101,"adname":"黄浦区","business_a":"淮海路","location":"121.458357,31.219982","tel":"19514635413","bigType":"医疗保健服务","midType":"动物医疗场所","smallType":"宠物诊所","gcj_lng":121.458357,"gcj_lat":31.219982,"wgs84_loc":"121.453788,31.22189","wgs84Lng":"121.453788","wgs84Lat":"31.22189","__source_file__":"13-常用公服设施点/SHP/上海市_动物医疗场所.shp"},"geometry":{"type":"Point","coordinates":[121.453788,31.22189]}},{"id":"1013","type":"Feature","properties":{"id":"B0JRA7HKNE","name":"睿心宠物医院·全猫全科·眼科特色","address":"大沽路458号1层2层(南京西路地铁站8号口步行390米)","type":"医疗保健服务;动物医疗场所;宠物诊所","typecode":"090701","pcode":310000,"pname":"上海市","citycode":21,"cityname":"上海市","adcode":310106,"adname":"静安区","business_a":"淮海路","location":"121.464453,31.225492","tel":"18016298107","bigType":"医疗保健服务","midType":"动物医疗场所","smallType":"宠物诊所","gcj_lng":121.464453,"gcj_lat":31.225492,"wgs84_loc":"121.459901,31.227412","wgs84Lng":"121.459901","wgs84Lat":"31.227412","__source_file__":"13-常用公服设施点/SHP/上海市_动物医疗场所.shp"},"geometry":{"type":"Point","coordinates":[121.459901,31.227412]}},{"id":"63","type":"Feature","properties":{"id":"B0H0PMC00C","name":"睿心宠物医院","address":"大沽路458号一层二层","type":"医疗保健服务;动物医疗场所;宠物诊所","typecode":"090701","pcode":310000,"pname":"上海市","citycode":21,"cityname":"上海市","adcode":310106,"adname":"静安区","business_a":"淮海路","location":"121.464630,31.225525","tel":"021-63168258;18016298107","bigType":"医疗保健服务","midType":"动物医疗场所","smallType":"宠物诊所","gcj_lng":121.46463,"gcj_lat":31.225525,"wgs84_loc":"121.460079,31.227446","wgs84Lng":"121.460079","wgs84Lat":"31.227446","__source_file__":"13-常用公服设施点/SHP/上海市_动物医疗场所.shp"},"geometry":{"type":"Point","coordinates":[121.460079,31.227446]}},{"id":"65","type":"Feature","properties":{"id":"B0GK5UC04F","name":"宠爱国际动物医院小动物全科诊疗中心(静安店)","address":"昌化路远中风华园城宝","type":"医疗保健服务;动物医疗场所;宠物诊所","typecode":"090701","pcode":310000,"pname":"上海市","citycode":21,"cityname":"上海市","adcode":310106,"adname":"静安区","business_a":"淮海路","location":"121.454962,31.234495","tel":"[]","bigType":"医疗保健服务","midType":"动物医疗场所","smallType":"宠物诊所","gcj_lng":121.454962,"gcj_lat":31.234495,"wgs84_loc":"121.450383,31.236389","wgs84Lng":"121.450383","wgs84Lat":"31.236389","__source_file__":"13-常用公服设施点/SHP/上海市_动物医疗场所.shp"},"geometry":{"type":"Point","coordinates":[121.450383,31.236389]}},{"id":"50","type":"Feature","properties":{"id":"B0FFLEWOVS","name":"宠爱国际动物医院(静安店)","address":"昌化路48号","type":"医疗保健服务;动物医疗场所;宠物诊所","typecode":"090701","pcode":310000,"pname":"上海市","citycode":21,"cityname":"上海市","adcode":310106,"adname":"静安区","business_a":"淮海路","location":"121.454904,31.234536","tel":"021-62088322","bigType":"医疗保健服务","midType":"动物医疗场所","smallType":"宠物诊所","gcj_lng":121.454904,"gcj_lat":31.234536,"wgs84_loc":"121.450325,31.23643","wgs84Lng":"121.450325","wgs84Lat":"31.23643","__source_file__":"13-常用公服设施点/SHP/上海市_动物医疗场所.shp"},"geometry":{"type":"Point","coordinates":[121.450325,31.23643]}},{"id":"28","type":"Feature","properties":{"id":"B0FFH7KQWJ","name":"瑞鹏宠物医院(新闸路店)","address":"新闸路435-437号","type":"医疗保健服务;动物医疗场所;宠物诊所","typecode":"090701","pcode":310000,"pname":"上海市","citycode":21,"cityname":"上海市","adcode":310101,"adname":"黄浦区","business_a":"北京东路","location":"121.465093,31.238366","tel":"021-63330028;021-63330029","bigType":"医疗保健服务","midType":"动物医疗场所","smallType":"宠物诊所","gcj_lng":121.465093,"gcj_lat":31.238366,"wgs84_loc":"121.460542,31.240282","wgs84Lng":"121.460542","wgs84Lat":"31.240282","__source_file__":"13-常用公服设施点/SHP/上海市_动物医疗场所.shp"},"geometry":{"type":"Point","coordinates":[121.460542,31.240282]}},{"id":"61","type":"Feature","properties":{"id":"B00156EFV1","name":"青藤宠物诊疗中心","address":"昌化路567号","type":"医疗保健服务;动物医疗场所;宠物诊所","typecode":"090701","pcode":310000,"pname":"上海市","citycode":21,"cityname":"上海市","adcode":310106,"adname":"静安区","business_a":"曹家渡","location":"121.448626,31.240321","tel":"021-62760089","bigType":"医疗保健服务","midType":"动物医疗场所","smallType":"宠物诊所","gcj_lng":121.448626,"gcj_lat":31.240321,"wgs84_loc":"121.444031,31.242199","wgs84Lng":"121.444031","wgs84Lat":"31.242199","__source_file__":"13-常用公服设施点/SHP/上海市_动物医疗场所.shp"},"geometry":{"type":"Point","coordinates":[121.444031,31.242199]}},{"id":"894","type":"Feature","properties":{"id":"B0H01OT1KG","name":"青藤宠物诊所中心","address":"昌化路567号","type":"医疗保健服务;动物医疗场所;宠物诊所","typecode":"090701","pcode":310000,"pname":"上海市","citycode":21,"cityname":"上海市","adcode":310106,"adname":"静安区","business_a":"曹家渡","location":"121.448605,31.240334","tel":"021-62760089","bigType":"医疗保健服务","midType":"动物医疗场所","smallType":"宠物诊所","gcj_lng":121.448605,"gcj_lat":31.240334,"wgs84_loc":"121.444009,31.242212","wgs84Lng":"121.444009","wgs84Lat":"31.242212","__source_file__":"13-常用公服设施点/SHP/上海市_动物医疗场所.shp"},"geometry":{"type":"Point","coordinates":[121.444009,31.242212]}},{"id":"72","type":"Feature","properties":{"id":"B0FFH7Q1JF","name":"宠物先生专业宠物服务中心(静安西苏州路店)","address":"西苏州路93号","type":"医疗保健服务;动物医疗场所;动物医疗场所","typecode":"090700","pcode":310000,"pname":"上海市","citycode":21,"cityname":"上海市","adcode":310106,"adname":"静安区","business_a":"曹家渡","location":"121.450742,31.242179","tel":"021-62760001;17621042494","bigType":"医疗保健服务","midType":"动物医疗场所","smallType":"动物医疗场所","gcj_lng":121.450742,"gcj_lat":31.242179,"wgs84_loc":"121.446151,31.24406","wgs84Lng":"121.446151","wgs84Lat":"31.24406","__source_file__":"13-常用公服设施点/SHP/上海市_动物医疗场所.shp"},"geometry":{"type":"Point","coordinates":[121.446151,31.24406]}},{"id":"35","type":"Feature","properties":{"id":"B0FFI6ACR8","name":"蓝石宠物医院","address":"天目中路267-2临","type":"医疗保健服务;动物医疗场所;宠物诊所","typecode":"090701","pcode":310000,"pname":"上海市","citycode":21,"cityname":"上海市","adcode":310106,"adname":"静安区","business_a":"宝山路","location":"121.470185,31.246778","tel":"021-62565157;021-62565382","bigType":"医疗保健服务","midType":"动物医疗场所","smallType":"宠物诊所","gcj_lng":121.470185,"gcj_lat":31.246778,"wgs84_loc":"121.465649,31.248703","wgs84Lng":"121.465649","wgs84Lat":"31.248703","__source_file__":"13-常用公服设施点/SHP/上海市_动物医疗场所.shp"},"geometry":{"type":"Point","coordinates":[121.465649,31.248703]}},{"id":"22","type":"Feature","properties":{"id":"B0HBMKILFL","name":"佩兹宠物医院·金牌猫友好诊所(黄浦店)","address":"东青莲街99号","type":"医疗保健服务;动物医疗场所;宠物诊所","typecode":"090701","pcode":310000,"pname":"上海市","citycode":21,"cityname":"上海市","adcode":310101,"adname":"黄浦区","business_a":"淮海路","location":"121.484085,31.225579","tel":"021-52540611;021-67337866","bigType":"医疗保健服务","midType":"动物医疗场所","smallType":"宠物诊所","gcj_lng":121.484085,"gcj_lat":31.225579,"wgs84_loc":"121.479597,31.227553","wgs84Lng":"121.479597","wgs84Lat":"31.227553","__source_file__":"13-常用公服设施点/SHP/上海市_动物医疗场所.shp"},"geometry":{"type":"Point","coordinates":[121.479597,31.227553]}},{"id":"25","type":"Feature","properties":{"id":"B00154DF5M","name":"小精灵宠物医院(浦西店)","address":"武胜路449-451号","type":"医疗保健服务;动物医疗场所;宠物诊所","typecode":"090701","pcode":310000,"pname":"上海市","citycode":21,"cityname":"上海市","adcode":310101,"adname":"黄浦区","business_a":"北京东路","location":"121.470807,31.227536","tel":"021-63276108;021-63594649","bigType":"医疗保健服务","midType":"动物医疗场所","smallType":"宠物诊所","gcj_lng":121.470807,"gcj_lat":31.227536,"wgs84_loc":"121.466275,31.229472","wgs84Lng":"121.466275","wgs84Lat":"31.229472","__source_file__":"13-常用公服设施点/SHP/上海市_动物医疗场所.shp"},"geometry":{"type":"Point","coordinates":[121.466275,31.229472]}},{"id":"45","type":"Feature","properties":{"id":"B0HRUDH6B3","name":"宠爱国际动物医院(上海大悦城店)","address":"曲阜路102号1层,108号1层","type":"医疗保健服务;动物医疗场所;宠物诊所","typecode":"090701","pcode":310000,"pname":"上海市","citycode":21,"cityname":"上海市","adcode":310106,"adname":"静安区","business_a":"七浦路","location":"121.474097,31.242990","tel":"021-56668329","bigType":"医疗保健服务","midType":"动物医疗场所","smallType":"宠物诊所","gcj_lng":121.474097,"gcj_lat":31.24299,"wgs84_loc":"121.469574,31.244928","wgs84Lng":"121.469574","wgs84Lat":"31.244928","__source_file__":"13-常用公服设施点/SHP/上海市_动物医疗场所.shp"},"geometry":{"type":"Point","coordinates":[121.469574,31.244928]}},{"id":"339","type":"Feature","properties":{"id":"B0FFIADP77","name":"顺心宠物诊所(东汉阳路店)","address":"东汉阳路275号(近梧州路)","type":"医疗保健服务;动物医疗场所;宠物诊所","typecode":"090701","pcode":310000,"pname":"上海市","citycode":21,"cityname":"上海市","adcode":310109,"adname":"虹口区","business_a":"北外滩","location":"121.494012,31.251072","tel":"021-65376391","bigType":"医疗保健服务","midType":"动物医疗场所","smallType":"宠物诊所","gcj_lng":121.494012,"gcj_lat":31.251072,"wgs84_loc":"121.489557,31.253064","wgs84Lng":"121.489557","wgs84Lat":"31.253064","__source_file__":"13-常用公服设施点/SHP/上海市_动物医疗场所.shp"},"geometry":{"type":"Point","coordinates":[121.489557,31.253064]}},{"id":"39","type":"Feature","properties":{"id":"B0FFIBZ0DA","name":"哆趣宠物诊所(静安店)","address":"鸿兴路38号","type":"医疗保健服务;动物医疗场所;宠物诊所","typecode":"090701","pcode":310000,"pname":"上海市","citycode":21,"cityname":"上海市","adcode":310106,"adname":"静安区","business_a":"宝山路","location":"121.475827,31.254412","tel":"021-56087667","bigType":"医疗保健服务","midType":"动物医疗场所","smallType":"宠物诊所","gcj_lng":121.475827,"gcj_lat":31.254412,"wgs84_loc":"121.471309,31.256349","wgs84Lng":"121.471309","wgs84Lat":"31.256349","__source_file__":"13-常用公服设施点/SHP/上海市_动物医疗场所.shp"},"geometry":{"type":"Point","coordinates":[121.471309,31.256349]}},{"id":"68","type":"Feature","properties":{"id":"B0HDZD1QL1","name":"哆趣宠物医院·犬猫专科·狂犬免疫点(静安店)","address":"鸿兴路与永兴路交叉口南约40米","type":"医疗保健服务;动物医疗场所;宠物诊所","typecode":"090701","pcode":310000,"pname":"上海市","citycode":21,"cityname":"上海市","adcode":310106,"adname":"静安区","business_a":"宝山路","location":"121.475810,31.254465","tel":"[]","bigType":"医疗保健服务","midType":"动物医疗场所","smallType":"宠物诊所","gcj_lng":121.47581,"gcj_lat":31.254465,"wgs84_loc":"121.471292,31.256402","wgs84Lng":"121.471292","wgs84Lat":"31.256402","__source_file__":"13-常用公服设施点/SHP/上海市_动物医疗场所.shp"},"geometry":{"type":"Point","coordinates":[121.471292,31.256402]}},{"id":"349","type":"Feature","properties":{"id":"B0FFL6CRBG","name":"关爱宠物诊所","address":"海拉尔路186号","type":"医疗保健服务;动物医疗场所;宠物诊所","typecode":"090701","pcode":310000,"pname":"上海市","citycode":21,"cityname":"上海市","adcode":310109,"adname":"虹口区","business_a":"四平路","location":"121.495505,31.257464","tel":"021-65042884","bigType":"医疗保健服务","midType":"动物医疗场所","smallType":"宠物诊所","gcj_lng":121.495505,"gcj_lat":31.257464,"wgs84_loc":"121.491055,31.259457","wgs84Lng":"121.491055","wgs84Lat":"31.259457","__source_file__":"13-常用公服设施点/SHP/上海市_动物医疗场所.shp"},"geometry":{"type":"Point","coordinates":[121.491055,31.259457]}},{"id":"343","type":"Feature","properties":{"id":"B00155I1VI","name":"慧心澜宠物医院","address":"宝山路639-647号","type":"医疗保健服务;动物医疗场所;宠物诊所","typecode":"090701","pcode":310000,"pname":"上海市","citycode":21,"cityname":"上海市","adcode":310109,"adname":"虹口区","business_a":"宝山路","location":"121.479309,31.260273","tel":"021-56304289","bigType":"医疗保健服务","midType":"动物医疗场所","smallType":"宠物诊所","gcj_lng":121.479309,"gcj_lat":31.260273,"wgs84_loc":"121.474802,31.262217","wgs84Lng":"121.474802","wgs84Lat":"31.262217","__source_file__":"13-常用公服设施点/SHP/上海市_动物医疗场所.shp"},"geometry":{"type":"Point","coordinates":[121.474802,31.262217]}},{"id":"1017","type":"Feature","properties":{"id":"B0I1TA2CTD","name":"爱轩动物医院","address":"东宝兴路811号1-2层","type":"医疗保健服务;动物医疗场所;宠物诊所","typecode":"090701","pcode":310000,"pname":"上海市","citycode":21,"cityname":"上海市","adcode":310109,"adname":"虹口区","business_a":"宝山路","location":"121.474411,31.263311","tel":"021-56358663;13166353702","bigType":"医疗保健服务","midType":"动物医疗场所","smallType":"宠物诊所","gcj_lng":121.474411,"gcj_lat":31.263311,"wgs84_loc":"121.469887,31.265241","wgs84Lng":"121.469887","wgs84Lat":"31.265241","__source_file__":"13-常用公服设施点/SHP/上海市_动物医疗场所.shp"},"geometry":{"type":"Point","coordinates":[121.469887,31.265241]}},{"id":"348","type":"Feature","properties":{"id":"B0G09HOMKE","name":"爱轩宠物诊所","address":"东宝兴路811号","type":"医疗保健服务;动物医疗场所;宠物诊所","typecode":"090701","pcode":310000,"pname":"上海市","citycode":21,"cityname":"上海市","adcode":310109,"adname":"虹口区","business_a":"和田","location":"121.474494,31.263377","tel":"[]","bigType":"医疗保健服务","midType":"动物医疗场所","smallType":"宠物诊所","gcj_lng":121.474494,"gcj_lat":31.263377,"wgs84_loc":"121.469971,31.265307","wgs84Lng":"121.469971","wgs84Lat":"31.265307","__source_file__":"13-常用公服设施点/SHP/上海市_动物医疗场所.shp"},"geometry":{"type":"Point","coordinates":[121.469971,31.265307]}},{"id":"895","type":"Feature","properties":{"id":"B0IA3GMC8E","name":"Pets First宠物酒店精品洗护美容","address":"长寿路长寿苑(长寿路地铁站7号口步行280米)","type":"医疗保健服务;动物医疗场所;宠物诊所","typecode":"090701","pcode":310000,"pname":"上海市","citycode":21,"cityname":"上海市","adcode":310107,"adname":"普陀区","business_a":"曹家渡","location":"121.436718,31.238520","tel":"[]","bigType":"医疗保健服务","midType":"动物医疗场所","smallType":"宠物诊所","gcj_lng":121.436718,"gcj_lat":31.23852,"wgs84_loc":"121.432098,31.240378","wgs84Lng":"121.432098","wgs84Lat":"31.240378","__source_file__":"13-常用公服设施点/SHP/上海市_动物医疗场所.shp"},"geometry":{"type":"Point","coordinates":[121.432098,31.240378]}},{"id":"535","type":"Feature","properties":{"id":"B0FFIJO9MP","name":"湃皓思动物医院","address":"光复西路331号","type":"医疗保健服务;动物医疗场所;宠物诊所","typecode":"090701","pcode":310000,"pname":"上海市","citycode":21,"cityname":"上海市","adcode":310107,"adname":"普陀区","business_a":"曹家渡","location":"121.429038,31.238674","tel":"021-58885553","bigType":"医疗保健服务","midType":"动物医疗场所","smallType":"宠物诊所","gcj_lng":121.429038,"gcj_lat":31.238674,"wgs84_loc":"121.424405,31.240521","wgs84Lng":"121.424405","wgs84Lat":"31.240521","__source_file__":"13-常用公服设施点/SHP/上海市_动物医疗场所.shp"},"geometry":{"type":"Point","coordinates":[121.424405,31.240521]}},{"id":"69","type":"Feature","properties":{"id":"B0FFH0IVD3","name":"艾贝尔宠物医院(玉佛寺店)","address":"陕西北路1177号","type":"医疗保健服务;动物医疗场所;宠物诊所","typecode":"090701","pcode":310000,"pname":"上海市","citycode":21,"cityname":"上海市","adcode":310106,"adname":"静安区","business_a":"曹家渡","location":"121.444223,31.240071","tel":"021-62770616","bigType":"医疗保健服务","midType":"动物医疗场所","smallType":"宠物诊所","gcj_lng":121.444223,"gcj_lat":31.240071,"wgs84_loc":"121.439618,31.241941","wgs84Lng":"121.439618","wgs84Lat":"31.241941","__source_file__":"13-常用公服设施点/SHP/上海市_动物医疗场所.shp"},"geometry":{"type":"Point","coordinates":[121.439618,31.241941]}},{"id":"966","type":"Feature","properties":{"id":"B0K3XHW3GL","name":"赫佑萌动物医院CT·微创·中兽医·异宠24小时诊断中心","address":"东新路55弄","type":"医疗保健服务;动物医疗场所;宠物诊所","typecode":"090701","pcode":310000,"pname":"上海市","citycode":21,"cityname":"上海市","adcode":310107,"adname":"普陀区","business_a":"光新","location":"121.428987,31.242290","tel":"[]","bigType":"医疗保健服务","midType":"动物医疗场所","smallType":"宠物诊所","gcj_lng":121.428987,"gcj_lat":31.24229,"wgs84_loc":"121.424354,31.244136","wgs84Lng":"121.424354","wgs84Lat":"31.244136","__source_file__":"13-常用公服设施点/SHP/上海市_动物医疗场所.shp"},"geometry":{"type":"Point","coordinates":[121.424354,31.244136]}},{"id":"553","type":"Feature","properties":{"id":"B0FFK2OHXF","name":"安安宠医(澳门路分院内窥镜微创中心)","address":"澳门路768号","type":"医疗保健服务;动物医疗场所;宠物诊所","typecode":"090701","pcode":310000,"pname":"上海市","citycode":21,"cityname":"上海市","adcode":310107,"adname":"普陀区","business_a":"光新","location":"121.435828,31.242688","tel":"021-52556653","bigType":"医疗保健服务","midType":"动物医疗场所","smallType":"宠物诊所","gcj_lng":121.435828,"gcj_lat":31.242688,"wgs84_loc":"121.431206,31.244543","wgs84Lng":"121.431206","wgs84Lat":"31.244543","__source_file__":"13-常用公服设施点/SHP/上海市_动物医疗场所.shp"},"geometry":{"type":"Point","coordinates":[121.431206,31.244543]}},{"id":"971","type":"Feature","properties":{"id":"B0IUKC0DN7","name":"良伴无忧宠物医院(泰欣嘉园店)","address":"镇坪路286号(镇坪路地铁站5号口旁)","type":"医疗保健服务;动物医疗场所;宠物诊所","typecode":"090701","pcode":310000,"pname":"上海市","citycode":21,"cityname":"上海市","adcode":310107,"adname":"普陀区","business_a":"光新","location":"121.432476,31.246128","tel":"13818782181","bigType":"医疗保健服务","midType":"动物医疗场所","smallType":"宠物诊所","gcj_lng":121.432476,"gcj_lat":31.246128,"wgs84_loc":"121.427848,31.247976","wgs84Lng":"121.427848","wgs84Lat":"31.247976","__source_file__":"13-常用公服设施点/SHP/上海市_动物医疗场所.shp"},"geometry":{"type":"Point","coordinates":[121.427848,31.247976]}},{"id":"965","type":"Feature","properties":{"id":"B0KARUF2RZ","name":"五福和朋友们小动物医院·急重症中心·内窥镜微创·骨外科","address":"光新路211-6211-7号","type":"医疗保健服务;动物医疗场所;宠物诊所","typecode":"090701","pcode":310000,"pname":"上海市","citycode":21,"cityname":"上海市","adcode":310107,"adname":"普陀区","business_a":"光新","location":"121.431369,31.252794","tel":"021-60152480;15021861540","bigType":"医疗保健服务","midType":"动物医疗场所","smallType":"宠物诊所","gcj_lng":121.431369,"gcj_lat":31.252794,"wgs84_loc":"121.426738,31.254638","wgs84Lng":"121.426738","wgs84Lat":"31.254638","__source_file__":"13-常用公服设施点/SHP/上海市_动物医疗场所.shp"},"geometry":{"type":"Point","coordinates":[121.426738,31.254638]}},{"id":"545","type":"Feature","properties":{"id":"B0FFKSQK9H","name":"萌兽医馆·睿诣花城宠物医院","address":"石泉东路120号","type":"医疗保健服务;动物医疗场所;宠物诊所","typecode":"090701","pcode":310000,"pname":"上海市","citycode":21,"cityname":"上海市","adcode":310107,"adname":"普陀区","business_a":"光新","location":"121.435258,31.255405","tel":"021-52660899","bigType":"医疗保健服务","midType":"动物医疗场所","smallType":"宠物诊所","gcj_lng":121.435258,"gcj_lat":31.255405,"wgs84_loc":"121.430634,31.257253","wgs84Lng":"121.430634","wgs84Lat":"31.257253","__source_file__":"13-常用公服设施点/SHP/上海市_动物医疗场所.shp"},"geometry":{"type":"Point","coordinates":[121.430634,31.257253]}},{"id":"956","type":"Feature","properties":{"id":"B0J16KV5YD","name":"萌兽医馆·睿诣花城宠物医院狂犬免疫定点镭射康复诊疗中心","address":"石泉东路与农林路交叉口西北60米","type":"医疗保健服务;动物医疗场所;兽医站","typecode":"090702","pcode":310000,"pname":"上海市","citycode":21,"cityname":"上海市","adcode":310107,"adname":"普陀区","business_a":"大宁路","location":"121.435256,31.255450","tel":"[]","bigType":"医疗保健服务","midType":"动物医疗场所","smallType":"兽医站","gcj_lng":121.435256,"gcj_lat":31.25545,"wgs84_loc":"121.430632,31.257298","wgs84Lng":"121.430632","wgs84Lat":"31.257298","__source_file__":"13-常用公服设施点/SHP/上海市_动物医疗场所.shp"},"geometry":{"type":"Point","coordinates":[121.430632,31.257298]}},{"id":"557","type":"Feature","properties":{"id":"B0H06LFULS","name":"萌兽医馆(睿诣花城店)","address":"石泉东路与农林路交叉口西北约80米","type":"医疗保健服务;动物医疗场所;宠物诊所","typecode":"090701","pcode":310000,"pname":"上海市","citycode":21,"cityname":"上海市","adcode":310107,"adname":"普陀区","business_a":"大宁路","location":"121.435252,31.255535","tel":"[]","bigType":"医疗保健服务","midType":"动物医疗场所","smallType":"宠物诊所","gcj_lng":121.435252,"gcj_lat":31.255535,"wgs84_loc":"121.430628,31.257383","wgs84Lng":"121.430628","wgs84Lat":"31.257383","__source_file__":"13-常用公服设施点/SHP/上海市_动物医疗场所.shp"},"geometry":{"type":"Point","coordinates":[121.430628,31.257383]}},{"id":"48","type":"Feature","properties":{"id":"B0H3YS7BBX","name":"有时宠物医院","address":"永兴路928弄47号","type":"医疗保健服务;动物医疗场所;宠物诊所","typecode":"090701","pcode":310000,"pname":"上海市","citycode":21,"cityname":"上海市","adcode":310106,"adname":"静安区","business_a":"和田","location":"121.459418,31.251009","tel":"021-56635868","bigType":"医疗保健服务","midType":"动物医疗场所","smallType":"宠物诊所","gcj_lng":121.459418,"gcj_lat":31.251009,"wgs84_loc":"121.45485,31.252906","wgs84Lng":"121.45485","wgs84Lat":"31.252906","__source_file__":"13-常用公服设施点/SHP/上海市_动物医疗场所.shp"},"geometry":{"type":"Point","coordinates":[121.45485,31.252906]}},{"id":"41","type":"Feature","properties":{"id":"B0FFGFVOOP","name":"艺菲宠物诊疗中心","address":"共和新路478号(近中兴路)","type":"医疗保健服务;动物医疗场所;宠物诊所","typecode":"090701","pcode":310000,"pname":"上海市","citycode":21,"cityname":"上海市","adcode":310106,"adname":"静安区","business_a":"和田","location":"121.463278,31.251560","tel":"021-56630700","bigType":"医疗保健服务","midType":"动物医疗场所","smallType":"宠物诊所","gcj_lng":121.463278,"gcj_lat":31.25156,"wgs84_loc":"121.458721,31.253466","wgs84Lng":"121.458721","wgs84Lat":"31.253466","__source_file__":"13-常用公服设施点/SHP/上海市_动物医疗场所.shp"},"geometry":{"type":"Point","coordinates":[121.458721,31.253466]}},{"id":"509","type":"Feature","properties":{"id":"B0IGUMW70I","name":"兽医外科","address":"中华新路与恒丰北路辅路交叉口西北60米","type":"医疗保健服务;动物医疗场所;兽医站","typecode":"090702","pcode":310000,"pname":"上海市","citycode":21,"cityname":"上海市","adcode":310106,"adname":"静安区","business_a":"和田","location":"121.451293,31.255075","tel":"[]","bigType":"医疗保健服务","midType":"动物医疗场所","smallType":"兽医站","gcj_lng":121.451293,"gcj_lat":31.255075,"wgs84_loc":"121.446703,31.256952","wgs84Lng":"121.446703","wgs84Lat":"31.256952","__source_file__":"13-常用公服设施点/SHP/上海市_动物医疗场所.shp"},"geometry":{"type":"Point","coordinates":[121.446703,31.256952]}},{"id":"44","type":"Feature","properties":{"id":"B0HUCHUPZ2","name":"爱笙宠物医院","address":"林顿大厦一层118-119室","type":"医疗保健服务;动物医疗场所;宠物诊所","typecode":"090701","pcode":310000,"pname":"上海市","citycode":21,"cityname":"上海市","adcode":310106,"adname":"静安区","business_a":"和田","location":"121.451358,31.255077","tel":"17717480885","bigType":"医疗保健服务","midType":"动物医疗场所","smallType":"宠物诊所","gcj_lng":121.451358,"gcj_lat":31.255077,"wgs84_loc":"121.446768,31.256954","wgs84Lng":"121.446768","wgs84Lat":"31.256954","__source_file__":"13-常用公服设施点/SHP/上海市_动物医疗场所.shp"},"geometry":{"type":"Point","coordinates":[121.446768,31.256954]}},{"id":"36","type":"Feature","properties":{"id":"B0FFIRD1AH","name":"上海爱恒宠物医院","address":"中山北路808号-10号","type":"医疗保健服务;动物医疗场所;宠物诊所","typecode":"090701","pcode":310000,"pname":"上海市","citycode":21,"cityname":"上海市","adcode":310106,"adname":"静安区","business_a":"和田","location":"121.457696,31.259500","tel":"021-58885199;15821632869","bigType":"医疗保健服务","midType":"动物医疗场所","smallType":"宠物诊所","gcj_lng":121.457696,"gcj_lat":31.2595,"wgs84_loc":"121.453122,31.261389","wgs84Lng":"121.453122","wgs84Lat":"31.261389","__source_file__":"13-常用公服设施点/SHP/上海市_动物医疗场所.shp"},"geometry":{"type":"Point","coordinates":[121.453122,31.261389]}},{"id":"64","type":"Feature","properties":{"id":"B0H0O6TW0X","name":"爱恒宠物医院·骨外科中心·犬猫全科·狂犬免疫点","address":"中山北路808-10号","type":"医疗保健服务;动物医疗场所;宠物诊所","typecode":"090701","pcode":310000,"pname":"上海市","citycode":21,"cityname":"上海市","adcode":310106,"adname":"静安区","business_a":"和田","location":"121.457705,31.259505","tel":"[]","bigType":"医疗保健服务","midType":"动物医疗场所","smallType":"宠物诊所","gcj_lng":121.457705,"gcj_lat":31.259505,"wgs84_loc":"121.453131,31.261394","wgs84Lng":"121.453131","wgs84Lat":"31.261394","__source_file__":"13-常用公服设施点/SHP/上海市_动物医疗场所.shp"},"geometry":{"type":"Point","coordinates":[121.453131,31.261394]}},{"id":"51","type":"Feature","properties":{"id":"B0H1U11YRS","name":"萌悦家宠物医院","address":"共和新路1425号","type":"医疗保健服务;动物医疗场所;宠物诊所","typecode":"090701","pcode":310000,"pname":"上海市","citycode":21,"cityname":"上海市","adcode":310106,"adname":"静安区","business_a":"和田","location":"121.459207,31.266122","tel":"021-56796778;15300928445","bigType":"医疗保健服务","midType":"动物医疗场所","smallType":"宠物诊所","gcj_lng":121.459207,"gcj_lat":31.266122,"wgs84_loc":"121.454637,31.268011","wgs84Lng":"121.454637","wgs84Lat":"31.268011","__source_file__":"13-常用公服设施点/SHP/上海市_动物医疗场所.shp"},"geometry":{"type":"Point","coordinates":[121.454637,31.268011]}},{"id":"57","type":"Feature","properties":{"id":"B0H2VGVDZ9","name":"瑞派天使宠物医院核磁·血透中心(洛川中路店)","address":"洛川中路612号底层","type":"医疗保健服务;动物医疗场所;宠物诊所","typecode":"090701","pcode":310000,"pname":"上海市","citycode":21,"cityname":"上海市","adcode":310106,"adname":"静安区","business_a":"和田","location":"121.455792,31.267032","tel":"021-56031628","bigType":"医疗保健服务","midType":"动物医疗场所","smallType":"宠物诊所","gcj_lng":121.455792,"gcj_lat":31.267032,"wgs84_loc":"121.451212,31.268913","wgs84Lng":"121.451212","wgs84Lat":"31.268913","__source_file__":"13-常用公服设施点/SHP/上海市_动物医疗场所.shp"},"geometry":{"type":"Point","coordinates":[121.451212,31.268913]}},{"id":"38","type":"Feature","properties":{"id":"B001538908","name":"天使宠物医院(洛川中路店)","address":"洛川中路612号(近共和新路)","type":"医疗保健服务;动物医疗场所;宠物诊所","typecode":"090701","pcode":310000,"pname":"上海市","citycode":21,"cityname":"上海市","adcode":310106,"adname":"静安区","business_a":"大宁路","location":"121.455834,31.267082","tel":"021-66520372;021-56031628","bigType":"医疗保健服务","midType":"动物医疗场所","smallType":"宠物诊所","gcj_lng":121.455834,"gcj_lat":31.267082,"wgs84_loc":"121.451254,31.268963","wgs84Lng":"121.451254","wgs84Lat":"31.268963","__source_file__":"13-常用公服设施点/SHP/上海市_动物医疗场所.shp"},"geometry":{"type":"Point","coordinates":[121.451254,31.268963]}},{"id":"1012","type":"Feature","properties":{"id":"B0JUZ7E8C5","name":"姚立宠物医院(万荣路)","address":"万荣路140号142号","type":"医疗保健服务;动物医疗场所;宠物诊所","typecode":"090701","pcode":310000,"pname":"上海市","citycode":21,"cityname":"上海市","adcode":310106,"adname":"静安区","business_a":"大宁路","location":"121.447833,31.270955","tel":"021-56509508","bigType":"医疗保健服务","midType":"动物医疗场所","smallType":"宠物诊所","gcj_lng":121.447833,"gcj_lat":31.270955,"wgs84_loc":"121.443233,31.272818","wgs84Lng":"121.443233","wgs84Lat":"31.272818","__source_file__":"13-常用公服设施点/SHP/上海市_动物医疗场所.shp"},"geometry":{"type":"Point","coordinates":[121.443233,31.272818]}},{"id":"548","type":"Feature","properties":{"id":"B0GKXOGESW","name":"萌兽医馆·睿诣花城宠物医院·狂犬免疫定点·镭射康复诊疗中心","address":"石泉东路120号(香溢花城底商)","type":"医疗保健服务;动物医疗场所;宠物诊所","typecode":"090701","pcode":310000,"pname":"上海市","citycode":21,"cityname":"上海市","adcode":310107,"adname":"普陀区","business_a":"大宁路","location":"121.435349,31.255537","tel":"[]","bigType":"医疗保健服务","midType":"动物医疗场所","smallType":"宠物诊所","gcj_lng":121.435349,"gcj_lat":31.255537,"wgs84_loc":"121.430725,31.257385","wgs84Lng":"121.430725","wgs84Lat":"31.257385","__source_file__":"13-常用公服设施点/SHP/上海市_动物医疗场所.shp"},"geometry":{"type":"Point","coordinates":[121.430725,31.257385]}},{"id":"359","type":"Feature","properties":{"id":"B0IG6ZF867","name":"爱轩动物医院","address":"[]","type":"医疗保健服务;动物医疗场所;宠物诊所","typecode":"090701","pcode":310000,"pname":"上海市","citycode":21,"cityname":"上海市","adcode":310109,"adname":"虹口区","business_a":"和田","location":"121.474478,31.263390","tel":"[]","bigType":"医疗保健服务","midType":"动物医疗场所","smallType":"宠物诊所","gcj_lng":121.474478,"gcj_lat":31.26339,"wgs84_loc":"121.469955,31.26532","wgs84Lng":"121.469955","wgs84Lat":"31.26532","__source_file__":"13-常用公服设施点/SHP/上海市_动物医疗场所.shp"},"geometry":{"type":"Point","coordinates":[121.469955,31.26532]}},{"id":"357","type":"Feature","properties":{"id":"B0G2KUT72C","name":"爱轩宠物內视镜诊疗中心","address":"东宝兴路811号","type":"医疗保健服务;动物医疗场所;宠物诊所","typecode":"090701","pcode":310000,"pname":"上海市","citycode":21,"cityname":"上海市","adcode":310109,"adname":"虹口区","business_a":"宝山路","location":"121.474464,31.263396","tel":"021-56358663;13166353702;13918737356","bigType":"医疗保健服务","midType":"动物医疗场所","smallType":"宠物诊所","gcj_lng":121.474464,"gcj_lat":31.263396,"wgs84_loc":"121.469941,31.265326","wgs84Lng":"121.469941","wgs84Lat":"31.265326","__source_file__":"13-常用公服设施点/SHP/上海市_动物医疗场所.shp"},"geometry":{"type":"Point","coordinates":[121.469941,31.265326]}},{"id":"896","type":"Feature","properties":{"id":"B0G1TZTKCS","name":"爱轩宠物內视镜诊疗中心","address":"东宝兴路811号","type":"医疗保健服务;动物医疗场所;宠物诊所","typecode":"090701","pcode":310000,"pname":"上海市","citycode":21,"cityname":"上海市","adcode":310109,"adname":"虹口区","business_a":"宝山路","location":"121.474411,31.263552","tel":"021-56358663;13166353702;13918737356","bigType":"医疗保健服务","midType":"动物医疗场所","smallType":"宠物诊所","gcj_lng":121.474411,"gcj_lat":31.263552,"wgs84_loc":"121.469887,31.265481","wgs84Lng":"121.469887","wgs84Lat":"31.265481","__source_file__":"13-常用公服设施点/SHP/上海市_动物医疗场所.shp"},"geometry":{"type":"Point","coordinates":[121.469887,31.265481]}},{"id":"59","type":"Feature","properties":{"id":"B0G3RSBUBX","name":"心连心宠物诊所","address":"东宝兴路与恒业路交叉口南约20米","type":"医疗保健服务;动物医疗场所;宠物诊所","typecode":"090701","pcode":310000,"pname":"上海市","citycode":21,"cityname":"上海市","adcode":310106,"adname":"静安区","business_a":"宝山路","location":"121.472289,31.264890","tel":"[]","bigType":"医疗保健服务","midType":"动物医疗场所","smallType":"宠物诊所","gcj_lng":121.472289,"gcj_lat":31.26489,"wgs84_loc":"121.467758,31.266813","wgs84Lng":"121.467758","wgs84Lat":"31.266813","__source_file__":"13-常用公服设施点/SHP/上海市_动物医疗场所.shp"},"geometry":{"type":"Point","coordinates":[121.467758,31.266813]}},{"id":"355","type":"Feature","properties":{"id":"B0FFF0DNVC","name":"艾贝尔宠物医院(欧阳店)","address":"欧阳路78号(吉祥路)","type":"医疗保健服务;动物医疗场所;宠物诊所","typecode":"090701","pcode":310000,"pname":"上海市","citycode":21,"cityname":"上海市","adcode":310109,"adname":"虹口区","business_a":"曲阳","location":"121.489144,31.265593","tel":"021-56552809;18939794946","bigType":"医疗保健服务","midType":"动物医疗场所","smallType":"宠物诊所","gcj_lng":121.489144,"gcj_lat":31.265593,"wgs84_loc":"121.484671,31.267564","wgs84Lng":"121.484671","wgs84Lat":"31.267564","__source_file__":"13-常用公服设施点/SHP/上海市_动物医疗场所.shp"},"geometry":{"type":"Point","coordinates":[121.484671,31.267564]}},{"id":"1019","type":"Feature","properties":{"id":"B0J2F50AVV","name":"宠博仕·甜爱宠物医院·内窥镜·犬猫全科","address":"甜爱支路5号一楼甲乙丙室","type":"医疗保健服务;动物医疗场所;宠物诊所","typecode":"090701","pcode":310000,"pname":"上海市","citycode":21,"cityname":"上海市","adcode":310109,"adname":"虹口区","business_a":"宝山路","location":"121.483762,31.267839","tel":"19821675899","bigType":"医疗保健服务","midType":"动物医疗场所","smallType":"宠物诊所","gcj_lng":121.483762,"gcj_lat":31.267839,"wgs84_loc":"121.47927,31.269793","wgs84Lng":"121.47927","wgs84Lat":"31.269793","__source_file__":"13-常用公服设施点/SHP/上海市_动物医疗场所.shp"},"geometry":{"type":"Point","coordinates":[121.47927,31.269793]}},{"id":"888","type":"Feature","properties":{"id":"B0FFMALPAA","name":"宠香宠物医疗","address":"水电路37号","type":"医疗保健服务;动物医疗场所;宠物诊所","typecode":"090701","pcode":310000,"pname":"上海市","citycode":21,"cityname":"上海市","adcode":310109,"adname":"虹口区","business_a":"和田","location":"121.471250,31.272180","tel":"021-56303827","bigType":"医疗保健服务","midType":"动物医疗场所","smallType":"宠物诊所","gcj_lng":121.47125,"gcj_lat":31.27218,"wgs84_loc":"121.466715,31.274097","wgs84Lng":"121.466715","wgs84Lat":"31.274097","__source_file__":"13-常用公服设施点/SHP/上海市_动物医疗场所.shp"},"geometry":{"type":"Point","coordinates":[121.466715,31.274097]}},{"id":"354","type":"Feature","properties":{"id":"B0FFMBJFQI","name":"宠香医疗·一宠一座宠物诊所(虹口店)","address":"水电路37号(水电路62弄小区对面)","type":"医疗保健服务;动物医疗场所;宠物诊所","typecode":"090701","pcode":310000,"pname":"上海市","citycode":21,"cityname":"上海市","adcode":310109,"adname":"虹口区","business_a":"和田","location":"121.471259,31.272184","tel":"021-56303827","bigType":"医疗保健服务","midType":"动物医疗场所","smallType":"宠物诊所","gcj_lng":121.471259,"gcj_lat":31.272184,"wgs84_loc":"121.466724,31.274101","wgs84Lng":"121.466724","wgs84Lat":"31.274101","__source_file__":"13-常用公服设施点/SHP/上海市_动物医疗场所.shp"},"geometry":{"type":"Point","coordinates":[121.466724,31.274101]}},{"id":"356","type":"Feature","properties":{"id":"B0HAU7UA56","name":"守诺宠物诊所","address":"水电路花园城-二期","type":"医疗保健服务;动物医疗场所;宠物诊所","typecode":"090701","pcode":310000,"pname":"上海市","citycode":21,"cityname":"上海市","adcode":310109,"adname":"虹口区","business_a":"和田","location":"121.471335,31.272244","tel":"[]","bigType":"医疗保健服务","midType":"动物医疗场所","smallType":"宠物诊所","gcj_lng":121.471335,"gcj_lat":31.272244,"wgs84_loc":"121.466801,31.274161","wgs84Lng":"121.466801","wgs84Lat":"31.274161","__source_file__":"13-常用公服设施点/SHP/上海市_动物医疗场所.shp"},"geometry":{"type":"Point","coordinates":[121.466801,31.274161]}},{"id":"943","type":"Feature","properties":{"id":"B0IK1UMMMA","name":"守诺宠物医院(一至三期花园城店)","address":"花园城2期西北门西南150米","type":"医疗保健服务;动物医疗场所;宠物诊所","typecode":"090701","pcode":310000,"pname":"上海市","citycode":21,"cityname":"上海市","adcode":310109,"adname":"虹口区","business_a":"和田","location":"121.471330,31.272256","tel":"15001784959","bigType":"医疗保健服务","midType":"动物医疗场所","smallType":"宠物诊所","gcj_lng":121.47133,"gcj_lat":31.272256,"wgs84_loc":"121.466796,31.274173","wgs84Lng":"121.466796","wgs84Lat":"31.274173","__source_file__":"13-常用公服设施点/SHP/上海市_动物医疗场所.shp"},"geometry":{"type":"Point","coordinates":[121.466796,31.274173]}},{"id":"60","type":"Feature","properties":{"id":"B001572A1Q","name":"上海动物保健宠物医院大宁分院","address":"大宁路723-727号(近万荣路)","type":"医疗保健服务;动物医疗场所;宠物诊所","typecode":"090701","pcode":310000,"pname":"上海市","citycode":21,"cityname":"上海市","adcode":310106,"adname":"静安区","business_a":"大宁路","location":"121.444834,31.270997","tel":"021-56053047;021-56954608","bigType":"医疗保健服务","midType":"动物医疗场所","smallType":"宠物诊所","gcj_lng":121.444834,"gcj_lat":31.270997,"wgs84_loc":"121.440227,31.272854","wgs84Lng":"121.440227","wgs84Lat":"31.272854","__source_file__":"13-常用公服设施点/SHP/上海市_动物医疗场所.shp"},"geometry":{"type":"Point","coordinates":[121.440227,31.272854]}},{"id":"934","type":"Feature","properties":{"id":"B0JAV71E6D","name":"宁耀宠物医院24小时·骨外科中心·心脏科·针灸科","address":"大宁路719号101室","type":"医疗保健服务;动物医疗场所;宠物诊所","typecode":"090701","pcode":310000,"pname":"上海市","citycode":21,"cityname":"上海市","adcode":310106,"adname":"静安区","business_a":"大宁路","location":"121.444871,31.271047","tel":"021-56389899;16621538551","bigType":"医疗保健服务","midType":"动物医疗场所","smallType":"宠物诊所","gcj_lng":121.444871,"gcj_lat":31.271047,"wgs84_loc":"121.440264,31.272904","wgs84Lng":"121.440264","wgs84Lat":"31.272904","__source_file__":"13-常用公服设施点/SHP/上海市_动物医疗场所.shp"},"geometry":{"type":"Point","coordinates":[121.440264,31.272904]}},{"id":"352","type":"Feature","properties":{"id":"B0FFI14O0H","name":"艾吉茜茜宠物医院","address":"新同心路86-94号","type":"医疗保健服务;动物医疗场所;宠物诊所","typecode":"090701","pcode":310000,"pname":"上海市","citycode":21,"cityname":"上海市","adcode":310109,"adname":"虹口区","business_a":"凉城","location":"121.466001,31.275642","tel":"021-56389195;4001680588","bigType":"医疗保健服务","midType":"动物医疗场所","smallType":"宠物诊所","gcj_lng":121.466001,"gcj_lat":31.275642,"wgs84_loc":"121.46145,31.277544","wgs84Lng":"121.46145","wgs84Lat":"31.277544","__source_file__":"13-常用公服设施点/SHP/上海市_动物医疗场所.shp"},"geometry":{"type":"Point","coordinates":[121.46145,31.277544]}},{"id":"361","type":"Feature","properties":{"id":"B0FFIB4L13","name":"小时急诊中心","address":"新同心路104号附近","type":"医疗保健服务;动物医疗场所;宠物诊所","typecode":"090701","pcode":310000,"pname":"上海市","citycode":21,"cityname":"上海市","adcode":310109,"adname":"虹口区","business_a":"和田","location":"121.466016,31.275709","tel":"[]","bigType":"医疗保健服务","midType":"动物医疗场所","smallType":"宠物诊所","gcj_lng":121.466016,"gcj_lat":31.275709,"wgs84_loc":"121.461465,31.277611","wgs84Lng":"121.461465","wgs84Lat":"31.277611","__source_file__":"13-常用公服设施点/SHP/上海市_动物医疗场所.shp"},"geometry":{"type":"Point","coordinates":[121.461465,31.277611]}},{"id":"342","type":"Feature","properties":{"id":"B00156O5FY","name":"艾吉宠物医院24小时转诊中心","address":"新同心路94号株洲路口","type":"医疗保健服务;动物医疗场所;宠物诊所","typecode":"090701","pcode":310000,"pname":"上海市","citycode":21,"cityname":"上海市","adcode":310109,"adname":"虹口区","business_a":"和田","location":"121.466037,31.275750","tel":"021-56389195;4001680588","bigType":"医疗保健服务","midType":"动物医疗场所","smallType":"宠物诊所","gcj_lng":121.466037,"gcj_lat":31.27575,"wgs84_loc":"121.461486,31.277652","wgs84Lng":"121.461486","wgs84Lat":"31.277652","__source_file__":"13-常用公服设施点/SHP/上海市_动物医疗场所.shp"},"geometry":{"type":"Point","coordinates":[121.461486,31.277652]}}],"name":"上海市_动物医疗场所","crs":{"type":"name","properties":{"name":"urn:ogc:def:crs:OGC:1.3:CRS84"}}}