{"type":"FeatureCollection","features":[{"id":"1406","type":"Feature","properties":{"id":"f82ef463-aaf8-3f02-9844-8c11bc3adc4f","pname":"上海市","pcode":310000,"cityname":"上海市","citycode":21,"adname":"静安区","adcode":310106,"name":"静安寺街道孵化园区","address":"延平路与武定路交叉口东南140米","location":"121.441479,31.228281","tel":"[]","business_a":"曹家渡","bigType":"商务住宅","midType":"产业园区","smallType":"产业园区","typecode":"120100","timestamp":"2024-03-26 02:46:06","gcjLng":121.441479,"gcjLat":31.228281,"wgs84Lng":121.436869,"wgs84Lat":31.230151,"__source_file__":"13-常用公服设施点/SHP/上海市_产业园区-点.shp"},"geometry":{"type":"Point","coordinates":[121.436869,31.230151]}},{"id":"1407","type":"Feature","properties":{"id":"12386ac0-499b-3cb7-a95c-27205b34484b","pname":"上海市","pcode":310000,"cityname":"上海市","citycode":21,"adname":"静安区","adcode":310106,"name":"98创意园","address":"延平路98号","location":"121.441836,31.228442","tel":"[]","business_a":"曹家渡","bigType":"商务住宅","midType":"产业园区","smallType":"产业园区","typecode":"120100","timestamp":"2024-08-26 18:12:49","gcjLng":121.441836,"gcjLat":31.228442,"wgs84Lng":121.437226,"wgs84Lat":31.230313,"__source_file__":"13-常用公服设施点/SHP/上海市_产业园区-点.shp"},"geometry":{"type":"Point","coordinates":[121.437226,31.230313]}},{"id":"1806","type":"Feature","properties":{"id":"859068d4-70fd-3df3-87f9-08c6e7aebbe0","pname":"上海市","pcode":310000,"cityname":"上海市","citycode":21,"adname":"黄浦区","adcode":310101,"name":"Acrobat创意园","address":"延安中路549号","location":"121.457979,31.223438","tel":"[]","business_a":"淮海路","bigType":"商务住宅","midType":"产业园区","smallType":"产业园区","typecode":"120100","timestamp":"2024-07-08 02:25:56","gcjLng":121.457979,"gcjLat":31.223438,"wgs84Lng":121.453409,"wgs84Lat":31.225344,"__source_file__":"13-常用公服设施点/SHP/上海市_产业园区-点.shp"},"geometry":{"type":"Point","coordinates":[121.453409,31.225344]}},{"id":"1728","type":"Feature","properties":{"id":"61462693-ae0e-3905-95b3-a47a5054d048","pname":"上海市","pcode":310000,"cityname":"上海市","citycode":21,"adname":"静安区","adcode":310106,"name":"东海广场招商园区","address":"愚园东路(静安寺地铁站6号口步行320米)","location":"121.448595,31.226035","tel":"[]","business_a":"曹家渡","bigType":"商务住宅","midType":"产业园区","smallType":"产业园区","typecode":"120100","timestamp":"2024-08-22 20:57:16","gcjLng":121.448595,"gcjLat":31.226035,"wgs84Lng":121.444001,"wgs84Lat":31.227919,"__source_file__":"13-常用公服设施点/SHP/上海市_产业园区-点.shp"},"geometry":{"type":"Point","coordinates":[121.444001,31.227919]}},{"id":"1729","type":"Feature","properties":{"id":"e0e8fcb7-25e8-3863-8722-53b377e75972","pname":"上海市","pcode":310000,"cityname":"上海市","citycode":21,"adname":"静安区","adcode":310106,"name":"冠生园互联网金融园区","address":"新闸路1418号","location":"121.449312,31.231319","tel":"021-62170197","business_a":"曹家渡","bigType":"商务住宅","midType":"产业园区","smallType":"产业园区","typecode":"120100","timestamp":"2024-08-23 00:19:39","gcjLng":121.449312,"gcjLat":31.231319,"wgs84Lng":121.444719,"wgs84Lat":31.233202,"__source_file__":"13-常用公服设施点/SHP/上海市_产业园区-点.shp"},"geometry":{"type":"Point","coordinates":[121.444719,31.233202]}},{"id":"1733","type":"Feature","properties":{"id":"735882d3-b374-36d9-9823-724b4776af6e","pname":"上海市","pcode":310000,"cityname":"上海市","citycode":21,"adname":"静安区","adcode":310106,"name":"源创创意园","address":"陕西北路600号","location":"121.451979,31.232759","tel":"021-60872777;021-60872789","business_a":"曹家渡","bigType":"商务住宅","midType":"产业园区","smallType":"产业园区","typecode":"120100","timestamp":"2024-08-25 00:56:30","gcjLng":121.451979,"gcjLat":31.232759,"wgs84Lng":121.447392,"wgs84Lat":31.234647,"__source_file__":"13-常用公服设施点/SHP/上海市_产业园区-点.shp"},"geometry":{"type":"Point","coordinates":[121.447392,31.234647]}},{"id":"1730","type":"Feature","properties":{"id":"f901f46d-cc0d-39c4-b0da-53d226544632","pname":"上海市","pcode":310000,"cityname":"上海市","citycode":21,"adname":"静安区","adcode":310106,"name":"东大理研","address":"武定路595号","location":"121.449347,31.232813","tel":"021-62566928","business_a":"曹家渡","bigType":"商务住宅","midType":"产业园区","smallType":"产业园区","typecode":"120100","timestamp":"2024-01-28 20:30:49","gcjLng":121.449347,"gcjLat":31.232813,"wgs84Lng":121.444754,"wgs84Lat":31.234696,"__source_file__":"13-常用公服设施点/SHP/上海市_产业园区-点.shp"},"geometry":{"type":"Point","coordinates":[121.444754,31.234696]}},{"id":"1732","type":"Feature","properties":{"id":"c9e6e06d-a94b-354c-b0e3-9a92871fd5f7","pname":"上海市","pcode":310000,"cityname":"上海市","citycode":21,"adname":"静安区","adcode":310106,"name":"锦和越界陕康里","address":"康定路358号","location":"121.449110,31.235571","tel":"[]","business_a":"曹家渡","bigType":"商务住宅","midType":"产业园区","smallType":"产业园区","typecode":"120100","timestamp":"2024-08-15 06:57:34","gcjLng":121.44911,"gcjLat":31.235571,"wgs84Lng":121.444516,"wgs84Lat":31.237452,"__source_file__":"13-常用公服设施点/SHP/上海市_产业园区-点.shp"},"geometry":{"type":"Point","coordinates":[121.444516,31.237452]}},{"id":"3956","type":"Feature","properties":{"id":"530ebf56-482e-3ff4-93ef-24e1d4c81296","pname":"上海市","pcode":310000,"cityname":"上海市","citycode":21,"adname":"静安区","adcode":310106,"name":"中亚蓝彩科技园","address":"石门二路辅路与武定路交叉口南40米","location":"121.459375,31.236386","tel":"[]","business_a":"淮海路","bigType":"商务住宅","midType":"产业园区","smallType":"产业园区","typecode":"120100","timestamp":"2024-01-18 04:51:40","gcjLng":121.459375,"gcjLat":31.236386,"wgs84Lng":121.454808,"wgs84Lat":31.238289,"__source_file__":"13-常用公服设施点/SHP/上海市_产业园区-点.shp"},"geometry":{"type":"Point","coordinates":[121.454808,31.238289]}},{"id":"3957","type":"Feature","properties":{"id":"14153cd1-e92a-327d-9b53-91a6c54b4e2b","pname":"上海市","pcode":310000,"cityname":"上海市","citycode":21,"adname":"静安区","adcode":310106,"name":"极客工社","address":"石门二路343-349号","location":"121.459363,31.236421","tel":"021-62062028;13671531929","business_a":"淮海路","bigType":"商务住宅","midType":"产业园区","smallType":"产业园区","typecode":"120100","timestamp":"2024-08-25 20:00:26","gcjLng":121.459363,"gcjLat":31.236421,"wgs84Lng":121.454796,"wgs84Lat":31.238324,"__source_file__":"13-常用公服设施点/SHP/上海市_产业园区-点.shp"},"geometry":{"type":"Point","coordinates":[121.454796,31.238324]}},{"id":"1734","type":"Feature","properties":{"id":"b3f87935-b40a-303a-a327-e9c4982db051","pname":"上海市","pcode":310000,"cityname":"上海市","citycode":21,"adname":"静安区","adcode":310106,"name":"静安江宁科创","address":"淮安路838号","location":"121.449061,31.238977","tel":"[]","business_a":"曹家渡","bigType":"商务住宅","midType":"产业园区","smallType":"产业园区","typecode":"120100","timestamp":"2024-07-21 16:30:15","gcjLng":121.449061,"gcjLat":31.238977,"wgs84Lng":121.444467,"wgs84Lat":31.240856,"__source_file__":"13-常用公服设施点/SHP/上海市_产业园区-点.shp"},"geometry":{"type":"Point","coordinates":[121.444467,31.240856]}},{"id":"1735","type":"Feature","properties":{"id":"da5c8491-c9f1-38a8-9b2e-f94896cfc0c2","pname":"上海市","pcode":310000,"cityname":"上海市","citycode":21,"adname":"静安区","adcode":310106,"name":"3乐空间","address":"淮安路735号","location":"121.450823,31.239314","tel":"[]","business_a":"曹家渡","bigType":"商务住宅","midType":"产业园区","smallType":"产业园区","typecode":"120100","timestamp":"2024-03-20 16:37:41","gcjLng":121.450823,"gcjLat":31.239314,"wgs84Lng":121.446233,"wgs84Lat":31.241197,"__source_file__":"13-常用公服设施点/SHP/上海市_产业园区-点.shp"},"geometry":{"type":"Point","coordinates":[121.446233,31.241197]}},{"id":"1405","type":"Feature","properties":{"id":"85cc2a69-0628-3b47-84e5-b692c93bdade","pname":"上海市","pcode":310000,"cityname":"上海市","citycode":21,"adname":"静安区","adcode":310106,"name":"上海市文化创意产业园区","address":"延平路与武定路交叉口东南100米","location":"121.441494,31.228607","tel":"[]","business_a":"曹家渡","bigType":"商务住宅","midType":"产业园区","smallType":"产业园区","typecode":"120100","timestamp":"2024-07-07 15:54:43","gcjLng":121.441494,"gcjLat":31.228607,"wgs84Lng":121.436884,"wgs84Lat":31.230477,"__source_file__":"13-常用公服设施点/SHP/上海市_产业园区-点.shp"},"geometry":{"type":"Point","coordinates":[121.436884,31.230477]}},{"id":"1404","type":"Feature","properties":{"id":"e1986f6a-dc4e-30c2-918d-01b6909efc5c","pname":"上海市","pcode":310000,"cityname":"上海市","citycode":21,"adname":"静安区","adcode":310106,"name":"静安盛达","address":"延平路128号","location":"121.441321,31.229148","tel":"[]","business_a":"曹家渡","bigType":"商务住宅","midType":"产业园区","smallType":"产业园区","typecode":"120100","timestamp":"2024-08-27 07:01:33","gcjLng":121.441321,"gcjLat":31.229148,"wgs84Lng":121.43671,"wgs84Lat":31.231017,"__source_file__":"13-常用公服设施点/SHP/上海市_产业园区-点.shp"},"geometry":{"type":"Point","coordinates":[121.43671,31.231017]}},{"id":"1590","type":"Feature","properties":{"id":"58a47d89-ee8f-318f-9d26-d19837b5f679","pname":"上海市","pcode":310000,"cityname":"上海市","citycode":21,"adname":"静安区","adcode":310106,"name":"开伦881创意园区","address":"武定路881号","location":"121.444771,31.230156","tel":"021-61767037","business_a":"曹家渡","bigType":"商务住宅","midType":"产业园区","smallType":"产业园区","typecode":"120100","timestamp":"2024-07-04 22:27:28","gcjLng":121.444771,"gcjLat":31.230156,"wgs84Lng":121.440168,"wgs84Lat":31.232031,"__source_file__":"13-常用公服设施点/SHP/上海市_产业园区-点.shp"},"geometry":{"type":"Point","coordinates":[121.440168,31.232031]}},{"id":"1224","type":"Feature","properties":{"id":"f006fb5c-2d12-38ad-8077-7e4a5444babf","pname":"上海市","pcode":310000,"cityname":"上海市","citycode":21,"adname":"静安区","adcode":310106,"name":"上海创意产业集聚区传媒文化园-西区","address":"昌平路1000号A栋3楼上海创意产业集聚区传媒文化园","location":"121.436655,31.232532","tel":"[]","business_a":"曹家渡","bigType":"商务住宅","midType":"产业园区","smallType":"产业园区","typecode":"120100","timestamp":"2024-02-06 11:21:05","gcjLng":121.436655,"gcjLat":31.232532,"wgs84Lng":121.432035,"wgs84Lat":31.234392,"__source_file__":"13-常用公服设施点/SHP/上海市_产业园区-点.shp"},"geometry":{"type":"Point","coordinates":[121.432035,31.234392]}},{"id":"1223","type":"Feature","properties":{"id":"5339b06d-7889-3b2d-bbed-f603dc9a8a75","pname":"上海市","pcode":310000,"cityname":"上海市","citycode":21,"adname":"静安区","adcode":310106,"name":"传媒文化园","address":"溧阳路611号1号楼5层503","location":"121.436582,31.232753","tel":"[]","business_a":"曹家渡","bigType":"商务住宅","midType":"产业园区","smallType":"产业园区","typecode":"120100","timestamp":"2024-06-21 13:19:08","gcjLng":121.436582,"gcjLat":31.232753,"wgs84Lng":121.431962,"wgs84Lat":31.234613,"__source_file__":"13-常用公服设施点/SHP/上海市_产业园区-点.shp"},"geometry":{"type":"Point","coordinates":[121.431962,31.234613]}},{"id":"1225","type":"Feature","properties":{"id":"1c17a5c5-4b7b-35a8-ad42-208d7c0743f8","pname":"上海市","pcode":310000,"cityname":"上海市","citycode":21,"adname":"静安区","adcode":310106,"name":"Build·延平路425创意园区","address":"延平路425号","location":"121.437540,31.233470","tel":"[]","business_a":"曹家渡","bigType":"商务住宅","midType":"产业园区","smallType":"产业园区","typecode":"120100","timestamp":"2024-07-02 08:50:12","gcjLng":121.43754,"gcjLat":31.23347,"wgs84Lng":121.432922,"wgs84Lat":31.235331,"__source_file__":"13-常用公服设施点/SHP/上海市_产业园区-点.shp"},"geometry":{"type":"Point","coordinates":[121.432922,31.235331]}},{"id":"1592","type":"Feature","properties":{"id":"af3f88f9-44e6-3c29-a7ff-a518fc37a874","pname":"上海市","pcode":310000,"cityname":"上海市","citycode":21,"adname":"静安区","adcode":310106,"name":"800秀","address":"常德路800号(昌平路地铁站2号口步行200米)","location":"121.443871,31.233693","tel":"[]","business_a":"曹家渡","bigType":"商务住宅","midType":"产业园区","smallType":"产业园区","typecode":"120100","timestamp":"2024-08-25 03:52:53","gcjLng":121.443871,"gcjLat":31.233693,"wgs84Lng":121.439265,"wgs84Lat":31.235565,"__source_file__":"13-常用公服设施点/SHP/上海市_产业园区-点.shp"},"geometry":{"type":"Point","coordinates":[121.439265,31.235565]}},{"id":"1222","type":"Feature","properties":{"id":"3d7d9ede-1701-3130-9ccd-908f14a5d7fb","pname":"上海市","pcode":310000,"cityname":"上海市","citycode":21,"adname":"静安区","adcode":310106,"name":"上纺物业·荣瑞园区","address":"余姚路420号(武宁路地铁站5A口步行460米)","location":"121.435674,31.234500","tel":"[]","business_a":"曹家渡","bigType":"商务住宅","midType":"产业园区","smallType":"产业园区","typecode":"120100","timestamp":"2024-02-13 15:20:22","gcjLng":121.435674,"gcjLat":31.2345,"wgs84Lng":121.431052,"wgs84Lat":31.236358,"__source_file__":"13-常用公服设施点/SHP/上海市_产业园区-点.shp"},"geometry":{"type":"Point","coordinates":[121.431052,31.236358]}},{"id":"1408","type":"Feature","properties":{"id":"26836cb9-d5c2-372f-bbc6-82849d2d9fda","pname":"上海市","pcode":310000,"cityname":"上海市","citycode":21,"adname":"静安区","adcode":310106,"name":"汇智创意园","address":"余姚路288号(昌平路地铁站5号口步行410米)","location":"121.438515,31.236092","tel":"[]","business_a":"曹家渡","bigType":"商务住宅","midType":"产业园区","smallType":"产业园区","typecode":"120100","timestamp":"2024-08-20 03:57:28","gcjLng":121.438515,"gcjLat":31.236092,"wgs84Lng":121.433898,"wgs84Lat":31.237954,"__source_file__":"13-常用公服设施点/SHP/上海市_产业园区-点.shp"},"geometry":{"type":"Point","coordinates":[121.433898,31.237954]}},{"id":"1593","type":"Feature","properties":{"id":"1822cc83-4a2b-32d5-b0cb-3d06501d2c2e","pname":"上海市","pcode":310000,"cityname":"上海市","citycode":21,"adname":"静安区","adcode":310106,"name":"UY AO55","address":"余姚路55号(近西康路)","location":"121.443322,31.236220","tel":"[]","business_a":"曹家渡","bigType":"商务住宅","midType":"产业园区","smallType":"产业园区","typecode":"120100","timestamp":"2024-07-09 04:59:56","gcjLng":121.443322,"gcjLat":31.23622,"wgs84Lng":121.438715,"wgs84Lat":31.23809,"__source_file__":"13-常用公服设施点/SHP/上海市_产业园区-点.shp"},"geometry":{"type":"Point","coordinates":[121.438715,31.23809]}},{"id":"1594","type":"Feature","properties":{"id":"2effd32e-0ed4-3e84-b44c-2e43853a445e","pname":"上海市","pcode":310000,"cityname":"上海市","citycode":21,"adname":"静安区","adcode":310106,"name":"同乐坊","address":"海防路555号","location":"121.443449,31.236989","tel":"021-52131729;021-62581475","business_a":"曹家渡","bigType":"商务住宅","midType":"产业园区","smallType":"产业园区","typecode":"120100","timestamp":"2024-08-15 20:00:27","gcjLng":121.443449,"gcjLat":31.236989,"wgs84Lng":121.438842,"wgs84Lat":31.238859,"__source_file__":"13-常用公服设施点/SHP/上海市_产业园区-点.shp"},"geometry":{"type":"Point","coordinates":[121.438842,31.238859]}},{"id":"1596","type":"Feature","properties":{"id":"f6ec7738-b08f-3884-943c-2946aa1c1a0c","pname":"上海市","pcode":310000,"cityname":"上海市","citycode":21,"adname":"静安区","adcode":310106,"name":"静工园","address":"海防路421号","location":"121.445497,31.237629","tel":"[]","business_a":"曹家渡","bigType":"商务住宅","midType":"产业园区","smallType":"产业园区","typecode":"120100","timestamp":"2024-07-30 04:46:29","gcjLng":121.445497,"gcjLat":31.237629,"wgs84Lng":121.440895,"wgs84Lat":31.239502,"__source_file__":"13-常用公服设施点/SHP/上海市_产业园区-点.shp"},"geometry":{"type":"Point","coordinates":[121.440895,31.239502]}},{"id":"1595","type":"Feature","properties":{"id":"114d95f6-2518-3e96-be50-7711fd551c60","pname":"上海市","pcode":310000,"cityname":"上海市","citycode":21,"adname":"静安区","adcode":310106,"name":"OP ACCELERATOR","address":"西康路850号B栋301","location":"121.444024,31.238210","tel":"[]","business_a":"曹家渡","bigType":"商务住宅","midType":"产业园区","smallType":"产业园区","typecode":"120100","timestamp":"2024-02-15 09:36:23","gcjLng":121.444024,"gcjLat":31.23821,"wgs84Lng":121.439418,"wgs84Lat":31.24008,"__source_file__":"13-常用公服设施点/SHP/上海市_产业园区-点.shp"},"geometry":{"type":"Point","coordinates":[121.439418,31.24008]}},{"id":"1077","type":"Feature","properties":{"id":"63a6bb08-4623-3e2b-8ece-009d814d8e7a","pname":"上海市","pcode":310000,"cityname":"上海市","citycode":21,"adname":"普陀区","adcode":310107,"name":"景源时尚产业园","address":"长寿路652号","location":"121.431635,31.239099","tel":"[]","business_a":"曹家渡","bigType":"商务住宅","midType":"产业园区","smallType":"产业园区","typecode":"120100","timestamp":"2024-08-25 19:44:57","gcjLng":121.431635,"gcjLat":31.239099,"wgs84Lng":121.427006,"wgs84Lat":31.240949,"__source_file__":"13-常用公服设施点/SHP/上海市_产业园区-点.shp"},"geometry":{"type":"Point","coordinates":[121.427006,31.240949]}},{"id":"1597","type":"Feature","properties":{"id":"c7600777-0499-3a3b-94f3-07a2169b5e4e","pname":"上海市","pcode":310000,"cityname":"上海市","citycode":21,"adname":"静安区","adcode":310106,"name":"安垦创意办公楼","address":"上海市静安区安远路285号","location":"121.443807,31.239686","tel":"[]","business_a":"曹家渡","bigType":"商务住宅","midType":"产业园区","smallType":"产业园区","typecode":"120100","timestamp":"2024-08-26 00:45:40","gcjLng":121.443807,"gcjLat":31.239686,"wgs84Lng":121.439201,"wgs84Lat":31.241555,"__source_file__":"13-常用公服设施点/SHP/上海市_产业园区-点.shp"},"geometry":{"type":"Point","coordinates":[121.439201,31.241555]}},{"id":"1410","type":"Feature","properties":{"id":"ef0ec6ab-f004-3268-917c-1ce29bc7f0f4","pname":"上海市","pcode":310000,"cityname":"上海市","citycode":21,"adname":"普陀区","adcode":310107,"name":"上海新海经济开发区","address":"西康路1018号4层7层(长寿路地铁站出入口步行390米)","location":"121.441926,31.240764","tel":"[]","business_a":"曹家渡","bigType":"商务住宅","midType":"产业园区","smallType":"产业园区","typecode":"120100","timestamp":"2024-01-20 18:42:35","gcjLng":121.441926,"gcjLat":31.240764,"wgs84Lng":121.437316,"wgs84Lat":31.242629,"__source_file__":"13-常用公服设施点/SHP/上海市_产业园区-点.shp"},"geometry":{"type":"Point","coordinates":[121.437316,31.242629]}},{"id":"1078","type":"Feature","properties":{"id":"921ada2e-f64c-3929-9ac5-0013772acebc","pname":"上海市","pcode":310000,"cityname":"上海市","citycode":21,"adname":"普陀区","adcode":310107,"name":"E仓创意产业园","address":"光复西路与东新路交叉口东100米","location":"121.430361,31.242278","tel":"[]","business_a":"曹家渡","bigType":"商务住宅","midType":"产业园区","smallType":"产业园区","typecode":"120100","timestamp":"2024-02-16 11:24:33","gcjLng":121.430361,"gcjLat":31.242278,"wgs84Lng":121.42573,"wgs84Lat":31.244125,"__source_file__":"13-常用公服设施点/SHP/上海市_产业园区-点.shp"},"geometry":{"type":"Point","coordinates":[121.42573,31.244125]}},{"id":"1079","type":"Feature","properties":{"id":"b0a8b962-266c-32a8-bcb7-c349545ff2ed","pname":"上海市","pcode":310000,"cityname":"上海市","citycode":21,"adname":"普陀区","adcode":310107,"name":"仓创意产业园区","address":"宜昌路751号(近常德路)","location":"121.430338,31.242430","tel":"[]","business_a":"曹家渡","bigType":"商务住宅","midType":"产业园区","smallType":"产业园区","typecode":"120100","timestamp":"2024-02-03 23:30:13","gcjLng":121.430338,"gcjLat":31.24243,"wgs84Lng":121.425707,"wgs84Lat":31.244277,"__source_file__":"13-常用公服设施点/SHP/上海市_产业园区-点.shp"},"geometry":{"type":"Point","coordinates":[121.425707,31.244277]}},{"id":"1226","type":"Feature","properties":{"id":"f9873995-e287-39ad-ba91-48a1fbab4190","pname":"上海市","pcode":310000,"cityname":"上海市","citycode":21,"adname":"普陀区","adcode":310107,"name":"715创意园","address":"澳门路715号(长寿路地铁站2号口步行470米)","location":"121.436488,31.242839","tel":"[]","business_a":"光新","bigType":"商务住宅","midType":"产业园区","smallType":"产业园区","typecode":"120100","timestamp":"2024-08-30 08:45:14","gcjLng":121.436488,"gcjLat":31.242839,"wgs84Lng":121.431867,"wgs84Lat":31.244694,"__source_file__":"13-常用公服设施点/SHP/上海市_产业园区-点.shp"},"geometry":{"type":"Point","coordinates":[121.431867,31.244694]}},{"id":"1414","type":"Feature","properties":{"id":"778114fb-cd82-3acf-8b86-c9dc6d8bb3a1","pname":"上海市","pcode":310000,"cityname":"上海市","citycode":21,"adname":"普陀区","adcode":310107,"name":"中华1912创意产业园","address":"澳门路477号","location":"121.440417,31.245778","tel":"021-51181912","business_a":"光新","bigType":"商务住宅","midType":"产业园区","smallType":"产业园区","typecode":"120100","timestamp":"2024-08-30 08:58:33","gcjLng":121.440417,"gcjLat":31.245778,"wgs84Lng":121.435803,"wgs84Lat":31.247638,"__source_file__":"13-常用公服设施点/SHP/上海市_产业园区-点.shp"},"geometry":{"type":"Point","coordinates":[121.435803,31.247638]}},{"id":"1736","type":"Feature","properties":{"id":"bc0e8c0e-bcc4-3b78-986c-499364a7d25e","pname":"上海市","pcode":310000,"cityname":"上海市","citycode":21,"adname":"静安区","adcode":310106,"name":"三乐园区","address":"淮安路717号","location":"121.451149,31.239448","tel":"[]","business_a":"曹家渡","bigType":"商务住宅","midType":"产业园区","smallType":"产业园区","typecode":"120100","timestamp":"2024-03-20 16:36:59","gcjLng":121.451149,"gcjLat":31.239448,"wgs84Lng":121.44656,"wgs84Lat":31.241331,"__source_file__":"13-常用公服设施点/SHP/上海市_产业园区-点.shp"},"geometry":{"type":"Point","coordinates":[121.44656,31.241331]}},{"id":"1737","type":"Feature","properties":{"id":"9bc4eab7-5c5b-350d-aeb5-4085f34d4f98","pname":"上海市","pcode":310000,"cityname":"上海市","citycode":21,"adname":"静安区","adcode":310106,"name":"717工坊A楼","address":"海防路与句容路交叉口东南100米","location":"121.451237,31.239689","tel":"[]","business_a":"曹家渡","bigType":"商务住宅","midType":"产业园区","smallType":"产业园区","typecode":"120100","timestamp":"2024-01-18 03:48:10","gcjLng":121.451237,"gcjLat":31.239689,"wgs84Lng":121.446648,"wgs84Lat":31.241572,"__source_file__":"13-常用公服设施点/SHP/上海市_产业园区-点.shp"},"geometry":{"type":"Point","coordinates":[121.446648,31.241572]}},{"id":"1598","type":"Feature","properties":{"id":"51482b2f-c45e-32e8-b81f-b71e516bcce5","pname":"上海市","pcode":310000,"cityname":"上海市","citycode":21,"adname":"静安区","adcode":310106,"name":"中国电气装备集团总部园区","address":"新丰路与江宁路交叉口西60米","location":"121.446569,31.240210","tel":"[]","business_a":"曹家渡","bigType":"商务住宅","midType":"产业园区","smallType":"产业园区","typecode":"120100","timestamp":"2024-06-15 10:11:59","gcjLng":121.446569,"gcjLat":31.24021,"wgs84Lng":121.441969,"wgs84Lat":31.242084,"__source_file__":"13-常用公服设施点/SHP/上海市_产业园区-点.shp"},"geometry":{"type":"Point","coordinates":[121.441969,31.242084]}},{"id":"1738","type":"Feature","properties":{"id":"d0652201-750e-3a14-b849-cf2406ce2d9e","pname":"上海市","pcode":310000,"cityname":"上海市","citycode":21,"adname":"静安区","adcode":310106,"name":"静安江宁开发园区","address":"江宁路826弄5号4层","location":"121.448256,31.240493","tel":"[]","business_a":"曹家渡","bigType":"商务住宅","midType":"产业园区","smallType":"产业园区","typecode":"120100","timestamp":"2024-07-02 17:51:12","gcjLng":121.448256,"gcjLat":31.240493,"wgs84Lng":121.44366,"wgs84Lat":31.24237,"__source_file__":"13-常用公服设施点/SHP/上海市_产业园区-点.shp"},"geometry":{"type":"Point","coordinates":[121.44366,31.24237]}},{"id":"1739","type":"Feature","properties":{"id":"88719b23-d7c9-3df2-a59a-dc54bb45e54c","pname":"上海市","pcode":310000,"cityname":"上海市","citycode":21,"adname":"静安区","adcode":310106,"name":"上海机床科技工业园","address":"淮安路681号","location":"121.452263,31.240671","tel":"[]","business_a":"曹家渡","bigType":"商务住宅","midType":"产业园区","smallType":"产业园区","typecode":"120100","timestamp":"2024-01-23 14:40:24","gcjLng":121.452263,"gcjLat":31.240671,"wgs84Lng":121.447676,"wgs84Lat":31.242556,"__source_file__":"13-常用公服设施点/SHP/上海市_产业园区-点.shp"},"geometry":{"type":"Point","coordinates":[121.447676,31.242556]}},{"id":"1600","type":"Feature","properties":{"id":"7fc2b05b-6659-3f41-9a57-469ee5884cf7","pname":"上海市","pcode":310000,"cityname":"上海市","citycode":21,"adname":"静安区","adcode":310106,"name":"上海市文化创意产业园区(昌化路)","address":"昌化路667号(江宁路地铁站3号口步行430米)","location":"121.447319,31.241431","tel":"[]","business_a":"曹家渡","bigType":"商务住宅","midType":"产业园区","smallType":"产业园区","typecode":"120100","timestamp":"2024-01-20 05:26:52","gcjLng":121.447319,"gcjLat":31.241431,"wgs84Lng":121.44272,"wgs84Lat":31.243306,"__source_file__":"13-常用公服设施点/SHP/上海市_产业园区-点.shp"},"geometry":{"type":"Point","coordinates":[121.44272,31.243306]}},{"id":"1740","type":"Feature","properties":{"id":"18276ae8-7f18-3688-aa50-b8d7b850956e","pname":"上海市","pcode":310000,"cityname":"上海市","citycode":21,"adname":"静安区","adcode":310106,"name":"KYMS(达安·河畔雅苑店)","address":"安远路1号达安商务楼","location":"121.449631,31.242602","tel":"[]","business_a":"曹家渡","bigType":"商务住宅","midType":"产业园区","smallType":"产业园区|购物服务","typecode":"120100|060000","timestamp":"2024-02-02 19:00:17","gcjLng":121.449631,"gcjLat":31.242602,"wgs84Lng":121.445038,"wgs84Lat":31.244481,"__source_file__":"13-常用公服设施点/SHP/上海市_产业园区-点.shp"},"geometry":{"type":"Point","coordinates":[121.445038,31.244481]}},{"id":"1807","type":"Feature","properties":{"id":"8de8c06b-281a-305d-a46f-1cee2bbf3ec0","pname":"上海市","pcode":310000,"cityname":"上海市","citycode":21,"adname":"静安区","adcode":310106,"name":"静安区创业之路产业园","address":"共和路219号2703室","location":"121.458051,31.244623","tel":"[]","business_a":"[]","bigType":"商务住宅","midType":"产业园区","smallType":"产业园区","typecode":"120100","timestamp":"2024-08-16 09:56:10","gcjLng":121.458051,"gcjLat":31.244623,"wgs84Lng":121.453479,"wgs84Lat":31.246519,"__source_file__":"13-常用公服设施点/SHP/上海市_产业园区-点.shp"},"geometry":{"type":"Point","coordinates":[121.453479,31.246519]}},{"id":"1743","type":"Feature","properties":{"id":"842ffc16-6d3b-3ec9-8730-ae63a1e73499","pname":"上海市","pcode":310000,"cityname":"上海市","citycode":21,"adname":"静安区","adcode":310106,"name":"金岸610","address":"恒丰路610号(上海火车站地铁站3号口步行420米)","location":"121.451033,31.247223","tel":"[]","business_a":"[]","bigType":"商务住宅","midType":"产业园区","smallType":"产业园区","typecode":"120100","timestamp":"2024-08-24 19:47:59","gcjLng":121.451033,"gcjLat":31.247223,"wgs84Lng":121.446443,"wgs84Lat":31.249103,"__source_file__":"13-常用公服设施点/SHP/上海市_产业园区-点.shp"},"geometry":{"type":"Point","coordinates":[121.446443,31.249103]}},{"id":"1741","type":"Feature","properties":{"id":"0174a78c-faab-37d5-abe3-af4318d3a32c","pname":"上海市","pcode":310000,"cityname":"上海市","citycode":21,"adname":"普陀区","adcode":310107,"name":"m50","address":"莫干山路与西苏州路交叉口西北100米","location":"121.448568,31.247637","tel":"[]","business_a":"光新","bigType":"商务住宅","midType":"产业园区","smallType":"产业园区","typecode":"120100","timestamp":"2024-02-03 21:35:48","gcjLng":121.448568,"gcjLat":31.247637,"wgs84Lng":121.443972,"wgs84Lat":31.249511,"__source_file__":"13-常用公服设施点/SHP/上海市_产业园区-点.shp"},"geometry":{"type":"Point","coordinates":[121.443972,31.249511]}},{"id":"1744","type":"Feature","properties":{"id":"ede5f5c0-1aff-319a-a898-ecf0f3bc47a3","pname":"上海市","pcode":310000,"cityname":"上海市","citycode":21,"adname":"静安区","adcode":310106,"name":"蓝天经济城","address":"恒丰路638号苏河一号(上海火车站地铁站3号口步行440米)","location":"121.451419,31.248018","tel":"[]","business_a":"[]","bigType":"商务住宅","midType":"产业园区","smallType":"产业园区","typecode":"120100","timestamp":"2024-07-06 23:03:09","gcjLng":121.451419,"gcjLat":31.248018,"wgs84Lng":121.44683,"wgs84Lat":31.249898,"__source_file__":"13-常用公服设施点/SHP/上海市_产业园区-点.shp"},"geometry":{"type":"Point","coordinates":[121.44683,31.249898]}},{"id":"1745","type":"Feature","properties":{"id":"a5195a88-1919-30cb-bc59-38e7d0c81691","pname":"上海市","pcode":310000,"cityname":"上海市","citycode":21,"adname":"静安区","adcode":310106,"name":"苏河1号","address":"恒丰路630-698号(上海火车站地铁站3号口步行420米)","location":"121.451518,31.248081","tel":"[]","business_a":"[]","bigType":"商务住宅","midType":"产业园区","smallType":"产业园区","typecode":"120100","timestamp":"2024-08-27 00:45:10","gcjLng":121.451518,"gcjLat":31.248081,"wgs84Lng":121.446929,"wgs84Lat":31.249961,"__source_file__":"13-常用公服设施点/SHP/上海市_产业园区-点.shp"},"geometry":{"type":"Point","coordinates":[121.446929,31.249961]}},{"id":"1742","type":"Feature","properties":{"id":"959f2ee0-b7df-3f99-a22a-a37573b850b8","pname":"上海市","pcode":310000,"cityname":"上海市","citycode":21,"adname":"普陀区","adcode":310107,"name":"M50创意园(莫干山路店)0号楼","address":"莫干山路50号上海M50创意园","location":"121.449771,31.248273","tel":"[]","business_a":"光新","bigType":"商务住宅","midType":"产业园区","smallType":"产业园区","typecode":"120100","timestamp":"2024-07-15 15:40:19","gcjLng":121.449771,"gcjLat":31.248273,"wgs84Lng":121.445178,"wgs84Lat":31.25015,"__source_file__":"13-常用公服设施点/SHP/上海市_产业园区-点.shp"},"geometry":{"type":"Point","coordinates":[121.445178,31.25015]}},{"id":"1746","type":"Feature","properties":{"id":"53ba6cee-ffce-3ffb-af47-5f0c65a99c66","pname":"上海市","pcode":310000,"cityname":"上海市","citycode":21,"adname":"静安区","adcode":310106,"name":"上海摄影器材创意产业园","address":"秣陵路与长安路交叉口北80米","location":"121.453357,31.248592","tel":"[]","business_a":"[]","bigType":"商务住宅","midType":"产业园区","smallType":"产业园区","typecode":"120100","timestamp":"2024-02-13 10:45:02","gcjLng":121.453357,"gcjLat":31.248592,"wgs84Lng":121.448773,"wgs84Lat":31.250476,"__source_file__":"13-常用公服设施点/SHP/上海市_产业园区-点.shp"},"geometry":{"type":"Point","coordinates":[121.448773,31.250476]}},{"id":"1601","type":"Feature","properties":{"id":"1f069ae2-372f-33bf-974c-35b1dcc6ec79","pname":"上海市","pcode":310000,"cityname":"上海市","citycode":21,"adname":"普陀区","adcode":310107,"name":"格林德必易园","address":"中山北路1238号","location":"121.445669,31.256859","tel":"[]","business_a":"光新","bigType":"商务住宅","midType":"产业园区","smallType":"产业园区","typecode":"120100","timestamp":"2024-07-09 05:02:55","gcjLng":121.445669,"gcjLat":31.256859,"wgs84Lng":121.441065,"wgs84Lat":31.258724,"__source_file__":"13-常用公服设施点/SHP/上海市_产业园区-点.shp"},"geometry":{"type":"Point","coordinates":[121.441065,31.258724]}},{"id":"1602","type":"Feature","properties":{"id":"cd0f0f71-f70b-3c10-8f65-b164d4dc9ec2","pname":"上海市","pcode":310000,"cityname":"上海市","citycode":21,"adname":"普陀区","adcode":310107,"name":"苏河文化创意产业园","address":"中山北路与骊山路交叉口东南40米","location":"121.445726,31.257081","tel":"[]","business_a":"光新","bigType":"商务住宅","midType":"产业园区","smallType":"产业园区","typecode":"120100","timestamp":"2024-02-10 12:22:14","gcjLng":121.445726,"gcjLat":31.257081,"wgs84Lng":121.441122,"wgs84Lat":31.258946,"__source_file__":"13-常用公服设施点/SHP/上海市_产业园区-点.shp"},"geometry":{"type":"Point","coordinates":[121.441122,31.258946]}},{"id":"1808","type":"Feature","properties":{"id":"ba3ef16a-89b7-360e-9f20-00bd27b6d047","pname":"上海市","pcode":310000,"cityname":"上海市","citycode":21,"adname":"静安区","adcode":310106,"name":"浩翔都市型工业园区3","address":"普善路与毛家弄交叉口南120米","location":"121.454806,31.257503","tel":"[]","business_a":"和田","bigType":"商务住宅","midType":"产业园区","smallType":"产业园区","typecode":"120100","timestamp":"2024-02-10 11:25:58","gcjLng":121.454806,"gcjLat":31.257503,"wgs84Lng":121.450225,"wgs84Lat":31.259386,"__source_file__":"13-常用公服设施点/SHP/上海市_产业园区-点.shp"},"geometry":{"type":"Point","coordinates":[121.450225,31.259386]}},{"id":"1747","type":"Feature","properties":{"id":"98d1023b-fb5f-3134-b1bc-5a69a8292a5f","pname":"上海市","pcode":310000,"cityname":"上海市","citycode":21,"adname":"静安区","adcode":310106,"name":"988园区","address":"内环高架路入口与中山北路交叉口东200米","location":"121.452509,31.258391","tel":"[]","business_a":"和田","bigType":"商务住宅","midType":"产业园区","smallType":"产业园区","typecode":"120100","timestamp":"2024-08-20 03:58:58","gcjLng":121.452509,"gcjLat":31.258391,"wgs84Lng":121.447921,"wgs84Lat":31.260269,"__source_file__":"13-常用公服设施点/SHP/上海市_产业园区-点.shp"},"geometry":{"type":"Point","coordinates":[121.447921,31.260269]}},{"id":"1809","type":"Feature","properties":{"id":"a029f113-5af4-3bbb-962f-555a44249a4f","pname":"上海市","pcode":310000,"cityname":"上海市","citycode":21,"adname":"静安区","adcode":310106,"name":"欣普都市工业园区","address":"普善路300号","location":"121.453766,31.258436","tel":"[]","business_a":"和田","bigType":"商务住宅","midType":"产业园区","smallType":"产业园区","typecode":"120100","timestamp":"2024-06-27 13:40:17","gcjLng":121.453766,"gcjLat":31.258436,"wgs84Lng":121.449182,"wgs84Lat":31.260316,"__source_file__":"13-常用公服设施点/SHP/上海市_产业园区-点.shp"},"geometry":{"type":"Point","coordinates":[121.449182,31.260316]}},{"id":"1604","type":"Feature","properties":{"id":"457dbc68-af7c-34a3-a6af-13028a39e8ab","pname":"上海市","pcode":310000,"cityname":"上海市","citycode":21,"adname":"静安区","adcode":310106,"name":"汇智印针园区","address":"沪太路与华阴路交叉口西北120米","location":"121.446987,31.262361","tel":"[]","business_a":"和田","bigType":"商务住宅","midType":"产业园区","smallType":"产业园区","typecode":"120100","timestamp":"2024-03-11 12:48:41","gcjLng":121.446987,"gcjLat":31.262361,"wgs84Lng":121.442386,"wgs84Lat":31.264226,"__source_file__":"13-常用公服设施点/SHP/上海市_产业园区-点.shp"},"geometry":{"type":"Point","coordinates":[121.442386,31.264226]}},{"id":"1413","type":"Feature","properties":{"id":"c53a9e63-6870-3171-88f5-f242afbff968","pname":"上海市","pcode":310000,"cityname":"上海市","citycode":21,"adname":"普陀区","adcode":310107,"name":"上海市文化创意产业园区","address":"澳门路与陕西北路交叉口东北120米","location":"121.440158,31.245826","tel":"[]","business_a":"光新","bigType":"商务住宅","midType":"产业园区","smallType":"产业园区","typecode":"120100","timestamp":"2024-01-26 01:32:20","gcjLng":121.440158,"gcjLat":31.245826,"wgs84Lng":121.435544,"wgs84Lat":31.247686,"__source_file__":"13-常用公服设施点/SHP/上海市_产业园区-点.shp"},"geometry":{"type":"Point","coordinates":[121.435544,31.247686]}},{"id":"1081","type":"Feature","properties":{"id":"278b8b73-71a4-3e37-86d3-185cf8347576","pname":"上海市","pcode":310000,"cityname":"上海市","citycode":21,"adname":"普陀区","adcode":310107,"name":"普陀石泉开业园区","address":"岚皋路166弄镇坪路赵家宅25号","location":"121.427104,31.250568","tel":"[]","business_a":"光新","bigType":"商务住宅","midType":"产业园区","smallType":"产业园区","typecode":"120100","timestamp":"2024-03-01 08:53:11","gcjLng":121.427104,"gcjLat":31.250568,"wgs84Lng":121.422467,"wgs84Lat":31.252408,"__source_file__":"13-常用公服设施点/SHP/上海市_产业园区-点.shp"},"geometry":{"type":"Point","coordinates":[121.422467,31.252408]}},{"id":"1417","type":"Feature","properties":{"id":"d037cfa5-3791-318b-a5ce-9a11ea0db59f","pname":"上海市","pcode":310000,"cityname":"上海市","citycode":21,"adname":"普陀区","adcode":310107,"name":"普陀宜川开业园区","address":"华阴路288号","location":"121.441710,31.258882","tel":"[]","business_a":"光新","bigType":"商务住宅","midType":"产业园区","smallType":"产业园区","typecode":"120100","timestamp":"2024-02-08 18:16:12","gcjLng":121.44171,"gcjLat":31.258882,"wgs84Lng":121.437098,"wgs84Lat":31.260739,"__source_file__":"13-常用公服设施点/SHP/上海市_产业园区-点.shp"},"geometry":{"type":"Point","coordinates":[121.437098,31.260739]}},{"id":"1419","type":"Feature","properties":{"id":"9a4380ba-b162-39ed-9186-fa6333bf19e9","pname":"上海市","pcode":310000,"cityname":"上海市","citycode":21,"adname":"普陀区","adcode":310107,"name":"上海市崇明工业园第二招商服务中心","address":"合阳路88号崇明工业园区","location":"121.439962,31.266218","tel":"[]","business_a":"大宁路","bigType":"商务住宅","midType":"产业园区","smallType":"产业园区","typecode":"120100","timestamp":"2024-03-24 10:21:52","gcjLng":121.439962,"gcjLat":31.266218,"wgs84Lng":121.435345,"wgs84Lat":31.268069,"__source_file__":"13-常用公服设施点/SHP/上海市_产业园区-点.shp"},"geometry":{"type":"Point","coordinates":[121.435345,31.268069]}},{"id":"1607","type":"Feature","properties":{"id":"89566f11-19c3-325a-ac2b-5693bd7a0d04","pname":"上海市","pcode":310000,"cityname":"上海市","citycode":21,"adname":"静安区","adcode":310106,"name":"新华园","address":"沪太路785号","location":"121.444676,31.266614","tel":"021-36363336","business_a":"大宁路","bigType":"商务住宅","midType":"产业园区","smallType":"产业园区","typecode":"120100","timestamp":"2024-08-17 19:50:17","gcjLng":121.444676,"gcjLat":31.266614,"wgs84Lng":121.440069,"wgs84Lat":31.268473,"__source_file__":"13-常用公服设施点/SHP/上海市_产业园区-点.shp"},"geometry":{"type":"Point","coordinates":[121.440069,31.268473]}},{"id":"1606","type":"Feature","properties":{"id":"34e68d8a-f776-3820-9d22-2b99ff0c5806","pname":"上海市","pcode":310000,"cityname":"上海市","citycode":21,"adname":"静安区","adcode":310106,"name":"新慧谷科技产业园","address":"沪太路799号","location":"121.444139,31.266640","tel":"[]","business_a":"大宁路","bigType":"商务住宅","midType":"产业园区","smallType":"产业园区","typecode":"120100","timestamp":"2024-08-23 21:38:08","gcjLng":121.444139,"gcjLat":31.26664,"wgs84Lng":121.439531,"wgs84Lat":31.268498,"__source_file__":"13-常用公服设施点/SHP/上海市_产业园区-点.shp"},"geometry":{"type":"Point","coordinates":[121.439531,31.268498]}},{"id":"1605","type":"Feature","properties":{"id":"82c91de1-0442-389e-95d6-7d135bda24ba","pname":"上海市","pcode":310000,"cityname":"上海市","citycode":21,"adname":"静安区","adcode":310106,"name":"交大科技园静安分园","address":"沪太路与延长中路交叉口北120米","location":"121.444110,31.266642","tel":"[]","business_a":"大宁路","bigType":"商务住宅","midType":"产业园区","smallType":"产业园区","typecode":"120100","timestamp":"2024-06-04 22:31:38","gcjLng":121.44411,"gcjLat":31.266642,"wgs84Lng":121.439502,"wgs84Lat":31.2685,"__source_file__":"13-常用公服设施点/SHP/上海市_产业园区-点.shp"},"geometry":{"type":"Point","coordinates":[121.439502,31.2685]}},{"id":"99","type":"Feature","properties":{"id":"e91deb92-c83b-3988-bc45-7d6a5d7c06f5","pname":"上海市","pcode":310000,"cityname":"上海市","citycode":21,"adname":"静安区","adcode":310106,"name":"上坊物业·名仕街创意园区","address":"洛川中路1158号(近沪太路)","location":"121.448944,31.262580","tel":"[]","business_a":"和田","bigType":"商务住宅","midType":"产业园区","smallType":"产业园区|生活服务","typecode":"120100|070000","timestamp":"2024-08-24 03:24:06","gcjLng":121.448944,"gcjLat":31.26258,"wgs84Lng":121.444347,"wgs84Lat":31.264449,"__source_file__":"13-常用公服设施点/SHP/上海市_产业园区-点.shp"},"geometry":{"type":"Point","coordinates":[121.444347,31.264449]}},{"id":"1748","type":"Feature","properties":{"id":"69457bce-acfc-3115-9641-b1911edd9e2e","pname":"上海市","pcode":310000,"cityname":"上海市","citycode":21,"adname":"静安区","adcode":310106,"name":"名仕街时尚创意园","address":"沪太路与华阴路交叉口东北180米","location":"121.448738,31.262696","tel":"[]","business_a":"和田","bigType":"商务住宅","midType":"产业园区","smallType":"产业园区","typecode":"120100","timestamp":"2024-08-01 10:03:04","gcjLng":121.448738,"gcjLat":31.262696,"wgs84Lng":121.444141,"wgs84Lat":31.264564,"__source_file__":"13-常用公服设施点/SHP/上海市_产业园区-点.shp"},"geometry":{"type":"Point","coordinates":[121.444141,31.264564]}},{"id":"1749","type":"Feature","properties":{"id":"fea1083a-2008-35fa-9278-00c14da63bd2","pname":"上海市","pcode":310000,"cityname":"上海市","citycode":21,"adname":"静安区","adcode":310106,"name":"上坊物业·名仕街创意园区B3号楼","address":"洛川中路1158号(近沪太路)上坊物业·名仕街创意园区","location":"121.448423,31.262841","tel":"[]","business_a":"和田","bigType":"商务住宅","midType":"产业园区","smallType":"产业园区","typecode":"120100","timestamp":"2024-01-20 04:01:57","gcjLng":121.448423,"gcjLat":31.262841,"wgs84Lng":121.443825,"wgs84Lat":31.264708,"__source_file__":"13-常用公服设施点/SHP/上海市_产业园区-点.shp"},"geometry":{"type":"Point","coordinates":[121.443825,31.264708]}},{"id":"1750","type":"Feature","properties":{"id":"afd6fa89-55d5-3544-a757-7343ad1c3b1b","pname":"上海市","pcode":310000,"cityname":"上海市","citycode":21,"adname":"静安区","adcode":310106,"name":"H671园区","address":"沪太路671号","location":"121.447669,31.263059","tel":"021-56539223","business_a":"和田","bigType":"商务住宅","midType":"产业园区","smallType":"产业园区","typecode":"120100","timestamp":"2024-07-28 00:51:17","gcjLng":121.447669,"gcjLat":31.263059,"wgs84Lng":121.443069,"wgs84Lat":31.264925,"__source_file__":"13-常用公服设施点/SHP/上海市_产业园区-点.shp"},"geometry":{"type":"Point","coordinates":[121.443069,31.264925]}},{"id":"1608","type":"Feature","properties":{"id":"4f7e09e7-774c-3057-9b3a-b84a231bd91c","pname":"上海市","pcode":310000,"cityname":"上海市","citycode":21,"adname":"静安区","adcode":310106,"name":"国媒中心(上海国际新媒体产业基地)","address":"沪太路701号","location":"121.446731,31.263633","tel":"021-33773999","business_a":"大宁路","bigType":"商务住宅","midType":"产业园区","smallType":"产业园区","typecode":"120100","timestamp":"2024-08-26 00:36:03","gcjLng":121.446731,"gcjLat":31.263633,"wgs84Lng":121.442129,"wgs84Lat":31.265497,"__source_file__":"13-常用公服设施点/SHP/上海市_产业园区-点.shp"},"geometry":{"type":"Point","coordinates":[121.442129,31.265497]}},{"id":"1609","type":"Feature","properties":{"id":"5de57933-e896-3e3a-9588-a5c16552fab3","pname":"上海市","pcode":310000,"cityname":"上海市","citycode":21,"adname":"静安区","adcode":310106,"name":"上海国际新媒体产业基地","address":"洛川中路1001号(近沪太路)","location":"121.447337,31.263918","tel":"[]","business_a":"大宁路","bigType":"商务住宅","midType":"产业园区","smallType":"产业园区","typecode":"120100","timestamp":"2024-07-28 21:12:49","gcjLng":121.447337,"gcjLat":31.263918,"wgs84Lng":121.442736,"wgs84Lat":31.265783,"__source_file__":"13-常用公服设施点/SHP/上海市_产业园区-点.shp"},"geometry":{"type":"Point","coordinates":[121.442736,31.265783]}},{"id":"1751","type":"Feature","properties":{"id":"4f17c298-0bbe-3a02-b97e-3068906de574","pname":"上海市","pcode":310000,"cityname":"上海市","citycode":21,"adname":"静安区","adcode":310106,"name":"E构空间产业园区","address":"洛川中路840号","location":"121.451987,31.265525","tel":"[]","business_a":"和田","bigType":"商务住宅","midType":"产业园区","smallType":"产业园区","typecode":"120100","timestamp":"2024-08-23 21:20:24","gcjLng":121.451987,"gcjLat":31.265525,"wgs84Lng":121.447398,"wgs84Lat":31.267399,"__source_file__":"13-常用公服设施点/SHP/上海市_产业园区-点.shp"},"geometry":{"type":"Point","coordinates":[121.447398,31.267399]}},{"id":"3972","type":"Feature","properties":{"id":"aa596cf2-a0d8-307a-9476-36dc5f896ef4","pname":"上海市","pcode":310000,"cityname":"上海市","citycode":21,"adname":"静安区","adcode":310106,"name":"红墙创意园","address":"共和新路1481号","location":"121.459061,31.267117","tel":"021-56905903","business_a":"和田","bigType":"商务住宅","midType":"产业园区","smallType":"产业园区","typecode":"120100","timestamp":"2024-08-28 13:47:43","gcjLng":121.459061,"gcjLat":31.267117,"wgs84Lng":121.45449,"wgs84Lat":31.269006,"__source_file__":"13-常用公服设施点/SHP/上海市_产业园区-点.shp"},"geometry":{"type":"Point","coordinates":[121.45449,31.269006]}},{"id":"1610","type":"Feature","properties":{"id":"6ee395dc-c384-333a-ae8a-4fbaf23c2ad6","pname":"上海市","pcode":310000,"cityname":"上海市","citycode":21,"adname":"静安区","adcode":310106,"name":"都市工业","address":"延长中路625号","location":"121.448417,31.269297","tel":"[]","business_a":"大宁路","bigType":"商务住宅","midType":"产业园区","smallType":"产业园区","typecode":"120100","timestamp":"2024-07-07 07:29:08","gcjLng":121.448417,"gcjLat":31.269297,"wgs84Lng":121.443818,"wgs84Lat":31.271162,"__source_file__":"13-常用公服设施点/SHP/上海市_产业园区-点.shp"},"geometry":{"type":"Point","coordinates":[121.443818,31.271162]}},{"id":"3954","type":"Feature","properties":{"id":"dce9a80f-a3ee-3d1b-8776-539811dadc9b","pname":"上海市","pcode":310000,"cityname":"上海市","citycode":21,"adname":"静安区","adcode":310106,"name":"天壹坊创意园","address":"延安中路596号(南京西路地铁站8号口步行430米)","location":"121.462430,31.224393","tel":"[]","business_a":"淮海路","bigType":"商务住宅","midType":"产业园区","smallType":"产业园区","typecode":"120100","timestamp":"2024-07-10 12:05:01","gcjLng":121.46243,"gcjLat":31.224393,"wgs84Lng":121.457873,"wgs84Lat":31.226309,"__source_file__":"13-常用公服设施点/SHP/上海市_产业园区-点.shp"},"geometry":{"type":"Point","coordinates":[121.457873,31.226309]}},{"id":"3953","type":"Feature","properties":{"id":"ed2ef591-2b21-3e30-82ce-e501c4f8f83e","pname":"上海市","pcode":310000,"cityname":"上海市","citycode":21,"adname":"静安区","adcode":310106,"name":"YoungSquare 茂名65","address":"茂名北路65号(南京西路地铁站12号口步行230米)","location":"121.460576,31.224923","tel":"[]","business_a":"淮海路","bigType":"商务住宅","midType":"产业园区","smallType":"产业园区","typecode":"120100","timestamp":"2024-07-02 20:09:14","gcjLng":121.460576,"gcjLat":31.224923,"wgs84Lng":121.456013,"wgs84Lat":31.226834,"__source_file__":"13-常用公服设施点/SHP/上海市_产业园区-点.shp"},"geometry":{"type":"Point","coordinates":[121.456013,31.226834]}},{"id":"4158","type":"Feature","properties":{"id":"01af1ea9-ccda-3979-a9a3-c0c3189c62a2","pname":"上海市","pcode":310000,"cityname":"上海市","citycode":21,"adname":"黄浦区","adcode":310101,"name":"228文化创意园","address":"大沽路288号(淮海中路人民广场南京西路上海电视台)","location":"121.468599,31.226040","tel":"17610903189","business_a":"北京路","bigType":"商务住宅","midType":"产业园区","smallType":"产业园区","typecode":"120100","timestamp":"2024-07-10 07:45:25","gcjLng":121.468599,"gcjLat":31.22604,"wgs84Lng":121.46406,"wgs84Lat":31.227971,"__source_file__":"13-常用公服设施点/SHP/上海市_产业园区-点.shp"},"geometry":{"type":"Point","coordinates":[121.46406,31.227971]}},{"id":"2425","type":"Feature","properties":{"id":"cd0f375e-d191-3134-8b94-6c77ab5b73ef","pname":"上海市","pcode":310000,"cityname":"上海市","citycode":21,"adname":"黄浦区","adcode":310101,"name":"上海北郊未来产业园科创会客厅","address":"北京西路1号(人民广场地铁站19号口步行370米)","location":"121.473235,31.237339","tel":"[]","business_a":"北京路","bigType":"商务住宅","midType":"产业园区","smallType":"产业园区","typecode":"120100","timestamp":"2024-02-12 13:34:16","gcjLng":121.473235,"gcjLat":31.237339,"wgs84Lng":121.46871,"wgs84Lat":31.239277,"__source_file__":"13-常用公服设施点/SHP/上海市_产业园区-点.shp"},"geometry":{"type":"Point","coordinates":[121.46871,31.239277]}},{"id":"3963","type":"Feature","properties":{"id":"e2dd5923-0412-3ddb-aa27-a9618c1be8ce","pname":"上海市","pcode":310000,"cityname":"上海市","citycode":21,"adname":"静安区","adcode":310106,"name":"1501 Art Studio","address":"上海市石门二路街道南苏州路1501号","location":"121.460483,31.238754","tel":"[]","business_a":"[]","bigType":"商务住宅","midType":"产业园区","smallType":"产业园区","typecode":"120100","timestamp":"2024-08-30 01:26:50","gcjLng":121.460483,"gcjLat":31.238754,"wgs84Lng":121.455919,"wgs84Lat":31.240659,"__source_file__":"13-常用公服设施点/SHP/上海市_产业园区-点.shp"},"geometry":{"type":"Point","coordinates":[121.455919,31.240659]}},{"id":"4173","type":"Feature","properties":{"id":"34d34d76-1cf6-3b77-a514-0dd2444ae749","pname":"上海市","pcode":310000,"cityname":"上海市","citycode":21,"adname":"静安区","adcode":310106,"name":"上海创意产业集聚区创意仓库","address":"光复路195(新闸路地铁站1号口步行280米)","location":"121.468649,31.240166","tel":"[]","business_a":"北京路","bigType":"商务住宅","midType":"产业园区","smallType":"产业园区","typecode":"120100","timestamp":"2024-07-05 22:51:23","gcjLng":121.468649,"gcjLat":31.240166,"wgs84Lng":121.464109,"wgs84Lat":31.24209,"__source_file__":"13-常用公服设施点/SHP/上海市_产业园区-点.shp"},"geometry":{"type":"Point","coordinates":[121.464109,31.24209]}},{"id":"3964","type":"Feature","properties":{"id":"16b8b4e0-8f13-33bc-96c6-23299ae85239","pname":"上海市","pcode":310000,"cityname":"上海市","citycode":21,"adname":"静安区","adcode":310106,"name":"盛醒Same Wak创意园","address":"南苏州路1455号(自然博物馆地铁站3号口步行460米)","location":"121.461264,31.240223","tel":"[]","business_a":"北京路","bigType":"商务住宅","midType":"产业园区","smallType":"产业园区","typecode":"120100","timestamp":"2024-08-19 00:47:51","gcjLng":121.461264,"gcjLat":31.240223,"wgs84Lng":121.456702,"wgs84Lat":31.242129,"__source_file__":"13-常用公服设施点/SHP/上海市_产业园区-点.shp"},"geometry":{"type":"Point","coordinates":[121.456702,31.242129]}},{"id":"4170","type":"Feature","properties":{"id":"30d0f68f-adc7-31c9-8470-0f397d0ddbd7","pname":"上海市","pcode":310000,"cityname":"上海市","citycode":21,"adname":"黄浦区","adcode":310101,"name":"南苏河创意园区","address":"南苏州路1305号(新闸路地铁站1号口步行390米)","location":"121.464636,31.240602","tel":"021-63724073","business_a":"北京路","bigType":"商务住宅","midType":"产业园区","smallType":"产业园区","typecode":"120100","timestamp":"2024-08-27 13:55:09","gcjLng":121.464636,"gcjLat":31.240602,"wgs84Lng":121.460084,"wgs84Lat":31.242516,"__source_file__":"13-常用公服设施点/SHP/上海市_产业园区-点.shp"},"geometry":{"type":"Point","coordinates":[121.460084,31.242516]}},{"id":"4171","type":"Feature","properties":{"id":"b3c5477a-a841-310b-a585-f96fc016dd83","pname":"上海市","pcode":310000,"cityname":"上海市","citycode":21,"adname":"黄浦区","adcode":310101,"name":"南苏河创意产业集聚区","address":"南苏州路与成都北路交叉口东120米","location":"121.464730,31.240762","tel":"[]","business_a":"北京路","bigType":"商务住宅","midType":"产业园区","smallType":"产业园区","typecode":"120100","timestamp":"2024-07-09 04:07:52","gcjLng":121.46473,"gcjLat":31.240762,"wgs84Lng":121.460178,"wgs84Lat":31.242676,"__source_file__":"13-常用公服设施点/SHP/上海市_产业园区-点.shp"},"geometry":{"type":"Point","coordinates":[121.460178,31.242676]}},{"id":"4172","type":"Feature","properties":{"id":"cb7d7c39-919a-3303-b401-7952f27ebc8a","pname":"上海市","pcode":310000,"cityname":"上海市","citycode":21,"adname":"黄浦区","adcode":310101,"name":"上海市文化创意产业园区(光复路)","address":"光复路195(新闸路地铁站1号口步行400米)","location":"121.464627,31.240787","tel":"[]","business_a":"北京路","bigType":"商务住宅","midType":"产业园区","smallType":"产业园区","typecode":"120100","timestamp":"2024-01-18 12:01:36","gcjLng":121.464627,"gcjLat":31.240787,"wgs84Lng":121.460075,"wgs84Lat":31.242701,"__source_file__":"13-常用公服设施点/SHP/上海市_产业园区-点.shp"},"geometry":{"type":"Point","coordinates":[121.460075,31.242701]}},{"id":"2394","type":"Feature","properties":{"id":"0a40e74c-6cdc-3c1e-8d60-b0b5bbd58a7d","pname":"上海市","pcode":310000,"cityname":"上海市","citycode":21,"adname":"黄浦区","adcode":310101,"name":"企业天地","address":"湖滨路222号(一大会址·黄陂南路地铁站2号口步行260米)","location":"121.477659,31.220862","tel":"021-63858833","business_a":"淮海路","bigType":"商务住宅","midType":"产业园区","smallType":"产业园区","typecode":"120100","timestamp":"2024-08-23 00:56:08","gcjLng":121.477659,"gcjLat":31.220862,"wgs84Lng":121.47315,"wgs84Lat":31.22282,"__source_file__":"13-常用公服设施点/SHP/上海市_产业园区-点.shp"},"geometry":{"type":"Point","coordinates":[121.47315,31.22282]}},{"id":"2745","type":"Feature","properties":{"id":"e84991f7-f96d-3df9-8b18-a6ea890c306b","pname":"上海市","pcode":310000,"cityname":"上海市","citycode":21,"adname":"黄浦区","adcode":310101,"name":"黄浦区数字广告园区","address":"湖北路136号德必上海书城WE","location":"121.481652,31.233048","tel":"[]","business_a":"北京路","bigType":"商务住宅","midType":"产业园区","smallType":"产业园区","typecode":"120100","timestamp":"2024-02-14 10:51:37","gcjLng":121.481652,"gcjLat":31.233048,"wgs84Lng":121.477155,"wgs84Lat":31.235011,"__source_file__":"13-常用公服设施点/SHP/上海市_产业园区-点.shp"},"geometry":{"type":"Point","coordinates":[121.477155,31.235011]}},{"id":"2424","type":"Feature","properties":{"id":"b29ee87b-64cd-3018-961d-9693f28d7148","pname":"上海市","pcode":310000,"cityname":"上海市","citycode":21,"adname":"黄浦区","adcode":310101,"name":"上海市科技创业中心","address":"北京东路与福建中路交叉口西60米","location":"121.478423,31.239333","tel":"[]","business_a":"北京路","bigType":"商务住宅","midType":"产业园区","smallType":"产业园区","typecode":"120100","timestamp":"2024-07-06 20:53:01","gcjLng":121.478423,"gcjLat":31.239333,"wgs84Lng":121.473915,"wgs84Lat":31.241284,"__source_file__":"13-常用公服设施点/SHP/上海市_产业园区-点.shp"},"geometry":{"type":"Point","coordinates":[121.473915,31.241284]}},{"id":"4224","type":"Feature","properties":{"id":"5e3285af-6d1e-3070-ad29-96517beaa604","pname":"上海市","pcode":310000,"cityname":"上海市","citycode":21,"adname":"虹口区","adcode":310109,"name":"虹口北外滩开业园区","address":"东大名路391-393","location":"121.496266,31.247603","tel":"[]","business_a":"提篮桥","bigType":"商务住宅","midType":"产业园区","smallType":"产业园区","typecode":"120100","timestamp":"2023-12-10 16:34:51","gcjLng":121.496266,"gcjLat":31.247603,"wgs84Lng":121.49182,"wgs84Lat":31.249603,"__source_file__":"13-常用公服设施点/SHP/上海市_产业园区-点.shp"},"geometry":{"type":"Point","coordinates":[121.49182,31.249603]}},{"id":"2764","type":"Feature","properties":{"id":"c6c537d8-6d11-31d5-8f78-18a94068872d","pname":"上海市","pcode":310000,"cityname":"上海市","citycode":21,"adname":"虹口区","adcode":310109,"name":"上海对冲基金园区(中信广场)","address":"四川北路859号中信广场1F层","location":"121.483666,31.248036","tel":"021-25658879","business_a":"上海北外滩中心","bigType":"商务住宅","midType":"产业园区","smallType":"产业园区","typecode":"120100","timestamp":"2024-07-18 18:22:50","gcjLng":121.483666,"gcjLat":31.248036,"wgs84Lng":121.479175,"wgs84Lat":31.249998,"__source_file__":"13-常用公服设施点/SHP/上海市_产业园区-点.shp"},"geometry":{"type":"Point","coordinates":[121.479175,31.249998]}},{"id":"3431","type":"Feature","properties":{"id":"da9a5a1e-c7b3-3ecd-9bd6-77b95394ed51","pname":"上海市","pcode":310000,"cityname":"上海市","citycode":21,"adname":"虹口区","adcode":310109,"name":"未来车智谷","address":"峨眉路315号506室","location":"121.490339,31.250559","tel":"13801997197","business_a":"提篮桥","bigType":"商务住宅","midType":"产业园区","smallType":"产业园区","typecode":"120100","timestamp":"2024-03-26 12:30:33","gcjLng":121.490339,"gcjLat":31.250559,"wgs84Lng":121.485871,"wgs84Lat":31.25254,"__source_file__":"13-常用公服设施点/SHP/上海市_产业园区-点.shp"},"geometry":{"type":"Point","coordinates":[121.485871,31.25254]}},{"id":"2765","type":"Feature","properties":{"id":"8bd515d6-4305-3a3f-8158-b3780dbc78cf","pname":"上海市","pcode":310000,"cityname":"上海市","citycode":21,"adname":"虹口区","adcode":310109,"name":"上海永生都市型工业园区","address":"武进路456号(四川北路地铁站3号口步行190米)","location":"121.482000,31.251042","tel":"[]","business_a":"七浦路","bigType":"商务住宅","midType":"产业园区","smallType":"产业园区","typecode":"120100","timestamp":"2024-01-18 03:26:25","gcjLng":121.482,"gcjLat":31.251042,"wgs84Lng":121.477503,"wgs84Lat":31.252998,"__source_file__":"13-常用公服设施点/SHP/上海市_产业园区-点.shp"},"geometry":{"type":"Point","coordinates":[121.477503,31.252998]}},{"id":"2766","type":"Feature","properties":{"id":"e1f742f2-f84d-3dc6-8897-4c6088f04d68","pname":"上海市","pcode":310000,"cityname":"上海市","citycode":21,"adname":"虹口区","adcode":310109,"name":"小马创业村","address":"武进路456号2栋2层(四川北路地铁站3号口步行150米)","location":"121.482405,31.251109","tel":"021-56481650","business_a":"七浦路","bigType":"商务住宅","midType":"产业园区","smallType":"产业园区","typecode":"120100","timestamp":"2024-07-25 20:34:20","gcjLng":121.482405,"gcjLat":31.251109,"wgs84Lng":121.477909,"wgs84Lat":31.253066,"__source_file__":"13-常用公服设施点/SHP/上海市_产业园区-点.shp"},"geometry":{"type":"Point","coordinates":[121.477909,31.253066]}},{"id":"2773","type":"Feature","properties":{"id":"1795496e-c8ad-383a-ae68-c5fbdf556d00","pname":"上海市","pcode":310000,"cityname":"上海市","citycode":21,"adname":"虹口区","adcode":310109,"name":"上海市城市更新科创基地","address":"盛邦国际大厦","location":"121.484728,31.251392","tel":"[]","business_a":"七浦路","bigType":"商务住宅","midType":"产业园区","smallType":"产业园区","typecode":"120100","timestamp":"2024-02-22 19:18:34","gcjLng":121.484728,"gcjLat":31.251392,"wgs84Lng":121.48024,"wgs84Lat":31.253356,"__source_file__":"13-常用公服设施点/SHP/上海市_产业园区-点.shp"},"geometry":{"type":"Point","coordinates":[121.48024,31.253356]}},{"id":"3965","type":"Feature","properties":{"id":"768dcfd6-ead6-32d3-953a-62a89485e61e","pname":"上海市","pcode":310000,"cityname":"上海市","citycode":21,"adname":"静安区","adcode":310106,"name":"M-side护品工场创意园附楼","address":"梅园路35号(汉中路地铁站3号口步行100米)","location":"121.460577,31.240965","tel":"13391028817","business_a":"[]","bigType":"商务住宅","midType":"产业园区","smallType":"产业园区","typecode":"120100","timestamp":"2024-07-07 00:37:53","gcjLng":121.460577,"gcjLat":31.240965,"wgs84Lng":121.456013,"wgs84Lat":31.242869,"__source_file__":"13-常用公服设施点/SHP/上海市_产业园区-点.shp"},"geometry":{"type":"Point","coordinates":[121.456013,31.242869]}},{"id":"3966","type":"Feature","properties":{"id":"091516b8-0b7f-3fc9-aa76-296fb6d829d1","pname":"上海市","pcode":310000,"cityname":"上海市","citycode":21,"adname":"静安区","adcode":310106,"name":"M-side护品工场创意园主楼","address":"梅园路33号","location":"121.460785,31.241167","tel":"[]","business_a":"[]","bigType":"商务住宅","midType":"产业园区","smallType":"产业园区","typecode":"120100","timestamp":"2024-07-02 19:42:45","gcjLng":121.460785,"gcjLat":31.241167,"wgs84Lng":121.456221,"wgs84Lat":31.243071,"__source_file__":"13-常用公服设施点/SHP/上海市_产业园区-点.shp"},"geometry":{"type":"Point","coordinates":[121.456221,31.243071]}},{"id":"3967","type":"Feature","properties":{"id":"607a35bc-40ac-3a22-8e03-ff74e30d9d5e","pname":"上海市","pcode":310000,"cityname":"上海市","citycode":21,"adname":"静安区","adcode":310106,"name":"焊点1088创意园","address":"长安路(汉中路地铁站3号口旁)","location":"121.459587,31.241274","tel":"[]","business_a":"[]","bigType":"商务住宅","midType":"产业园区","smallType":"产业园区","typecode":"120100","timestamp":"2024-01-23 02:23:22","gcjLng":121.459587,"gcjLat":31.241274,"wgs84Lng":121.45502,"wgs84Lat":31.243175,"__source_file__":"13-常用公服设施点/SHP/上海市_产业园区-点.shp"},"geometry":{"type":"Point","coordinates":[121.45502,31.243175]}},{"id":"3968","type":"Feature","properties":{"id":"d28a28ed-ed4f-3ace-9fde-b6c5f685b8e5","pname":"上海市","pcode":310000,"cityname":"上海市","citycode":21,"adname":"静安区","adcode":310106,"name":"中国上海人力资源服务产业园区","address":"梅园路77号上海人才大厦(汉中路地铁站2号口旁)","location":"121.460200,31.242020","tel":"[]","business_a":"[]","bigType":"商务住宅","midType":"产业园区","smallType":"产业园区","typecode":"120100","timestamp":"2024-07-28 02:17:56","gcjLng":121.4602,"gcjLat":31.24202,"wgs84Lng":121.455635,"wgs84Lat":31.243922,"__source_file__":"13-常用公服设施点/SHP/上海市_产业园区-点.shp"},"geometry":{"type":"Point","coordinates":[121.455635,31.243922]}},{"id":"2428","type":"Feature","properties":{"id":"eb7821cc-077f-3717-abb4-be4153c3586a","pname":"上海市","pcode":310000,"cityname":"上海市","citycode":21,"adname":"静安区","adcode":310106,"name":"iCampus上海国际生命科学创新园","address":"西藏北路88号盈凯文创广场6层","location":"121.472360,31.242094","tel":"[]","business_a":"北京路","bigType":"商务住宅","midType":"产业园区","smallType":"产业园区","typecode":"120100","timestamp":"2024-02-07 06:00:15","gcjLng":121.47236,"gcjLat":31.242094,"wgs84Lng":121.467832,"wgs84Lat":31.244027,"__source_file__":"13-常用公服设施点/SHP/上海市_产业园区-点.shp"},"geometry":{"type":"Point","coordinates":[121.467832,31.244027]}},{"id":"4194","type":"Feature","properties":{"id":"ee817e01-1a5f-3a93-bf29-4185755a9b80","pname":"上海市","pcode":310000,"cityname":"上海市","citycode":21,"adname":"静安区","adcode":310106,"name":"鹏信都市型工业园区","address":"西藏北路489(中兴路地铁站3号口步行480米)","location":"121.469785,31.248278","tel":"[]","business_a":"宝山路","bigType":"商务住宅","midType":"产业园区","smallType":"产业园区","typecode":"120100","timestamp":"2024-07-30 07:57:46","gcjLng":121.469785,"gcjLat":31.248278,"wgs84Lng":121.465248,"wgs84Lat":31.250202,"__source_file__":"13-常用公服设施点/SHP/上海市_产业园区-点.shp"},"geometry":{"type":"Point","coordinates":[121.465248,31.250202]}},{"id":"4178","type":"Feature","properties":{"id":"bc68f959-f3a7-3e68-885b-a604f7df398d","pname":"上海市","pcode":310000,"cityname":"上海市","citycode":21,"adname":"静安区","adcode":310106,"name":"兴中心创意园","address":"西藏北路605号(中兴路地铁站3号口步行50米)","location":"121.468466,31.252615","tel":"021-66292299","business_a":"宝山路","bigType":"商务住宅","midType":"产业园区","smallType":"产业园区","typecode":"120100","timestamp":"2024-08-19 00:56:56","gcjLng":121.468466,"gcjLat":31.252615,"wgs84Lng":121.463924,"wgs84Lat":31.254533,"__source_file__":"13-常用公服设施点/SHP/上海市_产业园区-点.shp"},"geometry":{"type":"Point","coordinates":[121.463924,31.254533]}},{"id":"4177","type":"Feature","properties":{"id":"f7f7b4de-f935-34ac-9ab8-ca4cd1b4da6a","pname":"上海市","pcode":310000,"cityname":"上海市","citycode":21,"adname":"静安区","adcode":310106,"name":"景裕创意园区","address":"中华新路496号3号楼2层(中兴路地铁站4号口步行480米)","location":"121.465177,31.253367","tel":"021-63077766","business_a":"和田","bigType":"商务住宅","midType":"产业园区","smallType":"产业园区","typecode":"120100","timestamp":"2024-08-27 06:56:35","gcjLng":121.465177,"gcjLat":31.253367,"wgs84Lng":121.460625,"wgs84Lat":31.255277,"__source_file__":"13-常用公服设施点/SHP/上海市_产业园区-点.shp"},"geometry":{"type":"Point","coordinates":[121.460625,31.255277]}},{"id":"4182","type":"Feature","properties":{"id":"56ce8148-94e6-305b-9f0d-cff8d2542411","pname":"上海市","pcode":310000,"cityname":"上海市","citycode":21,"adname":"静安区","adcode":310106,"name":"孔雀创意园","address":"芷江西路134号","location":"121.465282,31.257196","tel":"[]","business_a":"宝山路","bigType":"商务住宅","midType":"产业园区","smallType":"产业园区","typecode":"120100","timestamp":"2024-07-27 04:14:04","gcjLng":121.465282,"gcjLat":31.257196,"wgs84Lng":121.46073,"wgs84Lat":31.259104,"__source_file__":"13-常用公服设施点/SHP/上海市_产业园区-点.shp"},"geometry":{"type":"Point","coordinates":[121.46073,31.259104]}},{"id":"2439","type":"Feature","properties":{"id":"5212ae52-b074-3997-9d14-0820f325ebdb","pname":"上海市","pcode":310000,"cityname":"上海市","citycode":21,"adname":"静安区","adcode":310106,"name":"朝顺商务园区","address":"天通庵路301号","location":"121.473248,31.259288","tel":"[]","business_a":"宝山路","bigType":"商务住宅","midType":"产业园区","smallType":"产业园区","typecode":"120100","timestamp":"2024-02-05 23:13:55","gcjLng":121.473248,"gcjLat":31.259288,"wgs84Lng":121.468721,"wgs84Lat":31.261216,"__source_file__":"13-常用公服设施点/SHP/上海市_产业园区-点.shp"},"geometry":{"type":"Point","coordinates":[121.468721,31.261216]}},{"id":"4226","type":"Feature","properties":{"id":"74f74b50-b3db-39f9-be9c-a700a57e6381","pname":"上海市","pcode":310000,"cityname":"上海市","citycode":21,"adname":"虹口区","adcode":310109,"name":"金融创新中心","address":"临潼路与惠民路交叉口北约80米","location":"121.499361,31.252163","tel":"[]","business_a":"上海北外滩中心","bigType":"商务住宅","midType":"产业园区","smallType":"产业园区","typecode":"120100","timestamp":"2024-08-31 08:57:50","gcjLng":121.499361,"gcjLat":31.252163,"wgs84Lng":121.494926,"wgs84Lat":31.25417,"__source_file__":"13-常用公服设施点/SHP/上海市_产业园区-点.shp"},"geometry":{"type":"Point","coordinates":[121.494926,31.25417]}},{"id":"2433","type":"Feature","properties":{"id":"f198a2c4-bb36-384c-bb8b-e9be127fe8fa","pname":"上海市","pcode":310000,"cityname":"上海市","citycode":21,"adname":"静安区","adcode":310106,"name":"武夷商务园","address":"虬江路865-867(宝山路地铁站1号口步行170米)","location":"121.475275,31.252544","tel":"[]","business_a":"宝山路","bigType":"商务住宅","midType":"产业园区","smallType":"产业园区","typecode":"120100","timestamp":"2024-07-04 01:30:05","gcjLng":121.475275,"gcjLat":31.252544,"wgs84Lng":121.470755,"wgs84Lat":31.254481,"__source_file__":"13-常用公服设施点/SHP/上海市_产业园区-点.shp"},"geometry":{"type":"Point","coordinates":[121.470755,31.254481]}},{"id":"3448","type":"Feature","properties":{"id":"2603a9d9-33a7-3ce1-8466-ac15f82b7310","pname":"上海市","pcode":310000,"cityname":"上海市","citycode":21,"adname":"虹口区","adcode":310109,"name":"1930鑫鑫创意园","address":"辽宁路244号(近沙泾路)","location":"121.491186,31.255152","tel":"021-65401668","business_a":"提篮桥","bigType":"商务住宅","midType":"产业园区","smallType":"产业园区","typecode":"120100","timestamp":"2024-08-25 00:12:56","gcjLng":121.491186,"gcjLat":31.255152,"wgs84Lng":121.486721,"wgs84Lat":31.257133,"__source_file__":"13-常用公服设施点/SHP/上海市_产业园区-点.shp"},"geometry":{"type":"Point","coordinates":[121.486721,31.257133]}},{"id":"3449","type":"Feature","properties":{"id":"0a16a60c-2b50-3c08-9dca-8a6c94f6c105","pname":"上海市","pcode":310000,"cityname":"上海市","citycode":21,"adname":"虹口区","adcode":310109,"name":"老洋行1913创业园区","address":"哈尔滨路160号(近海伦路)","location":"121.490015,31.255378","tel":"[]","business_a":"四平路","bigType":"商务住宅","midType":"产业园区","smallType":"产业园区","typecode":"120100","timestamp":"2024-02-08 10:22:31","gcjLng":121.490015,"gcjLat":31.255378,"wgs84Lng":121.485546,"wgs84Lat":31.257356,"__source_file__":"13-常用公服设施点/SHP/上海市_产业园区-点.shp"},"geometry":{"type":"Point","coordinates":[121.485546,31.257356]}},{"id":"3135","type":"Feature","properties":{"id":"f7464eb9-4d5a-3f1a-b050-d711dcc6bf83","pname":"上海市","pcode":310000,"cityname":"上海市","citycode":21,"adname":"虹口区","adcode":310109,"name":"半岛湾时尚文化创意产业园","address":"溧阳路735号2栋2102","location":"121.489312,31.255425","tel":"[]","business_a":"四平路","bigType":"商务住宅","midType":"产业园区","smallType":"产业园区","typecode":"120100","timestamp":"2024-08-27 09:00:54","gcjLng":121.489312,"gcjLat":31.255425,"wgs84Lng":121.48484,"wgs84Lat":31.257401,"__source_file__":"13-常用公服设施点/SHP/上海市_产业园区-点.shp"},"geometry":{"type":"Point","coordinates":[121.48484,31.257401]}},{"id":"3457","type":"Feature","properties":{"id":"108cc7b4-5965-33bf-8b35-30455f534cc6","pname":"上海市","pcode":310000,"cityname":"上海市","citycode":21,"adname":"虹口区","adcode":310109,"name":"半岛湾5G创新产业园","address":"哈尔滨路与辽宁路交叉口西20米","location":"121.490019,31.255879","tel":"[]","business_a":"四平路","bigType":"商务住宅","midType":"产业园区","smallType":"产业园区","typecode":"120100","timestamp":"2024-02-10 12:23:51","gcjLng":121.490019,"gcjLat":31.255879,"wgs84Lng":121.48555,"wgs84Lat":31.257857,"__source_file__":"13-常用公服设施点/SHP/上海市_产业园区-点.shp"},"geometry":{"type":"Point","coordinates":[121.48555,31.257857]}},{"id":"3461","type":"Feature","properties":{"id":"e29af230-e984-3a56-8bdb-963082730fc5","pname":"上海市","pcode":310000,"cityname":"上海市","citycode":21,"adname":"虹口区","adcode":310109,"name":"国家音乐产业基地上海虹口园区","address":"辽宁路46号(海伦路地铁站2号口步行460米)","location":"121.491925,31.256703","tel":"[]","business_a":"提篮桥","bigType":"商务住宅","midType":"产业园区","smallType":"产业园区","typecode":"120100","timestamp":"2024-08-22 17:40:33","gcjLng":121.491925,"gcjLat":31.256703,"wgs84Lng":121.487462,"wgs84Lat":31.258686,"__source_file__":"13-常用公服设施点/SHP/上海市_产业园区-点.shp"},"geometry":{"type":"Point","coordinates":[121.487462,31.258686]}},{"id":"3460","type":"Feature","properties":{"id":"3e2d3b55-11a9-3173-8128-6bdefe39d1ac","pname":"上海市","pcode":310000,"cityname":"上海市","citycode":21,"adname":"虹口区","adcode":310109,"name":"上海市文化创意产业园区(辽宁路)","address":"辽宁路46号(海伦路地铁站2号口步行460米)","location":"121.491692,31.257048","tel":"[]","business_a":"提篮桥","bigType":"商务住宅","midType":"产业园区","smallType":"产业园区","typecode":"120100","timestamp":"2024-08-24 17:06:25","gcjLng":121.491692,"gcjLat":31.257048,"wgs84Lng":121.487229,"wgs84Lat":31.25903,"__source_file__":"13-常用公服设施点/SHP/上海市_产业园区-点.shp"},"geometry":{"type":"Point","coordinates":[121.487229,31.25903]}},{"id":"2438","type":"Feature","properties":{"id":"bb82b138-f917-34fd-8084-040bbd88f776","pname":"上海市","pcode":310000,"cityname":"上海市","citycode":21,"adname":"静安区","adcode":310106,"name":"兴园","address":"中兴路373号","location":"121.475843,31.258565","tel":"[]","business_a":"宝山路","bigType":"商务住宅","midType":"产业园区","smallType":"产业园区","typecode":"120100","timestamp":"2024-08-30 08:12:47","gcjLng":121.475843,"gcjLat":31.258565,"wgs84Lng":121.471325,"wgs84Lat":31.260501,"__source_file__":"13-常用公服设施点/SHP/上海市_产业园区-点.shp"},"geometry":{"type":"Point","coordinates":[121.471325,31.260501]}},{"id":"4227","type":"Feature","properties":{"id":"00f28a06-ec87-3104-9eaf-6e22f430279b","pname":"上海市","pcode":310000,"cityname":"上海市","citycode":21,"adname":"虹口区","adcode":310109,"name":"中锐·虹口锐WIN创意园","address":"海拉尔路289号","location":"121.496037,31.258778","tel":"[]","business_a":"提篮桥","bigType":"商务住宅","midType":"产业园区","smallType":"产业园区","typecode":"120100","timestamp":"2024-03-25 23:27:50","gcjLng":121.496037,"gcjLat":31.258778,"wgs84Lng":121.491589,"wgs84Lat":31.260772,"__source_file__":"13-常用公服设施点/SHP/上海市_产业园区-点.shp"},"geometry":{"type":"Point","coordinates":[121.491589,31.260772]}},{"id":"3143","type":"Feature","properties":{"id":"2b15dbfd-fe17-3bf9-976a-44e3e564a303","pname":"上海市","pcode":310000,"cityname":"上海市","citycode":21,"adname":"虹口区","adcode":310109,"name":"祥生天境西区办公区","address":"四平路天水路交汇(海伦路地铁站7号口旁)","location":"121.489734,31.260301","tel":"[]","business_a":"四平路","bigType":"商务住宅","midType":"产业园区","smallType":"产业园区","typecode":"120100","timestamp":"2024-04-24 19:04:53","gcjLng":121.489734,"gcjLat":31.260301,"wgs84Lng":121.485263,"wgs84Lat":31.262276,"__source_file__":"13-常用公服设施点/SHP/上海市_产业园区-点.shp"},"geometry":{"type":"Point","coordinates":[121.485263,31.262276]}},{"id":"2779","type":"Feature","properties":{"id":"a488981c-5b0c-3cf5-821e-6d3eb430ddab","pname":"上海市","pcode":310000,"cityname":"上海市","citycode":21,"adname":"虹口区","adcode":310109,"name":"1851众创空间","address":"秦关路与四川北路交叉口西北40米","location":"121.483595,31.261157","tel":"[]","business_a":"宝山路","bigType":"商务住宅","midType":"产业园区","smallType":"产业园区","typecode":"120100","timestamp":"2024-08-21 16:38:05","gcjLng":121.483595,"gcjLat":31.261157,"wgs84Lng":121.479103,"wgs84Lat":31.263113,"__source_file__":"13-常用公服设施点/SHP/上海市_产业园区-点.shp"},"geometry":{"type":"Point","coordinates":[121.479103,31.263113]}},{"id":"2442","type":"Feature","properties":{"id":"3695c0f2-4eab-3000-a98c-2705157a586d","pname":"上海市","pcode":310000,"cityname":"上海市","citycode":21,"adname":"静安区","adcode":310106,"name":"上海瀚庭产业园","address":"天通庵路506号","location":"121.476134,31.261393","tel":"021-65118788","business_a":"宝山路","bigType":"商务住宅","midType":"产业园区","smallType":"产业园区","typecode":"120100","timestamp":"2024-01-27 22:40:15","gcjLng":121.476134,"gcjLat":31.261393,"wgs84Lng":121.471616,"wgs84Lat":31.263328,"__source_file__":"13-常用公服设施点/SHP/上海市_产业园区-点.shp"},"geometry":{"type":"Point","coordinates":[121.471616,31.263328]}},{"id":"2778","type":"Feature","properties":{"id":"18ee931b-0d9e-31e9-9e3c-3af52bf26b24","pname":"上海市","pcode":310000,"cityname":"上海市","citycode":21,"adname":"虹口区","adcode":310109,"name":"PENIN珠宝文化产业园","address":"多伦路50号","location":"121.482767,31.262054","tel":"[]","business_a":"宝山路","bigType":"商务住宅","midType":"产业园区","smallType":"产业园区","typecode":"120100","timestamp":"2024-01-25 03:55:31","gcjLng":121.482767,"gcjLat":31.262054,"wgs84Lng":121.478272,"wgs84Lat":31.264008,"__source_file__":"13-常用公服设施点/SHP/上海市_产业园区-点.shp"},"geometry":{"type":"Point","coordinates":[121.478272,31.264008]}},{"id":"3144","type":"Feature","properties":{"id":"29339df9-5fee-3ae8-be2d-ee7002fbc8fd","pname":"上海市","pcode":310000,"cityname":"上海市","citycode":21,"adname":"虹口区","adcode":310109,"name":"法兰桥创意园","address":"欧阳路196号","location":"121.488527,31.266733","tel":"[]","business_a":"曲阳","bigType":"商务住宅","midType":"产业园区","smallType":"产业园区","typecode":"120100","timestamp":"2024-07-11 21:27:29","gcjLng":121.488527,"gcjLat":31.266733,"wgs84Lng":121.484051,"wgs84Lat":31.268701,"__source_file__":"13-常用公服设施点/SHP/上海市_产业园区-点.shp"},"geometry":{"type":"Point","coordinates":[121.484051,31.268701]}},{"id":"2785","type":"Feature","properties":{"id":"087fd3d6-dd3d-3703-88ee-12e729a2092c","pname":"上海市","pcode":310000,"cityname":"上海市","citycode":21,"adname":"虹口区","adcode":310109,"name":"空间188园区","address":"黄渡路与东江湾路交叉口北160米","location":"121.481537,31.266845","tel":"[]","business_a":"江湾","bigType":"商务住宅","midType":"产业园区","smallType":"产业园区","typecode":"120100","timestamp":"2024-08-13 03:51:24","gcjLng":121.481537,"gcjLat":31.266845,"wgs84Lng":121.477037,"wgs84Lat":31.268793,"__source_file__":"13-常用公服设施点/SHP/上海市_产业园区-点.shp"},"geometry":{"type":"Point","coordinates":[121.477037,31.268793]}},{"id":"2784","type":"Feature","properties":{"id":"584676de-8006-37a5-9f6a-c13d908772c5","pname":"上海市","pcode":310000,"cityname":"上海市","citycode":21,"adname":"虹口区","adcode":310109,"name":"空间188创意产业园","address":"东江湾路188号","location":"121.480505,31.267053","tel":"[]","business_a":"宝山路","bigType":"商务住宅","midType":"产业园区","smallType":"产业园区","typecode":"120100","timestamp":"2024-02-09 16:13:37","gcjLng":121.480505,"gcjLat":31.267053,"wgs84Lng":121.476002,"wgs84Lat":31.268998,"__source_file__":"13-常用公服设施点/SHP/上海市_产业园区-点.shp"},"geometry":{"type":"Point","coordinates":[121.476002,31.268998]}},{"id":"1859","type":"Feature","properties":{"id":"980556cf-06be-367f-a205-74864e5bba6a","pname":"上海市","pcode":310000,"cityname":"上海市","citycode":21,"adname":"虹口区","adcode":310109,"name":"近铁虹口金融产业园","address":"中山北一路9号","location":"121.473790,31.268759","tel":"[]","business_a":"和田","bigType":"商务住宅","midType":"产业园区","smallType":"产业园区","typecode":"120100","timestamp":"2024-08-25 05:15:02","gcjLng":121.47379,"gcjLat":31.268759,"wgs84Lng":121.469264,"wgs84Lat":31.270684,"__source_file__":"13-常用公服设施点/SHP/上海市_产业园区-点.shp"},"geometry":{"type":"Point","coordinates":[121.469264,31.270684]}},{"id":"3970","type":"Feature","properties":{"id":"ac7f43b0-047c-3c94-8017-a9e37f311964","pname":"上海市","pcode":310000,"cityname":"上海市","citycode":21,"adname":"静安区","adcode":310106,"name":"上海凤凰都市工业园区","address":"共和新路1207(中山北路地铁站1号口步行490米)","location":"121.461112,31.262534","tel":"[]","business_a":"和田","bigType":"商务住宅","midType":"产业园区","smallType":"产业园区","typecode":"120100","timestamp":"2024-08-24 11:42:57","gcjLng":121.461112,"gcjLat":31.262534,"wgs84Lng":121.456547,"wgs84Lat":31.26443,"__source_file__":"13-常用公服设施点/SHP/上海市_产业园区-点.shp"},"geometry":{"type":"Point","coordinates":[121.456547,31.26443]}},{"id":"4187","type":"Feature","properties":{"id":"8d184611-9789-3132-8a75-3b6bb547ed3e","pname":"上海市","pcode":310000,"cityname":"上海市","citycode":21,"adname":"静安区","adcode":310106,"name":"上服圣骊创意园2幢","address":"中山北路与止园路交叉口东60米","location":"121.467865,31.262891","tel":"[]","business_a":"宝山路","bigType":"商务住宅","midType":"产业园区","smallType":"产业园区","typecode":"120100","timestamp":"2024-01-27 00:36:27","gcjLng":121.467865,"gcjLat":31.262891,"wgs84Lng":121.463321,"wgs84Lat":31.264803,"__source_file__":"13-常用公服设施点/SHP/上海市_产业园区-点.shp"},"geometry":{"type":"Point","coordinates":[121.463321,31.264803]}},{"id":"3971","type":"Feature","properties":{"id":"69df7be0-eb70-316c-a67e-4395a7ea4861","pname":"上海市","pcode":310000,"cityname":"上海市","citycode":21,"adname":"静安区","adcode":310106,"name":"上海现代交通商务园区北楼","address":"柳营路618号","location":"121.460222,31.264756","tel":"[]","business_a":"和田","bigType":"商务住宅","midType":"产业园区","smallType":"产业园区","typecode":"120100","timestamp":"2024-02-11 08:15:56","gcjLng":121.460222,"gcjLat":31.264756,"wgs84Lng":121.455655,"wgs84Lat":31.266648,"__source_file__":"13-常用公服设施点/SHP/上海市_产业园区-点.shp"},"geometry":{"type":"Point","coordinates":[121.455655,31.266648]}},{"id":"4209","type":"Feature","properties":{"id":"3d32ac3c-c829-3988-bbf4-b276286515c4","pname":"上海市","pcode":310000,"cityname":"上海市","citycode":21,"adname":"静安区","adcode":310106,"name":"钻石坊经典创意园区","address":"中山北路178-1(西藏北路地铁站2号口步行250米)","location":"121.471098,31.265059","tel":"[]","business_a":"宝山路","bigType":"商务住宅","midType":"产业园区","smallType":"产业园区","typecode":"120100","timestamp":"2024-08-26 10:39:13","gcjLng":121.471098,"gcjLat":31.265059,"wgs84Lng":121.466564,"wgs84Lat":31.266979,"__source_file__":"13-常用公服设施点/SHP/上海市_产业园区-点.shp"},"geometry":{"type":"Point","coordinates":[121.466564,31.266979]}},{"id":"1846","type":"Feature","properties":{"id":"70d2695e-c072-3a5a-b4c2-9297555e77ff","pname":"上海市","pcode":310000,"cityname":"上海市","citycode":21,"adname":"静安区","adcode":310106,"name":"东衡园区","address":"民和路145号","location":"121.468308,31.268718","tel":"[]","business_a":"和田","bigType":"商务住宅","midType":"产业园区","smallType":"产业园区","typecode":"120100","timestamp":"2024-05-13 08:30:34","gcjLng":121.468308,"gcjLat":31.268718,"wgs84Lng":121.463764,"wgs84Lat":31.270629,"__source_file__":"13-常用公服设施点/SHP/上海市_产业园区-点.shp"},"geometry":{"type":"Point","coordinates":[121.463764,31.270629]}},{"id":"1847","type":"Feature","properties":{"id":"65ff1197-7383-33d1-b3c1-d4711432a064","pname":"上海市","pcode":310000,"cityname":"上海市","citycode":21,"adname":"虹口区","adcode":310109,"name":"运动loft创意基地-5街区","address":"花园路128号","location":"121.472655,31.270325","tel":"[]","business_a":"和田","bigType":"商务住宅","midType":"产业园区","smallType":"产业园区","typecode":"120100","timestamp":"2024-01-28 15:56:22","gcjLng":121.472655,"gcjLat":31.270325,"wgs84Lng":121.468125,"wgs84Lat":31.272247,"__source_file__":"13-常用公服设施点/SHP/上海市_产业园区-点.shp"},"geometry":{"type":"Point","coordinates":[121.468125,31.272247]}},{"id":"1849","type":"Feature","properties":{"id":"cdedde1c-5dee-32b2-9369-38c02ea9c064","pname":"上海市","pcode":310000,"cityname":"上海市","citycode":21,"adname":"虹口区","adcode":310109,"name":"德必运动LOFT国际体育产业园6街区","address":"景祥路","location":"121.472820,31.270454","tel":"[]","business_a":"和田","bigType":"商务住宅","midType":"产业园区","smallType":"产业园区","typecode":"120100","timestamp":"2024-01-23 15:10:41","gcjLng":121.47282,"gcjLat":31.270454,"wgs84Lng":121.468291,"wgs84Lat":31.272376,"__source_file__":"13-常用公服设施点/SHP/上海市_产业园区-点.shp"},"geometry":{"type":"Point","coordinates":[121.468291,31.272376]}},{"id":"1852","type":"Feature","properties":{"id":"b46865bc-3654-35bc-9e08-43ed71c6fac1","pname":"上海市","pcode":310000,"cityname":"上海市","citycode":21,"adname":"虹口区","adcode":310109,"name":"运动loft创意基地-7街区","address":"花园路128号虹口德必运动Loft","location":"121.473146,31.270514","tel":"[]","business_a":"和田","bigType":"商务住宅","midType":"产业园区","smallType":"产业园区","typecode":"120100","timestamp":"2024-01-18 05:06:32","gcjLng":121.473146,"gcjLat":31.270514,"wgs84Lng":121.468618,"wgs84Lat":31.272437,"__source_file__":"13-常用公服设施点/SHP/上海市_产业园区-点.shp"},"geometry":{"type":"Point","coordinates":[121.468618,31.272437]}},{"id":"1848","type":"Feature","properties":{"id":"8c708be0-b3a8-3c8a-b0e5-eaebbec07816","pname":"上海市","pcode":310000,"cityname":"上海市","citycode":21,"adname":"虹口区","adcode":310109,"name":"虹口德必运动Loft","address":"花园路128号","location":"121.472780,31.270585","tel":"021-56311390;021-56988099","business_a":"和田","bigType":"商务住宅","midType":"产业园区","smallType":"产业园区","typecode":"120100","timestamp":"2024-08-26 14:01:42","gcjLng":121.47278,"gcjLat":31.270585,"wgs84Lng":121.46825,"wgs84Lat":31.272507,"__source_file__":"13-常用公服设施点/SHP/上海市_产业园区-点.shp"},"geometry":{"type":"Point","coordinates":[121.46825,31.272507]}},{"id":"1840","type":"Feature","properties":{"id":"80364249-2fb5-3945-b554-11754b58375a","pname":"上海市","pcode":310000,"cityname":"上海市","citycode":21,"adname":"虹口区","adcode":310109,"name":"德必运动LOFT国际体育产业园Y街区E座","address":"德必运动LOFT y","location":"121.470791,31.270682","tel":"[]","business_a":"和田","bigType":"商务住宅","midType":"产业园区","smallType":"产业园区","typecode":"120100","timestamp":"2024-02-27 01:22:44","gcjLng":121.470791,"gcjLat":31.270682,"wgs84Lng":121.466255,"wgs84Lat":31.272599,"__source_file__":"13-常用公服设施点/SHP/上海市_产业园区-点.shp"},"geometry":{"type":"Point","coordinates":[121.466255,31.272599]}},{"id":"1851","type":"Feature","properties":{"id":"ac4d2b9a-15ac-3290-a645-cb35d5bf0e12","pname":"上海市","pcode":310000,"cityname":"上海市","citycode":21,"adname":"虹口区","adcode":310109,"name":"第七街区","address":"景祥路与同心路交叉口东北120米","location":"121.473031,31.270782","tel":"[]","business_a":"和田","bigType":"商务住宅","midType":"产业园区","smallType":"产业园区","typecode":"120100","timestamp":"2024-01-23 05:51:17","gcjLng":121.473031,"gcjLat":31.270782,"wgs84Lng":121.468502,"wgs84Lat":31.272705,"__source_file__":"13-常用公服设施点/SHP/上海市_产业园区-点.shp"},"geometry":{"type":"Point","coordinates":[121.468502,31.272705]}},{"id":"1842","type":"Feature","properties":{"id":"b73db61c-9380-3818-8cdf-ca3ab74da2e2","pname":"上海市","pcode":310000,"cityname":"上海市","citycode":21,"adname":"虹口区","adcode":310109,"name":"德必运动LOFT国际体育产业园Y街区B座","address":"德必运动LOFT y","location":"121.470964,31.270792","tel":"[]","business_a":"和田","bigType":"商务住宅","midType":"产业园区","smallType":"产业园区","typecode":"120100","timestamp":"2024-08-07 13:40:59","gcjLng":121.470964,"gcjLat":31.270792,"wgs84Lng":121.466429,"wgs84Lat":31.272709,"__source_file__":"13-常用公服设施点/SHP/上海市_产业园区-点.shp"},"geometry":{"type":"Point","coordinates":[121.466429,31.272709]}},{"id":"1841","type":"Feature","properties":{"id":"7f427538-a7db-31c7-991f-d526eed39aaa","pname":"上海市","pcode":310000,"cityname":"上海市","citycode":21,"adname":"虹口区","adcode":310109,"name":"运动loft二期","address":"花园路128号","location":"121.469560,31.270943","tel":"[]","business_a":"和田","bigType":"商务住宅","midType":"产业园区","smallType":"产业园区","typecode":"120100","timestamp":"2024-07-09 03:46:18","gcjLng":121.46956,"gcjLat":31.270943,"wgs84Lng":121.46502,"wgs84Lat":31.272856,"__source_file__":"13-常用公服设施点/SHP/上海市_产业园区-点.shp"},"geometry":{"type":"Point","coordinates":[121.46502,31.272856]}},{"id":"1843","type":"Feature","properties":{"id":"03085b62-77c1-3285-9645-c9fab893cad1","pname":"上海市","pcode":310000,"cityname":"上海市","citycode":21,"adname":"虹口区","adcode":310109,"name":"德必运动LOFT国际体育产业园Y街区A座","address":"同心路与柳营路交叉口南100米","location":"121.470882,31.271010","tel":"[]","business_a":"和田","bigType":"商务住宅","midType":"产业园区","smallType":"产业园区","typecode":"120100","timestamp":"2024-01-25 19:43:00","gcjLng":121.470882,"gcjLat":31.27101,"wgs84Lng":121.466346,"wgs84Lat":31.272927,"__source_file__":"13-常用公服设施点/SHP/上海市_产业园区-点.shp"},"geometry":{"type":"Point","coordinates":[121.466346,31.272927]}},{"id":"1844","type":"Feature","properties":{"id":"3ab74245-69cc-393c-961f-c73c46722e17","pname":"上海市","pcode":310000,"cityname":"上海市","citycode":21,"adname":"虹口区","adcode":310109,"name":"德必同心运动LOFT(柳营路)","address":"柳营路同心路803弄小区西侧约40米","location":"121.470451,31.271354","tel":"[]","business_a":"和田","bigType":"商务住宅","midType":"产业园区","smallType":"产业园区","typecode":"120100","timestamp":"2024-08-25 23:43:32","gcjLng":121.470451,"gcjLat":31.271354,"wgs84Lng":121.465914,"wgs84Lat":31.273269,"__source_file__":"13-常用公服设施点/SHP/上海市_产业园区-点.shp"},"geometry":{"type":"Point","coordinates":[121.465914,31.273269]}},{"id":"1845","type":"Feature","properties":{"id":"8c089777-4d0f-3430-9cad-9f91c6861c90","pname":"上海市","pcode":310000,"cityname":"上海市","citycode":21,"adname":"虹口区","adcode":310109,"name":"运动LOFT创意园Y街区","address":"同心路600号","location":"121.470372,31.271544","tel":"[]","business_a":"和田","bigType":"商务住宅","midType":"产业园区","smallType":"产业园区","typecode":"120100","timestamp":"2024-07-09 03:47:32","gcjLng":121.470372,"gcjLat":31.271544,"wgs84Lng":121.465835,"wgs84Lat":31.273459,"__source_file__":"13-常用公服设施点/SHP/上海市_产业园区-点.shp"},"geometry":{"type":"Point","coordinates":[121.465835,31.273459]}},{"id":"4017","type":"Feature","properties":{"id":"aff0cca2-0ae3-36b7-95a3-4a73d913391d","pname":"上海市","pcode":310000,"cityname":"上海市","citycode":21,"adname":"静安区","adcode":310106,"name":"枭林·梦工厂","address":"洛川东路37号4楼","location":"121.465822,31.272524","tel":"[]","business_a":"和田","bigType":"商务住宅","midType":"产业园区","smallType":"产业园区|公司企业","typecode":"120100|170200","timestamp":"2024-07-27 06:47:49","gcjLng":121.465822,"gcjLat":31.272524,"wgs84Lng":121.46127,"wgs84Lat":31.274427,"__source_file__":"13-常用公服设施点/SHP/上海市_产业园区-点.shp"},"geometry":{"type":"Point","coordinates":[121.46127,31.274427]}},{"id":"3978","type":"Feature","properties":{"id":"cd37105e-08f2-3e3c-ba4d-a32f4e953e09","pname":"上海市","pcode":310000,"cityname":"上海市","citycode":21,"adname":"虹口区","adcode":310109,"name":"彩虹雨创意园","address":"北宝兴路355号(近延长路)","location":"121.463475,31.275437","tel":"[]","business_a":"凉城","bigType":"商务住宅","midType":"产业园区","smallType":"产业园区","typecode":"120100","timestamp":"2024-07-26 23:44:18","gcjLng":121.463475,"gcjLat":31.275437,"wgs84Lng":121.458916,"wgs84Lat":31.277333,"__source_file__":"13-常用公服设施点/SHP/上海市_产业园区-点.shp"},"geometry":{"type":"Point","coordinates":[121.458916,31.277333]}},{"id":"3977","type":"Feature","properties":{"id":"0f612d6c-8215-3b13-a9be-022567b52130","pname":"上海市","pcode":310000,"cityname":"上海市","citycode":21,"adname":"虹口区","adcode":310109,"name":"晟大文创园","address":"北宝兴路355号","location":"121.463475,31.275437","tel":"[]","business_a":"凉城","bigType":"商务住宅","midType":"产业园区","smallType":"产业园区","typecode":"120100","timestamp":"2024-02-15 21:40:50","gcjLng":121.463475,"gcjLat":31.275437,"wgs84Lng":121.458916,"wgs84Lat":31.277333,"__source_file__":"13-常用公服设施点/SHP/上海市_产业园区-点.shp"},"geometry":{"type":"Point","coordinates":[121.458916,31.277333]}},{"id":"2449","type":"Feature","properties":{"id":"48def999-95ac-3ab6-91af-c5b2781450bc","pname":"上海市","pcode":310000,"cityname":"上海市","citycode":21,"adname":"虹口区","adcode":310109,"name":"上海花园坊节能环保产业园","address":"花园路171号(近中山北一路)","location":"121.475604,31.272301","tel":"[]","business_a":"江湾","bigType":"商务住宅","midType":"产业园区","smallType":"产业园区","typecode":"120100","timestamp":"2024-08-29 07:36:48","gcjLng":121.475604,"gcjLat":31.272301,"wgs84Lng":121.471084,"wgs84Lat":31.27423,"__source_file__":"13-常用公服设施点/SHP/上海市_产业园区-点.shp"},"geometry":{"type":"Point","coordinates":[121.471084,31.27423]}},{"id":"2450","type":"Feature","properties":{"id":"15123c02-e8fc-3bd7-82b3-08aed29c5a79","pname":"上海市","pcode":310000,"cityname":"上海市","citycode":21,"adname":"虹口区","adcode":310109,"name":"上海花园坊节能环保产业园A区","address":"花园路与景祥路交叉口东60米","location":"121.475033,31.272488","tel":"[]","business_a":"江湾","bigType":"商务住宅","midType":"产业园区","smallType":"产业园区","typecode":"120100","timestamp":"2024-07-17 22:21:32","gcjLng":121.475033,"gcjLat":31.272488,"wgs84Lng":121.470511,"wgs84Lat":31.274415,"__source_file__":"13-常用公服设施点/SHP/上海市_产业园区-点.shp"},"geometry":{"type":"Point","coordinates":[121.470511,31.274415]}},{"id":"2451","type":"Feature","properties":{"id":"00d3d145-0f33-3870-8078-91d4737bacae","pname":"上海市","pcode":310000,"cityname":"上海市","citycode":21,"adname":"虹口区","adcode":310109,"name":"上海花园坊节能环保产业园B区","address":"花园路与景祥路交叉口东北140米","location":"121.475629,31.273026","tel":"[]","business_a":"江湾","bigType":"商务住宅","midType":"产业园区","smallType":"产业园区","typecode":"120100","timestamp":"2024-01-28 04:36:11","gcjLng":121.475629,"gcjLat":31.273026,"wgs84Lng":121.471109,"wgs84Lat":31.274955,"__source_file__":"13-常用公服设施点/SHP/上海市_产业园区-点.shp"},"geometry":{"type":"Point","coordinates":[121.471109,31.274955]}},{"id":"2452","type":"Feature","properties":{"id":"a123a6ea-17d3-34fb-8258-e6cc39e5cc95","pname":"上海市","pcode":310000,"cityname":"上海市","citycode":21,"adname":"虹口区","adcode":310109,"name":"上海花园坊节能环保产业园D区","address":"花园路与景祥路交叉口东北120米","location":"121.475137,31.273076","tel":"[]","business_a":"和田","bigType":"商务住宅","midType":"产业园区","smallType":"产业园区","typecode":"120100","timestamp":"2024-02-04 23:25:07","gcjLng":121.475137,"gcjLat":31.273076,"wgs84Lng":121.470615,"wgs84Lat":31.275003,"__source_file__":"13-常用公服设施点/SHP/上海市_产业园区-点.shp"},"geometry":{"type":"Point","coordinates":[121.470615,31.275003]}},{"id":"2454","type":"Feature","properties":{"id":"8aed0692-084e-37bf-a57a-322f27a4cfb2","pname":"上海市","pcode":310000,"cityname":"上海市","citycode":21,"adname":"虹口区","adcode":310109,"name":"上海华讯科技创业中心","address":"广中路40-1临3层(虹口足球场地铁站4号口步行470米)","location":"121.479060,31.275245","tel":"[]","business_a":"江湾","bigType":"商务住宅","midType":"产业园区","smallType":"产业园区","typecode":"120100","timestamp":"2024-05-01 14:03:24","gcjLng":121.47906,"gcjLat":31.275245,"wgs84Lng":121.474551,"wgs84Lat":31.277182,"__source_file__":"13-常用公服设施点/SHP/上海市_产业园区-点.shp"},"geometry":{"type":"Point","coordinates":[121.474551,31.277182]}}],"name":"上海市_产业园区-点","crs":{"type":"name","properties":{"name":"urn:ogc:def:crs:OGC:1.3:CRS84"}}}