{"type":"FeatureCollection","features":[{"id":"8","type":"Feature","properties":{"id":"B00155IPMP","name":"上海技嘉汽车维修服务有限公司","address":"巨鹿路272号(近淮海路)","type":"汽车维修;汽车综合维修;汽车综合维修","typecode":"030100","pcode":310000,"pname":"上海市","citycode":21,"cityname":"上海市","adcode":310101,"adname":"黄浦区","business_a":"淮海路","location":"121.461349,31.223185","tel":"13301677277;021-62711648","bigType":"汽车维修","midType":"汽车综合维修","smallType":"汽车综合维修","gcj_lng":121.461349,"gcj_lat":31.223185,"wgs84_loc":"121.456789,31.225099","wgs84Lng":"121.456789","wgs84Lat":"31.225099","__source_file__":"13-常用公服设施点/SHP/上海市_汽车综合维修.shp"},"geometry":{"type":"Point","coordinates":[121.456789,31.225099]}},{"id":"82","type":"Feature","properties":{"id":"B0FFGCEV3O","name":"君亦汽车快修美容养护中心","address":"西安路89号","type":"汽车维修;汽车综合维修;汽车综合维修","typecode":"030100","pcode":310000,"pname":"上海市","citycode":21,"cityname":"上海市","adcode":310109,"adname":"虹口区","business_a":"提篮桥","location":"121.493961,31.249923","tel":"13564024999;021-55098220","bigType":"汽车维修","midType":"汽车综合维修","smallType":"汽车综合维修","gcj_lng":121.493961,"gcj_lat":31.249923,"wgs84_loc":"121.489506,31.251915","wgs84Lng":"121.489506","wgs84Lat":"31.251915","__source_file__":"13-常用公服设施点/SHP/上海市_汽车综合维修.shp"},"geometry":{"type":"Point","coordinates":[121.489506,31.251915]}},{"id":"79","type":"Feature","properties":{"id":"B0FFJXSSE9","name":"火宝汽车维修","address":"中兴路122号","type":"汽车维修;汽车综合维修;汽车综合维修","typecode":"030100","pcode":310000,"pname":"上海市","citycode":21,"cityname":"上海市","adcode":310109,"adname":"虹口区","business_a":"和田","location":"121.478105,31.260935","tel":"021-56635882","bigType":"汽车维修","midType":"汽车综合维修","smallType":"汽车综合维修","gcj_lng":121.478105,"gcj_lat":31.260935,"wgs84_loc":"121.473594,31.262876","wgs84Lng":"121.473594","wgs84Lat":"31.262876","__source_file__":"13-常用公服设施点/SHP/上海市_汽车综合维修.shp"},"geometry":{"type":"Point","coordinates":[121.473594,31.262876]}},{"id":"935","type":"Feature","properties":{"id":"B0FFI78OC6","name":"车杰汽修","address":"宝安支路与欧阳路交叉口西40米","type":"汽车维修;汽车综合维修;汽车综合维修","typecode":"030100","pcode":310000,"pname":"上海市","citycode":21,"cityname":"上海市","adcode":310109,"adname":"虹口区","business_a":"曲阳","location":"121.489451,31.264648","tel":"13701660653","bigType":"汽车维修","midType":"汽车综合维修","smallType":"汽车综合维修","gcj_lng":121.489451,"gcj_lat":31.264648,"wgs84_loc":"121.484979,31.26662","wgs84Lng":"121.484979","wgs84Lat":"31.26662","__source_file__":"13-常用公服设施点/SHP/上海市_汽车综合维修.shp"},"geometry":{"type":"Point","coordinates":[121.484979,31.26662]}},{"id":"54","type":"Feature","properties":{"id":"B00155I0H0","name":"和诚汽修","address":"陈家宅路19号","type":"汽车维修;汽车综合维修;汽车综合维修","typecode":"030100","pcode":310000,"pname":"上海市","citycode":21,"cityname":"上海市","adcode":310106,"adname":"静安区","business_a":"和田","location":"121.466735,31.265039","tel":"021-66285219","bigType":"汽车维修","midType":"汽车综合维修","smallType":"汽车综合维修","gcj_lng":121.466735,"gcj_lat":31.265039,"wgs84_loc":"121.462187,31.266947","wgs84Lng":"121.462187","wgs84Lat":"31.266947","__source_file__":"13-常用公服设施点/SHP/上海市_汽车综合维修.shp"},"geometry":{"type":"Point","coordinates":[121.462187,31.266947]}},{"id":"55","type":"Feature","properties":{"id":"B00157HSNZ","name":"倍耐力轮胎(平型关路)","address":"平型关路712-718号","type":"汽车维修;汽车综合维修;汽车综合维修|汽车服务;汽车配件销售;汽车配件销售","typecode":"030100|010800","pcode":310000,"pname":"上海市","citycode":21,"cityname":"上海市","adcode":310106,"adname":"静安区","business_a":"大宁路","location":"121.460266,31.275684","tel":"021-56330776;13321868198","bigType":"汽车维修","midType":"汽车综合维修","smallType":"汽车综合维修|汽车服务","gcj_lng":121.460266,"gcj_lat":31.275684,"wgs84_loc":"121.455698,31.277572","wgs84Lng":"121.455698","wgs84Lat":"31.277572","__source_file__":"13-常用公服设施点/SHP/上海市_汽车综合维修.shp"},"geometry":{"type":"Point","coordinates":[121.455698,31.277572]}},{"id":"84","type":"Feature","properties":{"id":"B0FFIPFDEU","name":"车杰汽车服务(同心路店)","address":"新同心路186号附近","type":"汽车维修;汽车综合维修;汽车综合维修","typecode":"030100","pcode":310000,"pname":"上海市","citycode":21,"cityname":"上海市","adcode":310109,"adname":"虹口区","business_a":"凉城","location":"121.467270,31.276471","tel":"[]","bigType":"汽车维修","midType":"汽车综合维修","smallType":"汽车综合维修","gcj_lng":121.46727,"gcj_lat":31.276471,"wgs84_loc":"121.462723,31.278376","wgs84Lng":"121.462723","wgs84Lat":"31.278376","__source_file__":"13-常用公服设施点/SHP/上海市_汽车综合维修.shp"},"geometry":{"type":"Point","coordinates":[121.462723,31.278376]}},{"id":"57","type":"Feature","properties":{"id":"B00156O4Q4","name":"小黄汽车修理","address":"中山北路1782号","type":"汽车维修;汽车综合维修;汽车综合维修","typecode":"030100","pcode":310000,"pname":"上海市","citycode":21,"cityname":"上海市","adcode":310107,"adname":"普陀区","business_a":"光新","location":"121.435359,31.252345","tel":"13671794960","bigType":"汽车维修","midType":"汽车综合维修","smallType":"汽车综合维修","gcj_lng":121.435359,"gcj_lat":31.252345,"wgs84_loc":"121.430735,31.254195","wgs84Lng":"121.430735","wgs84Lat":"31.254195","__source_file__":"13-常用公服设施点/SHP/上海市_汽车综合维修.shp"},"geometry":{"type":"Point","coordinates":[121.430735,31.254195]}},{"id":"52","type":"Feature","properties":{"id":"B0FFFLJX6W","name":"鑫瑞汽修(闸北沪太路店)","address":"沪太路241号","type":"汽车维修;汽车综合维修;汽车综合维修","typecode":"030100","pcode":310000,"pname":"上海市","citycode":21,"cityname":"上海市","adcode":310106,"adname":"静安区","business_a":"和田","location":"121.454191,31.253947","tel":"13764953353","bigType":"汽车维修","midType":"汽车综合维修","smallType":"汽车综合维修","gcj_lng":121.454191,"gcj_lat":31.253947,"wgs84_loc":"121.449608,31.25583","wgs84Lng":"121.449608","wgs84Lat":"31.25583","__source_file__":"13-常用公服设施点/SHP/上海市_汽车综合维修.shp"},"geometry":{"type":"Point","coordinates":[121.449608,31.25583]}},{"id":"58","type":"Feature","properties":{"id":"B0015201B9","name":"友谊汽配维修","address":"交通路2239号","type":"汽车维修;汽车综合维修;汽车综合维修","typecode":"030100","pcode":310000,"pname":"上海市","citycode":21,"cityname":"上海市","adcode":310107,"adname":"普陀区","business_a":"光新","location":"121.433526,31.257687","tel":"021-56612644","bigType":"汽车维修","midType":"汽车综合维修","smallType":"汽车综合维修","gcj_lng":121.433526,"gcj_lat":31.257687,"wgs84_loc":"121.428898,31.259532","wgs84Lng":"121.428898","wgs84Lat":"31.259532","__source_file__":"13-常用公服设施点/SHP/上海市_汽车综合维修.shp"},"geometry":{"type":"Point","coordinates":[121.428898,31.259532]}},{"id":"986","type":"Feature","properties":{"id":"B00155FMZF","name":"华麟汽车维修服务(普善路店)","address":"普善路576-580号","type":"汽车维修;汽车综合维修;汽车综合维修","typecode":"030100","pcode":310000,"pname":"上海市","citycode":21,"cityname":"上海市","adcode":310106,"adname":"静安区","business_a":"和田","location":"121.453889,31.261217","tel":"021-51003019;13671721311;15821290008","bigType":"汽车维修","midType":"汽车综合维修","smallType":"汽车综合维修","gcj_lng":121.453889,"gcj_lat":31.261217,"wgs84_loc":"121.449305,31.263097","wgs84Lng":"121.449305","wgs84Lat":"31.263097","__source_file__":"13-常用公服设施点/SHP/上海市_汽车综合维修.shp"},"geometry":{"type":"Point","coordinates":[121.449305,31.263097]}},{"id":"45","type":"Feature","properties":{"id":"B0FFGYXB8F","name":"锦江汽车修理四厂","address":"延长中路765弄之5-6","type":"汽车维修;汽车综合维修;汽车综合维修","typecode":"030100","pcode":310000,"pname":"上海市","citycode":21,"cityname":"上海市","adcode":310106,"adname":"静安区","business_a":"大宁路","location":"121.4451,31.267424","tel":"021-56053605","bigType":"汽车维修","midType":"汽车综合维修","smallType":"汽车综合维修","gcj_lng":121.4451,"gcj_lat":31.267424,"wgs84_loc":"121.440494,31.269283","wgs84Lng":"121.440494","wgs84Lat":"31.269283","__source_file__":"13-常用公服设施点/SHP/上海市_汽车综合维修.shp"},"geometry":{"type":"Point","coordinates":[121.440494,31.269283]}}],"name":"上海市_汽车综合维修","crs":{"type":"name","properties":{"name":"urn:ogc:def:crs:OGC:1.3:CRS84"}}}