{"type":"FeatureCollection","features":[{"id":"519","type":"Feature","properties":{"OBJECTID":947209,"id":"b1222b52-3ff2-3cd8-b85f-2759b18b0503","name":"曹家渡街道居家养老服务中心","type":"体育休闲服务;度假疗养场所;疗养院","typecode":"80402","address":"安远路899弄14号(武宁路地铁站2号口步行270米)","经度":121.431995,"纬度":31.234324,"tel":null,"pcode":310000,"pname":null,"citycode":21,"cityname":"上海市","adcode":310106,"adname":"静安区","gridcode":4621638401.0,"distance":"625","business_a":null,"timestamp":"NaT","biz_ext":"{\"rating\": [], \"cost\": []}","行业大":"体育休闲服务","行业中":"度假疗养场所","行业小":"疗养院","typecode_X":0.0,"typecode_Y":0.0,"__source_file__":"13-常用公服设施点/SHP/上海市_度假养老.shp"},"geometry":{"type":"Point","coordinates":[121.4273669660501,31.23617695659654]}},{"id":"683","type":"Feature","properties":{"OBJECTID":1142654,"id":"6297959f-68f7-3823-8c8d-eccad3ec8e48","name":"长寿安远长者照护之家","type":"体育休闲服务;度假疗养场所;疗养院","typecode":"80402","address":"长寿社区安远路676号(武宁路地铁站2号口步行480米)","经度":121.435084,"纬度":31.23538,"tel":null,"pcode":310000,"pname":null,"citycode":21,"cityname":"上海市","adcode":310107,"adname":"普陀区","gridcode":4621638402.0,"distance":"843","business_a":null,"timestamp":"NaT","biz_ext":"{\"rating\": [], \"cost\": []}","行业大":"体育休闲服务","行业中":"度假疗养场所","行业小":"疗养院","typecode_X":0.0,"typecode_Y":0.0,"__source_file__":"13-常用公服设施点/SHP/上海市_度假养老.shp"},"geometry":{"type":"Point","coordinates":[121.43046099920016,31.23723674972458]}},{"id":"536","type":"Feature","properties":{"OBJECTID":965636,"id":"bef5a70b-e480-3b42-8f7c-1460ca3df34f","name":"上海静安区日月星养老院","type":"体育休闲服务;度假疗养场所;疗养院","typecode":"80402","address":"余姚路338号静安日月星养老院生活护理部","经度":121.43713,"纬度":31.235435,"tel":"4006233918","pcode":310000,"pname":null,"citycode":21,"cityname":"上海市","adcode":310106,"adname":"静安区","gridcode":4621638402.0,"distance":"451","business_a":null,"timestamp":"NaT","biz_ext":"{\"rating\": [], \"cost\": []}","行业大":"体育休闲服务","行业中":"度假疗养场所","行业小":"疗养院","typecode_X":0.0,"typecode_Y":0.0,"__source_file__":"13-常用公服设施点/SHP/上海市_度假养老.shp"},"geometry":{"type":"Point","coordinates":[121.43251065195932,31.237294778747668]}},{"id":"595","type":"Feature","properties":{"OBJECTID":1016775,"id":"c407f884-c6f9-3c00-bbd1-f0316b7facc9","name":"富民养老院","type":"体育休闲服务;度假疗养场所;疗养院","typecode":"80402","address":"富民路22弄10号甲(静安寺地铁站8号口步行200米)","经度":121.449725,"纬度":31.220922,"tel":null,"pcode":310000,"pname":null,"citycode":21,"cityname":"上海市","adcode":310106,"adname":"静安区","gridcode":4621636512.0,"distance":"568","business_a":null,"timestamp":"NaT","biz_ext":"{\"rating\": [], \"cost\": []}","行业大":"体育休闲服务","行业中":"度假疗养场所","行业小":"疗养院","typecode_X":0.0,"typecode_Y":0.0,"__source_file__":"13-常用公服设施点/SHP/上海市_度假养老.shp"},"geometry":{"type":"Point","coordinates":[121.44513381942875,31.22281101224184]}},{"id":"396","type":"Feature","properties":{"OBJECTID":840845,"id":"19b5f4f7-1c08-3465-a392-5418b43485fb","name":"江宁乐龄家园","type":"体育休闲服务;度假疗养场所;疗养院","typecode":"80402","address":"常德路545弄43号","经度":121.445516,"纬度":31.229932,"tel":null,"pcode":310000,"pname":null,"citycode":21,"cityname":"上海市","adcode":310106,"adname":"静安区","gridcode":4621637511.0,"distance":"895","business_a":null,"timestamp":"NaT","biz_ext":"{\"rating\": [], \"cost\": []}","行业大":"体育休闲服务","行业中":"度假疗养场所","行业小":"疗养院","typecode_X":0.0,"typecode_Y":0.0,"__source_file__":"13-常用公服设施点/SHP/上海市_度假养老.shp"},"geometry":{"type":"Point","coordinates":[121.44091423371115,31.231808606540902]}},{"id":"260","type":"Feature","properties":{"OBJECTID":788245,"id":"29caf4a0-fe23-3945-ac05-9ee6a5234691","name":"上海静安区曹家渡爱华养老院","type":"体育休闲服务;度假疗养场所;疗养院","typecode":"80402","address":"胶州路485号(近康定路)(昌平路地铁站3号口步行340米)","经度":121.441721,"纬度":31.231799,"tel":null,"pcode":310000,"pname":null,"citycode":21,"cityname":"上海市","adcode":310106,"adname":"静安区","gridcode":4621637521.0,"distance":"415","business_a":null,"timestamp":"NaT","biz_ext":"{\"rating\": [], \"cost\": []}","行业大":"体育休闲服务","行业中":"度假疗养场所","行业小":"疗养院","typecode_X":0.0,"typecode_Y":0.0,"__source_file__":"13-常用公服设施点/SHP/上海市_度假养老.shp"},"geometry":{"type":"Point","coordinates":[121.43711091901099,31.233667927893855]}},{"id":"484","type":"Feature","properties":{"OBJECTID":876659,"id":"8148762b-66cf-382e-a523-ffd0dc3eeef1","name":"蝴蝶湾敬老院","type":"体育休闲服务;度假疗养场所;疗养院","typecode":"80402","address":"石门二路505-1号(汉中路地铁站10号口步行470米)","经度":121.458718,"纬度":31.237499,"tel":null,"pcode":310000,"pname":null,"citycode":21,"cityname":"上海市","adcode":310106,"adname":"静安区","gridcode":4621638612.0,"distance":"91","business_a":null,"timestamp":"NaT","biz_ext":"{\"rating\": [], \"cost\": []}","行业大":"体育休闲服务","行业中":"度假疗养场所","行业小":"疗养院","typecode_X":0.0,"typecode_Y":0.0,"__source_file__":"13-常用公服设施点/SHP/上海市_度假养老.shp"},"geometry":{"type":"Point","coordinates":[121.45414883576247,31.23939995489172]}},{"id":"737","type":"Feature","properties":{"OBJECTID":1293209,"id":"019609a2-9901-3ba0-9a0c-3a23c6592146","name":"宝龙养老院","type":"体育休闲服务;度假疗养场所;疗养院","typecode":"80402","address":"汉中路地铁站10号口步行450米","经度":121.456711,"纬度":31.239088,"tel":null,"pcode":310000,"pname":null,"citycode":21,"cityname":"上海市","adcode":310106,"adname":"静安区","gridcode":4621638621.0,"distance":"443","business_a":null,"timestamp":"NaT","biz_ext":"{\"rating\": [], \"cost\": []}","行业大":"体育休闲服务","行业中":"度假疗养场所","行业小":"疗养院","typecode_X":0.0,"typecode_Y":0.0,"__source_file__":"13-常用公服设施点/SHP/上海市_度假养老.shp"},"geometry":{"type":"Point","coordinates":[121.45213618548215,31.240983619772738]}},{"id":"43","type":"Feature","properties":{"OBJECTID":121955,"id":"aac6d5d9-31d1-3d3c-96e5-ac37203bb358","name":"江宁路街道社区综合为老服务中心(昌化大楼店)","type":"体育休闲服务;度假疗养场所;疗养院","typecode":"80402","address":"江宁路街道淮安路771号","经度":121.450316,"纬度":31.239179,"tel":"021-62991007","pcode":310000,"pname":"上海市","citycode":21,"cityname":"上海市","adcode":310106,"adname":"静安区","gridcode":4621638620.0,"distance":"984","business_a":"曹家渡","timestamp":"2023-03-27","biz_ext":"{\"rating\": [], \"cost\": []}","行业大":"体育休闲服务","行业中":"度假疗养场所","行业小":"疗养院","typecode_X":0.0,"typecode_Y":0.0,"__source_file__":"13-常用公服设施点/SHP/上海市_度假养老.shp"},"geometry":{"type":"Point","coordinates":[121.44572467717872,31.241060774253565]}},{"id":"488","type":"Feature","properties":{"OBJECTID":877945,"id":"7d8990b0-27c0-3dc5-86b2-6996536254b4","name":"普陀区宜川养老院","type":"体育休闲服务;度假疗养场所;疗养院","typecode":"80402","address":"远景路69号","经度":121.450003,"纬度":31.2516,"tel":"4000066559","pcode":310000,"pname":null,"citycode":21,"cityname":"上海市","adcode":310107,"adname":"普陀区","gridcode":4621730600.0,"distance":"822","business_a":null,"timestamp":"NaT","biz_ext":"{\"rating\": [], \"cost\": []}","行业大":"体育休闲服务","行业中":"度假疗养场所","行业小":"疗养院","typecode_X":0.0,"typecode_Y":0.0,"__source_file__":"13-常用公服设施点/SHP/上海市_度假养老.shp"},"geometry":{"type":"Point","coordinates":[121.4454098368096,31.2534755685337]}},{"id":"295","type":"Feature","properties":{"OBJECTID":805552,"id":"19282e68-ec6d-3399-be4d-6e055a178990","name":"上海天目西社区敬老院","type":"体育休闲服务;度假疗养场所;疗养院","typecode":"80402","address":"沪太路453弄84号(近毛家弄)","经度":121.452548,"纬度":31.257008,"tel":null,"pcode":310000,"pname":null,"citycode":21,"cityname":"上海市","adcode":310106,"adname":"静安区","gridcode":4621730620.0,"distance":"679","business_a":null,"timestamp":"NaT","biz_ext":"{\"rating\": [], \"cost\": []}","行业大":"体育休闲服务","行业中":"度假疗养场所","行业小":"疗养院","typecode_X":0.0,"typecode_Y":0.0,"__source_file__":"13-常用公服设施点/SHP/上海市_度假养老.shp"},"geometry":{"type":"Point","coordinates":[121.44796070169016,31.258886488414564]}},{"id":"25","type":"Feature","properties":{"OBJECTID":66162,"id":"759afd9d-e1be-35ef-ba18-bd5ad01d19c6","name":"上海黄浦区爱以德养老院","type":"体育休闲服务;度假疗养场所;疗养院","typecode":"80402","address":"广东路525号金外滩大厦F1层","经度":121.481673,"纬度":31.231836,"tel":"4006233918","pcode":310000,"pname":"上海市","citycode":21,"cityname":"上海市","adcode":310101,"adname":"黄浦区","gridcode":4621637821.0,"distance":"60","business_a":"北京东路","timestamp":"2023-05-02","biz_ext":"{\"rating\": [], \"cost\": []}","行业大":"体育休闲服务","行业中":"度假疗养场所","行业小":"疗养院","typecode_X":0.0,"typecode_Y":0.0,"__source_file__":"13-常用公服设施点/SHP/上海市_度假养老.shp"},"geometry":{"type":"Point","coordinates":[121.47717654023636,31.233799927959325]}},{"id":"12","type":"Feature","properties":{"OBJECTID":24899,"id":"50467b8d-84e0-3f4d-ba6a-ed984e85e5a1","name":"上海爱以德浦岸护理院","type":"体育休闲服务;度假疗养场所;疗养院","typecode":"80402","address":"广东路495号","经度":121.481582,"纬度":31.231914,"tel":"4006233918","pcode":310000,"pname":"上海市","citycode":21,"cityname":"上海市","adcode":310101,"adname":"黄浦区","gridcode":4621637821.0,"distance":"63","business_a":"北京东路","timestamp":"2023-05-11","biz_ext":"{\"rating\": [], \"cost\": []}","行业大":"体育休闲服务","行业中":"度假疗养场所","行业小":"疗养院","typecode_X":0.0,"typecode_Y":0.0,"__source_file__":"13-常用公服设施点/SHP/上海市_度假养老.shp"},"geometry":{"type":"Point","coordinates":[121.47708522104854,31.233877631040514]}},{"id":"842","type":"Feature","properties":{"OBJECTID":1428465,"id":"90073e2a-5c93-3b11-b30d-2625c85a6e2d","name":"虹德养老院","type":"体育休闲服务;度假疗养场所;疗养院","typecode":"80402","address":"上海市虹口区衡水路367号","经度":121.481885,"纬度":31.251712,"tel":null,"pcode":310000,"pname":null,"citycode":21,"cityname":"上海市","adcode":310109,"adname":"虹口区","gridcode":4621730801.0,"distance":"1179","business_a":null,"timestamp":"NaT","biz_ext":"{\"rating\": [], \"cost\": []}","行业大":"体育休闲服务","行业中":"度假疗养场所","行业小":"疗养院","typecode_X":0.0,"typecode_Y":0.0,"__source_file__":"13-常用公服设施点/SHP/上海市_度假养老.shp"},"geometry":{"type":"Point","coordinates":[121.477387566097,31.25366756064416]}},{"id":"257","type":"Feature","properties":{"OBJECTID":785421,"id":"a57a406b-6636-3cbf-b829-a0e68d9427d8","name":"上海静安之星养老院","type":"体育休闲服务;度假疗养场所;疗养院","typecode":"80402","address":"芷江中路芷江中路413弄小区","经度":121.470531,"纬度":31.25965,"tel":null,"pcode":310000,"pname":null,"citycode":21,"cityname":"上海市","adcode":310106,"adname":"静安区","gridcode":4621731701.0,"distance":"1067","business_a":null,"timestamp":"NaT","biz_ext":"{\"rating\": [], \"cost\": []}","行业大":"体育休闲服务","行业中":"度假疗养场所","行业小":"疗养院","typecode_X":0.0,"typecode_Y":0.0,"__source_file__":"13-常用公服设施点/SHP/上海市_度假养老.shp"},"geometry":{"type":"Point","coordinates":[121.46599522889433,31.261570621478256]}},{"id":"644","type":"Feature","properties":{"OBJECTID":1090475,"id":"bec93633-9ddb-3df4-9143-89dbbdfd105b","name":"东风芷江养老院","type":"体育休闲服务;度假疗养场所;疗养院","typecode":"80402","address":"青云路755号","经度":121.465386,"纬度":31.260624,"tel":null,"pcode":310000,"pname":null,"citycode":21,"cityname":"上海市","adcode":310106,"adname":"静安区","gridcode":4621731700.0,"distance":"1175","business_a":null,"timestamp":"NaT","biz_ext":"{\"rating\": [], \"cost\": []}","行业大":"体育休闲服务","行业中":"度假疗养场所","行业小":"疗养院","typecode_X":0.0,"typecode_Y":0.0,"__source_file__":"13-常用公服设施点/SHP/上海市_度假养老.shp"},"geometry":{"type":"Point","coordinates":[121.46083420483444,31.262530871183802]}},{"id":"522","type":"Feature","properties":{"OBJECTID":950112,"id":"ef9e8011-3a24-3c6d-80c3-5c2305114c08","name":"虹叶老年公寓","type":"体育休闲服务;度假疗养场所;疗养院","typecode":"80402","address":"溧阳路1084弄28号(海伦路地铁站7号口步行280米)","经度":121.487887,"纬度":31.261205,"tel":null,"pcode":310000,"pname":null,"citycode":21,"cityname":"上海市","adcode":310109,"adname":"虹口区","gridcode":4621731812.0,"distance":"495","business_a":null,"timestamp":"NaT","biz_ext":"{\"rating\": [], \"cost\": []}","行业大":"体育休闲服务","行业中":"度假疗养场所","行业小":"疗养院","typecode_X":0.0,"typecode_Y":0.0,"__source_file__":"13-常用公服设施点/SHP/上海市_度假养老.shp"},"geometry":{"type":"Point","coordinates":[121.48340969524227,31.263173881414094]}},{"id":"92","type":"Feature","properties":{"OBJECTID":269012,"id":"9b3e511d-dd79-375e-9a69-3b5b5cce1c96","name":"虹叶养老院","type":"体育休闲服务;度假疗养场所;疗养院","typecode":"80402","address":"长春路与长春支路交叉口北140米","经度":121.486368,"纬度":31.261939,"tel":"[]","pcode":310000,"pname":"上海市","citycode":21,"cityname":"上海市","adcode":310109,"adname":"虹口区","gridcode":4621731812.0,"distance":"1001","business_a":"宝山路","timestamp":"2023-04-27","biz_ext":"{\"rating\": [], \"cost\": []}","行业大":"体育休闲服务","行业中":"度假疗养场所","行业小":"疗养院","typecode_X":0.0,"typecode_Y":0.0,"__source_file__":"13-常用公服设施点/SHP/上海市_度假养老.shp"},"geometry":{"type":"Point","coordinates":[121.48188528087348,31.263903100344624]}},{"id":"733","type":"Feature","properties":{"OBJECTID":1286767,"id":"c593cc7c-3d48-3e2f-8a54-19f24189d526","name":"益福养老院","type":"体育休闲服务;度假疗养场所;疗养院","typecode":"80402","address":"西藏北路1375号","经度":121.464433,"纬度":31.265287,"tel":null,"pcode":310000,"pname":null,"citycode":21,"cityname":"上海市","adcode":310106,"adname":"静安区","gridcode":4621731720.0,"distance":"864","business_a":null,"timestamp":"NaT","biz_ext":"{\"rating\": [], \"cost\": []}","行业大":"体育休闲服务","行业中":"度假疗养场所","行业小":"疗养院","typecode_X":0.0,"typecode_Y":0.0,"__source_file__":"13-常用公服设施点/SHP/上海市_度假养老.shp"},"geometry":{"type":"Point","coordinates":[121.4598779407399,31.26718946759376]}},{"id":"749","type":"Feature","properties":{"OBJECTID":1316433,"id":"e9f1e728-f0f1-3a58-a7e2-b46a9bbab2f8","name":"吉祥养老院","type":"体育休闲服务;度假疗养场所;疗养院","typecode":"80402","address":"[]","经度":121.488083,"纬度":31.265697,"tel":null,"pcode":310000,"pname":null,"citycode":21,"cityname":"上海市","adcode":310109,"adname":"虹口区","gridcode":4621731920.0,"distance":"997","business_a":null,"timestamp":"NaT","biz_ext":"{\"rating\": [], \"cost\": []}","行业大":"体育休闲服务","行业中":"度假疗养场所","行业小":"疗养院","typecode_X":0.0,"typecode_Y":0.0,"__source_file__":"13-常用公服设施点/SHP/上海市_度假养老.shp"},"geometry":{"type":"Point","coordinates":[121.48360600382948,31.267664524371934]}},{"id":"489","type":"Feature","properties":{"OBJECTID":877946,"id":"c4643bc4-4def-3e23-847a-96aeeacb1cda","name":"长寿家园养老院","type":"体育休闲服务;度假疗养场所;疗养院","typecode":"80402","address":"宜昌路555号4-5层(镇坪路地铁站5号口步行420米)","经度":121.4339,"纬度":31.244263,"tel":null,"pcode":310000,"pname":null,"citycode":21,"cityname":"上海市","adcode":310107,"adname":"普陀区","gridcode":4621639402.0,"distance":"1239","business_a":null,"timestamp":"NaT","biz_ext":"{'rating': [], 'cost': []}","行业大":"体育休闲服务","行业中":"度假疗养场所","行业小":"疗养院","typecode_X":0.0,"typecode_Y":0.0,"__source_file__":"13-常用公服设施点/SHP/上海市_度假养老.shp"},"geometry":{"type":"Point","coordinates":[121.42927420536168,31.246114035084105]}},{"id":"692","type":"Feature","properties":{"OBJECTID":1161143,"id":"6a74cbbc-86e1-37f8-ae44-352ca30aec18","name":"申养望年荟连锁养老机构","type":"体育休闲服务;度假疗养场所;疗养院","typecode":"80402","address":"中山北路2020号(镇坪路地铁站4号口步行160米)","经度":121.431428,"纬度":31.248343,"tel":null,"pcode":310000,"pname":null,"citycode":21,"cityname":"上海市","adcode":310107,"adname":"普陀区","gridcode":4621639421.0,"distance":"1264","business_a":null,"timestamp":"NaT","biz_ext":"{\"rating\": [], \"cost\": []}","行业大":"体育休闲服务","行业中":"度假疗养场所","行业小":"疗养院","typecode_X":0.0,"typecode_Y":0.0,"__source_file__":"13-常用公服设施点/SHP/上海市_度假养老.shp"},"geometry":{"type":"Point","coordinates":[121.42679785799773,31.25018887979435]}},{"id":"392","type":"Feature","properties":{"OBJECTID":840297,"id":"bc522f6e-695c-3526-88ae-3d40e52377bd","name":"上海普陀区石岚敬老院","type":"体育休闲服务;度假疗养场所;疗养院","typecode":"80402","address":"岚皋路200弄32号(镇坪路地铁站3号口步行450米)","经度":121.426812,"纬度":31.249281,"tel":null,"pcode":310000,"pname":null,"citycode":21,"cityname":"上海市","adcode":310107,"adname":"普陀区","gridcode":4621639420.0,"distance":"1066","business_a":null,"timestamp":"NaT","biz_ext":"{\"rating\": [], \"cost\": []}","行业大":"体育休闲服务","行业中":"度假疗养场所","行业小":"疗养院","typecode_X":0.0,"typecode_Y":0.0,"__source_file__":"13-常用公服设施点/SHP/上海市_度假养老.shp"},"geometry":{"type":"Point","coordinates":[121.42217516053485,31.251120950802182]}},{"id":"829","type":"Feature","properties":{"OBJECTID":1419944,"id":"db76dfda-e3a1-3de9-a0f8-701ca8cc27de","name":"中山北路养老院","type":"体育休闲服务;度假疗养场所;疗养院","typecode":"80402","address":"中山北路1760弄小区西北门旁","经度":121.435652,"纬度":31.252671,"tel":null,"pcode":310000,"pname":null,"citycode":21,"cityname":"上海市","adcode":310107,"adname":"普陀区","gridcode":4621730402.0,"distance":"1309","business_a":null,"timestamp":"NaT","biz_ext":"{\"rating\": [], \"cost\": []}","行业大":"体育休闲服务","行业中":"度假疗养场所","行业小":"疗养院","typecode_X":0.0,"typecode_Y":0.0,"__source_file__":"13-常用公服设施点/SHP/上海市_度假养老.shp"},"geometry":{"type":"Point","coordinates":[121.43102849019941,31.254520809130504]}},{"id":"504","type":"Feature","properties":{"OBJECTID":893758,"id":"95ccfd52-1d03-309f-9a20-8b17647bcdd0","name":"上海泾惠敬老院","type":"体育休闲服务;度假疗养场所;疗养院","typecode":"80402","address":"交通路2107弄27号","经度":121.435037,"纬度":31.257904,"tel":null,"pcode":310000,"pname":null,"citycode":21,"cityname":"上海市","adcode":310107,"adname":"普陀区","gridcode":4621730422.0,"distance":"829","business_a":null,"timestamp":"NaT","biz_ext":"{\"rating\": [], \"cost\": []}","行业大":"体育休闲服务","行业中":"度假疗养场所","行业小":"疗养院","typecode_X":0.0,"typecode_Y":0.0,"__source_file__":"13-常用公服设施点/SHP/上海市_度假养老.shp"},"geometry":{"type":"Point","coordinates":[121.43041195860258,31.259750615218113]}},{"id":"2","type":"Feature","properties":{"OBJECTID":8777,"id":"35e3661a-055a-332d-ac01-9f5112d60956","name":"红枫会养老院","type":"体育休闲服务;度假疗养场所;疗养院","typecode":"80402","address":"泾惠路30号","经度":121.435251,"纬度":31.259159,"tel":"021-66073872;13816138125","pcode":310000,"pname":"上海市","citycode":21,"cityname":"上海市","adcode":310107,"adname":"普陀区","gridcode":4621731402.0,"distance":"611","business_a":"大宁路","timestamp":"2023-03-28","biz_ext":"{\"rating\": [], \"cost\": \"8542.00\"}","行业大":"体育休闲服务","行业中":"度假疗养场所","行业小":"疗养院","typecode_X":0.0,"typecode_Y":0.0,"__source_file__":"13-常用公服设施点/SHP/上海市_度假养老.shp"},"geometry":{"type":"Point","coordinates":[121.43062622180548,31.26100537950005]}},{"id":"3","type":"Feature","properties":{"OBJECTID":9434,"id":"1bee6c33-93c0-304a-9827-dfeb3c3c9525","name":"上海静安区和养天目西养护院","type":"体育休闲服务;度假疗养场所;疗养院","typecode":"80402","address":"沪太路453弄84号(毛家弄内)","经度":121.452662,"纬度":31.257098,"tel":"[]","pcode":310000,"pname":"上海市","citycode":21,"cityname":"上海市","adcode":310106,"adname":"静安区","gridcode":4621730620.0,"distance":"453","business_a":"和田","timestamp":"2022-11-22","biz_ext":"{\"rating\": [], \"cost\": []}","行业大":"体育休闲服务","行业中":"度假疗养场所","行业小":"疗养院","typecode_X":0.0,"typecode_Y":0.0,"__source_file__":"13-常用公服设施点/SHP/上海市_度假养老.shp"},"geometry":{"type":"Point","coordinates":[121.44807498395606,31.258976691703932]}},{"id":"354","type":"Feature","properties":{"OBJECTID":826958,"id":"257a7edc-8880-3703-b695-cd8bcd3bb2e9","name":"宜福敬老院","type":"体育休闲服务;度假疗养场所;疗养院","typecode":"80402","address":"宜川路78号宜川六村","经度":121.4372,"纬度":31.25814,"tel":null,"pcode":310000,"pname":null,"citycode":21,"cityname":"上海市","adcode":310107,"adname":"普陀区","gridcode":4621730422.0,"distance":"1188","business_a":null,"timestamp":"NaT","biz_ext":"{\"rating\": [], \"cost\": []}","行业大":"体育休闲服务","行业中":"度假疗养场所","行业小":"疗养院","typecode_X":0.0,"typecode_Y":0.0,"__source_file__":"13-常用公服设施点/SHP/上海市_度假养老.shp"},"geometry":{"type":"Point","coordinates":[121.43257880685509,31.259989742131424]}},{"id":"554","type":"Feature","properties":{"OBJECTID":987240,"id":"0e819d41-b8af-34b2-bda7-ff9214e420a1","name":"上海普陀区宜川泰山敬老院","type":"体育休闲服务;度假疗养场所;疗养院","typecode":"80402","address":"泰山三村52号","经度":121.447929,"纬度":31.258895,"tel":null,"pcode":310000,"pname":null,"citycode":21,"cityname":"上海市","adcode":310107,"adname":"普陀区","gridcode":4621731502.0,"distance":"1086","business_a":null,"timestamp":"NaT","biz_ext":"{\"rating\": [], \"cost\": []}","行业大":"体育休闲服务","行业中":"度假疗养场所","行业小":"疗养院","typecode_X":0.0,"typecode_Y":0.0,"__source_file__":"13-常用公服设施点/SHP/上海市_度假养老.shp"},"geometry":{"type":"Point","coordinates":[121.44333024810382,31.260763223347325]}},{"id":"486","type":"Feature","properties":{"OBJECTID":877654,"id":"f2144958-9c00-3f06-8a7d-8737eb1295c8","name":"上海普陀区宜川第二敬老院","type":"体育休闲服务;度假疗养场所;疗养院","typecode":"80402","address":"宜川路宜川二村120号","经度":121.437882,"纬度":31.260329,"tel":null,"pcode":310000,"pname":null,"citycode":21,"cityname":"上海市","adcode":310107,"adname":"普陀区","gridcode":4621731500.0,"distance":"1105","business_a":null,"timestamp":"NaT","biz_ext":"{\"rating\": [], \"cost\": []}","行业大":"体育休闲服务","行业中":"度假疗养场所","行业小":"疗养院","typecode_X":0.0,"typecode_Y":0.0,"__source_file__":"13-常用公服设施点/SHP/上海市_度假养老.shp"},"geometry":{"type":"Point","coordinates":[121.43326188422648,31.262178849023403]}},{"id":"101","type":"Feature","properties":{"OBJECTID":380502,"id":"778b2ec6-1d34-370a-8029-9cb09bd2cceb","name":"乐龄家园","type":"体育休闲服务;度假疗养场所;疗养院","typecode":"80402","address":"谈家桥路与柳营路交叉口东北100米","经度":121.451549,"纬度":31.261572,"tel":"[]","pcode":310000,"pname":"上海市","citycode":21,"cityname":"上海市","adcode":310106,"adname":"静安区","gridcode":4621731610.0,"distance":"801","business_a":"大宁路","timestamp":"2023-05-11","biz_ext":"{\"rating\": [], \"cost\": []}","行业大":"体育休闲服务","行业中":"度假疗养场所","行业小":"疗养院","typecode_X":0.0,"typecode_Y":0.0,"__source_file__":"13-常用公服设施点/SHP/上海市_度假养老.shp"},"geometry":{"type":"Point","coordinates":[121.44695878743045,31.26344639745985]}},{"id":"356","type":"Feature","properties":{"OBJECTID":827105,"id":"1edfa279-56f4-3cda-87cd-a9d27f8d578f","name":"颐和爱心敬老院","type":"体育休闲服务;度假疗养场所;疗养院","typecode":"80402","address":"延长西路172号","经度":121.440053,"纬度":31.263103,"tel":null,"pcode":310000,"pname":null,"citycode":21,"cityname":"上海市","adcode":310107,"adname":"普陀区","gridcode":4621731510.0,"distance":"1383","business_a":null,"timestamp":"NaT","biz_ext":"{\"rating\": [], \"cost\": []}","行业大":"体育休闲服务","行业中":"度假疗养场所","行业小":"疗养院","typecode_X":0.0,"typecode_Y":0.0,"__source_file__":"13-常用公服设施点/SHP/上海市_度假养老.shp"},"geometry":{"type":"Point","coordinates":[121.43543682961571,31.26495514665436]}},{"id":"337","type":"Feature","properties":{"OBJECTID":821971,"id":"17373a53-3d56-38e2-973f-2cc19bc5d732","name":"颐和养老院(普善路)","type":"体育休闲服务;度假疗养场所;疗养院","typecode":"80402","address":"共和新路街道洛川中路901弄好德便利店门口","经度":121.45049,"纬度":31.26568,"tel":null,"pcode":310000,"pname":null,"citycode":21,"cityname":"上海市","adcode":310106,"adname":"静安区","gridcode":4621731620.0,"distance":"504","business_a":null,"timestamp":"NaT","biz_ext":"{\"rating\": [], \"cost\": []}","行业大":"体育休闲服务","行业中":"度假疗养场所","行业小":"疗养院","typecode_X":0.0,"typecode_Y":0.0,"__source_file__":"13-常用公服设施点/SHP/上海市_度假养老.shp"},"geometry":{"type":"Point","coordinates":[121.44589680694668,31.267550434231808]}},{"id":"467","type":"Feature","properties":{"OBJECTID":862305,"id":"54ae60c6-9af3-3eda-9ac5-47749019e65c","name":"合阳老年公寓","type":"体育休闲服务;度假疗养场所;疗养院","typecode":"80402","address":"延长西路40弄42号","经度":121.44158,"纬度":31.26633,"tel":null,"pcode":310000,"pname":null,"citycode":21,"cityname":"上海市","adcode":310107,"adname":"普陀区","gridcode":4621731520.0,"distance":"682","business_a":null,"timestamp":"NaT","biz_ext":"{\"rating\": [], \"cost\": []}","行业大":"体育休闲服务","行业中":"度假疗养场所","行业小":"疗养院","typecode_X":0.0,"typecode_Y":0.0,"__source_file__":"13-常用公服设施点/SHP/上海市_度假养老.shp"},"geometry":{"type":"Point","coordinates":[121.43696662973024,31.26818333491507]}},{"id":"761","type":"Feature","properties":{"OBJECTID":1323623,"id":"168535f8-7eee-3a40-8c3c-cc869d4f2180","name":"长寿家园(山阴路养护院)","type":"体育休闲服务;度假疗养场所;疗养院","typecode":"80402","address":"山阴路277号","经度":121.485186,"纬度":31.268484,"tel":null,"pcode":310000,"pname":null,"citycode":21,"cityname":"上海市","adcode":310109,"adname":"虹口区","gridcode":4621732802.0,"distance":"694","business_a":null,"timestamp":"NaT","biz_ext":"{\"rating\": [], \"cost\": []}","行业大":"体育休闲服务","行业中":"度假疗养场所","行业小":"疗养院","typecode_X":0.0,"typecode_Y":0.0,"__source_file__":"13-常用公服设施点/SHP/上海市_度假养老.shp"},"geometry":{"type":"Point","coordinates":[121.48069857853748,31.270441837402608]}},{"id":"479","type":"Feature","properties":{"OBJECTID":873247,"id":"52095eca-a111-32d8-bf97-1784aecd20d8","name":"杏圆养老共和新路街道敬老院","type":"体育休闲服务;度假疗养场所;疗养院","typecode":"80402","address":"柳营路三一九弄45号甲号","经度":121.462048,"纬度":31.268563,"tel":null,"pcode":310000,"pname":null,"citycode":21,"cityname":"上海市","adcode":310106,"adname":"静安区","gridcode":4621732602.0,"distance":"1388","business_a":null,"timestamp":"NaT","biz_ext":"{\"rating\": [], \"cost\": []}","行业大":"体育休闲服务","行业中":"度假疗养场所","行业小":"疗养院","typecode_X":0.0,"typecode_Y":0.0,"__source_file__":"13-常用公服设施点/SHP/上海市_度假养老.shp"},"geometry":{"type":"Point","coordinates":[121.45748562922316,31.270458190217397]}},{"id":"542","type":"Feature","properties":{"OBJECTID":971801,"id":"81cc3909-dda9-3f21-bab1-95fa610383a3","name":"祥德敬老院","type":"体育休闲服务;度假疗养场所;疗养院","typecode":"80402","address":"祥德路302号","经度":121.489327,"纬度":31.271125,"tel":null,"pcode":310000,"pname":null,"citycode":21,"cityname":"上海市","adcode":310109,"adname":"虹口区","gridcode":4621732910.0,"distance":"1116","business_a":null,"timestamp":"NaT","biz_ext":"{\"rating\": [], \"cost\": []}","行业大":"体育休闲服务","行业中":"度假疗养场所","行业小":"疗养院","typecode_X":0.0,"typecode_Y":0.0,"__source_file__":"13-常用公服设施点/SHP/上海市_度假养老.shp"},"geometry":{"type":"Point","coordinates":[121.48485394763443,31.27309388849028]}},{"id":"41","type":"Feature","properties":{"OBJECTID":116657,"id":"92116eba-79bc-34a0-9a15-7ba54acb2e9f","name":"上海虹口长寿家园南苑养护院","type":"体育休闲服务;度假疗养场所;疗养院","typecode":"80402","address":"广中路街道水电路54号","经度":121.471159,"纬度":31.272997,"tel":"18221938297","pcode":310000,"pname":"上海市","citycode":21,"cityname":"上海市","adcode":310109,"adname":"虹口区","gridcode":4621732722.0,"distance":"360","business_a":"凉城","timestamp":"2023-04-24","biz_ext":"{\"rating\": [], \"cost\": []}","行业大":"体育休闲服务","行业中":"度假疗养场所","行业小":"疗养院","typecode_X":0.0,"typecode_Y":0.0,"__source_file__":"13-常用公服设施点/SHP/上海市_度假养老.shp"},"geometry":{"type":"Point","coordinates":[121.46662407867235,31.27491358261226]}},{"id":"298","type":"Feature","properties":{"OBJECTID":805891,"id":"5369edd7-999b-306c-8276-635240476141","name":"民建大铭敬老院","type":"体育休闲服务;度假疗养场所;疗养院","typecode":"80402","address":"广中支路24弄13号","经度":121.475504,"纬度":31.274203,"tel":null,"pcode":310000,"pname":null,"citycode":21,"cityname":"上海市","adcode":310109,"adname":"虹口区","gridcode":4621732820.0,"distance":"507","business_a":null,"timestamp":"NaT","biz_ext":"{\"rating\": [], \"cost\": []}","行业大":"体育休闲服务","行业中":"度假疗养场所","行业小":"疗养院","typecode_X":0.0,"typecode_Y":0.0,"__source_file__":"13-常用公服设施点/SHP/上海市_度假养老.shp"},"geometry":{"type":"Point","coordinates":[121.47098309684453,31.276130875816314]}}],"name":"上海市_度假养老","crs":{"type":"name","properties":{"name":"urn:ogc:def:crs:OGC:1.3:CRS84"}}}