{"type":"FeatureCollection","features":[{"id":"3263","type":"Feature","properties":{"id":"B0IBDZ6EDZ","name":"VTT·活塞厂","address":"进贤路172号一层102室","type":"公司企业;工厂;工厂","typecode":"170300","pcode":310000,"pname":"上海市","citycode":21,"cityname":"上海市","adcode":310101,"adname":"黄浦区","business_a":"淮海路","location":"121.459140,31.221510","tel":"19921345333","bigType":"公司企业","midType":"工厂","smallType":"工厂","gcj_lng":121.45914,"gcj_lat":31.22151,"wgs84_loc":"121.454573,31.223419","wgs84Lng":"121.454573","wgs84Lat":"31.223419","__source_file__":"13-常用公服设施点/SHP/上海市_工厂.shp"},"geometry":{"type":"Point","coordinates":[121.454573,31.223419]}},{"id":"2904","type":"Feature","properties":{"id":"B0FFICGTRJ","name":"上海纸箱厂","address":"陕西北路359号","type":"公司企业;工厂;工厂","typecode":"170300","pcode":310000,"pname":"上海市","citycode":21,"cityname":"上海市","adcode":310106,"adname":"静安区","business_a":"曹家渡","location":"121.453350,31.229043","tel":"[]","bigType":"公司企业","midType":"工厂","smallType":"工厂","gcj_lng":121.45335,"gcj_lat":31.229043,"wgs84_loc":"121.448767,31.230936","wgs84Lng":"121.448767","wgs84Lat":"31.230936","__source_file__":"13-常用公服设施点/SHP/上海市_工厂.shp"},"geometry":{"type":"Point","coordinates":[121.448767,31.230936]}},{"id":"3270","type":"Feature","properties":{"id":"B0G0LLHXLQ","name":"曹师傅定制服装·服装修改","address":"泰兴路227弄1号(南京西路地铁站1号口步行150米)","type":"公司企业;工厂;工厂","typecode":"170300","pcode":310000,"pname":"上海市","citycode":21,"cityname":"上海市","adcode":310106,"adname":"静安区","business_a":"淮海路","location":"121.458614,31.230778","tel":"[]","bigType":"公司企业","midType":"工厂","smallType":"工厂","gcj_lng":121.458614,"gcj_lat":31.230778,"wgs84_loc":"121.454045,31.232682","wgs84Lng":"121.454045","wgs84Lat":"31.232682","__source_file__":"13-常用公服设施点/SHP/上海市_工厂.shp"},"geometry":{"type":"Point","coordinates":[121.454045,31.232682]}},{"id":"3190","type":"Feature","properties":{"id":"B001557ZLU","name":"上海伟星机用皮件厂销售科","address":"恒丰路31号金峯大厦204室","type":"公司企业;工厂;工厂","typecode":"170300","pcode":310000,"pname":"上海市","citycode":21,"cityname":"上海市","adcode":310106,"adname":"静安区","business_a":"[]","location":"121.458589,31.239974","tel":"021-63800034","bigType":"公司企业","midType":"工厂","smallType":"工厂","gcj_lng":121.458589,"gcj_lat":31.239974,"wgs84_loc":"121.454019,31.241874","wgs84Lng":"121.454019","wgs84Lat":"31.241874","__source_file__":"13-常用公服设施点/SHP/上海市_工厂.shp"},"geometry":{"type":"Point","coordinates":[121.454019,31.241874]}},{"id":"3488","type":"Feature","properties":{"id":"B0JUKC4DLG","name":"上海领扬因私出入境服务有限公司","address":"梅园路228号2908室(汉中路地铁站1号口步行230米)","type":"公司企业;工厂;工厂","typecode":"170300","pcode":310000,"pname":"上海市","citycode":21,"cityname":"上海市","adcode":310106,"adname":"静安区","business_a":"不夜城","location":"121.457209,31.243761","tel":"15618222337","bigType":"公司企业","midType":"工厂","smallType":"工厂","gcj_lng":121.457209,"gcj_lat":31.243761,"wgs84_loc":"121.452635,31.245656","wgs84Lng":"121.452635","wgs84Lat":"31.245656","__source_file__":"13-常用公服设施点/SHP/上海市_工厂.shp"},"geometry":{"type":"Point","coordinates":[121.452635,31.245656]}},{"id":"1736","type":"Feature","properties":{"id":"B0FFHC0Y9P","name":"上海富中印务有限公司","address":"天目西路街道普善路300号10号楼1楼","type":"公司企业;工厂;工厂","typecode":"170300","pcode":310000,"pname":"上海市","citycode":21,"cityname":"上海市","adcode":310106,"adname":"静安区","business_a":"和田","location":"121.453290,31.257868","tel":"13816468688","bigType":"公司企业","midType":"工厂","smallType":"工厂","gcj_lng":121.45329,"gcj_lat":31.257868,"wgs84_loc":"121.448705,31.259748","wgs84Lng":"121.448705","wgs84Lat":"31.259748","__source_file__":"13-常用公服设施点/SHP/上海市_工厂.shp"},"geometry":{"type":"Point","coordinates":[121.448705,31.259748]}},{"id":"1723","type":"Feature","properties":{"id":"B00156YLL1","name":"上海市风华电讯器材厂","address":"皋兰路2-1号","type":"公司企业;工厂;工厂","typecode":"170300","pcode":310000,"pname":"上海市","citycode":21,"cityname":"上海市","adcode":310101,"adname":"黄浦区","business_a":"淮海路","location":"121.467331,31.217418","tel":"[]","bigType":"公司企业","midType":"工厂","smallType":"工厂","gcj_lng":121.467331,"gcj_lat":31.217418,"wgs84_loc":"121.462789,31.219349","wgs84Lng":"121.462789","wgs84Lat":"31.219349","__source_file__":"13-常用公服设施点/SHP/上海市_工厂.shp"},"geometry":{"type":"Point","coordinates":[121.462789,31.219349]}},{"id":"3548","type":"Feature","properties":{"id":"B0LB4UJXPU","name":"莫老大房饮料厂","address":"福建中路与南京路步行街交叉口西北20米","type":"公司企业;工厂;工厂","typecode":"170300","pcode":310000,"pname":"上海市","citycode":21,"cityname":"上海市","adcode":310101,"adname":"黄浦区","business_a":"北京路","location":"121.480140,31.235958","tel":"[]","bigType":"公司企业","midType":"工厂","smallType":"工厂","gcj_lng":121.48014,"gcj_lat":31.235958,"wgs84_loc":"121.475638,31.237916","wgs84Lng":"121.475638","wgs84Lat":"31.237916","__source_file__":"13-常用公服设施点/SHP/上海市_工厂.shp"},"geometry":{"type":"Point","coordinates":[121.475638,31.237916]}},{"id":"2772","type":"Feature","properties":{"id":"B0FFFVK3Y0","name":"上海第二车辆配件厂","address":"宁波路与石潭弄交叉口东50米","type":"公司企业;工厂;工厂","typecode":"170300","pcode":310000,"pname":"上海市","citycode":21,"cityname":"上海市","adcode":310101,"adname":"黄浦区","business_a":"北京东路","location":"121.480194,31.238200","tel":"[]","bigType":"公司企业","midType":"工厂","smallType":"工厂","gcj_lng":121.480194,"gcj_lat":31.2382,"wgs84_loc":"121.475692,31.240157","wgs84Lng":"121.475692","wgs84Lat":"31.240157","__source_file__":"13-常用公服设施点/SHP/上海市_工厂.shp"},"geometry":{"type":"Point","coordinates":[121.475692,31.240157]}},{"id":"3004","type":"Feature","properties":{"id":"B00155GSA7","name":"诸暨机床厂(晋元路)","address":"晋元路310弄-2号华东大厦1106室","type":"公司企业;工厂;工厂","typecode":"170300","pcode":310000,"pname":"上海市","citycode":21,"cityname":"上海市","adcode":310106,"adname":"静安区","business_a":"宝山路","location":"121.468886,31.245187","tel":"[]","bigType":"公司企业","midType":"工厂","smallType":"工厂","gcj_lng":121.468886,"gcj_lat":31.245187,"wgs84_loc":"121.464346,31.24711","wgs84Lng":"121.464346","wgs84Lat":"31.24711","__source_file__":"13-常用公服设施点/SHP/上海市_工厂.shp"},"geometry":{"type":"Point","coordinates":[121.464346,31.24711]}},{"id":"2483","type":"Feature","properties":{"id":"B00155GHIC","name":"南通机床厂","address":"晋元路310弄-2号华东大厦1106室","type":"公司企业;工厂;工厂","typecode":"170300","pcode":310000,"pname":"上海市","citycode":21,"cityname":"上海市","adcode":310106,"adname":"静安区","business_a":"宝山路","location":"121.468886,31.245187","tel":"[]","bigType":"公司企业","midType":"工厂","smallType":"工厂","gcj_lng":121.468886,"gcj_lat":31.245187,"wgs84_loc":"121.464346,31.24711","wgs84Lng":"121.464346","wgs84Lat":"31.24711","__source_file__":"13-常用公服设施点/SHP/上海市_工厂.shp"},"geometry":{"type":"Point","coordinates":[121.464346,31.24711]}},{"id":"2357","type":"Feature","properties":{"id":"B001558HZR","name":"上海鑫莹制衣厂","address":"塘沽路985号白马大厦西楼19层1901","type":"公司企业;工厂;工厂","typecode":"170300","pcode":310000,"pname":"上海市","citycode":21,"cityname":"上海市","adcode":310106,"adname":"静安区","business_a":"七浦路","location":"121.476811,31.245263","tel":"[]","bigType":"公司企业","midType":"工厂","smallType":"工厂","gcj_lng":121.476811,"gcj_lat":31.245263,"wgs84_loc":"121.472297,31.247207","wgs84Lng":"121.472297","wgs84Lat":"31.247207","__source_file__":"13-常用公服设施点/SHP/上海市_工厂.shp"},"geometry":{"type":"Point","coordinates":[121.472297,31.247207]}},{"id":"971","type":"Feature","properties":{"id":"B0FFH0JJMT","name":"上海铁路通信工厂","address":"西藏北路489号","type":"公司企业;工厂;工厂","typecode":"170300","pcode":310000,"pname":"上海市","citycode":21,"cityname":"上海市","adcode":310106,"adname":"静安区","business_a":"宝山路","location":"121.469083,31.248273","tel":"[]","bigType":"公司企业","midType":"工厂","smallType":"工厂","gcj_lng":121.469083,"gcj_lat":31.248273,"wgs84_loc":"121.464544,31.250195","wgs84Lng":"121.464544","wgs84Lat":"31.250195","__source_file__":"13-常用公服设施点/SHP/上海市_工厂.shp"},"geometry":{"type":"Point","coordinates":[121.464544,31.250195]}},{"id":"2379","type":"Feature","properties":{"id":"B0015268D7","name":"上海金鸥食品机械电器厂","address":"中兴路698号院内","type":"公司企业;工厂;工厂","typecode":"170300","pcode":310000,"pname":"上海市","citycode":21,"cityname":"上海市","adcode":310106,"adname":"静安区","business_a":"宝山路","location":"121.472134,31.254329","tel":"021-56623310;021-66542954","bigType":"公司企业","midType":"工厂","smallType":"工厂","gcj_lng":121.472134,"gcj_lat":31.254329,"wgs84_loc":"121.467604,31.256256","wgs84Lng":"121.467604","wgs84Lat":"31.256256","__source_file__":"13-常用公服设施点/SHP/上海市_工厂.shp"},"geometry":{"type":"Point","coordinates":[121.467604,31.256256]}},{"id":"2611","type":"Feature","properties":{"id":"B00152D912","name":"上海电影技术厂","address":"宝通路449号4号楼1楼","type":"公司企业;工厂;工厂","typecode":"170300","pcode":310000,"pname":"上海市","citycode":21,"cityname":"上海市","adcode":310106,"adname":"静安区","business_a":"宝山路","location":"121.475110,31.259723","tel":"021-56628742","bigType":"公司企业","midType":"工厂","smallType":"工厂","gcj_lng":121.47511,"gcj_lat":31.259723,"wgs84_loc":"121.470589,31.261656","wgs84Lng":"121.470589","wgs84Lat":"31.261656","__source_file__":"13-常用公服设施点/SHP/上海市_工厂.shp"},"geometry":{"type":"Point","coordinates":[121.470589,31.261656]}},{"id":"3269","type":"Feature","properties":{"id":"B0IGNS0X2N","name":"上海电影技术厂","address":"宝昌路667号","type":"公司企业;工厂;工厂","typecode":"170300","pcode":310000,"pname":"上海市","citycode":21,"cityname":"上海市","adcode":310106,"adname":"静安区","business_a":"宝山路","location":"121.471771,31.261821","tel":"021-56628742","bigType":"公司企业","midType":"工厂","smallType":"工厂","gcj_lng":121.471771,"gcj_lat":31.261821,"wgs84_loc":"121.467239,31.263744","wgs84Lng":"121.467239","wgs84Lat":"31.263744","__source_file__":"13-常用公服设施点/SHP/上海市_工厂.shp"},"geometry":{"type":"Point","coordinates":[121.467239,31.263744]}},{"id":"3551","type":"Feature","properties":{"id":"B0JG7LUUBT","name":"泰康食品","address":"云南南路101号泰康柏斯商厦F7层","type":"公司企业;工厂;工厂","typecode":"170300","pcode":310000,"pname":"上海市","citycode":21,"cityname":"上海市","adcode":310101,"adname":"黄浦区","business_a":"城隍庙","location":"121.481341,31.227029","tel":"[]","bigType":"公司企业","midType":"工厂","smallType":"工厂","gcj_lng":121.481341,"gcj_lat":31.227029,"wgs84_loc":"121.476844,31.228994","wgs84Lng":"121.476844","wgs84Lat":"31.228994","__source_file__":"13-常用公服设施点/SHP/上海市_工厂.shp"},"geometry":{"type":"Point","coordinates":[121.476844,31.228994]}},{"id":"2328","type":"Feature","properties":{"id":"B0FFL9BRH3","name":"苏杭丝绸厂","address":"城隍庙悦园商厦福民街","type":"公司企业;工厂;工厂","typecode":"170300","pcode":310000,"pname":"上海市","citycode":21,"cityname":"上海市","adcode":310101,"adname":"黄浦区","business_a":"城隍庙","location":"121.491176,31.229293","tel":"[]","bigType":"公司企业","midType":"工厂","smallType":"工厂","gcj_lng":121.491176,"gcj_lat":31.229293,"wgs84_loc":"121.486713,31.231286","wgs84Lng":"121.486713","wgs84Lat":"31.231286","__source_file__":"13-常用公服设施点/SHP/上海市_工厂.shp"},"geometry":{"type":"Point","coordinates":[121.486713,31.231286]}},{"id":"1722","type":"Feature","properties":{"id":"B0FFFZXK3J","name":"上海手表七厂(福州路)","address":"福州路120号","type":"公司企业;工厂;工厂","typecode":"170300","pcode":310000,"pname":"上海市","citycode":21,"cityname":"上海市","adcode":310101,"adname":"黄浦区","business_a":"北京东路","location":"121.488188,31.235300","tel":"[]","bigType":"公司企业","midType":"工厂","smallType":"工厂","gcj_lng":121.488188,"gcj_lat":31.2353,"wgs84_loc":"121.483714,31.237281","wgs84Lng":"121.483714","wgs84Lat":"31.237281","__source_file__":"13-常用公服设施点/SHP/上海市_工厂.shp"},"geometry":{"type":"Point","coordinates":[121.483714,31.237281]}},{"id":"3550","type":"Feature","properties":{"id":"B0K6VUYR63","name":"上海哈尔滨食品厂","address":"南京东路228号上海新世界大丸百货B2层","type":"公司企业;工厂;工厂","typecode":"170300","pcode":310000,"pname":"上海市","citycode":21,"cityname":"上海市","adcode":310101,"adname":"黄浦区","business_a":"北京路","location":"121.485103,31.238281","tel":"[]","bigType":"公司企业","midType":"工厂","smallType":"工厂","gcj_lng":121.485103,"gcj_lat":31.238281,"wgs84_loc":"121.480618,31.240252","wgs84Lng":"121.480618","wgs84Lat":"31.240252","__source_file__":"13-常用公服设施点/SHP/上海市_工厂.shp"},"geometry":{"type":"Point","coordinates":[121.480618,31.240252]}},{"id":"3547","type":"Feature","properties":{"id":"B0KULDET2H","name":"上海砂轮厂","address":"南苏州路与山东北路交叉口西南60米","type":"公司企业;工厂;工厂","typecode":"170300","pcode":310000,"pname":"上海市","citycode":21,"cityname":"上海市","adcode":310101,"adname":"黄浦区","business_a":"北京路","location":"121.481567,31.240269","tel":"[]","bigType":"公司企业","midType":"工厂","smallType":"工厂","gcj_lng":121.481567,"gcj_lat":31.240269,"wgs84_loc":"121.477069,31.242229","wgs84Lng":"121.477069","wgs84Lat":"31.242229","__source_file__":"13-常用公服设施点/SHP/上海市_工厂.shp"},"geometry":{"type":"Point","coordinates":[121.477069,31.242229]}},{"id":"2509","type":"Feature","properties":{"id":"B00157HWW5","name":"上海天川仪表厂","address":"北京东路378号景云大楼7层","type":"公司企业;工厂;工厂","typecode":"170300","pcode":310000,"pname":"上海市","citycode":21,"cityname":"上海市","adcode":310101,"adname":"黄浦区","business_a":"北京东路","location":"121.482782,31.240367","tel":"021-63294408","bigType":"公司企业","midType":"工厂","smallType":"工厂","gcj_lng":121.482782,"gcj_lat":31.240367,"wgs84_loc":"121.478289,31.24233","wgs84Lng":"121.478289","wgs84Lat":"31.24233","__source_file__":"13-常用公服设施点/SHP/上海市_工厂.shp"},"geometry":{"type":"Point","coordinates":[121.478289,31.24233]}},{"id":"80","type":"Feature","properties":{"id":"B001516885","name":"珍寳金银饰品厂","address":"川公路166号","type":"公司企业;工厂;工厂","typecode":"170300","pcode":310000,"pname":"上海市","citycode":21,"cityname":"上海市","adcode":310109,"adname":"虹口区","business_a":"宝山路","location":"121.481007,31.256248","tel":"021-63256548","bigType":"公司企业","midType":"工厂","smallType":"工厂","gcj_lng":121.481007,"gcj_lat":31.256248,"wgs84_loc":"121.476506,31.258199","wgs84Lng":"121.476506","wgs84Lat":"31.258199","__source_file__":"13-常用公服设施点/SHP/上海市_工厂.shp"},"geometry":{"type":"Point","coordinates":[121.476506,31.258199]}},{"id":"67","type":"Feature","properties":{"id":"B00154IKBN","name":"上海金铃钢丝综厂","address":"周家嘴路547号","type":"公司企业;工厂;工厂","typecode":"170300","pcode":310000,"pname":"上海市","citycode":21,"cityname":"上海市","adcode":310109,"adname":"虹口区","business_a":"提篮桥","location":"121.499197,31.256489","tel":"021-65414368","bigType":"公司企业","midType":"工厂","smallType":"工厂","gcj_lng":121.499197,"gcj_lat":31.256489,"wgs84_loc":"121.494761,31.258494","wgs84Lng":"121.494761","wgs84Lat":"31.258494","__source_file__":"13-常用公服设施点/SHP/上海市_工厂.shp"},"geometry":{"type":"Point","coordinates":[121.494761,31.258494]}},{"id":"72","type":"Feature","properties":{"id":"B00155GG77","name":"龙游沪工锻三工具总厂(四川北路)","address":"四川北路1851号荣欣大厦1201-02室","type":"公司企业;工厂;工厂","typecode":"170300","pcode":310000,"pname":"上海市","citycode":21,"cityname":"上海市","adcode":310109,"adname":"虹口区","business_a":"宝山路","location":"121.483496,31.261535","tel":"[]","bigType":"公司企业","midType":"工厂","smallType":"工厂","gcj_lng":121.483496,"gcj_lat":31.261535,"wgs84_loc":"121.479003,31.263491","wgs84Lng":"121.479003","wgs84Lat":"31.263491","__source_file__":"13-常用公服设施点/SHP/上海市_工厂.shp"},"geometry":{"type":"Point","coordinates":[121.479003,31.263491]}},{"id":"2682","type":"Feature","properties":{"id":"B0G06XPUOO","name":"益民食品一厂","address":"市城区香烟桥路13号益民食品一厂","type":"公司企业;工厂;工厂","typecode":"170300","pcode":310000,"pname":"上海市","citycode":21,"cityname":"上海市","adcode":310109,"adname":"虹口区","business_a":"四平路","location":"121.493359,31.261724","tel":"[]","bigType":"公司企业","midType":"工厂","smallType":"工厂","gcj_lng":121.493359,"gcj_lat":31.261724,"wgs84_loc":"121.488901,31.263709","wgs84Lng":"121.488901","wgs84Lat":"31.263709","__source_file__":"13-常用公服设施点/SHP/上海市_工厂.shp"},"geometry":{"type":"Point","coordinates":[121.488901,31.263709]}},{"id":"1732","type":"Feature","properties":{"id":"B0FFGFWPP8","name":"上海森民劳保服装厂","address":"西藏北路1133号","type":"公司企业;工厂;工厂","typecode":"170300","pcode":310000,"pname":"上海市","citycode":21,"cityname":"上海市","adcode":310106,"adname":"静安区","business_a":"和田","location":"121.466264,31.261909","tel":"021-56300446","bigType":"公司企业","midType":"工厂","smallType":"工厂","gcj_lng":121.466264,"gcj_lat":31.261909,"wgs84_loc":"121.461715,31.263818","wgs84Lng":"121.461715","wgs84Lat":"31.263818","__source_file__":"13-常用公服设施点/SHP/上海市_工厂.shp"},"geometry":{"type":"Point","coordinates":[121.461715,31.263818]}},{"id":"1728","type":"Feature","properties":{"id":"B001535D37","name":"上海新亚电焊机厂","address":"共和新路1207号上海凤凰都市工业园区7号楼2层","type":"公司企业;工厂;工厂","typecode":"170300","pcode":310000,"pname":"上海市","citycode":21,"cityname":"上海市","adcode":310106,"adname":"静安区","business_a":"和田","location":"121.461462,31.262254","tel":"[]","bigType":"公司企业","midType":"工厂","smallType":"工厂","gcj_lng":121.461462,"gcj_lat":31.262254,"wgs84_loc":"121.456898,31.26415","wgs84Lng":"121.456898","wgs84Lat":"31.26415","__source_file__":"13-常用公服设施点/SHP/上海市_工厂.shp"},"geometry":{"type":"Point","coordinates":[121.456898,31.26415]}},{"id":"1737","type":"Feature","properties":{"id":"B0FFGE53M0","name":"上海第一皮鞋厂六分厂","address":"共和新路1207弄30号","type":"公司企业;工厂;工厂","typecode":"170300","pcode":310000,"pname":"上海市","citycode":21,"cityname":"上海市","adcode":310106,"adname":"静安区","business_a":"和田","location":"121.461987,31.262899","tel":"021-56975259","bigType":"公司企业","midType":"工厂","smallType":"工厂","gcj_lng":121.461987,"gcj_lat":31.262899,"wgs84_loc":"121.457425,31.264796","wgs84Lng":"121.457425","wgs84Lat":"31.264796","__source_file__":"13-常用公服设施点/SHP/上海市_工厂.shp"},"geometry":{"type":"Point","coordinates":[121.457425,31.264796]}},{"id":"1735","type":"Feature","properties":{"id":"B001548007","name":"上海青浦游艺玩具厂","address":"陈家宅路35","type":"公司企业;工厂;工厂","typecode":"170300","pcode":310000,"pname":"上海市","citycode":21,"cityname":"上海市","adcode":310106,"adname":"静安区","business_a":"和田","location":"121.466165,31.264915","tel":"13901714195","bigType":"公司企业","midType":"工厂","smallType":"工厂","gcj_lng":121.466165,"gcj_lat":31.264915,"wgs84_loc":"121.461615,31.266822","wgs84Lng":"121.461615","wgs84Lat":"31.266822","__source_file__":"13-常用公服设施点/SHP/上海市_工厂.shp"},"geometry":{"type":"Point","coordinates":[121.461615,31.266822]}},{"id":"1731","type":"Feature","properties":{"id":"B001515133","name":"上海标本模型厂","address":"共和新路1524","type":"公司企业;工厂;工厂","typecode":"170300","pcode":310000,"pname":"上海市","citycode":21,"cityname":"上海市","adcode":310106,"adname":"静安区","business_a":"和田","location":"121.457628,31.267715","tel":"021-56035820;021-56033449","bigType":"公司企业","midType":"工厂","smallType":"工厂","gcj_lng":121.457628,"gcj_lat":31.267715,"wgs84_loc":"121.453053,31.2696","wgs84Lng":"121.453053","wgs84Lat":"31.2696","__source_file__":"13-常用公服设施点/SHP/上海市_工厂.shp"},"geometry":{"type":"Point","coordinates":[121.453053,31.2696]}},{"id":"1734","type":"Feature","properties":{"id":"B00155EV0P","name":"上海钟厂","address":"延长中路625号5号楼","type":"公司企业;工厂;工厂","typecode":"170300","pcode":310000,"pname":"上海市","citycode":21,"cityname":"上海市","adcode":310106,"adname":"静安区","business_a":"大宁路","location":"121.448327,31.269231","tel":"[]","bigType":"公司企业","midType":"工厂","smallType":"工厂","gcj_lng":121.448327,"gcj_lat":31.269231,"wgs84_loc":"121.443728,31.271096","wgs84Lng":"121.443728","wgs84Lat":"31.271096","__source_file__":"13-常用公服设施点/SHP/上海市_工厂.shp"},"geometry":{"type":"Point","coordinates":[121.443728,31.271096]}},{"id":"1730","type":"Feature","properties":{"id":"B001547054","name":"康元玩具厂","address":"止园路621号","type":"公司企业;工厂;工厂","typecode":"170300","pcode":310000,"pname":"上海市","citycode":21,"cityname":"上海市","adcode":310106,"adname":"静安区","business_a":"和田","location":"121.466664,31.264478","tel":"[]","bigType":"公司企业","midType":"工厂","smallType":"工厂","gcj_lng":121.466664,"gcj_lat":31.264478,"wgs84_loc":"121.462116,31.266386","wgs84Lng":"121.462116","wgs84Lat":"31.266386","__source_file__":"13-常用公服设施点/SHP/上海市_工厂.shp"},"geometry":{"type":"Point","coordinates":[121.462116,31.266386]}},{"id":"2501","type":"Feature","properties":{"id":"B00155AYW3","name":"上海前卫软木制品厂","address":"中山北路198号申航大厦18层1804室","type":"公司企业;工厂;工厂","typecode":"170300","pcode":310000,"pname":"上海市","citycode":21,"cityname":"上海市","adcode":310106,"adname":"静安区","business_a":"宝山路","location":"121.470622,31.264535","tel":"021-56301871","bigType":"公司企业","midType":"工厂","smallType":"工厂","gcj_lng":121.470622,"gcj_lat":31.264535,"wgs84_loc":"121.466086,31.266454","wgs84Lng":"121.466086","wgs84Lat":"31.266454","__source_file__":"13-常用公服设施点/SHP/上海市_工厂.shp"},"geometry":{"type":"Point","coordinates":[121.466086,31.266454]}},{"id":"5","type":"Feature","properties":{"id":"B0G0D4424W","name":"上海旌立广告有限公司","address":"青云路156号","type":"公司企业;工厂;工厂","typecode":"170300","pcode":310000,"pname":"上海市","citycode":21,"cityname":"上海市","adcode":310109,"adname":"虹口区","business_a":"宝山路","location":"121.475219,31.264874","tel":"021-60489588;13122629028","bigType":"公司企业","midType":"工厂","smallType":"工厂","gcj_lng":121.475219,"gcj_lat":31.264874,"wgs84_loc":"121.470698,31.266805","wgs84Lng":"121.470698","wgs84Lat":"31.266805","__source_file__":"13-常用公服设施点/SHP/上海市_工厂.shp"},"geometry":{"type":"Point","coordinates":[121.470698,31.266805]}},{"id":"66","type":"Feature","properties":{"id":"B00154OGE0","name":"上海新兴锁厂(中山北一路)","address":"中山北一路24号2楼","type":"公司企业;工厂;工厂","typecode":"170300","pcode":310000,"pname":"上海市","citycode":21,"cityname":"上海市","adcode":310109,"adname":"虹口区","business_a":"江湾","location":"121.474949,31.268795","tel":"021-65403247;021-65403642","bigType":"公司企业","midType":"工厂","smallType":"工厂","gcj_lng":121.474949,"gcj_lat":31.268795,"wgs84_loc":"121.470427,31.270724","wgs84Lng":"121.470427","wgs84Lat":"31.270724","__source_file__":"13-常用公服设施点/SHP/上海市_工厂.shp"},"geometry":{"type":"Point","coordinates":[121.470427,31.270724]}},{"id":"2595","type":"Feature","properties":{"id":"B00153BC62","name":"东方衡器厂","address":"民和路145号6号楼3楼","type":"公司企业;工厂;工厂","typecode":"170300","pcode":310000,"pname":"上海市","citycode":21,"cityname":"上海市","adcode":310106,"adname":"静安区","business_a":"和田","location":"121.468122,31.268953","tel":"[]","bigType":"公司企业","midType":"工厂","smallType":"工厂","gcj_lng":121.468122,"gcj_lat":31.268953,"wgs84_loc":"121.463578,31.270863","wgs84Lng":"121.463578","wgs84Lat":"31.270863","__source_file__":"13-常用公服设施点/SHP/上海市_工厂.shp"},"geometry":{"type":"Point","coordinates":[121.463578,31.270863]}},{"id":"73","type":"Feature","properties":{"id":"B00155FKJB","name":"上海海昌医用塑胶厂(内环高架路)","address":"中山北一路66号","type":"公司企业;工厂;工厂","typecode":"170300","pcode":310000,"pname":"上海市","citycode":21,"cityname":"上海市","adcode":310109,"adname":"虹口区","business_a":"和田","location":"121.475973,31.269655","tel":"021-56666611","bigType":"公司企业","midType":"工厂","smallType":"工厂","gcj_lng":121.475973,"gcj_lat":31.269655,"wgs84_loc":"121.471454,31.271586","wgs84Lng":"121.471454","wgs84Lat":"31.271586","__source_file__":"13-常用公服设施点/SHP/上海市_工厂.shp"},"geometry":{"type":"Point","coordinates":[121.471454,31.271586]}},{"id":"65","type":"Feature","properties":{"id":"B0FFFZXZL3","name":"上海群力印刷厂","address":"同心路799号","type":"公司企业;工厂;工厂","typecode":"170300","pcode":310000,"pname":"上海市","citycode":21,"cityname":"上海市","adcode":310109,"adname":"虹口区","business_a":"和田","location":"121.471385,31.271280","tel":"[]","bigType":"公司企业","midType":"工厂","smallType":"工厂","gcj_lng":121.471385,"gcj_lat":31.27128,"wgs84_loc":"121.466851,31.273198","wgs84Lng":"121.466851","wgs84Lat":"31.273198","__source_file__":"13-常用公服设施点/SHP/上海市_工厂.shp"},"geometry":{"type":"Point","coordinates":[121.466851,31.273198]}},{"id":"3589","type":"Feature","properties":{"id":"B0JB2ZUS0M","name":"上海哈尔滨食品厂","address":"丰乐小区北门旁","type":"公司企业;工厂;工厂","typecode":"170300","pcode":310000,"pname":"上海市","citycode":21,"cityname":"上海市","adcode":310109,"adname":"虹口区","business_a":"宝山路","location":"121.483717,31.264153","tel":"[]","bigType":"公司企业","midType":"工厂","smallType":"工厂","gcj_lng":121.483717,"gcj_lat":31.264153,"wgs84_loc":"121.479225,31.266108","wgs84Lng":"121.479225","wgs84Lat":"31.266108","__source_file__":"13-常用公服设施点/SHP/上海市_工厂.shp"},"geometry":{"type":"Point","coordinates":[121.479225,31.266108]}},{"id":"69","type":"Feature","properties":{"id":"B0FFIA4SME","name":"上海钢椅二厂一分厂经营部","address":"吉祥路与欧阳路交叉口北50米","type":"公司企业;工厂;工厂","typecode":"170300","pcode":310000,"pname":"上海市","citycode":21,"cityname":"上海市","adcode":310109,"adname":"虹口区","business_a":"曲阳","location":"121.489183,31.266459","tel":"[]","bigType":"公司企业","midType":"工厂","smallType":"工厂","gcj_lng":121.489183,"gcj_lat":31.266459,"wgs84_loc":"121.48471,31.268429","wgs84Lng":"121.48471","wgs84Lat":"31.268429","__source_file__":"13-常用公服设施点/SHP/上海市_工厂.shp"},"geometry":{"type":"Point","coordinates":[121.48471,31.268429]}},{"id":"2460","type":"Feature","properties":{"id":"B0015229B1","name":"上海申艺塑料制品厂","address":"山阴路209弄之1-6号","type":"公司企业;工厂;工厂","typecode":"170300","pcode":310000,"pname":"上海市","citycode":21,"cityname":"上海市","adcode":310109,"adname":"虹口区","business_a":"宝山路","location":"121.485081,31.267199","tel":"[]","bigType":"公司企业","midType":"工厂","smallType":"工厂","gcj_lng":121.485081,"gcj_lat":31.267199,"wgs84_loc":"121.480593,31.269157","wgs84Lng":"121.480593","wgs84Lat":"31.269157","__source_file__":"13-常用公服设施点/SHP/上海市_工厂.shp"},"geometry":{"type":"Point","coordinates":[121.480593,31.269157]}},{"id":"76","type":"Feature","properties":{"id":"B00154G4OZ","name":"上海福映电子模块厂","address":"祥德路333号","type":"公司企业;工厂;工厂","typecode":"170300","pcode":310000,"pname":"上海市","citycode":21,"cityname":"上海市","adcode":310109,"adname":"虹口区","business_a":"曲阳","location":"121.489953,31.270787","tel":"021-65081700","bigType":"公司企业","midType":"工厂","smallType":"工厂","gcj_lng":121.489953,"gcj_lat":31.270787,"wgs84_loc":"121.485482,31.272758","wgs84Lng":"121.485482","wgs84Lat":"31.272758","__source_file__":"13-常用公服设施点/SHP/上海市_工厂.shp"},"geometry":{"type":"Point","coordinates":[121.485482,31.272758]}}],"name":"上海市_工厂","crs":{"type":"name","properties":{"name":"urn:ogc:def:crs:OGC:1.3:CRS84"}}}