{"type":"FeatureCollection","features":[{"id":"400","type":"Feature","properties":{"id":"B00156YL97","name":"黄浦工商分局第二检查支队","address":"巨鹿路135号","type":"政府机构及社会团体;工商税务机构;工商部门","typecode":"130701","pcode":310000,"pname":"上海市","citycode":21,"cityname":"上海市","adcode":310101,"adname":"黄浦区","business_a":"淮海路","location":"121.466517,31.222660","tel":"[]","bigType":"政府机构及社会团体","midType":"工商税务机构","smallType":"工商部门","gcj_lng":121.466517,"gcj_lat":31.22266,"wgs84_loc":"121.461972,31.224587","wgs84Lng":"121.461972","wgs84Lat":"31.224587","__source_file__":"13-常用公服设施点/SHP/上海市_工商税务机构.shp"},"geometry":{"type":"Point","coordinates":[121.461972,31.224587]}},{"id":"163","type":"Feature","properties":{"id":"B0FFLNAZYJ","name":"上海市市场监督管理局黄浦分局南京东路工商所","address":"巨鹿路137号5楼g座","type":"政府机构及社会团体;工商税务机构;工商部门","typecode":"130701","pcode":310000,"pname":"上海市","citycode":21,"cityname":"上海市","adcode":310101,"adname":"黄浦区","business_a":"淮海路","location":"121.466386,31.222677","tel":"[]","bigType":"政府机构及社会团体","midType":"工商税务机构","smallType":"工商部门","gcj_lng":121.466386,"gcj_lat":31.222677,"wgs84_loc":"121.461841,31.224604","wgs84Lng":"121.461841","wgs84Lat":"31.224604","__source_file__":"13-常用公服设施点/SHP/上海市_工商税务机构.shp"},"geometry":{"type":"Point","coordinates":[121.461841,31.224604]}},{"id":"410","type":"Feature","properties":{"id":"B0G136W584","name":"自助办税服务","address":"愚园路与愚园支路交叉口东40米","type":"政府机构及社会团体;工商税务机构;工商税务机构","typecode":"130700","pcode":310000,"pname":"上海市","citycode":21,"cityname":"上海市","adcode":310106,"adname":"静安区","business_a":"曹家渡","location":"121.444172,31.223165","tel":"[]","bigType":"政府机构及社会团体","midType":"工商税务机构","smallType":"工商税务机构","gcj_lng":121.444172,"gcj_lat":31.223165,"wgs84_loc":"121.439568,31.225042","wgs84Lng":"121.439568","wgs84Lat":"31.225042","__source_file__":"13-常用公服设施点/SHP/上海市_工商税务机构.shp"},"geometry":{"type":"Point","coordinates":[121.439568,31.225042]}},{"id":"407","type":"Feature","properties":{"id":"B0FFHLLK65","name":"静安区街道协管税收办公室昌平路征收点","address":"昌平路1009号","type":"政府机构及社会团体;工商税务机构;工商税务机构","typecode":"130700","pcode":310000,"pname":"上海市","citycode":21,"cityname":"上海市","adcode":310106,"adname":"静安区","business_a":"曹家渡","location":"121.435977,31.231694","tel":"[]","bigType":"政府机构及社会团体","midType":"工商税务机构","smallType":"工商税务机构","gcj_lng":121.435977,"gcj_lat":31.231694,"wgs84_loc":"121.431356,31.233554","wgs84Lng":"121.431356","wgs84Lat":"31.233554","__source_file__":"13-常用公服设施点/SHP/上海市_工商税务机构.shp"},"geometry":{"type":"Point","coordinates":[121.431356,31.233554]}},{"id":"408","type":"Feature","properties":{"id":"B0FFF5VDHX","name":"石门二路工商所消费者权益保护奉贤居委会联络点","address":"奉贤路68弄-40","type":"政府机构及社会团体;工商税务机构;工商部门","typecode":"130701","pcode":310000,"pname":"上海市","citycode":21,"cityname":"上海市","adcode":310106,"adname":"静安区","business_a":"淮海路","location":"121.461059,31.232206","tel":"[]","bigType":"政府机构及社会团体","midType":"工商税务机构","smallType":"工商部门","gcj_lng":121.461059,"gcj_lat":31.232206,"wgs84_loc":"121.456497,31.234115","wgs84Lng":"121.456497","wgs84Lat":"31.234115","__source_file__":"13-常用公服设施点/SHP/上海市_工商税务机构.shp"},"geometry":{"type":"Point","coordinates":[121.456497,31.234115]}},{"id":"47","type":"Feature","properties":{"id":"B0FFJP5I3O","name":"国家税务总局上海市静安区税务局第七税务所","address":"昌平路991号","type":"政府机构及社会团体;工商税务机构;工商税务机构","typecode":"130700","pcode":310000,"pname":"上海市","citycode":21,"cityname":"上海市","adcode":310106,"adname":"静安区","business_a":"曹家渡","location":"121.437124,31.232282","tel":"[]","bigType":"政府机构及社会团体","midType":"工商税务机构","smallType":"工商税务机构","gcj_lng":121.437124,"gcj_lat":31.232282,"wgs84_loc":"121.432505,31.234143","wgs84Lng":"121.432505","wgs84Lat":"31.234143","__source_file__":"13-常用公服设施点/SHP/上海市_工商税务机构.shp"},"geometry":{"type":"Point","coordinates":[121.432505,31.234143]}},{"id":"42","type":"Feature","properties":{"id":"B00154DDWG","name":"国家税务总局上海市静安区税务局","address":"昌平路991号","type":"政府机构及社会团体;工商税务机构;国税机关|政府机构及社会团体;工商税务机构;地税机关","typecode":"130702|130703","pcode":310000,"pname":"上海市","citycode":21,"cityname":"上海市","adcode":310106,"adname":"静安区","business_a":"曹家渡","location":"121.437157,31.232312","tel":"[]","bigType":"政府机构及社会团体","midType":"工商税务机构","smallType":"国税机关|政府机构及社会团体","gcj_lng":121.437157,"gcj_lat":31.232312,"wgs84_loc":"121.432538,31.234173","wgs84Lng":"121.432538","wgs84Lat":"31.234173","__source_file__":"13-常用公服设施点/SHP/上海市_工商税务机构.shp"},"geometry":{"type":"Point","coordinates":[121.432538,31.234173]}},{"id":"411","type":"Feature","properties":{"id":"B0FFLJOPT6","name":"国家税务总局驻上海特派员办事处稽查局","address":"新闸路1031号","type":"政府机构及社会团体;工商税务机构;工商税务机构|政府机构及社会团体;政府机关;政府机关相关","typecode":"130700|130100","pcode":310000,"pname":"上海市","citycode":21,"cityname":"上海市","adcode":310106,"adname":"静安区","business_a":"曹家渡","location":"121.456713,31.233054","tel":"[]","bigType":"政府机构及社会团体","midType":"工商税务机构","smallType":"工商税务机构|政府机构及社会团体","gcj_lng":121.456713,"gcj_lat":31.233054,"wgs84_loc":"121.452139,31.234952","wgs84Lng":"121.452139","wgs84Lat":"31.234952","__source_file__":"13-常用公服设施点/SHP/上海市_工商税务机构.shp"},"geometry":{"type":"Point","coordinates":[121.452139,31.234952]}},{"id":"412","type":"Feature","properties":{"id":"B0FFF2SAWY","name":"工商闸北分局(检查支队)","address":"长安路1001号长安大厦办公楼3层","type":"政府机构及社会团体;工商税务机构;工商部门","typecode":"130701","pcode":310000,"pname":"上海市","citycode":21,"cityname":"上海市","adcode":310106,"adname":"静安区","business_a":"[]","location":"121.452270,31.245140","tel":"[]","bigType":"政府机构及社会团体","midType":"工商税务机构","smallType":"工商部门","gcj_lng":121.45227,"gcj_lat":31.24514,"wgs84_loc":"121.447683,31.247023","wgs84Lng":"121.447683","wgs84Lat":"31.247023","__source_file__":"13-常用公服设施点/SHP/上海市_工商税务机构.shp"},"geometry":{"type":"Point","coordinates":[121.447683,31.247023]}},{"id":"166","type":"Feature","properties":{"id":"B0FFH503FK","name":"上海市黄浦区市场监督管理局豫园市场监管管理所","address":"狮子街9号","type":"政府机构及社会团体;工商税务机构;工商部门","typecode":"130701","pcode":310000,"pname":"上海市","citycode":21,"cityname":"上海市","adcode":310101,"adname":"黄浦区","business_a":"城隍庙","location":"121.487240,31.224571","tel":"[]","bigType":"政府机构及社会团体","midType":"工商税务机构","smallType":"工商部门","gcj_lng":121.48724,"gcj_lat":31.224571,"wgs84_loc":"121.482764,31.226554","wgs84Lng":"121.482764","wgs84Lat":"31.226554","__source_file__":"13-常用公服设施点/SHP/上海市_工商税务机构.shp"},"geometry":{"type":"Point","coordinates":[121.482764,31.226554]}},{"id":"164","type":"Feature","properties":{"id":"B00155HZDN","name":"上海市工商行政管理局卢湾分局机关服务中心","address":"淮海中路1号柳林大厦910","type":"政府机构及社会团体;工商税务机构;工商部门","typecode":"130701","pcode":310000,"pname":"上海市","citycode":21,"cityname":"上海市","adcode":310101,"adname":"黄浦区","business_a":"淮海路","location":"121.480060,31.224974","tel":"[]","bigType":"政府机构及社会团体","midType":"工商税务机构","smallType":"工商部门","gcj_lng":121.48006,"gcj_lat":31.224974,"wgs84_loc":"121.475559,31.226937","wgs84Lng":"121.475559","wgs84Lat":"31.226937","__source_file__":"13-常用公服设施点/SHP/上海市_工商税务机构.shp"},"geometry":{"type":"Point","coordinates":[121.475559,31.226937]}},{"id":"23","type":"Feature","properties":{"id":"B0FFJ1CL26","name":"国家税务总局上海市税务局第四税务分局","address":"九江路47号","type":"政府机构及社会团体;工商税务机构;工商税务机构","typecode":"130700","pcode":310000,"pname":"上海市","citycode":21,"cityname":"上海市","adcode":310101,"adname":"黄浦区","business_a":"北京东路","location":"121.488883,31.237523","tel":"[]","bigType":"政府机构及社会团体","midType":"工商税务机构","smallType":"工商税务机构","gcj_lng":121.488883,"gcj_lat":31.237523,"wgs84_loc":"121.484411,31.239505","wgs84Lng":"121.484411","wgs84Lat":"31.239505","__source_file__":"13-常用公服设施点/SHP/上海市_工商税务机构.shp"},"geometry":{"type":"Point","coordinates":[121.484411,31.239505]}},{"id":"403","type":"Feature","properties":{"id":"B0FFJUCSCF","name":"国家税务总局12366上海(国际)纳税服务中心(内部使用)","address":"九江路47号","type":"政府机构及社会团体;工商税务机构;工商税务机构","typecode":"130700","pcode":310000,"pname":"上海市","citycode":21,"cityname":"上海市","adcode":310101,"adname":"黄浦区","business_a":"北京东路","location":"121.488943,31.237528","tel":"[]","bigType":"政府机构及社会团体","midType":"工商税务机构","smallType":"工商税务机构","gcj_lng":121.488943,"gcj_lat":31.237528,"wgs84_loc":"121.484471,31.239511","wgs84Lng":"121.484471","wgs84Lat":"31.239511","__source_file__":"13-常用公服设施点/SHP/上海市_工商税务机构.shp"},"geometry":{"type":"Point","coordinates":[121.484471,31.239511]}},{"id":"60","type":"Feature","properties":{"id":"B0FFF5US0S","name":"上海市工商行政管理局虹口分局消费者维权联络点(哈尔滨路)","address":"哈尔滨路17号","type":"政府机构及社会团体;工商税务机构;工商部门","typecode":"130701","pcode":310000,"pname":"上海市","citycode":21,"cityname":"上海市","adcode":310109,"adname":"虹口区","business_a":"四平路","location":"121.487839,31.253822","tel":"[]","bigType":"政府机构及社会团体","midType":"工商税务机构","smallType":"工商部门","gcj_lng":121.487839,"gcj_lat":31.253822,"wgs84_loc":"121.483362,31.255794","wgs84Lng":"121.483362","wgs84Lat":"31.255794","__source_file__":"13-常用公服设施点/SHP/上海市_工商税务机构.shp"},"geometry":{"type":"Point","coordinates":[121.483362,31.255794]}},{"id":"53","type":"Feature","properties":{"id":"B0FFGE4DEQ","name":"上海市虹口区税务局智慧办税服务厅","address":"临平北路35号","type":"政府机构及社会团体;工商税务机构;工商税务机构","typecode":"130700","pcode":310000,"pname":"上海市","citycode":21,"cityname":"上海市","adcode":310109,"adname":"虹口区","business_a":"四平路","location":"121.493369,31.263345","tel":"021-26035651","bigType":"政府机构及社会团体","midType":"工商税务机构","smallType":"工商税务机构","gcj_lng":121.493369,"gcj_lat":31.263345,"wgs84_loc":"121.488911,31.265329","wgs84Lng":"121.488911","wgs84Lat":"31.265329","__source_file__":"13-常用公服设施点/SHP/上海市_工商税务机构.shp"},"geometry":{"type":"Point","coordinates":[121.488911,31.265329]}},{"id":"54","type":"Feature","properties":{"id":"B0FFH101WW","name":"国家税务总局上海市虹口区税务局第一税务所办税服务厅","address":"临平北路35号1号楼1楼","type":"政府机构及社会团体;工商税务机构;工商税务机构","typecode":"130700","pcode":310000,"pname":"上海市","citycode":21,"cityname":"上海市","adcode":310109,"adname":"虹口区","business_a":"四平路","location":"121.493047,31.263460","tel":"[]","bigType":"政府机构及社会团体","midType":"工商税务机构","smallType":"工商税务机构","gcj_lng":121.493047,"gcj_lat":31.26346,"wgs84_loc":"121.488588,31.265443","wgs84Lng":"121.488588","wgs84Lat":"31.265443","__source_file__":"13-常用公服设施点/SHP/上海市_工商税务机构.shp"},"geometry":{"type":"Point","coordinates":[121.488588,31.265443]}},{"id":"59","type":"Feature","properties":{"id":"B0HA2CQH5N","name":"国家税务总局上海市虹口区税务局自助办税服务厅","address":"临平北路35号","type":"政府机构及社会团体;工商税务机构;工商税务机构","typecode":"130700","pcode":310000,"pname":"上海市","citycode":21,"cityname":"上海市","adcode":310109,"adname":"虹口区","business_a":"四平路","location":"121.493036,31.263462","tel":"[]","bigType":"政府机构及社会团体","midType":"工商税务机构","smallType":"工商税务机构","gcj_lng":121.493036,"gcj_lat":31.263462,"wgs84_loc":"121.488577,31.265445","wgs84Lng":"121.488577","wgs84Lat":"31.265445","__source_file__":"13-常用公服设施点/SHP/上海市_工商税务机构.shp"},"geometry":{"type":"Point","coordinates":[121.488577,31.265445]}},{"id":"55","type":"Feature","properties":{"id":"B0FFK7OPXI","name":"国家税务总局上海市虹口区税务局第五税务所","address":"临平北路35号","type":"政府机构及社会团体;工商税务机构;工商税务机构","typecode":"130700","pcode":310000,"pname":"上海市","citycode":21,"cityname":"上海市","adcode":310109,"adname":"虹口区","business_a":"四平路","location":"121.493126,31.263782","tel":"[]","bigType":"政府机构及社会团体","midType":"工商税务机构","smallType":"工商税务机构","gcj_lng":121.493126,"gcj_lat":31.263782,"wgs84_loc":"121.488667,31.265765","wgs84Lng":"121.488667","wgs84Lat":"31.265765","__source_file__":"13-常用公服设施点/SHP/上海市_工商税务机构.shp"},"geometry":{"type":"Point","coordinates":[121.488667,31.265765]}},{"id":"405","type":"Feature","properties":{"id":"B00156GMO5","name":"南京东路工商所消费者权益保护振兴居委会联络点","address":"重庆北路177弄64-1-2","type":"政府机构及社会团体;工商税务机构;工商部门","typecode":"130701","pcode":310000,"pname":"上海市","citycode":21,"cityname":"上海市","adcode":310101,"adname":"黄浦区","business_a":"北京东路","location":"121.469150,31.226256","tel":"[]","bigType":"政府机构及社会团体","midType":"工商税务机构","smallType":"工商部门","gcj_lng":121.46915,"gcj_lat":31.226256,"wgs84_loc":"121.464613,31.228188","wgs84Lng":"121.464613","wgs84Lat":"31.228188","__source_file__":"13-常用公服设施点/SHP/上海市_工商税务机构.shp"},"geometry":{"type":"Point","coordinates":[121.464613,31.228188]}},{"id":"161","type":"Feature","properties":{"id":"B0FFFZKWNF","name":"南京东路市场监督管理所","address":"南京西路499号","type":"政府机构及社会团体;工商税务机构;工商部门","typecode":"130701","pcode":310000,"pname":"上海市","citycode":21,"cityname":"上海市","adcode":310101,"adname":"黄浦区","business_a":"北京东路","location":"121.467375,31.230653","tel":"021-63599260","bigType":"政府机构及社会团体","midType":"工商税务机构","smallType":"工商部门","gcj_lng":121.467375,"gcj_lat":31.230653,"wgs84_loc":"121.462832,31.232578","wgs84Lng":"121.462832","wgs84Lat":"31.232578","__source_file__":"13-常用公服设施点/SHP/上海市_工商税务机构.shp"},"geometry":{"type":"Point","coordinates":[121.462832,31.232578]}},{"id":"41","type":"Feature","properties":{"id":"B0FFH186SM","name":"国家税务总局上海市静安区税务局第十二税务所","address":"上海市静安区中山北路198号申航大厦","type":"政府机构及社会团体;工商税务机构;工商税务机构","typecode":"130700","pcode":310000,"pname":"上海市","citycode":21,"cityname":"上海市","adcode":310106,"adname":"静安区","business_a":"宝山路","location":"121.471048,31.264301","tel":"[]","bigType":"政府机构及社会团体","midType":"工商税务机构","smallType":"工商税务机构","gcj_lng":121.471048,"gcj_lat":31.264301,"wgs84_loc":"121.466513,31.266221","wgs84Lng":"121.466513","wgs84Lat":"31.266221","__source_file__":"13-常用公服设施点/SHP/上海市_工商税务机构.shp"},"geometry":{"type":"Point","coordinates":[121.466513,31.266221]}},{"id":"51","type":"Feature","properties":{"id":"B0FFH17X7R","name":"国家税务总局上海市静安区税务局第十一税务所","address":"上海市静安区中山北路198号","type":"政府机构及社会团体;工商税务机构;工商税务机构","typecode":"130700","pcode":310000,"pname":"上海市","citycode":21,"cityname":"上海市","adcode":310106,"adname":"静安区","business_a":"宝山路","location":"121.471048,31.264301","tel":"[]","bigType":"政府机构及社会团体","midType":"工商税务机构","smallType":"工商税务机构","gcj_lng":121.471048,"gcj_lat":31.264301,"wgs84_loc":"121.466513,31.266221","wgs84Lng":"121.466513","wgs84Lat":"31.266221","__source_file__":"13-常用公服设施点/SHP/上海市_工商税务机构.shp"},"geometry":{"type":"Point","coordinates":[121.466513,31.266221]}},{"id":"44","type":"Feature","properties":{"id":"B0FFI01CME","name":"国家税务总局上海市静安区税务局24小时自助办税服务厅","address":"中山北路198号","type":"政府机构及社会团体;工商税务机构;工商税务机构","typecode":"130700","pcode":310000,"pname":"上海市","citycode":21,"cityname":"上海市","adcode":310106,"adname":"静安区","business_a":"和田","location":"121.470616,31.264310","tel":"021-52297892","bigType":"政府机构及社会团体","midType":"工商税务机构","smallType":"工商税务机构","gcj_lng":121.470616,"gcj_lat":31.26431,"wgs84_loc":"121.46608,31.266229","wgs84Lng":"121.46608","wgs84Lat":"31.266229","__source_file__":"13-常用公服设施点/SHP/上海市_工商税务机构.shp"},"geometry":{"type":"Point","coordinates":[121.46608,31.266229]}},{"id":"45","type":"Feature","properties":{"id":"B0FFH0ZXG0","name":"国家税务总局上海市静安区税务局第二税务所","address":"中山北路200附近","type":"政府机构及社会团体;工商税务机构;工商税务机构","typecode":"130700","pcode":310000,"pname":"上海市","citycode":21,"cityname":"上海市","adcode":310106,"adname":"静安区","business_a":"宝山路","location":"121.470538,31.264469","tel":"[]","bigType":"政府机构及社会团体","midType":"工商税务机构","smallType":"工商税务机构","gcj_lng":121.470538,"gcj_lat":31.264469,"wgs84_loc":"121.466002,31.266388","wgs84Lng":"121.466002","wgs84Lat":"31.266388","__source_file__":"13-常用公服设施点/SHP/上海市_工商税务机构.shp"},"geometry":{"type":"Point","coordinates":[121.466002,31.266388]}},{"id":"444","type":"Feature","properties":{"id":"B0J3US095J","name":"国家税务总局上海市静安区税务局第十七税务所","address":"中山北路198号(西藏北路地铁站2号口步行150米)","type":"政府机构及社会团体;工商税务机构;工商税务机构","typecode":"130700","pcode":310000,"pname":"上海市","citycode":21,"cityname":"上海市","adcode":310106,"adname":"静安区","business_a":"宝山路","location":"121.470514,31.264517","tel":"[]","bigType":"政府机构及社会团体","midType":"工商税务机构","smallType":"工商税务机构","gcj_lng":121.470514,"gcj_lat":31.264517,"wgs84_loc":"121.465978,31.266435","wgs84Lng":"121.465978","wgs84Lat":"31.266435","__source_file__":"13-常用公服设施点/SHP/上海市_工商税务机构.shp"},"geometry":{"type":"Point","coordinates":[121.465978,31.266435]}},{"id":"48","type":"Feature","properties":{"id":"B0FFJP73WH","name":"国家税务总局上海市静安区税务局第一税务所","address":"中山北路198号申航大厦","type":"政府机构及社会团体;工商税务机构;工商税务机构","typecode":"130700","pcode":310000,"pname":"上海市","citycode":21,"cityname":"上海市","adcode":310106,"adname":"静安区","business_a":"宝山路","location":"121.470579,31.264550","tel":"[]","bigType":"政府机构及社会团体","midType":"工商税务机构","smallType":"工商税务机构","gcj_lng":121.470579,"gcj_lat":31.26455,"wgs84_loc":"121.466043,31.266469","wgs84Lng":"121.466043","wgs84Lat":"31.266469","__source_file__":"13-常用公服设施点/SHP/上海市_工商税务机构.shp"},"geometry":{"type":"Point","coordinates":[121.466043,31.266469]}},{"id":"39","type":"Feature","properties":{"id":"B00155KBZC","name":"国家税务总局上海市静安区税务局第五税务所","address":"中山北路198号申航大厦","type":"政府机构及社会团体;工商税务机构;工商税务机构","typecode":"130700","pcode":310000,"pname":"上海市","citycode":21,"cityname":"上海市","adcode":310106,"adname":"静安区","business_a":"和田","location":"121.470499,31.264561","tel":"[]","bigType":"政府机构及社会团体","midType":"工商税务机构","smallType":"工商税务机构","gcj_lng":121.470499,"gcj_lat":31.264561,"wgs84_loc":"121.465963,31.266479","wgs84Lng":"121.465963","wgs84Lat":"31.266479","__source_file__":"13-常用公服设施点/SHP/上海市_工商税务机构.shp"},"geometry":{"type":"Point","coordinates":[121.465963,31.266479]}},{"id":"438","type":"Feature","properties":{"id":"B00154Y8RO","name":"上海市闸北国家税务局","address":"中山北路198号申航大厦(西藏北路地铁站2号口步行230米)","type":"政府机构及社会团体;工商税务机构;国税机关","typecode":"130702","pcode":310000,"pname":"上海市","citycode":21,"cityname":"上海市","adcode":310106,"adname":"静安区","business_a":"宝山路","location":"121.470499,31.264561","tel":"021-56323818","bigType":"政府机构及社会团体","midType":"工商税务机构","smallType":"国税机关","gcj_lng":121.470499,"gcj_lat":31.264561,"wgs84_loc":"121.465963,31.266479","wgs84Lng":"121.465963","wgs84Lat":"31.266479","__source_file__":"13-常用公服设施点/SHP/上海市_工商税务机构.shp"},"geometry":{"type":"Point","coordinates":[121.465963,31.266479]}},{"id":"257","type":"Feature","properties":{"id":"B0FFGFB59Y","name":"普陀区市场监督管理局长寿市场监督管理所","address":"宜昌路405号","type":"政府机构及社会团体;工商税务机构;工商部门|政府机构及社会团体;政府机关;乡镇级政府及事业单位","typecode":"130701|130105","pcode":310000,"pname":"上海市","citycode":21,"cityname":"上海市","adcode":310107,"adname":"普陀区","business_a":"曹家渡","location":"121.436197,31.245963","tel":"[]","bigType":"政府机构及社会团体","midType":"工商税务机构","smallType":"工商部门|政府机构及社会团体","gcj_lng":121.436197,"gcj_lat":31.245963,"wgs84_loc":"121.431575,31.247817","wgs84Lng":"121.431575","wgs84Lat":"31.247817","__source_file__":"13-常用公服设施点/SHP/上海市_工商税务机构.shp"},"geometry":{"type":"Point","coordinates":[121.431575,31.247817]}},{"id":"168","type":"Feature","properties":{"id":"B00154DUTJ","name":"天目西(上海站地区)工商所","address":"秣陵路100联合售票大楼14层","type":"政府机构及社会团体;工商税务机构;工商部门","typecode":"130701","pcode":310000,"pname":"上海市","citycode":21,"cityname":"上海市","adcode":310106,"adname":"静安区","business_a":"宝山路","location":"121.457741,31.247210","tel":"[]","bigType":"政府机构及社会团体","midType":"工商税务机构","smallType":"工商部门","gcj_lng":121.457741,"gcj_lat":31.24721,"wgs84_loc":"121.453168,31.249104","wgs84Lng":"121.453168","wgs84Lat":"31.249104","__source_file__":"13-常用公服设施点/SHP/上海市_工商税务机构.shp"},"geometry":{"type":"Point","coordinates":[121.453168,31.249104]}},{"id":"233","type":"Feature","properties":{"id":"B0FFG0G2Y0","name":"宜川工商所","address":"远景路97弄12号","type":"政府机构及社会团体;工商税务机构;工商部门","typecode":"130701","pcode":310000,"pname":"上海市","citycode":21,"cityname":"上海市","adcode":310107,"adname":"普陀区","business_a":"光新","location":"121.448202,31.252295","tel":"[]","bigType":"政府机构及社会团体","midType":"工商税务机构","smallType":"工商部门","gcj_lng":121.448202,"gcj_lat":31.252295,"wgs84_loc":"121.443604,31.254167","wgs84Lng":"121.443604","wgs84Lat":"31.254167","__source_file__":"13-常用公服设施点/SHP/上海市_工商税务机构.shp"},"geometry":{"type":"Point","coordinates":[121.443604,31.254167]}},{"id":"413","type":"Feature","properties":{"id":"B00157I437","name":"天目西工商所消费者权益保护和泰花园居委会联络点","address":"沪太路555弄8","type":"政府机构及社会团体;工商税务机构;工商部门","typecode":"130701","pcode":310000,"pname":"上海市","citycode":21,"cityname":"上海市","adcode":310106,"adname":"静安区","business_a":"和田","location":"121.452330,31.257651","tel":"[]","bigType":"政府机构及社会团体","midType":"工商税务机构","smallType":"工商部门","gcj_lng":121.45233,"gcj_lat":31.257651,"wgs84_loc":"121.447742,31.259529","wgs84Lng":"121.447742","wgs84Lat":"31.259529","__source_file__":"13-常用公服设施点/SHP/上海市_工商税务机构.shp"},"geometry":{"type":"Point","coordinates":[121.447742,31.259529]}},{"id":"409","type":"Feature","properties":{"id":"B0FFJP24RF","name":"办税服务厅","address":"中山北路198号","type":"政府机构及社会团体;工商税务机构;工商税务机构","typecode":"130700","pcode":310000,"pname":"上海市","citycode":21,"cityname":"上海市","adcode":310106,"adname":"静安区","business_a":"和田","location":"121.470465,31.264570","tel":"021-32174988","bigType":"政府机构及社会团体","midType":"工商税务机构","smallType":"工商税务机构","gcj_lng":121.470465,"gcj_lat":31.26457,"wgs84_loc":"121.465929,31.266488","wgs84Lng":"121.465929","wgs84Lat":"31.266488","__source_file__":"13-常用公服设施点/SHP/上海市_工商税务机构.shp"},"geometry":{"type":"Point","coordinates":[121.465929,31.266488]}},{"id":"49","type":"Feature","properties":{"id":"B0FFJP3SE5","name":"国家税务总局上海市静安区税务局第四税务所","address":"中山北路198号申航大厦","type":"政府机构及社会团体;工商税务机构;工商税务机构","typecode":"130700","pcode":310000,"pname":"上海市","citycode":21,"cityname":"上海市","adcode":310106,"adname":"静安区","business_a":"和田","location":"121.470487,31.264593","tel":"021-32174988","bigType":"政府机构及社会团体","midType":"工商税务机构","smallType":"工商税务机构","gcj_lng":121.470487,"gcj_lat":31.264593,"wgs84_loc":"121.465951,31.266511","wgs84Lng":"121.465951","wgs84Lat":"31.266511","__source_file__":"13-常用公服设施点/SHP/上海市_工商税务机构.shp"},"geometry":{"type":"Point","coordinates":[121.465951,31.266511]}},{"id":"43","type":"Feature","properties":{"id":"B0FFJPIBVF","name":"国家税务总局上海市静安区税务局第十税务所","address":"中山北路198号","type":"政府机构及社会团体;工商税务机构;工商税务机构","typecode":"130700","pcode":310000,"pname":"上海市","citycode":21,"cityname":"上海市","adcode":310106,"adname":"静安区","business_a":"宝山路","location":"121.470599,31.264614","tel":"[]","bigType":"政府机构及社会团体","midType":"工商税务机构","smallType":"工商税务机构","gcj_lng":121.470599,"gcj_lat":31.264614,"wgs84_loc":"121.466063,31.266533","wgs84Lng":"121.466063","wgs84Lat":"31.266533","__source_file__":"13-常用公服设施点/SHP/上海市_工商税务机构.shp"},"geometry":{"type":"Point","coordinates":[121.466063,31.266533]}},{"id":"46","type":"Feature","properties":{"id":"B00156YNSB","name":"国家税务总局上海市静安区税务局第十三税务所","address":"上海市静安区中山北路198号申航大厦","type":"政府机构及社会团体;工商税务机构;工商税务机构","typecode":"130700","pcode":310000,"pname":"上海市","citycode":21,"cityname":"上海市","adcode":310106,"adname":"静安区","business_a":"和田","location":"121.470487,31.264621","tel":"[]","bigType":"政府机构及社会团体","midType":"工商税务机构","smallType":"工商税务机构","gcj_lng":121.470487,"gcj_lat":31.264621,"wgs84_loc":"121.465951,31.266539","wgs84Lng":"121.465951","wgs84Lat":"31.266539","__source_file__":"13-常用公服设施点/SHP/上海市_工商税务机构.shp"},"geometry":{"type":"Point","coordinates":[121.465951,31.266539]}},{"id":"443","type":"Feature","properties":{"id":"B0K0HUPRE9","name":"国家税务总局上海市静安区税务局第十八税务所","address":"中山北路198号","type":"政府机构及社会团体;工商税务机构;工商税务机构","typecode":"130700","pcode":310000,"pname":"上海市","citycode":21,"cityname":"上海市","adcode":310106,"adname":"静安区","business_a":"宝山路","location":"121.470529,31.264661","tel":"[]","bigType":"政府机构及社会团体","midType":"工商税务机构","smallType":"工商税务机构","gcj_lng":121.470529,"gcj_lat":31.264661,"wgs84_loc":"121.465993,31.266579","wgs84Lng":"121.465993","wgs84Lat":"31.266579","__source_file__":"13-常用公服设施点/SHP/上海市_工商税务机构.shp"},"geometry":{"type":"Point","coordinates":[121.465993,31.266579]}},{"id":"52","type":"Feature","properties":{"id":"B0015279FA","name":"国家税务总局上海市虹口区税务局","address":"临平北路35号","type":"政府机构及社会团体;工商税务机构;工商税务机构","typecode":"130700","pcode":310000,"pname":"上海市","citycode":21,"cityname":"上海市","adcode":310109,"adname":"虹口区","business_a":"四平路","location":"121.493021,31.263850","tel":"021-26035555","bigType":"政府机构及社会团体","midType":"工商税务机构","smallType":"工商税务机构","gcj_lng":121.493021,"gcj_lat":31.26385,"wgs84_loc":"121.488562,31.265833","wgs84Lng":"121.488562","wgs84Lat":"31.265833","__source_file__":"13-常用公服设施点/SHP/上海市_工商税务机构.shp"},"geometry":{"type":"Point","coordinates":[121.488562,31.265833]}},{"id":"430","type":"Feature","properties":{"id":"B0IGVC24QZ","name":"国家税务总局虹口区税务局2号楼","address":"临平北路与香烟桥路交叉口东北80米","type":"政府机构及社会团体;工商税务机构;工商税务机构","typecode":"130700","pcode":310000,"pname":"上海市","citycode":21,"cityname":"上海市","adcode":310109,"adname":"虹口区","business_a":"四平路","location":"121.493127,31.264015","tel":"[]","bigType":"政府机构及社会团体","midType":"工商税务机构","smallType":"工商税务机构","gcj_lng":121.493127,"gcj_lat":31.264015,"wgs84_loc":"121.488668,31.265998","wgs84Lng":"121.488668","wgs84Lat":"31.265998","__source_file__":"13-常用公服设施点/SHP/上海市_工商税务机构.shp"},"geometry":{"type":"Point","coordinates":[121.488668,31.265998]}},{"id":"50","type":"Feature","properties":{"id":"B0FFH183Y3","name":"国家税务总局上海市静安区税务局第十七税务所","address":"上海市静安区中山北路178号5号楼","type":"政府机构及社会团体;工商税务机构;工商税务机构","typecode":"130700","pcode":310000,"pname":"上海市","citycode":21,"cityname":"上海市","adcode":310106,"adname":"静安区","business_a":"和田","location":"121.471109,31.265458","tel":"[]","bigType":"政府机构及社会团体","midType":"工商税务机构","smallType":"工商税务机构","gcj_lng":121.471109,"gcj_lat":31.265458,"wgs84_loc":"121.466575,31.267378","wgs84Lng":"121.466575","wgs84Lat":"31.267378","__source_file__":"13-常用公服设施点/SHP/上海市_工商税务机构.shp"},"geometry":{"type":"Point","coordinates":[121.466575,31.267378]}}],"name":"上海市_工商税务机构","crs":{"type":"name","properties":{"name":"urn:ogc:def:crs:OGC:1.3:CRS84"}}}