{"type":"FeatureCollection","features":[{"id":"36","type":"Feature","properties":{"id":"B0FFK6VHZL","name":"108路终点站","address":"[]","type":"生活服务;丧葬设施;丧葬设施","typecode":"071900","pcode":310000,"pname":"上海市","citycode":21,"cityname":"上海市","adcode":310101,"adname":"黄浦区","business_a":"淮海路","location":"121.472809,31.224600","tel":"[]","bigType":"生活服务","midType":"丧葬设施","smallType":"丧葬设施","gcj_lng":121.472809,"gcj_lat":31.2246,"wgs84_loc":"121.468284,31.226543","wgs84Lng":"121.468284","wgs84Lat":"31.226543","__source_file__":"13-常用公服设施点/SHP/上海市_丧葬设施.shp"},"geometry":{"type":"Point","coordinates":[121.468284,31.226543]}},{"id":"645","type":"Feature","properties":{"id":"B0IARR8QJE","name":"108路终点站","address":"宁海西路与连云路交叉口西20米","type":"生活服务;丧葬设施;丧葬设施","typecode":"071900","pcode":310000,"pname":"上海市","citycode":21,"cityname":"上海市","adcode":310101,"adname":"黄浦区","business_a":"北京东路","location":"121.475668,31.224903","tel":"[]","bigType":"生活服务","midType":"丧葬设施","smallType":"丧葬设施","gcj_lng":121.475668,"gcj_lat":31.224903,"wgs84_loc":"121.471152,31.226853","wgs84Lng":"121.471152","wgs84Lat":"31.226853","__source_file__":"13-常用公服设施点/SHP/上海市_丧葬设施.shp"},"geometry":{"type":"Point","coordinates":[121.471152,31.226853]}},{"id":"612","type":"Feature","properties":{"id":"B00155HOG7","name":"上海市淀山湖归园公墓","address":"思南路36-2号","type":"生活服务;丧葬设施;公墓|购物服务;购物相关场所;购物相关场所","typecode":"071902|060000","pcode":310000,"pname":"上海市","citycode":21,"cityname":"上海市","adcode":310101,"adname":"黄浦区","business_a":"淮海路","location":"121.466439,31.217627","tel":"[]","bigType":"生活服务","midType":"丧葬设施","smallType":"公墓|购物服务","gcj_lng":121.466439,"gcj_lat":31.217627,"wgs84_loc":"121.461894,31.219556","wgs84Lng":"121.461894","wgs84Lat":"31.219556","__source_file__":"13-常用公服设施点/SHP/上海市_丧葬设施.shp"},"geometry":{"type":"Point","coordinates":[121.461894,31.219556]}},{"id":"418","type":"Feature","properties":{"id":"B0FFIYA6SE","name":"名流陵园","address":"石门一路24号底层","type":"生活服务;丧葬设施;陵园","typecode":"071901","pcode":310000,"pname":"上海市","citycode":21,"cityname":"上海市","adcode":310106,"adname":"静安区","business_a":"淮海路","location":"121.463388,31.224549","tel":"[]","bigType":"生活服务","midType":"丧葬设施","smallType":"陵园","gcj_lng":121.463388,"gcj_lat":31.224549,"wgs84_loc":"121.458833,31.226467","wgs84Lng":"121.458833","wgs84Lat":"31.226467","__source_file__":"13-常用公服设施点/SHP/上海市_丧葬设施.shp"},"geometry":{"type":"Point","coordinates":[121.458833,31.226467]}},{"id":"413","type":"Feature","properties":{"id":"B00156O6LU","name":"滨海古园(新闸路店)","address":"新闸路1978号(近万航渡路口)","type":"生活服务;丧葬设施;丧葬设施|购物服务;购物相关场所;购物相关场所","typecode":"071900|060000","pcode":310000,"pname":"上海市","citycode":21,"cityname":"上海市","adcode":310106,"adname":"静安区","business_a":"曹家渡","location":"121.440418,31.226091","tel":"021-62717844","bigType":"生活服务","midType":"丧葬设施","smallType":"丧葬设施|购物服务","gcj_lng":121.440418,"gcj_lat":31.226091,"wgs84_loc":"121.435806,31.22796","wgs84Lng":"121.435806","wgs84Lat":"31.22796","__source_file__":"13-常用公服设施点/SHP/上海市_丧葬设施.shp"},"geometry":{"type":"Point","coordinates":[121.435806,31.22796]}},{"id":"412","type":"Feature","properties":{"id":"B00156YS3M","name":"宗缘阁","address":"延平路447号","type":"生活服务;丧葬设施;丧葬设施|餐饮服务;餐饮相关场所;餐饮相关","typecode":"071900|050000","pcode":310000,"pname":"上海市","citycode":21,"cityname":"上海市","adcode":310106,"adname":"静安区","business_a":"曹家渡","location":"121.437248,31.233996","tel":"[]","bigType":"生活服务","midType":"丧葬设施","smallType":"丧葬设施|餐饮服务","gcj_lng":121.437248,"gcj_lat":31.233996,"wgs84_loc":"121.432629,31.235857","wgs84Lng":"121.432629","wgs84Lat":"31.235857","__source_file__":"13-常用公服设施点/SHP/上海市_丧葬设施.shp"},"geometry":{"type":"Point","coordinates":[121.432629,31.235857]}},{"id":"674","type":"Feature","properties":{"id":"B0J6B6NANU","name":"静安园(均泰丽轩店)","address":"均泰丽轩东北1门旁(武宁路地铁站2号口步行390米)","type":"生活服务;丧葬设施;公墓","typecode":"071902","pcode":310000,"pname":"上海市","citycode":21,"cityname":"上海市","adcode":310106,"adname":"静安区","business_a":"曹家渡","location":"121.433289,31.234174","tel":"[]","bigType":"生活服务","midType":"丧葬设施","smallType":"公墓","gcj_lng":121.433289,"gcj_lat":31.234174,"wgs84_loc":"121.428663,31.236029","wgs84Lng":"121.428663","wgs84Lat":"31.236029","__source_file__":"13-常用公服设施点/SHP/上海市_丧葬设施.shp"},"geometry":{"type":"Point","coordinates":[121.428663,31.236029]}},{"id":"417","type":"Feature","properties":{"id":"B0FFIZNUWD","name":"盛顺殡葬礼仪","address":"谈家桥路111号","type":"生活服务;丧葬设施;丧葬设施","typecode":"071900","pcode":310000,"pname":"上海市","citycode":21,"cityname":"上海市","adcode":310106,"adname":"静安区","business_a":"和田","location":"121.452155,31.260042","tel":"13162519365","bigType":"生活服务","midType":"丧葬设施","smallType":"丧葬设施","gcj_lng":121.452155,"gcj_lat":31.260042,"wgs84_loc":"121.447566,31.261918","wgs84Lng":"121.447566","wgs84Lat":"31.261918","__source_file__":"13-常用公服设施点/SHP/上海市_丧葬设施.shp"},"geometry":{"type":"Point","coordinates":[121.447566,31.261918]}},{"id":"624","type":"Feature","properties":{"id":"B0FFLFFF1M","name":"殡葬一条龙","address":"洛川路与骊山路交叉路口西北侧(宜川一村小区)","type":"生活服务;丧葬设施;丧葬设施","typecode":"071900","pcode":310000,"pname":"上海市","citycode":21,"cityname":"上海市","adcode":310107,"adname":"普陀区","business_a":"光新","location":"121.442633,31.262314","tel":"[]","bigType":"生活服务","midType":"丧葬设施","smallType":"丧葬设施","gcj_lng":121.442633,"gcj_lat":31.262314,"wgs84_loc":"121.438022,31.264171","wgs84Lng":"121.438022","wgs84Lat":"31.264171","__source_file__":"13-常用公服设施点/SHP/上海市_丧葬设施.shp"},"geometry":{"type":"Point","coordinates":[121.438022,31.264171]}},{"id":"243","type":"Feature","properties":{"id":"B0FFGTI6HK","name":"安祥殡葬丧礼服务社","address":"延长西路与骊山路交叉口西50米","type":"生活服务;丧葬设施;丧葬设施","typecode":"071900","pcode":310000,"pname":"上海市","citycode":21,"cityname":"上海市","adcode":310107,"adname":"普陀区","business_a":"大宁路","location":"121.441572,31.264183","tel":"[]","bigType":"生活服务","midType":"丧葬设施","smallType":"丧葬设施","gcj_lng":121.441572,"gcj_lat":31.264183,"wgs84_loc":"121.436959,31.266037","wgs84Lng":"121.436959","wgs84Lat":"31.266037","__source_file__":"13-常用公服设施点/SHP/上海市_丧葬设施.shp"},"geometry":{"type":"Point","coordinates":[121.436959,31.266037]}},{"id":"572","type":"Feature","properties":{"id":"B0GRCMC2VI","name":"上海九天陵园(总部)","address":"淮海东路99号16楼","type":"生活服务;丧葬设施;丧葬设施","typecode":"071900","pcode":310000,"pname":"上海市","citycode":21,"cityname":"上海市","adcode":310101,"adname":"黄浦区","business_a":"淮海路","location":"121.480741,31.225601","tel":"[]","bigType":"生活服务","midType":"丧葬设施","smallType":"丧葬设施","gcj_lng":121.480741,"gcj_lat":31.225601,"wgs84_loc":"121.476242,31.227565","wgs84Lng":"121.476242","wgs84Lat":"31.227565","__source_file__":"13-常用公服设施点/SHP/上海市_丧葬设施.shp"},"geometry":{"type":"Point","coordinates":[121.476242,31.227565]}},{"id":"406","type":"Feature","properties":{"id":"B0I69S6J79","name":"五福寿衣","address":"侯家路与沉香阁路交叉口东北60米","type":"生活服务;丧葬设施;丧葬设施","typecode":"071900","pcode":310000,"pname":"上海市","citycode":21,"cityname":"上海市","adcode":310101,"adname":"黄浦区","business_a":"城隍庙","location":"121.489564,31.227368","tel":"[]","bigType":"生活服务","midType":"丧葬设施","smallType":"丧葬设施","gcj_lng":121.489564,"gcj_lat":31.227368,"wgs84_loc":"121.485096,31.229357","wgs84Lng":"121.485096","wgs84Lat":"31.229357","__source_file__":"13-常用公服设施点/SHP/上海市_丧葬设施.shp"},"geometry":{"type":"Point","coordinates":[121.485096,31.229357]}},{"id":"69","type":"Feature","properties":{"id":"B00155HHA1","name":"功德缘香烛店","address":"临平路248号","type":"生活服务;丧葬设施;丧葬设施|购物服务;专卖店;专营店","typecode":"071900|061200","pcode":310000,"pname":"上海市","citycode":21,"cityname":"上海市","adcode":310109,"adname":"虹口区","business_a":"提篮桥","location":"121.496011,31.262142","tel":"021-55960253","bigType":"生活服务","midType":"丧葬设施","smallType":"丧葬设施|购物服务","gcj_lng":121.496011,"gcj_lat":31.262142,"wgs84_loc":"121.491563,31.264135","wgs84Lng":"121.491563","wgs84Lat":"31.264135","__source_file__":"13-常用公服设施点/SHP/上海市_丧葬设施.shp"},"geometry":{"type":"Point","coordinates":[121.491563,31.264135]}},{"id":"60","type":"Feature","properties":{"id":"B0FFLK11WC","name":"福龙殡葬服务","address":"中山北路121号","type":"生活服务;丧葬设施;丧葬设施","typecode":"071900","pcode":310000,"pname":"上海市","citycode":21,"cityname":"上海市","adcode":310109,"adname":"虹口区","business_a":"和田","location":"121.471393,31.266665","tel":"15800343308","bigType":"生活服务","midType":"丧葬设施","smallType":"丧葬设施","gcj_lng":121.471393,"gcj_lat":31.266665,"wgs84_loc":"121.466859,31.268585","wgs84Lng":"121.466859","wgs84Lat":"31.268585","__source_file__":"13-常用公服设施点/SHP/上海市_丧葬设施.shp"},"geometry":{"type":"Point","coordinates":[121.466859,31.268585]}},{"id":"71","type":"Feature","properties":{"id":"B0FFMHSR1E","name":"杨阳礼仪","address":"中山北路广联新苑","type":"生活服务;丧葬设施;丧葬设施","typecode":"071900","pcode":310000,"pname":"上海市","citycode":21,"cityname":"上海市","adcode":310109,"adname":"虹口区","business_a":"和田","location":"121.471574,31.266813","tel":"13801821466","bigType":"生活服务","midType":"丧葬设施","smallType":"丧葬设施","gcj_lng":121.471574,"gcj_lat":31.266813,"wgs84_loc":"121.467041,31.268733","wgs84Lng":"121.467041","wgs84Lat":"31.268733","__source_file__":"13-常用公服设施点/SHP/上海市_丧葬设施.shp"},"geometry":{"type":"Point","coordinates":[121.467041,31.268733]}},{"id":"426","type":"Feature","properties":{"id":"B0FFF9ZLXM","name":"上海亿亲殡葬服务有限公司","address":"通阁路188号","type":"生活服务;丧葬设施;丧葬设施","typecode":"071900","pcode":310000,"pname":"上海市","citycode":21,"cityname":"上海市","adcode":310106,"adname":"静安区","business_a":"宝山路","location":"121.470638,31.260130","tel":"021-36173344;021-51087444","bigType":"生活服务","midType":"丧葬设施","smallType":"丧葬设施","gcj_lng":121.470638,"gcj_lat":31.26013,"wgs84_loc":"121.466103,31.262051","wgs84Lng":"121.466103","wgs84Lat":"31.262051","__source_file__":"13-常用公服设施点/SHP/上海市_丧葬设施.shp"},"geometry":{"type":"Point","coordinates":[121.466103,31.262051]}},{"id":"63","type":"Feature","properties":{"id":"B0FFH10ONY","name":"民建殡葬","address":"西宝兴路713号","type":"生活服务;丧葬设施;丧葬设施","typecode":"071900","pcode":310000,"pname":"上海市","citycode":21,"cityname":"上海市","adcode":310109,"adname":"虹口区","business_a":"和田","location":"121.470759,31.266877","tel":"13601686298","bigType":"生活服务","midType":"丧葬设施","smallType":"丧葬设施","gcj_lng":121.470759,"gcj_lat":31.266877,"wgs84_loc":"121.466223,31.268795","wgs84Lng":"121.466223","wgs84Lat":"31.268795","__source_file__":"13-常用公服设施点/SHP/上海市_丧葬设施.shp"},"geometry":{"type":"Point","coordinates":[121.466223,31.268795]}},{"id":"68","type":"Feature","properties":{"id":"B00156O81L","name":"赋园堂殡葬用品有限公司","address":"西宝兴路725号","type":"生活服务;丧葬设施;丧葬设施","typecode":"071900","pcode":310000,"pname":"上海市","citycode":21,"cityname":"上海市","adcode":310109,"adname":"虹口区","business_a":"和田","location":"121.470630,31.266941","tel":"[]","bigType":"生活服务","midType":"丧葬设施","smallType":"丧葬设施","gcj_lng":121.47063,"gcj_lat":31.266941,"wgs84_loc":"121.466094,31.268859","wgs84Lng":"121.466094","wgs84Lat":"31.268859","__source_file__":"13-常用公服设施点/SHP/上海市_丧葬设施.shp"},"geometry":{"type":"Point","coordinates":[121.466094,31.268859]}},{"id":"67","type":"Feature","properties":{"id":"B0FFFA1PP9","name":"上海求真殡葬礼仪服务有限公司","address":"西宝兴路731号","type":"生活服务;丧葬设施;丧葬设施","typecode":"071900","pcode":310000,"pname":"上海市","citycode":21,"cityname":"上海市","adcode":310109,"adname":"虹口区","business_a":"和田","location":"121.470544,31.267073","tel":"[]","bigType":"生活服务","midType":"丧葬设施","smallType":"丧葬设施","gcj_lng":121.470544,"gcj_lat":31.267073,"wgs84_loc":"121.466008,31.26899","wgs84Lng":"121.466008","wgs84Lat":"31.26899","__source_file__":"13-常用公服设施点/SHP/上海市_丧葬设施.shp"},"geometry":{"type":"Point","coordinates":[121.466008,31.26899]}},{"id":"56","type":"Feature","properties":{"id":"B0FFH0P56F","name":"上海市公墓办事处(西宝兴路)","address":"西宝兴路735号","type":"生活服务;丧葬设施;丧葬设施","typecode":"071900","pcode":310000,"pname":"上海市","citycode":21,"cityname":"上海市","adcode":310109,"adname":"虹口区","business_a":"和田","location":"121.470522,31.267080","tel":"[]","bigType":"生活服务","midType":"丧葬设施","smallType":"丧葬设施","gcj_lng":121.470522,"gcj_lat":31.26708,"wgs84_loc":"121.465986,31.268997","wgs84Lng":"121.465986","wgs84Lat":"31.268997","__source_file__":"13-常用公服设施点/SHP/上海市_丧葬设施.shp"},"geometry":{"type":"Point","coordinates":[121.465986,31.268997]}},{"id":"62","type":"Feature","properties":{"id":"B0FFJ1YPJO","name":"祥云阁寿衣店","address":"西宝兴路735号","type":"生活服务;丧葬设施;丧葬设施","typecode":"071900","pcode":310000,"pname":"上海市","citycode":21,"cityname":"上海市","adcode":310109,"adname":"虹口区","business_a":"和田","location":"121.470556,31.267112","tel":"021-56314000;13482302068","bigType":"生活服务","midType":"丧葬设施","smallType":"丧葬设施","gcj_lng":121.470556,"gcj_lat":31.267112,"wgs84_loc":"121.46602,31.269029","wgs84Lng":"121.46602","wgs84Lat":"31.269029","__source_file__":"13-常用公服设施点/SHP/上海市_丧葬设施.shp"},"geometry":{"type":"Point","coordinates":[121.46602,31.269029]}},{"id":"54","type":"Feature","properties":{"id":"B0FFF44PJ8","name":"息园","address":"西宝兴路733号-2","type":"生活服务;丧葬设施;丧葬设施","typecode":"071900","pcode":310000,"pname":"上海市","citycode":21,"cityname":"上海市","adcode":310109,"adname":"虹口区","business_a":"和田","location":"121.470583,31.267137","tel":"13817865493;13916000793","bigType":"生活服务","midType":"丧葬设施","smallType":"丧葬设施","gcj_lng":121.470583,"gcj_lat":31.267137,"wgs84_loc":"121.466047,31.269055","wgs84Lng":"121.466047","wgs84Lat":"31.269055","__source_file__":"13-常用公服设施点/SHP/上海市_丧葬设施.shp"},"geometry":{"type":"Point","coordinates":[121.466047,31.269055]}},{"id":"66","type":"Feature","properties":{"id":"B0FFFA1PQ2","name":"吉祥殡葬用品(黄山路店)","address":"西宝兴路733号甲","type":"生活服务;丧葬设施;丧葬设施","typecode":"071900","pcode":310000,"pname":"上海市","citycode":21,"cityname":"上海市","adcode":310109,"adname":"虹口区","business_a":"和田","location":"121.470690,31.267234","tel":"13801718983","bigType":"生活服务","midType":"丧葬设施","smallType":"丧葬设施","gcj_lng":121.47069,"gcj_lat":31.267234,"wgs84_loc":"121.466154,31.269152","wgs84Lng":"121.466154","wgs84Lat":"31.269152","__source_file__":"13-常用公服设施点/SHP/上海市_丧葬设施.shp"},"geometry":{"type":"Point","coordinates":[121.466154,31.269152]}},{"id":"65","type":"Feature","properties":{"id":"B0FFFA1PQ8","name":"蓝蓝殡葬礼仪服务公司","address":"西宝兴路733号","type":"生活服务;丧葬设施;丧葬设施","typecode":"071900","pcode":310000,"pname":"上海市","citycode":21,"cityname":"上海市","adcode":310109,"adname":"虹口区","business_a":"和田","location":"121.470713,31.267254","tel":"021-66283213;18121011859;13371810609","bigType":"生活服务","midType":"丧葬设施","smallType":"丧葬设施","gcj_lng":121.470713,"gcj_lat":31.267254,"wgs84_loc":"121.466177,31.269172","wgs84Lng":"121.466177","wgs84Lat":"31.269172","__source_file__":"13-常用公服设施点/SHP/上海市_丧葬设施.shp"},"geometry":{"type":"Point","coordinates":[121.466177,31.269172]}},{"id":"53","type":"Feature","properties":{"id":"B0FFFA1PQK","name":"小王丧葬用品批发","address":"西宝兴路727号","type":"生活服务;丧葬设施;丧葬设施","typecode":"071900","pcode":310000,"pname":"上海市","citycode":21,"cityname":"上海市","adcode":310109,"adname":"虹口区","business_a":"和田","location":"121.470763,31.267299","tel":"021-56314082","bigType":"生活服务","midType":"丧葬设施","smallType":"丧葬设施","gcj_lng":121.470763,"gcj_lat":31.267299,"wgs84_loc":"121.466227,31.269217","wgs84Lng":"121.466227","wgs84Lat":"31.269217","__source_file__":"13-常用公服设施点/SHP/上海市_丧葬设施.shp"},"geometry":{"type":"Point","coordinates":[121.466227,31.269217]}},{"id":"52","type":"Feature","properties":{"id":"B0FFHW5LHU","name":"延旺殡葬服务部","address":"西宝兴路733号2室","type":"生活服务;丧葬设施;丧葬设施","typecode":"071900","pcode":310000,"pname":"上海市","citycode":21,"cityname":"上海市","adcode":310109,"adname":"虹口区","business_a":"和田","location":"121.470792,31.267326","tel":"[]","bigType":"生活服务","midType":"丧葬设施","smallType":"丧葬设施","gcj_lng":121.470792,"gcj_lat":31.267326,"wgs84_loc":"121.466256,31.269244","wgs84Lng":"121.466256","wgs84Lat":"31.269244","__source_file__":"13-常用公服设施点/SHP/上海市_丧葬设施.shp"},"geometry":{"type":"Point","coordinates":[121.466256,31.269244]}},{"id":"649","type":"Feature","properties":{"id":"B0G2G4LVX9","name":"上海祥和殡葬用品服务中心","address":"景祥路与西宝兴路交叉口东60米","type":"生活服务;丧葬设施;丧葬设施","typecode":"071900","pcode":310000,"pname":"上海市","citycode":21,"cityname":"上海市","adcode":310109,"adname":"虹口区","business_a":"和田","location":"121.470275,31.267683","tel":"13381788706","bigType":"生活服务","midType":"丧葬设施","smallType":"丧葬设施","gcj_lng":121.470275,"gcj_lat":31.267683,"wgs84_loc":"121.465738,31.269599","wgs84Lng":"121.465738","wgs84Lat":"31.269599","__source_file__":"13-常用公服设施点/SHP/上海市_丧葬设施.shp"},"geometry":{"type":"Point","coordinates":[121.465738,31.269599]}},{"id":"648","type":"Feature","properties":{"id":"B0FFHPEW7L","name":"福龙殡葬用品","address":"景祥路3号","type":"生活服务;丧葬设施;丧葬设施","typecode":"071900","pcode":310000,"pname":"上海市","citycode":21,"cityname":"上海市","adcode":310109,"adname":"虹口区","business_a":"和田","location":"121.470398,31.267885","tel":"[]","bigType":"生活服务","midType":"丧葬设施","smallType":"丧葬设施","gcj_lng":121.470398,"gcj_lat":31.267885,"wgs84_loc":"121.465861,31.269802","wgs84Lng":"121.465861","wgs84Lat":"31.269802","__source_file__":"13-常用公服设施点/SHP/上海市_丧葬设施.shp"},"geometry":{"type":"Point","coordinates":[121.465861,31.269802]}},{"id":"670","type":"Feature","properties":{"id":"B0KG3UKV00","name":"博古殡葬用品(总店)","address":"西宝兴路景祥路3号","type":"生活服务;丧葬设施;丧葬设施","typecode":"071900","pcode":310000,"pname":"上海市","citycode":21,"cityname":"上海市","adcode":310109,"adname":"虹口区","business_a":"和田","location":"121.470339,31.267919","tel":"[]","bigType":"生活服务","midType":"丧葬设施","smallType":"丧葬设施","gcj_lng":121.470339,"gcj_lat":31.267919,"wgs84_loc":"121.465802,31.269836","wgs84Lng":"121.465802","wgs84Lat":"31.269836","__source_file__":"13-常用公服设施点/SHP/上海市_丧葬设施.shp"},"geometry":{"type":"Point","coordinates":[121.465802,31.269836]}},{"id":"55","type":"Feature","properties":{"id":"B00156O1WO","name":"博古殡葬用品(上海总店)","address":"景祥路9号","type":"生活服务;丧葬设施;丧葬设施","typecode":"071900","pcode":310000,"pname":"上海市","citycode":21,"cityname":"上海市","adcode":310109,"adname":"虹口区","business_a":"和田","location":"121.470749,31.268139","tel":"[]","bigType":"生活服务","midType":"丧葬设施","smallType":"丧葬设施","gcj_lng":121.470749,"gcj_lat":31.268139,"wgs84_loc":"121.466213,31.270057","wgs84Lng":"121.466213","wgs84Lat":"31.270057","__source_file__":"13-常用公服设施点/SHP/上海市_丧葬设施.shp"},"geometry":{"type":"Point","coordinates":[121.466213,31.270057]}},{"id":"671","type":"Feature","properties":{"id":"B0FFFA08W8","name":"永安殡葬(民和路)","address":"民和路137号","type":"生活服务;丧葬设施;丧葬设施","typecode":"071900","pcode":310000,"pname":"上海市","citycode":21,"cityname":"上海市","adcode":310106,"adname":"静安区","business_a":"和田","location":"121.468577,31.268720","tel":"021-56325148","bigType":"生活服务","midType":"丧葬设施","smallType":"丧葬设施","gcj_lng":121.468577,"gcj_lat":31.26872,"wgs84_loc":"121.464034,31.270632","wgs84Lng":"121.464034","wgs84Lat":"31.270632","__source_file__":"13-常用公服设施点/SHP/上海市_丧葬设施.shp"},"geometry":{"type":"Point","coordinates":[121.464034,31.270632]}},{"id":"425","type":"Feature","properties":{"id":"B0FFF9ZWTP","name":"华兴殡葬服务","address":"西宝兴路924","type":"生活服务;丧葬设施;丧葬设施","typecode":"071900","pcode":310000,"pname":"上海市","citycode":21,"cityname":"上海市","adcode":310106,"adname":"静安区","business_a":"和田","location":"121.468584,31.268731","tel":"[]","bigType":"生活服务","midType":"丧葬设施","smallType":"丧葬设施","gcj_lng":121.468584,"gcj_lat":31.268731,"wgs84_loc":"121.464041,31.270643","wgs84Lng":"121.464041","wgs84Lat":"31.270643","__source_file__":"13-常用公服设施点/SHP/上海市_丧葬设施.shp"},"geometry":{"type":"Point","coordinates":[121.464041,31.270643]}},{"id":"21","type":"Feature","properties":{"id":"B00155KCYH","name":"上海市宝兴殡仪馆","address":"西宝兴路833号","type":"生活服务;丧葬设施;殡仪馆","typecode":"071903","pcode":310000,"pname":"上海市","citycode":21,"cityname":"上海市","adcode":310109,"adname":"虹口区","business_a":"和田","location":"121.470453,31.268802","tel":"021-56629007","bigType":"生活服务","midType":"丧葬设施","smallType":"殡仪馆","gcj_lng":121.470453,"gcj_lat":31.268802,"wgs84_loc":"121.465916,31.270718","wgs84Lng":"121.465916","wgs84Lat":"31.270718","__source_file__":"13-常用公服设施点/SHP/上海市_丧葬设施.shp"},"geometry":{"type":"Point","coordinates":[121.465916,31.270718]}},{"id":"416","type":"Feature","properties":{"id":"B0FFJ2FQX4","name":"侨友花店","address":"西宝兴路848号","type":"生活服务;丧葬设施;丧葬设施","typecode":"071900","pcode":310000,"pname":"上海市","citycode":21,"cityname":"上海市","adcode":310106,"adname":"静安区","business_a":"和田","location":"121.468402,31.268622","tel":"[]","bigType":"生活服务","midType":"丧葬设施","smallType":"丧葬设施","gcj_lng":121.468402,"gcj_lat":31.268622,"wgs84_loc":"121.463859,31.270533","wgs84Lng":"121.463859","wgs84Lat":"31.270533","__source_file__":"13-常用公服设施点/SHP/上海市_丧葬设施.shp"},"geometry":{"type":"Point","coordinates":[121.463859,31.270533]}},{"id":"424","type":"Feature","properties":{"id":"B0FFG94YV1","name":"伟博殡葬白事通","address":"民和路139号伟博白事通","type":"生活服务;丧葬设施;丧葬设施","typecode":"071900","pcode":310000,"pname":"上海市","citycode":21,"cityname":"上海市","adcode":310106,"adname":"静安区","business_a":"和田","location":"121.468499,31.268681","tel":"15000661686","bigType":"生活服务","midType":"丧葬设施","smallType":"丧葬设施","gcj_lng":121.468499,"gcj_lat":31.268681,"wgs84_loc":"121.463956,31.270592","wgs84Lng":"121.463956","wgs84Lat":"31.270592","__source_file__":"13-常用公服设施点/SHP/上海市_丧葬设施.shp"},"geometry":{"type":"Point","coordinates":[121.463956,31.270592]}},{"id":"673","type":"Feature","properties":{"id":"B0FFJ2FR4N","name":"华夏公墓殡葬一条龙服务","address":"民和路137号甲","type":"生活服务;丧葬设施;丧葬设施","typecode":"071900","pcode":310000,"pname":"上海市","citycode":21,"cityname":"上海市","adcode":310106,"adname":"静安区","business_a":"和田","location":"121.468538,31.268714","tel":"13801663753","bigType":"生活服务","midType":"丧葬设施","smallType":"丧葬设施","gcj_lng":121.468538,"gcj_lat":31.268714,"wgs84_loc":"121.463995,31.270625","wgs84Lng":"121.463995","wgs84Lat":"31.270625","__source_file__":"13-常用公服设施点/SHP/上海市_丧葬设施.shp"},"geometry":{"type":"Point","coordinates":[121.463995,31.270625]}},{"id":"229","type":"Feature","properties":{"id":"B00155FMQC","name":"闸北公园-宋教仁墓","address":"共和新路1555号闸北公园","type":"生活服务;丧葬设施;陵园|风景名胜;风景名胜相关;旅游景点","typecode":"071901|110000","pcode":310000,"pname":"上海市","citycode":21,"cityname":"上海市","adcode":310106,"adname":"静安区","business_a":"和田","location":"121.458096,31.269094","tel":"[]","bigType":"生活服务","midType":"丧葬设施","smallType":"陵园|风景名胜","gcj_lng":121.458096,"gcj_lat":31.269094,"wgs84_loc":"121.453522,31.27098","wgs84Lng":"121.453522","wgs84Lat":"31.27098","__source_file__":"13-常用公服设施点/SHP/上海市_丧葬设施.shp"},"geometry":{"type":"Point","coordinates":[121.453522,31.27098]}},{"id":"573","type":"Feature","properties":{"id":"B0FFHG9733","name":"闸北公园-宋教仁先生之墓","address":"共和新路与洛川东路交叉口北约100米","type":"生活服务;丧葬设施;陵园","typecode":"071901","pcode":310000,"pname":"上海市","citycode":21,"cityname":"上海市","adcode":310106,"adname":"静安区","business_a":"和田","location":"121.4578,31.269278","tel":"[]","bigType":"生活服务","midType":"丧葬设施","smallType":"陵园","gcj_lng":121.4578,"gcj_lat":31.269278,"wgs84_loc":"121.453226,31.271163","wgs84Lng":"121.453226","wgs84Lat":"31.271163","__source_file__":"13-常用公服设施点/SHP/上海市_丧葬设施.shp"},"geometry":{"type":"Point","coordinates":[121.453226,31.271163]}},{"id":"409","type":"Feature","properties":{"id":"B0FFF65ZIW","name":"上海清竹园公墓办事处","address":"万荣路与老沪太路交叉口东北140米","type":"生活服务;丧葬设施;丧葬设施","typecode":"071900","pcode":310000,"pname":"上海市","citycode":21,"cityname":"上海市","adcode":310106,"adname":"静安区","business_a":"大宁路","location":"121.449750,31.271389","tel":"[]","bigType":"生活服务","midType":"丧葬设施","smallType":"丧葬设施","gcj_lng":121.44975,"gcj_lat":31.271389,"wgs84_loc":"121.445155,31.273255","wgs84Lng":"121.445155","wgs84Lat":"31.273255","__source_file__":"13-常用公服设施点/SHP/上海市_丧葬设施.shp"},"geometry":{"type":"Point","coordinates":[121.445155,31.273255]}},{"id":"197","type":"Feature","properties":{"id":"B0FFG95IZ6","name":"五卅烈士墓遗址","address":"第六中心小学(新同心路北)","type":"生活服务;丧葬设施;陵园|风景名胜;风景名胜相关;旅游景点","typecode":"071901|110000","pcode":310000,"pname":"上海市","citycode":21,"cityname":"上海市","adcode":310109,"adname":"虹口区","business_a":"和田","location":"121.466685,31.276491","tel":"[]","bigType":"生活服务","midType":"丧葬设施","smallType":"陵园|风景名胜","gcj_lng":121.466685,"gcj_lat":31.276491,"wgs84_loc":"121.462136,31.278394","wgs84Lng":"121.462136","wgs84Lat":"31.278394","__source_file__":"13-常用公服设施点/SHP/上海市_丧葬设施.shp"},"geometry":{"type":"Point","coordinates":[121.462136,31.278394]}}],"name":"上海市_丧葬设施","crs":{"type":"name","properties":{"name":"urn:ogc:def:crs:OGC:1.3:CRS84"}}}