{"type":"FeatureCollection","features":[{"id":"213","type":"Feature","properties":{"name":"欢迎加入黄浦消防救援","pname":"上海市","cityname":"上海市","adname":"黄浦区","address":"淮海中路与望亭路交叉口东南60米","isin_regio":"yes","wgs84_lng":"121.47231884511363","wgs84_lat":"31.22559603563655","行业大类":"生活服务","行业子类":"生活服务场所","__source_file__":"13-常用公服设施点/SHP/上海市_消防站.shp"},"geometry":{"type":"Point","coordinates":[121.47231884511363,31.22559603563655]}},{"id":"220","type":"Feature","properties":{"name":"黄浦区嵩山消防救援站","pname":"上海市","cityname":"上海市","adname":"黄浦区","address":"淮海中路与望亭路交叉口南40米","isin_regio":"yes","wgs84_lng":"121.47204994525107","wgs84_lat":"31.225677251074014","行业大类":"政府机构及社会团体","行业子类":"公检法机构","__source_file__":"13-常用公服设施点/SHP/上海市_消防站.shp"},"geometry":{"type":"Point","coordinates":[121.47204994525107,31.225677251074014]}},{"id":"217","type":"Feature","properties":{"name":"黄浦区北京消防救援站","pname":"上海市","cityname":"上海市","adname":"黄浦区","address":"南京东路街道北京西路295号","isin_regio":"yes","wgs84_lng":"121.46387769431227","wgs84_lat":"31.23709599099312","行业大类":"政府机构及社会团体","行业子类":"公检法机构","__source_file__":"13-常用公服设施点/SHP/上海市_消防站.shp"},"geometry":{"type":"Point","coordinates":[121.46387769431227,31.23709599099312]}},{"id":"210","type":"Feature","properties":{"name":"黄浦消防支队北京中队","pname":"上海市","cityname":"上海市","adname":"黄浦区","address":"北京西路295号(新闸路地铁站6号口步行480米)","isin_regio":"yes","wgs84_lng":"121.46387267393025","wgs84_lat":"31.237151952346874","行业大类":"政府机构及社会团体","行业子类":"政府及社会团体相关","__source_file__":"13-常用公服设施点/SHP/上海市_消防站.shp"},"geometry":{"type":"Point","coordinates":[121.46387267393025,31.237151952346874]}},{"id":"223","type":"Feature","properties":{"name":"黄浦区河南消防救援站","pname":"上海市","cityname":"上海市","adname":"黄浦区","address":"五福弄南京路步行街","isin_regio":"yes","wgs84_lng":"121.47657802380216","wgs84_lat":"31.239310693454605","行业大类":"政府机构及社会团体","行业子类":"政府机关","__source_file__":"13-常用公服设施点/SHP/上海市_消防站.shp"},"geometry":{"type":"Point","coordinates":[121.47657802380216,31.239310693454605]}},{"id":"9","type":"Feature","properties":{"name":"上海消防总队黄浦支队河南中队","pname":"上海市","cityname":"上海市","adname":"黄浦区","address":"天津路271号(南京东路地铁站1号口步行270米)","isin_regio":"yes","wgs84_lng":"121.47675562663368","wgs84_lat":"31.2393521811359","行业大类":"政府机构及社会团体","行业子类":"政府及社会团体相关","__source_file__":"13-常用公服设施点/SHP/上海市_消防站.shp"},"geometry":{"type":"Point","coordinates":[121.47675562663368,31.2393521811359]}},{"id":"280","type":"Feature","properties":{"name":"上海市静安区公安消防支队","pname":"上海市","cityname":"上海市","adname":"静安区","address":"大统路199号","isin_regio":"yes","wgs84_lng":"121.45982559518053","wgs84_lat":"31.246156573439105","行业大类":"政府机构及社会团体","行业子类":"公检法机构","__source_file__":"13-常用公服设施点/SHP/上海市_消防站.shp"},"geometry":{"type":"Point","coordinates":[121.45982559518053,31.246156573439105]}},{"id":"2","type":"Feature","properties":{"name":"上海市消防总队静安支队恒丰中队","pname":"上海市","cityname":"上海市","adname":"静安区","address":"石门二路辅路与顺德路交叉口东北20米","isin_regio":"yes","wgs84_lng":"121.45479361747397","wgs84_lat":"31.23959337195925","行业大类":"政府机构及社会团体","行业子类":"公检法机构","__source_file__":"13-常用公服设施点/SHP/上海市_消防站.shp"},"geometry":{"type":"Point","coordinates":[121.45479361747397,31.23959337195925]}},{"id":"4","type":"Feature","properties":{"name":"新建恒丰消防站","pname":"上海市","cityname":"上海市","adname":"静安区","address":"石门二路顺德路交叉口(自然博物馆地铁站3号口步行450米)","isin_regio":"yes","wgs84_lng":"121.45497010251876","wgs84_lat":"31.23970773408997","行业大类":"政府机构及社会团体","行业子类":"政府机关","__source_file__":"13-常用公服设施点/SHP/上海市_消防站.shp"},"geometry":{"type":"Point","coordinates":[121.45497010251876,31.23970773408997]}},{"id":"219","type":"Feature","properties":{"name":"静安区恒丰消防救援站","pname":"上海市","cityname":"上海市","adname":"静安区","address":"上海市消防总队静安支队恒丰中队南门旁","isin_regio":"yes","wgs84_lng":"121.45505433747797","wgs84_lat":"31.239726923385753","行业大类":"政府机构及社会团体","行业子类":"公检法机构","__source_file__":"13-常用公服设施点/SHP/上海市_消防站.shp"},"geometry":{"type":"Point","coordinates":[121.45505433747797,31.239726923385753]}},{"id":"158","type":"Feature","properties":{"name":"新会路71号地块消防安全高风险点整治办公室","pname":"上海市","cityname":"上海市","adname":"普陀区","address":"新会路与陕西北路交叉口东80米","isin_regio":"yes","wgs84_lng":"121.43890477723419","wgs84_lat":"31.244108313374014","行业大类":"政府机构及社会团体","行业子类":"政府机关","__source_file__":"13-常用公服设施点/SHP/上海市_消防站.shp"},"geometry":{"type":"Point","coordinates":[121.43890477723419,31.244108313374014]}},{"id":"208","type":"Feature","properties":{"name":"上海市消防总队普陀支队宜昌中队","pname":"上海市","cityname":"上海市","adname":"普陀区","address":"宜昌路216号","isin_regio":"yes","wgs84_lng":"121.43281418294214","wgs84_lat":"31.249141890927053","行业大类":"政府机构及社会团体","行业子类":"公检法机构","__source_file__":"13-常用公服设施点/SHP/上海市_消防站.shp"},"geometry":{"type":"Point","coordinates":[121.43281418294214,31.249141890927053]}},{"id":"289","type":"Feature","properties":{"name":"静安区中兴消防救援站","pname":"上海市","cityname":"上海市","adname":"静安区","address":"育婴堂路120号(中兴路地铁站3号口步行310米)","isin_regio":"yes","wgs84_lng":"121.46267566775921","wgs84_lat":"31.25244097496935","行业大类":"政府机构及社会团体","行业子类":"公检法机构","__source_file__":"13-常用公服设施点/SHP/上海市_消防站.shp"},"geometry":{"type":"Point","coordinates":[121.46267566775921,31.25244097496935]}},{"id":"278","type":"Feature","properties":{"name":"铁路公安局消防处","pname":"上海市","cityname":"上海市","adname":"静安区","address":"天目东路80号(宝山路地铁站1号口步行260米)","isin_regio":"yes","wgs84_lng":"121.47328372848895","wgs84_lat":"31.252878292818174","行业大类":"政府机构及社会团体","行业子类":"政府及社会团体相关","__source_file__":"13-常用公服设施点/SHP/上海市_消防站.shp"},"geometry":{"type":"Point","coordinates":[121.47328372848895,31.252878292818174]}},{"id":"279","type":"Feature","properties":{"name":"中国人民武装警察部队上海市消防总队虹口中队","pname":"上海市","cityname":"上海市","adname":"虹口区","address":"哈尔滨路2号","isin_regio":"yes","wgs84_lng":"121.48358197288505","wgs84_lat":"31.255302825107098","行业大类":"政府机构及社会团体","行业子类":"公检法机构","__source_file__":"13-常用公服设施点/SHP/上海市_消防站.shp"},"geometry":{"type":"Point","coordinates":[121.48358197288505,31.255302825107098]}},{"id":"339","type":"Feature","properties":{"name":"虹口区虹口消防救援站","pname":"上海市","cityname":"上海市","adname":"虹口区","address":"武进路与吴淞路交叉口东北20米","isin_regio":"yes","wgs84_lng":"121.48354584537788","wgs84_lat":"31.255305717658736","行业大类":"政府机构及社会团体","行业子类":"公检法机构","__source_file__":"13-常用公服设施点/SHP/上海市_消防站.shp"},"geometry":{"type":"Point","coordinates":[121.48354584537788,31.255305717658736]}},{"id":"356","type":"Feature","properties":{"name":"上海市消防总队虹口支队虹口中队","pname":"上海市","cityname":"上海市","adname":"虹口区","address":"吴淞路560号(四川北路地铁站2号口步行420米)","isin_regio":"yes","wgs84_lng":"121.4835317901682","wgs84_lat":"31.255372646871432","行业大类":"政府机构及社会团体","行业子类":"政府及社会团体相关","__source_file__":"13-常用公服设施点/SHP/上海市_消防站.shp"},"geometry":{"type":"Point","coordinates":[121.4835317901682,31.255372646871432]}},{"id":"288","type":"Feature","properties":{"name":"虹口区消防体验馆","pname":"上海市","cityname":"上海市","adname":"虹口区","address":"四川北路1800号仲益永安商厦F1层","isin_regio":"yes","wgs84_lng":"121.47939175876056","wgs84_lat":"31.262017669371875","行业大类":"政府机构及社会团体","行业子类":"公检法机构","__source_file__":"13-常用公服设施点/SHP/上海市_消防站.shp"},"geometry":{"type":"Point","coordinates":[121.47939175876056,31.262017669371875]}},{"id":"275","type":"Feature","properties":{"name":"上海市静安区公安消防支队","pname":"上海市","cityname":"上海市","adname":"静安区","address":"沪太路655弄1号","isin_regio":"yes","wgs84_lng":"121.44311453235188","wgs84_lat":"31.263213738689224","行业大类":"政府机构及社会团体","行业子类":"政府及社会团体相关","__source_file__":"13-常用公服设施点/SHP/上海市_消防站.shp"},"geometry":{"type":"Point","coordinates":[121.44311453235188,31.263213738689224]}},{"id":"271","type":"Feature","properties":{"name":"静安区消防救援支队","pname":"上海市","cityname":"上海市","adname":"静安区","address":"沪太路631弄651弄小区西南门旁","isin_regio":"yes","wgs84_lng":"121.44316565088329","wgs84_lat":"31.263220835281373","行业大类":"政府机构及社会团体","行业子类":"公检法机构","__source_file__":"13-常用公服设施点/SHP/上海市_消防站.shp"},"geometry":{"type":"Point","coordinates":[121.44316565088329,31.263220835281373]}},{"id":"94","type":"Feature","properties":{"name":"共和新街道消防联防中队","pname":"上海市","cityname":"上海市","adname":"静安区","address":"谈家桥路柳营路1025弄小区","isin_regio":"yes","wgs84_lng":"121.44689161921309","wgs84_lat":"31.263455253530633","行业大类":"政府机构及社会团体","行业子类":"公检法机构","__source_file__":"13-常用公服设施点/SHP/上海市_消防站.shp"},"geometry":{"type":"Point","coordinates":[121.44689161921309,31.263455253530633]}},{"id":"276","type":"Feature","properties":{"name":"静安区闸北消防救援站","pname":"上海市","cityname":"上海市","adname":"静安区","address":"共和新路1286号","isin_regio":"yes","wgs84_lng":"121.45504009449824","wgs84_lat":"31.265279566537615","行业大类":"政府机构及社会团体","行业子类":"政府机关","__source_file__":"13-常用公服设施点/SHP/上海市_消防站.shp"},"geometry":{"type":"Point","coordinates":[121.45504009449824,31.265279566537615]}},{"id":"230","type":"Feature","properties":{"name":"上海市消防总队静安支队闸北中队","pname":"上海市","cityname":"上海市","adname":"静安区","address":"共和新路1290号","isin_regio":"yes","wgs84_lng":"121.45495083869557","wgs84_lat":"31.2653383314396","行业大类":"政府机构及社会团体","行业子类":"公检法机构","__source_file__":"13-常用公服设施点/SHP/上海市_消防站.shp"},"geometry":{"type":"Point","coordinates":[121.45495083869557,31.2653383314396]}}],"name":"上海市_消防站","crs":{"type":"name","properties":{"name":"urn:ogc:def:crs:OGC:1.3:CRS84"}}}