{"type":"FeatureCollection","features":[{"id":"316","type":"Feature","properties":{"id":"B0FFIRUFEO","name":"上海站网络取票1-2","address":"秣陵路303号上海站1F层","type":"交通设施服务;火车站;票务相关","typecode":"150209","pcode":310000,"pname":"上海市","citycode":21,"cityname":"上海市","adcode":310106,"adname":"静安区","business_a":"[]","location":"121.455487,31.248417","tel":"[]","bigType":"交通设施服务","midType":"火车站","smallType":"票务相关","gcj_lng":121.455487,"gcj_lat":31.248417,"wgs84_loc":"121.450908,31.250306","wgs84Lng":"121.450908","wgs84Lat":"31.250306","__source_file__":"13-常用公服设施点/SHP/上海市_火车站.shp"},"geometry":{"type":"Point","coordinates":[121.450908,31.250306]}},{"id":"72","type":"Feature","properties":{"id":"B0FFF3ATIC","name":"上海站第一自助售(取)票处","address":"秣陵路303号上海站1F层","type":"交通设施服务;火车站;售票","typecode":"150205","pcode":310000,"pname":"上海市","citycode":21,"cityname":"上海市","adcode":310106,"adname":"静安区","business_a":"[]","location":"121.455416,31.248501","tel":"[]","bigType":"交通设施服务","midType":"火车站","smallType":"售票","gcj_lng":121.455416,"gcj_lat":31.248501,"wgs84_loc":"121.450837,31.250389","wgs84Lng":"121.450837","wgs84Lat":"31.250389","__source_file__":"13-常用公服设施点/SHP/上海市_火车站.shp"},"geometry":{"type":"Point","coordinates":[121.450837,31.250389]}},{"id":"75","type":"Feature","properties":{"id":"B0FFIRUFEP","name":"上海站(商务座VIP专用通道)","address":"秣陵路303号上海站1F层","type":"交通设施服务;火车站;进站口/检票口","typecode":"150202","pcode":310000,"pname":"上海市","citycode":21,"cityname":"上海市","adcode":310106,"adname":"静安区","business_a":"[]","location":"121.455265,31.248519","tel":"[]","bigType":"交通设施服务","midType":"火车站","smallType":"进站口/检票口","gcj_lng":121.455265,"gcj_lat":31.248519,"wgs84_loc":"121.450685,31.250407","wgs84Lng":"121.450685","wgs84Lat":"31.250407","__source_file__":"13-常用公服设施点/SHP/上海市_火车站.shp"},"geometry":{"type":"Point","coordinates":[121.450685,31.250407]}},{"id":"54","type":"Feature","properties":{"id":"B0FFHJRKQQ","name":"上海站VIP商务休闲服务区","address":"秣陵路303号上海站1F层","type":"交通设施服务;火车站;候车室","typecode":"150201","pcode":310000,"pname":"上海市","citycode":21,"cityname":"上海市","adcode":310106,"adname":"静安区","business_a":"[]","location":"121.455615,31.248558","tel":"[]","bigType":"交通设施服务","midType":"火车站","smallType":"候车室","gcj_lng":121.455615,"gcj_lat":31.248558,"wgs84_loc":"121.451036,31.250447","wgs84Lng":"121.451036","wgs84Lat":"31.250447","__source_file__":"13-常用公服设施点/SHP/上海市_火车站.shp"},"geometry":{"type":"Point","coordinates":[121.451036,31.250447]}},{"id":"73","type":"Feature","properties":{"id":"B0FFFDDBA4","name":"上海站(南进站口)","address":"秣陵路303号上海站1F层","type":"交通设施服务;火车站;进站口/检票口","typecode":"150202","pcode":310000,"pname":"上海市","citycode":21,"cityname":"上海市","adcode":310106,"adname":"静安区","business_a":"[]","location":"121.454979,31.248568","tel":"[]","bigType":"交通设施服务","midType":"火车站","smallType":"进站口/检票口","gcj_lng":121.454979,"gcj_lat":31.248568,"wgs84_loc":"121.450399,31.250455","wgs84Lng":"121.450399","wgs84Lat":"31.250455","__source_file__":"13-常用公服设施点/SHP/上海市_火车站.shp"},"geometry":{"type":"Point","coordinates":[121.450399,31.250455]}},{"id":"42","type":"Feature","properties":{"id":"B0FFIIT8VZ","name":"上海站重点旅客候车室&商务休闲服务区","address":"秣陵路303号上海站1F层","type":"交通设施服务;火车站;候车室","typecode":"150201","pcode":310000,"pname":"上海市","citycode":21,"cityname":"上海市","adcode":310106,"adname":"静安区","business_a":"[]","location":"121.455711,31.248671","tel":"[]","bigType":"交通设施服务","midType":"火车站","smallType":"候车室","gcj_lng":121.455711,"gcj_lat":31.248671,"wgs84_loc":"121.451133,31.25056","wgs84Lng":"121.451133","wgs84Lat":"31.25056","__source_file__":"13-常用公服设施点/SHP/上海市_火车站.shp"},"geometry":{"type":"Point","coordinates":[121.451133,31.25056]}},{"id":"21","type":"Feature","properties":{"id":"B0FFH917QH","name":"上海站4候车室","address":"秣陵路303号上海站2F层","type":"交通设施服务;火车站;候车室","typecode":"150201","pcode":310000,"pname":"上海市","citycode":21,"cityname":"上海市","adcode":310106,"adname":"静安区","business_a":"[]","location":"121.455653,31.248736","tel":"[]","bigType":"交通设施服务","midType":"火车站","smallType":"候车室","gcj_lng":121.455653,"gcj_lat":31.248736,"wgs84_loc":"121.451075,31.250625","wgs84Lng":"121.451075","wgs84Lat":"31.250625","__source_file__":"13-常用公服设施点/SHP/上海市_火车站.shp"},"geometry":{"type":"Point","coordinates":[121.451075,31.250625]}},{"id":"15","type":"Feature","properties":{"id":"B0FFIIT8X3","name":"上海站4候车室&商务座候车区","address":"秣陵路303号上海站2F层","type":"交通设施服务;火车站;候车室","typecode":"150201","pcode":310000,"pname":"上海市","citycode":21,"cityname":"上海市","adcode":310106,"adname":"静安区","business_a":"[]","location":"121.455644,31.248746","tel":"[]","bigType":"交通设施服务","midType":"火车站","smallType":"候车室","gcj_lng":121.455644,"gcj_lat":31.248746,"wgs84_loc":"121.451065,31.250635","wgs84Lng":"121.451065","wgs84Lat":"31.250635","__source_file__":"13-常用公服设施点/SHP/上海市_火车站.shp"},"geometry":{"type":"Point","coordinates":[121.451065,31.250635]}},{"id":"18","type":"Feature","properties":{"id":"B0FFHJRKRK","name":"上海站1候车室","address":"秣陵路303号上海站2F层","type":"交通设施服务;火车站;候车室","typecode":"150201","pcode":310000,"pname":"上海市","citycode":21,"cityname":"上海市","adcode":310106,"adname":"静安区","business_a":"[]","location":"121.454898,31.248910","tel":"[]","bigType":"交通设施服务","midType":"火车站","smallType":"候车室","gcj_lng":121.454898,"gcj_lat":31.24891,"wgs84_loc":"121.450317,31.250797","wgs84Lng":"121.450317","wgs84Lat":"31.250797","__source_file__":"13-常用公服设施点/SHP/上海市_火车站.shp"},"geometry":{"type":"Point","coordinates":[121.450317,31.250797]}},{"id":"23","type":"Feature","properties":{"id":"B0FFGF9D91","name":"上海站3候车室","address":"秣陵路303号上海站2F层","type":"交通设施服务;火车站;候车室","typecode":"150201","pcode":310000,"pname":"上海市","citycode":21,"cityname":"上海市","adcode":310106,"adname":"静安区","business_a":"[]","location":"121.454834,31.249115","tel":"[]","bigType":"交通设施服务","midType":"火车站","smallType":"候车室","gcj_lng":121.454834,"gcj_lat":31.249115,"wgs84_loc":"121.450253,31.251002","wgs84Lng":"121.450253","wgs84Lat":"31.251002","__source_file__":"13-常用公服设施点/SHP/上海市_火车站.shp"},"geometry":{"type":"Point","coordinates":[121.450253,31.251002]}},{"id":"71","type":"Feature","properties":{"id":"B0FFF3ATI9","name":"上海站第二自助售票处","address":"秣陵路303号上海站1F层","type":"交通设施服务;火车站;售票","typecode":"150205","pcode":310000,"pname":"上海市","citycode":21,"cityname":"上海市","adcode":310106,"adname":"静安区","business_a":"[]","location":"121.456055,31.248277","tel":"[]","bigType":"交通设施服务","midType":"火车站","smallType":"售票","gcj_lng":121.456055,"gcj_lat":31.248277,"wgs84_loc":"121.451478,31.250167","wgs84Lng":"121.451478","wgs84Lat":"31.250167","__source_file__":"13-常用公服设施点/SHP/上海市_火车站.shp"},"geometry":{"type":"Point","coordinates":[121.451478,31.250167]}},{"id":"76","type":"Feature","properties":{"id":"B0FFFDDBA8","name":"上海站(南出站口)","address":"秣陵路303号上海站1F层","type":"交通设施服务;火车站;出站口","typecode":"150203","pcode":310000,"pname":"上海市","citycode":21,"cityname":"上海市","adcode":310106,"adname":"静安区","business_a":"[]","location":"121.45662,31.248368","tel":"[]","bigType":"交通设施服务","midType":"火车站","smallType":"出站口","gcj_lng":121.45662,"gcj_lat":31.248368,"wgs84_loc":"121.452044,31.250259","wgs84Lng":"121.452044","wgs84Lat":"31.250259","__source_file__":"13-常用公服设施点/SHP/上海市_火车站.shp"},"geometry":{"type":"Point","coordinates":[121.452044,31.250259]}},{"id":"19","type":"Feature","properties":{"id":"B0FFFSVFK8","name":"上海站6候车室","address":"秣陵路303号上海站2F层","type":"交通设施服务;火车站;候车室","typecode":"150201","pcode":310000,"pname":"上海市","citycode":21,"cityname":"上海市","adcode":310106,"adname":"静安区","business_a":"[]","location":"121.456011,31.249380","tel":"[]","bigType":"交通设施服务","midType":"火车站","smallType":"候车室","gcj_lng":121.456011,"gcj_lat":31.24938,"wgs84_loc":"121.451433,31.251269","wgs84Lng":"121.451433","wgs84Lat":"31.251269","__source_file__":"13-常用公服设施点/SHP/上海市_火车站.shp"},"geometry":{"type":"Point","coordinates":[121.451433,31.251269]}},{"id":"17","type":"Feature","properties":{"id":"B0FFFSW9HM","name":"上海站8候车室","address":"秣陵路303号上海站2F层","type":"交通设施服务;火车站;候车室","typecode":"150201","pcode":310000,"pname":"上海市","citycode":21,"cityname":"上海市","adcode":310106,"adname":"静安区","business_a":"[]","location":"121.456125,31.249642","tel":"[]","bigType":"交通设施服务","midType":"火车站","smallType":"候车室","gcj_lng":121.456125,"gcj_lat":31.249642,"wgs84_loc":"121.451548,31.251532","wgs84Lng":"121.451548","wgs84Lat":"31.251532","__source_file__":"13-常用公服设施点/SHP/上海市_火车站.shp"},"geometry":{"type":"Point","coordinates":[121.451548,31.251532]}},{"id":"26","type":"Feature","properties":{"id":"B0FFHJRKRQ","name":"上海站军人候车室","address":"秣陵路303号上海站2F层","type":"交通设施服务;火车站;候车室","typecode":"150201","pcode":310000,"pname":"上海市","citycode":21,"cityname":"上海市","adcode":310106,"adname":"静安区","business_a":"[]","location":"121.456271,31.249739","tel":"[]","bigType":"交通设施服务","midType":"火车站","smallType":"候车室","gcj_lng":121.456271,"gcj_lat":31.249739,"wgs84_loc":"121.451694,31.251629","wgs84Lng":"121.451694","wgs84Lat":"31.251629","__source_file__":"13-常用公服设施点/SHP/上海市_火车站.shp"},"geometry":{"type":"Point","coordinates":[121.451694,31.251629]}},{"id":"20","type":"Feature","properties":{"id":"B0FFFSVI4A","name":"上海站10候车室","address":"秣陵路303号上海站2F层","type":"交通设施服务;火车站;候车室","typecode":"150201","pcode":310000,"pname":"上海市","citycode":21,"cityname":"上海市","adcode":310106,"adname":"静安区","business_a":"[]","location":"121.456259,31.249908","tel":"[]","bigType":"交通设施服务","midType":"火车站","smallType":"候车室","gcj_lng":121.456259,"gcj_lat":31.249908,"wgs84_loc":"121.451682,31.251798","wgs84Lng":"121.451682","wgs84Lat":"31.251798","__source_file__":"13-常用公服设施点/SHP/上海市_火车站.shp"},"geometry":{"type":"Point","coordinates":[121.451682,31.251798]}},{"id":"63","type":"Feature","properties":{"id":"B0FFG56WLW","name":"上海站8-9站台","address":"秣陵路303号上海站1F层","type":"交通设施服务;火车站;站台","typecode":"150204","pcode":310000,"pname":"上海市","citycode":21,"cityname":"上海市","adcode":310106,"adname":"静安区","business_a":"[]","location":"121.455735,31.249912","tel":"[]","bigType":"交通设施服务","midType":"火车站","smallType":"站台","gcj_lng":121.455735,"gcj_lat":31.249912,"wgs84_loc":"121.451157,31.251801","wgs84Lng":"121.451157","wgs84Lat":"31.251801","__source_file__":"13-常用公服设施点/SHP/上海市_火车站.shp"},"geometry":{"type":"Point","coordinates":[121.451157,31.251801]}},{"id":"61","type":"Feature","properties":{"id":"B0FFG56WLQ","name":"上海站10-11站台","address":"秣陵路303号上海站1F层","type":"交通设施服务;火车站;站台","typecode":"150204","pcode":310000,"pname":"上海市","citycode":21,"cityname":"上海市","adcode":310106,"adname":"静安区","business_a":"[]","location":"121.455819,31.250070","tel":"[]","bigType":"交通设施服务","midType":"火车站","smallType":"站台","gcj_lng":121.455819,"gcj_lat":31.25007,"wgs84_loc":"121.451241,31.251959","wgs84Lng":"121.451241","wgs84Lat":"31.251959","__source_file__":"13-常用公服设施点/SHP/上海市_火车站.shp"},"geometry":{"type":"Point","coordinates":[121.451241,31.251959]}},{"id":"66","type":"Feature","properties":{"id":"B0FFG56WLR","name":"上海站12-13站台","address":"秣陵路303号上海站1F层","type":"交通设施服务;火车站;站台","typecode":"150204","pcode":310000,"pname":"上海市","citycode":21,"cityname":"上海市","adcode":310106,"adname":"静安区","business_a":"[]","location":"121.455910,31.250235","tel":"[]","bigType":"交通设施服务","midType":"火车站","smallType":"站台","gcj_lng":121.45591,"gcj_lat":31.250235,"wgs84_loc":"121.451332,31.252124","wgs84Lng":"121.451332","wgs84Lat":"31.252124","__source_file__":"13-常用公服设施点/SHP/上海市_火车站.shp"},"geometry":{"type":"Point","coordinates":[121.451332,31.252124]}},{"id":"68","type":"Feature","properties":{"id":"B0FFHJRKRS","name":"上海站(检票口1-4)","address":"秣陵路303号上海站2F层","type":"交通设施服务;火车站;进站口/检票口","typecode":"150202","pcode":310000,"pname":"上海市","citycode":21,"cityname":"上海市","adcode":310106,"adname":"静安区","business_a":"[]","location":"121.456793,31.250449","tel":"[]","bigType":"交通设施服务","midType":"火车站","smallType":"进站口/检票口","gcj_lng":121.456793,"gcj_lat":31.250449,"wgs84_loc":"121.452217,31.25234","wgs84Lng":"121.452217","wgs84Lat":"31.25234","__source_file__":"13-常用公服设施点/SHP/上海市_火车站.shp"},"geometry":{"type":"Point","coordinates":[121.452217,31.25234]}},{"id":"70","type":"Feature","properties":{"id":"B0FFGR17WN","name":"上海站(西南出站口)","address":"秣陵路303号上海站1层","type":"交通设施服务;火车站;出站口","typecode":"150203","pcode":310000,"pname":"上海市","citycode":21,"cityname":"上海市","adcode":310106,"adname":"静安区","business_a":"[]","location":"121.453868,31.249144","tel":"[]","bigType":"交通设施服务","midType":"火车站","smallType":"出站口","gcj_lng":121.453868,"gcj_lat":31.249144,"wgs84_loc":"121.449285,31.251029","wgs84Lng":"121.449285","wgs84Lat":"31.251029","__source_file__":"13-常用公服设施点/SHP/上海市_火车站.shp"},"geometry":{"type":"Point","coordinates":[121.449285,31.251029]}},{"id":"62","type":"Feature","properties":{"id":"B0FFG56WLT","name":"上海站2-3站台","address":"秣陵路303号上海站1F层","type":"交通设施服务;火车站;站台","typecode":"150204","pcode":310000,"pname":"上海市","citycode":21,"cityname":"上海市","adcode":310106,"adname":"静安区","business_a":"[]","location":"121.455492,31.249416","tel":"[]","bigType":"交通设施服务","midType":"火车站","smallType":"站台","gcj_lng":121.455492,"gcj_lat":31.249416,"wgs84_loc":"121.450913,31.251304","wgs84Lng":"121.450913","wgs84Lat":"31.251304","__source_file__":"13-常用公服设施点/SHP/上海市_火车站.shp"},"geometry":{"type":"Point","coordinates":[121.450913,31.251304]}},{"id":"12","type":"Feature","properties":{"id":"B00155KSDE","name":"上海站","address":"天目西路街道秣陵路303号","type":"交通设施服务;火车站;火车站","typecode":"150200","pcode":310000,"pname":"上海市","citycode":21,"cityname":"上海市","adcode":310106,"adname":"静安区","business_a":"不夜城","location":"121.455708,31.249574","tel":"[]","bigType":"交通设施服务","midType":"火车站","smallType":"火车站","gcj_lng":121.455708,"gcj_lat":31.249574,"wgs84_loc":"121.45113,31.251463","wgs84Lng":"121.45113","wgs84Lat":"31.251463","__source_file__":"13-常用公服设施点/SHP/上海市_火车站.shp"},"geometry":{"type":"Point","coordinates":[121.45113,31.251463]}},{"id":"65","type":"Feature","properties":{"id":"B0FFG56WLU","name":"上海站4-5站台","address":"秣陵路303号上海站1F层","type":"交通设施服务;火车站;站台","typecode":"150204","pcode":310000,"pname":"上海市","citycode":21,"cityname":"上海市","adcode":310106,"adname":"静安区","business_a":"[]","location":"121.455561,31.249584","tel":"[]","bigType":"交通设施服务","midType":"火车站","smallType":"站台","gcj_lng":121.455561,"gcj_lat":31.249584,"wgs84_loc":"121.450982,31.251472","wgs84Lng":"121.450982","wgs84Lat":"31.251472","__source_file__":"13-常用公服设施点/SHP/上海市_火车站.shp"},"geometry":{"type":"Point","coordinates":[121.450982,31.251472]}},{"id":"14","type":"Feature","properties":{"id":"B0FFFSV0SP","name":"上海站5候车室","address":"秣陵路303号上海站2F层","type":"交通设施服务;火车站;候车室","typecode":"150201","pcode":310000,"pname":"上海市","citycode":21,"cityname":"上海市","adcode":310106,"adname":"静安区","business_a":"[]","location":"121.455166,31.249703","tel":"[]","bigType":"交通设施服务","midType":"火车站","smallType":"候车室","gcj_lng":121.455166,"gcj_lat":31.249703,"wgs84_loc":"121.450586,31.25159","wgs84Lng":"121.450586","wgs84Lat":"31.25159","__source_file__":"13-常用公服设施点/SHP/上海市_火车站.shp"},"geometry":{"type":"Point","coordinates":[121.450586,31.25159]}},{"id":"64","type":"Feature","properties":{"id":"B0FFG56WLV","name":"上海站6-7站台","address":"秣陵路303号上海站1F层","type":"交通设施服务;火车站;站台","typecode":"150204","pcode":310000,"pname":"上海市","citycode":21,"cityname":"上海市","adcode":310106,"adname":"静安区","business_a":"[]","location":"121.455646,31.249746","tel":"[]","bigType":"交通设施服务","midType":"火车站","smallType":"站台","gcj_lng":121.455646,"gcj_lat":31.249746,"wgs84_loc":"121.451067,31.251634","wgs84Lng":"121.451067","wgs84Lat":"31.251634","__source_file__":"13-常用公服设施点/SHP/上海市_火车站.shp"},"geometry":{"type":"Point","coordinates":[121.451067,31.251634]}},{"id":"69","type":"Feature","properties":{"id":"B0FFHJRKRF","name":"上海站(2检票口)","address":"秣陵路303号上海站2F层","type":"交通设施服务;火车站;进站口/检票口","typecode":"150202","pcode":310000,"pname":"上海市","citycode":21,"cityname":"上海市","adcode":310106,"adname":"静安区","business_a":"[]","location":"121.455084,31.249777","tel":"[]","bigType":"交通设施服务","midType":"火车站","smallType":"进站口/检票口","gcj_lng":121.455084,"gcj_lat":31.249777,"wgs84_loc":"121.450504,31.251664","wgs84Lng":"121.450504","wgs84Lat":"31.251664","__source_file__":"13-常用公服设施点/SHP/上海市_火车站.shp"},"geometry":{"type":"Point","coordinates":[121.450504,31.251664]}},{"id":"25","type":"Feature","properties":{"id":"B0FFFSX9SY","name":"上海站7候车室","address":"秣陵路303号上海站2F层","type":"交通设施服务;火车站;候车室","typecode":"150201","pcode":310000,"pname":"上海市","citycode":21,"cityname":"上海市","adcode":310106,"adname":"静安区","business_a":"[]","location":"121.455292,31.249967","tel":"[]","bigType":"交通设施服务","midType":"火车站","smallType":"候车室","gcj_lng":121.455292,"gcj_lat":31.249967,"wgs84_loc":"121.450712,31.251855","wgs84Lng":"121.450712","wgs84Lat":"31.251855","__source_file__":"13-常用公服设施点/SHP/上海市_火车站.shp"},"geometry":{"type":"Point","coordinates":[121.450712,31.251855]}},{"id":"22","type":"Feature","properties":{"id":"B0FFGPMN4I","name":"上海站9候车室","address":"秣陵路303号上海站2F层","type":"交通设施服务;火车站;候车室","typecode":"150201","pcode":310000,"pname":"上海市","citycode":21,"cityname":"上海市","adcode":310106,"adname":"静安区","business_a":"[]","location":"121.455466,31.250240","tel":"[]","bigType":"交通设施服务","midType":"火车站","smallType":"候车室","gcj_lng":121.455466,"gcj_lat":31.25024,"wgs84_loc":"121.450887,31.252128","wgs84Lng":"121.450887","wgs84Lat":"31.252128","__source_file__":"13-常用公服设施点/SHP/上海市_火车站.shp"},"geometry":{"type":"Point","coordinates":[121.450887,31.252128]}},{"id":"16","type":"Feature","properties":{"id":"B0FFFSWGMU","name":"上海站11候车室","address":"秣陵路303号上海站2F层","type":"交通设施服务;火车站;候车室","typecode":"150201","pcode":310000,"pname":"上海市","citycode":21,"cityname":"上海市","adcode":310106,"adname":"静安区","business_a":"[]","location":"121.455643,31.250950","tel":"[]","bigType":"交通设施服务","midType":"火车站","smallType":"候车室","gcj_lng":121.455643,"gcj_lat":31.25095,"wgs84_loc":"121.451064,31.252838","wgs84Lng":"121.451064","wgs84Lat":"31.252838","__source_file__":"13-常用公服设施点/SHP/上海市_火车站.shp"},"geometry":{"type":"Point","coordinates":[121.451064,31.252838]}},{"id":"83","type":"Feature","properties":{"id":"B0FFIIT8W0","name":"上海站始发改签兼挂失补32 33","address":"秣陵路303号上海站1F层","type":"交通设施服务;火车站;票务相关","typecode":"150209","pcode":310000,"pname":"上海市","citycode":21,"cityname":"上海市","adcode":310106,"adname":"静安区","business_a":"[]","location":"121.456927,31.250502","tel":"[]","bigType":"交通设施服务","midType":"火车站","smallType":"票务相关","gcj_lng":121.456927,"gcj_lat":31.250502,"wgs84_loc":"121.452352,31.252393","wgs84Lng":"121.452352","wgs84Lat":"31.252393","__source_file__":"13-常用公服设施点/SHP/上海市_火车站.shp"},"geometry":{"type":"Point","coordinates":[121.452352,31.252393]}},{"id":"81","type":"Feature","properties":{"id":"B0FFH917QI","name":"上海站始发改签兼挂失补32","address":"秣陵路303号上海站1F层","type":"交通设施服务;火车站;票务相关","typecode":"150209","pcode":310000,"pname":"上海市","citycode":21,"cityname":"上海市","adcode":310106,"adname":"静安区","business_a":"[]","location":"121.456927,31.250503","tel":"[]","bigType":"交通设施服务","midType":"火车站","smallType":"票务相关","gcj_lng":121.456927,"gcj_lat":31.250503,"wgs84_loc":"121.452352,31.252394","wgs84Lng":"121.452352","wgs84Lat":"31.252394","__source_file__":"13-常用公服设施点/SHP/上海市_火车站.shp"},"geometry":{"type":"Point","coordinates":[121.452352,31.252394]}},{"id":"24","type":"Feature","properties":{"id":"B0FFFTYX9S","name":"上海站12候车室","address":"秣陵路303号上海站2F层","type":"交通设施服务;火车站;候车室","typecode":"150201","pcode":310000,"pname":"上海市","citycode":21,"cityname":"上海市","adcode":310106,"adname":"静安区","business_a":"[]","location":"121.456609,31.250546","tel":"[]","bigType":"交通设施服务","midType":"火车站","smallType":"候车室","gcj_lng":121.456609,"gcj_lat":31.250546,"wgs84_loc":"121.452033,31.252436","wgs84Lng":"121.452033","wgs84Lat":"31.252436","__source_file__":"13-常用公服设施点/SHP/上海市_火车站.shp"},"geometry":{"type":"Point","coordinates":[121.452033,31.252436]}},{"id":"237","type":"Feature","properties":{"id":"B0FFIIT8VX","name":"上海站售票窗口34-41","address":"秣陵路303号上海站1F层","type":"交通设施服务;火车站;售票","typecode":"150205","pcode":310000,"pname":"上海市","citycode":21,"cityname":"上海市","adcode":310106,"adname":"静安区","business_a":"[]","location":"121.456798,31.250554","tel":"[]","bigType":"交通设施服务","midType":"火车站","smallType":"售票","gcj_lng":121.456798,"gcj_lat":31.250554,"wgs84_loc":"121.452222,31.252445","wgs84Lng":"121.452222","wgs84Lat":"31.252445","__source_file__":"13-常用公服设施点/SHP/上海市_火车站.shp"},"geometry":{"type":"Point","coordinates":[121.452222,31.252445]}},{"id":"238","type":"Feature","properties":{"id":"B0FFH917PX","name":"上海站售票窗口33-42","address":"秣陵路303号上海站1F层","type":"交通设施服务;火车站;售票","typecode":"150205","pcode":310000,"pname":"上海市","citycode":21,"cityname":"上海市","adcode":310106,"adname":"静安区","business_a":"[]","location":"121.456781,31.250561","tel":"[]","bigType":"交通设施服务","midType":"火车站","smallType":"售票","gcj_lng":121.456781,"gcj_lat":31.250561,"wgs84_loc":"121.452205,31.252452","wgs84Lng":"121.452205","wgs84Lat":"31.252452","__source_file__":"13-常用公服设施点/SHP/上海市_火车站.shp"},"geometry":{"type":"Point","coordinates":[121.452205,31.252452]}},{"id":"239","type":"Feature","properties":{"id":"B0FFIRUFEN","name":"上海站退票兼网络取票42","address":"秣陵路303号上海站1F层","type":"交通设施服务;火车站;票务相关","typecode":"150209","pcode":310000,"pname":"上海市","citycode":21,"cityname":"上海市","adcode":310106,"adname":"静安区","business_a":"[]","location":"121.456674,31.250607","tel":"[]","bigType":"交通设施服务","midType":"火车站","smallType":"票务相关","gcj_lng":121.456674,"gcj_lat":31.250607,"wgs84_loc":"121.452098,31.252497","wgs84Lng":"121.452098","wgs84Lat":"31.252497","__source_file__":"13-常用公服设施点/SHP/上海市_火车站.shp"},"geometry":{"type":"Point","coordinates":[121.452098,31.252497]}},{"id":"236","type":"Feature","properties":{"id":"B0FFIRUFEQ","name":"上海站北广场铁路售票大厅","address":"秣陵路303号上海站1F层","type":"交通设施服务;火车站;售票","typecode":"150205","pcode":310000,"pname":"上海市","citycode":21,"cityname":"上海市","adcode":310106,"adname":"静安区","business_a":"[]","location":"121.456856,31.250681","tel":"[]","bigType":"交通设施服务","midType":"火车站","smallType":"售票","gcj_lng":121.456856,"gcj_lat":31.250681,"wgs84_loc":"121.452281,31.252572","wgs84Lng":"121.452281","wgs84Lat":"31.252572","__source_file__":"13-常用公服设施点/SHP/上海市_火车站.shp"},"geometry":{"type":"Point","coordinates":[121.452281,31.252572]}},{"id":"74","type":"Feature","properties":{"id":"B0FFF00G7N","name":"上海站(北进站口)","address":"秣陵路303号上海站1F层","type":"交通设施服务;火车站;进站口/检票口","typecode":"150202","pcode":310000,"pname":"上海市","citycode":21,"cityname":"上海市","adcode":310106,"adname":"静安区","business_a":"[]","location":"121.456307,31.250905","tel":"[]","bigType":"交通设施服务","midType":"火车站","smallType":"进站口/检票口","gcj_lng":121.456307,"gcj_lat":31.250905,"wgs84_loc":"121.45173,31.252794","wgs84Lng":"121.45173","wgs84Lat":"31.252794","__source_file__":"13-常用公服设施点/SHP/上海市_火车站.shp"},"geometry":{"type":"Point","coordinates":[121.45173,31.252794]}},{"id":"77","type":"Feature","properties":{"id":"B0H22AI35W","name":"上海站(北出站口)","address":"[]","type":"交通设施服务;火车站;出站口","typecode":"150203","pcode":310000,"pname":"上海市","citycode":21,"cityname":"上海市","adcode":310106,"adname":"静安区","business_a":"和田","location":"121.456000,31.251063","tel":"[]","bigType":"交通设施服务","midType":"火车站","smallType":"出站口","gcj_lng":121.456,"gcj_lat":31.251063,"wgs84_loc":"121.451422,31.252952","wgs84Lng":"121.451422","wgs84Lat":"31.252952","__source_file__":"13-常用公服设施点/SHP/上海市_火车站.shp"},"geometry":{"type":"Point","coordinates":[121.451422,31.252952]}}],"name":"上海市_火车站","crs":{"type":"name","properties":{"name":"urn:ogc:def:crs:OGC:1.3:CRS84"}}}