{"type":"FeatureCollection","features":[{"id":"43","type":"Feature","properties":{"id":"B0FFGFBAVP","name":"上海供水(昌平路营业厅)(装修中)","address":"昌平路1035号","type":"生活服务;自来水营业厅;自来水营业厅","typecode":"070900","pcode":310000,"pname":"上海市","citycode":21,"cityname":"上海市","adcode":310106,"adname":"静安区","business_a":"曹家渡","location":"121.435086,31.231117","tel":"[]","bigType":"生活服务","midType":"自来水营业厅","smallType":"自来水营业厅","gcj_lng":121.435086,"gcj_lat":31.231117,"wgs84_loc":"121.430463,31.232976","wgs84Lng":"121.430463","wgs84Lat":"31.232976","__source_file__":"13-常用公服设施点/SHP/上海市_自来水营业厅.shp"},"geometry":{"type":"Point","coordinates":[121.430463,31.232976]}},{"id":"42","type":"Feature","properties":{"id":"B0HD3YNQ4U","name":"城投水务(集团)有限公司昌平路营业厅","address":"康定路与万春街交叉口西北80米","type":"生活服务;自来水营业厅;自来水营业厅","typecode":"070900","pcode":310000,"pname":"上海市","citycode":21,"cityname":"上海市","adcode":310106,"adname":"静安区","business_a":"曹家渡","location":"121.435237,31.231123","tel":"[]","bigType":"生活服务","midType":"自来水营业厅","smallType":"自来水营业厅","gcj_lng":121.435237,"gcj_lat":31.231123,"wgs84_loc":"121.430615,31.232982","wgs84Lng":"121.430615","wgs84Lat":"31.232982","__source_file__":"13-常用公服设施点/SHP/上海市_自来水营业厅.shp"},"geometry":{"type":"Point","coordinates":[121.430615,31.232982]}}],"name":"上海市_自来水营业厅","crs":{"type":"name","properties":{"name":"urn:ogc:def:crs:OGC:1.3:CRS84"}}}