{"type":"FeatureCollection","features":[{"id":"280","type":"Feature","properties":{"id":"B00155E92C","name":"上海市公安局黄浦分局交通警察支队","address":"大沽路123号黄浦政法大楼","type":"政府机构及社会团体;交通车辆管理;交通管理机构","typecode":"130601","pcode":310000,"pname":"上海市","citycode":21,"cityname":"上海市","adcode":310101,"adname":"黄浦区","business_a":"北京东路","location":"121.472092,31.226505","tel":"021-63280123","bigType":"政府机构及社会团体","midType":"交通车辆管理","smallType":"交通管理机构","gcj_lng":121.472092,"gcj_lat":31.226505,"wgs84_loc":"121.467564,31.228445","wgs84Lng":"121.467564","wgs84Lat":"31.228445","__source_file__":"13-常用公服设施点/SHP/上海市_交通车辆管理.shp"},"geometry":{"type":"Point","coordinates":[121.467564,31.228445]}},{"id":"284","type":"Feature","properties":{"id":"B0FFHGVZKX","name":"上海市公安局水上公安局交通警察大队","address":"中山东二路85号附近","type":"政府机构及社会团体;交通车辆管理;交通管理机构","typecode":"130601","pcode":310000,"pname":"上海市","citycode":21,"cityname":"上海市","adcode":310101,"adname":"黄浦区","business_a":"北京东路","location":"121.491614,31.232464","tel":"[]","bigType":"政府机构及社会团体","midType":"交通车辆管理","smallType":"交通管理机构","gcj_lng":121.491614,"gcj_lat":31.232464,"wgs84_loc":"121.487152,31.234457","wgs84Lng":"121.487152","wgs84Lat":"31.234457","__source_file__":"13-常用公服设施点/SHP/上海市_交通车辆管理.shp"},"geometry":{"type":"Point","coordinates":[121.487152,31.234457]}},{"id":"318","type":"Feature","properties":{"id":"B0FFF00GMW","name":"上海铁路局车辆检测所","address":"天目中路465号甲","type":"政府机构及社会团体;交通车辆管理;验车场","typecode":"130603","pcode":310000,"pname":"上海市","citycode":21,"cityname":"上海市","adcode":310106,"adname":"静安区","business_a":"宝山路","location":"121.466104,31.244802","tel":"[]","bigType":"政府机构及社会团体","midType":"交通车辆管理","smallType":"验车场","gcj_lng":121.466104,"gcj_lat":31.244802,"wgs84_loc":"121.461556,31.246718","wgs84Lng":"121.461556","wgs84Lat":"31.246718","__source_file__":"13-常用公服设施点/SHP/上海市_交通车辆管理.shp"},"geometry":{"type":"Point","coordinates":[121.461556,31.246718]}},{"id":"618","type":"Feature","properties":{"id":"B0IBUHDVQX","name":"上海市交通委员会执法总队十二大队","address":"[]","type":"政府机构及社会团体;交通车辆管理;交通执法站","typecode":"130604","pcode":310000,"pname":"上海市","citycode":21,"cityname":"上海市","adcode":310109,"adname":"虹口区","business_a":"北外滩","location":"121.489724,31.245535","tel":"[]","bigType":"政府机构及社会团体","midType":"交通车辆管理","smallType":"交通执法站","gcj_lng":121.489724,"gcj_lat":31.245535,"wgs84_loc":"121.485255,31.247516","wgs84Lng":"121.485255","wgs84Lat":"31.247516","__source_file__":"13-常用公服设施点/SHP/上海市_交通车辆管理.shp"},"geometry":{"type":"Point","coordinates":[121.485255,31.247516]}},{"id":"59","type":"Feature","properties":{"id":"B00156YNSQ","name":"虹口公安分局交通警察支队一大队","address":"峨嵋路77号","type":"政府机构及社会团体;交通车辆管理;交通管理机构","typecode":"130601","pcode":310000,"pname":"上海市","citycode":21,"cityname":"上海市","adcode":310109,"adname":"虹口区","business_a":"北外滩","location":"121.490702,31.247100","tel":"021-63242200","bigType":"政府机构及社会团体","midType":"交通车辆管理","smallType":"交通管理机构","gcj_lng":121.490702,"gcj_lat":31.2471,"wgs84_loc":"121.486236,31.249083","wgs84Lng":"121.486236","wgs84Lat":"31.249083","__source_file__":"13-常用公服设施点/SHP/上海市_交通车辆管理.shp"},"geometry":{"type":"Point","coordinates":[121.486236,31.249083]}},{"id":"58","type":"Feature","properties":{"id":"B0FFJ2HKWP","name":"虹口公安分局交通警察支队一中队","address":"峨嵋路77号","type":"政府机构及社会团体;交通车辆管理;交通管理机构","typecode":"130601","pcode":310000,"pname":"上海市","citycode":21,"cityname":"上海市","adcode":310109,"adname":"虹口区","business_a":"提篮桥","location":"121.490511,31.247173","tel":"021-23031717","bigType":"政府机构及社会团体","midType":"交通车辆管理","smallType":"交通管理机构","gcj_lng":121.490511,"gcj_lat":31.247173,"wgs84_loc":"121.486044,31.249156","wgs84Lng":"121.486044","wgs84Lat":"31.249156","__source_file__":"13-常用公服设施点/SHP/上海市_交通车辆管理.shp"},"geometry":{"type":"Point","coordinates":[121.486044,31.249156]}},{"id":"608","type":"Feature","properties":{"id":"B0FFL7ZFOB","name":"上海市交通委员会执法总队一支队","address":"溧阳路扬子江大厦西北侧约30米","type":"政府机构及社会团体;交通车辆管理;交通管理机构","typecode":"130601","pcode":310000,"pname":"上海市","citycode":21,"cityname":"上海市","adcode":310109,"adname":"虹口区","business_a":"提篮桥","location":"121.493436,31.248910","tel":"[]","bigType":"政府机构及社会团体","midType":"交通车辆管理","smallType":"交通管理机构","gcj_lng":121.493436,"gcj_lat":31.24891,"wgs84_loc":"121.48898,31.250901","wgs84Lng":"121.48898","wgs84Lat":"31.250901","__source_file__":"13-常用公服设施点/SHP/上海市_交通车辆管理.shp"},"geometry":{"type":"Point","coordinates":[121.48898,31.250901]}},{"id":"310","type":"Feature","properties":{"id":"B0FFG7D56A","name":"上海市交通委员会执法总队第五支队","address":"延平路340弄3锦安商务楼3层","type":"政府机构及社会团体;交通车辆管理;交通管理机构","typecode":"130601","pcode":310000,"pname":"上海市","citycode":21,"cityname":"上海市","adcode":310106,"adname":"静安区","business_a":"曹家渡","location":"121.438850,31.232189","tel":"[]","bigType":"政府机构及社会团体","midType":"交通车辆管理","smallType":"交通管理机构","gcj_lng":121.43885,"gcj_lat":31.232189,"wgs84_loc":"121.434234,31.234053","wgs84Lng":"121.434234","wgs84Lat":"31.234053","__source_file__":"13-常用公服设施点/SHP/上海市_交通车辆管理.shp"},"geometry":{"type":"Point","coordinates":[121.434234,31.234053]}},{"id":"307","type":"Feature","properties":{"id":"B0FFFE1UF2","name":"上海静安区交通协管服务中心","address":"安远路439号","type":"政府机构及社会团体;交通车辆管理;交通管理机构","typecode":"130601","pcode":310000,"pname":"上海市","citycode":21,"cityname":"上海市","adcode":310106,"adname":"静安区","business_a":"曹家渡","location":"121.441711,31.238781","tel":"[]","bigType":"政府机构及社会团体","midType":"交通车辆管理","smallType":"交通管理机构","gcj_lng":121.441711,"gcj_lat":31.238781,"wgs84_loc":"121.4371,31.240647","wgs84Lng":"121.4371","wgs84Lat":"31.240647","__source_file__":"13-常用公服设施点/SHP/上海市_交通车辆管理.shp"},"geometry":{"type":"Point","coordinates":[121.4371,31.240647]}},{"id":"654","type":"Feature","properties":{"id":"B00155ERUB","name":"普陀区机动车辆清洗管理所","address":"江宁路1306弄12燕兴大厦5层","type":"政府机构及社会团体;交通车辆管理;车辆管理机构","typecode":"130602","pcode":310000,"pname":"上海市","citycode":21,"cityname":"上海市","adcode":310107,"adname":"普陀区","business_a":"光新","location":"121.442103,31.246542","tel":"[]","bigType":"政府机构及社会团体","midType":"交通车辆管理","smallType":"车辆管理机构","gcj_lng":121.442103,"gcj_lat":31.246542,"wgs84_loc":"121.437492,31.248405","wgs84Lng":"121.437492","wgs84Lat":"31.248405","__source_file__":"13-常用公服设施点/SHP/上海市_交通车辆管理.shp"},"geometry":{"type":"Point","coordinates":[121.437492,31.248405]}},{"id":"303","type":"Feature","properties":{"id":"B0FFG0X2I0","name":"上海市城市交通运输管理处(华康路)","address":"秣陵路100联合售票大楼6层","type":"政府机构及社会团体;交通车辆管理;交通管理机构","typecode":"130601","pcode":310000,"pname":"上海市","citycode":21,"cityname":"上海市","adcode":310106,"adname":"静安区","business_a":"宝山路","location":"121.457933,31.247288","tel":"[]","bigType":"政府机构及社会团体","midType":"交通车辆管理","smallType":"交通管理机构","gcj_lng":121.457933,"gcj_lat":31.247288,"wgs84_loc":"121.453361,31.249183","wgs84Lng":"121.453361","wgs84Lat":"31.249183","__source_file__":"13-常用公服设施点/SHP/上海市_交通车辆管理.shp"},"geometry":{"type":"Point","coordinates":[121.453361,31.249183]}},{"id":"309","type":"Feature","properties":{"id":"B00155KCNN","name":"上海铁路公安处交通警察支队一中队","address":"秣陵路333号上海铁路大厦","type":"政府机构及社会团体;交通车辆管理;交通管理机构","typecode":"130601","pcode":310000,"pname":"上海市","citycode":21,"cityname":"上海市","adcode":310106,"adname":"静安区","business_a":"[]","location":"121.452838,31.249878","tel":"[]","bigType":"政府机构及社会团体","midType":"交通车辆管理","smallType":"交通管理机构","gcj_lng":121.452838,"gcj_lat":31.249878,"wgs84_loc":"121.448252,31.25176","wgs84Lng":"121.448252","wgs84Lat":"31.25176","__source_file__":"13-常用公服设施点/SHP/上海市_交通车辆管理.shp"},"geometry":{"type":"Point","coordinates":[121.448252,31.25176]}},{"id":"320","type":"Feature","properties":{"id":"B0FFGCIFT4","name":"闸北交警支队二中队","address":"大统路698-700、718号上海铁路公寓","type":"政府机构及社会团体;交通车辆管理;交通管理机构","typecode":"130601","pcode":310000,"pname":"上海市","citycode":21,"cityname":"上海市","adcode":310106,"adname":"静安区","business_a":"和田","location":"121.458437,31.250848","tel":"[]","bigType":"政府机构及社会团体","midType":"交通车辆管理","smallType":"交通管理机构","gcj_lng":121.458437,"gcj_lat":31.250848,"wgs84_loc":"121.453866,31.252742","wgs84Lng":"121.453866","wgs84Lat":"31.252742","__source_file__":"13-常用公服设施点/SHP/上海市_交通车辆管理.shp"},"geometry":{"type":"Point","coordinates":[121.453866,31.252742]}},{"id":"308","type":"Feature","properties":{"id":"B0FFMDFBVZ","name":"上海静安区交通协管服务中心","address":"中兴路1111号","type":"政府机构及社会团体;交通车辆管理;交通管理机构","typecode":"130601","pcode":310000,"pname":"上海市","citycode":21,"cityname":"上海市","adcode":310106,"adname":"静安区","business_a":"和田","location":"121.464548,31.252447","tel":"[]","bigType":"政府机构及社会团体","midType":"交通车辆管理","smallType":"交通管理机构","gcj_lng":121.464548,"gcj_lat":31.252447,"wgs84_loc":"121.459994,31.254355","wgs84Lng":"121.459994","wgs84Lat":"31.254355","__source_file__":"13-常用公服设施点/SHP/上海市_交通车辆管理.shp"},"geometry":{"type":"Point","coordinates":[121.459994,31.254355]}},{"id":"884","type":"Feature","properties":{"id":"B0IK9DWS59","name":"静安交警支队交通事故处理窗口","address":"中兴路1111号(中兴路地铁站4号口步行410米)","type":"政府机构及社会团体;交通车辆管理;交通管理机构|政府机构及社会团体;政府机关;政府机关相关","typecode":"130601|130100","pcode":310000,"pname":"上海市","citycode":21,"cityname":"上海市","adcode":310106,"adname":"静安区","business_a":"宝山路","location":"121.464584,31.252455","tel":"[]","bigType":"政府机构及社会团体","midType":"交通车辆管理","smallType":"交通管理机构|政府机构及社会团体","gcj_lng":121.464584,"gcj_lat":31.252455,"wgs84_loc":"121.46003,31.254363","wgs84Lng":"121.46003","wgs84Lat":"31.254363","__source_file__":"13-常用公服设施点/SHP/上海市_交通车辆管理.shp"},"geometry":{"type":"Point","coordinates":[121.46003,31.254363]}},{"id":"321","type":"Feature","properties":{"id":"B0FFI4YGPF","name":"静安交警","address":"中兴路1111号","type":"政府机构及社会团体;交通车辆管理;交通管理机构","typecode":"130601","pcode":310000,"pname":"上海市","citycode":21,"cityname":"上海市","adcode":310106,"adname":"静安区","business_a":"宝山路","location":"121.464579,31.252460","tel":"[]","bigType":"政府机构及社会团体","midType":"交通车辆管理","smallType":"交通管理机构","gcj_lng":121.464579,"gcj_lat":31.25246,"wgs84_loc":"121.460025,31.254368","wgs84Lng":"121.460025","wgs84Lat":"31.254368","__source_file__":"13-常用公服设施点/SHP/上海市_交通车辆管理.shp"},"geometry":{"type":"Point","coordinates":[121.460025,31.254368]}},{"id":"610","type":"Feature","properties":{"id":"B0HUK6574V","name":"上海市交通委员会执法总队第七支队","address":"溧阳路北虹高级中学东侧约150米","type":"政府机构及社会团体;交通车辆管理;交通管理机构","typecode":"130601","pcode":310000,"pname":"上海市","citycode":21,"cityname":"上海市","adcode":310109,"adname":"虹口区","business_a":"北外滩","location":"121.493407,31.248917","tel":"[]","bigType":"政府机构及社会团体","midType":"交通车辆管理","smallType":"交通管理机构","gcj_lng":121.493407,"gcj_lat":31.248917,"wgs84_loc":"121.48895,31.250908","wgs84Lng":"121.48895","wgs84Lat":"31.250908","__source_file__":"13-常用公服设施点/SHP/上海市_交通车辆管理.shp"},"geometry":{"type":"Point","coordinates":[121.48895,31.250908]}},{"id":"611","type":"Feature","properties":{"id":"B0GUJ7RWWL","name":"上海市交通委员会执法总队五大队","address":"溧阳路251号附近","type":"政府机构及社会团体;交通车辆管理;交通管理机构","typecode":"130601","pcode":310000,"pname":"上海市","citycode":21,"cityname":"上海市","adcode":310109,"adname":"虹口区","business_a":"北外滩","location":"121.493431,31.248928","tel":"[]","bigType":"政府机构及社会团体","midType":"交通车辆管理","smallType":"交通管理机构","gcj_lng":121.493431,"gcj_lat":31.248928,"wgs84_loc":"121.488974,31.250919","wgs84Lng":"121.488974","wgs84Lat":"31.250919","__source_file__":"13-常用公服设施点/SHP/上海市_交通车辆管理.shp"},"geometry":{"type":"Point","coordinates":[121.488974,31.250919]}},{"id":"615","type":"Feature","properties":{"id":"B00155948S","name":"上海市交通运输和港口管理局执法总队","address":"溧阳路249号","type":"政府机构及社会团体;交通车辆管理;交通管理机构","typecode":"130601","pcode":310000,"pname":"上海市","citycode":21,"cityname":"上海市","adcode":310109,"adname":"虹口区","business_a":"北外滩","location":"121.493491,31.248932","tel":"[]","bigType":"政府机构及社会团体","midType":"交通车辆管理","smallType":"交通管理机构","gcj_lng":121.493491,"gcj_lat":31.248932,"wgs84_loc":"121.489035,31.250923","wgs84Lng":"121.489035","wgs84Lat":"31.250923","__source_file__":"13-常用公服设施点/SHP/上海市_交通车辆管理.shp"},"geometry":{"type":"Point","coordinates":[121.489035,31.250923]}},{"id":"885","type":"Feature","properties":{"id":"B0JG6DMULN","name":"上海市交通委员会执法总队七大队","address":"溧阳路与东长治路交叉口北80米","type":"政府机构及社会团体;交通车辆管理;交通管理机构","typecode":"130601","pcode":310000,"pname":"上海市","citycode":21,"cityname":"上海市","adcode":310109,"adname":"虹口区","business_a":"提篮桥","location":"121.493447,31.248937","tel":"[]","bigType":"政府机构及社会团体","midType":"交通车辆管理","smallType":"交通管理机构","gcj_lng":121.493447,"gcj_lat":31.248937,"wgs84_loc":"121.488991,31.250928","wgs84Lng":"121.488991","wgs84Lat":"31.250928","__source_file__":"13-常用公服设施点/SHP/上海市_交通车辆管理.shp"},"geometry":{"type":"Point","coordinates":[121.488991,31.250928]}},{"id":"63","type":"Feature","properties":{"id":"B001571CM9","name":"上海市城市交通行政执法总队","address":"溧阳路249号","type":"政府机构及社会团体;交通车辆管理;交通管理机构","typecode":"130601","pcode":310000,"pname":"上海市","citycode":21,"cityname":"上海市","adcode":310109,"adname":"虹口区","business_a":"提篮桥","location":"121.493425,31.248955","tel":"[]","bigType":"政府机构及社会团体","midType":"交通车辆管理","smallType":"交通管理机构","gcj_lng":121.493425,"gcj_lat":31.248955,"wgs84_loc":"121.488968,31.250946","wgs84Lng":"121.488968","wgs84Lat":"31.250946","__source_file__":"13-常用公服设施点/SHP/上海市_交通车辆管理.shp"},"geometry":{"type":"Point","coordinates":[121.488968,31.250946]}},{"id":"313","type":"Feature","properties":{"id":"B0FFHN78YA","name":"上海市公安局铁路公安处交通警察支队","address":"王家宅路161号","type":"政府机构及社会团体;交通车辆管理;交通管理机构","typecode":"130601","pcode":310000,"pname":"上海市","citycode":21,"cityname":"上海市","adcode":310106,"adname":"静安区","business_a":"宝山路","location":"121.470334,31.249421","tel":"021-51232200","bigType":"政府机构及社会团体","midType":"交通车辆管理","smallType":"交通管理机构","gcj_lng":121.470334,"gcj_lat":31.249421,"wgs84_loc":"121.465798,31.251346","wgs84Lng":"121.465798","wgs84Lat":"31.251346","__source_file__":"13-常用公服设施点/SHP/上海市_交通车辆管理.shp"},"geometry":{"type":"Point","coordinates":[121.465798,31.251346]}},{"id":"315","type":"Feature","properties":{"id":"B0FFG4HKCJ","name":"上海市公路养路费征收管理办公室第四征稽所","address":"会文路50号永会大楼","type":"政府机构及社会团体;交通车辆管理;交通管理机构","typecode":"130601","pcode":310000,"pname":"上海市","citycode":21,"cityname":"上海市","adcode":310106,"adname":"静安区","business_a":"宝山路","location":"121.472834,31.252502","tel":"[]","bigType":"政府机构及社会团体","midType":"交通车辆管理","smallType":"交通管理机构","gcj_lng":121.472834,"gcj_lat":31.252502,"wgs84_loc":"121.468306,31.254432","wgs84Lng":"121.468306","wgs84Lat":"31.254432","__source_file__":"13-常用公服设施点/SHP/上海市_交通车辆管理.shp"},"geometry":{"type":"Point","coordinates":[121.468306,31.254432]}},{"id":"61","type":"Feature","properties":{"id":"B0FFHMM3CY","name":"上海市公安局虹口分局交通警察支队三大队","address":"甜爱路345号","type":"政府机构及社会团体;交通车辆管理;交通管理机构","typecode":"130601","pcode":310000,"pname":"上海市","citycode":21,"cityname":"上海市","adcode":310109,"adname":"虹口区","business_a":"江湾","location":"121.484879,31.271304","tel":"[]","bigType":"政府机构及社会团体","midType":"交通车辆管理","smallType":"交通管理机构","gcj_lng":121.484879,"gcj_lat":31.271304,"wgs84_loc":"121.48039,31.27326","wgs84Lng":"121.48039","wgs84Lat":"31.27326","__source_file__":"13-常用公服设施点/SHP/上海市_交通车辆管理.shp"},"geometry":{"type":"Point","coordinates":[121.48039,31.27326]}},{"id":"60","type":"Feature","properties":{"id":"B0FFH09AFR","name":"虹口交通支队三中队事故与伤害监测点","address":"甜爱路345号","type":"政府机构及社会团体;交通车辆管理;交通管理机构","typecode":"130601","pcode":310000,"pname":"上海市","citycode":21,"cityname":"上海市","adcode":310109,"adname":"虹口区","business_a":"曲阳","location":"121.484874,31.271314","tel":"[]","bigType":"政府机构及社会团体","midType":"交通车辆管理","smallType":"交通管理机构","gcj_lng":121.484874,"gcj_lat":31.271314,"wgs84_loc":"121.480385,31.27327","wgs84Lng":"121.480385","wgs84Lat":"31.27327","__source_file__":"13-常用公服设施点/SHP/上海市_交通车辆管理.shp"},"geometry":{"type":"Point","coordinates":[121.480385,31.27327]}},{"id":"668","type":"Feature","properties":{"id":"B0FFLBWRV1","name":"车管所“警医邮”服务点","address":"同心路与水电路交叉口西北80米","type":"政府机构及社会团体;交通车辆管理;交通车辆管理相关","typecode":"130600","pcode":310000,"pname":"上海市","citycode":21,"cityname":"上海市","adcode":310109,"adname":"虹口区","business_a":"和田","location":"121.470123,31.272698","tel":"[]","bigType":"政府机构及社会团体","midType":"交通车辆管理","smallType":"交通车辆管理相关","gcj_lng":121.470123,"gcj_lat":31.272698,"wgs84_loc":"121.465585,31.274612","wgs84Lng":"121.465585","wgs84Lat":"31.274612","__source_file__":"13-常用公服设施点/SHP/上海市_交通车辆管理.shp"},"geometry":{"type":"Point","coordinates":[121.465585,31.274612]}},{"id":"317","type":"Feature","properties":{"id":"B0FFHWOXCE","name":"静安交警支队","address":"中兴路1111号","type":"政府机构及社会团体;交通车辆管理;交通管理机构","typecode":"130601","pcode":310000,"pname":"上海市","citycode":21,"cityname":"上海市","adcode":310106,"adname":"静安区","business_a":"宝山路","location":"121.464585,31.252470","tel":"[]","bigType":"政府机构及社会团体","midType":"交通车辆管理","smallType":"交通管理机构","gcj_lng":121.464585,"gcj_lat":31.25247,"wgs84_loc":"121.460032,31.254378","wgs84Lng":"121.460032","wgs84Lat":"31.254378","__source_file__":"13-常用公服设施点/SHP/上海市_交通车辆管理.shp"},"geometry":{"type":"Point","coordinates":[121.460032,31.254378]}},{"id":"584","type":"Feature","properties":{"id":"B0FFHM5LSP","name":"上海市公安局普陀分局交通警察支队二大队","address":"光新路三新村23","type":"政府机构及社会团体;交通车辆管理;交通管理机构","typecode":"130601","pcode":310000,"pname":"上海市","citycode":21,"cityname":"上海市","adcode":310107,"adname":"普陀区","business_a":"大宁路","location":"121.433162,31.252628","tel":"[]","bigType":"政府机构及社会团体","midType":"交通车辆管理","smallType":"交通管理机构","gcj_lng":121.433162,"gcj_lat":31.252628,"wgs84_loc":"121.428534,31.254474","wgs84Lng":"121.428534","wgs84Lat":"31.254474","__source_file__":"13-常用公服设施点/SHP/上海市_交通车辆管理.shp"},"geometry":{"type":"Point","coordinates":[121.428534,31.254474]}},{"id":"316","type":"Feature","properties":{"id":"B0FFHYEOEY","name":"上海市公安局静安分局交警支队非机动车业务受理点","address":"中兴路1111号","type":"政府机构及社会团体;交通车辆管理;交通管理机构","typecode":"130601","pcode":310000,"pname":"上海市","citycode":21,"cityname":"上海市","adcode":310106,"adname":"静安区","business_a":"宝山路","location":"121.464768,31.252623","tel":"[]","bigType":"政府机构及社会团体","midType":"交通车辆管理","smallType":"交通管理机构","gcj_lng":121.464768,"gcj_lat":31.252623,"wgs84_loc":"121.460215,31.254532","wgs84Lng":"121.460215","wgs84Lat":"31.254532","__source_file__":"13-常用公服设施点/SHP/上海市_交通车辆管理.shp"},"geometry":{"type":"Point","coordinates":[121.460215,31.254532]}},{"id":"825","type":"Feature","properties":{"id":"B0FFHXZCHE","name":"上海市公安局静安分局交警支队交通违法审理点","address":"中兴路1111号","type":"政府机构及社会团体;交通车辆管理;交通管理机构","typecode":"130601","pcode":310000,"pname":"上海市","citycode":21,"cityname":"上海市","adcode":310106,"adname":"静安区","business_a":"宝山路","location":"121.464619,31.252636","tel":"[]","bigType":"政府机构及社会团体","midType":"交通车辆管理","smallType":"交通管理机构","gcj_lng":121.464619,"gcj_lat":31.252636,"wgs84_loc":"121.460066,31.254544","wgs84Lng":"121.460066","wgs84Lat":"31.254544","__source_file__":"13-常用公服设施点/SHP/上海市_交通车辆管理.shp"},"geometry":{"type":"Point","coordinates":[121.460066,31.254544]}},{"id":"306","type":"Feature","properties":{"id":"B0FFLGVQY2","name":"静安区交通事故损害赔偿纠纷人民调解委员会","address":"中兴路上海市公安局静安分局交警支队交通事故受理点","type":"政府机构及社会团体;交通车辆管理;交通管理机构","typecode":"130601","pcode":310000,"pname":"上海市","citycode":21,"cityname":"上海市","adcode":310106,"adname":"静安区","business_a":"和田","location":"121.464800,31.252755","tel":"[]","bigType":"政府机构及社会团体","midType":"交通车辆管理","smallType":"交通管理机构","gcj_lng":121.4648,"gcj_lat":31.252755,"wgs84_loc":"121.460247,31.254664","wgs84Lng":"121.460247","wgs84Lat":"31.254664","__source_file__":"13-常用公服设施点/SHP/上海市_交通车辆管理.shp"},"geometry":{"type":"Point","coordinates":[121.460247,31.254664]}},{"id":"661","type":"Feature","properties":{"id":"B0GR1RYXIF","name":"上海市公安局普陀分局交通警察支队一大队","address":"中山北路与中潭路交叉口西南方向170米","type":"政府机构及社会团体;交通车辆管理;交通管理机构","typecode":"130601","pcode":310000,"pname":"上海市","citycode":21,"cityname":"上海市","adcode":310107,"adname":"普陀区","business_a":"光新","location":"121.439564,31.254414","tel":"[]","bigType":"政府机构及社会团体","midType":"交通车辆管理","smallType":"交通管理机构","gcj_lng":121.439564,"gcj_lat":31.254414,"wgs84_loc":"121.434948,31.256269","wgs84Lng":"121.434948","wgs84Lat":"31.256269","__source_file__":"13-常用公服设施点/SHP/上海市_交通车辆管理.shp"},"geometry":{"type":"Point","coordinates":[121.434948,31.256269]}},{"id":"655","type":"Feature","properties":{"id":"B0FFM5DODY","name":"普陀交警支队机动一大队","address":"远景路572号","type":"政府机构及社会团体;交通车辆管理;交通管理机构","typecode":"130601","pcode":310000,"pname":"上海市","citycode":21,"cityname":"上海市","adcode":310107,"adname":"普陀区","business_a":"光新","location":"121.439756,31.254563","tel":"[]","bigType":"政府机构及社会团体","midType":"交通车辆管理","smallType":"交通管理机构","gcj_lng":121.439756,"gcj_lat":31.254563,"wgs84_loc":"121.43514,31.256418","wgs84Lng":"121.43514","wgs84Lat":"31.256418","__source_file__":"13-常用公服设施点/SHP/上海市_交通车辆管理.shp"},"geometry":{"type":"Point","coordinates":[121.43514,31.256418]}},{"id":"305","type":"Feature","properties":{"id":"B0FFH2PFQG","name":"交通警察","address":"中山北路585号8090公寓A5032入口","type":"政府机构及社会团体;交通车辆管理;交通管理机构","typecode":"130601","pcode":310000,"pname":"上海市","citycode":21,"cityname":"上海市","adcode":310106,"adname":"静安区","business_a":"和田","location":"121.461997,31.261412","tel":"[]","bigType":"政府机构及社会团体","midType":"交通车辆管理","smallType":"交通管理机构","gcj_lng":121.461997,"gcj_lat":31.261412,"wgs84_loc":"121.457435,31.26331","wgs84Lng":"121.457435","wgs84Lat":"31.26331","__source_file__":"13-常用公服设施点/SHP/上海市_交通车辆管理.shp"},"geometry":{"type":"Point","coordinates":[121.457435,31.26331]}},{"id":"311","type":"Feature","properties":{"id":"B0FFHRSXUT","name":"上海市公安局静安分局交通警察支队四大队","address":"共和新路1139号","type":"政府机构及社会团体;交通车辆管理;交通管理机构","typecode":"130601","pcode":310000,"pname":"上海市","citycode":21,"cityname":"上海市","adcode":310106,"adname":"静安区","business_a":"和田","location":"121.461897,31.261444","tel":"[]","bigType":"政府机构及社会团体","midType":"交通车辆管理","smallType":"交通管理机构","gcj_lng":121.461897,"gcj_lat":31.261444,"wgs84_loc":"121.457335,31.263342","wgs84Lng":"121.457335","wgs84Lat":"31.263342","__source_file__":"13-常用公服设施点/SHP/上海市_交通车辆管理.shp"},"geometry":{"type":"Point","coordinates":[121.457335,31.263342]}},{"id":"312","type":"Feature","properties":{"id":"B0FFHSS2UU","name":"上海市公安局静安分局交通警察支队六大队","address":"共和新路1985号","type":"政府机构及社会团体;交通车辆管理;交通管理机构","typecode":"130601","pcode":310000,"pname":"上海市","citycode":21,"cityname":"上海市","adcode":310106,"adname":"静安区","business_a":"大宁路","location":"121.453420,31.275587","tel":"[]","bigType":"政府机构及社会团体","midType":"交通车辆管理","smallType":"交通管理机构","gcj_lng":121.45342,"gcj_lat":31.275587,"wgs84_loc":"121.448833,31.277459","wgs84Lng":"121.448833","wgs84Lat":"31.277459","__source_file__":"13-常用公服设施点/SHP/上海市_交通车辆管理.shp"},"geometry":{"type":"Point","coordinates":[121.448833,31.277459]}}],"name":"上海市_交通车辆管理","crs":{"type":"name","properties":{"name":"urn:ogc:def:crs:OGC:1.3:CRS84"}}}