{"type":"FeatureCollection","features":[{"id":"132","type":"Feature","properties":{"id":"B0I6DAMLLO","name":"巧克力博物馆","address":"豫园旧校场路悦宾楼内","type":"科教文化服务;博物馆;博物馆","typecode":140100,"pcode":310000,"pname":"上海市","citycode":21,"cityname":"上海市","adcode":310101,"adname":"黄浦区","business_a":"城隍庙","location":"121.490962,31.226759","tel":"[]","bigType":"科教文化服务","midType":"博物馆","smallType":"博物馆","gcj_lng":121.490962,"gcj_lat":31.226759,"wgs84_loc":"121.486499,31.228752","wgs84Lng":"121.486499","wgs84Lat":"31.228752","__source_file__":"13-常用公服设施点/SHP/上海市_博物馆.shp"},"geometry":{"type":"Point","coordinates":[121.486499,31.228752]}},{"id":"141","type":"Feature","properties":{"id":"B00156GKXF","name":"童涵春药房","address":"豫园新路20号","type":"科教文化服务;博物馆;博物馆","typecode":140100,"pcode":310000,"pname":"上海市","citycode":21,"cityname":"上海市","adcode":310101,"adname":"黄浦区","business_a":"城隍庙","location":"121.490913,31.227105","tel":"[]","bigType":"科教文化服务","midType":"博物馆","smallType":"博物馆","gcj_lng":121.490913,"gcj_lat":31.227105,"wgs84_loc":"121.486449,31.229098","wgs84Lng":"121.486449","wgs84Lat":"31.229098","__source_file__":"13-常用公服设施点/SHP/上海市_博物馆.shp"},"geometry":{"type":"Point","coordinates":[121.486449,31.229098]}},{"id":"11","type":"Feature","properties":{"id":"B0FFF49RY5","name":"上海市黄浦区黄金珠宝博物馆(装修中)","address":"丽水路58号","type":"科教文化服务;博物馆;博物馆","typecode":140100,"pcode":310000,"pname":"上海市","citycode":21,"cityname":"上海市","adcode":310101,"adname":"黄浦区","business_a":"城隍庙","location":"121.490399,31.228553","tel":"[]","bigType":"科教文化服务","midType":"博物馆","smallType":"博物馆","gcj_lng":121.490399,"gcj_lat":31.228553,"wgs84_loc":"121.485933,31.230544","wgs84Lng":"121.485933","wgs84Lat":"31.230544","__source_file__":"13-常用公服设施点/SHP/上海市_博物馆.shp"},"geometry":{"type":"Point","coordinates":[121.485933,31.230544]}},{"id":"113","type":"Feature","properties":{"id":"B0FFFQ7TXZ","name":"石库门屋里厢博物馆(上海新天地北里)","address":"太仓路181弄新天地北里25号(近黄陂南路)","type":"科教文化服务;博物馆;博物馆","typecode":140100,"pcode":310000,"pname":"上海市","citycode":21,"cityname":"上海市","adcode":310101,"adname":"黄浦区","business_a":"新天地(自忠路)","location":"121.474754,31.220018","tel":"021-33070337","bigType":"科教文化服务","midType":"博物馆","smallType":"博物馆","gcj_lng":121.474754,"gcj_lat":31.220018,"wgs84_loc":"121.470235,31.221968","wgs84Lng":"121.470235","wgs84Lat":"31.221968","__source_file__":"13-常用公服设施点/SHP/上海市_博物馆.shp"},"geometry":{"type":"Point","coordinates":[121.470235,31.221968]}},{"id":"136","type":"Feature","properties":{"id":"B001556XTO","name":"上海革命历史博物馆筹备处","address":"黄陂南路374号(近新天地)","type":"科教文化服务;博物馆;博物馆","typecode":140100,"pcode":310000,"pname":"上海市","citycode":21,"cityname":"上海市","adcode":310101,"adname":"黄浦区","business_a":"新天地(自忠路)","location":"121.475475,31.220192","tel":"[]","bigType":"科教文化服务","midType":"博物馆","smallType":"博物馆","gcj_lng":121.475475,"gcj_lat":31.220192,"wgs84_loc":"121.470959,31.222144","wgs84Lng":"121.470959","wgs84Lat":"31.222144","__source_file__":"13-常用公服设施点/SHP/上海市_博物馆.shp"},"geometry":{"type":"Point","coordinates":[121.470959,31.222144]}},{"id":"126","type":"Feature","properties":{"id":"B0H3D7UONX","name":"黑色博物馆(上海广场店)","address":"淮海中路138号上海广场2层","type":"科教文化服务;博物馆;博物馆","typecode":140100,"pcode":310000,"pname":"上海市","citycode":21,"cityname":"上海市","adcode":310101,"adname":"黄浦区","business_a":"北京东路","location":"121.478080,31.225211","tel":"[]","bigType":"科教文化服务","midType":"博物馆","smallType":"博物馆","gcj_lng":121.47808,"gcj_lat":31.225211,"wgs84_loc":"121.473572,31.227168","wgs84Lng":"121.473572","wgs84Lat":"31.227168","__source_file__":"13-常用公服设施点/SHP/上海市_博物馆.shp"},"geometry":{"type":"Point","coordinates":[121.473572,31.227168]}},{"id":"1","type":"Feature","properties":{"id":"B001535BBC","name":"上海博物馆(人民广场馆)","address":"人民大道201号","type":"科教文化服务;博物馆;博物馆","typecode":140100,"pcode":310000,"pname":"上海市","citycode":21,"cityname":"上海市","adcode":310101,"adname":"黄浦区","business_a":"淮海路","location":"121.475497,31.228234","tel":"021-63723500","bigType":"科教文化服务","midType":"博物馆","smallType":"博物馆","gcj_lng":121.475497,"gcj_lat":31.228234,"wgs84_loc":"121.47098,31.230182","wgs84Lng":"121.47098","wgs84Lat":"31.230182","__source_file__":"13-常用公服设施点/SHP/上海市_博物馆.shp"},"geometry":{"type":"Point","coordinates":[121.47098,31.230182]}},{"id":"10","type":"Feature","properties":{"id":"B001535BBC","name":"上海博物馆","address":"人民大道201号","type":"科教文化服务;博物馆;博物馆","typecode":140100,"pcode":310000,"pname":"上海市","citycode":21,"cityname":"上海市","adcode":310101,"adname":"黄浦区","business_a":"北京东路","location":"121.475492,31.228235","tel":"021-63723500","bigType":"科教文化服务","midType":"博物馆","smallType":"博物馆","gcj_lng":121.475492,"gcj_lat":31.228235,"wgs84_loc":"121.470975,31.230183","wgs84Lng":"121.470975","wgs84Lat":"31.230183","__source_file__":"13-常用公服设施点/SHP/上海市_博物馆.shp"},"geometry":{"type":"Point","coordinates":[121.470975,31.230183]}},{"id":"135","type":"Feature","properties":{"id":"B0G12ULVSX","name":"上海博物馆-中国历代书法馆","address":"人民大道201号","type":"科教文化服务;博物馆;博物馆","typecode":140100,"pcode":310000,"pname":"上海市","citycode":21,"cityname":"上海市","adcode":310101,"adname":"黄浦区","business_a":"北京东路","location":"121.475396,31.228266","tel":"[]","bigType":"科教文化服务","midType":"博物馆","smallType":"博物馆","gcj_lng":121.475396,"gcj_lat":31.228266,"wgs84_loc":"121.470879,31.230214","wgs84Lng":"121.470879","wgs84Lat":"31.230214","__source_file__":"13-常用公服设施点/SHP/上海市_博物馆.shp"},"geometry":{"type":"Point","coordinates":[121.470879,31.230214]}},{"id":"134","type":"Feature","properties":{"id":"B0G0PZCD0M","name":"上海博物馆中国古代陶瓷馆","address":"上海博物馆2层","type":"科教文化服务;博物馆;博物馆","typecode":140100,"pcode":310000,"pname":"上海市","citycode":21,"cityname":"上海市","adcode":310101,"adname":"黄浦区","business_a":"北京东路","location":"121.475697,31.228303","tel":"021-63723500","bigType":"科教文化服务","midType":"博物馆","smallType":"博物馆","gcj_lng":121.475697,"gcj_lat":31.228303,"wgs84_loc":"121.471181,31.230252","wgs84Lng":"121.471181","wgs84Lat":"31.230252","__source_file__":"13-常用公服设施点/SHP/上海市_博物馆.shp"},"geometry":{"type":"Point","coordinates":[121.471181,31.230252]}},{"id":"142","type":"Feature","properties":{"id":"B0FFLDD24F","name":"上海星空艺术馆(遇光星球)","address":"人民大道221号224-1、224-2号","type":"科教文化服务;博物馆;博物馆","typecode":140100,"pcode":310000,"pname":"上海市","citycode":21,"cityname":"上海市","adcode":310101,"adname":"黄浦区","business_a":"北京东路","location":"121.473316,31.228663","tel":"15021303712","bigType":"科教文化服务","midType":"博物馆","smallType":"博物馆","gcj_lng":121.473316,"gcj_lat":31.228663,"wgs84_loc":"121.468792,31.230605","wgs84Lng":"121.468792","wgs84Lat":"31.230605","__source_file__":"13-常用公服设施点/SHP/上海市_博物馆.shp"},"geometry":{"type":"Point","coordinates":[121.468792,31.230605]}},{"id":"127","type":"Feature","properties":{"id":"B00155KKMB","name":"上海笔墨博物馆","address":"福州路429号","type":"科教文化服务;博物馆;博物馆","typecode":140100,"pcode":310000,"pname":"上海市","citycode":21,"cityname":"上海市","adcode":310101,"adname":"黄浦区","business_a":"北京东路","location":"121.482416,31.233592","tel":"021-63281558","bigType":"科教文化服务","midType":"博物馆","smallType":"博物馆","gcj_lng":121.482416,"gcj_lat":31.233592,"wgs84_loc":"121.477922,31.235557","wgs84Lng":"121.477922","wgs84Lat":"31.235557","__source_file__":"13-常用公服设施点/SHP/上海市_博物馆.shp"},"geometry":{"type":"Point","coordinates":[121.477922,31.235557]}},{"id":"124","type":"Feature","properties":{"id":"B0HRMZI3IU","name":"上海体育博物馆(暂停营业)","address":"南京西路150号上海体育大厦地上3层","type":"科教文化服务;博物馆;博物馆","typecode":140100,"pcode":310000,"pname":"上海市","citycode":21,"cityname":"上海市","adcode":310101,"adname":"黄浦区","business_a":"北京东路","location":"121.471965,31.233853","tel":"021-63275330","bigType":"科教文化服务","midType":"博物馆","smallType":"博物馆","gcj_lng":121.471965,"gcj_lat":31.233853,"wgs84_loc":"121.467436,31.235789","wgs84Lng":"121.467436","wgs84Lat":"31.235789","__source_file__":"13-常用公服设施点/SHP/上海市_博物馆.shp"},"geometry":{"type":"Point","coordinates":[121.467436,31.235789]}},{"id":"274","type":"Feature","properties":{"id":"B0KG4NCG5C","name":"Paradox Museum悖论博物馆","address":"淮海中路688号华狮广场B1层","type":"科教文化服务;博物馆;博物馆","typecode":140100,"pcode":310000,"pname":"上海市","citycode":21,"cityname":"上海市","adcode":310101,"adname":"黄浦区","business_a":"淮海路","location":"121.465255,31.219579","tel":"[]","bigType":"科教文化服务","midType":"博物馆","smallType":"博物馆","gcj_lng":121.465255,"gcj_lat":31.219579,"wgs84_loc":"121.460706,31.221504","wgs84Lng":"121.460706","wgs84Lat":"31.221504","__source_file__":"13-常用公服设施点/SHP/上海市_博物馆.shp"},"geometry":{"type":"Point","coordinates":[121.460706,31.221504]}},{"id":"158","type":"Feature","properties":{"id":"B00156ZAR7","name":"温可铮音乐家庭艺术馆","address":"南汇路85弄14号3层","type":"科教文化服务;博物馆;博物馆","typecode":140100,"pcode":310000,"pname":"上海市","citycode":21,"cityname":"上海市","adcode":310106,"adname":"静安区","business_a":"淮海路","location":"121.456285,31.230245","tel":"[]","bigType":"科教文化服务","midType":"博物馆","smallType":"博物馆","gcj_lng":121.456285,"gcj_lat":31.230245,"wgs84_loc":"121.45171,31.232144","wgs84Lng":"121.45171","wgs84Lat":"31.232144","__source_file__":"13-常用公服设施点/SHP/上海市_博物馆.shp"},"geometry":{"type":"Point","coordinates":[121.45171,31.232144]}},{"id":"155","type":"Feature","properties":{"id":"B0FFJOPOSK","name":"上海棋牌文化博物馆","address":"南京西路595号上海棋院大楼一楼","type":"科教文化服务;博物馆;博物馆","typecode":140100,"pcode":310000,"pname":"上海市","citycode":21,"cityname":"上海市","adcode":310106,"adname":"静安区","business_a":"淮海路","location":"121.465505,31.230405","tel":"15216840494","bigType":"科教文化服务","midType":"博物馆","smallType":"博物馆","gcj_lng":121.465505,"gcj_lat":31.230405,"wgs84_loc":"121.460956,31.232326","wgs84Lng":"121.460956","wgs84Lat":"31.232326","__source_file__":"13-常用公服设施点/SHP/上海市_博物馆.shp"},"geometry":{"type":"Point","coordinates":[121.460956,31.232326]}},{"id":"122","type":"Feature","properties":{"id":"B0FFI2885X","name":"上海市历史博物馆(暂停营业)","address":"南京西路325号","type":"科教文化服务;博物馆;博物馆","typecode":140100,"pcode":310000,"pname":"上海市","citycode":21,"cityname":"上海市","adcode":310101,"adname":"黄浦区","business_a":"北京东路","location":"121.470879,31.230559","tel":"021-23299999","bigType":"科教文化服务","midType":"博物馆","smallType":"博物馆","gcj_lng":121.470879,"gcj_lat":31.230559,"wgs84_loc":"121.466347,31.232494","wgs84Lng":"121.466347","wgs84Lat":"31.232494","__source_file__":"13-常用公服设施点/SHP/上海市_博物馆.shp"},"geometry":{"type":"Point","coordinates":[121.466347,31.232494]}},{"id":"34","type":"Feature","properties":{"id":"B00156NVZG","name":"上海自然博物馆上海科技馆分馆","address":"北京西路510号","type":"科教文化服务;博物馆;博物馆","typecode":140100,"pcode":310000,"pname":"上海市","citycode":21,"cityname":"上海市","adcode":310106,"adname":"静安区","business_a":"淮海路","location":"121.462674,31.23501","tel":"021-68622000","bigType":"科教文化服务","midType":"博物馆","smallType":"博物馆","gcj_lng":121.462674,"gcj_lat":31.23501,"wgs84_loc":"121.458116,31.236922","wgs84Lng":"121.458116","wgs84Lat":"31.236922","__source_file__":"13-常用公服设施点/SHP/上海市_博物馆.shp"},"geometry":{"type":"Point","coordinates":[121.458116,31.236922]}},{"id":"302","type":"Feature","properties":{"id":"B00156NVZG","name":"上海自然博物馆","address":"北京西路510号","type":"科教文化服务;博物馆;博物馆","typecode":140100,"pcode":310000,"pname":"上海市","citycode":21,"cityname":"上海市","adcode":310106,"adname":"静安区","business_a":"淮海路","location":"121.462672,31.235021","tel":"021-62620116;021-68622000","bigType":"科教文化服务","midType":"博物馆","smallType":"博物馆","gcj_lng":121.462672,"gcj_lat":31.235021,"wgs84_loc":"121.458114,31.236933","wgs84Lng":"121.458114","wgs84Lat":"31.236933","__source_file__":"13-常用公服设施点/SHP/上海市_博物馆.shp"},"geometry":{"type":"Point","coordinates":[121.458114,31.236933]}},{"id":"254","type":"Feature","properties":{"id":"B001572NBS","name":"三悦香沉香会馆","address":"长寿路652号19号楼","type":"科教文化服务;博物馆;博物馆","typecode":140100,"pcode":310000,"pname":"上海市","citycode":21,"cityname":"上海市","adcode":310107,"adname":"普陀区","business_a":"曹家渡","location":"121.431530,31.239020","tel":"13917866898","bigType":"科教文化服务","midType":"博物馆","smallType":"博物馆","gcj_lng":121.43153,"gcj_lat":31.23902,"wgs84_loc":"121.426901,31.24087","wgs84Lng":"121.426901","wgs84Lat":"31.24087","__source_file__":"13-常用公服设施点/SHP/上海市_博物馆.shp"},"geometry":{"type":"Point","coordinates":[121.426901,31.24087]}},{"id":"35","type":"Feature","properties":{"id":"B00155KN2Y","name":"上海纺织博物馆","address":"澳门路128-150号","type":"科教文化服务;博物馆;博物馆","typecode":140100,"pcode":310000,"pname":"上海市","citycode":21,"cityname":"上海市","adcode":310107,"adname":"普陀区","business_a":"光新","location":"121.446086,31.246862","tel":"021-62996969","bigType":"科教文化服务","midType":"博物馆","smallType":"博物馆","gcj_lng":121.446086,"gcj_lat":31.246862,"wgs84_loc":"121.441484,31.248732","wgs84Lng":"121.441484","wgs84Lat":"31.248732","__source_file__":"13-常用公服设施点/SHP/上海市_博物馆.shp"},"geometry":{"type":"Point","coordinates":[121.441484,31.248732]}},{"id":"123","type":"Feature","properties":{"id":"B00155QGZS","name":"上海电信博物馆","address":"延安东路34号","type":"科教文化服务;博物馆;博物馆","typecode":140100,"pcode":310000,"pname":"上海市","citycode":21,"cityname":"上海市","adcode":310101,"adname":"黄浦区","business_a":"北京东路","location":"121.4908,31.23333","tel":"021-33311122","bigType":"科教文化服务","midType":"博物馆","smallType":"博物馆","gcj_lng":121.4908,"gcj_lat":31.23333,"wgs84_loc":"121.486335,31.23532","wgs84Lng":"121.486335","wgs84Lat":"31.23532","__source_file__":"13-常用公服设施点/SHP/上海市_博物馆.shp"},"geometry":{"type":"Point","coordinates":[121.486335,31.23532]}},{"id":"131","type":"Feature","properties":{"id":"B0GD95LX80","name":"MOI幻觉博物馆","address":"九江路168号礼和洋行2楼","type":"科教文化服务;博物馆;博物馆","typecode":140100,"pcode":310000,"pname":"上海市","citycode":21,"cityname":"上海市","adcode":310101,"adname":"黄浦区","business_a":"北京东路","location":"121.486515,31.237141","tel":"[]","bigType":"科教文化服务","midType":"博物馆","smallType":"博物馆","gcj_lng":121.486515,"gcj_lat":31.237141,"wgs84_loc":"121.482035,31.239117","wgs84Lng":"121.482035","wgs84Lat":"31.239117","__source_file__":"13-常用公服设施点/SHP/上海市_博物馆.shp"},"geometry":{"type":"Point","coordinates":[121.482035,31.239117]}},{"id":"66","type":"Feature","properties":{"id":"B00155F9RW","name":"上海邮政博物馆(暂停营业)","address":"天潼路395号","type":"科教文化服务;博物馆;博物馆","typecode":140100,"pcode":310000,"pname":"上海市","citycode":21,"cityname":"上海市","adcode":310109,"adname":"虹口区","business_a":"北京东路","location":"121.484749,31.244286","tel":"[]","bigType":"科教文化服务","midType":"博物馆","smallType":"博物馆","gcj_lng":121.484749,"gcj_lat":31.244286,"wgs84_loc":"121.480262,31.246253","wgs84Lng":"121.480262","wgs84Lat":"31.246253","__source_file__":"13-常用公服设施点/SHP/上海市_博物馆.shp"},"geometry":{"type":"Point","coordinates":[121.480262,31.246253]}},{"id":"193","type":"Feature","properties":{"id":"B0IGMC9BQO","name":"上海邮政博物馆","address":"大名路与塘沽路交叉口西约20米","type":"科教文化服务;博物馆;博物馆","typecode":140100,"pcode":310000,"pname":"上海市","citycode":21,"cityname":"上海市","adcode":310109,"adname":"虹口区","business_a":"提篮桥","location":"121.494238,31.246477","tel":"[]","bigType":"科教文化服务","midType":"博物馆","smallType":"博物馆","gcj_lng":121.494238,"gcj_lat":31.246477,"wgs84_loc":"121.489785,31.248471","wgs84Lng":"121.489785","wgs84Lat":"31.248471","__source_file__":"13-常用公服设施点/SHP/上海市_博物馆.shp"},"geometry":{"type":"Point","coordinates":[121.489785,31.248471]}},{"id":"161","type":"Feature","properties":{"id":"B0FFFDV5K6","name":"原境界美术馆","address":"余杭路18号(近吴淞路)","type":"科教文化服务;博物馆;博物馆","typecode":140100,"pcode":310000,"pname":"上海市","citycode":21,"cityname":"上海市","adcode":310109,"adname":"虹口区","business_a":"提篮桥","location":"121.489861,31.250461","tel":"15921798669","bigType":"科教文化服务","midType":"博物馆","smallType":"博物馆","gcj_lng":121.489861,"gcj_lat":31.250461,"wgs84_loc":"121.485392,31.25244","wgs84Lng":"121.485392","wgs84Lat":"31.25244","__source_file__":"13-常用公服设施点/SHP/上海市_博物馆.shp"},"geometry":{"type":"Point","coordinates":[121.485392,31.25244]}},{"id":"117","type":"Feature","properties":{"id":"B0G25HVRDM","name":"醍醐 Tihho Art","address":"莫干山路50号M50创意园3-108","type":"科教文化服务;博物馆;博物馆","typecode":140100,"pcode":310000,"pname":"上海市","citycode":21,"cityname":"上海市","adcode":310107,"adname":"普陀区","business_a":"光新","location":"121.448966,31.247593","tel":"021-63152563","bigType":"科教文化服务","midType":"博物馆","smallType":"博物馆","gcj_lng":121.448966,"gcj_lat":31.247593,"wgs84_loc":"121.444371,31.249468","wgs84Lng":"121.444371","wgs84Lat":"31.249468","__source_file__":"13-常用公服设施点/SHP/上海市_博物馆.shp"},"geometry":{"type":"Point","coordinates":[121.444371,31.249468]}},{"id":"116","type":"Feature","properties":{"id":"B0GUPCZENU","name":"COSPACE","address":"莫干山路50号7号楼102室","type":"科教文化服务;博物馆;博物馆","typecode":140100,"pcode":310000,"pname":"上海市","citycode":21,"cityname":"上海市","adcode":310107,"adname":"普陀区","business_a":"光新","location":"121.449304,31.247600","tel":"15802188338","bigType":"科教文化服务","midType":"博物馆","smallType":"博物馆","gcj_lng":121.449304,"gcj_lat":31.2476,"wgs84_loc":"121.444709,31.249476","wgs84Lng":"121.444709","wgs84Lat":"31.249476","__source_file__":"13-常用公服设施点/SHP/上海市_博物馆.shp"},"geometry":{"type":"Point","coordinates":[121.444709,31.249476]}},{"id":"248","type":"Feature","properties":{"id":"B0FFI741SK","name":"木文化博物馆","address":"澳门路168号月星家居F4","type":"科教文化服务;博物馆;博物馆","typecode":140100,"pcode":310000,"pname":"上海市","citycode":21,"cityname":"上海市","adcode":310107,"adname":"普陀区","business_a":"光新","location":"121.445411,31.248478","tel":"[]","bigType":"科教文化服务","midType":"博物馆","smallType":"博物馆","gcj_lng":121.445411,"gcj_lat":31.248478,"wgs84_loc":"121.440807,31.250346","wgs84Lng":"121.440807","wgs84Lat":"31.250346","__source_file__":"13-常用公服设施点/SHP/上海市_博物馆.shp"},"geometry":{"type":"Point","coordinates":[121.440807,31.250346]}},{"id":"37","type":"Feature","properties":{"id":"B0FFK2VR4T","name":"上海造币博物馆(暂停营业)","address":"普陀区光复西路17号","type":"科教文化服务;博物馆;博物馆","typecode":140100,"pcode":310000,"pname":"上海市","citycode":21,"cityname":"上海市","adcode":310107,"adname":"普陀区","business_a":"光新","location":"121.436669,31.248827","tel":"021-52900000","bigType":"科教文化服务","midType":"博物馆","smallType":"博物馆","gcj_lng":121.436669,"gcj_lat":31.248827,"wgs84_loc":"121.432048,31.25068","wgs84Lng":"121.432048","wgs84Lat":"31.25068","__source_file__":"13-常用公服设施点/SHP/上海市_博物馆.shp"},"geometry":{"type":"Point","coordinates":[121.432048,31.25068]}},{"id":"281","type":"Feature","properties":{"id":"B0L6P7DJ3X","name":"藏今博谷水晶博物馆(装修中)","address":"大洋晶典·天安千树7层","type":"科教文化服务;博物馆;博物馆","typecode":140100,"pcode":310000,"pname":"上海市","citycode":21,"cityname":"上海市","adcode":310107,"adname":"普陀区","business_a":"光新","location":"121.445319,31.249015","tel":"[]","bigType":"科教文化服务","midType":"博物馆","smallType":"博物馆","gcj_lng":121.445319,"gcj_lat":31.249015,"wgs84_loc":"121.440715,31.250883","wgs84Lng":"121.440715","wgs84Lat":"31.250883","__source_file__":"13-常用公服设施点/SHP/上海市_博物馆.shp"},"geometry":{"type":"Point","coordinates":[121.440715,31.250883]}},{"id":"160","type":"Feature","properties":{"id":"B0FFMC8XI4","name":"上海飞佳文化传播有限公司","address":"张堰镇花贤路69","type":"科教文化服务;博物馆;博物馆","typecode":140100,"pcode":310000,"pname":"上海市","citycode":21,"cityname":"上海市","adcode":310107,"adname":"普陀区","business_a":"光新","location":"121.433830,31.253112","tel":"18950410400","bigType":"科教文化服务","midType":"博物馆","smallType":"博物馆","gcj_lng":121.43383,"gcj_lat":31.253112,"wgs84_loc":"121.429203,31.254959","wgs84Lng":"121.429203","wgs84Lat":"31.254959","__source_file__":"13-常用公服设施点/SHP/上海市_博物馆.shp"},"geometry":{"type":"Point","coordinates":[121.429203,31.254959]}},{"id":"36","type":"Feature","properties":{"id":"B00156R0WD","name":"上海元代水闸遗址博物馆(暂停营业)","address":"延长西路619","type":"科教文化服务;博物馆;博物馆","typecode":140100,"pcode":310000,"pname":"上海市","citycode":21,"cityname":"上海市","adcode":310107,"adname":"普陀区","business_a":"光新","location":"121.430361,31.259613","tel":"15214380020","bigType":"科教文化服务","midType":"博物馆","smallType":"博物馆","gcj_lng":121.430361,"gcj_lat":31.259613,"wgs84_loc":"121.425728,31.261453","wgs84Lng":"121.425728","wgs84Lat":"31.261453","__source_file__":"13-常用公服设施点/SHP/上海市_博物馆.shp"},"geometry":{"type":"Point","coordinates":[121.425728,31.261453]}},{"id":"152","type":"Feature","properties":{"id":"B001540296","name":"上海铁路博物馆","address":"天目东路200号","type":"科教文化服务;博物馆;博物馆","typecode":140100,"pcode":310000,"pname":"上海市","citycode":21,"cityname":"上海市","adcode":310106,"adname":"静安区","business_a":"宝山路","location":"121.476228,31.250035","tel":"021-51221987;021-51221130","bigType":"科教文化服务","midType":"博物馆","smallType":"博物馆","gcj_lng":121.476228,"gcj_lat":31.250035,"wgs84_loc":"121.471712,31.251975","wgs84Lng":"121.471712","wgs84Lat":"31.251975","__source_file__":"13-常用公服设施点/SHP/上海市_博物馆.shp"},"geometry":{"type":"Point","coordinates":[121.471712,31.251975]}},{"id":"151","type":"Feature","properties":{"id":"B001558654","name":"上海眼镜博物馆","address":"宝昌路533号","type":"科教文化服务;博物馆;博物馆","typecode":140100,"pcode":310000,"pname":"上海市","citycode":21,"cityname":"上海市","adcode":310106,"adname":"静安区","business_a":"和田","location":"121.472707,31.260081","tel":"021-56977528","bigType":"科教文化服务","midType":"博物馆","smallType":"博物馆","gcj_lng":121.472707,"gcj_lat":31.260081,"wgs84_loc":"121.468178,31.262007","wgs84Lng":"121.468178","wgs84Lat":"31.262007","__source_file__":"13-常用公服设施点/SHP/上海市_博物馆.shp"},"geometry":{"type":"Point","coordinates":[121.468178,31.262007]}},{"id":"203","type":"Feature","properties":{"id":"B0FFF9ZHTS","name":"上海制冷历史博物馆","address":"多伦路179号","type":"科教文化服务;博物馆;博物馆","typecode":140100,"pcode":310000,"pname":"上海市","citycode":21,"cityname":"上海市","adcode":310109,"adname":"虹口区","business_a":"宝山路","location":"121.481627,31.263302","tel":"[]","bigType":"科教文化服务","midType":"博物馆","smallType":"博物馆","gcj_lng":121.481627,"gcj_lat":31.263302,"wgs84_loc":"121.477128,31.265252","wgs84Lng":"121.477128","wgs84Lat":"31.265252","__source_file__":"13-常用公服设施点/SHP/上海市_博物馆.shp"},"geometry":{"type":"Point","coordinates":[121.477128,31.265252]}},{"id":"194","type":"Feature","properties":{"id":"B0FFF9ZHTG","name":"上海报纸博物馆","address":"多伦路179号","type":"科教文化服务;博物馆;博物馆","typecode":140100,"pcode":310000,"pname":"上海市","citycode":21,"cityname":"上海市","adcode":310109,"adname":"虹口区","business_a":"宝山路","location":"121.481707,31.263384","tel":"[]","bigType":"科教文化服务","midType":"博物馆","smallType":"博物馆","gcj_lng":121.481707,"gcj_lat":31.263384,"wgs84_loc":"121.477208,31.265334","wgs84Lng":"121.477208","wgs84Lat":"31.265334","__source_file__":"13-常用公服设施点/SHP/上海市_博物馆.shp"},"geometry":{"type":"Point","coordinates":[121.477208,31.265334]}},{"id":"216","type":"Feature","properties":{"id":"B0FFHSFUT2","name":"上海民间筷箸博物馆","address":"多伦路179号上海报纸博物馆附近","type":"科教文化服务;博物馆;博物馆","typecode":140100,"pcode":310000,"pname":"上海市","citycode":21,"cityname":"上海市","adcode":310109,"adname":"虹口区","business_a":"宝山路","location":"121.481654,31.263493","tel":"[]","bigType":"科教文化服务","midType":"博物馆","smallType":"博物馆","gcj_lng":121.481654,"gcj_lat":31.263493,"wgs84_loc":"121.477155,31.265443","wgs84Lng":"121.477155","wgs84Lat":"31.265443","__source_file__":"13-常用公服设施点/SHP/上海市_博物馆.shp"},"geometry":{"type":"Point","coordinates":[121.477155,31.265443]}},{"id":"256","type":"Feature","properties":{"id":"B0FFG549A5","name":"筷子博物馆","address":"多伦路191号","type":"科教文化服务;博物馆;博物馆","typecode":140100,"pcode":310000,"pname":"上海市","citycode":21,"cityname":"上海市","adcode":310109,"adname":"虹口区","business_a":"宝山路","location":"121.481670,31.263520","tel":"[]","bigType":"科教文化服务","midType":"博物馆","smallType":"博物馆","gcj_lng":121.48167,"gcj_lat":31.26352,"wgs84_loc":"121.477171,31.26547","wgs84Lng":"121.477171","wgs84Lat":"31.26547","__source_file__":"13-常用公服设施点/SHP/上海市_博物馆.shp"},"geometry":{"type":"Point","coordinates":[121.477171,31.26547]}},{"id":"257","type":"Feature","properties":{"id":"B0GDOHP7QZ","name":"鸣香荟人文空间","address":"多伦路215号鸣香荟人文空间","type":"科教文化服务;博物馆;博物馆","typecode":140100,"pcode":310000,"pname":"上海市","citycode":21,"cityname":"上海市","adcode":310109,"adname":"虹口区","business_a":"宝山路","location":"121.481567,31.263759","tel":"021-56626066;15800672566","bigType":"科教文化服务","midType":"博物馆","smallType":"博物馆","gcj_lng":121.481567,"gcj_lat":31.263759,"wgs84_loc":"121.477067,31.265708","wgs84Lng":"121.477067","wgs84Lat":"31.265708","__source_file__":"13-常用公服设施点/SHP/上海市_博物馆.shp"},"geometry":{"type":"Point","coordinates":[121.477067,31.265708]}}],"name":"上海市_博物馆","crs":{"type":"name","properties":{"name":"urn:ogc:def:crs:OGC:1.3:CRS84"}}}