{"type":"FeatureCollection","features":[{"id":"143","type":"Feature","properties":{"id":"B0HKUSUIAB","name":"FLUFFY(陕西南路店)","address":"陕西南路164号","type":"餐饮服务;休闲餐饮场所;休闲餐饮场所","typecode":"050400","pcode":310000,"pname":"上海市","citycode":21,"cityname":"上海市","adcode":310104,"adname":"徐汇区","business_a":"淮海路","location":"121.457566,31.219929","tel":"17721163464","bigType":"餐饮服务","midType":"休闲餐饮场所","smallType":"休闲餐饮场所","gcj_lng":121.457566,"gcj_lat":31.219929,"wgs84_loc":"121.452995,31.221835","wgs84Lng":"121.452995","wgs84Lat":"31.221835","__source_file__":"13-常用公服设施点/SHP/上海市_休闲餐饮场所.shp"},"geometry":{"type":"Point","coordinates":[121.452995,31.221835]}},{"id":"7","type":"Feature","properties":{"id":"B0FFG75HYP","name":"Egg","address":"襄阳北路12号","type":"餐饮服务;休闲餐饮场所;休闲餐饮场所","typecode":"050400","pcode":310000,"pname":"上海市","citycode":21,"cityname":"上海市","adcode":310106,"adname":"静安区","business_a":"淮海路","location":"121.454472,31.220031","tel":"[]","bigType":"餐饮服务","midType":"休闲餐饮场所","smallType":"休闲餐饮场所","gcj_lng":121.454472,"gcj_lat":31.220031,"wgs84_loc":"121.449893,31.22193","wgs84Lng":"121.449893","wgs84Lat":"31.22193","__source_file__":"13-常用公服设施点/SHP/上海市_休闲餐饮场所.shp"},"geometry":{"type":"Point","coordinates":[121.449893,31.22193]}},{"id":"43","type":"Feature","properties":{"id":"B0HKY5XODT","name":"Don Nino意式手工冰淇淋(新天地店)","address":"马当路159号101b","type":"餐饮服务;休闲餐饮场所;休闲餐饮场所","typecode":"050400","pcode":310000,"pname":"上海市","citycode":21,"cityname":"上海市","adcode":310101,"adname":"黄浦区","business_a":"新天地(自忠路)","location":"121.474481,31.220236","tel":"021-63330198","bigType":"餐饮服务","midType":"休闲餐饮场所","smallType":"休闲餐饮场所","gcj_lng":121.474481,"gcj_lat":31.220236,"wgs84_loc":"121.469961,31.222185","wgs84Lng":"121.469961","wgs84Lat":"31.222185","__source_file__":"13-常用公服设施点/SHP/上海市_休闲餐饮场所.shp"},"geometry":{"type":"Point","coordinates":[121.469961,31.222185]}},{"id":"56","type":"Feature","properties":{"id":"B0GKUDH9JI","name":"七町工坊(威海路店)","address":"威海路820号","type":"餐饮服务;休闲餐饮场所;休闲餐饮场所","typecode":"050400","pcode":310000,"pname":"上海市","citycode":21,"cityname":"上海市","adcode":310106,"adname":"静安区","business_a":"淮海路","location":"121.456306,31.225308","tel":"15912397597","bigType":"餐饮服务","midType":"休闲餐饮场所","smallType":"休闲餐饮场所","gcj_lng":121.456306,"gcj_lat":31.225308,"wgs84_loc":"121.451731,31.227209","wgs84Lng":"121.451731","wgs84Lat":"31.227209","__source_file__":"13-常用公服设施点/SHP/上海市_休闲餐饮场所.shp"},"geometry":{"type":"Point","coordinates":[121.451731,31.227209]}},{"id":"51","type":"Feature","properties":{"id":"B0FFFLIMQU","name":"奉贤庭","address":"奉贤路218号","type":"餐饮服务;休闲餐饮场所;休闲餐饮场所","typecode":"050400","pcode":310000,"pname":"上海市","citycode":21,"cityname":"上海市","adcode":310106,"adname":"静安区","business_a":"淮海路","location":"121.457459,31.230200","tel":"[]","bigType":"餐饮服务","midType":"休闲餐饮场所","smallType":"休闲餐饮场所","gcj_lng":121.457459,"gcj_lat":31.2302,"wgs84_loc":"121.452887,31.232101","wgs84Lng":"121.452887","wgs84Lat":"31.232101","__source_file__":"13-常用公服设施点/SHP/上海市_休闲餐饮场所.shp"},"geometry":{"type":"Point","coordinates":[121.452887,31.232101]}},{"id":"213","type":"Feature","properties":{"id":"B001579Y0H","name":"Irish Pub No.9","address":"上海闵行区九江路697号","type":"餐饮服务;休闲餐饮场所;休闲餐饮场所","typecode":"050400","pcode":310000,"pname":"上海市","citycode":21,"cityname":"上海市","adcode":310101,"adname":"黄浦区","business_a":"北京东路","location":"121.476954,31.233983","tel":"021-53520251","bigType":"餐饮服务","midType":"休闲餐饮场所","smallType":"休闲餐饮场所","gcj_lng":121.476954,"gcj_lat":31.233983,"wgs84_loc":"121.472441,31.235933","wgs84Lng":"121.472441","wgs84Lat":"31.235933","__source_file__":"13-常用公服设施点/SHP/上海市_休闲餐饮场所.shp"},"geometry":{"type":"Point","coordinates":[121.472441,31.235933]}},{"id":"53","type":"Feature","properties":{"id":"B0I63UWCMV","name":"青木桌游咖啡厅","address":"武定路327号申银转型大厦1号楼2805","type":"餐饮服务;休闲餐饮场所;休闲餐饮场所","typecode":"050400","pcode":310000,"pname":"上海市","citycode":21,"cityname":"上海市","adcode":310106,"adname":"静安区","business_a":"曹家渡","location":"121.454490,31.234570","tel":"18701953296","bigType":"餐饮服务","midType":"休闲餐饮场所","smallType":"休闲餐饮场所","gcj_lng":121.45449,"gcj_lat":31.23457,"wgs84_loc":"121.44991,31.236463","wgs84Lng":"121.44991","wgs84Lat":"31.236463","__source_file__":"13-常用公服设施点/SHP/上海市_休闲餐饮场所.shp"},"geometry":{"type":"Point","coordinates":[121.44991,31.236463]}},{"id":"0","type":"Feature","properties":{"id":"B0HD5NI08Z","name":"老虎堂TIGER SUGAR(世茂广场店)","address":"南京东路829号上海世茂广场东区L411-18","type":"餐饮服务;休闲餐饮场所;休闲餐饮场所","typecode":"050400","pcode":310000,"pname":"上海市","citycode":21,"cityname":"上海市","adcode":310101,"adname":"黄浦区","business_a":"北京东路","location":"121.475906,31.234739","tel":"13661655633","bigType":"餐饮服务","midType":"休闲餐饮场所","smallType":"休闲餐饮场所","gcj_lng":121.475906,"gcj_lat":31.234739,"wgs84_loc":"121.47139,31.236685","wgs84Lng":"121.47139","wgs84Lat":"31.236685","__source_file__":"13-常用公服设施点/SHP/上海市_休闲餐饮场所.shp"},"geometry":{"type":"Point","coordinates":[121.47139,31.236685]}},{"id":"205","type":"Feature","properties":{"id":"B0FFF004SE","name":"芝兰美","address":"九江路518号","type":"餐饮服务;休闲餐饮场所;休闲餐饮场所|餐饮服务;咖啡厅;咖啡厅","typecode":"050400|050500","pcode":310000,"pname":"上海市","citycode":21,"cityname":"上海市","adcode":310101,"adname":"黄浦区","business_a":"北京东路","location":"121.479185,31.235496","tel":"[]","bigType":"餐饮服务","midType":"休闲餐饮场所","smallType":"休闲餐饮场所|餐饮服务","gcj_lng":121.479185,"gcj_lat":31.235496,"wgs84_loc":"121.47468,31.237451","wgs84Lng":"121.47468","wgs84Lat":"31.237451","__source_file__":"13-常用公服设施点/SHP/上海市_休闲餐饮场所.shp"},"geometry":{"type":"Point","coordinates":[121.47468,31.237451]}},{"id":"1","type":"Feature","properties":{"id":"B0FFHUJDO1","name":"音乐串串","address":"六合路六合大厦","type":"餐饮服务;休闲餐饮场所;休闲餐饮场所","typecode":"050400","pcode":310000,"pname":"上海市","citycode":21,"cityname":"上海市","adcode":310101,"adname":"黄浦区","business_a":"北京东路","location":"121.474725,31.236973","tel":"021-51197388","bigType":"餐饮服务","midType":"休闲餐饮场所","smallType":"休闲餐饮场所","gcj_lng":121.474725,"gcj_lat":31.236973,"wgs84_loc":"121.470205,31.238915","wgs84Lng":"121.470205","wgs84Lat":"31.238915","__source_file__":"13-常用公服设施点/SHP/上海市_休闲餐饮场所.shp"},"geometry":{"type":"Point","coordinates":[121.470205,31.238915]}},{"id":"9","type":"Feature","properties":{"id":"B0FFLMGIYB","name":"T9Tea(芮欧百货)","address":"南京西路1601号芮欧百货1楼","type":"餐饮服务;休闲餐饮场所;休闲餐饮场所|餐饮服务;冷饮店;冷饮店","typecode":"050400|050700","pcode":310000,"pname":"上海市","citycode":21,"cityname":"上海市","adcode":310106,"adname":"静安区","business_a":"曹家渡","location":"121.447512,31.222940","tel":"13817945831","bigType":"餐饮服务","midType":"休闲餐饮场所","smallType":"休闲餐饮场所|餐饮服务","gcj_lng":121.447512,"gcj_lat":31.22294,"wgs84_loc":"121.442915,31.224824","wgs84Lng":"121.442915","wgs84Lat":"31.224824","__source_file__":"13-常用公服设施点/SHP/上海市_休闲餐饮场所.shp"},"geometry":{"type":"Point","coordinates":[121.442915,31.224824]}},{"id":"212","type":"Feature","properties":{"id":"B0FFH7SIAD","name":"羲和小馆(嘉里中心店)","address":"南京西路1515号嘉里中心北区B1-16室","type":"餐饮服务;休闲餐饮场所;休闲餐饮场所","typecode":"050400","pcode":310000,"pname":"上海市","citycode":21,"cityname":"上海市","adcode":310106,"adname":"静安区","business_a":"湖南路","location":"121.449528,31.223939","tel":"[]","bigType":"餐饮服务","midType":"休闲餐饮场所","smallType":"休闲餐饮场所","gcj_lng":121.449528,"gcj_lat":31.223939,"wgs84_loc":"121.444936,31.225826","wgs84Lng":"121.444936","wgs84Lat":"31.225826","__source_file__":"13-常用公服设施点/SHP/上海市_休闲餐饮场所.shp"},"geometry":{"type":"Point","coordinates":[121.444936,31.225826]}},{"id":"54","type":"Feature","properties":{"id":"B00156PWGE","name":"钨节路休闲餐厅","address":"新闸路1788号","type":"餐饮服务;休闲餐饮场所;休闲餐饮场所|餐饮服务;外国餐厅;外国餐厅","typecode":"050400|050200","pcode":310000,"pname":"上海市","citycode":21,"cityname":"上海市","adcode":310106,"adname":"静安区","business_a":"曹家渡","location":"121.443668,31.228201","tel":"021-62181792;021-32260722","bigType":"餐饮服务","midType":"休闲餐饮场所","smallType":"休闲餐饮场所|餐饮服务","gcj_lng":121.443668,"gcj_lat":31.228201,"wgs84_loc":"121.439062,31.230075","wgs84Lng":"121.439062","wgs84Lat":"31.230075","__source_file__":"13-常用公服设施点/SHP/上海市_休闲餐饮场所.shp"},"geometry":{"type":"Point","coordinates":[121.439062,31.230075]}},{"id":"236","type":"Feature","properties":{"id":"B00156PWGE","name":"钨节路休闲餐厅(胶州路274弄小区店)","address":"新闸路1788号1楼近胶州路","type":"餐饮服务;休闲餐饮场所;休闲餐饮场所|餐饮服务;外国餐厅;外国餐厅","typecode":"050400|050200","pcode":310000,"pname":"上海市","citycode":21,"cityname":"上海市","adcode":310106,"adname":"静安区","business_a":"[]","location":"121.443668,31.228201","tel":"021-62181765;021-62181792","bigType":"餐饮服务","midType":"休闲餐饮场所","smallType":"休闲餐饮场所|餐饮服务","gcj_lng":121.443668,"gcj_lat":31.228201,"wgs84_loc":"121.439062,31.230075","wgs84Lng":"121.439062","wgs84Lat":"31.230075","__source_file__":"13-常用公服设施点/SHP/上海市_休闲餐饮场所.shp"},"geometry":{"type":"Point","coordinates":[121.439062,31.230075]}},{"id":"8","type":"Feature","properties":{"id":"B0FFIXKVOY","name":"爱品FANCY","address":"江宁路445号时美大厦108室","type":"餐饮服务;休闲餐饮场所;休闲餐饮场所","typecode":"050400","pcode":310000,"pname":"上海市","citycode":21,"cityname":"上海市","adcode":310106,"adname":"静安区","business_a":"曹家渡","location":"121.451952,31.234568","tel":"18512118857;18516002699","bigType":"餐饮服务","midType":"休闲餐饮场所","smallType":"休闲餐饮场所","gcj_lng":121.451952,"gcj_lat":31.234568,"wgs84_loc":"121.447365,31.236455","wgs84Lng":"121.447365","wgs84Lat":"31.236455","__source_file__":"13-常用公服设施点/SHP/上海市_休闲餐饮场所.shp"},"geometry":{"type":"Point","coordinates":[121.447365,31.236455]}},{"id":"60","type":"Feature","properties":{"id":"B0FFH0U8AW","name":"老鼎丰冰棍&吉吉米上海著名小吃(亚新生活广场)(暂停营业)","address":"长寿路401号亚新生活广场1F层","type":"餐饮服务;休闲餐饮场所;休闲餐饮场所","typecode":"050400","pcode":310000,"pname":"上海市","citycode":21,"cityname":"上海市","adcode":310107,"adname":"普陀区","business_a":"曹家渡","location":"121.438160,31.238825","tel":"13611653395","bigType":"餐饮服务","midType":"休闲餐饮场所","smallType":"休闲餐饮场所","gcj_lng":121.43816,"gcj_lat":31.238825,"wgs84_loc":"121.433542,31.240685","wgs84Lng":"121.433542","wgs84Lat":"31.240685","__source_file__":"13-常用公服设施点/SHP/上海市_休闲餐饮场所.shp"},"geometry":{"type":"Point","coordinates":[121.433542,31.240685]}},{"id":"129","type":"Feature","properties":{"id":"B0FFGME3AT","name":"东方明珠巧克力吧","address":"世纪大道1号","type":"餐饮服务;休闲餐饮场所;休闲餐饮场所","typecode":"050400","pcode":310000,"pname":"上海市","citycode":21,"cityname":"上海市","adcode":310115,"adname":"浦东新区","business_a":"陆家嘴","location":"121.499750,31.239881","tel":"[]","bigType":"餐饮服务","midType":"休闲餐饮场所","smallType":"休闲餐饮场所","gcj_lng":121.49975,"gcj_lat":31.239881,"wgs84_loc":"121.495317,31.241895","wgs84Lng":"121.495317","wgs84Lat":"31.241895","__source_file__":"13-常用公服设施点/SHP/上海市_休闲餐饮场所.shp"},"geometry":{"type":"Point","coordinates":[121.495317,31.241895]}},{"id":"11","type":"Feature","properties":{"id":"B0IBORHR1G","name":"上海外滩茂悦大酒店餐厅","address":"黄浦路199号","type":"餐饮服务;休闲餐饮场所;休闲餐饮场所","typecode":"050400","pcode":310000,"pname":"上海市","citycode":21,"cityname":"上海市","adcode":310109,"adname":"虹口区","business_a":"提篮桥","location":"121.492944,31.245426","tel":"021-63931234","bigType":"餐饮服务","midType":"休闲餐饮场所","smallType":"休闲餐饮场所","gcj_lng":121.492944,"gcj_lat":31.245426,"wgs84_loc":"121.488486,31.247417","wgs84Lng":"121.488486","wgs84Lat":"31.247417","__source_file__":"13-常用公服设施点/SHP/上海市_休闲餐饮场所.shp"},"geometry":{"type":"Point","coordinates":[121.488486,31.247417]}},{"id":"10","type":"Feature","properties":{"id":"B0H2ZG95K7","name":"TPlus茶家(星荟中心店)","address":"天潼路328号星荟中心地下1层06-2","type":"餐饮服务;休闲餐饮场所;休闲餐饮场所","typecode":"050400","pcode":310000,"pname":"上海市","citycode":21,"cityname":"上海市","adcode":310109,"adname":"虹口区","business_a":"北外滩","location":"121.486657,31.245889","tel":"13818282736","bigType":"餐饮服务","midType":"休闲餐饮场所","smallType":"休闲餐饮场所","gcj_lng":121.486657,"gcj_lat":31.245889,"wgs84_loc":"121.482177,31.247861","wgs84Lng":"121.482177","wgs84Lat":"31.247861","__source_file__":"13-常用公服设施点/SHP/上海市_休闲餐饮场所.shp"},"geometry":{"type":"Point","coordinates":[121.482177,31.247861]}},{"id":"12","type":"Feature","properties":{"id":"B0FFMEW8AA","name":"避风塘(虹口海宁路店)","address":"海宁路350-358号国际商厦商务楼F1","type":"餐饮服务;休闲餐饮场所;休闲餐饮场所","typecode":"050400","pcode":310000,"pname":"上海市","citycode":21,"cityname":"上海市","adcode":310109,"adname":"虹口区","business_a":"七浦路","location":"121.485599,31.250581","tel":"[]","bigType":"餐饮服务","midType":"休闲餐饮场所","smallType":"休闲餐饮场所","gcj_lng":121.485599,"gcj_lat":31.250581,"wgs84_loc":"121.481115,31.252548","wgs84Lng":"121.481115","wgs84Lat":"31.252548","__source_file__":"13-常用公服设施点/SHP/上海市_休闲餐饮场所.shp"},"geometry":{"type":"Point","coordinates":[121.481115,31.252548]}},{"id":"215","type":"Feature","properties":{"id":"B0G3CY6IO7","name":"沐甘霖(武进路店)","address":"武进路289号","type":"餐饮服务;休闲餐饮场所;休闲餐饮场所|餐饮服务;冷饮店;冷饮店","typecode":"050400|050700","pcode":310000,"pname":"上海市","citycode":21,"cityname":"上海市","adcode":310109,"adname":"虹口区","business_a":"七浦路","location":"121.485438,31.251989","tel":"13621952546","bigType":"餐饮服务","midType":"休闲餐饮场所","smallType":"休闲餐饮场所|餐饮服务","gcj_lng":121.485438,"gcj_lat":31.251989,"wgs84_loc":"121.480953,31.253955","wgs84Lng":"121.480953","wgs84Lat":"31.253955","__source_file__":"13-常用公服设施点/SHP/上海市_休闲餐饮场所.shp"},"geometry":{"type":"Point","coordinates":[121.480953,31.253955]}},{"id":"219","type":"Feature","properties":{"id":"B001571QUQ","name":"音乐谷","address":"溧阳路649号三层","type":"餐饮服务;休闲餐饮场所;休闲餐饮场所","typecode":"050400","pcode":310000,"pname":"上海市","citycode":21,"cityname":"上海市","adcode":310109,"adname":"虹口区","business_a":"四平路","location":"121.490551,31.257232","tel":"[]","bigType":"餐饮服务","midType":"休闲餐饮场所","smallType":"休闲餐饮场所","gcj_lng":121.490551,"gcj_lat":31.257232,"wgs84_loc":"121.486083,31.25921","wgs84Lng":"121.486083","wgs84Lat":"31.25921","__source_file__":"13-常用公服设施点/SHP/上海市_休闲餐饮场所.shp"},"geometry":{"type":"Point","coordinates":[121.486083,31.25921]}},{"id":"59","type":"Feature","properties":{"id":"B0H2HBGET5","name":"秋满阿姨奶茶(亚新生活广场店)","address":"长寿路401号亚新广场,从新会路门进,最近","type":"餐饮服务;休闲餐饮场所;休闲餐饮场所","typecode":"050400","pcode":310000,"pname":"上海市","citycode":21,"cityname":"上海市","adcode":310107,"adname":"普陀区","business_a":"曹家渡","location":"121.437546,31.239155","tel":"18221469308","bigType":"餐饮服务","midType":"休闲餐饮场所","smallType":"休闲餐饮场所","gcj_lng":121.437546,"gcj_lat":31.239155,"wgs84_loc":"121.432927,31.241014","wgs84Lng":"121.432927","wgs84Lat":"31.241014","__source_file__":"13-常用公服设施点/SHP/上海市_休闲餐饮场所.shp"},"geometry":{"type":"Point","coordinates":[121.432927,31.241014]}},{"id":"83","type":"Feature","properties":{"id":"B0H0U6JRBA","name":"百分茶(上海CIFITOWER店)","address":"长寿路333号旭辉企业大厦第B2层B218号商铺","type":"餐饮服务;休闲餐饮场所;休闲餐饮场所","typecode":"050400","pcode":310000,"pname":"上海市","citycode":21,"cityname":"上海市","adcode":310107,"adname":"普陀区","business_a":"曹家渡","location":"121.438339,31.240442","tel":"13167664280","bigType":"餐饮服务","midType":"休闲餐饮场所","smallType":"休闲餐饮场所","gcj_lng":121.438339,"gcj_lat":31.240442,"wgs84_loc":"121.433721,31.242301","wgs84Lng":"121.433721","wgs84Lat":"31.242301","__source_file__":"13-常用公服设施点/SHP/上海市_休闲餐饮场所.shp"},"geometry":{"type":"Point","coordinates":[121.433721,31.242301]}},{"id":"50","type":"Feature","properties":{"id":"B0HB2DXBVZ","name":"茶百道(静安国际中心店)","address":"裕通路89号静安国际上午中心LG108","type":"餐饮服务;休闲餐饮场所;休闲餐饮场所","typecode":"050400","pcode":310000,"pname":"上海市","citycode":21,"cityname":"上海市","adcode":310106,"adname":"静安区","business_a":"[]","location":"121.453480,31.242801","tel":"17721348311","bigType":"餐饮服务","midType":"休闲餐饮场所","smallType":"休闲餐饮场所","gcj_lng":121.45348,"gcj_lat":31.242801,"wgs84_loc":"121.448896,31.244688","wgs84Lng":"121.448896","wgs84Lat":"31.244688","__source_file__":"13-常用公服设施点/SHP/上海市_休闲餐饮场所.shp"},"geometry":{"type":"Point","coordinates":[121.448896,31.244688]}},{"id":"57","type":"Feature","properties":{"id":"B0FFFLJ5CJ","name":"屋顶花园咖啡屋","address":"洛川中路1158号b3-211室","type":"餐饮服务;休闲餐饮场所;休闲餐饮场所","typecode":"050400","pcode":310000,"pname":"上海市","citycode":21,"cityname":"上海市","adcode":310106,"adname":"静安区","business_a":"和田","location":"121.448423,31.262790","tel":"[]","bigType":"餐饮服务","midType":"休闲餐饮场所","smallType":"休闲餐饮场所","gcj_lng":121.448423,"gcj_lat":31.26279,"wgs84_loc":"121.443825,31.264658","wgs84Lng":"121.443825","wgs84Lat":"31.264658","__source_file__":"13-常用公服设施点/SHP/上海市_休闲餐饮场所.shp"},"geometry":{"type":"Point","coordinates":[121.443825,31.264658]}},{"id":"218","type":"Feature","properties":{"id":"B0HGCHYIAW","name":"KOI The","address":"裕通路与恒丰路交叉口西南80米","type":"餐饮服务;休闲餐饮场所;休闲餐饮场所","typecode":"050400","pcode":310000,"pname":"上海市","citycode":21,"cityname":"上海市","adcode":310106,"adname":"静安区","business_a":"[]","location":"121.454051,31.243880","tel":"[]","bigType":"餐饮服务","midType":"休闲餐饮场所","smallType":"休闲餐饮场所","gcj_lng":121.454051,"gcj_lat":31.24388,"wgs84_loc":"121.449469,31.245768","wgs84Lng":"121.449469","wgs84Lat":"31.245768","__source_file__":"13-常用公服设施点/SHP/上海市_休闲餐饮场所.shp"},"geometry":{"type":"Point","coordinates":[121.449469,31.245768]}},{"id":"49","type":"Feature","properties":{"id":"B0H3TSFDD0","name":"TPlus茶家(企业中心店)","address":"梅园路277号102-2室","type":"餐饮服务;休闲餐饮场所;休闲餐饮场所","typecode":"050400","pcode":310000,"pname":"上海市","citycode":21,"cityname":"上海市","adcode":310106,"adname":"静安区","business_a":"[]","location":"121.457779,31.244801","tel":"13817485698","bigType":"餐饮服务","midType":"休闲餐饮场所","smallType":"休闲餐饮场所","gcj_lng":121.457779,"gcj_lat":31.244801,"wgs84_loc":"121.453207,31.246696","wgs84Lng":"121.453207","wgs84Lat":"31.246696","__source_file__":"13-常用公服设施点/SHP/上海市_休闲餐饮场所.shp"},"geometry":{"type":"Point","coordinates":[121.453207,31.246696]}},{"id":"52","type":"Feature","properties":{"id":"B0GK7C2T17","name":"不要对我尖叫·日常茶间(国际服饰城店)","address":"七浦路兴旺国际服饰城一楼m92号","type":"餐饮服务;休闲餐饮场所;休闲餐饮场所","typecode":"050400","pcode":310000,"pname":"上海市","citycode":21,"cityname":"上海市","adcode":310106,"adname":"静安区","business_a":"七浦路","location":"121.479172,31.244904","tel":"18321737284","bigType":"餐饮服务","midType":"休闲餐饮场所","smallType":"休闲餐饮场所","gcj_lng":121.479172,"gcj_lat":31.244904,"wgs84_loc":"121.474666,31.246855","wgs84Lng":"121.474666","wgs84Lat":"31.246855","__source_file__":"13-常用公服设施点/SHP/上海市_休闲餐饮场所.shp"},"geometry":{"type":"Point","coordinates":[121.474666,31.246855]}},{"id":"55","type":"Feature","properties":{"id":"B0H1TBGK6K","name":"沪上阿姨鲜果茶(上海平型关路大润发店)","address":"俞泾港路11号b1层18号","type":"餐饮服务;休闲餐饮场所;休闲餐饮场所","typecode":"050400","pcode":310000,"pname":"上海市","citycode":21,"cityname":"上海市","adcode":310106,"adname":"静安区","business_a":"和田","location":"121.466012,31.266410","tel":"15375217213","bigType":"餐饮服务","midType":"休闲餐饮场所","smallType":"休闲餐饮场所","gcj_lng":121.466012,"gcj_lat":31.26641,"wgs84_loc":"121.461462,31.268316","wgs84Lng":"121.461462","wgs84Lat":"31.268316","__source_file__":"13-常用公服设施点/SHP/上海市_休闲餐饮场所.shp"},"geometry":{"type":"Point","coordinates":[121.461462,31.268316]}}],"name":"上海市_休闲餐饮场所","crs":{"type":"name","properties":{"name":"urn:ogc:def:crs:OGC:1.3:CRS84"}}}