{"type":"FeatureCollection","features":[{"id":"60","type":"Feature","properties":{"id":"B00156ZJV0","name":"淮茂绿地","address":"茂名南路59-14号","type":"风景名胜;公园广场;城市广场","typecode":"110105","pcode":310000,"pname":"上海市","citycode":21,"cityname":"上海市","adcode":310101,"adname":"黄浦区","business_area":"淮海路","location":"121.460269,31.21846","tel":"[]","bigType":"风景名胜","midType":"公园广场","smallType":"城市广场","gcj_lng":121.460269,"gcj_lat":31.21846,"wgs84_loc":"121.455706,31.220373","wgs84Lng":121.455706,"wgs84Lat":31.220373,"__source_file__":"13-常用公服设施点/CSV/上海市_公园广场.csv"},"geometry":{"type":"Point","coordinates":[121.455706,31.220373]}},{"id":"1039","type":"Feature","properties":{"id":"B00155KJFX","name":"静安公园","address":"华山路189号","type":"风景名胜;公园广场;公园","typecode":"110101","pcode":310000,"pname":"上海市","citycode":21,"cityname":"上海市","adcode":310106,"adname":"静安区","business_area":"曹家渡","location":"121.446884,31.222011","tel":"021-62483238","bigType":"风景名胜","midType":"公园广场","smallType":"公园","gcj_lng":121.446884,"gcj_lat":31.222011,"wgs84_loc":"121.442286,31.223894","wgs84Lng":121.442286,"wgs84Lat":31.223894,"__source_file__":"13-常用公服设施点/CSV/上海市_公园广场.csv"},"geometry":{"type":"Point","coordinates":[121.442286,31.223894]}},{"id":"1250","type":"Feature","properties":{"id":"B00156GLN3","name":"静安公园-八景园","address":"南京西路1649号静安公园内","type":"风景名胜;公园广场;公园","typecode":"110101","pcode":310000,"pname":"上海市","citycode":21,"cityname":"上海市","adcode":310106,"adname":"静安区","business_area":"曹家渡","location":"121.447084,31.222267","tel":"[]","bigType":"风景名胜","midType":"公园广场","smallType":"公园","gcj_lng":121.447084,"gcj_lat":31.222267,"wgs84_loc":"121.442486,31.22415","wgs84Lng":121.442486,"wgs84Lat":31.22415,"__source_file__":"13-常用公服设施点/CSV/上海市_公园广场.csv"},"geometry":{"type":"Point","coordinates":[121.442486,31.22415]}},{"id":"154","type":"Feature","properties":{"id":"B0FFH2QQHR","name":"静安公园-静安寺广场","address":"南京西路1661号","type":"风景名胜;公园广场;城市广场","typecode":"110105","pcode":310000,"pname":"上海市","citycode":21,"cityname":"上海市","adcode":310106,"adname":"静安区","business_area":"曹家渡","location":"121.445991,31.222472","tel":"021-62483238","bigType":"风景名胜","midType":"公园广场","smallType":"城市广场","gcj_lng":121.445991,"gcj_lat":31.222472,"wgs84_loc":"121.441391,31.224353","wgs84Lng":121.441391,"wgs84Lat":31.224353,"__source_file__":"13-常用公服设施点/CSV/上海市_公园广场.csv"},"geometry":{"type":"Point","coordinates":[121.441391,31.224353]}},{"id":"158","type":"Feature","properties":{"id":"B0HGFK2OBC","name":"银杏广场","address":"南京西路1649号静安公园","type":"风景名胜;公园广场;城市广场","typecode":"110105","pcode":310000,"pname":"上海市","citycode":21,"cityname":"上海市","adcode":310106,"adname":"静安区","business_area":"湖南路","location":"121.446489,31.222996","tel":"[]","bigType":"风景名胜","midType":"公园广场","smallType":"城市广场","gcj_lng":121.446489,"gcj_lat":31.222996,"wgs84_loc":"121.44189,31.224878","wgs84Lng":121.44189,"wgs84Lat":31.224878,"__source_file__":"13-常用公服设施点/CSV/上海市_公园广场.csv"},"geometry":{"type":"Point","coordinates":[121.44189,31.224878]}},{"id":"1936","type":"Feature","properties":{"id":"B0KRVAL8GE","name":"银杏广场","address":"静安寺街道南京西路1699号","type":"风景名胜;公园广场;城市广场","typecode":"110105","pcode":310000,"pname":"上海市","citycode":21,"cityname":"上海市","adcode":310106,"adname":"静安区","business_area":"静安寺","location":"121.446489,31.222996","tel":"[]","bigType":"风景名胜","midType":"公园广场","smallType":"城市广场","gcj_lng":121.446489,"gcj_lat":31.222996,"wgs84_loc":"121.44189,31.224878","wgs84Lng":121.44189,"wgs84Lat":31.224878,"__source_file__":"13-常用公服设施点/CSV/上海市_公园广场.csv"},"geometry":{"type":"Point","coordinates":[121.44189,31.224878]}},{"id":"169","type":"Feature","properties":{"id":"B0FFF3S7IM","name":"上海展览中心-西南广场","address":"延安中路1000号","type":"风景名胜;公园广场;城市广场","typecode":"110105","pcode":310000,"pname":"上海市","citycode":21,"cityname":"上海市","adcode":310106,"adname":"静安区","business_area":"淮海路","location":"121.451660,31.223409","tel":"[]","bigType":"风景名胜","midType":"公园广场","smallType":"城市广场","gcj_lng":121.45166,"gcj_lat":31.223409,"wgs84_loc":"121.447073,31.225301","wgs84Lng":121.447073,"wgs84Lat":31.225301,"__source_file__":"13-常用公服设施点/CSV/上海市_公园广场.csv"},"geometry":{"type":"Point","coordinates":[121.447073,31.225301]}},{"id":"167","type":"Feature","properties":{"id":"B0FFFF878V","name":"上海展览中心-喷水池广场","address":"延安中路1000号","type":"风景名胜;公园广场;城市广场","typecode":"110105","pcode":310000,"pname":"上海市","citycode":21,"cityname":"上海市","adcode":310106,"adname":"静安区","business_area":"淮海路","location":"121.453190,31.223937","tel":"[]","bigType":"风景名胜","midType":"公园广场","smallType":"城市广场","gcj_lng":121.45319,"gcj_lat":31.223937,"wgs84_loc":"121.448607,31.225832","wgs84Lng":121.448607,"wgs84Lat":31.225832,"__source_file__":"13-常用公服设施点/CSV/上海市_公园广场.csv"},"geometry":{"type":"Point","coordinates":[121.448607,31.225832]}},{"id":"1253","type":"Feature","properties":{"id":"B00156NV7B","name":"静安职工世纪园","address":"延安中路866号","type":"风景名胜;公园广场;公园","typecode":"110101","pcode":310000,"pname":"上海市","citycode":21,"cityname":"上海市","adcode":310106,"adname":"静安区","business_area":"淮海路","location":"121.457312,31.224244","tel":"[]","bigType":"风景名胜","midType":"公园广场","smallType":"公园","gcj_lng":121.457312,"gcj_lat":31.224244,"wgs84_loc":"121.45274,31.226148","wgs84Lng":121.45274,"wgs84Lat":31.226148,"__source_file__":"13-常用公服设施点/CSV/上海市_公园广场.csv"},"geometry":{"type":"Point","coordinates":[121.45274,31.226148]}},{"id":"170","type":"Feature","properties":{"id":"B0FFIBQ5BA","name":"静安学习广场","address":"胶州路601-2号附近","type":"风景名胜;公园广场;城市广场","typecode":"110105","pcode":310000,"pname":"上海市","citycode":21,"cityname":"上海市","adcode":310106,"adname":"静安区","business_area":"曹家渡","location":"121.440797,31.233412","tel":"[]","bigType":"风景名胜","midType":"公园广场","smallType":"城市广场","gcj_lng":121.440797,"gcj_lat":31.233412,"wgs84_loc":"121.436185,31.235279","wgs84Lng":121.436185,"wgs84Lat":31.235279,"__source_file__":"13-常用公服设施点/CSV/上海市_公园广场.csv"},"geometry":{"type":"Point","coordinates":[121.436185,31.235279]}},{"id":"209","type":"Feature","properties":{"id":"B0HUV72BUL","name":"新会花园","address":"新会路延平路西北角","type":"风景名胜;公园广场;公园","typecode":"110101","pcode":310000,"pname":"上海市","citycode":21,"cityname":"上海市","adcode":310107,"adname":"普陀区","business_area":"曹家渡","location":"121.435960,31.236864","tel":"[]","bigType":"风景名胜","midType":"公园广场","smallType":"公园","gcj_lng":121.43596,"gcj_lat":31.236864,"wgs84_loc":"121.431338,31.238721","wgs84Lng":121.431338,"wgs84Lat":31.238721,"__source_file__":"13-常用公服设施点/CSV/上海市_公园广场.csv"},"geometry":{"type":"Point","coordinates":[121.431338,31.238721]}},{"id":"1239","type":"Feature","properties":{"id":"B0I65A494N","name":"音花园","address":"胶州路安远路路口","type":"风景名胜;公园广场;公园","typecode":"110101","pcode":310000,"pname":"上海市","citycode":21,"cityname":"上海市","adcode":310106,"adname":"静安区","business_area":"曹家渡","location":"121.438332,31.237016","tel":"[]","bigType":"风景名胜","midType":"公园广场","smallType":"公园","gcj_lng":121.438332,"gcj_lat":31.237016,"wgs84_loc":"121.433715,31.238877","wgs84Lng":121.433715,"wgs84Lat":31.238877,"__source_file__":"13-常用公服设施点/CSV/上海市_公园广场.csv"},"geometry":{"type":"Point","coordinates":[121.433715,31.238877]}},{"id":"1242","type":"Feature","properties":{"id":"B0I6X5CVP7","name":"威海路花园","address":"威海路陕西北路路口","type":"风景名胜;公园广场;公园","typecode":"110101","pcode":310000,"pname":"上海市","citycode":21,"cityname":"上海市","adcode":310106,"adname":"静安区","business_area":"淮海路","location":"121.456634,31.225708","tel":"[]","bigType":"风景名胜","midType":"公园广场","smallType":"公园","gcj_lng":121.456634,"gcj_lat":31.225708,"wgs84_loc":"121.45206,31.22761","wgs84Lng":121.45206,"wgs84Lat":31.22761,"__source_file__":"13-常用公服设施点/CSV/上海市_公园广场.csv"},"geometry":{"type":"Point","coordinates":[121.45206,31.22761]}},{"id":"1227","type":"Feature","properties":{"id":"B00155KLL0","name":"上海玫瑰花园","address":"南京西路1398号","type":"风景名胜;公园广场;公园","typecode":"110101","pcode":310000,"pname":"上海市","citycode":21,"cityname":"上海市","adcode":310106,"adname":"静安区","business_area":"淮海路","location":"121.451057,31.226198","tel":"[]","bigType":"风景名胜","midType":"公园广场","smallType":"公园","gcj_lng":121.451057,"gcj_lat":31.226198,"wgs84_loc":"121.446469,31.228087","wgs84Lng":121.446469,"wgs84Lat":31.228087,"__source_file__":"13-常用公服设施点/CSV/上海市_公园广场.csv"},"geometry":{"type":"Point","coordinates":[121.446469,31.228087]}},{"id":"165","type":"Feature","properties":{"id":"B0FFFF2QPX","name":"上海展览中心-东北广场","address":"[]","type":"风景名胜;公园广场;城市广场","typecode":"110105","pcode":310000,"pname":"上海市","citycode":21,"cityname":"上海市","adcode":310106,"adname":"静安区","business_area":"曹家渡","location":"121.453210,31.226440","tel":"[]","bigType":"风景名胜","midType":"公园广场","smallType":"城市广场","gcj_lng":121.45321,"gcj_lat":31.22644,"wgs84_loc":"121.448627,31.228334","wgs84Lng":121.448627,"wgs84Lat":31.228334,"__source_file__":"13-常用公服设施点/CSV/上海市_公园广场.csv"},"geometry":{"type":"Point","coordinates":[121.448627,31.228334]}},{"id":"1246","type":"Feature","properties":{"id":"B0FFG1AJK5","name":"北京西路与常德路口公园","address":"常德路371号","type":"风景名胜;公园广场;公园","typecode":"110101","pcode":310000,"pname":"上海市","citycode":21,"cityname":"上海市","adcode":310106,"adname":"静安区","business_area":"曹家渡","location":"121.446796,31.227518","tel":"[]","bigType":"风景名胜","midType":"公园广场","smallType":"公园","gcj_lng":121.446796,"gcj_lat":31.227518,"wgs84_loc":"121.442197,31.229398","wgs84Lng":121.442197,"wgs84Lat":31.229398,"__source_file__":"13-常用公服设施点/CSV/上海市_公园广场.csv"},"geometry":{"type":"Point","coordinates":[121.442197,31.229398]}},{"id":"4","type":"Feature","properties":{"id":"B0JKO5HRRN","name":"辞书出版社旧址花园","address":"北京西路和陕西路路口","type":"风景名胜;公园广场;公园","typecode":"110101","pcode":310000,"pname":"上海市","citycode":21,"cityname":"上海市","adcode":310106,"adname":"静安区","business_area":"淮海路","location":"121.453069,31.229704","tel":"[]","bigType":"风景名胜","midType":"公园广场","smallType":"公园","gcj_lng":121.453069,"gcj_lat":31.229704,"wgs84_loc":"121.448485,31.231596","wgs84Lng":121.448485,"wgs84Lat":31.231596,"__source_file__":"13-常用公服设施点/CSV/上海市_公园广场.csv"},"geometry":{"type":"Point","coordinates":[121.448485,31.231596]}},{"id":"1225","type":"Feature","properties":{"id":"B00155L4P0","name":"西康公园","address":"西康路255-1号","type":"风景名胜;公园广场;公园","typecode":"110101","pcode":310000,"pname":"上海市","citycode":21,"cityname":"上海市","adcode":310106,"adname":"静安区","business_area":"曹家渡","location":"121.449832,31.230134","tel":"[]","bigType":"风景名胜","midType":"公园广场","smallType":"公园","gcj_lng":121.449832,"gcj_lat":31.230134,"wgs84_loc":"121.44524,31.232019","wgs84Lng":121.44524,"wgs84Lat":31.232019,"__source_file__":"13-常用公服设施点/CSV/上海市_公园广场.csv"},"geometry":{"type":"Point","coordinates":[121.44524,31.232019]}},{"id":"156","type":"Feature","properties":{"id":"B0HB3C9PJJ","name":"112人民广场","address":"石门一路德义大楼南侧约30米","type":"风景名胜;公园广场;城市广场","typecode":"110105","pcode":310000,"pname":"上海市","citycode":21,"cityname":"上海市","adcode":310106,"adname":"静安区","business_area":"淮海路","location":"121.461914,31.230724","tel":"[]","bigType":"风景名胜","midType":"公园广场","smallType":"城市广场","gcj_lng":121.461914,"gcj_lat":31.230724,"wgs84_loc":"121.457355,31.232636","wgs84Lng":121.457355,"wgs84Lat":31.232636,"__source_file__":"13-常用公服设施点/CSV/上海市_公园广场.csv"},"geometry":{"type":"Point","coordinates":[121.457355,31.232636]}},{"id":"1241","type":"Feature","properties":{"id":"B0I6X5CVQO","name":"同福花园","address":"石门一路和南京西路交叉路口西南角","type":"风景名胜;公园广场;公园","typecode":"110101","pcode":310000,"pname":"上海市","citycode":21,"cityname":"上海市","adcode":310106,"adname":"静安区","business_area":"淮海路","location":"121.461412,31.230761","tel":"[]","bigType":"风景名胜","midType":"公园广场","smallType":"公园","gcj_lng":121.461412,"gcj_lat":31.230761,"wgs84_loc":"121.456851,31.232671","wgs84Lng":121.456851,"wgs84Lat":31.232671,"__source_file__":"13-常用公服设施点/CSV/上海市_公园广场.csv"},"geometry":{"type":"Point","coordinates":[121.456851,31.232671]}},{"id":"1238","type":"Feature","properties":{"id":"B0I65AC8XA","name":"昌新花园","address":"新闸路与昌化路交叉口西北角","type":"风景名胜;公园广场;公园","typecode":"110101","pcode":310000,"pname":"上海市","citycode":21,"cityname":"上海市","adcode":310106,"adname":"静安区","business_area":"曹家渡","location":"121.455342,31.233276","tel":"[]","bigType":"风景名胜","midType":"公园广场","smallType":"公园","gcj_lng":121.455342,"gcj_lat":31.233276,"wgs84_loc":"121.450764,31.235171","wgs84Lng":121.450764,"wgs84Lat":31.235171,"__source_file__":"13-常用公服设施点/CSV/上海市_公园广场.csv"},"geometry":{"type":"Point","coordinates":[121.450764,31.235171]}},{"id":"1937","type":"Feature","properties":{"id":"B0GKYXMLGB","name":"恒龙广场","address":"江宁路街道江宁路495号博鸿大厦","type":"风景名胜;公园广场;城市广场","typecode":"110105","pcode":310000,"pname":"上海市","citycode":21,"cityname":"上海市","adcode":310106,"adname":"静安区","business_area":"[]","location":"121.451560,31.235132","tel":"[]","bigType":"风景名胜","midType":"公园广场","smallType":"城市广场","gcj_lng":121.45156,"gcj_lat":31.235132,"wgs84_loc":"121.446972,31.237018","wgs84Lng":121.446972,"wgs84Lat":31.237018,"__source_file__":"13-常用公服设施点/CSV/上海市_公园广场.csv"},"geometry":{"type":"Point","coordinates":[121.446972,31.237018]}},{"id":"1210","type":"Feature","properties":{"id":"B0FFFWV2PZ","name":"五卅广场","address":"南京西路292号附近","type":"风景名胜;公园广场;城市广场","typecode":"110105","pcode":310000,"pname":"上海市","citycode":21,"cityname":"上海市","adcode":310101,"adname":"黄浦区","business_area":"北京东路","location":"121.473120,31.233809","tel":"[]","bigType":"风景名胜","midType":"公园广场","smallType":"城市广场","gcj_lng":121.47312,"gcj_lat":31.233809,"wgs84_loc":"121.468595,31.235748","wgs84Lng":121.468595,"wgs84Lat":31.235748,"__source_file__":"13-常用公服设施点/CSV/上海市_公园广场.csv"},"geometry":{"type":"Point","coordinates":[121.468595,31.235748]}},{"id":"36","type":"Feature","properties":{"id":"B00156ZKAP","name":"上海人民广场下沉式广场","address":"南京西路19号","type":"风景名胜;公园广场;城市广场","typecode":"110105","pcode":310000,"pname":"上海市","citycode":21,"cityname":"上海市","adcode":310101,"adname":"黄浦区","business_area":"北京东路","location":"121.473561,31.233944","tel":"[]","bigType":"风景名胜","midType":"公园广场","smallType":"城市广场","gcj_lng":121.473561,"gcj_lat":31.233944,"wgs84_loc":"121.469037,31.235884","wgs84Lng":121.469037,"wgs84Lat":31.235884,"__source_file__":"13-常用公服设施点/CSV/上海市_公园广场.csv"},"geometry":{"type":"Point","coordinates":[121.469037,31.235884]}},{"id":"1041","type":"Feature","properties":{"id":"B00155KKCG","name":"静安雕塑公园","address":"北京西路500号","type":"风景名胜;公园广场;公园","typecode":"110101","pcode":310000,"pname":"上海市","citycode":21,"cityname":"上海市","adcode":310106,"adname":"静安区","business_area":"淮海路","location":"121.463871,31.234819","tel":"021-52289562","bigType":"风景名胜","midType":"公园广场","smallType":"公园","gcj_lng":121.463871,"gcj_lat":31.234819,"wgs84_loc":"121.459317,31.236734","wgs84Lng":121.459317,"wgs84Lat":31.236734,"__source_file__":"13-常用公服设施点/CSV/上海市_公园广场.csv"},"geometry":{"type":"Point","coordinates":[121.459317,31.236734]}},{"id":"1926","type":"Feature","properties":{"id":"B0KUFC90X2","name":"黄浦区人民广场","address":"上海市南京东路街道黄河路与牯岭路交叉口西南20米","type":"风景名胜;公园广场;城市广场","typecode":"110105","pcode":310000,"pname":"上海市","citycode":21,"cityname":"上海市","adcode":310101,"adname":"黄浦区","business_area":"北京路","location":"121.469905,31.235517","tel":"[]","bigType":"风景名胜","midType":"公园广场","smallType":"城市广场","gcj_lng":121.469905,"gcj_lat":31.235517,"wgs84_loc":"121.465369,31.237447","wgs84Lng":121.465369,"wgs84Lat":31.237447,"__source_file__":"13-常用公服设施点/CSV/上海市_公园广场.csv"},"geometry":{"type":"Point","coordinates":[121.465369,31.237447]}},{"id":"1181","type":"Feature","properties":{"id":"B00155LVZ1","name":"大观园绿地","address":"南京东路","type":"风景名胜;公园广场;公园","typecode":"110101","pcode":310000,"pname":"上海市","citycode":21,"cityname":"上海市","adcode":310101,"adname":"黄浦区","business_area":"北京东路","location":"121.47212,31.237649","tel":"[]","bigType":"风景名胜","midType":"公园广场","smallType":"公园","gcj_lng":121.47212,"gcj_lat":31.237649,"wgs84_loc":"121.467591,31.239584","wgs84Lng":121.467591,"wgs84Lat":31.239584,"__source_file__":"13-常用公服设施点/CSV/上海市_公园广场.csv"},"geometry":{"type":"Point","coordinates":[121.467591,31.239584]}},{"id":"1040","type":"Feature","properties":{"id":"B0H2VUUU2S","name":"静安区双拥公园","address":"国庆路与晋元路交叉口西南约120米","type":"风景名胜;公园广场;公园","typecode":"110101","pcode":310000,"pname":"上海市","citycode":21,"cityname":"上海市","adcode":310106,"adname":"静安区","business_area":"北京东路","location":"121.469192,31.239917","tel":"[]","bigType":"风景名胜","midType":"公园广场","smallType":"公园","gcj_lng":121.469192,"gcj_lat":31.239917,"wgs84_loc":"121.464654,31.241843","wgs84Lng":121.464654,"wgs84Lat":31.241843,"__source_file__":"13-常用公服设施点/CSV/上海市_公园广场.csv"},"geometry":{"type":"Point","coordinates":[121.464654,31.241843]}},{"id":"151","type":"Feature","properties":{"id":"B0FFGBI0T4","name":"上海四行仓库抗战纪念地晋元纪念广场","address":"国庆路与晋元路交叉口东南50米","type":"风景名胜;公园广场;城市广场","typecode":"110105","pcode":310000,"pname":"上海市","citycode":21,"cityname":"上海市","adcode":310106,"adname":"静安区","business_area":"北京东路","location":"121.470476,31.240141","tel":"[]","bigType":"风景名胜","midType":"公园广场","smallType":"城市广场","gcj_lng":121.470476,"gcj_lat":31.240141,"wgs84_loc":"121.465942,31.24207","wgs84Lng":121.465942,"wgs84Lat":31.24207,"__source_file__":"13-常用公服设施点/CSV/上海市_公园广场.csv"},"geometry":{"type":"Point","coordinates":[121.465942,31.24207]}},{"id":"1174","type":"Feature","properties":{"id":"B00155L4QM","name":"九子公园","address":"成都北路1018号","type":"风景名胜;公园广场;公园","typecode":"110101","pcode":310000,"pname":"上海市","citycode":21,"cityname":"上海市","adcode":310101,"adname":"黄浦区","business_area":"北京东路","location":"121.464043,31.240519","tel":"[]","bigType":"风景名胜","midType":"公园广场","smallType":"公园","gcj_lng":121.464043,"gcj_lat":31.240519,"wgs84_loc":"121.459489,31.242431","wgs84Lng":121.459489,"wgs84Lat":31.242431,"__source_file__":"13-常用公服设施点/CSV/上海市_公园广场.csv"},"geometry":{"type":"Point","coordinates":[121.459489,31.242431]}},{"id":"164","type":"Feature","properties":{"id":"B0FFG95PZ4","name":"交通公园-中轴广场","address":"新马路262交通公园附近","type":"风景名胜;公园广场;城市广场","typecode":"110105","pcode":310000,"pname":"上海市","citycode":21,"cityname":"上海市","adcode":310106,"adname":"静安区","business_area":"宝山路","location":"121.467280,31.247410","tel":"[]","bigType":"风景名胜","midType":"公园广场","smallType":"城市广场","gcj_lng":121.46728,"gcj_lat":31.24741,"wgs84_loc":"121.462735,31.249328","wgs84Lng":121.462735,"wgs84Lat":31.249328,"__source_file__":"13-常用公服设施点/CSV/上海市_公园广场.csv"},"geometry":{"type":"Point","coordinates":[121.462735,31.249328]}},{"id":"1044","type":"Feature","properties":{"id":"B00155L41W","name":"交通公园","address":"新马路262","type":"风景名胜;公园广场;公园","typecode":"110101","pcode":310000,"pname":"上海市","citycode":21,"cityname":"上海市","adcode":310106,"adname":"静安区","business_area":"宝山路","location":"121.467432,31.247475","tel":"[]","bigType":"风景名胜","midType":"公园广场","smallType":"公园","gcj_lng":121.467432,"gcj_lat":31.247475,"wgs84_loc":"121.462888,31.249393","wgs84Lng":121.462888,"wgs84Lat":31.249393,"__source_file__":"13-常用公服设施点/CSV/上海市_公园广场.csv"},"geometry":{"type":"Point","coordinates":[121.462888,31.249393]}},{"id":"168","type":"Feature","properties":{"id":"B0FFM9F6BU","name":"恒龙广场","address":"江宁路街道江宁路495号博鸿大厦","type":"风景名胜;公园广场;城市广场","typecode":"110105","pcode":310000,"pname":"上海市","citycode":21,"cityname":"上海市","adcode":310106,"adname":"静安区","business_area":"曹家渡","location":"121.451560,31.235132","tel":"[]","bigType":"风景名胜","midType":"公园广场","smallType":"城市广场","gcj_lng":121.45156,"gcj_lat":31.235132,"wgs84_loc":"121.446972,31.237018","wgs84Lng":121.446972,"wgs84Lat":31.237018,"__source_file__":"13-常用公服设施点/CSV/上海市_公园广场.csv"},"geometry":{"type":"Point","coordinates":[121.446972,31.237018]}},{"id":"1228","type":"Feature","properties":{"id":"B00155KJKK","name":"蝴蝶湾花园","address":"康定东路50号","type":"风景名胜;公园广场;公园","typecode":"110101","pcode":310000,"pname":"上海市","citycode":21,"cityname":"上海市","adcode":310106,"adname":"静安区","business_area":"[]","location":"121.456649,31.237714","tel":"[]","bigType":"风景名胜","midType":"公园广场","smallType":"公园","gcj_lng":121.456649,"gcj_lat":31.237714,"wgs84_loc":"121.452074,31.23961","wgs84Lng":121.452074,"wgs84Lat":31.23961,"__source_file__":"13-常用公服设施点/CSV/上海市_公园广场.csv"},"geometry":{"type":"Point","coordinates":[121.452074,31.23961]}},{"id":"159","type":"Feature","properties":{"id":"B0FFL5BVXA","name":"世纪盛荟广场(新闸路西斯文项目)","address":"新闸路532号(大田路交叉口)中国建筑西斯文里项目部","type":"风景名胜;公园广场;城市广场","typecode":"110105","pcode":310000,"pname":"上海市","citycode":21,"cityname":"上海市","adcode":310106,"adname":"静安区","business_area":"[]","location":"121.461173,31.237851","tel":"[]","bigType":"风景名胜","midType":"公园广场","smallType":"城市广场","gcj_lng":121.461173,"gcj_lat":31.237851,"wgs84_loc":"121.456611,31.239758","wgs84Lng":121.456611,"wgs84Lat":31.239758,"__source_file__":"13-常用公服设施点/CSV/上海市_公园广场.csv"},"geometry":{"type":"Point","coordinates":[121.456611,31.239758]}},{"id":"1887","type":"Feature","properties":{"id":"B0IKVHF7IA","name":"知秋园","address":"光复路与梅园路交叉口西北角","type":"风景名胜;公园广场;公园","typecode":"110101","pcode":310000,"pname":"上海市","citycode":21,"cityname":"上海市","adcode":310106,"adname":"静安区","business_area":"[]","location":"121.460633,31.240857","tel":"[]","bigType":"风景名胜","midType":"公园广场","smallType":"公园","gcj_lng":121.460633,"gcj_lat":31.240857,"wgs84_loc":"121.456069,31.242761","wgs84Lng":121.456069,"wgs84Lat":31.242761,"__source_file__":"13-常用公服设施点/CSV/上海市_公园广场.csv"},"geometry":{"type":"Point","coordinates":[121.456069,31.242761]}},{"id":"155","type":"Feature","properties":{"id":"B0HUJS0EBE","name":"法治文化广场","address":"恒丰路299号","type":"风景名胜;公园广场;城市广场","typecode":"110105","pcode":310000,"pname":"上海市","citycode":21,"cityname":"上海市","adcode":310106,"adname":"静安区","business_area":"[]","location":"121.457080,31.242303","tel":"[]","bigType":"风景名胜","midType":"公园广场","smallType":"城市广场","gcj_lng":121.45708,"gcj_lat":31.242303,"wgs84_loc":"121.452506,31.244198","wgs84Lng":121.452506,"wgs84Lat":31.244198,"__source_file__":"13-常用公服设施点/CSV/上海市_公园广场.csv"},"geometry":{"type":"Point","coordinates":[121.452506,31.244198]}},{"id":"166","type":"Feature","properties":{"id":"B0FFGMXTXA","name":"上海青年国际交流广场","address":"汉中路188号上海市青少年活动中心","type":"风景名胜;公园广场;城市广场","typecode":"110105","pcode":310000,"pname":"上海市","citycode":21,"cityname":"上海市","adcode":310106,"adname":"静安区","business_area":"[]","location":"121.457380,31.242307","tel":"[]","bigType":"风景名胜","midType":"公园广场","smallType":"城市广场","gcj_lng":121.45738,"gcj_lat":31.242307,"wgs84_loc":"121.452807,31.244203","wgs84Lng":121.452807,"wgs84Lat":31.244203,"__source_file__":"13-常用公服设施点/CSV/上海市_公园广场.csv"},"geometry":{"type":"Point","coordinates":[121.452807,31.244203]}},{"id":"1235","type":"Feature","properties":{"id":"B0FFG3WFLY","name":"不夜城公园","address":"华盛路213号","type":"风景名胜;公园广场;公园","typecode":"110101","pcode":310000,"pname":"上海市","citycode":21,"cityname":"上海市","adcode":310106,"adname":"静安区","business_area":"[]","location":"121.461040,31.244630","tel":"021-63818861","bigType":"风景名胜","midType":"公园广场","smallType":"公园","gcj_lng":121.46104,"gcj_lat":31.24463,"wgs84_loc":"121.456477,31.246533","wgs84Lng":121.456477,"wgs84Lat":31.246533,"__source_file__":"13-常用公服设施点/CSV/上海市_公园广场.csv"},"geometry":{"type":"Point","coordinates":[121.456477,31.246533]}},{"id":"1221","type":"Feature","properties":{"id":"B00155G6EO","name":"不夜城绿地","address":"华盛路213号","type":"风景名胜;公园广场;公园","typecode":"110101","pcode":310000,"pname":"上海市","citycode":21,"cityname":"上海市","adcode":310106,"adname":"静安区","business_area":"[]","location":"121.460644,31.244666","tel":"021-63818861","bigType":"风景名胜","midType":"公园广场","smallType":"公园","gcj_lng":121.460644,"gcj_lat":31.244666,"wgs84_loc":"121.45608,31.246568","wgs84Lng":121.45608,"wgs84Lat":31.246568,"__source_file__":"13-常用公服设施点/CSV/上海市_公园广场.csv"},"geometry":{"type":"Point","coordinates":[121.45608,31.246568]}},{"id":"161","type":"Feature","properties":{"id":"B00155HMKD","name":"上海白玉兰人口文化广场","address":"天目西路307号","type":"风景名胜;公园广场;城市广场","typecode":"110105","pcode":310000,"pname":"上海市","citycode":21,"cityname":"上海市","adcode":310106,"adname":"静安区","business_area":"[]","location":"121.454181,31.246761","tel":"[]","bigType":"风景名胜","midType":"公园广场","smallType":"城市广场","gcj_lng":121.454181,"gcj_lat":31.246761,"wgs84_loc":"121.449599,31.248648","wgs84Lng":121.449599,"wgs84Lat":31.248648,"__source_file__":"13-常用公服设施点/CSV/上海市_公园广场.csv"},"geometry":{"type":"Point","coordinates":[121.449599,31.248648]}},{"id":"152","type":"Feature","properties":{"id":"B00155R1E2","name":"上海站南广场","address":"秣陵路303号","type":"风景名胜;公园广场;城市广场","typecode":"110105","pcode":310000,"pname":"上海市","citycode":21,"cityname":"上海市","adcode":310106,"adname":"静安区","business_area":"[]","location":"121.454556,31.247982","tel":"[]","bigType":"风景名胜","midType":"公园广场","smallType":"城市广场","gcj_lng":121.454556,"gcj_lat":31.247982,"wgs84_loc":"121.449975,31.249869","wgs84Lng":121.449975,"wgs84Lat":31.249869,"__source_file__":"13-常用公服设施点/CSV/上海市_公园广场.csv"},"geometry":{"type":"Point","coordinates":[121.449975,31.249869]}},{"id":"183","type":"Feature","properties":{"id":"B00155L3XR","name":"长寿健康主题公园","address":"长寿路260号","type":"风景名胜;公园广场;公园","typecode":"110101","pcode":310000,"pname":"上海市","citycode":21,"cityname":"上海市","adcode":310107,"adname":"普陀区","business_area":"光新","location":"121.439499,31.243418","tel":"021-52521386","bigType":"风景名胜","midType":"公园广场","smallType":"公园","gcj_lng":121.439499,"gcj_lat":31.243418,"wgs84_loc":"121.434883,31.245278","wgs84Lng":121.434883,"wgs84Lat":31.245278,"__source_file__":"13-常用公服设施点/CSV/上海市_公园广场.csv"},"geometry":{"type":"Point","coordinates":[121.434883,31.245278]}},{"id":"186","type":"Feature","properties":{"id":"B00155L3XH","name":"普陀公园","address":"光复西路255号门卫","type":"风景名胜;公园广场;公园","typecode":"110101","pcode":310000,"pname":"上海市","citycode":21,"cityname":"上海市","adcode":310107,"adname":"普陀区","business_area":"光新","location":"121.42763,31.244708","tel":"[]","bigType":"风景名胜","midType":"公园广场","smallType":"公园","gcj_lng":121.42763,"gcj_lat":31.244708,"wgs84_loc":"121.422995,31.246551","wgs84Lng":121.422995,"wgs84Lat":31.246551,"__source_file__":"13-常用公服设施点/CSV/上海市_公园广场.csv"},"geometry":{"type":"Point","coordinates":[121.422995,31.246551]}},{"id":"238","type":"Feature","properties":{"id":"B0FFF50VL9","name":"城市广场","address":"陕西北路1789弄","type":"风景名胜;公园广场;城市广场","typecode":"110105","pcode":310000,"pname":"上海市","citycode":21,"cityname":"上海市","adcode":310107,"adname":"普陀区","business_area":"光新","location":"121.438721,31.245110","tel":"[]","bigType":"风景名胜","midType":"公园广场","smallType":"城市广场","gcj_lng":121.438721,"gcj_lat":31.24511,"wgs84_loc":"121.434104,31.246968","wgs84Lng":121.434104,"wgs84Lat":31.246968,"__source_file__":"13-常用公服设施点/CSV/上海市_公园广场.csv"},"geometry":{"type":"Point","coordinates":[121.434104,31.246968]}},{"id":"196","type":"Feature","properties":{"id":"B00155MVET","name":"龙柏园","address":"石泉路","type":"风景名胜;公园广场;公园广场","typecode":"110100","pcode":310000,"pname":"上海市","citycode":21,"cityname":"上海市","adcode":310107,"adname":"普陀区","business_area":"光新","location":"121.427013,31.249699","tel":"[]","bigType":"风景名胜","midType":"公园广场","smallType":"公园广场","gcj_lng":121.427013,"gcj_lat":31.249699,"wgs84_loc":"121.422376,31.251539","wgs84Lng":121.422376,"wgs84Lat":31.251539,"__source_file__":"13-常用公服设施点/CSV/上海市_公园广场.csv"},"geometry":{"type":"Point","coordinates":[121.422376,31.251539]}},{"id":"206","type":"Feature","properties":{"id":"B0FFK6U0TQ","name":"梦清园人工湿地","address":"宜昌路与江宁路辅路交叉口东北约140米","type":"风景名胜;公园广场;公园","typecode":"110101","pcode":310000,"pname":"上海市","citycode":21,"cityname":"上海市","adcode":310107,"adname":"普陀区","business_area":"光新","location":"121.439830,31.250030","tel":"[]","bigType":"风景名胜","midType":"公园广场","smallType":"公园","gcj_lng":121.43983,"gcj_lat":31.25003,"wgs84_loc":"121.435215,31.251887","wgs84Lng":121.435215,"wgs84Lat":31.251887,"__source_file__":"13-常用公服设施点/CSV/上海市_公园广场.csv"},"geometry":{"type":"Point","coordinates":[121.435215,31.251887]}},{"id":"1891","type":"Feature","properties":{"id":"B0I1YM595N","name":"明珠园","address":"中山北路与光新路交叉口东南角","type":"风景名胜;公园广场;公园","typecode":"110101","pcode":310000,"pname":"上海市","citycode":21,"cityname":"上海市","adcode":310107,"adname":"普陀区","business_area":"光新","location":"121.433238,31.250129","tel":"[]","bigType":"风景名胜","midType":"公园广场","smallType":"公园","gcj_lng":121.433238,"gcj_lat":31.250129,"wgs84_loc":"121.428611,31.251976","wgs84Lng":121.428611,"wgs84Lat":31.251976,"__source_file__":"13-常用公服设施点/CSV/上海市_公园广场.csv"},"geometry":{"type":"Point","coordinates":[121.428611,31.251976]}},{"id":"197","type":"Feature","properties":{"id":"B00155L315","name":"苏州河梦清园环保主题公园","address":"宜昌路66号","type":"风景名胜;公园广场;公园","typecode":"110101","pcode":310000,"pname":"上海市","citycode":21,"cityname":"上海市","adcode":310107,"adname":"普陀区","business_area":"光新","location":"121.440449,31.250655","tel":"021-62778770","bigType":"风景名胜","midType":"公园广场","smallType":"公园","gcj_lng":121.440449,"gcj_lat":31.250655,"wgs84_loc":"121.435835,31.252513","wgs84Lng":121.435835,"wgs84Lat":31.252513,"__source_file__":"13-常用公服设施点/CSV/上海市_公园广场.csv"},"geometry":{"type":"Point","coordinates":[121.435835,31.252513]}},{"id":"235","type":"Feature","properties":{"id":"B0FFKGZ03S","name":"建民绿地公园-入口广场","address":"中山北路香溢花城东侧约70米","type":"风景名胜;公园广场;城市广场","typecode":"110105","pcode":310000,"pname":"上海市","citycode":21,"cityname":"上海市","adcode":310107,"adname":"普陀区","business_area":"大宁路","location":"121.438412,31.255428","tel":"[]","bigType":"风景名胜","midType":"公园广场","smallType":"城市广场","gcj_lng":121.438412,"gcj_lat":31.255428,"wgs84_loc":"121.433793,31.257281","wgs84Lng":121.433793,"wgs84Lat":31.257281,"__source_file__":"13-常用公服设施点/CSV/上海市_公园广场.csv"},"geometry":{"type":"Point","coordinates":[121.433793,31.257281]}},{"id":"225","type":"Feature","properties":{"id":"B0FFJN6V7W","name":"建民绿地公园(暂停营业)","address":"交通路79号靠近中潭路地铁站","type":"风景名胜;公园广场;公园广场","typecode":"110100","pcode":310000,"pname":"上海市","citycode":21,"cityname":"上海市","adcode":310107,"adname":"普陀区","business_area":"大宁路","location":"121.437949,31.255848","tel":"[]","bigType":"风景名胜","midType":"公园广场","smallType":"公园广场","gcj_lng":121.437949,"gcj_lat":31.255848,"wgs84_loc":"121.433329,31.2577","wgs84Lng":121.433329,"wgs84Lat":31.2577,"__source_file__":"13-常用公服设施点/CSV/上海市_公园广场.csv"},"geometry":{"type":"Point","coordinates":[121.433329,31.2577]}},{"id":"236","type":"Feature","properties":{"id":"B0FFKHJN8N","name":"建民绿地公园-休息广场","address":"交通路香溢花城东侧","type":"风景名胜;公园广场;城市广场","typecode":"110105","pcode":310000,"pname":"上海市","citycode":21,"cityname":"上海市","adcode":310107,"adname":"普陀区","business_area":"大宁路","location":"121.436760,31.256243","tel":"[]","bigType":"风景名胜","midType":"公园广场","smallType":"城市广场","gcj_lng":121.43676,"gcj_lat":31.256243,"wgs84_loc":"121.432138,31.258093","wgs84Lng":121.432138,"wgs84Lat":31.258093,"__source_file__":"13-常用公服设施点/CSV/上海市_公园广场.csv"},"geometry":{"type":"Point","coordinates":[121.432138,31.258093]}},{"id":"202","type":"Feature","properties":{"id":"B0FFGCSE91","name":"台商主题公园","address":"澳门路60附近","type":"风景名胜;公园广场;公园","typecode":"110101","pcode":310000,"pname":"上海市","citycode":21,"cityname":"上海市","adcode":310107,"adname":"普陀区","business_area":"光新","location":"121.449072,31.248107","tel":"[]","bigType":"风景名胜","midType":"公园广场","smallType":"公园","gcj_lng":121.449072,"gcj_lat":31.248107,"wgs84_loc":"121.444477,31.249982","wgs84Lng":121.444477,"wgs84Lat":31.249982,"__source_file__":"13-常用公服设施点/CSV/上海市_公园广场.csv"},"geometry":{"type":"Point","coordinates":[121.444477,31.249982]}},{"id":"153","type":"Feature","properties":{"id":"B00155FO3H","name":"上海站北广场","address":"中兴路1688号","type":"风景名胜;公园广场;城市广场","typecode":"110105","pcode":310000,"pname":"上海市","citycode":21,"cityname":"上海市","adcode":310106,"adname":"静安区","business_area":"和田","location":"121.456759,31.251491","tel":"[]","bigType":"风景名胜","midType":"公园广场","smallType":"城市广场","gcj_lng":121.456759,"gcj_lat":31.251491,"wgs84_loc":"121.452183,31.253381","wgs84Lng":121.452183,"wgs84Lat":31.253381,"__source_file__":"13-常用公服设施点/CSV/上海市_公园广场.csv"},"geometry":{"type":"Point","coordinates":[121.452183,31.253381]}},{"id":"160","type":"Feature","properties":{"id":"B00155MPZB","name":"萨克斯广场","address":"洛川中路1158号","type":"风景名胜;公园广场;城市广场","typecode":"110105","pcode":310000,"pname":"上海市","citycode":21,"cityname":"上海市","adcode":310106,"adname":"静安区","business_area":"大宁路","location":"121.448222,31.26332","tel":"[]","bigType":"风景名胜","midType":"公园广场","smallType":"城市广场","gcj_lng":121.448222,"gcj_lat":31.26332,"wgs84_loc":"121.443624,31.265187","wgs84Lng":121.443624,"wgs84Lat":31.265187,"__source_file__":"13-常用公服设施点/CSV/上海市_公园广场.csv"},"geometry":{"type":"Point","coordinates":[121.443624,31.265187]}},{"id":"1042","type":"Feature","properties":{"id":"B00154DWCM","name":"闸北公园","address":"共和新路1555号(近洛川东路)","type":"风景名胜;公园广场;公园","typecode":"110101","pcode":310000,"pname":"上海市","citycode":21,"cityname":"上海市","adcode":310106,"adname":"静安区","business_area":"和田","location":"121.459973,31.270552","tel":"[]","bigType":"风景名胜","midType":"公园广场","smallType":"公园","gcj_lng":121.459973,"gcj_lat":31.270552,"wgs84_loc":"121.455405,31.272441","wgs84Lng":121.455405,"wgs84Lat":31.272441,"__source_file__":"13-常用公服设施点/CSV/上海市_公园广场.csv"},"geometry":{"type":"Point","coordinates":[121.455405,31.272441]}},{"id":"1045","type":"Feature","properties":{"id":"B0H1KS1JFX","name":"泰山二村家风家训主题文化广场","address":"骊山路与华阴路交汇处东侧泰山二村小区","type":"风景名胜;公园广场;城市广场","typecode":"110105","pcode":310000,"pname":"上海市","citycode":21,"cityname":"上海市","adcode":310107,"adname":"普陀区","business_area":"光新","location":"121.445336,31.259552","tel":"[]","bigType":"风景名胜","midType":"公园广场","smallType":"城市广场","gcj_lng":121.445336,"gcj_lat":31.259552,"wgs84_loc":"121.440731,31.261415","wgs84Lng":121.440731,"wgs84Lat":31.261415,"__source_file__":"13-常用公服设施点/CSV/上海市_公园广场.csv"},"geometry":{"type":"Point","coordinates":[121.440731,31.261415]}},{"id":"224","type":"Feature","properties":{"id":"B0FFJY5BWE","name":"宜川科普人文广场","address":"宜川路99号","type":"风景名胜;公园广场;城市广场","typecode":"110105","pcode":310000,"pname":"上海市","citycode":21,"cityname":"上海市","adcode":310107,"adname":"普陀区","business_area":"大宁路","location":"121.440161,31.259764","tel":"[]","bigType":"风景名胜","midType":"公园广场","smallType":"城市广场","gcj_lng":121.440161,"gcj_lat":31.259764,"wgs84_loc":"121.435545,31.261618","wgs84Lng":121.435545,"wgs84Lat":31.261618,"__source_file__":"13-常用公服设施点/CSV/上海市_公园广场.csv"},"geometry":{"type":"Point","coordinates":[121.435545,31.261618]}},{"id":"192","type":"Feature","properties":{"id":"B00155L2RU","name":"宜川公园","address":"宜川路99号(近洛川路)","type":"风景名胜;公园广场;公园","typecode":"110101","pcode":310000,"pname":"上海市","citycode":21,"cityname":"上海市","adcode":310107,"adname":"普陀区","business_area":"大宁路","location":"121.440873,31.260321","tel":"[]","bigType":"风景名胜","midType":"公园广场","smallType":"公园","gcj_lng":121.440873,"gcj_lat":31.260321,"wgs84_loc":"121.436259,31.262176","wgs84Lng":121.436259,"wgs84Lat":31.262176,"__source_file__":"13-常用公服设施点/CSV/上海市_公园广场.csv"},"geometry":{"type":"Point","coordinates":[121.436259,31.262176]}},{"id":"237","type":"Feature","properties":{"id":"B0FFF00L7R","name":"百姓广场","address":"延长西路章家巷小区","type":"风景名胜;公园广场;城市广场","typecode":"110105","pcode":310000,"pname":"上海市","citycode":21,"cityname":"上海市","adcode":310107,"adname":"普陀区","business_area":"大宁路","location":"121.433305,31.260862","tel":"[]","bigType":"风景名胜","midType":"公园广场","smallType":"城市广场","gcj_lng":121.433305,"gcj_lat":31.260862,"wgs84_loc":"121.428677,31.262705","wgs84Lng":121.428677,"wgs84Lat":31.262705,"__source_file__":"13-常用公服设施点/CSV/上海市_公园广场.csv"},"geometry":{"type":"Point","coordinates":[121.428677,31.262705]}},{"id":"229","type":"Feature","properties":{"id":"B0G0ASSI7G","name":"天韵文化广场","address":"宜川路宜川一村小区西侧","type":"风景名胜;公园广场;城市广场","typecode":"110105","pcode":310000,"pname":"上海市","citycode":21,"cityname":"上海市","adcode":310107,"adname":"普陀区","business_area":"大宁路","location":"121.438279,31.261946","tel":"[]","bigType":"风景名胜","midType":"公园广场","smallType":"城市广场","gcj_lng":121.438279,"gcj_lat":31.261946,"wgs84_loc":"121.433659,31.263796","wgs84Lng":121.433659,"wgs84Lat":31.263796,"__source_file__":"13-常用公服设施点/CSV/上海市_公园广场.csv"},"geometry":{"type":"Point","coordinates":[121.433659,31.263796]}},{"id":"184","type":"Feature","properties":{"id":"B00155L2PU","name":"沪太公园","address":"新村路37号(近沪太路)","type":"风景名胜;公园广场;公园","typecode":"110101","pcode":310000,"pname":"上海市","citycode":21,"cityname":"上海市","adcode":310107,"adname":"普陀区","business_area":"大宁路","location":"121.439357,31.268068","tel":"[]","bigType":"风景名胜","midType":"公园广场","smallType":"公园","gcj_lng":121.439357,"gcj_lat":31.268068,"wgs84_loc":"121.434739,31.269917","wgs84Lng":121.434739,"wgs84Lat":31.269917,"__source_file__":"13-常用公服设施点/CSV/上海市_公园广场.csv"},"geometry":{"type":"Point","coordinates":[121.434739,31.269917]}},{"id":"1233","type":"Feature","properties":{"id":"B0FFFVJZUW","name":"中兴公园","address":"中华新路396号","type":"风景名胜;公园广场;公园","typecode":"110101","pcode":310000,"pname":"上海市","citycode":21,"cityname":"上海市","adcode":310106,"adname":"静安区","business_area":"宝山路","location":"121.469926,31.254712","tel":"[]","bigType":"风景名胜","midType":"公园广场","smallType":"公园","gcj_lng":121.469926,"gcj_lat":31.254712,"wgs84_loc":"121.465389,31.256633","wgs84Lng":121.465389,"wgs84Lat":31.256633,"__source_file__":"13-常用公服设施点/CSV/上海市_公园广场.csv"},"geometry":{"type":"Point","coordinates":[121.465389,31.256633]}},{"id":"1223","type":"Feature","properties":{"id":"B00155HE4L","name":"芷江绿地","address":"共和新路736号近芷江西路","type":"风景名胜;公园广场;公园","typecode":"110101","pcode":310000,"pname":"上海市","citycode":21,"cityname":"上海市","adcode":310106,"adname":"静安区","business_area":"和田","location":"121.463181,31.255865","tel":"[]","bigType":"风景名胜","midType":"公园广场","smallType":"公园","gcj_lng":121.463181,"gcj_lat":31.255865,"wgs84_loc":"121.458623,31.257768","wgs84Lng":121.458623,"wgs84Lat":31.257768,"__source_file__":"13-常用公服设施点/CSV/上海市_公园广场.csv"},"geometry":{"type":"Point","coordinates":[121.458623,31.257768]}},{"id":"172","type":"Feature","properties":{"id":"B0FFF001QT","name":"休闲街","address":"洛川东路东150米","type":"风景名胜;公园广场;公园广场","typecode":"110100","pcode":310000,"pname":"上海市","citycode":21,"cityname":"上海市","adcode":310106,"adname":"静安区","business_area":"和田","location":"121.462971,31.269322","tel":"[]","bigType":"风景名胜","midType":"公园广场","smallType":"公园广场","gcj_lng":121.462971,"gcj_lat":31.269322,"wgs84_loc":"121.458411,31.271219","wgs84Lng":121.458411,"wgs84Lat":31.271219,"__source_file__":"13-常用公服设施点/CSV/上海市_公园广场.csv"},"geometry":{"type":"Point","coordinates":[121.458411,31.271219]}},{"id":"1991","type":"Feature","properties":{"id":"B0JKDM684G","name":"口袋体育公园","address":"广中路街道花园城2期3期与虹口德必运动LOFT交汇处","type":"风景名胜;公园广场;公园","typecode":"110101","pcode":310000,"pname":"上海市","citycode":21,"cityname":"上海市","adcode":310109,"adname":"虹口区","business_area":"和田","location":"121.473441,31.271509","tel":"[]","bigType":"风景名胜","midType":"公园广场","smallType":"公园","gcj_lng":121.473441,"gcj_lat":31.271509,"wgs84_loc":"121.468914,31.273432","wgs84Lng":121.468914,"wgs84Lat":31.273432,"__source_file__":"13-常用公服设施点/CSV/上海市_公园广场.csv"},"geometry":{"type":"Point","coordinates":[121.468914,31.273432]}},{"id":"59","type":"Feature","properties":{"id":"B0FFF00I7R","name":"春广场","address":"复兴中路516复兴公园","type":"风景名胜;公园广场;城市广场","typecode":"110105","pcode":310000,"pname":"上海市","citycode":21,"cityname":"上海市","adcode":310101,"adname":"黄浦区","business_area":"淮海路","location":"121.468328,31.217795","tel":"[]","bigType":"风景名胜","midType":"公园广场","smallType":"城市广场","gcj_lng":121.468328,"gcj_lat":31.217795,"wgs84_loc":"121.463789,31.219729","wgs84Lng":121.463789,"wgs84Lat":31.219729,"__source_file__":"13-常用公服设施点/CSV/上海市_公园广场.csv"},"geometry":{"type":"Point","coordinates":[121.463789,31.219729]}},{"id":"1203","type":"Feature","properties":{"id":"B0H3SAL232","name":"卷卷动物园","address":"自忠路448号2层（近卢湾三中心小学，近新天地地铁站6号口）","type":"风景名胜;公园广场;动物园","typecode":"110102","pcode":310000,"pname":"上海市","citycode":21,"cityname":"上海市","adcode":310101,"adname":"黄浦区","business_area":"淮海路","location":"121.471968,31.217847","tel":"15000879067","bigType":"风景名胜","midType":"公园广场","smallType":"动物园","gcj_lng":121.471968,"gcj_lat":31.217847,"wgs84_loc":"121.46744,31.21979","wgs84Lng":121.46744,"wgs84Lat":31.21979,"__source_file__":"13-常用公服设施点/CSV/上海市_公园广场.csv"},"geometry":{"type":"Point","coordinates":[121.46744,31.21979]}},{"id":"1175","type":"Feature","properties":{"id":"B00154DOCH","name":"玉兰园","address":"瑞金二路","type":"风景名胜;公园广场;公园","typecode":"110101","pcode":310000,"pname":"上海市","citycode":21,"cityname":"上海市","adcode":310101,"adname":"黄浦区","business_area":"淮海路","location":"121.471009,31.218565","tel":"[]","bigType":"风景名胜","midType":"公园广场","smallType":"公园","gcj_lng":121.471009,"gcj_lat":31.218565,"wgs84_loc":"121.466478,31.220506","wgs84Lng":121.466478,"wgs84Lat":31.220506,"__source_file__":"13-常用公服设施点/CSV/上海市_公园广场.csv"},"geometry":{"type":"Point","coordinates":[121.466478,31.220506]}},{"id":"44","type":"Feature","properties":{"id":"B0FFMEB28G","name":"锦江·渔阳里广场","address":"淮海中路527号","type":"风景名胜;公园广场;城市广场","typecode":"110105","pcode":310000,"pname":"上海市","citycode":21,"cityname":"上海市","adcode":310101,"adname":"黄浦区","business_area":"淮海路","location":"121.468422,31.220523","tel":"021-63330266","bigType":"风景名胜","midType":"公园广场","smallType":"城市广场","gcj_lng":121.468422,"gcj_lat":31.220523,"wgs84_loc":"121.463883,31.222456","wgs84Lng":121.463883,"wgs84Lat":31.222456,"__source_file__":"13-常用公服设施点/CSV/上海市_公园广场.csv"},"geometry":{"type":"Point","coordinates":[121.463883,31.222456]}},{"id":"1208","type":"Feature","properties":{"id":"B00155ILXP","name":"延中公园","address":"巨鹿路成都南路口","type":"风景名胜;公园广场;公园","typecode":"110101","pcode":310000,"pname":"上海市","citycode":21,"cityname":"上海市","adcode":310101,"adname":"黄浦区","business_area":"淮海路","location":"121.467044,31.222477","tel":"[]","bigType":"风景名胜","midType":"公园广场","smallType":"公园","gcj_lng":121.467044,"gcj_lat":31.222477,"wgs84_loc":"121.462501,31.224405","wgs84Lng":121.462501,"wgs84Lat":31.224405,"__source_file__":"13-常用公服设施点/CSV/上海市_公园广场.csv"},"geometry":{"type":"Point","coordinates":[121.462501,31.224405]}},{"id":"38","type":"Feature","properties":{"id":"B0FFFZSAKN","name":"冬园","address":"雁荡路99号","type":"风景名胜;公园广场;城市广场|风景名胜;风景名胜;风景名胜","typecode":"110105|110200","pcode":310000,"pname":"上海市","citycode":21,"cityname":"上海市","adcode":310101,"adname":"黄浦区","business_area":"淮海路","location":"121.468762,31.222707","tel":"[]","bigType":"风景名胜","midType":"公园广场","smallType":"城市广场|风景名胜","gcj_lng":121.468762,"gcj_lat":31.222707,"wgs84_loc":"121.464224,31.22464","wgs84Lng":121.464224,"wgs84Lat":31.22464,"__source_file__":"13-常用公服设施点/CSV/上海市_公园广场.csv"},"geometry":{"type":"Point","coordinates":[121.464224,31.22464]}},{"id":"39","type":"Feature","properties":{"id":"B0FFL8GNXN","name":"新天地-下沉式广场","address":"淮海中路瑞安广场","type":"风景名胜;公园广场;城市广场","typecode":"110105","pcode":310000,"pname":"上海市","citycode":21,"cityname":"上海市","adcode":310101,"adname":"黄浦区","business_area":"淮海路","location":"121.473805,31.222733","tel":"[]","bigType":"风景名胜","midType":"公园广场","smallType":"城市广场","gcj_lng":121.473805,"gcj_lat":31.222733,"wgs84_loc":"121.469283,31.224679","wgs84Lng":121.469283,"wgs84Lat":31.224679,"__source_file__":"13-常用公服设施点/CSV/上海市_公园广场.csv"},"geometry":{"type":"Point","coordinates":[121.469283,31.224679]}},{"id":"1201","type":"Feature","properties":{"id":"B0FFFE9NR4","name":"东园-夏园","address":"成都南路长乐路路口感觉园内","type":"风景名胜;公园广场;水族馆","typecode":"110104","pcode":310000,"pname":"上海市","citycode":21,"cityname":"上海市","adcode":310101,"adname":"黄浦区","business_area":"淮海路","location":"121.469330,31.223173","tel":"[]","bigType":"风景名胜","midType":"公园广场","smallType":"水族馆","gcj_lng":121.46933,"gcj_lat":31.223173,"wgs84_loc":"121.464794,31.225107","wgs84Lng":121.464794,"wgs84Lat":31.225107,"__source_file__":"13-常用公服设施点/CSV/上海市_公园广场.csv"},"geometry":{"type":"Point","coordinates":[121.464794,31.225107]}},{"id":"1189","type":"Feature","properties":{"id":"B00156TH4Z","name":"延中广场公园春之园","address":"巨鹿路与瑞金一路交叉口东北角","type":"风景名胜;公园广场;公园","typecode":"110101","pcode":310000,"pname":"上海市","citycode":21,"cityname":"上海市","adcode":310101,"adname":"黄浦区","business_area":"淮海路","location":"121.465133,31.22322","tel":"[]","bigType":"风景名胜","midType":"公园广场","smallType":"公园","gcj_lng":121.465133,"gcj_lat":31.22322,"wgs84_loc":"121.460584,31.225143","wgs84Lng":121.460584,"wgs84Lat":31.225143,"__source_file__":"13-常用公服设施点/CSV/上海市_公园广场.csv"},"geometry":{"type":"Point","coordinates":[121.460584,31.225143]}},{"id":"1204","type":"Feature","properties":{"id":"B00155KKE6","name":"广场公园","address":"金陵中路与黄陂南路交叉口","type":"风景名胜;公园广场;公园","typecode":"110101","pcode":310000,"pname":"上海市","citycode":21,"cityname":"上海市","adcode":310101,"adname":"黄浦区","business_area":"北京东路","location":"121.471724,31.224492","tel":"[]","bigType":"风景名胜","midType":"公园广场","smallType":"公园","gcj_lng":121.471724,"gcj_lat":31.224492,"wgs84_loc":"121.467195,31.226432","wgs84Lng":121.467195,"wgs84Lat":31.226432,"__source_file__":"13-常用公服设施点/CSV/上海市_公园广场.csv"},"geometry":{"type":"Point","coordinates":[121.467195,31.226432]}},{"id":"1178","type":"Feature","properties":{"id":"B00150C70A","name":"太平桥公园","address":"淮海中路","type":"风景名胜;公园广场;公园","typecode":"110101","pcode":310000,"pname":"上海市","citycode":21,"cityname":"上海市","adcode":310101,"adname":"黄浦区","business_area":"淮海路","location":"121.476886,31.219671","tel":"[]","bigType":"风景名胜","midType":"公园广场","smallType":"公园","gcj_lng":121.476886,"gcj_lat":31.219671,"wgs84_loc":"121.472374,31.221627","wgs84Lng":121.472374,"wgs84Lat":31.221627,"__source_file__":"13-常用公服设施点/CSV/上海市_公园广场.csv"},"geometry":{"type":"Point","coordinates":[121.472374,31.221627]}},{"id":"1184","type":"Feature","properties":{"id":"B0FFH83WJN","name":"新天地太平湖","address":"湖滨路168号","type":"风景名胜;公园广场;公园","typecode":"110101","pcode":310000,"pname":"上海市","citycode":21,"cityname":"上海市","adcode":310101,"adname":"黄浦区","business_area":"淮海路","location":"121.477885,31.219851","tel":"[]","bigType":"风景名胜","midType":"公园广场","smallType":"公园","gcj_lng":121.477885,"gcj_lat":31.219851,"wgs84_loc":"121.473377,31.22181","wgs84Lng":121.473377,"wgs84Lat":31.22181,"__source_file__":"13-常用公服设施点/CSV/上海市_公园广场.csv"},"geometry":{"type":"Point","coordinates":[121.473377,31.22181]}},{"id":"41","type":"Feature","properties":{"id":"B0HD6SBAAC","name":"中共一大纪念馆国旗广场","address":"黄陂南路与湖滨路交叉口","type":"风景名胜;公园广场;城市广场","typecode":"110105","pcode":310000,"pname":"上海市","citycode":21,"cityname":"上海市","adcode":310101,"adname":"黄浦区","business_area":"淮海路","location":"121.476246,31.220104","tel":"[]","bigType":"风景名胜","midType":"公园广场","smallType":"城市广场","gcj_lng":121.476246,"gcj_lat":31.220104,"wgs84_loc":"121.471732,31.222058","wgs84Lng":121.471732,"wgs84Lat":31.222058,"__source_file__":"13-常用公服设施点/CSV/上海市_公园广场.csv"},"geometry":{"type":"Point","coordinates":[121.471732,31.222058]}},{"id":"1171","type":"Feature","properties":{"id":"B00155KIAS","name":"淮海公园","address":"太仓路56号","type":"风景名胜;公园广场;公园","typecode":"110101","pcode":310000,"pname":"上海市","citycode":21,"cityname":"上海市","adcode":310101,"adname":"黄浦区","business_area":"淮海路","location":"121.477564,31.223054","tel":"021-63866377","bigType":"风景名胜","midType":"公园广场","smallType":"公园","gcj_lng":121.477564,"gcj_lat":31.223054,"wgs84_loc":"121.473054,31.22501","wgs84Lng":121.473054,"wgs84Lat":31.22501,"__source_file__":"13-常用公服设施点/CSV/上海市_公园广场.csv"},"geometry":{"type":"Point","coordinates":[121.473054,31.22501]}},{"id":"43","type":"Feature","properties":{"id":"B0FFMGZCB3","name":"八宝广场","address":"淮海中路222号八宝广场","type":"风景名胜;公园广场;城市广场","typecode":"110105","pcode":310000,"pname":"上海市","citycode":21,"cityname":"上海市","adcode":310101,"adname":"黄浦区","business_area":"北京东路","location":"121.475908,31.224217","tel":"[]","bigType":"风景名胜","midType":"公园广场","smallType":"城市广场","gcj_lng":121.475908,"gcj_lat":31.224217,"wgs84_loc":"121.471393,31.226168","wgs84Lng":121.471393,"wgs84Lat":31.226168,"__source_file__":"13-常用公服设施点/CSV/上海市_公园广场.csv"},"geometry":{"type":"Point","coordinates":[121.471393,31.226168]}},{"id":"1186","type":"Feature","properties":{"id":"B0FFG188OL","name":"延中广场公园","address":"延安东路附近","type":"风景名胜;公园广场;公园","typecode":"110101","pcode":310000,"pname":"上海市","citycode":21,"cityname":"上海市","adcode":310101,"adname":"黄浦区","business_area":"北京东路","location":"121.47509,31.225549","tel":"[]","bigType":"风景名胜","midType":"公园广场","smallType":"公园","gcj_lng":121.47509,"gcj_lat":31.225549,"wgs84_loc":"121.470572,31.227497","wgs84Lng":121.470572,"wgs84Lat":31.227497,"__source_file__":"13-常用公服设施点/CSV/上海市_公园广场.csv"},"geometry":{"type":"Point","coordinates":[121.470572,31.227497]}},{"id":"35","type":"Feature","properties":{"id":"B00157GBHC","name":"黄浦银杏广场","address":"龙门路与金陵中路交叉口北约40米","type":"风景名胜;公园广场;城市广场","typecode":"110105","pcode":310000,"pname":"上海市","citycode":21,"cityname":"上海市","adcode":310101,"adname":"黄浦区","business_area":"北京东路","location":"121.478582,31.226513","tel":"[]","bigType":"风景名胜","midType":"公园广场","smallType":"城市广场","gcj_lng":121.478582,"gcj_lat":31.226513,"wgs84_loc":"121.474075,31.228471","wgs84Lng":121.474075,"wgs84Lat":31.228471,"__source_file__":"13-常用公服设施点/CSV/上海市_公园广场.csv"},"geometry":{"type":"Point","coordinates":[121.474075,31.228471]}},{"id":"1029","type":"Feature","properties":{"id":"B00155KI8E","name":"音乐广场","address":"延安东路523号(近西藏中路)上海城","type":"风景名胜;公园广场;城市广场","typecode":"110105","pcode":310000,"pname":"上海市","citycode":21,"cityname":"上海市","adcode":310101,"adname":"黄浦区","business_area":"淮海路","location":"121.478406,31.226529","tel":"[]","bigType":"风景名胜","midType":"公园广场","smallType":"城市广场","gcj_lng":121.478406,"gcj_lat":31.226529,"wgs84_loc":"121.473899,31.228486","wgs84Lng":121.473899,"wgs84Lat":31.228486,"__source_file__":"13-常用公服设施点/CSV/上海市_公园广场.csv"},"geometry":{"type":"Point","coordinates":[121.473899,31.228486]}},{"id":"49","type":"Feature","properties":{"id":"B0FFGMD9ER","name":"黄金广场","address":"方浜中路249号","type":"风景名胜;公园广场;城市广场","typecode":"110105","pcode":310000,"pname":"上海市","citycode":21,"cityname":"上海市","adcode":310101,"adname":"黄浦区","business_area":"城隍庙","location":"121.491230,31.227153","tel":"[]","bigType":"风景名胜","midType":"公园广场","smallType":"城市广场","gcj_lng":121.49123,"gcj_lat":31.227153,"wgs84_loc":"121.486767,31.229147","wgs84Lng":121.486767,"wgs84Lat":31.229147,"__source_file__":"13-常用公服设施点/CSV/上海市_公园广场.csv"},"geometry":{"type":"Point","coordinates":[121.486767,31.229147]}},{"id":"1248","type":"Feature","properties":{"id":"B00155HNA3","name":"延安中路大型公共绿地静安段","address":"老成都北路大沽路路口","type":"风景名胜;公园广场;公园","typecode":"110101","pcode":310000,"pname":"上海市","citycode":21,"cityname":"上海市","adcode":310106,"adname":"静安区","business_area":"淮海路","location":"121.46664,31.224791","tel":"[]","bigType":"风景名胜","midType":"公园广场","smallType":"公园","gcj_lng":121.46664,"gcj_lat":31.224791,"wgs84_loc":"121.462095,31.226717","wgs84Lng":121.462095,"wgs84Lat":31.226717,"__source_file__":"13-常用公服设施点/CSV/上海市_公园广场.csv"},"geometry":{"type":"Point","coordinates":[121.462095,31.226717]}},{"id":"1249","type":"Feature","properties":{"id":"B0FFFWQ6RA","name":"延安公园","address":"大沽路(成都北路大沽路)","type":"风景名胜;公园广场;公园","typecode":"110101","pcode":310000,"pname":"上海市","citycode":21,"cityname":"上海市","adcode":310106,"adname":"静安区","business_area":"淮海路","location":"121.466678,31.225096","tel":"[]","bigType":"风景名胜","midType":"公园广场","smallType":"公园","gcj_lng":121.466678,"gcj_lat":31.225096,"wgs84_loc":"121.462133,31.227022","wgs84Lng":121.462133,"wgs84Lat":31.227022,"__source_file__":"13-常用公服设施点/CSV/上海市_公园广场.csv"},"geometry":{"type":"Point","coordinates":[121.462133,31.227022]}},{"id":"1185","type":"Feature","properties":{"id":"B0FFG8Z0HG","name":"延中广场公园-延中绿地","address":"延安东路附近","type":"风景名胜;公园广场;公园","typecode":"110101","pcode":310000,"pname":"上海市","citycode":21,"cityname":"上海市","adcode":310101,"adname":"黄浦区","business_area":"北京东路","location":"121.473808,31.225745","tel":"[]","bigType":"风景名胜","midType":"公园广场","smallType":"公园","gcj_lng":121.473808,"gcj_lat":31.225745,"wgs84_loc":"121.469286,31.22769","wgs84Lng":121.469286,"wgs84Lat":31.22769,"__source_file__":"13-常用公服设施点/CSV/上海市_公园广场.csv"},"geometry":{"type":"Point","coordinates":[121.469286,31.22769]}},{"id":"1980","type":"Feature","properties":{"id":"B0KUBRNY6I","name":"森邻公园","address":"黄陂北路与人民大道交叉口西60米","type":"风景名胜;公园广场;公园","typecode":"110101","pcode":310000,"pname":"上海市","citycode":21,"cityname":"上海市","adcode":310101,"adname":"黄浦区","business_area":"北京路","location":"121.470955,31.227961","tel":"[]","bigType":"风景名胜","midType":"公园广场","smallType":"公园","gcj_lng":121.470955,"gcj_lat":31.227961,"wgs84_loc":"121.466423,31.229897","wgs84Lng":121.466423,"wgs84Lat":31.229897,"__source_file__":"13-常用公服设施点/CSV/上海市_公园广场.csv"},"geometry":{"type":"Point","coordinates":[121.466423,31.229897]}},{"id":"42","type":"Feature","properties":{"id":"B0HKLSRBSS","name":"联圩广场","address":"人民大道185号","type":"风景名胜;公园广场;城市广场","typecode":"110105","pcode":310000,"pname":"上海市","citycode":21,"cityname":"上海市","adcode":310101,"adname":"黄浦区","business_area":"北京东路","location":"121.474538,31.229377","tel":"[]","bigType":"风景名胜","midType":"公园广场","smallType":"城市广场","gcj_lng":121.474538,"gcj_lat":31.229377,"wgs84_loc":"121.470018,31.231322","wgs84Lng":121.470018,"wgs84Lat":31.231322,"__source_file__":"13-常用公服设施点/CSV/上海市_公园广场.csv"},"geometry":{"type":"Point","coordinates":[121.470018,31.231322]}},{"id":"1207","type":"Feature","properties":{"id":"B0FFH0VBLJ","name":"上海人民广场音乐喷泉","address":"人民大道185号上海人民广场","type":"风景名胜;公园广场;城市广场","typecode":"110105","pcode":310000,"pname":"上海市","citycode":21,"cityname":"上海市","adcode":310101,"adname":"黄浦区","business_area":"北京东路","location":"121.474539,31.229381","tel":"[]","bigType":"风景名胜","midType":"公园广场","smallType":"城市广场","gcj_lng":121.474539,"gcj_lat":31.229381,"wgs84_loc":"121.470019,31.231326","wgs84Lng":121.470019,"wgs84Lat":31.231326,"__source_file__":"13-常用公服设施点/CSV/上海市_公园广场.csv"},"geometry":{"type":"Point","coordinates":[121.470019,31.231326]}},{"id":"1890","type":"Feature","properties":{"id":"B0J64M7CLN","name":"拾影花园","address":"南京西路与青海路交叉口","type":"风景名胜;公园广场;公园","typecode":"110101","pcode":310000,"pname":"上海市","citycode":21,"cityname":"上海市","adcode":310106,"adname":"静安区","business_area":"淮海路","location":"121.464323,31.230723","tel":"[]","bigType":"风景名胜","midType":"公园广场","smallType":"公园","gcj_lng":121.464323,"gcj_lat":31.230723,"wgs84_loc":"121.459771,31.232641","wgs84Lng":121.459771,"wgs84Lat":31.232641,"__source_file__":"13-常用公服设施点/CSV/上海市_公园广场.csv"},"geometry":{"type":"Point","coordinates":[121.459771,31.232641]}},{"id":"2000","type":"Feature","properties":{"id":"B0FFMGRIYF","name":"天安中心广场","address":"南京西路338号天安中心","type":"风景名胜;公园广场;城市广场","typecode":"110105","pcode":310000,"pname":"上海市","citycode":21,"cityname":"上海市","adcode":310101,"adname":"黄浦区","business_area":"北京路","location":"121.469681,31.231783","tel":"021-63729188","bigType":"风景名胜","midType":"公园广场","smallType":"城市广场","gcj_lng":121.469681,"gcj_lat":31.231783,"wgs84_loc":"121.465145,31.233714","wgs84Lng":121.465145,"wgs84Lat":31.233714,"__source_file__":"13-常用公服设施点/CSV/上海市_公园广场.csv"},"geometry":{"type":"Point","coordinates":[121.465145,31.233714]}},{"id":"1169","type":"Feature","properties":{"id":"B00155KKQJ","name":"人民公园","address":"南京西路213","type":"风景名胜;公园广场;公园","typecode":"110101","pcode":310000,"pname":"上海市","citycode":21,"cityname":"上海市","adcode":310101,"adname":"黄浦区","business_area":"北京东路","location":"121.473108,31.232135","tel":"021-63271333","bigType":"风景名胜","midType":"公园广场","smallType":"公园","gcj_lng":121.473108,"gcj_lat":31.232135,"wgs84_loc":"121.468583,31.234075","wgs84Lng":121.468583,"wgs84Lat":31.234075,"__source_file__":"13-常用公服设施点/CSV/上海市_公园广场.csv"},"geometry":{"type":"Point","coordinates":[121.468583,31.234075]}},{"id":"33","type":"Feature","properties":{"id":"B0GKA6X5VP","name":"双拥广场","address":"九江路与西藏中路交叉口西南约120米","type":"风景名胜;公园广场;城市广场","typecode":"110105","pcode":310000,"pname":"上海市","citycode":21,"cityname":"上海市","adcode":310101,"adname":"黄浦区","business_area":"北京东路","location":"121.473656,31.233267","tel":"[]","bigType":"风景名胜","midType":"公园广场","smallType":"城市广场","gcj_lng":121.473656,"gcj_lat":31.233267,"wgs84_loc":"121.469133,31.235208","wgs84Lng":121.469133,"wgs84Lat":31.235208,"__source_file__":"13-常用公服设施点/CSV/上海市_公园广场.csv"},"geometry":{"type":"Point","coordinates":[121.469133,31.235208]}},{"id":"1172","type":"Feature","properties":{"id":"B001556ZBL","name":"古城公园","address":"人民路333号","type":"风景名胜;公园广场;公园","typecode":"110101","pcode":310000,"pname":"上海市","citycode":21,"cityname":"上海市","adcode":310101,"adname":"黄浦区","business_area":"城隍庙","location":"121.493836,31.228427","tel":"[]","bigType":"风景名胜","midType":"公园广场","smallType":"公园","gcj_lng":121.493836,"gcj_lat":31.228427,"wgs84_loc":"121.489383,31.230428","wgs84Lng":121.489383,"wgs84Lat":31.230428,"__source_file__":"13-常用公服设施点/CSV/上海市_公园广场.csv"},"geometry":{"type":"Point","coordinates":[121.489383,31.230428]}},{"id":"53","type":"Feature","properties":{"id":"B0FFFDZ3AX","name":"气象广场","address":"中山东一路与延安东路交叉口东北约40米","type":"风景名胜;公园广场;城市广场","typecode":"110105","pcode":310000,"pname":"上海市","citycode":21,"cityname":"上海市","adcode":310101,"adname":"黄浦区","business_area":"北京东路","location":"121.492120,31.233482","tel":"[]","bigType":"风景名胜","midType":"公园广场","smallType":"城市广场","gcj_lng":121.49212,"gcj_lat":31.233482,"wgs84_loc":"121.48766,31.235476","wgs84Lng":121.48766,"wgs84Lat":31.235476,"__source_file__":"13-常用公服设施点/CSV/上海市_公园广场.csv"},"geometry":{"type":"Point","coordinates":[121.48766,31.235476]}},{"id":"527","type":"Feature","properties":{"id":"B00154DIBE","name":"滨江大道-欢乐广场","address":"富城路滨江公园","type":"风景名胜;公园广场;城市广场","typecode":"110105","pcode":310000,"pname":"上海市","citycode":21,"cityname":"上海市","adcode":310115,"adname":"浦东新区","business_area":"[]","location":"121.496713,31.235202","tel":"[]","bigType":"风景名胜","midType":"公园广场","smallType":"城市广场","gcj_lng":121.496713,"gcj_lat":31.235202,"wgs84_loc":"121.492269,31.237209","wgs84Lng":121.492269,"wgs84Lat":31.237209,"__source_file__":"13-常用公服设施点/CSV/上海市_公园广场.csv"},"geometry":{"type":"Point","coordinates":[121.492269,31.237209]}},{"id":"46","type":"Feature","properties":{"id":"B0FFGBDZTS","name":"外滩金牛广场","address":"福州路与中山东一路交汇处路东","type":"风景名胜;公园广场;城市广场","typecode":"110105","pcode":310000,"pname":"上海市","citycode":21,"cityname":"上海市","adcode":310101,"adname":"黄浦区","business_area":"北京东路","location":"121.490869,31.235581","tel":"[]","bigType":"风景名胜","midType":"公园广场","smallType":"城市广场","gcj_lng":121.490869,"gcj_lat":31.235581,"wgs84_loc":"121.486404,31.23757","wgs84Lng":121.486404,"wgs84Lat":31.23757,"__source_file__":"13-常用公服设施点/CSV/上海市_公园广场.csv"},"geometry":{"type":"Point","coordinates":[121.486404,31.23757]}},{"id":"606","type":"Feature","properties":{"id":"B00155KUMJ","name":"滨江公园","address":"滨江大道2967号","type":"风景名胜;公园广场;公园","typecode":"110101","pcode":310000,"pname":"上海市","citycode":21,"cityname":"上海市","adcode":310115,"adname":"浦东新区","business_area":"陆家嘴","location":"121.496573,31.236204","tel":"021-50917356","bigType":"风景名胜","midType":"公园广场","smallType":"公园","gcj_lng":121.496573,"gcj_lat":31.236204,"wgs84_loc":"121.492129,31.23821","wgs84Lng":121.492129,"wgs84Lat":31.23821,"__source_file__":"13-常用公服设施点/CSV/上海市_公园广场.csv"},"geometry":{"type":"Point","coordinates":[121.492129,31.23821]}},{"id":"54","type":"Feature","properties":{"id":"B0FFILDNB2","name":"外滩-金融广场","address":"中山东一路与汉口路交叉口东南约60米","type":"风景名胜;公园广场;城市广场","typecode":"110105","pcode":310000,"pname":"上海市","citycode":21,"cityname":"上海市","adcode":310101,"adname":"黄浦区","business_area":"北京东路","location":"121.490680,31.236628","tel":"[]","bigType":"风景名胜","midType":"公园广场","smallType":"城市广场","gcj_lng":121.49068,"gcj_lat":31.236628,"wgs84_loc":"121.486215,31.238616","wgs84Lng":121.486215,"wgs84Lat":31.238616,"__source_file__":"13-常用公服设施点/CSV/上海市_公园广场.csv"},"geometry":{"type":"Point","coordinates":[121.486215,31.238616]}},{"id":"40","type":"Feature","properties":{"id":"B00155G6WO","name":"外滩-陈毅广场","address":"中山东一路外滩","type":"风景名胜;公园广场;城市广场","typecode":"110105","pcode":310000,"pname":"上海市","citycode":21,"cityname":"上海市","adcode":310101,"adname":"黄浦区","business_area":"北京东路","location":"121.490359,31.238999","tel":"[]","bigType":"风景名胜","midType":"公园广场","smallType":"城市广场","gcj_lng":121.490359,"gcj_lat":31.238999,"wgs84_loc":"121.485892,31.240985","wgs84Lng":121.485892,"wgs84Lat":31.240985,"__source_file__":"13-常用公服设施点/CSV/上海市_公园广场.csv"},"geometry":{"type":"Point","coordinates":[121.485892,31.240985]}},{"id":"517","type":"Feature","properties":{"id":"B0FFG4JZTG","name":"东方明珠广播电视塔-城市广场","address":"世纪大道1号","type":"风景名胜;公园广场;城市广场","typecode":"110105","pcode":310000,"pname":"上海市","citycode":21,"cityname":"上海市","adcode":310115,"adname":"浦东新区","business_area":"陆家嘴","location":"121.500271,31.239193","tel":"021-58791888","bigType":"风景名胜","midType":"公园广场","smallType":"城市广场","gcj_lng":121.500271,"gcj_lat":31.239193,"wgs84_loc":"121.49584,31.241209","wgs84Lng":121.49584,"wgs84Lat":31.241209,"__source_file__":"13-常用公服设施点/CSV/上海市_公园广场.csv"},"geometry":{"type":"Point","coordinates":[121.49584,31.241209]}},{"id":"1188","type":"Feature","properties":{"id":"B0FFK8FMY2","name":"广场公园(音乐广场地块)","address":"延安东路523号","type":"风景名胜;公园广场;公园","typecode":"110101","pcode":310000,"pname":"上海市","citycode":21,"cityname":"上海市","adcode":310101,"adname":"黄浦区","business_area":"北京东路","location":"121.477811,31.227005","tel":"[]","bigType":"风景名胜","midType":"公园广场","smallType":"公园","gcj_lng":121.477811,"gcj_lat":31.227005,"wgs84_loc":"121.473302,31.22896","wgs84Lng":121.473302,"wgs84Lat":31.22896,"__source_file__":"13-常用公服设施点/CSV/上海市_公园广场.csv"},"geometry":{"type":"Point","coordinates":[121.473302,31.22896]}},{"id":"56","type":"Feature","properties":{"id":"B0FFHI5I4I","name":"福满堂喜庆文化广场","address":"侯家路59号","type":"风景名胜;公园广场;城市广场","typecode":"110105","pcode":310000,"pname":"上海市","citycode":21,"cityname":"上海市","adcode":310101,"adname":"黄浦区","business_area":"城隍庙","location":"121.489500,31.227030","tel":"[]","bigType":"风景名胜","midType":"公园广场","smallType":"城市广场","gcj_lng":121.4895,"gcj_lat":31.22703,"wgs84_loc":"121.485031,31.229019","wgs84Lng":121.485031,"wgs84Lat":31.229019,"__source_file__":"13-常用公服设施点/CSV/上海市_公园广场.csv"},"geometry":{"type":"Point","coordinates":[121.485031,31.229019]}},{"id":"31","type":"Feature","properties":{"id":"B00157917M","name":"上海人民广场","address":"人民大道120号","type":"风景名胜;公园广场;城市广场","typecode":"110105","pcode":310000,"pname":"上海市","citycode":21,"cityname":"上海市","adcode":310101,"adname":"黄浦区","business_area":"北京东路","location":"121.475164,31.228816","tel":"[]","bigType":"风景名胜","midType":"公园广场","smallType":"城市广场","gcj_lng":121.475164,"gcj_lat":31.228816,"wgs84_loc":"121.470646,31.230763","wgs84Lng":121.470646,"wgs84Lat":31.230763,"__source_file__":"13-常用公服设施点/CSV/上海市_公园广场.csv"},"geometry":{"type":"Point","coordinates":[121.470646,31.230763]}},{"id":"1176","type":"Feature","properties":{"id":"B00155LW4D","name":"延福绿地","address":"金陵东路","type":"风景名胜;公园广场;公园","typecode":"110101","pcode":310000,"pname":"上海市","citycode":21,"cityname":"上海市","adcode":310101,"adname":"黄浦区","business_area":"北京东路","location":"121.482778,31.229991","tel":"[]","bigType":"风景名胜","midType":"公园广场","smallType":"公园","gcj_lng":121.482778,"gcj_lat":31.229991,"wgs84_loc":"121.478286,31.231959","wgs84Lng":121.478286,"wgs84Lat":31.231959,"__source_file__":"13-常用公服设施点/CSV/上海市_公园广场.csv"},"geometry":{"type":"Point","coordinates":[121.478286,31.231959]}},{"id":"32","type":"Feature","properties":{"id":"B0FFF6XTM4","name":"世纪广场(南京路步行街)","address":"南京东路587号","type":"风景名胜;公园广场;城市广场","typecode":"110105","pcode":310000,"pname":"上海市","citycode":21,"cityname":"上海市","adcode":310101,"adname":"黄浦区","business_area":"北京东路","location":"121.479688,31.235308","tel":"[]","bigType":"风景名胜","midType":"公园广场","smallType":"城市广场","gcj_lng":121.479688,"gcj_lat":31.235308,"wgs84_loc":"121.475184,31.237265","wgs84Lng":121.475184,"wgs84Lat":31.237265,"__source_file__":"13-常用公服设施点/CSV/上海市_公园广场.csv"},"geometry":{"type":"Point","coordinates":[121.475184,31.237265]}},{"id":"37","type":"Feature","properties":{"id":"B0G3M92BXH","name":"咸恒广场","address":"贵州路67号","type":"风景名胜;公园广场;城市广场","typecode":"110105","pcode":310000,"pname":"上海市","citycode":21,"cityname":"上海市","adcode":310101,"adname":"黄浦区","business_area":"北京东路","location":"121.476304,31.235436","tel":"[]","bigType":"风景名胜","midType":"公园广场","smallType":"城市广场","gcj_lng":121.476304,"gcj_lat":31.235436,"wgs84_loc":"121.471789,31.237383","wgs84Lng":121.471789,"wgs84Lat":31.237383,"__source_file__":"13-常用公服设施点/CSV/上海市_公园广场.csv"},"geometry":{"type":"Point","coordinates":[121.471789,31.237383]}},{"id":"45","type":"Feature","properties":{"id":"B0H04Z7WCR","name":"溪雨观悦荟广场(九江路)","address":"九江路悦荟mosaic","type":"风景名胜;公园广场;城市广场","typecode":"110105","pcode":310000,"pname":"上海市","citycode":21,"cityname":"上海市","adcode":310101,"adname":"黄浦区","business_area":"北京东路","location":"121.483725,31.236687","tel":"[]","bigType":"风景名胜","midType":"公园广场","smallType":"城市广场","gcj_lng":121.483725,"gcj_lat":31.236687,"wgs84_loc":"121.479235,31.238655","wgs84Lng":121.479235,"wgs84Lat":31.238655,"__source_file__":"13-常用公服设施点/CSV/上海市_公园广场.csv"},"geometry":{"type":"Point","coordinates":[121.479235,31.238655]}},{"id":"1231","type":"Feature","properties":{"id":"B0FFHCDOQT","name":"华润苏河湾中央公园(建设中)","address":"北苏州路与福建北路交叉口西北100米","type":"风景名胜;公园广场;公园","typecode":"110101","pcode":310000,"pname":"上海市","citycode":21,"cityname":"上海市","adcode":310106,"adname":"静安区","business_area":"北京东路","location":"121.478454,31.241382","tel":"[]","bigType":"风景名胜","midType":"公园广场","smallType":"公园","gcj_lng":121.478454,"gcj_lat":31.241382,"wgs84_loc":"121.473946,31.243332","wgs84Lng":121.473946,"wgs84Lat":31.243332,"__source_file__":"13-常用公服设施点/CSV/上海市_公园广场.csv"},"geometry":{"type":"Point","coordinates":[121.473946,31.243332]}},{"id":"2001","type":"Feature","properties":{"id":"B0J0DAONS8","name":"外滩源文化广场","address":"南苏州路外滩源33","type":"风景名胜;公园广场;城市广场","typecode":"110105","pcode":310000,"pname":"上海市","citycode":21,"cityname":"上海市","adcode":310101,"adname":"黄浦区","business_area":"北京路","location":"121.489143,31.242350","tel":"[]","bigType":"风景名胜","midType":"公园广场","smallType":"城市广场","gcj_lng":121.489143,"gcj_lat":31.24235,"wgs84_loc":"121.484672,31.244331","wgs84Lng":121.484672,"wgs84Lat":31.244331,"__source_file__":"13-常用公服设施点/CSV/上海市_公园广场.csv"},"geometry":{"type":"Point","coordinates":[121.484672,31.244331]}},{"id":"1765","type":"Feature","properties":{"id":"B0GUPKXZYX","name":"小憩园","address":"四川北路街道昆山花园路15号小憩园","type":"风景名胜;公园广场;公园","typecode":"110101","pcode":310000,"pname":"上海市","citycode":21,"cityname":"上海市","adcode":310109,"adname":"虹口区","business_area":"北外滩","location":"121.486355,31.248703","tel":"[]","bigType":"风景名胜","midType":"公园广场","smallType":"公园","gcj_lng":121.486355,"gcj_lat":31.248703,"wgs84_loc":"121.481873,31.250673","wgs84Lng":121.481873,"wgs84Lat":31.250673,"__source_file__":"13-常用公服设施点/CSV/上海市_公园广场.csv"},"geometry":{"type":"Point","coordinates":[121.481873,31.250673]}},{"id":"669","type":"Feature","properties":{"id":"B0FFFS16ZK","name":"东方明珠公园","address":"滨江大道2525弄5-25号","type":"风景名胜;公园广场;公园","typecode":"110101","pcode":310000,"pname":"上海市","citycode":21,"cityname":"上海市","adcode":310115,"adname":"浦东新区","business_area":"陆家嘴","location":"121.500127,31.241103","tel":"[]","bigType":"风景名胜","midType":"公园广场","smallType":"公园","gcj_lng":121.500127,"gcj_lat":31.241103,"wgs84_loc":"121.495695,31.243117","wgs84Lng":121.495695,"wgs84Lat":31.243117,"__source_file__":"13-常用公服设施点/CSV/上海市_公园广场.csv"},"geometry":{"type":"Point","coordinates":[121.495695,31.243117]}},{"id":"1927","type":"Feature","properties":{"id":"B0JBFLZSCS","name":"黄浦公园","address":"外滩中山东一路479号","type":"风景名胜;公园广场;公园","typecode":"110101","pcode":310000,"pname":"上海市","citycode":21,"cityname":"上海市","adcode":310101,"adname":"黄浦区","business_area":"北京路","location":"121.490990,31.241760","tel":"[]","bigType":"风景名胜","midType":"公园广场","smallType":"公园","gcj_lng":121.49099,"gcj_lat":31.24176,"wgs84_loc":"121.486525,31.243747","wgs84Lng":121.486525,"wgs84Lat":31.243747,"__source_file__":"13-常用公服设施点/CSV/上海市_公园广场.csv"},"geometry":{"type":"Point","coordinates":[121.486525,31.243747]}},{"id":"1190","type":"Feature","properties":{"id":"B0G0OCUPU7","name":"最美花园","address":"南苏州路76号","type":"风景名胜;公园广场;公园","typecode":"110101","pcode":310000,"pname":"上海市","citycode":21,"cityname":"上海市","adcode":310101,"adname":"黄浦区","business_area":"北京东路","location":"121.489695,31.242644","tel":"[]","bigType":"风景名胜","midType":"公园广场","smallType":"公园","gcj_lng":121.489695,"gcj_lat":31.242644,"wgs84_loc":"121.485226,31.244626","wgs84Lng":121.485226,"wgs84Lat":31.244626,"__source_file__":"13-常用公服设施点/CSV/上海市_公园广场.csv"},"geometry":{"type":"Point","coordinates":[121.485226,31.244626]}},{"id":"1257","type":"Feature","properties":{"id":"B0HBRX87UD","name":"世纪同框广场","address":"北苏州路29号","type":"风景名胜;公园广场;城市广场","typecode":"110105","pcode":310000,"pname":"上海市","citycode":21,"cityname":"上海市","adcode":310109,"adname":"虹口区","business_area":"北外滩","location":"121.489525,31.244012","tel":"18017713232","bigType":"风景名胜","midType":"公园广场","smallType":"城市广场","gcj_lng":121.489525,"gcj_lat":31.244012,"wgs84_loc":"121.485055,31.245993","wgs84Lng":121.485055,"wgs84Lat":31.245993,"__source_file__":"13-常用公服设施点/CSV/上海市_公园广场.csv"},"geometry":{"type":"Point","coordinates":[121.485055,31.245993]}},{"id":"1897","type":"Feature","properties":{"id":"B0I15MUBZK","name":"寻彩园","address":"长治路大名路东南角","type":"风景名胜;公园广场;公园","typecode":"110101","pcode":310000,"pname":"上海市","citycode":21,"cityname":"上海市","adcode":310109,"adname":"虹口区","business_area":"提篮桥","location":"121.491138,31.245581","tel":"[]","bigType":"风景名胜","midType":"公园广场","smallType":"公园","gcj_lng":121.491138,"gcj_lat":31.245581,"wgs84_loc":"121.486674,31.247566","wgs84Lng":121.486674,"wgs84Lat":31.247566,"__source_file__":"13-常用公服设施点/CSV/上海市_公园广场.csv"},"geometry":{"type":"Point","coordinates":[121.486674,31.247566]}},{"id":"1572","type":"Feature","properties":{"id":"B0IBG5G5GF","name":"北外滩城市花甸","address":"大名路与武昌路交界处","type":"风景名胜;公园广场;公园","typecode":"110101","pcode":310000,"pname":"上海市","citycode":21,"cityname":"上海市","adcode":310109,"adname":"虹口区","business_area":"提篮桥","location":"121.491379,31.245683","tel":"[]","bigType":"风景名胜","midType":"公园广场","smallType":"公园","gcj_lng":121.491379,"gcj_lat":31.245683,"wgs84_loc":"121.486915,31.247669","wgs84Lng":121.486915,"wgs84Lat":31.247669,"__source_file__":"13-常用公服设施点/CSV/上海市_公园广场.csv"},"geometry":{"type":"Point","coordinates":[121.486915,31.247669]}},{"id":"1396","type":"Feature","properties":{"id":"B00156NZVG","name":"北外滩滨江绿地","address":"东大名路558-678","type":"风景名胜;公园广场;公园","typecode":"110101","pcode":310000,"pname":"上海市","citycode":21,"cityname":"上海市","adcode":310109,"adname":"虹口区","business_area":"北外滩","location":"121.499368,31.247459","tel":"[]","bigType":"风景名胜","midType":"公园广场","smallType":"公园","gcj_lng":121.499368,"gcj_lat":31.247459,"wgs84_loc":"121.494933,31.249468","wgs84Lng":121.494933,"wgs84Lat":31.249468,"__source_file__":"13-常用公服设施点/CSV/上海市_公园广场.csv"},"geometry":{"type":"Point","coordinates":[121.494933,31.249468]}},{"id":"1950","type":"Feature","properties":{"id":"B0J2X7U8HX","name":"北外滩航海公园","address":"北外滩国客中心(国际客运中心地铁站出入口步行470米)","type":"风景名胜;公园广场;公园","typecode":"110101","pcode":310000,"pname":"上海市","citycode":21,"cityname":"上海市","adcode":310109,"adname":"虹口区","business_area":"上海北外滩中心","location":"121.497672,31.247777","tel":"[]","bigType":"风景名胜","midType":"公园广场","smallType":"公园","gcj_lng":121.497672,"gcj_lat":31.247777,"wgs84_loc":"121.493231,31.249781","wgs84Lng":121.493231,"wgs84Lat":31.249781,"__source_file__":"13-常用公服设施点/CSV/上海市_公园广场.csv"},"geometry":{"type":"Point","coordinates":[121.493231,31.249781]}},{"id":"1896","type":"Feature","properties":{"id":"B0I04CTYFK","name":"雷士德花园","address":"东长治路505号","type":"风景名胜;公园广场;公园","typecode":"110101","pcode":310000,"pname":"上海市","citycode":21,"cityname":"上海市","adcode":310109,"adname":"虹口区","business_area":"北外滩","location":"121.497613,31.250392","tel":"[]","bigType":"风景名胜","midType":"公园广场","smallType":"公园","gcj_lng":121.497613,"gcj_lat":31.250392,"wgs84_loc":"121.493171,31.252395","wgs84Lng":121.493171,"wgs84Lat":31.252395,"__source_file__":"13-常用公服设施点/CSV/上海市_公园广场.csv"},"geometry":{"type":"Point","coordinates":[121.493171,31.252395]}},{"id":"1271","type":"Feature","properties":{"id":"B00155L30B","name":"昆山公园","address":"昆山花园路13号(百官街口)","type":"风景名胜;公园广场;公园","typecode":"110101","pcode":310000,"pname":"上海市","citycode":21,"cityname":"上海市","adcode":310109,"adname":"虹口区","business_area":"北外滩","location":"121.486648,31.248987","tel":"[]","bigType":"风景名胜","midType":"公园广场","smallType":"公园","gcj_lng":121.486648,"gcj_lat":31.248987,"wgs84_loc":"121.482167,31.250958","wgs84Lng":121.482167,"wgs84Lat":31.250958,"__source_file__":"13-常用公服设施点/CSV/上海市_公园广场.csv"},"geometry":{"type":"Point","coordinates":[121.482167,31.250958]}},{"id":"1392","type":"Feature","properties":{"id":"B00155MWRQ","name":"海宁绿地","address":"乍浦路","type":"风景名胜;公园广场;公园","typecode":"110101","pcode":310000,"pname":"上海市","citycode":21,"cityname":"上海市","adcode":310109,"adname":"虹口区","business_area":"七浦路","location":"121.485149,31.250443","tel":"[]","bigType":"风景名胜","midType":"公园广场","smallType":"公园","gcj_lng":121.485149,"gcj_lat":31.250443,"wgs84_loc":"121.480663,31.252409","wgs84Lng":121.480663,"wgs84Lat":31.252409,"__source_file__":"13-常用公服设施点/CSV/上海市_公园广场.csv"},"geometry":{"type":"Point","coordinates":[121.480663,31.252409]}},{"id":"1260","type":"Feature","properties":{"id":"B0HRV96UAR","name":"一村通广场","address":"乍浦路与海南路交叉口西南约80米","type":"风景名胜;公园广场;城市广场","typecode":"110105","pcode":310000,"pname":"上海市","citycode":21,"cityname":"上海市","adcode":310109,"adname":"虹口区","business_area":"宝山路","location":"121.484846,31.252581","tel":"[]","bigType":"风景名胜","midType":"公园广场","smallType":"城市广场","gcj_lng":121.484846,"gcj_lat":31.252581,"wgs84_loc":"121.480359,31.254545","wgs84Lng":121.480359,"wgs84Lat":31.254545,"__source_file__":"13-常用公服设施点/CSV/上海市_公园广场.csv"},"geometry":{"type":"Point","coordinates":[121.480359,31.254545]}},{"id":"1261","type":"Feature","properties":{"id":"B0FFL05NG4","name":"欢乐广场","address":"衡水路1350号附近","type":"风景名胜;公园广场;城市广场","typecode":"110105","pcode":310000,"pname":"上海市","citycode":21,"cityname":"上海市","adcode":310109,"adname":"虹口区","business_area":"宝山路","location":"121.484461,31.253410","tel":"[]","bigType":"风景名胜","midType":"公园广场","smallType":"城市广场","gcj_lng":121.484461,"gcj_lat":31.25341,"wgs84_loc":"121.479972,31.255372","wgs84Lng":121.479972,"wgs84Lat":31.255372,"__source_file__":"13-常用公服设施点/CSV/上海市_公园广场.csv"},"geometry":{"type":"Point","coordinates":[121.479972,31.255372]}},{"id":"1274","type":"Feature","properties":{"id":"B00152B056","name":"四川北路公园","address":"四川北路1428号","type":"风景名胜;公园广场;公园","typecode":"110101","pcode":310000,"pname":"上海市","citycode":21,"cityname":"上海市","adcode":310109,"adname":"虹口区","business_area":"宝山路","location":"121.484802,31.254871","tel":"021-63562282","bigType":"风景名胜","midType":"公园广场","smallType":"公园","gcj_lng":121.484802,"gcj_lat":31.254871,"wgs84_loc":"121.480314,31.256834","wgs84Lng":121.480314,"wgs84Lat":31.256834,"__source_file__":"13-常用公服设施点/CSV/上海市_公园广场.csv"},"geometry":{"type":"Point","coordinates":[121.480314,31.256834]}},{"id":"1939","type":"Feature","properties":{"id":"B0KUFC8LUO","name":"国旗广场","address":"上海市四川北路街道四川北路1468号(近虬江路)中共四大纪念馆","type":"风景名胜;公园广场;城市广场","typecode":"110105","pcode":310000,"pname":"上海市","citycode":21,"cityname":"上海市","adcode":310109,"adname":"虹口区","business_area":"宝山路","location":"121.484924,31.254982","tel":"[]","bigType":"风景名胜","midType":"公园广场","smallType":"城市广场","gcj_lng":121.484924,"gcj_lat":31.254982,"wgs84_loc":"121.480437,31.256945","wgs84Lng":121.480437,"wgs84Lat":31.256945,"__source_file__":"13-常用公服设施点/CSV/上海市_公园广场.csv"},"geometry":{"type":"Point","coordinates":[121.480437,31.256945]}},{"id":"2010","type":"Feature","properties":{"id":"B0KU5AIY7E","name":"红色口袋公园","address":"宝山路宝昌路交叉口","type":"风景名胜;公园广场;公园","typecode":"110101","pcode":310000,"pname":"上海市","citycode":21,"cityname":"上海市","adcode":310106,"adname":"静安区","business_area":"宝山路","location":"121.477048,31.256235","tel":"[]","bigType":"风景名胜","midType":"公园广场","smallType":"公园","gcj_lng":121.477048,"gcj_lat":31.256235,"wgs84_loc":"121.472534,31.258175","wgs84Lng":121.472534,"wgs84Lat":31.258175,"__source_file__":"13-常用公服设施点/CSV/上海市_公园广场.csv"},"geometry":{"type":"Point","coordinates":[121.472534,31.258175]}},{"id":"1570","type":"Feature","properties":{"id":"B0HUSZLV9K","name":"百草园","address":"四平路与邢家桥北路交叉口西南约80米","type":"风景名胜;公园广场;公园","typecode":"110101","pcode":310000,"pname":"上海市","citycode":21,"cityname":"上海市","adcode":310109,"adname":"虹口区","business_area":"[]","location":"121.488691,31.260081","tel":"[]","bigType":"风景名胜","midType":"公园广场","smallType":"公园","gcj_lng":121.488691,"gcj_lat":31.260081,"wgs84_loc":"121.484217,31.262053","wgs84Lng":121.484217,"wgs84Lat":31.262053,"__source_file__":"13-常用公服设施点/CSV/上海市_公园广场.csv"},"geometry":{"type":"Point","coordinates":[121.484217,31.262053]}},{"id":"1264","type":"Feature","properties":{"id":"B0FFHR8NHA","name":"世界文豪广场","address":"四川北路2288号","type":"风景名胜;公园广场;城市广场","typecode":"110105","pcode":310000,"pname":"上海市","citycode":21,"cityname":"上海市","adcode":310109,"adname":"虹口区","business_area":"曲阳","location":"121.483354,31.269109","tel":"[]","bigType":"风景名胜","midType":"公园广场","smallType":"城市广场","gcj_lng":121.483354,"gcj_lat":31.269109,"wgs84_loc":"121.47886,31.271061","wgs84Lng":121.47886,"wgs84Lat":31.271061,"__source_file__":"13-常用公服设施点/CSV/上海市_公园广场.csv"},"geometry":{"type":"Point","coordinates":[121.47886,31.271061]}},{"id":"246","type":"Feature","properties":{"id":"B0H3HAXE3L","name":"小小动物园","address":"西江湾路与同煌路交叉口西南约120米","type":"风景名胜;公园广场;水族馆","typecode":"110104","pcode":310000,"pname":"上海市","citycode":21,"cityname":"上海市","adcode":310109,"adname":"虹口区","business_area":"江湾","location":"121.478311,31.270790","tel":"[]","bigType":"风景名胜","midType":"公园广场","smallType":"水族馆","gcj_lng":121.478311,"gcj_lat":31.27079,"wgs84_loc":"121.4738,31.272727","wgs84Lng":121.4738,"wgs84Lat":31.272727,"__source_file__":"13-常用公服设施点/CSV/上海市_公园广场.csv"},"geometry":{"type":"Point","coordinates":[121.4738,31.272727]}},{"id":"245","type":"Feature","properties":{"id":"B00156OD2M","name":"鲁迅公园-垂钓中心","address":"[]","type":"风景名胜;公园广场;公园","typecode":"110101","pcode":310000,"pname":"上海市","citycode":21,"cityname":"上海市","adcode":310109,"adname":"虹口区","business_area":"江湾","location":"121.484570,31.271028","tel":"[]","bigType":"风景名胜","midType":"公园广场","smallType":"公园","gcj_lng":121.48457,"gcj_lat":31.271028,"wgs84_loc":"121.48008,31.272983","wgs84Lng":121.48008,"wgs84Lat":31.272983,"__source_file__":"13-常用公服设施点/CSV/上海市_公园广场.csv"},"geometry":{"type":"Point","coordinates":[121.48008,31.272983]}},{"id":"1277","type":"Feature","properties":{"id":"B00155KZKW","name":"鲁迅公园","address":"四川北路2288号","type":"风景名胜;公园广场;公园","typecode":"110101","pcode":310000,"pname":"上海市","citycode":21,"cityname":"上海市","adcode":310109,"adname":"虹口区","business_area":"江湾","location":"121.483531,31.271758","tel":"021-65401561","bigType":"风景名胜","midType":"公园广场","smallType":"公园","gcj_lng":121.483531,"gcj_lat":31.271758,"wgs84_loc":"121.479038,31.27371","wgs84Lng":121.479038,"wgs84Lat":31.27371,"__source_file__":"13-常用公服设施点/CSV/上海市_公园广场.csv"},"geometry":{"type":"Point","coordinates":[121.479038,31.27371]}}],"name":"上海市_公园广场","crs":{"type":"name","properties":{"name":"urn:ogc:def:crs:OGC:1.3:CRS84"}}}