{"type":"FeatureCollection","features":[{"id":"56","type":"Feature","properties":{"id":"B00155I6SO","name":"上海平安合唱团","address":"巨鹿路417欣广大厦","type":"科教文化服务;文艺团体;文艺团体","typecode":"141000","pcode":310000,"pname":"上海市","citycode":21,"cityname":"上海市","adcode":310101,"adname":"黄浦区","business_area":"淮海路","location":"121.457585,31.222057","tel":"[]","bigType":"科教文化服务","midType":"文艺团体","smallType":"文艺团体","gcj_lng":121.457585,"gcj_lat":31.222057,"wgs84_loc":"121.453014,31.223962","wgs84Lng":121.453014,"wgs84Lat":31.223962,"__source_file__":"13-常用公服设施点/CSV/上海市_文艺团体.csv"},"geometry":{"type":"Point","coordinates":[121.453014,31.223962]}},{"id":"59","type":"Feature","properties":{"id":"B00155GC4M","name":"上海滑稽剧团","address":"康定路211艺海大厦11层","type":"科教文化服务;文艺团体;文艺团体","typecode":"141000","pcode":310000,"pname":"上海市","citycode":21,"cityname":"上海市","adcode":310106,"adname":"静安区","business_area":"曹家渡","location":"121.452123,31.235325","tel":"[]","bigType":"科教文化服务","midType":"文艺团体","smallType":"文艺团体","gcj_lng":121.452123,"gcj_lat":31.235325,"wgs84_loc":"121.447537,31.237212","wgs84Lng":121.447537,"wgs84Lat":31.237212,"__source_file__":"13-常用公服设施点/CSV/上海市_文艺团体.csv"},"geometry":{"type":"Point","coordinates":[121.447537,31.237212]}},{"id":"5","type":"Feature","properties":{"id":"B00156NY2U","name":"上海市东方弘韵少儿艺术团(康定路)","address":"康定路211-1号4层468室","type":"科教文化服务;文艺团体;文艺团体","typecode":"141000","pcode":310000,"pname":"上海市","citycode":21,"cityname":"上海市","adcode":310106,"adname":"静安区","business_area":"曹家渡","location":"121.452469,31.235584","tel":"15221707038","bigType":"科教文化服务","midType":"文艺团体","smallType":"文艺团体","gcj_lng":121.452469,"gcj_lat":31.235584,"wgs84_loc":"121.447883,31.237472","wgs84Lng":121.447883,"wgs84Lat":31.237472,"__source_file__":"13-常用公服设施点/CSV/上海市_文艺团体.csv"},"geometry":{"type":"Point","coordinates":[121.447883,31.237472]}},{"id":"28","type":"Feature","properties":{"id":"B0IBTH65CM","name":"还没有想好","address":"叶家宅路100号1号楼195","type":"科教文化服务;文艺团体;文艺团体","typecode":"141000","pcode":310000,"pname":"上海市","citycode":21,"cityname":"上海市","adcode":310107,"adname":"普陀区","business_area":"曹家渡","location":"121.431895,31.238029","tel":"[]","bigType":"科教文化服务","midType":"文艺团体","smallType":"文艺团体","gcj_lng":121.431895,"gcj_lat":31.238029,"wgs84_loc":"121.427266,31.23988","wgs84Lng":121.427266,"wgs84Lat":31.23988,"__source_file__":"13-常用公服设施点/CSV/上海市_文艺团体.csv"},"geometry":{"type":"Point","coordinates":[121.427266,31.23988]}},{"id":"30","type":"Feature","properties":{"id":"B0IBKAHE8F","name":"艺术团","address":"[]","type":"科教文化服务;文艺团体;文艺团体","typecode":"141000","pcode":310000,"pname":"上海市","citycode":21,"cityname":"上海市","adcode":310107,"adname":"普陀区","business_area":"曹家渡","location":"121.435766,31.241316","tel":"[]","bigType":"科教文化服务","midType":"文艺团体","smallType":"文艺团体","gcj_lng":121.435766,"gcj_lat":31.241316,"wgs84_loc":"121.431144,31.243171","wgs84Lng":121.431144,"wgs84Lat":31.243171,"__source_file__":"13-常用公服设施点/CSV/上海市_文艺团体.csv"},"geometry":{"type":"Point","coordinates":[121.431144,31.243171]}},{"id":"16","type":"Feature","properties":{"id":"B0GKJ5Z8FC","name":"上海震瀛文艺社","address":"江宁路1600号恺悦大厦3楼302-4","type":"科教文化服务;文艺团体;文艺团体","typecode":"141000","pcode":310000,"pname":"上海市","citycode":21,"cityname":"上海市","adcode":310107,"adname":"普陀区","business_area":"光新","location":"121.440115,31.248267","tel":"021-60193795;15800800962","bigType":"科教文化服务","midType":"文艺团体","smallType":"文艺团体","gcj_lng":121.440115,"gcj_lat":31.248267,"wgs84_loc":"121.4355,31.250126","wgs84Lng":121.4355,"wgs84Lat":31.250126,"__source_file__":"13-常用公服设施点/CSV/上海市_文艺团体.csv"},"geometry":{"type":"Point","coordinates":[121.4355,31.250126]}},{"id":"54","type":"Feature","properties":{"id":"B0I64C18J2","name":"上海国际儿童时装周SIKFW","address":"吉安路与湖滨路交叉口北20米","type":"科教文化服务;文艺团体;文艺团体","typecode":"141000","pcode":310000,"pname":"上海市","citycode":21,"cityname":"上海市","adcode":310101,"adname":"黄浦区","business_area":"淮海路","location":"121.479836,31.220939","tel":"[]","bigType":"科教文化服务","midType":"文艺团体","smallType":"文艺团体","gcj_lng":121.479836,"gcj_lat":31.220939,"wgs84_loc":"121.475334,31.222903","wgs84Lng":121.475334,"wgs84Lat":31.222903,"__source_file__":"13-常用公服设施点/CSV/上海市_文艺团体.csv"},"geometry":{"type":"Point","coordinates":[121.475334,31.222903]}},{"id":"58","type":"Feature","properties":{"id":"B00156GKVV","name":"上海评弹团","address":"南京西路860弄1号","type":"科教文化服务;文艺团体;文艺团体","typecode":"141000","pcode":310000,"pname":"上海市","citycode":21,"cityname":"上海市","adcode":310106,"adname":"静安区","business_area":"淮海路","location":"121.460173,31.230924","tel":"021-62563234;021-62563325","bigType":"科教文化服务","midType":"文艺团体","smallType":"文艺团体","gcj_lng":121.460173,"gcj_lat":31.230924,"wgs84_loc":"121.455608,31.232831","wgs84Lng":121.455608,"wgs84Lat":31.232831,"__source_file__":"13-常用公服设施点/CSV/上海市_文艺团体.csv"},"geometry":{"type":"Point","coordinates":[121.455608,31.232831]}},{"id":"52","type":"Feature","properties":{"id":"B00155G56O","name":"上海爱乐合唱团","address":"延安东路45、55号上海工商联大厦4层","type":"科教文化服务;文艺团体;文艺团体","typecode":"141000","pcode":310000,"pname":"上海市","citycode":21,"cityname":"上海市","adcode":310101,"adname":"黄浦区","business_area":"城隍庙","location":"121.489201,31.231358","tel":"021-63373283","bigType":"科教文化服务","midType":"文艺团体","smallType":"文艺团体","gcj_lng":121.489201,"gcj_lat":31.231358,"wgs84_loc":"121.484731,31.233344","wgs84Lng":121.484731,"wgs84Lat":31.233344,"__source_file__":"13-常用公服设施点/CSV/上海市_文艺团体.csv"},"geometry":{"type":"Point","coordinates":[121.484731,31.233344]}},{"id":"92","type":"Feature","properties":{"id":"B0K037183F","name":"黄浦剧场YOMI剧团","address":"北京东路780号黄浦剧场排练中心","type":"科教文化服务;文艺团体;文艺团体","typecode":"141000","pcode":310000,"pname":"上海市","citycode":21,"cityname":"上海市","adcode":310101,"adname":"黄浦区","business_area":"北京路","location":"121.475585,31.238410","tel":"13162619431;19117195349","bigType":"科教文化服务","midType":"文艺团体","smallType":"文艺团体","gcj_lng":121.475585,"gcj_lat":31.23841,"wgs84_loc":"121.471067,31.240354","wgs84Lng":121.471067,"wgs84Lat":31.240354,"__source_file__":"13-常用公服设施点/CSV/上海市_文艺团体.csv"},"geometry":{"type":"Point","coordinates":[121.471067,31.240354]}},{"id":"57","type":"Feature","properties":{"id":"B00155GKK3","name":"手拉手艺术团","address":"汉中路188汉中广场上海市青少年活动中心","type":"科教文化服务;文艺团体;文艺团体","typecode":"141000","pcode":310000,"pname":"上海市","citycode":21,"cityname":"上海市","adcode":310106,"adname":"静安区","business_area":"[]","location":"121.457754,31.241917","tel":"021-63541139","bigType":"科教文化服务","midType":"文艺团体","smallType":"文艺团体","gcj_lng":121.457754,"gcj_lat":31.241917,"wgs84_loc":"121.453182,31.243814","wgs84Lng":121.453182,"wgs84Lat":31.243814,"__source_file__":"13-常用公服设施点/CSV/上海市_文艺团体.csv"},"geometry":{"type":"Point","coordinates":[121.453182,31.243814]}},{"id":"8","type":"Feature","properties":{"id":"B00156O1B6","name":"上海市学生艺术团舞蹈团(馥敦坊西)","address":"大连西路235号(近北郊高级中学)北郊高级中学","type":"科教文化服务;文艺团体;文艺团体","typecode":"141000","pcode":310000,"pname":"上海市","citycode":21,"cityname":"上海市","adcode":310109,"adname":"虹口区","business_area":"曲阳","location":"121.490156,31.267329","tel":"[]","bigType":"科教文化服务","midType":"文艺团体","smallType":"文艺团体","gcj_lng":121.490156,"gcj_lat":31.267329,"wgs84_loc":"121.485686,31.269302","wgs84Lng":121.485686,"wgs84Lat":31.269302,"__source_file__":"13-常用公服设施点/CSV/上海市_文艺团体.csv"},"geometry":{"type":"Point","coordinates":[121.485686,31.269302]}},{"id":"7","type":"Feature","properties":{"id":"B0FFFA1O2J","name":"上海市学生艺术团仲盛舞蹈团","address":"四达路96号","type":"科教文化服务;文艺团体;文艺团体","typecode":"141000","pcode":310000,"pname":"上海市","citycode":21,"cityname":"上海市","adcode":310109,"adname":"虹口区","business_area":"曲阳","location":"121.490150,31.267539","tel":"[]","bigType":"科教文化服务","midType":"文艺团体","smallType":"文艺团体","gcj_lng":121.49015,"gcj_lat":31.267539,"wgs84_loc":"121.48568,31.269512","wgs84Lng":121.48568,"wgs84Lat":31.269512,"__source_file__":"13-常用公服设施点/CSV/上海市_文艺团体.csv"},"geometry":{"type":"Point","coordinates":[121.48568,31.269512]}}],"name":"上海市_文艺团体","crs":{"type":"name","properties":{"name":"urn:ogc:def:crs:OGC:1.3:CRS84"}}}