{"type":"FeatureCollection","features":[{"id":"26","type":"Feature","properties":{"id":"B0FFGFP11M","name":"静安区图书馆(新闸路)","address":"新闸路1708号","type":"科教文化服务;图书馆;图书馆","typecode":"140500","pcode":310000,"pname":"上海市","citycode":21,"cityname":"上海市","adcode":310106,"adname":"静安区","business_area":"曹家渡","location":"121.445129,31.228935","tel":"021-62530932","bigType":"科教文化服务","midType":"图书馆","smallType":"图书馆","gcj_lng":121.445129,"gcj_lat":31.228935,"wgs84_loc":"121.440526,31.230811","wgs84Lng":121.440526,"wgs84Lat":31.230811,"__source_file__":"13-常用公服设施点/CSV/上海市_图书馆.csv"},"geometry":{"type":"Point","coordinates":[121.440526,31.230811]}},{"id":"30","type":"Feature","properties":{"id":"B00155IL0P","name":"上海市中心图书馆静安分馆(新闸路)","address":"新闸路1702-1708号","type":"科教文化服务;图书馆;图书馆","typecode":"140500","pcode":310000,"pname":"上海市","citycode":21,"cityname":"上海市","adcode":310106,"adname":"静安区","business_area":"曹家渡","location":"121.445158,31.228954","tel":"021-62530932","bigType":"科教文化服务","midType":"图书馆","smallType":"图书馆","gcj_lng":121.445158,"gcj_lat":31.228954,"wgs84_loc":"121.440556,31.23083","wgs84Lng":121.440556,"wgs84Lat":31.23083,"__source_file__":"13-常用公服设施点/CSV/上海市_图书馆.csv"},"geometry":{"type":"Point","coordinates":[121.440556,31.23083]}},{"id":"75","type":"Feature","properties":{"id":"B00154U2H9","name":"曹家渡街道图书馆","address":"余姚路519-3","type":"科教文化服务;图书馆;图书馆","typecode":"140500","pcode":310000,"pname":"上海市","citycode":21,"cityname":"上海市","adcode":310106,"adname":"静安区","business_area":"曹家渡","location":"121.43453,31.23318","tel":"021-62306799","bigType":"科教文化服务","midType":"图书馆","smallType":"图书馆","gcj_lng":121.43453,"gcj_lat":31.23318,"wgs84_loc":"121.429906,31.235037","wgs84Lng":121.429906,"wgs84Lat":31.235037,"__source_file__":"13-常用公服设施点/CSV/上海市_图书馆.csv"},"geometry":{"type":"Point","coordinates":[121.429906,31.235037]}},{"id":"29","type":"Feature","properties":{"id":"B00155KL75","name":"上海市总工会静安区工人文化宫图书馆","address":"常德路940号文化宫综合楼","type":"科教文化服务;图书馆;图书馆","typecode":"140500","pcode":310000,"pname":"上海市","citycode":21,"cityname":"上海市","adcode":310106,"adname":"静安区","business_area":"曹家渡","location":"121.442027,31.235033","tel":"[]","bigType":"科教文化服务","midType":"图书馆","smallType":"图书馆","gcj_lng":121.442027,"gcj_lat":31.235033,"wgs84_loc":"121.437417,31.236901","wgs84Lng":121.437417,"wgs84Lat":31.236901,"__source_file__":"13-常用公服设施点/CSV/上海市_图书馆.csv"},"geometry":{"type":"Point","coordinates":[121.437417,31.236901]}},{"id":"71","type":"Feature","properties":{"id":"B00155LZJ2","name":"石门二路社区图书馆","address":"康定东路85号","type":"科教文化服务;图书馆;图书馆","typecode":"140500","pcode":310000,"pname":"上海市","citycode":21,"cityname":"上海市","adcode":310106,"adname":"静安区","business_area":"[]","location":"121.456156,31.237269","tel":"021-52135716","bigType":"科教文化服务","midType":"图书馆","smallType":"图书馆","gcj_lng":121.456156,"gcj_lat":31.237269,"wgs84_loc":"121.45158,31.239164","wgs84Lng":121.45158,"wgs84Lat":31.239164,"__source_file__":"13-常用公服设施点/CSV/上海市_图书馆.csv"},"geometry":{"type":"Point","coordinates":[121.45158,31.239164]}},{"id":"318","type":"Feature","properties":{"id":"B00157HYEB","name":"上海时尚产业主题图书馆","address":"长寿路652号景源时尚产业园上海国际时尚教育中心内F座2层","type":"科教文化服务;图书馆;图书馆","typecode":"140500","pcode":310000,"pname":"上海市","citycode":21,"cityname":"上海市","adcode":310107,"adname":"普陀区","business_area":"曹家渡","location":"121.432338,31.238292","tel":"021-62771443","bigType":"科教文化服务","midType":"图书馆","smallType":"图书馆","gcj_lng":121.432338,"gcj_lat":31.238292,"wgs84_loc":"121.42771,31.240144","wgs84Lng":121.42771,"wgs84Lat":31.240144,"__source_file__":"13-常用公服设施点/CSV/上海市_图书馆.csv"},"geometry":{"type":"Point","coordinates":[121.42771,31.240144]}},{"id":"322","type":"Feature","properties":{"id":"B0FFH5DQKW","name":"公共电子阅览室","address":"新会路57号附近","type":"科教文化服务;图书馆;图书馆","typecode":"140500","pcode":310000,"pname":"上海市","citycode":21,"cityname":"上海市","adcode":310107,"adname":"普陀区","business_area":"曹家渡","location":"121.443755,31.242361","tel":"[]","bigType":"科教文化服务","midType":"图书馆","smallType":"图书馆","gcj_lng":121.443755,"gcj_lat":31.242361,"wgs84_loc":"121.439148,31.244229","wgs84Lng":121.439148,"wgs84Lat":31.244229,"__source_file__":"13-常用公服设施点/CSV/上海市_图书馆.csv"},"geometry":{"type":"Point","coordinates":[121.439148,31.244229]}},{"id":"72","type":"Feature","properties":{"id":"B0FFKV10TA","name":"南京西路街道少年儿童图书馆","address":"延安中路602号","type":"科教文化服务;图书馆;图书馆","typecode":"140500","pcode":310000,"pname":"上海市","citycode":21,"cityname":"上海市","adcode":310106,"adname":"静安区","business_area":"淮海路","location":"121.462600,31.224211","tel":"021-63811165","bigType":"科教文化服务","midType":"图书馆","smallType":"图书馆","gcj_lng":121.4626,"gcj_lat":31.224211,"wgs84_loc":"121.458043,31.226127","wgs84Lng":121.458043,"wgs84Lat":31.226127,"__source_file__":"13-常用公服设施点/CSV/上海市_图书馆.csv"},"geometry":{"type":"Point","coordinates":[121.458043,31.226127]}},{"id":"74","type":"Feature","properties":{"id":"B00155EQLP","name":"南京西路社区(街道)图书馆","address":"茂名北路75弄6号(近延安中路)","type":"科教文化服务;图书馆;图书馆","typecode":"140500","pcode":310000,"pname":"上海市","citycode":21,"cityname":"上海市","adcode":310106,"adname":"静安区","business_area":"淮海路","location":"121.46009,31.225106","tel":"021-62898227;021-52286507","bigType":"科教文化服务","midType":"图书馆","smallType":"图书馆","gcj_lng":121.46009,"gcj_lat":31.225106,"wgs84_loc":"121.455526,31.227016","wgs84Lng":121.455526,"wgs84Lat":31.227016,"__source_file__":"13-常用公服设施点/CSV/上海市_图书馆.csv"},"geometry":{"type":"Point","coordinates":[121.455526,31.227016]}},{"id":"470","type":"Feature","properties":{"id":"B0KDNUUBMJ","name":"南京西路街道图书馆","address":"升平街33号南京西路街道社区党群服务中心","type":"科教文化服务;图书馆;图书馆","typecode":"140500","pcode":310000,"pname":"上海市","citycode":21,"cityname":"上海市","adcode":310106,"adname":"静安区","business_area":"淮海路","location":"121.461248,31.225172","tel":"[]","bigType":"科教文化服务","midType":"图书馆","smallType":"图书馆","gcj_lng":121.461248,"gcj_lat":31.225172,"wgs84_loc":"121.456687,31.227085","wgs84Lng":121.456687,"wgs84Lat":31.227085,"__source_file__":"13-常用公服设施点/CSV/上海市_图书馆.csv"},"geometry":{"type":"Point","coordinates":[121.456687,31.227085]}},{"id":"78","type":"Feature","properties":{"id":"B0FFHBVXJS","name":"南京西路街道图书馆","address":"茂名北路73弄","type":"科教文化服务;图书馆;图书馆","typecode":"140500","pcode":310000,"pname":"上海市","citycode":21,"cityname":"上海市","adcode":310106,"adname":"静安区","business_area":"淮海路","location":"121.460448,31.225240","tel":"[]","bigType":"科教文化服务","midType":"图书馆","smallType":"图书馆","gcj_lng":121.460448,"gcj_lat":31.22524,"wgs84_loc":"121.455885,31.227151","wgs84Lng":121.455885,"wgs84Lat":31.227151,"__source_file__":"13-常用公服设施点/CSV/上海市_图书馆.csv"},"geometry":{"type":"Point","coordinates":[121.455885,31.227151]}},{"id":"69","type":"Feature","properties":{"id":"B001543697","name":"上海少年儿童图书馆","address":"南京西路962号(近茂名北路)","type":"科教文化服务;图书馆;图书馆","typecode":"140500","pcode":310000,"pname":"上海市","citycode":21,"cityname":"上海市","adcode":310106,"adname":"静安区","business_area":"淮海路","location":"121.457973,31.229835","tel":"021-62172556;021-62189699","bigType":"科教文化服务","midType":"图书馆","smallType":"图书馆","gcj_lng":121.457973,"gcj_lat":31.229835,"wgs84_loc":"121.453402,31.231738","wgs84Lng":121.453402,"wgs84Lat":31.231738,"__source_file__":"13-常用公服设施点/CSV/上海市_图书馆.csv"},"geometry":{"type":"Point","coordinates":[121.453402,31.231738]}},{"id":"446","type":"Feature","properties":{"id":"B0FFLOHWHG","name":"楼梯(上海少年儿童图书馆)","address":"南汇路与奉贤路交叉口西北40米","type":"科教文化服务;图书馆;图书馆","typecode":"140500","pcode":310000,"pname":"上海市","citycode":21,"cityname":"上海市","adcode":310106,"adname":"静安区","business_area":"淮海路","location":"121.456693,31.230089","tel":"[]","bigType":"科教文化服务","midType":"图书馆","smallType":"图书馆","gcj_lng":121.456693,"gcj_lat":31.230089,"wgs84_loc":"121.452119,31.231989","wgs84Lng":121.452119,"wgs84Lat":31.231989,"__source_file__":"13-常用公服设施点/CSV/上海市_图书馆.csv"},"geometry":{"type":"Point","coordinates":[121.452119,31.231989]}},{"id":"61","type":"Feature","properties":{"id":"B0FFFVL3QH","name":"明天广场金威万豪酒店-图书馆","address":"南京西路399号明天广场金威万豪酒店60层","type":"科教文化服务;图书馆;图书馆","typecode":"140500","pcode":310000,"pname":"上海市","citycode":21,"cityname":"上海市","adcode":310101,"adname":"黄浦区","business_area":"北京东路","location":"121.470020,31.230379","tel":"[]","bigType":"科教文化服务","midType":"图书馆","smallType":"图书馆","gcj_lng":121.47002,"gcj_lat":31.230379,"wgs84_loc":"121.465485,31.232311","wgs84Lng":121.465485,"wgs84Lat":31.232311,"__source_file__":"13-常用公服设施点/CSV/上海市_图书馆.csv"},"geometry":{"type":"Point","coordinates":[121.465485,31.232311]}},{"id":"57","type":"Feature","properties":{"id":"B00155KKB0","name":"南京东路街道社区图书馆","address":"牯岭路111号","type":"科教文化服务;图书馆;图书馆","typecode":"140500","pcode":310000,"pname":"上海市","citycode":21,"cityname":"上海市","adcode":310101,"adname":"黄浦区","business_area":"北京东路","location":"121.471792,31.236136","tel":"021-63581297","bigType":"科教文化服务","midType":"图书馆","smallType":"图书馆","gcj_lng":121.471792,"gcj_lat":31.236136,"wgs84_loc":"121.467262,31.23807","wgs84Lng":121.467262,"wgs84Lat":31.23807,"__source_file__":"13-常用公服设施点/CSV/上海市_图书馆.csv"},"geometry":{"type":"Point","coordinates":[121.467262,31.23807]}},{"id":"66","type":"Feature","properties":{"id":"B0FFGCHRH6","name":"静安区少年儿童图书馆(康定东路)","address":"康定东路28号","type":"科教文化服务;图书馆;图书馆","typecode":"140500","pcode":310000,"pname":"上海市","citycode":21,"cityname":"上海市","adcode":310106,"adname":"静安区","business_area":"[]","location":"121.456318,31.237688","tel":"021-62581211","bigType":"科教文化服务","midType":"图书馆","smallType":"图书馆","gcj_lng":121.456318,"gcj_lat":31.237688,"wgs84_loc":"121.451742,31.239583","wgs84Lng":121.451742,"wgs84Lat":31.239583,"__source_file__":"13-常用公服设施点/CSV/上海市_图书馆.csv"},"geometry":{"type":"Point","coordinates":[121.451742,31.239583]}},{"id":"469","type":"Feature","properties":{"id":"B0J1VD1KW2","name":"北站艺术图书馆","address":"西藏北路与曲阜西路交叉口南40米","type":"科教文化服务;图书馆;图书馆","typecode":"140500","pcode":310000,"pname":"上海市","citycode":21,"cityname":"上海市","adcode":310106,"adname":"静安区","business_area":"北京路","location":"121.471366,31.241902","tel":"[]","bigType":"科教文化服务","midType":"图书馆","smallType":"图书馆","gcj_lng":121.471366,"gcj_lat":31.241902,"wgs84_loc":"121.466834,31.243833","wgs84Lng":121.466834,"wgs84Lat":31.243833,"__source_file__":"13-常用公服设施点/CSV/上海市_图书馆.csv"},"geometry":{"type":"Point","coordinates":[121.466834,31.243833]}},{"id":"60","type":"Feature","properties":{"id":"B00155E905","name":"上海市工人文化宫图书馆阅览室(装修中)","address":"西藏中路120号上海市工人文化宫4层","type":"科教文化服务;图书馆;图书馆","typecode":"140500","pcode":310000,"pname":"上海市","citycode":21,"cityname":"上海市","adcode":310101,"adname":"黄浦区","business_area":"淮海路","location":"121.477673,31.23051","tel":"021-63226155","bigType":"科教文化服务","midType":"图书馆","smallType":"图书馆","gcj_lng":121.477673,"gcj_lat":31.23051,"wgs84_loc":"121.473163,31.232463","wgs84Lng":121.473163,"wgs84Lat":31.232463,"__source_file__":"13-常用公服设施点/CSV/上海市_图书馆.csv"},"geometry":{"type":"Point","coordinates":[121.473163,31.232463]}},{"id":"19","type":"Feature","properties":{"id":"B0FFJ2U14Q","name":"黄浦区图书馆(装修中)","address":"广西北路158号17楼","type":"科教文化服务;图书馆;图书馆","typecode":"140500","pcode":310000,"pname":"上海市","citycode":21,"cityname":"上海市","adcode":310101,"adname":"黄浦区","business_area":"北京东路","location":"121.478621,31.231958","tel":"[]","bigType":"科教文化服务","midType":"图书馆","smallType":"图书馆","gcj_lng":121.478621,"gcj_lat":31.231958,"wgs84_loc":"121.474114,31.233913","wgs84Lng":121.474114,"wgs84Lat":31.233913,"__source_file__":"13-常用公服设施点/CSV/上海市_图书馆.csv"},"geometry":{"type":"Point","coordinates":[121.474114,31.233913]}},{"id":"22","type":"Feature","properties":{"id":"B00155FDIN","name":"上海市中心图书馆黄浦分馆(装修中)","address":"福州路655号","type":"科教文化服务;图书馆;图书馆","typecode":"140500","pcode":310000,"pname":"上海市","citycode":21,"cityname":"上海市","adcode":310101,"adname":"黄浦区","business_area":"北京东路","location":"121.478719,31.232071","tel":"021-63510176;021-63528877","bigType":"科教文化服务","midType":"图书馆","smallType":"图书馆","gcj_lng":121.478719,"gcj_lat":31.232071,"wgs84_loc":"121.474212,31.234026","wgs84Lng":121.474212,"wgs84Lat":31.234026,"__source_file__":"13-常用公服设施点/CSV/上海市_图书馆.csv"},"geometry":{"type":"Point","coordinates":[121.474212,31.234026]}},{"id":"425","type":"Feature","properties":{"id":"B0FFGEQYQI","name":"上海市商贸旅游学校电子阅览室","address":"牛庄路与云南北路交叉口东北20米","type":"科教文化服务;图书馆;图书馆","typecode":"140500","pcode":310000,"pname":"上海市","citycode":21,"cityname":"上海市","adcode":310101,"adname":"黄浦区","business_area":"北京东路","location":"121.475266,31.237164","tel":"[]","bigType":"科教文化服务","midType":"图书馆","smallType":"图书馆","gcj_lng":121.475266,"gcj_lat":31.237164,"wgs84_loc":"121.470747,31.239107","wgs84Lng":121.470747,"wgs84Lat":31.239107,"__source_file__":"13-常用公服设施点/CSV/上海市_图书馆.csv"},"geometry":{"type":"Point","coordinates":[121.470747,31.239107]}},{"id":"477","type":"Feature","properties":{"id":"B0J3YSC97U","name":"城市考古图书馆","address":"洛克·外滩源(南京东路地铁站6号口步行490米)","type":"科教文化服务;图书馆;图书馆","typecode":"140500","pcode":310000,"pname":"上海市","citycode":21,"cityname":"上海市","adcode":310101,"adname":"黄浦区","business_area":"北京路","location":"121.487798,31.241668","tel":"[]","bigType":"科教文化服务","midType":"图书馆","smallType":"图书馆","gcj_lng":121.487798,"gcj_lat":31.241668,"wgs84_loc":"121.483322,31.243645","wgs84Lng":121.483322,"wgs84Lat":31.243645,"__source_file__":"13-常用公服设施点/CSV/上海市_图书馆.csv"},"geometry":{"type":"Point","coordinates":[121.483322,31.243645]}},{"id":"27","type":"Feature","properties":{"id":"B0FFHUATOS","name":"静安区24小时自助图书馆","address":"上海大悦城南座南门","type":"科教文化服务;图书馆;图书馆","typecode":"140500","pcode":310000,"pname":"上海市","citycode":21,"cityname":"上海市","adcode":310106,"adname":"静安区","business_area":"七浦路","location":"121.472313,31.242706","tel":"[]","bigType":"科教文化服务","midType":"图书馆","smallType":"图书馆","gcj_lng":121.472313,"gcj_lat":31.242706,"wgs84_loc":"121.467784,31.244639","wgs84Lng":121.467784,"wgs84Lat":31.244639,"__source_file__":"13-常用公服设施点/CSV/上海市_图书馆.csv"},"geometry":{"type":"Point","coordinates":[121.467784,31.244639]}},{"id":"7","type":"Feature","properties":{"id":"B0G10CEYZP","name":"静安区图书馆(天目路馆)","address":"天目中路2号","type":"科教文化服务;图书馆;图书馆","typecode":"140500","pcode":310000,"pname":"上海市","citycode":21,"cityname":"上海市","adcode":310106,"adname":"静安区","business_area":"宝山路","location":"121.473820,31.248381","tel":"[]","bigType":"科教文化服务","midType":"图书馆","smallType":"图书馆","gcj_lng":121.47382,"gcj_lat":31.248381,"wgs84_loc":"121.469296,31.250315","wgs84Lng":121.469296,"wgs84Lat":31.250315,"__source_file__":"13-常用公服设施点/CSV/上海市_图书馆.csv"},"geometry":{"type":"Point","coordinates":[121.469296,31.250315]}},{"id":"183","type":"Feature","properties":{"id":"B0015757E7","name":"虹口区图书馆(乍浦分馆)","address":"乍浦路245号","type":"科教文化服务;图书馆;图书馆","typecode":"140500","pcode":310000,"pname":"上海市","citycode":21,"cityname":"上海市","adcode":310109,"adname":"虹口区","business_area":"七浦路","location":"121.487121,31.248707","tel":"021-63252946","bigType":"科教文化服务","midType":"图书馆","smallType":"图书馆","gcj_lng":121.487121,"gcj_lat":31.248707,"wgs84_loc":"121.482642,31.250679","wgs84Lng":121.482642,"wgs84Lat":31.250679,"__source_file__":"13-常用公服设施点/CSV/上海市_图书馆.csv"},"geometry":{"type":"Point","coordinates":[121.482642,31.250679]}},{"id":"471","type":"Feature","properties":{"id":"B0K0TMOWZH","name":"巴金图书馆","address":"武进路455号(四川北路地铁站3号口步行140米)","type":"科教文化服务;图书馆;图书馆","typecode":"140500","pcode":310000,"pname":"上海市","citycode":21,"cityname":"上海市","adcode":310109,"adname":"虹口区","business_area":"七浦路","location":"121.482500,31.250846","tel":"[]","bigType":"科教文化服务","midType":"图书馆","smallType":"图书馆","gcj_lng":121.4825,"gcj_lat":31.250846,"wgs84_loc":"121.478005,31.252804","wgs84Lng":121.478005,"wgs84Lat":31.252804,"__source_file__":"13-常用公服设施点/CSV/上海市_图书馆.csv"},"geometry":{"type":"Point","coordinates":[121.478005,31.252804]}},{"id":"15","type":"Feature","properties":{"id":"B0FFH10VX6","name":"宝山路街道图书馆","address":"宝昌路533号","type":"科教文化服务;图书馆;图书馆","typecode":"140500","pcode":310000,"pname":"上海市","citycode":21,"cityname":"上海市","adcode":310106,"adname":"静安区","business_area":"宝山路","location":"121.472765,31.260193","tel":"021-56986024","bigType":"科教文化服务","midType":"图书馆","smallType":"图书馆","gcj_lng":121.472765,"gcj_lat":31.260193,"wgs84_loc":"121.468236,31.262119","wgs84Lng":121.468236,"wgs84Lat":31.262119,"__source_file__":"13-常用公服设施点/CSV/上海市_图书馆.csv"},"geometry":{"type":"Point","coordinates":[121.468236,31.262119]}},{"id":"418","type":"Feature","properties":{"id":"B0FFH9UEQY","name":"长寿文化中心图书馆","address":"长寿路街道新会路35号1楼","type":"科教文化服务;图书馆;图书馆","typecode":"140500","pcode":310000,"pname":"上海市","citycode":21,"cityname":"上海市","adcode":310107,"adname":"普陀区","business_area":"曹家渡","location":"121.444227,31.242573","tel":"[]","bigType":"科教文化服务","midType":"图书馆","smallType":"图书馆","gcj_lng":121.444227,"gcj_lat":31.242573,"wgs84_loc":"121.439621,31.244441","wgs84Lng":121.439621,"wgs84Lat":31.244441,"__source_file__":"13-常用公服设施点/CSV/上海市_图书馆.csv"},"geometry":{"type":"Point","coordinates":[121.439621,31.244441]}},{"id":"285","type":"Feature","properties":{"id":"B0H6L4B195","name":"悠贝亲子图书馆(长寿路分馆)","address":"长寿路155号巴黎春天三楼","type":"科教文化服务;图书馆;图书馆","typecode":"140500","pcode":310000,"pname":"上海市","citycode":21,"cityname":"上海市","adcode":310107,"adname":"普陀区","business_area":"曹家渡","location":"121.441376,31.242981","tel":"[]","bigType":"科教文化服务","midType":"图书馆","smallType":"图书馆","gcj_lng":121.441376,"gcj_lat":31.242981,"wgs84_loc":"121.436764,31.244844","wgs84Lng":121.436764,"wgs84Lat":31.244844,"__source_file__":"13-常用公服设施点/CSV/上海市_图书馆.csv"},"geometry":{"type":"Point","coordinates":[121.436764,31.244844]}},{"id":"319","type":"Feature","properties":{"id":"B0IBXLP82D","name":"甘泉路街道图书馆","address":"延长西路400号(子长小区内)","type":"科教文化服务;图书馆;图书馆","typecode":"140500","pcode":310000,"pname":"上海市","citycode":21,"cityname":"上海市","adcode":310107,"adname":"普陀区","business_area":"大宁路","location":"121.436616,31.261776","tel":"[]","bigType":"科教文化服务","midType":"图书馆","smallType":"图书馆","gcj_lng":121.436616,"gcj_lat":31.261776,"wgs84_loc":"121.431993,31.263623","wgs84Lng":121.431993,"wgs84Lat":31.263623,"__source_file__":"13-常用公服设施点/CSV/上海市_图书馆.csv"},"geometry":{"type":"Point","coordinates":[121.431993,31.263623]}},{"id":"188","type":"Feature","properties":{"id":"B0015188D0","name":"普陀区少年儿童图书馆","address":"[]","type":"科教文化服务;图书馆;图书馆","typecode":"140500","pcode":310000,"pname":"上海市","citycode":21,"cityname":"上海市","adcode":310107,"adname":"普陀区","business_area":"光新","location":"121.436568,31.261804","tel":"[]","bigType":"科教文化服务","midType":"图书馆","smallType":"图书馆","gcj_lng":121.436568,"gcj_lat":31.261804,"wgs84_loc":"121.431945,31.263651","wgs84Lng":121.431945,"wgs84Lat":31.263651,"__source_file__":"13-常用公服设施点/CSV/上海市_图书馆.csv"},"geometry":{"type":"Point","coordinates":[121.431945,31.263651]}},{"id":"65","type":"Feature","properties":{"id":"B0FFKWLBFZ","name":"静安区24小时自助图书馆","address":"商场西路与大宁路交叉口东南约60米","type":"科教文化服务;图书馆;图书馆","typecode":"140500","pcode":310000,"pname":"上海市","citycode":21,"cityname":"上海市","adcode":310106,"adname":"静安区","business_area":"大宁路","location":"121.450832,31.274129","tel":"[]","bigType":"科教文化服务","midType":"图书馆","smallType":"图书馆","gcj_lng":121.450832,"gcj_lat":31.274129,"wgs84_loc":"121.446239,31.275997","wgs84Lng":121.446239,"wgs84Lat":31.275997,"__source_file__":"13-常用公服设施点/CSV/上海市_图书馆.csv"},"geometry":{"type":"Point","coordinates":[121.446239,31.275997]}},{"id":"76","type":"Feature","properties":{"id":"B0FFFWU4BD","name":"芷江西路街道图书馆","address":"芷江西路151号芷江西社区文化活动中心三楼(共和新路芷江西路)","type":"科教文化服务;图书馆;图书馆","typecode":"140500","pcode":310000,"pname":"上海市","citycode":21,"cityname":"上海市","adcode":310106,"adname":"静安区","business_area":"宝山路","location":"121.464557,31.258357","tel":"021-56971953","bigType":"科教文化服务","midType":"图书馆","smallType":"图书馆","gcj_lng":121.464557,"gcj_lat":31.258357,"wgs84_loc":"121.460003,31.260263","wgs84Lng":121.460003,"wgs84Lat":31.260263,"__source_file__":"13-常用公服设施点/CSV/上海市_图书馆.csv"},"geometry":{"type":"Point","coordinates":[121.460003,31.260263]}},{"id":"73","type":"Feature","properties":{"id":"B0FFFLIJW1","name":"同济大学沪北校区图书馆","address":"中山北路727同济大学沪北校区附近","type":"科教文化服务;图书馆;图书馆","typecode":"140500","pcode":310000,"pname":"上海市","citycode":21,"cityname":"上海市","adcode":310106,"adname":"静安区","business_area":"和田","location":"121.458468,31.261201","tel":"[]","bigType":"科教文化服务","midType":"图书馆","smallType":"图书馆","gcj_lng":121.458468,"gcj_lat":31.261201,"wgs84_loc":"121.453896,31.263091","wgs84Lng":121.453896,"wgs84Lat":31.263091,"__source_file__":"13-常用公服设施点/CSV/上海市_图书馆.csv"},"geometry":{"type":"Point","coordinates":[121.453896,31.263091]}},{"id":"68","type":"Feature","properties":{"id":"B0FFK8Y2Y1","name":"静安区24小时自助图书馆","address":"南北高架路闸北公园西南侧","type":"科教文化服务;图书馆;图书馆","typecode":"140500","pcode":310000,"pname":"上海市","citycode":21,"cityname":"上海市","adcode":310106,"adname":"静安区","business_area":"大宁路","location":"121.457914,31.268871","tel":"18666105257","bigType":"科教文化服务","midType":"图书馆","smallType":"图书馆","gcj_lng":121.457914,"gcj_lat":31.268871,"wgs84_loc":"121.45334,31.270756","wgs84Lng":121.45334,"wgs84Lat":31.270756,"__source_file__":"13-常用公服设施点/CSV/上海市_图书馆.csv"},"geometry":{"type":"Point","coordinates":[121.45334,31.270756]}},{"id":"240","type":"Feature","properties":{"id":"B0FFGBXGDR","name":"上海市公共卫生临床中心复旦大学附属中山医院南院-医务图书馆","address":"同心路921号5号楼(自行车库楼上)","type":"科教文化服务;图书馆;图书馆","typecode":"140500","pcode":310000,"pname":"上海市","citycode":21,"cityname":"上海市","adcode":310109,"adname":"虹口区","business_area":"和田","location":"121.470904,31.273236","tel":"021-37990333","bigType":"科教文化服务","midType":"图书馆","smallType":"图书馆","gcj_lng":121.470904,"gcj_lat":31.273236,"wgs84_loc":"121.466368,31.275152","wgs84Lng":121.466368,"wgs84Lat":31.275152,"__source_file__":"13-常用公服设施点/CSV/上海市_图书馆.csv"},"geometry":{"type":"Point","coordinates":[121.466368,31.275152]}},{"id":"77","type":"Feature","properties":{"id":"B0FFFRO35V","name":"上海大学延长校区-老图书馆","address":"广中路788上海大学延长校区","type":"科教文化服务;图书馆;图书馆","typecode":"140500","pcode":310000,"pname":"上海市","citycode":21,"cityname":"上海市","adcode":310106,"adname":"静安区","business_area":"大宁路","location":"121.458750,31.276358","tel":"96928188","bigType":"科教文化服务","midType":"图书馆","smallType":"图书馆","gcj_lng":121.45875,"gcj_lat":31.276358,"wgs84_loc":"121.454178,31.278242","wgs84Lng":121.454178,"wgs84Lat":31.278242,"__source_file__":"13-常用公服设施点/CSV/上海市_图书馆.csv"},"geometry":{"type":"Point","coordinates":[121.454178,31.278242]}},{"id":"239","type":"Feature","properties":{"id":"B00155MEHW","name":"嘉兴路街道图书馆(装修中)","address":"香烟桥路87号嘉兴社区文化中心1层","type":"科教文化服务;图书馆;图书馆","typecode":"140500","pcode":310000,"pname":"上海市","citycode":21,"cityname":"上海市","adcode":310109,"adname":"虹口区","business_area":"四平路","location":"121.493100,31.262193","tel":"[]","bigType":"科教文化服务","midType":"图书馆","smallType":"图书馆","gcj_lng":121.4931,"gcj_lat":31.262193,"wgs84_loc":"121.488641,31.264177","wgs84Lng":121.488641,"wgs84Lat":31.264177,"__source_file__":"13-常用公服设施点/CSV/上海市_图书馆.csv"},"geometry":{"type":"Point","coordinates":[121.488641,31.264177]}},{"id":"31","type":"Feature","properties":{"id":"B0FFILC6XJ","name":"财智少年图书馆","address":"东江湾路与东体育会支路交叉口西约40米","type":"科教文化服务;图书馆;图书馆","typecode":"140500","pcode":310000,"pname":"上海市","citycode":21,"cityname":"上海市","adcode":310109,"adname":"虹口区","business_area":"江湾","location":"121.479093,31.273197","tel":"[]","bigType":"科教文化服务","midType":"图书馆","smallType":"图书馆","gcj_lng":121.479093,"gcj_lat":31.273197,"wgs84_loc":"121.474584,31.275135","wgs84Lng":121.474584,"wgs84Lat":31.275135,"__source_file__":"13-常用公服设施点/CSV/上海市_图书馆.csv"},"geometry":{"type":"Point","coordinates":[121.474584,31.275135]}}],"name":"上海市_图书馆","crs":{"type":"name","properties":{"name":"urn:ogc:def:crs:OGC:1.3:CRS84"}}}