{"type":"FeatureCollection","features":[{"id":"15","type":"Feature","properties":{"id":"B0HGTZ8HXT","name":"茂名南路","address":"黄浦区","type":"地名地址信息;热点地名;热点地名","typecode":190700,"pcode":310000,"pname":"上海市","citycode":21,"cityname":"上海市","adcode":310101,"adname":"黄浦区","business_area":"淮海路","location":"121.461309,31.218078","tel":"[]","bigType":"地名地址信息","midType":"热点地名","smallType":"热点地名","gcj_lng":121.461309,"gcj_lat":31.218078,"wgs84_loc":"121.456749,31.219994","wgs84Lng":121.456749,"wgs84Lat":31.219994,"__source_file__":"13-常用公服设施点/CSV/上海市_热点地名.csv"},"geometry":{"type":"Point","coordinates":[121.456749,31.219994]}},{"id":"215","type":"Feature","properties":{"id":"B0KUNRPC0A","name":"静安寺","address":"静安区","type":"地名地址信息;热点地名;热点地名","typecode":190700,"pcode":310000,"pname":"上海市","citycode":21,"cityname":"上海市","adcode":310106,"adname":"静安区","business_area":"静安寺","location":"121.445839,31.223167","tel":"[]","bigType":"地名地址信息","midType":"热点地名","smallType":"热点地名","gcj_lng":121.445839,"gcj_lat":31.223167,"wgs84_loc":"121.441239,31.225047","wgs84Lng":121.441239,"wgs84Lat":31.225047,"__source_file__":"13-常用公服设施点/CSV/上海市_热点地名.csv"},"geometry":{"type":"Point","coordinates":[121.441239,31.225047]}},{"id":"31","type":"Feature","properties":{"id":"B0FFFDSGSD","name":"曹家渡","address":"静安区","type":"地名地址信息;热点地名;热点地名","typecode":190700,"pcode":310000,"pname":"上海市","citycode":21,"cityname":"上海市","adcode":310106,"adname":"静安区","business_area":"曹家渡","location":"121.435036,31.229950","tel":"[]","bigType":"地名地址信息","midType":"热点地名","smallType":"热点地名","gcj_lng":121.435036,"gcj_lat":31.22995,"wgs84_loc":"121.430413,31.231809","wgs84Lng":121.430413,"wgs84Lat":31.231809,"__source_file__":"13-常用公服设施点/CSV/上海市_热点地名.csv"},"geometry":{"type":"Point","coordinates":[121.430413,31.231809]}},{"id":"224","type":"Feature","properties":{"id":"B0KUBMTACZ","name":"康定路","address":"静安区","type":"地名地址信息;热点地名;热点地名","typecode":190700,"pcode":310000,"pname":"上海市","citycode":21,"cityname":"上海市","adcode":310106,"adname":"静安区","business_area":"[]","location":"121.441997,31.232072","tel":"[]","bigType":"地名地址信息","midType":"热点地名","smallType":"热点地名","gcj_lng":121.441997,"gcj_lat":31.232072,"wgs84_loc":"121.437387,31.233941","wgs84Lng":121.437387,"wgs84Lat":31.233941,"__source_file__":"13-常用公服设施点/CSV/上海市_热点地名.csv"},"geometry":{"type":"Point","coordinates":[121.437387,31.233941]}},{"id":"22","type":"Feature","properties":{"id":"B0HGTZ8331","name":"新闸路","address":"静安区","type":"地名地址信息;热点地名;热点地名","typecode":190700,"pcode":310000,"pname":"上海市","citycode":21,"cityname":"上海市","adcode":310106,"adname":"静安区","business_area":"曹家渡","location":"121.456815,31.233960","tel":"[]","bigType":"地名地址信息","midType":"热点地名","smallType":"热点地名","gcj_lng":121.456815,"gcj_lat":31.23396,"wgs84_loc":"121.452241,31.235858","wgs84Lng":121.452241,"wgs84Lat":31.235858,"__source_file__":"13-常用公服设施点/CSV/上海市_热点地名.csv"},"geometry":{"type":"Point","coordinates":[121.452241,31.235858]}},{"id":"24","type":"Feature","properties":{"id":"B0HGTZ7VON","name":"西康路","address":"静安区","type":"地名地址信息;热点地名;热点地名","typecode":190700,"pcode":310000,"pname":"上海市","citycode":21,"cityname":"上海市","adcode":310106,"adname":"静安区","business_area":"曹家渡","location":"121.444414,31.236973","tel":"[]","bigType":"地名地址信息","midType":"热点地名","smallType":"热点地名","gcj_lng":121.444414,"gcj_lat":31.236973,"wgs84_loc":"121.439809,31.238844","wgs84Lng":121.439809,"wgs84Lat":31.238844,"__source_file__":"13-常用公服设施点/CSV/上海市_热点地名.csv"},"geometry":{"type":"Point","coordinates":[121.439809,31.238844]}},{"id":"23","type":"Feature","properties":{"id":"B0HGTZ8IAP","name":"江宁路","address":"静安区","type":"地名地址信息;热点地名;热点地名","typecode":190700,"pcode":310000,"pname":"上海市","citycode":21,"cityname":"上海市","adcode":310106,"adname":"静安区","business_area":"曹家渡","location":"121.447735,31.238150","tel":"[]","bigType":"地名地址信息","midType":"热点地名","smallType":"热点地名","gcj_lng":121.447735,"gcj_lat":31.23815,"wgs84_loc":"121.443138,31.240027","wgs84Lng":121.443138,"wgs84Lat":31.240027,"__source_file__":"13-常用公服设施点/CSV/上海市_热点地名.csv"},"geometry":{"type":"Point","coordinates":[121.443138,31.240027]}},{"id":"239","type":"Feature","properties":{"id":"B0KUN7L6QF","name":"长寿路","address":"普陀区","type":"地名地址信息;热点地名;热点地名","typecode":190700,"pcode":310000,"pname":"上海市","citycode":21,"cityname":"上海市","adcode":310107,"adname":"普陀区","business_area":"长寿路","location":"121.436166,31.240268","tel":"[]","bigType":"地名地址信息","midType":"热点地名","smallType":"热点地名","gcj_lng":121.436166,"gcj_lat":31.240268,"wgs84_loc":"121.431544,31.242124","wgs84Lng":121.431544,"wgs84Lat":31.242124,"__source_file__":"13-常用公服设施点/CSV/上海市_热点地名.csv"},"geometry":{"type":"Point","coordinates":[121.431544,31.242124]}},{"id":"223","type":"Feature","properties":{"id":"B0K0JZB99W","name":"不夜城","address":"静安区","type":"地名地址信息;热点地名;热点地名","typecode":190700,"pcode":310000,"pname":"上海市","citycode":21,"cityname":"上海市","adcode":310106,"adname":"静安区","business_area":"不夜城","location":"121.456969,31.244849","tel":"[]","bigType":"地名地址信息","midType":"热点地名","smallType":"热点地名","gcj_lng":121.456969,"gcj_lat":31.244849,"wgs84_loc":"121.452394,31.246743","wgs84Lng":121.452394,"wgs84Lat":31.246743,"__source_file__":"13-常用公服设施点/CSV/上海市_热点地名.csv"},"geometry":{"type":"Point","coordinates":[121.452394,31.246743]}},{"id":"8","type":"Feature","properties":{"id":"B00156EVQJ","name":"淮海路","address":"黄浦区","type":"地名地址信息;热点地名;热点地名","typecode":190700,"pcode":310000,"pname":"上海市","citycode":21,"cityname":"上海市","adcode":310101,"adname":"黄浦区","business_area":"淮海路","location":"121.469376,31.221292","tel":"[]","bigType":"地名地址信息","midType":"热点地名","smallType":"热点地名","gcj_lng":121.469376,"gcj_lat":31.221292,"wgs84_loc":"121.46484,31.223227","wgs84Lng":121.46484,"wgs84Lat":31.223227,"__source_file__":"13-常用公服设施点/CSV/上海市_热点地名.csv"},"geometry":{"type":"Point","coordinates":[121.46484,31.223227]}},{"id":"13","type":"Feature","properties":{"id":"B0HGTZ8XYE","name":"金陵东路","address":"黄浦区","type":"地名地址信息;热点地名;热点地名","typecode":190700,"pcode":310000,"pname":"上海市","citycode":21,"cityname":"上海市","adcode":310101,"adname":"黄浦区","business_area":"北京东路","location":"121.485702,31.229365","tel":"[]","bigType":"地名地址信息","midType":"热点地名","smallType":"热点地名","gcj_lng":121.485702,"gcj_lat":31.229365,"wgs84_loc":"121.48122,31.231342","wgs84Lng":121.48122,"wgs84Lat":31.231342,"__source_file__":"13-常用公服设施点/CSV/上海市_热点地名.csv"},"geometry":{"type":"Point","coordinates":[121.48122,31.231342]}},{"id":"213","type":"Feature","properties":{"id":"B0KUNUNG7Y","name":"人民广场","address":"黄浦区","type":"地名地址信息;热点地名;热点地名","typecode":190700,"pcode":310000,"pname":"上海市","citycode":21,"cityname":"上海市","adcode":310101,"adname":"黄浦区","business_area":"北京路","location":"121.476629,31.232076","tel":"[]","bigType":"地名地址信息","midType":"热点地名","smallType":"热点地名","gcj_lng":121.476629,"gcj_lat":31.232076,"wgs84_loc":"121.472115,31.234026","wgs84Lng":121.472115,"wgs84Lat":31.234026,"__source_file__":"13-常用公服设施点/CSV/上海市_热点地名.csv"},"geometry":{"type":"Point","coordinates":[121.472115,31.234026]}},{"id":"217","type":"Feature","properties":{"id":"B0KUNR6587","name":"南京东路","address":"黄浦区","type":"地名地址信息;热点地名;热点地名","typecode":190700,"pcode":310000,"pname":"上海市","citycode":21,"cityname":"上海市","adcode":310101,"adname":"黄浦区","business_area":"北京路","location":"121.477072,31.234663","tel":"[]","bigType":"地名地址信息","midType":"热点地名","smallType":"热点地名","gcj_lng":121.477072,"gcj_lat":31.234663,"wgs84_loc":"121.47256,31.236613","wgs84Lng":121.47256,"wgs84Lat":31.236613,"__source_file__":"13-常用公服设施点/CSV/上海市_热点地名.csv"},"geometry":{"type":"Point","coordinates":[121.47256,31.236613]}},{"id":"212","type":"Feature","properties":{"id":"B0KUN7L6A5","name":"外滩","address":"黄浦区","type":"地名地址信息;热点地名;热点地名","typecode":190700,"pcode":310000,"pname":"上海市","citycode":21,"cityname":"上海市","adcode":310101,"adname":"黄浦区","business_area":"北京路","location":"121.483723,31.238521","tel":"[]","bigType":"地名地址信息","midType":"热点地名","smallType":"热点地名","gcj_lng":121.483723,"gcj_lat":31.238521,"wgs84_loc":"121.479233,31.240488","wgs84Lng":121.479233,"wgs84Lat":31.240488,"__source_file__":"13-常用公服设施点/CSV/上海市_热点地名.csv"},"geometry":{"type":"Point","coordinates":[121.479233,31.240488]}},{"id":"14","type":"Feature","properties":{"id":"B0HGTZ9C1K","name":"北京东路","address":"黄浦区","type":"地名地址信息;热点地名;热点地名","typecode":190700,"pcode":310000,"pname":"上海市","citycode":21,"cityname":"上海市","adcode":310101,"adname":"黄浦区","business_area":"北京东路","location":"121.481498,31.239494","tel":"[]","bigType":"地名地址信息","midType":"热点地名","smallType":"热点地名","gcj_lng":121.481498,"gcj_lat":31.239494,"wgs84_loc":"121.477,31.241454","wgs84Lng":121.477,"wgs84Lat":31.241454,"__source_file__":"13-常用公服设施点/CSV/上海市_热点地名.csv"},"geometry":{"type":"Point","coordinates":[121.477,31.241454]}},{"id":"218","type":"Feature","properties":{"id":"B0KUNRL6V2","name":"北京东路","address":"黄浦区","type":"地名地址信息;热点地名;热点地名","typecode":190700,"pcode":310000,"pname":"上海市","citycode":21,"cityname":"上海市","adcode":310101,"adname":"黄浦区","business_area":"北京路","location":"121.481613,31.239560","tel":"[]","bigType":"地名地址信息","midType":"热点地名","smallType":"热点地名","gcj_lng":121.481613,"gcj_lat":31.23956,"wgs84_loc":"121.477116,31.24152","wgs84Lng":121.477116,"wgs84Lat":31.24152,"__source_file__":"13-常用公服设施点/CSV/上海市_热点地名.csv"},"geometry":{"type":"Point","coordinates":[121.477116,31.24152]}},{"id":"21","type":"Feature","properties":{"id":"B0FFFDRV63","name":"七浦路","address":"静安区","type":"地名地址信息;热点地名;热点地名","typecode":190700,"pcode":310000,"pname":"上海市","citycode":21,"cityname":"上海市","adcode":310106,"adname":"静安区","business_area":"七浦路","location":"121.480980,31.245712","tel":"[]","bigType":"地名地址信息","midType":"热点地名","smallType":"热点地名","gcj_lng":121.48098,"gcj_lat":31.245712,"wgs84_loc":"121.47648,31.247668","wgs84Lng":121.47648,"wgs84Lat":31.247668,"__source_file__":"13-常用公服设施点/CSV/上海市_热点地名.csv"},"geometry":{"type":"Point","coordinates":[121.47648,31.247668]}},{"id":"226","type":"Feature","properties":{"id":"B0KUNRGV5X","name":"海宁路","address":"静安区","type":"地名地址信息;热点地名;热点地名","typecode":190700,"pcode":310000,"pname":"上海市","citycode":21,"cityname":"上海市","adcode":310106,"adname":"静安区","business_area":"七浦路","location":"121.480227,31.248291","tel":"[]","bigType":"地名地址信息","midType":"热点地名","smallType":"热点地名","gcj_lng":121.480227,"gcj_lat":31.248291,"wgs84_loc":"121.475724,31.250243","wgs84Lng":121.475724,"wgs84Lat":31.250243,"__source_file__":"13-常用公服设施点/CSV/上海市_热点地名.csv"},"geometry":{"type":"Point","coordinates":[121.475724,31.250243]}},{"id":"20","type":"Feature","properties":{"id":"B0HGTZ8HUX","name":"宝山路","address":"静安区","type":"地名地址信息;热点地名;热点地名","typecode":190700,"pcode":310000,"pname":"上海市","citycode":21,"cityname":"上海市","adcode":310106,"adname":"静安区","business_area":"宝山路","location":"121.475062,31.256218","tel":"[]","bigType":"地名地址信息","midType":"热点地名","smallType":"热点地名","gcj_lng":121.475062,"gcj_lat":31.256218,"wgs84_loc":"121.470541,31.258152","wgs84Lng":121.470541,"wgs84Lat":31.258152,"__source_file__":"13-常用公服设施点/CSV/上海市_热点地名.csv"},"geometry":{"type":"Point","coordinates":[121.470541,31.258152]}},{"id":"225","type":"Feature","properties":{"id":"B0KUNLUWVV","name":"西藏北路","address":"静安区","type":"地名地址信息;热点地名;热点地名","typecode":190700,"pcode":310000,"pname":"上海市","citycode":21,"cityname":"上海市","adcode":310106,"adname":"静安区","business_area":"宝山路","location":"121.467118,31.258364","tel":"[]","bigType":"地名地址信息","midType":"热点地名","smallType":"热点地名","gcj_lng":121.467118,"gcj_lat":31.258364,"wgs84_loc":"121.462572,31.260276","wgs84Lng":121.462572,"wgs84Lat":31.260276,"__source_file__":"13-常用公服设施点/CSV/上海市_热点地名.csv"},"geometry":{"type":"Point","coordinates":[121.462572,31.260276]}},{"id":"25","type":"Feature","properties":{"id":"B0HGTZ8BFT","name":"东宝兴路","address":"静安区","type":"地名地址信息;热点地名;热点地名","typecode":190700,"pcode":310000,"pname":"上海市","citycode":21,"cityname":"上海市","adcode":310106,"adname":"静安区","business_area":"宝山路","location":"121.478034,31.259629","tel":"[]","bigType":"地名地址信息","midType":"热点地名","smallType":"热点地名","gcj_lng":121.478034,"gcj_lat":31.259629,"wgs84_loc":"121.473523,31.26157","wgs84Lng":121.473523,"wgs84Lat":31.26157,"__source_file__":"13-常用公服设施点/CSV/上海市_热点地名.csv"},"geometry":{"type":"Point","coordinates":[121.473523,31.26157]}},{"id":"227","type":"Feature","properties":{"id":"B0KUNRQT0E","name":"四川北路","address":"虹口区","type":"地名地址信息;热点地名;热点地名","typecode":190700,"pcode":310000,"pname":"上海市","citycode":21,"cityname":"上海市","adcode":310109,"adname":"虹口区","business_area":"宝山路","location":"121.484088,31.260101","tel":"[]","bigType":"地名地址信息","midType":"热点地名","smallType":"热点地名","gcj_lng":121.484088,"gcj_lat":31.260101,"wgs84_loc":"121.479597,31.262059","wgs84Lng":121.479597,"wgs84Lat":31.262059,"__source_file__":"13-常用公服设施点/CSV/上海市_热点地名.csv"},"geometry":{"type":"Point","coordinates":[121.479597,31.262059]}},{"id":"211","type":"Feature","properties":{"id":"B0KUBAY45X","name":"临平路","address":"虹口区","type":"地名地址信息;热点地名;热点地名","typecode":190700,"pcode":310000,"pname":"上海市","citycode":21,"cityname":"上海市","adcode":310109,"adname":"虹口区","business_area":"四平路","location":"121.496090,31.261703","tel":"[]","bigType":"地名地址信息","midType":"热点地名","smallType":"热点地名","gcj_lng":121.49609,"gcj_lat":31.261703,"wgs84_loc":"121.491642,31.263696","wgs84Lng":121.491642,"wgs84Lat":31.263696,"__source_file__":"13-常用公服设施点/CSV/上海市_热点地名.csv"},"geometry":{"type":"Point","coordinates":[121.491642,31.263696]}},{"id":"32","type":"Feature","properties":{"id":"B0FFFDS2ED","name":"和田","address":"静安区","type":"地名地址信息;热点地名;热点地名","typecode":190700,"pcode":310000,"pname":"上海市","citycode":21,"cityname":"上海市","adcode":310106,"adname":"静安区","business_area":"和田","location":"121.464157,31.264284","tel":"[]","bigType":"地名地址信息","midType":"热点地名","smallType":"热点地名","gcj_lng":121.464157,"gcj_lat":31.264284,"wgs84_loc":"121.459601,31.266186","wgs84Lng":121.459601,"wgs84Lat":31.266186,"__source_file__":"13-常用公服设施点/CSV/上海市_热点地名.csv"},"geometry":{"type":"Point","coordinates":[121.459601,31.266186]}},{"id":"174","type":"Feature","properties":{"id":"B0HGTS96UY","name":"中山北路","address":"普陀区","type":"地名地址信息;热点地名;热点地名","typecode":190700,"pcode":310000,"pname":"上海市","citycode":21,"cityname":"上海市","adcode":310107,"adname":"普陀区","business_area":"光新","location":"121.432306,31.246140","tel":"[]","bigType":"地名地址信息","midType":"热点地名","smallType":"热点地名","gcj_lng":121.432306,"gcj_lat":31.24614,"wgs84_loc":"121.427677,31.247988","wgs84Lng":121.427677,"wgs84Lat":31.247988,"__source_file__":"13-常用公服设施点/CSV/上海市_热点地名.csv"},"geometry":{"type":"Point","coordinates":[121.427677,31.247988]}},{"id":"182","type":"Feature","properties":{"id":"B00156EVR3","name":"光新","address":"普陀区","type":"地名地址信息;热点地名;热点地名","typecode":190700,"pcode":310000,"pname":"上海市","citycode":21,"cityname":"上海市","adcode":310107,"adname":"普陀区","business_area":"光新","location":"121.431661,31.253543","tel":"[]","bigType":"地名地址信息","midType":"热点地名","smallType":"热点地名","gcj_lng":121.431661,"gcj_lat":31.253543,"wgs84_loc":"121.427031,31.255387","wgs84Lng":121.427031,"wgs84Lat":31.255387,"__source_file__":"13-常用公服设施点/CSV/上海市_热点地名.csv"},"geometry":{"type":"Point","coordinates":[121.427031,31.255387]}},{"id":"175","type":"Feature","properties":{"id":"B0HGTS9KAJ","name":"宜川路","address":"普陀区","type":"地名地址信息;热点地名;热点地名","typecode":190700,"pcode":310000,"pname":"上海市","citycode":21,"cityname":"上海市","adcode":310107,"adname":"普陀区","business_area":"大宁路","location":"121.440125,31.261046","tel":"[]","bigType":"地名地址信息","midType":"热点地名","smallType":"热点地名","gcj_lng":121.440125,"gcj_lat":31.261046,"wgs84_loc":"121.435509,31.262899","wgs84Lng":121.435509,"wgs84Lat":31.262899,"__source_file__":"13-常用公服设施点/CSV/上海市_热点地名.csv"},"geometry":{"type":"Point","coordinates":[121.435509,31.262899]}},{"id":"26","type":"Feature","properties":{"id":"B0HGTZ7VRS","name":"柳营路","address":"静安区","type":"地名地址信息;热点地名;热点地名","typecode":190700,"pcode":310000,"pname":"上海市","citycode":21,"cityname":"上海市","adcode":310106,"adname":"静安区","business_area":"和田","location":"121.459150,31.267096","tel":"[]","bigType":"地名地址信息","midType":"热点地名","smallType":"热点地名","gcj_lng":121.45915,"gcj_lat":31.267096,"wgs84_loc":"121.454579,31.268985","wgs84Lng":121.454579,"wgs84Lat":31.268985,"__source_file__":"13-常用公服设施点/CSV/上海市_热点地名.csv"},"geometry":{"type":"Point","coordinates":[121.454579,31.268985]}},{"id":"27","type":"Feature","properties":{"id":"B0HGTS7P3B","name":"延长路","address":"静安区","type":"地名地址信息;热点地名;热点地名","typecode":190700,"pcode":310000,"pname":"上海市","citycode":21,"cityname":"上海市","adcode":310106,"adname":"静安区","business_area":"大宁路","location":"121.453756,31.271386","tel":"[]","bigType":"地名地址信息","midType":"热点地名","smallType":"热点地名","gcj_lng":121.453756,"gcj_lat":31.271386,"wgs84_loc":"121.449171,31.273261","wgs84Lng":121.449171,"wgs84Lat":31.273261,"__source_file__":"13-常用公服设施点/CSV/上海市_热点地名.csv"},"geometry":{"type":"Point","coordinates":[121.449171,31.273261]}},{"id":"19","type":"Feature","properties":{"id":"B0HGTZ838R","name":"大宁路","address":"静安区","type":"地名地址信息;热点地名;热点地名","typecode":190700,"pcode":310000,"pname":"上海市","citycode":21,"cityname":"上海市","adcode":310106,"adname":"静安区","business_area":"大宁路","location":"121.451197,31.273849","tel":"[]","bigType":"地名地址信息","midType":"热点地名","smallType":"热点地名","gcj_lng":121.451197,"gcj_lat":31.273849,"wgs84_loc":"121.446605,31.275717","wgs84Lng":121.446605,"wgs84Lat":31.275717,"__source_file__":"13-常用公服设施点/CSV/上海市_热点地名.csv"},"geometry":{"type":"Point","coordinates":[121.446605,31.275717]}}],"name":"上海市_热点地名","crs":{"type":"name","properties":{"name":"urn:ogc:def:crs:OGC:1.3:CRS84"}}}