{"type":"FeatureCollection","features":[{"id":"0","type":"Feature","properties":{"id":"B0FFFQ6934","name":"上海延安路高架龙柱","address":"黄浦区","type":"地名地址信息;标志性建筑物;标志性建筑物","typecode":190600,"pcode":310000,"pname":"上海市","citycode":21,"cityname":"上海市","adcode":310101,"adname":"黄浦区","business_area":"淮海路","location":"121.469232,31.224367","tel":"[]","bigType":"地名地址信息","midType":"标志性建筑物","smallType":"标志性建筑物","gcj_lng":121.469232,"gcj_lat":31.224367,"wgs84_loc":"121.464695,31.2263","wgs84Lng":121.464695,"wgs84Lat":31.2263,"__source_file__":"13-常用公服设施点/CSV/上海市_标志性建筑物.csv"},"geometry":{"type":"Point","coordinates":[121.464695,31.2263]}}],"name":"上海市_标志性建筑物","crs":{"type":"name","properties":{"name":"urn:ogc:def:crs:OGC:1.3:CRS84"}}}