{"type":"FeatureCollection","features":[{"id":"0","type":"Feature","properties":{"id":"B00156CPEF","name":"上海市中心","address":"黄浦区","type":"地名地址信息;市中心;城市中心","typecode":190500,"pcode":310000,"pname":"上海市","citycode":21,"cityname":"上海市","adcode":310101,"adname":"黄浦区","business_area":"北京东路","location":"121.473654,31.230380","tel":"[]","bigType":"地名地址信息","midType":"市中心","smallType":"城市中心","gcj_lng":121.473654,"gcj_lat":31.23038,"wgs84_loc":"121.469131,31.232322","wgs84Lng":121.469131,"wgs84Lat":31.232322,"__source_file__":"13-常用公服设施点/CSV/上海市_市中心.csv"},"geometry":{"type":"Point","coordinates":[121.469131,31.232322]}}],"name":"上海市_市中心","crs":{"type":"name","properties":{"name":"urn:ogc:def:crs:OGC:1.3:CRS84"}}}