{"type":"FeatureCollection","features":[{"id":"53","type":"Feature","properties":{"id":"B00157FVVV","name":"中国石化长乐加油站","address":"长乐路398号","type":"汽车服务;加油站;中国石化","typecode":"010101","pcode":310000,"pname":"上海市","citycode":21,"cityname":"上海市","adcode":310101,"adname":"黄浦区","business_area":"淮海路","location":"121.461002,31.221089","tel":"021-62152375","bigType":"汽车服务","midType":"加油站","smallType":"中国石化","gcj_lng":121.461002,"gcj_lat":31.221089,"wgs84_loc":"121.456441,31.223003","wgs84Lng":121.456441,"wgs84Lat":31.223003,"__source_file__":"13-常用公服设施点/CSV/上海市_加油站.csv"},"geometry":{"type":"Point","coordinates":[121.456441,31.223003]}},{"id":"110","type":"Feature","properties":{"id":"B00156G7UT","name":"中国石化延安中路加油站","address":"延安中路990号","type":"汽车服务;加油站;中国石化","typecode":"010101","pcode":310000,"pname":"上海市","citycode":21,"cityname":"上海市","adcode":310106,"adname":"静安区","business_area":"淮海路","location":"121.45546,31.224246","tel":"021-62722717","bigType":"汽车服务","midType":"加油站","smallType":"中国石化","gcj_lng":121.45546,"gcj_lat":31.224246,"wgs84_loc":"121.450883,31.226146","wgs84Lng":121.450883,"wgs84Lat":31.226146,"__source_file__":"13-常用公服设施点/CSV/上海市_加油站.csv"},"geometry":{"type":"Point","coordinates":[121.450883,31.226146]}},{"id":"126","type":"Feature","properties":{"id":"B00155KJG1","name":"中国石油加油站(暂停营业)","address":"武定路1099号,武定路与胶州路交叉口的西南方向,金惠商务楼附近","type":"汽车服务;加油站;中国石油","typecode":"010102","pcode":310000,"pname":"上海市","citycode":21,"cityname":"上海市","adcode":310106,"adname":"静安区","business_area":"曹家渡","location":"121.441692,31.22952","tel":"[]","bigType":"汽车服务","midType":"加油站","smallType":"中国石油","gcj_lng":121.441692,"gcj_lat":31.22952,"wgs84_loc":"121.437082,31.23139","wgs84Lng":121.437082,"wgs84Lat":31.23139,"__source_file__":"13-常用公服设施点/CSV/上海市_加油站.csv"},"geometry":{"type":"Point","coordinates":[121.437082,31.23139]}},{"id":"96","type":"Feature","properties":{"id":"B00154A7E7","name":"中国石油加油站","address":"常德路557号","type":"汽车服务;加油站;中国石油","typecode":"010102","pcode":310000,"pname":"上海市","citycode":21,"cityname":"上海市","adcode":310106,"adname":"静安区","business_area":"曹家渡","location":"121.445562,31.230296","tel":"021-62584654","bigType":"汽车服务","midType":"加油站","smallType":"中国石油","gcj_lng":121.445562,"gcj_lat":31.230296,"wgs84_loc":"121.44096,31.232173","wgs84Lng":121.44096,"wgs84Lat":31.232173,"__source_file__":"13-常用公服设施点/CSV/上海市_加油站.csv"},"geometry":{"type":"Point","coordinates":[121.44096,31.232173]}},{"id":"97","type":"Feature","properties":{"id":"B00155KJ5J","name":"中国石化武宁路加油站","address":"余姚路589号","type":"汽车服务;加油站;中国石化","typecode":"010101","pcode":310000,"pname":"上海市","citycode":21,"cityname":"上海市","adcode":310106,"adname":"静安区","business_area":"曹家渡","location":"121.433517,31.232071","tel":"021-62305815","bigType":"汽车服务","midType":"加油站","smallType":"中国石化","gcj_lng":121.433517,"gcj_lat":31.232071,"wgs84_loc":"121.428892,31.233927","wgs84Lng":121.428892,"wgs84Lat":31.233927,"__source_file__":"13-常用公服设施点/CSV/上海市_加油站.csv"},"geometry":{"type":"Point","coordinates":[121.428892,31.233927]}},{"id":"115","type":"Feature","properties":{"id":"B0FFFZMOUZ","name":"中国石化(第三加油站)","address":"康定路358号","type":"汽车服务;加油站;中国石化","typecode":"010101","pcode":310000,"pname":"上海市","citycode":21,"cityname":"上海市","adcode":310106,"adname":"静安区","business_area":"曹家渡","location":"121.449661,31.235073","tel":"021-62559886","bigType":"汽车服务","midType":"加油站","smallType":"中国石化","gcj_lng":121.449661,"gcj_lat":31.235073,"wgs84_loc":"121.445068,31.236955","wgs84Lng":121.445068,"wgs84Lat":31.236955,"__source_file__":"13-常用公服设施点/CSV/上海市_加油站.csv"},"geometry":{"type":"Point","coordinates":[121.445068,31.236955]}},{"id":"136","type":"Feature","properties":{"id":"B001539F62","name":"中国石化正联加油站","address":"西康路1333号","type":"汽车服务;加油站;中国石化","typecode":"010101","pcode":310000,"pname":"上海市","citycode":21,"cityname":"上海市","adcode":310107,"adname":"普陀区","business_area":"曹家渡","location":"121.436634,31.243474","tel":"021-62980737","bigType":"汽车服务","midType":"加油站","smallType":"中国石化","gcj_lng":121.436634,"gcj_lat":31.243474,"wgs84_loc":"121.432013,31.245329","wgs84Lng":121.432013,"wgs84Lat":31.245329,"__source_file__":"13-常用公服设施点/CSV/上海市_加油站.csv"},"geometry":{"type":"Point","coordinates":[121.432013,31.245329]}},{"id":"121","type":"Feature","properties":{"id":"B0FFFWQ86B","name":"中国石化第十加油站","address":"天目中路620号","type":"汽车服务;加油站;中国石化","typecode":"010101","pcode":310000,"pname":"上海市","citycode":21,"cityname":"上海市","adcode":310106,"adname":"静安区","business_area":"七浦路","location":"121.46336,31.244394","tel":"021-63813823","bigType":"汽车服务","midType":"加油站","smallType":"中国石化","gcj_lng":121.46336,"gcj_lat":31.244394,"wgs84_loc":"121.458804,31.246303","wgs84Lng":121.458804,"wgs84Lat":31.246303,"__source_file__":"13-常用公服设施点/CSV/上海市_加油站.csv"},"geometry":{"type":"Point","coordinates":[121.458804,31.246303]}},{"id":"144","type":"Feature","properties":{"id":"B001541491","name":"中国石化新复加油站","address":"光复西路115号","type":"汽车服务;加油站;中国石化","typecode":"010101","pcode":310000,"pname":"上海市","citycode":21,"cityname":"上海市","adcode":310107,"adname":"普陀区","business_area":"光新","location":"121.433081,31.248923","tel":"021-62042544","bigType":"汽车服务","midType":"加油站","smallType":"中国石化","gcj_lng":121.433081,"gcj_lat":31.248923,"wgs84_loc":"121.428453,31.250771","wgs84Lng":121.428453,"wgs84Lat":31.250771,"__source_file__":"13-常用公服设施点/CSV/上海市_加油站.csv"},"geometry":{"type":"Point","coordinates":[121.428453,31.250771]}},{"id":"47","type":"Feature","properties":{"id":"B00155LA8A","name":"中国石化云明加油站","address":"人民路888号","type":"汽车服务;加油站;中国石化","typecode":"010101","pcode":310000,"pname":"上海市","citycode":21,"cityname":"上海市","adcode":310101,"adname":"黄浦区","business_area":"淮海路","location":"121.482654,31.224726","tel":"021-33070279","bigType":"汽车服务","midType":"加油站","smallType":"中国石化","gcj_lng":121.482654,"gcj_lat":31.224726,"wgs84_loc":"121.478162,31.226696","wgs84Lng":121.478162,"wgs84Lat":31.226696,"__source_file__":"13-常用公服设施点/CSV/上海市_加油站.csv"},"geometry":{"type":"Point","coordinates":[121.478162,31.226696]}},{"id":"35","type":"Feature","properties":{"id":"B00155DBZM","name":"中国石化成都路加油站","address":"成都北路118号","type":"汽车服务;加油站;中国石化","typecode":"010101","pcode":310000,"pname":"上海市","citycode":21,"cityname":"上海市","adcode":310101,"adname":"黄浦区","business_area":"北京路","location":"121.468157,31.226161","tel":"021-63270651","bigType":"汽车服务","midType":"加油站","smallType":"中国石化","gcj_lng":121.468157,"gcj_lat":31.226161,"wgs84_loc":"121.463617,31.22809","wgs84Lng":121.463617,"wgs84Lat":31.22809,"__source_file__":"13-常用公服设施点/CSV/上海市_加油站.csv"},"geometry":{"type":"Point","coordinates":[121.463617,31.22809]}},{"id":"104","type":"Feature","properties":{"id":"B00155KJCJ","name":"中国石化大田路加油站","address":"大田路180号","type":"汽车服务;加油站;中国石化","typecode":"010101","pcode":310000,"pname":"上海市","citycode":21,"cityname":"上海市","adcode":310106,"adname":"静安区","business_area":"淮海路","location":"121.464342,31.233671","tel":"021-62183904","bigType":"汽车服务","midType":"加油站","smallType":"中国石化","gcj_lng":121.464342,"gcj_lat":31.233671,"wgs84_loc":"121.459789,31.235587","wgs84Lng":121.459789,"wgs84Lat":31.235587,"__source_file__":"13-常用公服设施点/CSV/上海市_加油站.csv"},"geometry":{"type":"Point","coordinates":[121.459789,31.235587]}},{"id":"9","type":"Feature","properties":{"id":"B0GUVZUQ7O","name":"中国石化第一加油站","address":"南苏州路198号","type":"汽车服务;加油站;中国石化","typecode":"010101","pcode":310000,"pname":"上海市","citycode":21,"cityname":"上海市","adcode":310101,"adname":"黄浦区","business_area":"北京路","location":"121.486225,31.243606","tel":"021-63212702","bigType":"汽车服务","midType":"加油站","smallType":"中国石化","gcj_lng":121.486225,"gcj_lat":31.243606,"wgs84_loc":"121.481743,31.245578","wgs84Lng":121.481743,"wgs84Lat":31.245578,"__source_file__":"13-常用公服设施点/CSV/上海市_加油站.csv"},"geometry":{"type":"Point","coordinates":[121.481743,31.245578]}},{"id":"893","type":"Feature","properties":{"id":"B0H1NC9Q1A","name":"中国石化晋元加油站","address":"晋元路与海宁路交叉口东北40米","type":"汽车服务;加油站;中国石化","typecode":"010101","pcode":310000,"pname":"上海市","citycode":21,"cityname":"上海市","adcode":310106,"adname":"静安区","business_area":"宝山路","location":"121.469613,31.244999","tel":"[]","bigType":"汽车服务","midType":"加油站","smallType":"中国石化","gcj_lng":121.469613,"gcj_lat":31.244999,"wgs84_loc":"121.465076,31.246924","wgs84Lng":121.465076,"wgs84Lat":31.246924,"__source_file__":"13-常用公服设施点/CSV/上海市_加油站.csv"},"geometry":{"type":"Point","coordinates":[121.465076,31.246924]}},{"id":"120","type":"Feature","properties":{"id":"B00154374F","name":"中国石化晋元加油站","address":"晋元路327号","type":"汽车服务;加油站;中国石化","typecode":"010101","pcode":310000,"pname":"上海市","citycode":21,"cityname":"上海市","adcode":310106,"adname":"静安区","business_area":"七浦路","location":"121.469612,31.245001","tel":"021-63178021","bigType":"汽车服务","midType":"加油站","smallType":"中国石化","gcj_lng":121.469612,"gcj_lat":31.245001,"wgs84_loc":"121.465075,31.246926","wgs84Lng":121.465075,"wgs84Lat":31.246926,"__source_file__":"13-常用公服设施点/CSV/上海市_加油站.csv"},"geometry":{"type":"Point","coordinates":[121.465075,31.246926]}},{"id":"102","type":"Feature","properties":{"id":"B00155KIII","name":"中国石油海宁加油站(海宁路)","address":"海宁路971号","type":"汽车服务;加油站;中国石油","typecode":"010102","pcode":310000,"pname":"上海市","citycode":21,"cityname":"上海市","adcode":310106,"adname":"静安区","business_area":"七浦路","location":"121.475852,31.245483","tel":"021-63063778","bigType":"汽车服务","midType":"加油站","smallType":"中国石油","gcj_lng":121.475852,"gcj_lat":31.245483,"wgs84_loc":"121.471335,31.247424","wgs84Lng":121.471335,"wgs84Lat":31.247424,"__source_file__":"13-常用公服设施点/CSV/上海市_加油站.csv"},"geometry":{"type":"Point","coordinates":[121.471335,31.247424]}},{"id":"108","type":"Feature","properties":{"id":"B00157FVS9","name":"中国石化永兴加油站","address":"西藏北路551号","type":"汽车服务;加油站;中国石化","typecode":"010101","pcode":310000,"pname":"上海市","citycode":21,"cityname":"上海市","adcode":310106,"adname":"静安区","business_area":"宝山路","location":"121.468794,31.251544","tel":"021-56300496","bigType":"汽车服务","midType":"加油站","smallType":"中国石化","gcj_lng":121.468794,"gcj_lat":31.251544,"wgs84_loc":"121.464253,31.253464","wgs84Lng":121.464253,"wgs84Lat":31.253464,"__source_file__":"13-常用公服设施点/CSV/上海市_加油站.csv"},"geometry":{"type":"Point","coordinates":[121.464253,31.253464]}},{"id":"879","type":"Feature","properties":{"id":"B0FFKVX4QP","name":"中国石化和田路加油站","address":"西藏北路796号","type":"汽车服务;加油站;中国石化","typecode":"010101","pcode":310000,"pname":"上海市","citycode":21,"cityname":"上海市","adcode":310106,"adname":"静安区","business_area":"宝山路","location":"121.468271,31.255839","tel":"021-56322807","bigType":"汽车服务","midType":"加油站","smallType":"中国石化","gcj_lng":121.468271,"gcj_lat":31.255839,"wgs84_loc":"121.463728,31.257755","wgs84Lng":121.463728,"wgs84Lat":31.257755,"__source_file__":"13-常用公服设施点/CSV/上海市_加油站.csv"},"geometry":{"type":"Point","coordinates":[121.463728,31.257755]}},{"id":"159","type":"Feature","properties":{"id":"B00155KPZH","name":"中国石化胜利加油站","address":"高阳路551号","type":"汽车服务;加油站;中国石化","typecode":"010101","pcode":310000,"pname":"上海市","citycode":21,"cityname":"上海市","adcode":310109,"adname":"虹口区","business_area":"提篮桥","location":"121.499244,31.257107","tel":"021-65062260","bigType":"汽车服务","midType":"加油站","smallType":"中国石化","gcj_lng":121.499244,"gcj_lat":31.257107,"wgs84_loc":"121.494808,31.259112","wgs84Lng":121.494808,"wgs84Lat":31.259112,"__source_file__":"13-常用公服设施点/CSV/上海市_加油站.csv"},"geometry":{"type":"Point","coordinates":[121.494808,31.259112]}},{"id":"99","type":"Feature","properties":{"id":"B00155QC34","name":"中国石化闸兴加油站","address":"中兴路1788号","type":"汽车服务;加油站;中国石化","typecode":"010101","pcode":310000,"pname":"上海市","citycode":21,"cityname":"上海市","adcode":310106,"adname":"静安区","business_area":"和田","location":"121.452094,31.252387","tel":"021-56531689","bigType":"汽车服务","midType":"加油站","smallType":"中国石化","gcj_lng":121.452094,"gcj_lat":31.252387,"wgs84_loc":"121.447506,31.254267","wgs84Lng":121.447506,"wgs84Lat":31.254267,"__source_file__":"13-常用公服设施点/CSV/上海市_加油站.csv"},"geometry":{"type":"Point","coordinates":[121.447506,31.254267]}},{"id":"137","type":"Feature","properties":{"id":"B00157FVTB","name":"中国石化(石普加油站)","address":"中山北路1700号","type":"汽车服务;加油站;中国石化","typecode":"010101","pcode":310000,"pname":"上海市","citycode":21,"cityname":"上海市","adcode":310107,"adname":"普陀区","business_area":"光新","location":"121.436247,31.253241","tel":"021-62031716","bigType":"汽车服务","midType":"加油站","smallType":"中国石化","gcj_lng":121.436247,"gcj_lat":31.253241,"wgs84_loc":"121.431624,31.255091","wgs84Lng":121.431624,"wgs84Lat":31.255091,"__source_file__":"13-常用公服设施点/CSV/上海市_加油站.csv"},"geometry":{"type":"Point","coordinates":[121.431624,31.255091]}},{"id":"105","type":"Feature","properties":{"id":"B0015379E0","name":"中国石化中华新路加油站","address":"中华新路970号","type":"汽车服务;加油站;中国石化","typecode":"010101","pcode":310000,"pname":"上海市","citycode":21,"cityname":"上海市","adcode":310106,"adname":"静安区","business_area":"和田","location":"121.453692,31.254316","tel":"021-56726925","bigType":"汽车服务","midType":"加油站","smallType":"中国石化","gcj_lng":121.453692,"gcj_lat":31.254316,"wgs84_loc":"121.449108,31.256198","wgs84Lng":121.449108,"wgs84Lat":31.256198,"__source_file__":"13-常用公服设施点/CSV/上海市_加油站.csv"},"geometry":{"type":"Point","coordinates":[121.449108,31.256198]}},{"id":"119","type":"Feature","properties":{"id":"B00156EO4I","name":"中国石化普善加油站","address":"普善路265号","type":"汽车服务;加油站;中国石化","typecode":"010101","pcode":310000,"pname":"上海市","citycode":21,"cityname":"上海市","adcode":310106,"adname":"静安区","business_area":"和田","location":"121.454991,31.258618","tel":"021-56551079","bigType":"汽车服务","midType":"加油站","smallType":"中国石化","gcj_lng":121.454991,"gcj_lat":31.258618,"wgs84_loc":"121.45041,31.260501","wgs84Lng":121.45041,"wgs84Lat":31.260501,"__source_file__":"13-常用公服设施点/CSV/上海市_加油站.csv"},"geometry":{"type":"Point","coordinates":[121.45041,31.260501]}},{"id":"131","type":"Feature","properties":{"id":"B00155D598","name":"中国石化宜川加油站","address":"沪太路684号","type":"汽车服务;加油站;中国石化","typecode":"010101","pcode":310000,"pname":"上海市","citycode":21,"cityname":"上海市","adcode":310107,"adname":"普陀区","business_area":"大宁路","location":"121.445839,31.262821","tel":"021-56533187","bigType":"汽车服务","midType":"加油站","smallType":"中国石化","gcj_lng":121.445839,"gcj_lat":31.262821,"wgs84_loc":"121.441235,31.264684","wgs84Lng":121.441235,"wgs84Lat":31.264684,"__source_file__":"13-常用公服设施点/CSV/上海市_加油站.csv"},"geometry":{"type":"Point","coordinates":[121.441235,31.264684]}},{"id":"113","type":"Feature","properties":{"id":"B00155I0GZ","name":"中国石化(和贝加油站)","address":"民和路251号","type":"汽车服务;加油站;中国石化","typecode":"010101","pcode":310000,"pname":"上海市","citycode":21,"cityname":"上海市","adcode":310106,"adname":"静安区","business_area":"和田","location":"121.462946,31.266757","tel":"021-56906793","bigType":"汽车服务","midType":"加油站","smallType":"中国石化","gcj_lng":121.462946,"gcj_lat":31.266757,"wgs84_loc":"121.458386,31.268655","wgs84Lng":121.458386,"wgs84Lat":31.268655,"__source_file__":"13-常用公服设施点/CSV/上海市_加油站.csv"},"geometry":{"type":"Point","coordinates":[121.458386,31.268655]}},{"id":"114","type":"Feature","properties":{"id":"B00155FJ2H","name":"中国石化(洛川加油站)","address":"洛川中路733号","type":"汽车服务;加油站;中国石化","typecode":"010101","pcode":310000,"pname":"上海市","citycode":21,"cityname":"上海市","adcode":310106,"adname":"静安区","business_area":"和田","location":"121.454145,31.266797","tel":"021-36030854","bigType":"汽车服务","midType":"加油站","smallType":"中国石化","gcj_lng":121.454145,"gcj_lat":31.266797,"wgs84_loc":"121.449561,31.268675","wgs84Lng":121.449561,"wgs84Lat":31.268675,"__source_file__":"13-常用公服设施点/CSV/上海市_加油站.csv"},"geometry":{"type":"Point","coordinates":[121.449561,31.268675]}},{"id":"153","type":"Feature","properties":{"id":"B00155HEK9","name":"中国石化(沪实加油站)","address":"新村路19号","type":"汽车服务;加油站;中国石化","typecode":"010101","pcode":310000,"pname":"上海市","citycode":21,"cityname":"上海市","adcode":310107,"adname":"普陀区","business_area":"大宁路","location":"121.440581,31.267908","tel":"021-56617142;021-56953497","bigType":"汽车服务","midType":"加油站","smallType":"中国石化","gcj_lng":121.440581,"gcj_lat":31.267908,"wgs84_loc":"121.435965,31.269759","wgs84Lng":121.435965,"wgs84Lat":31.269759,"__source_file__":"13-常用公服设施点/CSV/上海市_加油站.csv"},"geometry":{"type":"Point","coordinates":[121.435965,31.269759]}},{"id":"123","type":"Feature","properties":{"id":"B00155HECU","name":"中国石油绿园闸北第1加油站","address":"沪太路857号","type":"汽车服务;加油站;中国石油","typecode":"010102","pcode":310000,"pname":"上海市","citycode":21,"cityname":"上海市","adcode":310106,"adname":"静安区","business_area":"大宁路","location":"121.43888,31.269186","tel":"[]","bigType":"汽车服务","midType":"加油站","smallType":"中国石油","gcj_lng":121.43888,"gcj_lat":31.269186,"wgs84_loc":"121.434261,31.271034","wgs84Lng":121.434261,"wgs84Lat":31.271034,"__source_file__":"13-常用公服设施点/CSV/上海市_加油站.csv"},"geometry":{"type":"Point","coordinates":[121.434261,31.271034]}},{"id":"116","type":"Feature","properties":{"id":"B001558DPG","name":"中国石化洪远加油站","address":"天通庵路413号","type":"汽车服务;加油站;中国石化","typecode":"010101","pcode":310000,"pname":"上海市","citycode":21,"cityname":"上海市","adcode":310106,"adname":"静安区","business_area":"宝山路","location":"121.474741,31.260453","tel":"021-56900123","bigType":"汽车服务","midType":"加油站","smallType":"中国石化","gcj_lng":121.474741,"gcj_lat":31.260453,"wgs84_loc":"121.470219,31.262385","wgs84Lng":121.470219,"wgs84Lat":31.262385,"__source_file__":"13-常用公服设施点/CSV/上海市_加油站.csv"},"geometry":{"type":"Point","coordinates":[121.470219,31.262385]}},{"id":"111","type":"Feature","properties":{"id":"B00155KB2Y","name":"中国石化中田加油站","address":"中山北路572号","type":"汽车服务;加油站;中国石化","typecode":"010101","pcode":310000,"pname":"上海市","citycode":21,"cityname":"上海市","adcode":310106,"adname":"静安区","business_area":"宝山路","location":"121.464761,31.261648","tel":"021-56721483","bigType":"汽车服务","midType":"加油站","smallType":"中国石化","gcj_lng":121.464761,"gcj_lat":31.261648,"wgs84_loc":"121.460207,31.263553","wgs84Lng":121.460207,"wgs84Lat":31.263553,"__source_file__":"13-常用公服设施点/CSV/上海市_加油站.csv"},"geometry":{"type":"Point","coordinates":[121.460207,31.263553]}},{"id":"158","type":"Feature","properties":{"id":"B00152BC36","name":"中国石化溧阳加油站","address":"溧阳路1192号","type":"汽车服务;加油站;中国石化","typecode":"010101","pcode":310000,"pname":"上海市","citycode":21,"cityname":"上海市","adcode":310109,"adname":"虹口区","business_area":"宝山路","location":"121.487773,31.262313","tel":"021-65870365","bigType":"汽车服务","midType":"加油站","smallType":"中国石化","gcj_lng":121.487773,"gcj_lat":31.262313,"wgs84_loc":"121.483295,31.264281","wgs84Lng":121.483295,"wgs84Lat":31.264281,"__source_file__":"13-常用公服设施点/CSV/上海市_加油站.csv"},"geometry":{"type":"Point","coordinates":[121.483295,31.264281]}},{"id":"117","type":"Feature","properties":{"id":"B00155HFMQ","name":"中国石化新炼加油站","address":"中山北路157号","type":"汽车服务;加油站;中国石化","typecode":"010101","pcode":310000,"pname":"上海市","citycode":21,"cityname":"上海市","adcode":310106,"adname":"静安区","business_area":"和田","location":"121.470521,31.265793","tel":"021-56627763","bigType":"汽车服务","midType":"加油站","smallType":"中国石化","gcj_lng":121.470521,"gcj_lat":31.265793,"wgs84_loc":"121.465985,31.267711","wgs84Lng":121.465985,"wgs84Lat":31.267711,"__source_file__":"13-常用公服设施点/CSV/上海市_加油站.csv"},"geometry":{"type":"Point","coordinates":[121.465985,31.267711]}},{"id":"157","type":"Feature","properties":{"id":"B0FFKKCKMW","name":"中国石化华鑫虹口加油站","address":"中山北一路63号","type":"汽车服务;加油站;中国石化","typecode":"010101","pcode":310000,"pname":"上海市","citycode":21,"cityname":"上海市","adcode":310109,"adname":"虹口区","business_area":"和田","location":"121.474702,31.269597","tel":"021-56635116","bigType":"汽车服务","midType":"加油站","smallType":"中国石化","gcj_lng":121.474702,"gcj_lat":31.269597,"wgs84_loc":"121.470179,31.271525","wgs84Lng":121.470179,"wgs84Lat":31.271525,"__source_file__":"13-常用公服设施点/CSV/上海市_加油站.csv"},"geometry":{"type":"Point","coordinates":[121.470179,31.271525]}}],"name":"上海市_加油站","crs":{"type":"name","properties":{"name":"urn:ogc:def:crs:OGC:1.3:CRS84"}}}