{"type":"FeatureCollection","features":[{"id":"0","type":"Feature","properties":{"id":"B0FFHTME5D","name":"中国石油新奥LPG加油加气站(长安路)","address":"光复路555号","type":"汽车服务;其它能源站;其它能源站","typecode":10200,"pcode":310000,"pname":"上海市","citycode":21,"cityname":"上海市","adcode":310106,"adname":"静安区","business_area":"[]","location":"121.462016,31.242052","tel":"021-63800671","bigType":"汽车服务","midType":"其它能源站","smallType":"其它能源站","gcj_lng":121.462016,"gcj_lat":31.242052,"wgs84_loc":"121.457456,31.243959","wgs84Lng":121.457456,"wgs84Lat":31.243959,"__source_file__":"13-常用公服设施点/CSV/上海市_其它能源站.csv"},"geometry":{"type":"Point","coordinates":[121.457456,31.243959]}}],"name":"上海市_其它能源站","crs":{"type":"name","properties":{"name":"urn:ogc:def:crs:OGC:1.3:CRS84"}}}