{"type":"FeatureCollection","features":[{"id":"923","type":"Feature","properties":{"id":"B0I1TUCVCQ","name":"艾米1895电影街(静安店)","address":"北京西路1829号4楼(万航渡路)","type":"体育休闲服务;影剧院;电影院","typecode":"080601","pcode":310000,"pname":"上海市","citycode":21,"cityname":"上海市","adcode":310106,"adname":"静安区","business_area":"静安寺","location":"121.442476,31.223824","tel":"[]","bigType":"体育休闲服务","midType":"影剧院","smallType":"电影院","gcj_lng":121.442476,"gcj_lat":31.223824,"wgs84_loc":"121.437868,31.225698","wgs84Lng":121.437868,"wgs84Lat":31.225698,"__source_file__":"13-常用公服设施点/CSV/上海市_影剧院.csv"},"geometry":{"type":"Point","coordinates":[121.437868,31.225698]}},{"id":"29","type":"Feature","properties":{"id":"B001526481","name":"国泰电影院(淮海中路店)","address":"淮海中路870号","type":"体育休闲服务;影剧院;电影院","typecode":"080601","pcode":310000,"pname":"上海市","citycode":21,"cityname":"上海市","adcode":310101,"adname":"黄浦区","business_area":"淮海路","location":"121.461389,31.217954","tel":"021-54042095;021-54041122;021-54040415","bigType":"体育休闲服务","midType":"影剧院","smallType":"电影院","gcj_lng":121.461389,"gcj_lat":31.217954,"wgs84_loc":"121.456829,31.21987","wgs84Lng":121.456829,"wgs84Lat":31.21987,"__source_file__":"13-常用公服设施点/CSV/上海市_影剧院.csv"},"geometry":{"type":"Point","coordinates":[121.456829,31.21987]}},{"id":"116","type":"Feature","properties":{"id":"B0FFG38RAH","name":"上海科技影城","address":"南昌路59号科学会堂思南楼2-3层","type":"体育休闲服务;影剧院;电影院","typecode":"080601","pcode":310000,"pname":"上海市","citycode":21,"cityname":"上海市","adcode":310101,"adname":"黄浦区","business_area":"淮海路","location":"121.466595,31.218047","tel":"[]","bigType":"体育休闲服务","midType":"影剧院","smallType":"电影院","gcj_lng":121.466595,"gcj_lat":31.218047,"wgs84_loc":"121.462051,31.219976","wgs84Lng":121.462051,"wgs84Lat":31.219976,"__source_file__":"13-常用公服设施点/CSV/上海市_影剧院.csv"},"geometry":{"type":"Point","coordinates":[121.462051,31.219976]}},{"id":"120","type":"Feature","properties":{"id":"B0HAO7IYXR","name":"六六喜剧脱口秀","address":"淮海中路775号新华联大厦西楼B1层小剧场","type":"体育休闲服务;影剧院;剧场","typecode":"080603","pcode":310000,"pname":"上海市","citycode":21,"cityname":"上海市","adcode":310101,"adname":"黄浦区","business_area":"淮海路","location":"121.463502,31.218520","tel":"15801708305","bigType":"体育休闲服务","midType":"影剧院","smallType":"剧场","gcj_lng":121.463502,"gcj_lat":31.21852,"wgs84_loc":"121.458948,31.220441","wgs84Lng":121.458948,"wgs84Lat":31.220441,"__source_file__":"13-常用公服设施点/CSV/上海市_影剧院.csv"},"geometry":{"type":"Point","coordinates":[121.458948,31.220441]}},{"id":"31","type":"Feature","properties":{"id":"B001516B0B","name":"兰心大戏院(装修中)","address":"茂名南路57号(近长乐路)","type":"体育休闲服务;影剧院;剧场","typecode":"080603","pcode":310000,"pname":"上海市","citycode":21,"cityname":"上海市","adcode":310101,"adname":"黄浦区","business_area":"淮海路","location":"121.460422,31.220895","tel":"021-62178530","bigType":"体育休闲服务","midType":"影剧院","smallType":"剧场","gcj_lng":121.460422,"gcj_lat":31.220895,"wgs84_loc":"121.455859,31.222808","wgs84Lng":121.455859,"wgs84Lat":31.222808,"__source_file__":"13-常用公服设施点/CSV/上海市_影剧院.csv"},"geometry":{"type":"Point","coordinates":[121.455859,31.222808]}},{"id":"1005","type":"Feature","properties":{"id":"B0KKPN14XO","name":"凯迪拉克·上海音乐厅","address":"兴安路与重庆南路辅路交叉口西南40米","type":"体育休闲服务;影剧院;剧场","typecode":"080603","pcode":310000,"pname":"上海市","citycode":21,"cityname":"上海市","adcode":310101,"adname":"黄浦区","business_area":"淮海路","location":"121.471118,31.220933","tel":"[]","bigType":"体育休闲服务","midType":"影剧院","smallType":"剧场","gcj_lng":121.471118,"gcj_lat":31.220933,"wgs84_loc":"121.466587,31.222873","wgs84Lng":121.466587,"wgs84Lat":31.222873,"__source_file__":"13-常用公服设施点/CSV/上海市_影剧院.csv"},"geometry":{"type":"Point","coordinates":[121.466587,31.222873]}},{"id":"130","type":"Feature","properties":{"id":"B0H1URXLCF","name":"橘子Comedy","address":"巨鹿路与成都南路交叉口西约120米","type":"体育休闲服务;影剧院;剧场","typecode":"080603","pcode":310000,"pname":"上海市","citycode":21,"cityname":"上海市","adcode":310101,"adname":"黄浦区","business_area":"淮海路","location":"121.466286,31.223043","tel":"[]","bigType":"体育休闲服务","midType":"影剧院","smallType":"剧场","gcj_lng":121.466286,"gcj_lat":31.223043,"wgs84_loc":"121.46174,31.224969","wgs84Lng":121.46174,"wgs84Lat":31.224969,"__source_file__":"13-常用公服设施点/CSV/上海市_影剧院.csv"},"geometry":{"type":"Point","coordinates":[121.46174,31.224969]}},{"id":"209","type":"Feature","properties":{"id":"B00157AJQ5","name":"PREMIERE CINEMAS(上海嘉里中心)","address":"南京西路1515号上海嘉里中心F4层N4-01","type":"体育休闲服务;影剧院;电影院","typecode":"080601","pcode":310000,"pname":"上海市","citycode":21,"cityname":"上海市","adcode":310106,"adname":"静安区","business_area":"淮海路","location":"121.449074,31.223348","tel":"021-31006251;021-62718650","bigType":"体育休闲服务","midType":"影剧院","smallType":"电影院","gcj_lng":121.449074,"gcj_lat":31.223348,"wgs84_loc":"121.444481,31.225235","wgs84Lng":121.444481,"wgs84Lat":31.225235,"__source_file__":"13-常用公服设施点/CSV/上海市_影剧院.csv"},"geometry":{"type":"Point","coordinates":[121.444481,31.225235]}},{"id":"51","type":"Feature","properties":{"id":"B0FFFAG6QR","name":"百美汇影城(静安嘉里中心北区)","address":"南京西路1515号静安嘉里中心北区L4层N4-01","type":"体育休闲服务;影剧院;电影院","typecode":"080601","pcode":310000,"pname":"上海市","citycode":21,"cityname":"上海市","adcode":310106,"adname":"静安区","business_area":"淮海路","location":"121.448772,31.223636","tel":"021-62718650","bigType":"体育休闲服务","midType":"影剧院","smallType":"电影院","gcj_lng":121.448772,"gcj_lat":31.223636,"wgs84_loc":"121.444178,31.225522","wgs84Lng":121.444178,"wgs84Lat":31.225522,"__source_file__":"13-常用公服设施点/CSV/上海市_影剧院.csv"},"geometry":{"type":"Point","coordinates":[121.444178,31.225522]}},{"id":"836","type":"Feature","properties":{"id":"B0FFFCLJXV","name":"上海商城剧院部及中庭办公室","address":"南京西路1376号上海商城3层353室","type":"体育休闲服务;影剧院;剧场","typecode":"080603","pcode":310000,"pname":"上海市","citycode":21,"cityname":"上海市","adcode":310106,"adname":"静安区","business_area":"淮海路","location":"121.451954,31.226735","tel":"[]","bigType":"体育休闲服务","midType":"影剧院","smallType":"剧场","gcj_lng":121.451954,"gcj_lat":31.226735,"wgs84_loc":"121.447368,31.228626","wgs84Lng":121.447368,"wgs84Lat":31.228626,"__source_file__":"13-常用公服设施点/CSV/上海市_影剧院.csv"},"geometry":{"type":"Point","coordinates":[121.447368,31.228626]}},{"id":"55","type":"Feature","properties":{"id":"B00155KLQC","name":"上海商城剧院","address":"南京西路1376号","type":"体育休闲服务;影剧院;剧场","typecode":"080603","pcode":310000,"pname":"上海市","citycode":21,"cityname":"上海市","adcode":310106,"adname":"静安区","business_area":"淮海路","location":"121.451936,31.22676","tel":"021-62797132","bigType":"体育休闲服务","midType":"影剧院","smallType":"剧场","gcj_lng":121.451936,"gcj_lat":31.22676,"wgs84_loc":"121.44735,31.228651","wgs84Lng":121.44735,"wgs84Lat":31.228651,"__source_file__":"13-常用公服设施点/CSV/上海市_影剧院.csv"},"geometry":{"type":"Point","coordinates":[121.44735,31.228651]}},{"id":"133","type":"Feature","properties":{"id":"B0FFMF3CC6","name":"UME国际影城(新天地时尚购物中心一期)","address":"兴业路123弄6号楼新天地时尚购物中心一期F4层L501/502","type":"体育休闲服务;影剧院;电影院","typecode":"080601","pcode":310000,"pname":"上海市","citycode":21,"cityname":"上海市","adcode":310101,"adname":"黄浦区","business_area":"新天地(自忠路)","location":"121.474798,31.218718","tel":"[]","bigType":"体育休闲服务","midType":"影剧院","smallType":"电影院","gcj_lng":121.474798,"gcj_lat":31.218718,"wgs84_loc":"121.47028,31.220669","wgs84Lng":121.47028,"wgs84Lat":31.220669,"__source_file__":"13-常用公服设施点/CSV/上海市_影剧院.csv"},"geometry":{"type":"Point","coordinates":[121.47028,31.220669]}},{"id":"32","type":"Feature","properties":{"id":"B00152CA98","name":"UME国际影城(上海新天地店)","address":"兴业路123弄6号新天地时尚IF5","type":"体育休闲服务;影剧院;电影院","typecode":"080601","pcode":310000,"pname":"上海市","citycode":21,"cityname":"上海市","adcode":310101,"adname":"黄浦区","business_area":"新天地(自忠路)","location":"121.475398,31.218852","tel":"021-63878808;021-63841122;021-63733333","bigType":"体育休闲服务","midType":"影剧院","smallType":"电影院","gcj_lng":121.475398,"gcj_lat":31.218852,"wgs84_loc":"121.470882,31.220804","wgs84Lng":121.470882,"wgs84Lat":31.220804,"__source_file__":"13-常用公服设施点/CSV/上海市_影剧院.csv"},"geometry":{"type":"Point","coordinates":[121.470882,31.220804]}},{"id":"851","type":"Feature","properties":{"id":"B0H2YO140F","name":"食物剧场(上海新天地时尚购物中心店)","address":"兴业路123弄6-7号上海新天地时尚购物中心F3","type":"体育休闲服务;影剧院;剧场","typecode":"080603","pcode":310000,"pname":"上海市","citycode":21,"cityname":"上海市","adcode":310101,"adname":"黄浦区","business_area":"淮海路","location":"121.474706,31.218921","tel":"[]","bigType":"体育休闲服务","midType":"影剧院","smallType":"剧场","gcj_lng":121.474706,"gcj_lat":31.218921,"wgs84_loc":"121.470187,31.220871","wgs84Lng":121.470187,"wgs84Lat":31.220871,"__source_file__":"13-常用公服设施点/CSV/上海市_影剧院.csv"},"geometry":{"type":"Point","coordinates":[121.470187,31.220871]}},{"id":"132","type":"Feature","properties":{"id":"B0HKG9J5D7","name":"UME国际影城售票处(新天地时尚购物中心一期)","address":"兴业路123弄6号楼新天地时尚购物中心一期F1层","type":"体育休闲服务;影剧院;电影院","typecode":"080601","pcode":310000,"pname":"上海市","citycode":21,"cityname":"上海市","adcode":310101,"adname":"黄浦区","business_area":"新天地(自忠路)","location":"121.475400,31.219089","tel":"[]","bigType":"体育休闲服务","midType":"影剧院","smallType":"电影院","gcj_lng":121.4754,"gcj_lat":31.219089,"wgs84_loc":"121.470883,31.221041","wgs84Lng":121.470883,"wgs84Lat":31.221041,"__source_file__":"13-常用公服设施点/CSV/上海市_影剧院.csv"},"geometry":{"type":"Point","coordinates":[121.470883,31.221041]}},{"id":"1000","type":"Feature","properties":{"id":"B0JU5R81NN","name":"SpicyComedy(新天地时尚一期店)","address":"兴业路123弄6-7号楼3层南里食集北区14号","type":"体育休闲服务;影剧院;剧场","typecode":"080603","pcode":310000,"pname":"上海市","citycode":21,"cityname":"上海市","adcode":310101,"adname":"黄浦区","business_area":"新天地石库门街区","location":"121.474985,31.219376","tel":"18917482922","bigType":"体育休闲服务","midType":"影剧院","smallType":"剧场","gcj_lng":121.474985,"gcj_lat":31.219376,"wgs84_loc":"121.470467,31.221327","wgs84Lng":121.470467,"wgs84Lat":31.221327,"__source_file__":"13-常用公服设施点/CSV/上海市_影剧院.csv"},"geometry":{"type":"Point","coordinates":[121.470467,31.221327]}},{"id":"148","type":"Feature","properties":{"id":"B0IB3ZB18W","name":"笑果脱口秀","address":"[]","type":"体育休闲服务;影剧院;剧场","typecode":"080603","pcode":310000,"pname":"上海市","citycode":21,"cityname":"上海市","adcode":310101,"adname":"黄浦区","business_area":"淮海路","location":"121.474124,31.222639","tel":"[]","bigType":"体育休闲服务","midType":"影剧院","smallType":"剧场","gcj_lng":121.474124,"gcj_lat":31.222639,"wgs84_loc":"121.469603,31.224586","wgs84Lng":121.469603,"wgs84Lat":31.224586,"__source_file__":"13-常用公服设施点/CSV/上海市_影剧院.csv"},"geometry":{"type":"Point","coordinates":[121.469603,31.224586]}},{"id":"115","type":"Feature","properties":{"id":"B0FFK290N5","name":"梦想空间点播影院(迪美店)","address":"人民大道221号上海迪美购物中心B1-L3(风云再起旁边)","type":"体育休闲服务;影剧院;电影院","typecode":"080601","pcode":310000,"pname":"上海市","citycode":21,"cityname":"上海市","adcode":310101,"adname":"黄浦区","business_area":"北京东路","location":"121.473822,31.228159","tel":"15601724598","bigType":"体育休闲服务","midType":"影剧院","smallType":"电影院","gcj_lng":121.473822,"gcj_lat":31.228159,"wgs84_loc":"121.4693,31.230103","wgs84Lng":121.4693,"wgs84Lat":31.230103,"__source_file__":"13-常用公服设施点/CSV/上海市_影剧院.csv"},"geometry":{"type":"Point","coordinates":[121.4693,31.230103]}},{"id":"530","type":"Feature","properties":{"id":"B0FFFVY0UF","name":"上海大剧院-中剧场","address":"人民大道300号大剧院1楼(近黄陂路)","type":"体育休闲服务;影剧院;剧场","typecode":"080603","pcode":310000,"pname":"上海市","citycode":21,"cityname":"上海市","adcode":310101,"adname":"黄浦区","business_area":"北京东路","location":"121.471844,31.229128","tel":"021-63868686","bigType":"体育休闲服务","midType":"影剧院","smallType":"剧场","gcj_lng":121.471844,"gcj_lat":31.229128,"wgs84_loc":"121.467315,31.231066","wgs84Lng":121.467315,"wgs84Lat":31.231066,"__source_file__":"13-常用公服设施点/CSV/上海市_影剧院.csv"},"geometry":{"type":"Point","coordinates":[121.467315,31.231066]}},{"id":"531","type":"Feature","properties":{"id":"B0FFFVY0UE","name":"上海大剧院-小剧场","address":"人民大道300号大剧院内(近黄陂南路)","type":"体育休闲服务;影剧院;剧场","typecode":"080603","pcode":310000,"pname":"上海市","citycode":21,"cityname":"上海市","adcode":310101,"adname":"黄浦区","business_area":"北京东路","location":"121.471844,31.229128","tel":"[]","bigType":"体育休闲服务","midType":"影剧院","smallType":"剧场","gcj_lng":121.471844,"gcj_lat":31.229128,"wgs84_loc":"121.467315,31.231066","wgs84Lng":121.467315,"wgs84Lat":31.231066,"__source_file__":"13-常用公服设施点/CSV/上海市_影剧院.csv"},"geometry":{"type":"Point","coordinates":[121.467315,31.231066]}},{"id":"879","type":"Feature","properties":{"id":"B0IBC5NZJG","name":"你是演奏家","address":"人民大道300号(人民广场地铁站11号口步行360米)","type":"体育休闲服务;影剧院;剧场","typecode":"080603","pcode":310000,"pname":"上海市","citycode":21,"cityname":"上海市","adcode":310101,"adname":"黄浦区","business_area":"北京东路","location":"121.471833,31.229195","tel":"13341891105","bigType":"体育休闲服务","midType":"影剧院","smallType":"剧场","gcj_lng":121.471833,"gcj_lat":31.229195,"wgs84_loc":"121.467304,31.231133","wgs84Lng":121.467304,"wgs84Lat":31.231133,"__source_file__":"13-常用公服设施点/CSV/上海市_影剧院.csv"},"geometry":{"type":"Point","coordinates":[121.467304,31.231133]}},{"id":"220","type":"Feature","properties":{"id":"B0IGY5E8ZV","name":"幕星点播影院","address":"陕西北路278号金鹰国际购物中心8楼811室","type":"体育休闲服务;影剧院;电影院","typecode":"080601","pcode":310000,"pname":"上海市","citycode":21,"cityname":"上海市","adcode":310106,"adname":"静安区","business_area":"淮海路","location":"121.454624,31.228845","tel":"19117352350","bigType":"体育休闲服务","midType":"影剧院","smallType":"电影院","gcj_lng":121.454624,"gcj_lat":31.228845,"wgs84_loc":"121.450045,31.230741","wgs84Lng":121.450045,"wgs84Lat":31.230741,"__source_file__":"13-常用公服设施点/CSV/上海市_影剧院.csv"},"geometry":{"type":"Point","coordinates":[121.450045,31.230741]}},{"id":"210","type":"Feature","properties":{"id":"B0H2A99I75","name":"梦想空间点播影院(梅龙镇广场店)","address":"南京西路1038号梅龙镇广场五楼506-507室","type":"体育休闲服务;影剧院;电影院","typecode":"080601","pcode":310000,"pname":"上海市","citycode":21,"cityname":"上海市","adcode":310106,"adname":"静安区","business_area":"淮海路","location":"121.456564,31.228849","tel":"15317587262","bigType":"体育休闲服务","midType":"影剧院","smallType":"电影院","gcj_lng":121.456564,"gcj_lat":31.228849,"wgs84_loc":"121.45199,31.230749","wgs84Lng":121.45199,"wgs84Lat":31.230749,"__source_file__":"13-常用公服设施点/CSV/上海市_影剧院.csv"},"geometry":{"type":"Point","coordinates":[121.45199,31.230749]}},{"id":"216","type":"Feature","properties":{"id":"B0FFJDWG91","name":"UA CINEMA(梅龙镇广场)","address":"南京西路1038号梅龙镇广场F10层1001","type":"体育休闲服务;影剧院;影剧院相关","typecode":"080600","pcode":310000,"pname":"上海市","citycode":21,"cityname":"上海市","adcode":310106,"adname":"静安区","business_area":"淮海路","location":"121.456790,31.228886","tel":"[]","bigType":"体育休闲服务","midType":"影剧院","smallType":"影剧院相关","gcj_lng":121.45679,"gcj_lat":31.228886,"wgs84_loc":"121.452216,31.230786","wgs84Lng":121.452216,"wgs84Lat":31.230786,"__source_file__":"13-常用公服设施点/CSV/上海市_影剧院.csv"},"geometry":{"type":"Point","coordinates":[121.452216,31.230786]}},{"id":"201","type":"Feature","properties":{"id":"B0FFIT50S7","name":"UA电影城(上海梅龙镇广场店)","address":"南京西路1038号梅龙镇广场十楼","type":"体育休闲服务;影剧院;电影院","typecode":"080601","pcode":310000,"pname":"上海市","citycode":21,"cityname":"上海市","adcode":310106,"adname":"静安区","business_area":"淮海路","location":"121.456808,31.228951","tel":"15317127095","bigType":"体育休闲服务","midType":"影剧院","smallType":"电影院","gcj_lng":121.456808,"gcj_lat":31.228951,"wgs84_loc":"121.452234,31.230851","wgs84Lng":121.452234,"wgs84Lat":31.230851,"__source_file__":"13-常用公服设施点/CSV/上海市_影剧院.csv"},"geometry":{"type":"Point","coordinates":[121.452234,31.230851]}},{"id":"63","type":"Feature","properties":{"id":"B00150C921","name":"美琪大戏院","address":"江宁路66号","type":"体育休闲服务;影剧院;剧场","typecode":"080603","pcode":310000,"pname":"上海市","citycode":21,"cityname":"上海市","adcode":310106,"adname":"静安区","business_area":"淮海路","location":"121.455967,31.229353","tel":"021-62173311","bigType":"体育休闲服务","midType":"影剧院","smallType":"剧场","gcj_lng":121.455967,"gcj_lat":31.229353,"wgs84_loc":"121.451391,31.231251","wgs84Lng":121.451391,"wgs84Lat":31.231251,"__source_file__":"13-常用公服设施点/CSV/上海市_影剧院.csv"},"geometry":{"type":"Point","coordinates":[121.451391,31.231251]}},{"id":"215","type":"Feature","properties":{"id":"B0FFHIXR0Y","name":"SMG影视剧中心","address":"南京西路651号10楼","type":"体育休闲服务;影剧院;剧场","typecode":"080603","pcode":310000,"pname":"上海市","citycode":21,"cityname":"上海市","adcode":310106,"adname":"静安区","business_area":"淮海路","location":"121.464935,31.230193","tel":"[]","bigType":"体育休闲服务","midType":"影剧院","smallType":"剧场","gcj_lng":121.464935,"gcj_lat":31.230193,"wgs84_loc":"121.460384,31.232112","wgs84Lng":121.460384,"wgs84Lat":31.232112,"__source_file__":"13-常用公服设施点/CSV/上海市_影剧院.csv"},"geometry":{"type":"Point","coordinates":[121.460384,31.232112]}},{"id":"114","type":"Feature","properties":{"id":"B00155LKMD","name":"上海木偶剧团仙乐斯木偶演展中心","address":"南京西路388号5层","type":"体育休闲服务;影剧院;剧场","typecode":"080603","pcode":310000,"pname":"上海市","citycode":21,"cityname":"上海市","adcode":310101,"adname":"黄浦区","business_area":"北京东路","location":"121.469022,31.231385","tel":"021-63345200;021-63345141;021-63345502;18964568728","bigType":"体育休闲服务","midType":"影剧院","smallType":"剧场","gcj_lng":121.469022,"gcj_lat":31.231385,"wgs84_loc":"121.464484,31.233314","wgs84Lng":121.464484,"wgs84Lat":31.233314,"__source_file__":"13-常用公服设施点/CSV/上海市_影剧院.csv"},"geometry":{"type":"Point","coordinates":[121.464484,31.233314]}},{"id":"833","type":"Feature","properties":{"id":"B00156ZM0Z","name":"大光明大戏院","address":"南京西路216号","type":"体育休闲服务;影剧院;剧场","typecode":"080603","pcode":310000,"pname":"上海市","citycode":21,"cityname":"上海市","adcode":310101,"adname":"黄浦区","business_area":"北京东路","location":"121.471276,31.232998","tel":"[]","bigType":"体育休闲服务","midType":"影剧院","smallType":"剧场","gcj_lng":121.471276,"gcj_lat":31.232998,"wgs84_loc":"121.466745,31.234933","wgs84Lng":121.466745,"wgs84Lat":31.234933,"__source_file__":"13-常用公服设施点/CSV/上海市_影剧院.csv"},"geometry":{"type":"Point","coordinates":[121.466745,31.234933]}},{"id":"30","type":"Feature","properties":{"id":"B00155IPQJ","name":"大光明电影院","address":"南京西路216号","type":"体育休闲服务;影剧院;电影院","typecode":"080601","pcode":310000,"pname":"上海市","citycode":21,"cityname":"上海市","adcode":310101,"adname":"黄浦区","business_area":"北京东路","location":"121.470974,31.233063","tel":"021-63273399;021-63274260","bigType":"体育休闲服务","midType":"影剧院","smallType":"电影院","gcj_lng":121.470974,"gcj_lat":31.233063,"wgs84_loc":"121.466442,31.234997","wgs84Lng":121.466442,"wgs84Lat":31.234997,"__source_file__":"13-常用公服设施点/CSV/上海市_影剧院.csv"},"geometry":{"type":"Point","coordinates":[121.466442,31.234997]}},{"id":"113","type":"Feature","properties":{"id":"B0HGNOQTQ5","name":"红匣子剧场","address":"凤阳路与黄河路交叉口西南约20米","type":"体育休闲服务;影剧院;剧场","typecode":"080603","pcode":310000,"pname":"上海市","citycode":21,"cityname":"上海市","adcode":310101,"adname":"黄浦区","business_area":"北京东路","location":"121.470905,31.233734","tel":"[]","bigType":"体育休闲服务","midType":"影剧院","smallType":"剧场","gcj_lng":121.470905,"gcj_lat":31.233734,"wgs84_loc":"121.466373,31.235667","wgs84Lng":121.466373,"wgs84Lat":31.235667,"__source_file__":"13-常用公服设施点/CSV/上海市_影剧院.csv"},"geometry":{"type":"Point","coordinates":[121.466373,31.235667]}},{"id":"53","type":"Feature","properties":{"id":"B00155DJ3T","name":"云峰剧院","address":"北京西路1700","type":"体育休闲服务;影剧院;剧场","typecode":"080603","pcode":310000,"pname":"上海市","citycode":21,"cityname":"上海市","adcode":310106,"adname":"静安区","business_area":"曹家渡","location":"121.443016,31.226246","tel":"021-53530706","bigType":"体育休闲服务","midType":"影剧院","smallType":"剧场","gcj_lng":121.443016,"gcj_lat":31.226246,"wgs84_loc":"121.438409,31.22812","wgs84Lng":121.438409,"wgs84Lat":31.22812,"__source_file__":"13-常用公服设施点/CSV/上海市_影剧院.csv"},"geometry":{"type":"Point","coordinates":[121.438409,31.22812]}},{"id":"830","type":"Feature","properties":{"id":"B0FFI0U3QW","name":"补时(装修中)","address":"常德路888号","type":"体育休闲服务;影剧院;电影院|餐饮服务;咖啡厅;咖啡厅|餐饮服务;中餐厅;中餐厅","typecode":"080601|050500|050100","pcode":310000,"pname":"上海市","citycode":21,"cityname":"上海市","adcode":310106,"adname":"静安区","business_area":"曹家渡","location":"121.442167,31.234740","tel":"[]","bigType":"体育休闲服务","midType":"影剧院","smallType":"电影院|餐饮服务","gcj_lng":121.442167,"gcj_lat":31.23474,"wgs84_loc":"121.437558,31.236608","wgs84Lng":121.437558,"wgs84Lat":31.236608,"__source_file__":"13-常用公服设施点/CSV/上海市_影剧院.csv"},"geometry":{"type":"Point","coordinates":[121.437558,31.236608]}},{"id":"956","type":"Feature","properties":{"id":"B0L6YOL0Q4","name":"M面剧人沉浸式交互演绎剧场","address":"新会路与胶州路交叉口西80米","type":"体育休闲服务;影剧院;剧场","typecode":"080603","pcode":310000,"pname":"上海市","citycode":21,"cityname":"上海市","adcode":310107,"adname":"普陀区","business_area":"长寿路","location":"121.436271,31.237371","tel":"[]","bigType":"体育休闲服务","midType":"影剧院","smallType":"剧场","gcj_lng":121.436271,"gcj_lat":31.237371,"wgs84_loc":"121.43165,31.239229","wgs84Lng":121.43165,"wgs84Lat":31.239229,"__source_file__":"13-常用公服设施点/CSV/上海市_影剧院.csv"},"geometry":{"type":"Point","coordinates":[121.43165,31.239229]}},{"id":"857","type":"Feature","properties":{"id":"B0GKRUBRB9","name":"幸运儿游戏剧场","address":"长寿路街道胶州路941号长久商务中心603","type":"体育休闲服务;影剧院;剧场","typecode":"080603","pcode":310000,"pname":"上海市","citycode":21,"cityname":"上海市","adcode":310107,"adname":"普陀区","business_area":"曹家渡","location":"121.436262,31.237376","tel":"17621610221","bigType":"体育休闲服务","midType":"影剧院","smallType":"剧场","gcj_lng":121.436262,"gcj_lat":31.237376,"wgs84_loc":"121.431641,31.239234","wgs84Lng":121.431641,"wgs84Lat":31.239234,"__source_file__":"13-常用公服设施点/CSV/上海市_影剧院.csv"},"geometry":{"type":"Point","coordinates":[121.431641,31.239234]}},{"id":"245","type":"Feature","properties":{"id":"B0I6A7BKQ3","name":"冇有剧场","address":"胶州路959弄长久商务中心1602","type":"体育休闲服务;影剧院;剧场","typecode":"080603","pcode":310000,"pname":"上海市","citycode":21,"cityname":"上海市","adcode":310107,"adname":"普陀区","business_area":"曹家渡","location":"121.436264,31.237379","tel":"[]","bigType":"体育休闲服务","midType":"影剧院","smallType":"剧场","gcj_lng":121.436264,"gcj_lat":31.237379,"wgs84_loc":"121.431643,31.239237","wgs84Lng":121.431643,"wgs84Lat":31.239237,"__source_file__":"13-常用公服设施点/CSV/上海市_影剧院.csv"},"geometry":{"type":"Point","coordinates":[121.431643,31.239237]}},{"id":"921","type":"Feature","properties":{"id":"B0JAGUDBQM","name":"佰映三克映画(MOHO Mall店)","address":"江宁路699号B1-60B","type":"体育休闲服务;影剧院;电影院","typecode":"080601","pcode":310000,"pname":"上海市","citycode":21,"cityname":"上海市","adcode":310106,"adname":"静安区","business_area":"[]","location":"121.448418,31.237468","tel":"021-62095169","bigType":"体育休闲服务","midType":"影剧院","smallType":"电影院","gcj_lng":121.448418,"gcj_lat":31.237468,"wgs84_loc":"121.443822,31.239347","wgs84Lng":121.443822,"wgs84Lat":31.239347,"__source_file__":"13-常用公服设施点/CSV/上海市_影剧院.csv"},"geometry":{"type":"Point","coordinates":[121.443822,31.239347]}},{"id":"533","type":"Feature","properties":{"id":"B0FFH0ILFD","name":"别克中剧院","address":"人民大道300号","type":"体育休闲服务;影剧院;剧场","typecode":"080603","pcode":310000,"pname":"上海市","citycode":21,"cityname":"上海市","adcode":310101,"adname":"黄浦区","business_area":"北京东路","location":"121.471819,31.229335","tel":"[]","bigType":"体育休闲服务","midType":"影剧院","smallType":"剧场","gcj_lng":121.471819,"gcj_lat":31.229335,"wgs84_loc":"121.46729,31.231273","wgs84Lng":121.46729,"wgs84Lat":31.231273,"__source_file__":"13-常用公服设施点/CSV/上海市_影剧院.csv"},"geometry":{"type":"Point","coordinates":[121.46729,31.231273]}},{"id":"1010","type":"Feature","properties":{"id":"B0I3HD8OQL","name":"星星演艺剧场(上海大剧院店)","address":"人民大道300号-1(人民广场地铁站11号口步行480米)","type":"体育休闲服务;影剧院;剧场","typecode":"080603","pcode":310000,"pname":"上海市","citycode":21,"cityname":"上海市","adcode":310101,"adname":"黄浦区","business_area":"北京路","location":"121.472096,31.229340","tel":"15084366585","bigType":"体育休闲服务","midType":"影剧院","smallType":"剧场","gcj_lng":121.472096,"gcj_lat":31.22934,"wgs84_loc":"121.467568,31.231278","wgs84Lng":121.467568,"wgs84Lat":31.231278,"__source_file__":"13-常用公服设施点/CSV/上海市_影剧院.csv"},"geometry":{"type":"Point","coordinates":[121.467568,31.231278]}},{"id":"28","type":"Feature","properties":{"id":"B00154DQ3U","name":"上海大剧院","address":"人民大道300号","type":"体育休闲服务;影剧院;剧场","typecode":"080603","pcode":310000,"pname":"上海市","citycode":21,"cityname":"上海市","adcode":310101,"adname":"黄浦区","business_area":"北京东路","location":"121.471825,31.2294","tel":"021-63868686;021-63728702;4001068686","bigType":"体育休闲服务","midType":"影剧院","smallType":"剧场","gcj_lng":121.471825,"gcj_lat":31.2294,"wgs84_loc":"121.467296,31.231338","wgs84Lng":121.467296,"wgs84Lat":31.231338,"__source_file__":"13-常用公服设施点/CSV/上海市_影剧院.csv"},"geometry":{"type":"Point","coordinates":[121.467296,31.231338]}},{"id":"532","type":"Feature","properties":{"id":"B0FFHEQ2BS","name":"中/小剧场","address":"上海大剧院C2口","type":"体育休闲服务;影剧院;剧场","typecode":"080603","pcode":310000,"pname":"上海市","citycode":21,"cityname":"上海市","adcode":310101,"adname":"黄浦区","business_area":"北京东路","location":"121.471290,31.229562","tel":"[]","bigType":"体育休闲服务","midType":"影剧院","smallType":"剧场","gcj_lng":121.47129,"gcj_lat":31.229562,"wgs84_loc":"121.466759,31.231498","wgs84Lng":121.466759,"wgs84Lat":31.231498,"__source_file__":"13-常用公服设施点/CSV/上海市_影剧院.csv"},"geometry":{"type":"Point","coordinates":[121.466759,31.231498]}},{"id":"534","type":"Feature","properties":{"id":"B0H04S7A1O","name":"New Box演艺新空间","address":"人民大道300号上海大剧院5层","type":"体育休闲服务;影剧院;剧场","typecode":"080603","pcode":310000,"pname":"上海市","citycode":21,"cityname":"上海市","adcode":310101,"adname":"黄浦区","business_area":"北京东路","location":"121.471712,31.229606","tel":"[]","bigType":"体育休闲服务","midType":"影剧院","smallType":"剧场","gcj_lng":121.471712,"gcj_lat":31.229606,"wgs84_loc":"121.467183,31.231543","wgs84Lng":121.467183,"wgs84Lat":31.231543,"__source_file__":"13-常用公服设施点/CSV/上海市_影剧院.csv"},"geometry":{"type":"Point","coordinates":[121.467183,31.231543]}},{"id":"35","type":"Feature","properties":{"id":"B001506036","name":"和平影都(来福士广场店)","address":"西藏中路268号来福士广场L2层-L6层F601","type":"体育休闲服务;影剧院;电影院","typecode":"080601","pcode":310000,"pname":"上海市","citycode":21,"cityname":"上海市","adcode":310101,"adname":"黄浦区","business_area":"北京东路","location":"121.476273,31.232860","tel":"021-63225252","bigType":"体育休闲服务","midType":"影剧院","smallType":"电影院","gcj_lng":121.476273,"gcj_lat":31.23286,"wgs84_loc":"121.471758,31.234808","wgs84Lng":121.471758,"wgs84Lat":31.234808,"__source_file__":"13-常用公服设施点/CSV/上海市_影剧院.csv"},"geometry":{"type":"Point","coordinates":[121.471758,31.234808]}},{"id":"1014","type":"Feature","properties":{"id":"B0KUH1D8DC","name":"燃剧场","address":"南京东路789号上海世茂广场M层","type":"体育休闲服务;影剧院;剧场","typecode":"080603","pcode":310000,"pname":"上海市","citycode":21,"cityname":"上海市","adcode":310101,"adname":"黄浦区","business_area":"北京路","location":"121.475655,31.234348","tel":"[]","bigType":"体育休闲服务","midType":"影剧院","smallType":"剧场","gcj_lng":121.475655,"gcj_lat":31.234348,"wgs84_loc":"121.471138,31.236294","wgs84Lng":121.471138,"wgs84Lat":31.236294,"__source_file__":"13-常用公服设施点/CSV/上海市_影剧院.csv"},"geometry":{"type":"Point","coordinates":[121.471138,31.236294]}},{"id":"1016","type":"Feature","properties":{"id":"B0FFH56LQR","name":"心与弦剧场","address":"上海世茂广场","type":"体育休闲服务;影剧院;剧场","typecode":"080603","pcode":310000,"pname":"上海市","citycode":21,"cityname":"上海市","adcode":310101,"adname":"黄浦区","business_area":"北京路","location":"121.475684,31.234409","tel":"[]","bigType":"体育休闲服务","midType":"影剧院","smallType":"剧场","gcj_lng":121.475684,"gcj_lat":31.234409,"wgs84_loc":"121.471167,31.236355","wgs84Lng":121.471167,"wgs84Lat":31.236355,"__source_file__":"13-常用公服设施点/CSV/上海市_影剧院.csv"},"geometry":{"type":"Point","coordinates":[121.471167,31.236355]}},{"id":"43","type":"Feature","properties":{"id":"B00155KYS9","name":"SFC上影影城(新世界店)","address":"南京西路2-68号新世界城12层","type":"体育休闲服务;影剧院;电影院","typecode":"080601","pcode":310000,"pname":"上海市","citycode":21,"cityname":"上海市","adcode":310101,"adname":"黄浦区","business_area":"北京东路","location":"121.473676,31.235117","tel":"021-63596810;021-63594933","bigType":"体育休闲服务","midType":"影剧院","smallType":"电影院","gcj_lng":121.473676,"gcj_lat":31.235117,"wgs84_loc":"121.469152,31.237057","wgs84Lng":121.469152,"wgs84Lat":31.237057,"__source_file__":"13-常用公服设施点/CSV/上海市_影剧院.csv"},"geometry":{"type":"Point","coordinates":[121.469152,31.237057]}},{"id":"104","type":"Feature","properties":{"id":"B0FFLDJIQV","name":"GIR沉浸式游戏剧场","address":"西藏中路新世界城东门东侧约60米","type":"体育休闲服务;影剧院;剧场","typecode":"080603","pcode":310000,"pname":"上海市","citycode":21,"cityname":"上海市","adcode":310101,"adname":"黄浦区","business_area":"北京东路","location":"121.474691,31.235470","tel":"[]","bigType":"体育休闲服务","midType":"影剧院","smallType":"剧场","gcj_lng":121.474691,"gcj_lat":31.23547,"wgs84_loc":"121.470171,31.237413","wgs84Lng":121.470171,"wgs84Lat":31.237413,"__source_file__":"13-常用公服设施点/CSV/上海市_影剧院.csv"},"geometry":{"type":"Point","coordinates":[121.470171,31.237413]}},{"id":"241","type":"Feature","properties":{"id":"B0FFLI2XVY","name":"冇有沉浸式戏剧剧场(旗舰店)","address":"胶州路941号(长久商务中心1602室)","type":"体育休闲服务;影剧院;剧场","typecode":"080603","pcode":310000,"pname":"上海市","citycode":21,"cityname":"上海市","adcode":310107,"adname":"普陀区","business_area":"曹家渡","location":"121.436682,31.237517","tel":"15221066896;17301602217","bigType":"体育休闲服务","midType":"影剧院","smallType":"剧场","gcj_lng":121.436682,"gcj_lat":31.237517,"wgs84_loc":"121.432062,31.239375","wgs84Lng":121.432062,"wgs84Lat":31.239375,"__source_file__":"13-常用公服设施点/CSV/上海市_影剧院.csv"},"geometry":{"type":"Point","coordinates":[121.432062,31.239375]}},{"id":"675","type":"Feature","properties":{"id":"B0HA374TK6","name":"邻佳影院(三星Onyx Led店)邻嘉","address":"胶州路1055号3楼304-307室5楼501-502室","type":"体育休闲服务;影剧院;电影院","typecode":"080601","pcode":310000,"pname":"上海市","citycode":21,"cityname":"上海市","adcode":310107,"adname":"普陀区","business_area":"曹家渡","location":"121.435133,31.238749","tel":"18917761705","bigType":"体育休闲服务","midType":"影剧院","smallType":"电影院","gcj_lng":121.435133,"gcj_lat":31.238749,"wgs84_loc":"121.43051,31.240604","wgs84Lng":121.43051,"wgs84Lat":31.240604,"__source_file__":"13-常用公服设施点/CSV/上海市_影剧院.csv"},"geometry":{"type":"Point","coordinates":[121.43051,31.240604]}},{"id":"251","type":"Feature","properties":{"id":"B0H231SR93","name":"第九剧场沉浸式实景剧本杀","address":"胶州路与长寿路交叉口西北约60米","type":"体育休闲服务;影剧院;剧场","typecode":"080603","pcode":310000,"pname":"上海市","citycode":21,"cityname":"上海市","adcode":310107,"adname":"普陀区","business_area":"曹家渡","location":"121.435167,31.238775","tel":"[]","bigType":"体育休闲服务","midType":"影剧院","smallType":"剧场","gcj_lng":121.435167,"gcj_lat":31.238775,"wgs84_loc":"121.430544,31.24063","wgs84Lng":121.430544,"wgs84Lat":31.24063,"__source_file__":"13-常用公服设施点/CSV/上海市_影剧院.csv"},"geometry":{"type":"Point","coordinates":[121.430544,31.24063]}},{"id":"235","type":"Feature","properties":{"id":"B0FFHVQD0E","name":"休闲娱乐","address":"安远路443号附近","type":"体育休闲服务;影剧院;电影院","typecode":"080601","pcode":310000,"pname":"上海市","citycode":21,"cityname":"上海市","adcode":310106,"adname":"静安区","business_area":"曹家渡","location":"121.441741,31.238776","tel":"[]","bigType":"体育休闲服务","midType":"影剧院","smallType":"电影院","gcj_lng":121.441741,"gcj_lat":31.238776,"wgs84_loc":"121.43713,31.240642","wgs84Lng":121.43713,"wgs84Lat":31.240642,"__source_file__":"13-常用公服设施点/CSV/上海市_影剧院.csv"},"geometry":{"type":"Point","coordinates":[121.43713,31.240642]}},{"id":"258","type":"Feature","properties":{"id":"B00156EZUG","name":"星光影城(亚新生活广场店)","address":"长寿路401号亚新生活广场4层","type":"体育休闲服务;影剧院;电影院","typecode":"080601","pcode":310000,"pname":"上海市","citycode":21,"cityname":"上海市","adcode":310107,"adname":"普陀区","business_area":"曹家渡","location":"121.437627,31.238976","tel":"021-62881357;13318709836","bigType":"体育休闲服务","midType":"影剧院","smallType":"电影院","gcj_lng":121.437627,"gcj_lat":31.238976,"wgs84_loc":"121.433008,31.240835","wgs84Lng":121.433008,"wgs84Lat":31.240835,"__source_file__":"13-常用公服设施点/CSV/上海市_影剧院.csv"},"geometry":{"type":"Point","coordinates":[121.433008,31.240835]}},{"id":"242","type":"Feature","properties":{"id":"B0G0AMRE4K","name":"Nospace舞蹈剧场","address":"澳门路715创意园505室","type":"体育休闲服务;影剧院;剧场","typecode":"080603","pcode":310000,"pname":"上海市","citycode":21,"cityname":"上海市","adcode":310107,"adname":"普陀区","business_area":"曹家渡","location":"121.436407,31.242867","tel":"15601650408","bigType":"体育休闲服务","midType":"影剧院","smallType":"剧场","gcj_lng":121.436407,"gcj_lat":31.242867,"wgs84_loc":"121.431786,31.244722","wgs84Lng":121.431786,"wgs84Lat":31.244722,"__source_file__":"13-常用公服设施点/CSV/上海市_影剧院.csv"},"geometry":{"type":"Point","coordinates":[121.431786,31.244722]}},{"id":"889","type":"Feature","properties":{"id":"B0IAJX4HRL","name":"大梦沉浸式交互剧场(月星国际家居店)","address":"澳门路168号月星家居4层D106","type":"体育休闲服务;影剧院;剧场","typecode":"080603","pcode":310000,"pname":"上海市","citycode":21,"cityname":"上海市","adcode":310107,"adname":"普陀区","business_area":"光新","location":"121.445516,31.247826","tel":"13166385838","bigType":"体育休闲服务","midType":"影剧院","smallType":"剧场","gcj_lng":121.445516,"gcj_lat":31.247826,"wgs84_loc":"121.440913,31.249694","wgs84Lng":121.440913,"wgs84Lat":31.249694,"__source_file__":"13-常用公服设施点/CSV/上海市_影剧院.csv"},"geometry":{"type":"Point","coordinates":[121.440913,31.249694]}},{"id":"957","type":"Feature","properties":{"id":"B0J3S79O6U","name":"双鱼双生记·沉浸剧场","address":"莫干山路与昌化路交叉口东180米","type":"体育休闲服务;影剧院;剧场","typecode":"080603","pcode":310000,"pname":"上海市","citycode":21,"cityname":"上海市","adcode":310107,"adname":"普陀区","business_area":"光新","location":"121.445959,31.248030","tel":"[]","bigType":"体育休闲服务","midType":"影剧院","smallType":"剧场","gcj_lng":121.445959,"gcj_lat":31.24803,"wgs84_loc":"121.441357,31.249899","wgs84Lng":121.441357,"wgs84Lat":31.249899,"__source_file__":"13-常用公服设施点/CSV/上海市_影剧院.csv"},"geometry":{"type":"Point","coordinates":[121.441357,31.249899]}},{"id":"246","type":"Feature","properties":{"id":"B00157HYCM","name":"浅水湾·大剧场","address":"宜昌路179号浅水湾文化艺术中心1层","type":"体育休闲服务;影剧院;剧场","typecode":"080603","pcode":310000,"pname":"上海市","citycode":21,"cityname":"上海市","adcode":310107,"adname":"普陀区","business_area":"光新","location":"121.440012,31.248959","tel":"[]","bigType":"体育休闲服务","midType":"影剧院","smallType":"剧场","gcj_lng":121.440012,"gcj_lat":31.248959,"wgs84_loc":"121.435397,31.250817","wgs84Lng":121.435397,"wgs84Lat":31.250817,"__source_file__":"13-常用公服设施点/CSV/上海市_影剧院.csv"},"geometry":{"type":"Point","coordinates":[121.435397,31.250817]}},{"id":"243","type":"Feature","properties":{"id":"B0FFIPCPFQ","name":"未来剧场","address":"宜昌路179号2楼","type":"体育休闲服务;影剧院;剧场","typecode":"080603","pcode":310000,"pname":"上海市","citycode":21,"cityname":"上海市","adcode":310107,"adname":"普陀区","business_area":"光新","location":"121.440017,31.249020","tel":"[]","bigType":"体育休闲服务","midType":"影剧院","smallType":"剧场","gcj_lng":121.440017,"gcj_lat":31.24902,"wgs84_loc":"121.435402,31.250878","wgs84Lng":121.435402,"wgs84Lat":31.250878,"__source_file__":"13-常用公服设施点/CSV/上海市_影剧院.csv"},"geometry":{"type":"Point","coordinates":[121.435402,31.250878]}},{"id":"112","type":"Feature","properties":{"id":"B0FFJIOVZ8","name":"长江剧场","address":"黄河路35号","type":"体育休闲服务;影剧院;剧场","typecode":"080603","pcode":310000,"pname":"上海市","citycode":21,"cityname":"上海市","adcode":310101,"adname":"黄浦区","business_area":"北京东路","location":"121.471010,31.233734","tel":"021-63290350","bigType":"体育休闲服务","midType":"影剧院","smallType":"剧场","gcj_lng":121.47101,"gcj_lat":31.233734,"wgs84_loc":"121.466478,31.235667","wgs84Lng":121.466478,"wgs84Lat":31.235667,"__source_file__":"13-常用公服设施点/CSV/上海市_影剧院.csv"},"geometry":{"type":"Point","coordinates":[121.466478,31.235667]}},{"id":"884","type":"Feature","properties":{"id":"B0G2AOCH5X","name":"长江剧场-黑匣子","address":"黄河路与凤阳路交叉口东南20米","type":"体育休闲服务;影剧院;剧场","typecode":"080603","pcode":310000,"pname":"上海市","citycode":21,"cityname":"上海市","adcode":310101,"adname":"黄浦区","business_area":"北京东路","location":"121.471086,31.233755","tel":"[]","bigType":"体育休闲服务","midType":"影剧院","smallType":"剧场","gcj_lng":121.471086,"gcj_lat":31.233755,"wgs84_loc":"121.466554,31.235689","wgs84Lng":121.466554,"wgs84Lat":31.235689,"__source_file__":"13-常用公服设施点/CSV/上海市_影剧院.csv"},"geometry":{"type":"Point","coordinates":[121.466554,31.235689]}},{"id":"211","type":"Feature","properties":{"id":"B0FFLOXPF9","name":"FANCL艺术中心艺海剧院","address":"江宁路466艺海大厦","type":"体育休闲服务;影剧院;剧场","typecode":"080603","pcode":310000,"pname":"上海市","citycode":21,"cityname":"上海市","adcode":310106,"adname":"静安区","business_area":"曹家渡","location":"121.452461,31.234992","tel":"021-62568700;021-62560606","bigType":"体育休闲服务","midType":"影剧院","smallType":"剧场","gcj_lng":121.452461,"gcj_lat":31.234992,"wgs84_loc":"121.447875,31.23688","wgs84Lng":121.447875,"wgs84Lat":31.23688,"__source_file__":"13-常用公服设施点/CSV/上海市_影剧院.csv"},"geometry":{"type":"Point","coordinates":[121.447875,31.23688]}},{"id":"232","type":"Feature","properties":{"id":"B0FFH0CH9P","name":"先锋剧院","address":"江宁路466号艺海大厦5层","type":"体育休闲服务;影剧院;剧场","typecode":"080603","pcode":310000,"pname":"上海市","citycode":21,"cityname":"上海市","adcode":310106,"adname":"静安区","business_area":"曹家渡","location":"121.452484,31.235056","tel":"[]","bigType":"体育休闲服务","midType":"影剧院","smallType":"剧场","gcj_lng":121.452484,"gcj_lat":31.235056,"wgs84_loc":"121.447898,31.236944","wgs84Lng":121.447898,"wgs84Lat":31.236944,"__source_file__":"13-常用公服设施点/CSV/上海市_影剧院.csv"},"geometry":{"type":"Point","coordinates":[121.447898,31.236944]}},{"id":"212","type":"Feature","properties":{"id":"B0H2FLMDHU","name":"浸入式互动戏剧《金钱世界》","address":"大田路与山海关路交叉口西北约40米","type":"体育休闲服务;影剧院;剧场","typecode":"080603","pcode":310000,"pname":"上海市","citycode":21,"cityname":"上海市","adcode":310106,"adname":"静安区","business_area":"淮海路","location":"121.462608,31.236156","tel":"[]","bigType":"体育休闲服务","midType":"影剧院","smallType":"剧场","gcj_lng":121.462608,"gcj_lat":31.236156,"wgs84_loc":"121.45805,31.238067","wgs84Lng":121.45805,"wgs84Lat":31.238067,"__source_file__":"13-常用公服设施点/CSV/上海市_影剧院.csv"},"geometry":{"type":"Point","coordinates":[121.45805,31.238067]}},{"id":"213","type":"Feature","properties":{"id":"B0G064LKJ8","name":"Galaxy live house","address":"长安路与恒丰路辅路交叉口东约20米","type":"体育休闲服务;影剧院;影剧院相关","typecode":"080600","pcode":310000,"pname":"上海市","citycode":21,"cityname":"上海市","adcode":310106,"adname":"静安区","business_area":"[]","location":"121.458359,31.240182","tel":"[]","bigType":"体育休闲服务","midType":"影剧院","smallType":"影剧院相关","gcj_lng":121.458359,"gcj_lat":31.240182,"wgs84_loc":"121.453789,31.242081","wgs84Lng":121.453789,"wgs84Lat":31.242081,"__source_file__":"13-常用公服设施点/CSV/上海市_影剧院.csv"},"geometry":{"type":"Point","coordinates":[121.453789,31.242081]}},{"id":"214","type":"Feature","properties":{"id":"B0HKAZHXVH","name":"名品御魂殿·沉浸式剧场","address":"秣陵路与民立路交叉口西约60米","type":"体育休闲服务;影剧院;剧场","typecode":"080603","pcode":310000,"pname":"上海市","citycode":21,"cityname":"上海市","adcode":310106,"adname":"静安区","business_area":"[]","location":"121.455081,31.246966","tel":"[]","bigType":"体育休闲服务","midType":"影剧院","smallType":"剧场","gcj_lng":121.455081,"gcj_lat":31.246966,"wgs84_loc":"121.450501,31.248854","wgs84Lng":121.450501,"wgs84Lat":31.248854,"__source_file__":"13-常用公服设施点/CSV/上海市_影剧院.csv"},"geometry":{"type":"Point","coordinates":[121.450501,31.248854]}},{"id":"922","type":"Feature","properties":{"id":"B0J1MR031B","name":"金逸影城(上海金融街店)","address":"恒丰北路129-6号金融街购物中心B1层","type":"体育休闲服务;影剧院;电影院","typecode":"080601","pcode":310000,"pname":"上海市","citycode":21,"cityname":"上海市","adcode":310106,"adname":"静安区","business_area":"不夜城","location":"121.453217,31.253622","tel":"021-56660898;13482078185","bigType":"体育休闲服务","midType":"影剧院","smallType":"电影院","gcj_lng":121.453217,"gcj_lat":31.253622,"wgs84_loc":"121.448632,31.255503","wgs84Lng":121.448632,"wgs84Lat":31.255503,"__source_file__":"13-常用公服设施点/CSV/上海市_影剧院.csv"},"geometry":{"type":"Point","coordinates":[121.448632,31.255503]}},{"id":"56","type":"Feature","properties":{"id":"B00151E06E","name":"沪北电影院(共和新路店)","address":"洛川东路500号1-3层","type":"体育休闲服务;影剧院;电影院","typecode":"080601","pcode":310000,"pname":"上海市","citycode":21,"cityname":"上海市","adcode":310106,"adname":"静安区","business_area":"和田","location":"121.458646,31.268295","tel":"021-56627784","bigType":"体育休闲服务","midType":"影剧院","smallType":"电影院","gcj_lng":121.458646,"gcj_lat":31.268295,"wgs84_loc":"121.454074,31.270182","wgs84Lng":121.454074,"wgs84Lat":31.270182,"__source_file__":"13-常用公服设施点/CSV/上海市_影剧院.csv"},"geometry":{"type":"Point","coordinates":[121.454074,31.270182]}},{"id":"199","type":"Feature","properties":{"id":"B00156O1YT","name":"上影CGV(大宁影城店)","address":"共和新路1878号大宁国际商业广场第2座3层","type":"体育休闲服务;影剧院;电影院","typecode":"080601","pcode":310000,"pname":"上海市","citycode":21,"cityname":"上海市","adcode":310106,"adname":"静安区","business_area":"大宁路","location":"121.452776,31.273542","tel":"021-56651212","bigType":"体育休闲服务","midType":"影剧院","smallType":"电影院","gcj_lng":121.452776,"gcj_lat":31.273542,"wgs84_loc":"121.448188,31.275414","wgs84Lng":121.448188,"wgs84Lat":31.275414,"__source_file__":"13-常用公服设施点/CSV/上海市_影剧院.csv"},"geometry":{"type":"Point","coordinates":[121.448188,31.275414]}},{"id":"247","type":"Feature","properties":{"id":"B0FFHU254J","name":"梦想剧场","address":"宜昌路179号万代南梦宫艺术中心一楼","type":"体育休闲服务;影剧院;剧场","typecode":"080603","pcode":310000,"pname":"上海市","citycode":21,"cityname":"上海市","adcode":310107,"adname":"普陀区","business_area":"光新","location":"121.440033,31.249033","tel":"[]","bigType":"体育休闲服务","midType":"影剧院","smallType":"剧场","gcj_lng":121.440033,"gcj_lat":31.249033,"wgs84_loc":"121.435418,31.250891","wgs84Lng":121.435418,"wgs84Lat":31.250891,"__source_file__":"13-常用公服设施点/CSV/上海市_影剧院.csv"},"geometry":{"type":"Point","coordinates":[121.435418,31.250891]}},{"id":"250","type":"Feature","properties":{"id":"B0FFGFB4XT","name":"浅水湾·小剧场","address":"宜昌路179号浅水湾文化艺术中心2层","type":"体育休闲服务;影剧院;剧场","typecode":"080603","pcode":310000,"pname":"上海市","citycode":21,"cityname":"上海市","adcode":310107,"adname":"普陀区","business_area":"光新","location":"121.440120,31.249112","tel":"[]","bigType":"体育休闲服务","midType":"影剧院","smallType":"剧场","gcj_lng":121.44012,"gcj_lat":31.249112,"wgs84_loc":"121.435505,31.25097","wgs84Lng":121.435505,"wgs84Lat":31.25097,"__source_file__":"13-常用公服设施点/CSV/上海市_影剧院.csv"},"geometry":{"type":"Point","coordinates":[121.435505,31.25097]}},{"id":"668","type":"Feature","properties":{"id":"B0FFLCS0YH","name":"幸福蓝海国际影城(上海香溢IMAX店)","address":"光新路310号","type":"体育休闲服务;影剧院;电影院","typecode":"080601","pcode":310000,"pname":"上海市","citycode":21,"cityname":"上海市","adcode":310107,"adname":"普陀区","business_area":"光新","location":"121.431802,31.254341","tel":"021-61070882","bigType":"体育休闲服务","midType":"影剧院","smallType":"电影院","gcj_lng":121.431802,"gcj_lat":31.254341,"wgs84_loc":"121.427172,31.256185","wgs84Lng":121.427172,"wgs84Lat":31.256185,"__source_file__":"13-常用公服设施点/CSV/上海市_影剧院.csv"},"geometry":{"type":"Point","coordinates":[121.427172,31.256185]}},{"id":"651","type":"Feature","properties":{"id":"B0FFHK0CGG","name":"SFC上影影城(宜川路店)","address":"宜川路300号2幢3楼","type":"体育休闲服务;影剧院;电影院","typecode":"080601","pcode":310000,"pname":"上海市","citycode":21,"cityname":"上海市","adcode":310107,"adname":"普陀区","business_area":"大宁路","location":"121.437754,31.262105","tel":"021-56500875","bigType":"体育休闲服务","midType":"影剧院","smallType":"电影院","gcj_lng":121.437754,"gcj_lat":31.262105,"wgs84_loc":"121.433133,31.263954","wgs84Lng":121.433133,"wgs84Lat":31.263954,"__source_file__":"13-常用公服设施点/CSV/上海市_影剧院.csv"},"geometry":{"type":"Point","coordinates":[121.433133,31.263954]}},{"id":"62","type":"Feature","properties":{"id":"B0FFH9GXHE","name":"新华永乐国际影城","address":"延长中路801号B座2楼","type":"体育休闲服务;影剧院;电影院","typecode":"080601","pcode":310000,"pname":"上海市","citycode":21,"cityname":"上海市","adcode":310106,"adname":"静安区","business_area":"大宁路","location":"121.444465,31.266200","tel":"021-36572988","bigType":"体育休闲服务","midType":"影剧院","smallType":"电影院","gcj_lng":121.444465,"gcj_lat":31.2662,"wgs84_loc":"121.439858,31.268059","wgs84Lng":121.439858,"wgs84Lat":31.268059,"__source_file__":"13-常用公服设施点/CSV/上海市_影剧院.csv"},"geometry":{"type":"Point","coordinates":[121.439858,31.268059]}},{"id":"233","type":"Feature","properties":{"id":"B0H2A77R6D","name":"小不点大视界剧场","address":"大宁路街道共和新路1898号大宁国际商业广场F3","type":"体育休闲服务;影剧院;剧场","typecode":"080603","pcode":310000,"pname":"上海市","citycode":21,"cityname":"上海市","adcode":310106,"adname":"静安区","business_area":"大宁路","location":"121.453055,31.274078","tel":"[]","bigType":"体育休闲服务","midType":"影剧院","smallType":"剧场","gcj_lng":121.453055,"gcj_lat":31.274078,"wgs84_loc":"121.448468,31.27595","wgs84Lng":121.448468,"wgs84Lat":31.27595,"__source_file__":"13-常用公服设施点/CSV/上海市_影剧院.csv"},"geometry":{"type":"Point","coordinates":[121.448468,31.27595]}},{"id":"230","type":"Feature","properties":{"id":"B0FFG75IOF","name":"亲子微剧场(大宁国际商业广场店)","address":"共和新路1898号大宁国际5座3楼","type":"体育休闲服务;影剧院;剧场","typecode":"080603","pcode":310000,"pname":"上海市","citycode":21,"cityname":"上海市","adcode":310106,"adname":"静安区","business_area":"大宁路","location":"121.453061,31.274225","tel":"18616788317","bigType":"体育休闲服务","midType":"影剧院","smallType":"剧场","gcj_lng":121.453061,"gcj_lat":31.274225,"wgs84_loc":"121.448474,31.276097","wgs84Lng":121.448474,"wgs84Lat":31.276097,"__source_file__":"13-常用公服设施点/CSV/上海市_影剧院.csv"},"geometry":{"type":"Point","coordinates":[121.448474,31.276097]}},{"id":"33","type":"Feature","properties":{"id":"B0015501ZV","name":"万裕国际影城","address":"淮海中路99号大上海时代广场6层","type":"体育休闲服务;影剧院;电影院","typecode":"080601","pcode":310000,"pname":"上海市","citycode":21,"cityname":"上海市","adcode":310101,"adname":"黄浦区","business_area":"淮海路","location":"121.478687,31.224497","tel":"021-63910363;021-63910755;021-63910701","bigType":"体育休闲服务","midType":"影剧院","smallType":"电影院","gcj_lng":121.478687,"gcj_lat":31.224497,"wgs84_loc":"121.474181,31.226456","wgs84Lng":121.474181,"wgs84Lat":31.226456,"__source_file__":"13-常用公服设施点/CSV/上海市_影剧院.csv"},"geometry":{"type":"Point","coordinates":[121.474181,31.226456]}},{"id":"1004","type":"Feature","properties":{"id":"B0K2SN04UU","name":"凯迪拉克.上海音乐厅","address":"柳林路8号","type":"体育休闲服务;影剧院;音乐厅","typecode":"080602","pcode":310000,"pname":"上海市","citycode":21,"cityname":"上海市","adcode":310101,"adname":"黄浦区","business_area":"北京路","location":"121.478688,31.225759","tel":"[]","bigType":"体育休闲服务","midType":"影剧院","smallType":"音乐厅","gcj_lng":121.478688,"gcj_lat":31.225759,"wgs84_loc":"121.474182,31.227717","wgs84Lng":121.474182,"wgs84Lat":31.227717,"__source_file__":"13-常用公服设施点/CSV/上海市_影剧院.csv"},"geometry":{"type":"Point","coordinates":[121.474182,31.227717]}},{"id":"42","type":"Feature","properties":{"id":"B0FFFA088X","name":"兰生典尚影院","address":"淮海中路8号兰生大厦5层","type":"体育休闲服务;影剧院;电影院","typecode":"080601","pcode":310000,"pname":"上海市","citycode":21,"cityname":"上海市","adcode":310101,"adname":"黄浦区","business_area":"北京东路","location":"121.479412,31.225991","tel":"021-63190618;021-63343300","bigType":"体育休闲服务","midType":"影剧院","smallType":"电影院","gcj_lng":121.479412,"gcj_lat":31.225991,"wgs84_loc":"121.474908,31.227951","wgs84Lng":121.474908,"wgs84Lat":31.227951,"__source_file__":"13-常用公服设施点/CSV/上海市_影剧院.csv"},"geometry":{"type":"Point","coordinates":[121.474908,31.227951]}},{"id":"27","type":"Feature","properties":{"id":"B00155C2AI","name":"凯迪拉克·上海音乐厅","address":"延安东路523号","type":"体育休闲服务;影剧院;音乐厅","typecode":"080602","pcode":310000,"pname":"上海市","citycode":21,"cityname":"上海市","adcode":310101,"adname":"黄浦区","business_area":"北京东路","location":"121.47769,31.22692","tel":"021-63862836;021-53866666","bigType":"体育休闲服务","midType":"影剧院","smallType":"音乐厅","gcj_lng":121.47769,"gcj_lat":31.22692,"wgs84_loc":"121.47318,31.228875","wgs84Lng":121.47318,"wgs84Lat":31.228875,"__source_file__":"13-常用公服设施点/CSV/上海市_影剧院.csv"},"geometry":{"type":"Point","coordinates":[121.47318,31.228875]}},{"id":"136","type":"Feature","properties":{"id":"B0FFFQ25SD","name":"花儿为什么这样红-抒情歌曲珍品名家春节演唱会","address":"金陵中路88号森海塞尔上海音乐厅内","type":"体育休闲服务;影剧院;音乐厅","typecode":"080602","pcode":310000,"pname":"上海市","citycode":21,"cityname":"上海市","adcode":310101,"adname":"黄浦区","business_area":"北京东路","location":"121.477869,31.226977","tel":"[]","bigType":"体育休闲服务","midType":"影剧院","smallType":"音乐厅","gcj_lng":121.477869,"gcj_lat":31.226977,"wgs84_loc":"121.47336,31.228932","wgs84Lng":121.47336,"wgs84Lat":31.228932,"__source_file__":"13-常用公服设施点/CSV/上海市_影剧院.csv"},"geometry":{"type":"Point","coordinates":[121.47336,31.228932]}},{"id":"873","type":"Feature","properties":{"id":"B0FFIAPUQ2","name":"森海塞尔上海音乐厅","address":"淮海中路98号金钟广场知音琴行靠近龙门路","type":"体育休闲服务;影剧院;音乐厅","typecode":"080602","pcode":310000,"pname":"上海市","citycode":21,"cityname":"上海市","adcode":310101,"adname":"黄浦区","business_area":"北京东路","location":"121.477870,31.226982","tel":"[]","bigType":"体育休闲服务","midType":"影剧院","smallType":"音乐厅","gcj_lng":121.47787,"gcj_lat":31.226982,"wgs84_loc":"121.473361,31.228937","wgs84Lng":121.473361,"wgs84Lat":31.228937,"__source_file__":"13-常用公服设施点/CSV/上海市_影剧院.csv"},"geometry":{"type":"Point","coordinates":[121.473361,31.228937]}},{"id":"147","type":"Feature","properties":{"id":"B0FFK6U2X1","name":"非遗剧场","address":"[]","type":"体育休闲服务;影剧院;剧场","typecode":"080603","pcode":310000,"pname":"上海市","citycode":21,"cityname":"上海市","adcode":310101,"adname":"黄浦区","business_area":"北京东路","location":"121.478839,31.228350","tel":"[]","bigType":"体育休闲服务","midType":"影剧院","smallType":"剧场","gcj_lng":121.478839,"gcj_lat":31.22835,"wgs84_loc":"121.474333,31.230307","wgs84Lng":121.474333,"wgs84Lat":31.230307,"__source_file__":"13-常用公服设施点/CSV/上海市_影剧院.csv"},"geometry":{"type":"Point","coordinates":[121.474333,31.230307]}},{"id":"886","type":"Feature","properties":{"id":"B0IRBR0IKF","name":"星空间15号睿鱼剧场","address":"西藏南路1号大世界3门4楼(大世界地铁站1号口步行140米)","type":"体育休闲服务;影剧院;剧场","typecode":"080603","pcode":310000,"pname":"上海市","citycode":21,"cityname":"上海市","adcode":310101,"adname":"黄浦区","business_area":"淮海路","location":"121.479091,31.228419","tel":"[]","bigType":"体育休闲服务","midType":"影剧院","smallType":"剧场","gcj_lng":121.479091,"gcj_lat":31.228419,"wgs84_loc":"121.474586,31.230377","wgs84Lng":121.474586,"wgs84Lat":31.230377,"__source_file__":"13-常用公服设施点/CSV/上海市_影剧院.csv"},"geometry":{"type":"Point","coordinates":[121.474586,31.230377]}},{"id":"111","type":"Feature","properties":{"id":"B0HRDBUZ04","name":"上海大世界演艺夜市品牌馆","address":"延安东路与西藏南路交叉口东约40米","type":"体育休闲服务;影剧院;剧场","typecode":"080603","pcode":310000,"pname":"上海市","citycode":21,"cityname":"上海市","adcode":310101,"adname":"黄浦区","business_area":"淮海路","location":"121.478836,31.228434","tel":"[]","bigType":"体育休闲服务","midType":"影剧院","smallType":"剧场","gcj_lng":121.478836,"gcj_lat":31.228434,"wgs84_loc":"121.47433,31.230391","wgs84Lng":121.47433,"wgs84Lat":31.230391,"__source_file__":"13-常用公服设施点/CSV/上海市_影剧院.csv"},"geometry":{"type":"Point","coordinates":[121.47433,31.230391]}},{"id":"1012","type":"Feature","properties":{"id":"B0J3DKG3A5","name":"时光剧场","address":"西藏南路1号大世界2楼E厅(大世界地铁站1号口步行50米)","type":"体育休闲服务;影剧院;剧场","typecode":"080603","pcode":310000,"pname":"上海市","citycode":21,"cityname":"上海市","adcode":310101,"adname":"黄浦区","business_area":"北京路","location":"121.478934,31.228474","tel":"[]","bigType":"体育休闲服务","midType":"影剧院","smallType":"剧场","gcj_lng":121.478934,"gcj_lat":31.228474,"wgs84_loc":"121.474428,31.230432","wgs84Lng":121.474428,"wgs84Lat":31.230432,"__source_file__":"13-常用公服设施点/CSV/上海市_影剧院.csv"},"geometry":{"type":"Point","coordinates":[121.474428,31.230432]}},{"id":"129","type":"Feature","properties":{"id":"B0FFIG8A6M","name":"HaloM私人影院","address":"南京东路353号悦荟广场5楼510-512","type":"体育休闲服务;影剧院;电影院","typecode":"080601","pcode":310000,"pname":"上海市","citycode":21,"cityname":"上海市","adcode":310101,"adname":"黄浦区","business_area":"北京东路","location":"121.483796,31.236426","tel":"[]","bigType":"体育休闲服务","midType":"影剧院","smallType":"电影院","gcj_lng":121.483796,"gcj_lat":31.236426,"wgs84_loc":"121.479306,31.238394","wgs84Lng":121.479306,"wgs84Lat":31.238394,"__source_file__":"13-常用公服设施点/CSV/上海市_影剧院.csv"},"geometry":{"type":"Point","coordinates":[121.479306,31.238394]}},{"id":"1047","type":"Feature","properties":{"id":"B0JB6NCIZ3","name":"乐童文化剧场(正大广场店)","address":"上海正大广场8层","type":"体育休闲服务;影剧院;剧场","typecode":"080603","pcode":310000,"pname":"上海市","citycode":21,"cityname":"上海市","adcode":310115,"adname":"浦东新区","business_area":"陆家嘴","location":"121.499624,31.236874","tel":"[]","bigType":"体育休闲服务","midType":"影剧院","smallType":"剧场","gcj_lng":121.499624,"gcj_lat":31.236874,"wgs84_loc":"121.495191,31.238889","wgs84Lng":121.495191,"wgs84Lat":31.238889,"__source_file__":"13-常用公服设施点/CSV/上海市_影剧院.csv"},"geometry":{"type":"Point","coordinates":[121.495191,31.238889]}},{"id":"780","type":"Feature","properties":{"id":"B00156EZJQ","name":"星美国际影城(正大IMAX店)(暂停营业)","address":"陆家嘴西路168号正大广场8层","type":"体育休闲服务;影剧院;电影院","typecode":"080601","pcode":310000,"pname":"上海市","citycode":21,"cityname":"上海市","adcode":310115,"adname":"浦东新区","business_area":"陆家嘴","location":"121.499954,31.237078","tel":"[]","bigType":"体育休闲服务","midType":"影剧院","smallType":"电影院","gcj_lng":121.499954,"gcj_lat":31.237078,"wgs84_loc":"121.495522,31.239094","wgs84Lng":121.495522,"wgs84Lat":31.239094,"__source_file__":"13-常用公服设施点/CSV/上海市_影剧院.csv"},"geometry":{"type":"Point","coordinates":[121.495522,31.239094]}},{"id":"896","type":"Feature","properties":{"id":"B00155ITWZ","name":"星美国际影城(上海正大店)(暂停营业)","address":"陆家嘴西路168号正大广场8层8F04","type":"体育休闲服务;影剧院;电影院","typecode":"080601","pcode":310000,"pname":"上海市","citycode":21,"cityname":"上海市","adcode":310115,"adname":"浦东新区","business_area":"陆家嘴","location":"121.499876,31.23709","tel":"[]","bigType":"体育休闲服务","midType":"影剧院","smallType":"电影院","gcj_lng":121.499876,"gcj_lat":31.23709,"wgs84_loc":"121.495444,31.239105","wgs84Lng":121.495444,"wgs84Lat":31.239105,"__source_file__":"13-常用公服设施点/CSV/上海市_影剧院.csv"},"geometry":{"type":"Point","coordinates":[121.495444,31.239105]}},{"id":"1018","type":"Feature","properties":{"id":"B0K1OBUWJ7","name":"大世界·Fun剧场","address":"延安东路与西藏南路交叉口东40米","type":"体育休闲服务;影剧院;剧场","typecode":"080603","pcode":310000,"pname":"上海市","citycode":21,"cityname":"上海市","adcode":310101,"adname":"黄浦区","business_area":"北京路","location":"121.478773,31.228595","tel":"[]","bigType":"体育休闲服务","midType":"影剧院","smallType":"剧场","gcj_lng":121.478773,"gcj_lat":31.228595,"wgs84_loc":"121.474267,31.230552","wgs84Lng":121.474267,"wgs84Lat":31.230552,"__source_file__":"13-常用公服设施点/CSV/上海市_影剧院.csv"},"geometry":{"type":"Point","coordinates":[121.474267,31.230552]}},{"id":"107","type":"Feature","properties":{"id":"B0G3UU3NX1","name":"共舞台","address":"延安东路433号","type":"体育休闲服务;影剧院;剧场","typecode":"080603","pcode":310000,"pname":"上海市","citycode":21,"cityname":"上海市","adcode":310101,"adname":"黄浦区","business_area":"北京东路","location":"121.479271,31.228809","tel":"021-63523310","bigType":"体育休闲服务","midType":"影剧院","smallType":"剧场","gcj_lng":121.479271,"gcj_lat":31.228809,"wgs84_loc":"121.474767,31.230767","wgs84Lng":121.474767,"wgs84Lat":31.230767,"__source_file__":"13-常用公服设施点/CSV/上海市_影剧院.csv"},"geometry":{"type":"Point","coordinates":[121.474767,31.230767]}},{"id":"123","type":"Feature","properties":{"id":"B0FFLAKI1S","name":"拾光里主题影院(大世界店)","address":"浙江南路88号东新大厦401室","type":"体育休闲服务;影剧院;电影院","typecode":"080601","pcode":310000,"pname":"上海市","citycode":21,"cityname":"上海市","adcode":310101,"adname":"黄浦区","business_area":"北京东路","location":"121.482355,31.228894","tel":"13381839879","bigType":"体育休闲服务","midType":"影剧院","smallType":"电影院","gcj_lng":121.482355,"gcj_lat":31.228894,"wgs84_loc":"121.477861,31.230861","wgs84Lng":121.477861,"wgs84Lat":31.230861,"__source_file__":"13-常用公服设施点/CSV/上海市_影剧院.csv"},"geometry":{"type":"Point","coordinates":[121.477861,31.230861]}},{"id":"883","type":"Feature","properties":{"id":"B0I2PHI2F8","name":"茉莉花剧场","address":"北海路247号","type":"体育休闲服务;影剧院;剧场","typecode":"080603","pcode":310000,"pname":"上海市","citycode":21,"cityname":"上海市","adcode":310101,"adname":"黄浦区","business_area":"淮海路","location":"121.478421,31.230182","tel":"[]","bigType":"体育休闲服务","midType":"影剧院","smallType":"剧场","gcj_lng":121.478421,"gcj_lat":31.230182,"wgs84_loc":"121.473914,31.232137","wgs84Lng":121.473914,"wgs84Lat":31.232137,"__source_file__":"13-常用公服设施点/CSV/上海市_影剧院.csv"},"geometry":{"type":"Point","coordinates":[121.473914,31.232137]}},{"id":"40","type":"Feature","properties":{"id":"B00155KKQI","name":"上海天蟾逸夫舞台","address":"福州路701号","type":"体育休闲服务;影剧院;剧场","typecode":"080603","pcode":310000,"pname":"上海市","citycode":21,"cityname":"上海市","adcode":310101,"adname":"黄浦区","business_area":"北京东路","location":"121.477544,31.231892","tel":"021-63225294;021-63225075","bigType":"体育休闲服务","midType":"影剧院","smallType":"剧场","gcj_lng":121.477544,"gcj_lat":31.231892,"wgs84_loc":"121.473034,31.233844","wgs84Lng":121.473034,"wgs84Lat":31.233844,"__source_file__":"13-常用公服设施点/CSV/上海市_影剧院.csv"},"geometry":{"type":"Point","coordinates":[121.473034,31.233844]}},{"id":"41","type":"Feature","properties":{"id":"B0015325A9","name":"浙江电影院(浙江中路店)","address":"浙江中路123","type":"体育休闲服务;影剧院;电影院","typecode":"080601","pcode":310000,"pname":"上海市","citycode":21,"cityname":"上海市","adcode":310101,"adname":"黄浦区","business_area":"北京东路","location":"121.479884,31.232043","tel":"021-63524732;021-63226008","bigType":"体育休闲服务","midType":"影剧院","smallType":"电影院","gcj_lng":121.479884,"gcj_lat":31.232043,"wgs84_loc":"121.475381,31.234002","wgs84Lng":121.475381,"wgs84Lat":31.234002,"__source_file__":"13-常用公服设施点/CSV/上海市_影剧院.csv"},"geometry":{"type":"Point","coordinates":[121.475381,31.234002]}},{"id":"118","type":"Feature","properties":{"id":"B0HRORO97U","name":"上海来福士剧院(来福士广场店)","address":"西藏中路268号来福士广场F6","type":"体育休闲服务;影剧院;剧场","typecode":"080603","pcode":310000,"pname":"上海市","citycode":21,"cityname":"上海市","adcode":310101,"adname":"黄浦区","business_area":"北京东路","location":"121.476745,31.232829","tel":"[]","bigType":"体育休闲服务","midType":"影剧院","smallType":"剧场","gcj_lng":121.476745,"gcj_lat":31.232829,"wgs84_loc":"121.472232,31.234779","wgs84Lng":121.472232,"wgs84Lat":31.234779,"__source_file__":"13-常用公服设施点/CSV/上海市_影剧院.csv"},"geometry":{"type":"Point","coordinates":[121.472232,31.234779]}},{"id":"110","type":"Feature","properties":{"id":"B0FFHRYJDX","name":"豆映点播影院(人民广场店)","address":"百米香榭商业街3楼303商铺","type":"体育休闲服务;影剧院;电影院","typecode":"080601","pcode":310000,"pname":"上海市","citycode":21,"cityname":"上海市","adcode":310101,"adname":"黄浦区","business_area":"北京东路","location":"121.478894,31.233699","tel":"[]","bigType":"体育休闲服务","midType":"影剧院","smallType":"电影院","gcj_lng":121.478894,"gcj_lat":31.233699,"wgs84_loc":"121.474388,31.235654","wgs84Lng":121.474388,"wgs84Lat":31.235654,"__source_file__":"13-常用公服设施点/CSV/上海市_影剧院.csv"},"geometry":{"type":"Point","coordinates":[121.474388,31.235654]}},{"id":"109","type":"Feature","properties":{"id":"B0I65M897I","name":"复合剧场","address":"汉口路650号亚洲大厦11楼星空间55复合剧场","type":"体育休闲服务;影剧院;剧场","typecode":"080603","pcode":310000,"pname":"上海市","citycode":21,"cityname":"上海市","adcode":310101,"adname":"黄浦区","business_area":"北京东路","location":"121.478085,31.233898","tel":"[]","bigType":"体育休闲服务","midType":"影剧院","smallType":"剧场","gcj_lng":121.478085,"gcj_lat":31.233898,"wgs84_loc":"121.473576,31.235851","wgs84Lng":121.473576,"wgs84Lat":31.235851,"__source_file__":"13-常用公服设施点/CSV/上海市_影剧院.csv"},"geometry":{"type":"Point","coordinates":[121.473576,31.235851]}},{"id":"108","type":"Feature","properties":{"id":"B0G2M10SII","name":"阿波罗尼亚·一台好戏小剧场","address":"汉口路650号亚洲大厦4楼星空间1号","type":"体育休闲服务;影剧院;剧场","typecode":"080603","pcode":310000,"pname":"上海市","citycode":21,"cityname":"上海市","adcode":310101,"adname":"黄浦区","business_area":"北京东路","location":"121.478062,31.233915","tel":"021-61371900","bigType":"体育休闲服务","midType":"影剧院","smallType":"剧场","gcj_lng":121.478062,"gcj_lat":31.233915,"wgs84_loc":"121.473553,31.235868","wgs84Lng":121.473553,"wgs84Lat":31.235868,"__source_file__":"13-常用公服设施点/CSV/上海市_影剧院.csv"},"geometry":{"type":"Point","coordinates":[121.473553,31.235868]}},{"id":"103","type":"Feature","properties":{"id":"B0HRA5MF5B","name":"大上海电影院","address":"西藏中路新世界城东北侧约30米","type":"体育休闲服务;影剧院;电影院","typecode":"080601","pcode":310000,"pname":"上海市","citycode":21,"cityname":"上海市","adcode":310101,"adname":"黄浦区","business_area":"北京东路","location":"121.474211,31.235932","tel":"[]","bigType":"体育休闲服务","midType":"影剧院","smallType":"电影院","gcj_lng":121.474211,"gcj_lat":31.235932,"wgs84_loc":"121.469689,31.237873","wgs84Lng":121.469689,"wgs84Lat":31.237873,"__source_file__":"13-常用公服设施点/CSV/上海市_影剧院.csv"},"geometry":{"type":"Point","coordinates":[121.469689,31.237873]}},{"id":"138","type":"Feature","properties":{"id":"B0IGPDHLTB","name":"梦想空间第一百货","address":"梦想空间点播影院第一百货店","type":"体育休闲服务;影剧院;电影院","typecode":"080601","pcode":310000,"pname":"上海市","citycode":21,"cityname":"上海市","adcode":310101,"adname":"黄浦区","business_area":"北京东路","location":"121.475110,31.235958","tel":"[]","bigType":"体育休闲服务","midType":"影剧院","smallType":"电影院","gcj_lng":121.47511,"gcj_lat":31.235958,"wgs84_loc":"121.470591,31.237902","wgs84Lng":121.470591,"wgs84Lat":31.237902,"__source_file__":"13-常用公服设施点/CSV/上海市_影剧院.csv"},"geometry":{"type":"Point","coordinates":[121.470591,31.237902]}},{"id":"936","type":"Feature","properties":{"id":"B00155L1DA","name":"SFC上影百联影城(大上海店)","address":"西藏中路500号8层(人民广场地铁站19号口步行270米)","type":"体育休闲服务;影剧院;电影院","typecode":"080601","pcode":310000,"pname":"上海市","citycode":21,"cityname":"上海市","adcode":310101,"adname":"黄浦区","business_area":"北京路","location":"121.474190,31.235986","tel":"021-63308516;021-63616078","bigType":"体育休闲服务","midType":"影剧院","smallType":"电影院","gcj_lng":121.47419,"gcj_lat":31.235986,"wgs84_loc":"121.469668,31.237927","wgs84Lng":121.469668,"wgs84Lat":31.237927,"__source_file__":"13-常用公服设施点/CSV/上海市_影剧院.csv"},"geometry":{"type":"Point","coordinates":[121.469668,31.237927]}},{"id":"106","type":"Feature","properties":{"id":"B0FFJH5PJB","name":"上影百联影城(大上海店)","address":"西藏中路500号8层","type":"体育休闲服务;影剧院;电影院","typecode":"080601","pcode":310000,"pname":"上海市","citycode":21,"cityname":"上海市","adcode":310101,"adname":"黄浦区","business_area":"北京东路","location":"121.474175,31.236015","tel":"021-63308516","bigType":"体育休闲服务","midType":"影剧院","smallType":"电影院","gcj_lng":121.474175,"gcj_lat":31.236015,"wgs84_loc":"121.469653,31.237956","wgs84Lng":121.469653,"wgs84Lat":31.237956,"__source_file__":"13-常用公服设施点/CSV/上海市_影剧院.csv"},"geometry":{"type":"Point","coordinates":[121.469653,31.237956]}},{"id":"847","type":"Feature","properties":{"id":"B0FFH5W6DE","name":"新光剧场","address":"宁波路586号","type":"体育休闲服务;影剧院;剧场","typecode":"080603","pcode":310000,"pname":"上海市","citycode":21,"cityname":"上海市","adcode":310101,"adname":"黄浦区","business_area":"北京东路","location":"121.476525,31.236780","tel":"[]","bigType":"体育休闲服务","midType":"影剧院","smallType":"剧场","gcj_lng":121.476525,"gcj_lat":31.23678,"wgs84_loc":"121.472011,31.238727","wgs84Lng":121.472011,"wgs84Lat":31.238727,"__source_file__":"13-常用公服设施点/CSV/上海市_影剧院.csv"},"geometry":{"type":"Point","coordinates":[121.472011,31.238727]}},{"id":"122","type":"Feature","properties":{"id":"B0HR5SBUG4","name":"新光大戏院","address":"宁波路586弄1号(人民广场地铁站北)","type":"体育休闲服务;影剧院;剧场","typecode":"080603","pcode":310000,"pname":"上海市","citycode":21,"cityname":"上海市","adcode":310101,"adname":"黄浦区","business_area":"北京东路","location":"121.476346,31.236849","tel":"[]","bigType":"体育休闲服务","midType":"影剧院","smallType":"剧场","gcj_lng":121.476346,"gcj_lat":31.236849,"wgs84_loc":"121.471831,31.238796","wgs84Lng":121.471831,"wgs84Lat":31.238796,"__source_file__":"13-常用公服设施点/CSV/上海市_影剧院.csv"},"geometry":{"type":"Point","coordinates":[121.471831,31.238796]}},{"id":"121","type":"Feature","properties":{"id":"B0I6SUMJSS","name":"阿加莎·一台好戏剧场","address":"牛庄路704号","type":"体育休闲服务;影剧院;剧场","typecode":"080603","pcode":310000,"pname":"上海市","citycode":21,"cityname":"上海市","adcode":310101,"adname":"黄浦区","business_area":"北京东路","location":"121.476531,31.237646","tel":"[]","bigType":"体育休闲服务","midType":"影剧院","smallType":"剧场","gcj_lng":121.476531,"gcj_lat":31.237646,"wgs84_loc":"121.472017,31.239593","wgs84Lng":121.472017,"wgs84Lat":31.239593,"__source_file__":"13-常用公服设施点/CSV/上海市_影剧院.csv"},"geometry":{"type":"Point","coordinates":[121.472017,31.239593]}},{"id":"26","type":"Feature","properties":{"id":"B001549495","name":"黄浦剧场","address":"北京东路780号","type":"体育休闲服务;影剧院;电影院|体育休闲服务;影剧院;剧场","typecode":"080601|080603","pcode":310000,"pname":"上海市","citycode":21,"cityname":"上海市","adcode":310101,"adname":"黄浦区","business_area":"北京东路","location":"121.475593,31.238417","tel":"021-63508739;021-63229103","bigType":"体育休闲服务","midType":"影剧院","smallType":"电影院|体育休闲服务","gcj_lng":121.475593,"gcj_lat":31.238417,"wgs84_loc":"121.471075,31.240361","wgs84Lng":121.471075,"wgs84Lat":31.240361,"__source_file__":"13-常用公服设施点/CSV/上海市_影剧院.csv"},"geometry":{"type":"Point","coordinates":[121.471075,31.240361]}},{"id":"127","type":"Feature","properties":{"id":"B0FFHNYYW9","name":"小剧场","address":"北京东路780号黄浦剧场","type":"体育休闲服务;影剧院;剧场","typecode":"080603","pcode":310000,"pname":"上海市","citycode":21,"cityname":"上海市","adcode":310101,"adname":"黄浦区","business_area":"北京东路","location":"121.475481,31.238441","tel":"[]","bigType":"体育休闲服务","midType":"影剧院","smallType":"剧场","gcj_lng":121.475481,"gcj_lat":31.238441,"wgs84_loc":"121.470963,31.240384","wgs84Lng":121.470963,"wgs84Lat":31.240384,"__source_file__":"13-常用公服设施点/CSV/上海市_影剧院.csv"},"geometry":{"type":"Point","coordinates":[121.470963,31.240384]}},{"id":"203","type":"Feature","properties":{"id":"B0FFH0UA24","name":"金逸影城(大悦城店)","address":"西藏北路166号上海大悦城南座10-11层","type":"体育休闲服务;影剧院;电影院","typecode":"080601","pcode":310000,"pname":"上海市","citycode":21,"cityname":"上海市","adcode":310106,"adname":"静安区","business_area":"七浦路","location":"121.472168,31.243183","tel":"021-36527050;021-36527206;021-36397050","bigType":"体育休闲服务","midType":"影剧院","smallType":"电影院","gcj_lng":121.472168,"gcj_lat":31.243183,"wgs84_loc":"121.467639,31.245115","wgs84Lng":121.467639,"wgs84Lat":31.245115,"__source_file__":"13-常用公服设施点/CSV/上海市_影剧院.csv"},"geometry":{"type":"Point","coordinates":[121.467639,31.245115]}},{"id":"126","type":"Feature","properties":{"id":"B0HKYAR9CC","name":"牡丹开放麦剧场","address":"南京东路300号5楼","type":"体育休闲服务;影剧院;剧场","typecode":"080603","pcode":310000,"pname":"上海市","citycode":21,"cityname":"上海市","adcode":310101,"adname":"黄浦区","business_area":"北京东路","location":"121.484064,31.237687","tel":"18504052558","bigType":"体育休闲服务","midType":"影剧院","smallType":"剧场","gcj_lng":121.484064,"gcj_lat":31.237687,"wgs84_loc":"121.479575,31.239655","wgs84Lng":121.479575,"wgs84Lat":31.239655,"__source_file__":"13-常用公服设施点/CSV/上海市_影剧院.csv"},"geometry":{"type":"Point","coordinates":[121.479575,31.239655]}},{"id":"117","type":"Feature","properties":{"id":"B0FFIJRCE8","name":"林肯爵士乐上海中心Jazz at Lincoln Center Shanghai","address":"南京东路139号4楼401一402","type":"体育休闲服务;影剧院;剧场","typecode":"080603","pcode":310000,"pname":"上海市","citycode":21,"cityname":"上海市","adcode":310101,"adname":"黄浦区","business_area":"北京东路","location":"121.486931,31.238132","tel":"021-63309218;18521718910","bigType":"体育休闲服务","midType":"影剧院","smallType":"剧场","gcj_lng":121.486931,"gcj_lat":31.238132,"wgs84_loc":"121.482452,31.240108","wgs84Lng":121.482452,"wgs84Lat":31.240108,"__source_file__":"13-常用公服设施点/CSV/上海市_影剧院.csv"},"geometry":{"type":"Point","coordinates":[121.482452,31.240108]}},{"id":"796","type":"Feature","properties":{"id":"B0FFL36K6Q","name":"5D360度星影立体影院","address":"世纪大道1号东方明珠内","type":"体育休闲服务;影剧院;电影院","typecode":"080601","pcode":310000,"pname":"上海市","citycode":21,"cityname":"上海市","adcode":310115,"adname":"浦东新区","business_area":"陆家嘴","location":"121.499989,31.239517","tel":"[]","bigType":"体育休闲服务","midType":"影剧院","smallType":"电影院","gcj_lng":121.499989,"gcj_lat":31.239517,"wgs84_loc":"121.495557,31.241532","wgs84Lng":121.495557,"wgs84Lat":31.241532,"__source_file__":"13-常用公服设施点/CSV/上海市_影剧院.csv"},"geometry":{"type":"Point","coordinates":[121.495557,31.241532]}},{"id":"895","type":"Feature","properties":{"id":"B0IUTZ391Q","name":"《明珠传奇》沉浸式游戏剧场","address":"滨江大道2852号东方明珠游船码头-中华游船","type":"体育休闲服务;影剧院;剧场","typecode":"080603","pcode":310000,"pname":"上海市","citycode":21,"cityname":"上海市","adcode":310115,"adname":"浦东新区","business_area":"陆家嘴","location":"121.496930,31.240681","tel":"[]","bigType":"体育休闲服务","midType":"影剧院","smallType":"剧场","gcj_lng":121.49693,"gcj_lat":31.240681,"wgs84_loc":"121.492487,31.242686","wgs84Lng":121.492487,"wgs84Lat":31.242686,"__source_file__":"13-常用公服设施点/CSV/上海市_影剧院.csv"},"geometry":{"type":"Point","coordinates":[121.492487,31.242686]}},{"id":"852","type":"Feature","properties":{"id":"B00155LYCQ","name":"光陆大戏院","address":"虎丘路146洛克·外滩源","type":"体育休闲服务;影剧院;剧场","typecode":"080603","pcode":310000,"pname":"上海市","citycode":21,"cityname":"上海市","adcode":310101,"adname":"黄浦区","business_area":"北京东路","location":"121.487639,31.243399","tel":"[]","bigType":"体育休闲服务","midType":"影剧院","smallType":"剧场","gcj_lng":121.487639,"gcj_lat":31.243399,"wgs84_loc":"121.483162,31.245375","wgs84Lng":121.483162,"wgs84Lat":31.245375,"__source_file__":"13-常用公服设施点/CSV/上海市_影剧院.csv"},"geometry":{"type":"Point","coordinates":[121.483162,31.245375]}},{"id":"951","type":"Feature","properties":{"id":"B0IR412PCB","name":"月球推理馆·1925梦剧场(1925书局店)","address":"四川北路856号1925书局四层","type":"体育休闲服务;影剧院;剧场","typecode":"080603","pcode":310000,"pname":"上海市","citycode":21,"cityname":"上海市","adcode":310109,"adname":"虹口区","business_area":"上海北外滩中心","location":"121.485111,31.248850","tel":"[]","bigType":"体育休闲服务","midType":"影剧院","smallType":"剧场","gcj_lng":121.485111,"gcj_lat":31.24885,"wgs84_loc":"121.480625,31.250816","wgs84Lng":121.480625,"wgs84Lat":31.250816,"__source_file__":"13-常用公服设施点/CSV/上海市_影剧院.csv"},"geometry":{"type":"Point","coordinates":[121.480625,31.250816]}},{"id":"561","type":"Feature","properties":{"id":"B0FFJAMFT1","name":"CGV影城(白玉兰广场IMAX店)","address":"东长治路588号上海白玉兰广场商业裙房3层11号","type":"体育休闲服务;影剧院;电影院","typecode":"080601","pcode":310000,"pname":"上海市","citycode":21,"cityname":"上海市","adcode":310109,"adname":"虹口区","business_area":"北外滩","location":"121.499105,31.249335","tel":"021-61077172;15021886852","bigType":"体育休闲服务","midType":"影剧院","smallType":"电影院","gcj_lng":121.499105,"gcj_lat":31.249335,"wgs84_loc":"121.494669,31.251343","wgs84Lng":121.494669,"wgs84Lat":31.251343,"__source_file__":"13-常用公服设施点/CSV/上海市_影剧院.csv"},"geometry":{"type":"Point","coordinates":[121.494669,31.251343]}},{"id":"953","type":"Feature","properties":{"id":"B0KKCZMYXA","name":"星临天下(滨港商业中心店)","address":"四川北路与海宁路交界滨港商业中心5F","type":"体育休闲服务;影剧院;剧场","typecode":"080603","pcode":310000,"pname":"上海市","citycode":21,"cityname":"上海市","adcode":310109,"adname":"虹口区","business_area":"七浦路","location":"121.483366,31.249436","tel":"[]","bigType":"体育休闲服务","midType":"影剧院","smallType":"剧场","gcj_lng":121.483366,"gcj_lat":31.249436,"wgs84_loc":"121.478874,31.251397","wgs84Lng":121.478874,"wgs84Lat":31.251397,"__source_file__":"13-常用公服设施点/CSV/上海市_影剧院.csv"},"geometry":{"type":"Point","coordinates":[121.478874,31.251397]}},{"id":"941","type":"Feature","properties":{"id":"B0JAXZZ2R4","name":"胜利电影院","address":"乍浦路408号(四川北路地铁站2号口步行340米)","type":"体育休闲服务;影剧院;电影院","typecode":"080601","pcode":310000,"pname":"上海市","citycode":21,"cityname":"上海市","adcode":310109,"adname":"虹口区","business_area":"七浦路","location":"121.486889,31.251356","tel":"021-56320255","bigType":"体育休闲服务","midType":"影剧院","smallType":"电影院","gcj_lng":121.486889,"gcj_lat":31.251356,"wgs84_loc":"121.482409,31.253326","wgs84Lng":121.482409,"wgs84Lat":31.253326,"__source_file__":"13-常用公服设施点/CSV/上海市_影剧院.csv"},"geometry":{"type":"Point","coordinates":[121.482409,31.253326]}},{"id":"952","type":"Feature","properties":{"id":"B0FFLPODP6","name":"PEARL珍珠剧场","address":"武进路与乍浦路交叉口东南40米","type":"体育休闲服务;影剧院;剧场","typecode":"080603","pcode":310000,"pname":"上海市","citycode":21,"cityname":"上海市","adcode":310109,"adname":"虹口区","business_area":"七浦路","location":"121.486031,31.251943","tel":"[]","bigType":"体育休闲服务","midType":"影剧院","smallType":"剧场","gcj_lng":121.486031,"gcj_lat":31.251943,"wgs84_loc":"121.481548,31.25391","wgs84Lng":121.481548,"wgs84Lat":31.25391,"__source_file__":"13-常用公服设施点/CSV/上海市_影剧院.csv"},"geometry":{"type":"Point","coordinates":[121.481548,31.25391]}},{"id":"887","type":"Feature","properties":{"id":"B0I10S6YRW","name":"Salute小剧场银河铁道之夜","address":"汉口路650号5楼星空间99","type":"体育休闲服务;影剧院;剧场","typecode":"080603","pcode":310000,"pname":"上海市","citycode":21,"cityname":"上海市","adcode":310101,"adname":"黄浦区","business_area":"北京东路","location":"121.478089,31.233917","tel":"[]","bigType":"体育休闲服务","midType":"影剧院","smallType":"剧场","gcj_lng":121.478089,"gcj_lat":31.233917,"wgs84_loc":"121.47358,31.23587","wgs84Lng":121.47358,"wgs84Lat":31.23587,"__source_file__":"13-常用公服设施点/CSV/上海市_影剧院.csv"},"geometry":{"type":"Point","coordinates":[121.47358,31.23587]}},{"id":"1017","type":"Feature","properties":{"id":"B0LBRY5VXJ","name":"辛吉路剧场","address":"汉口路与广西北路交叉口东北40米","type":"体育休闲服务;影剧院;剧场","typecode":"080603","pcode":310000,"pname":"上海市","citycode":21,"cityname":"上海市","adcode":310101,"adname":"黄浦区","business_area":"北京路","location":"121.478013,31.233923","tel":"[]","bigType":"体育休闲服务","midType":"影剧院","smallType":"剧场","gcj_lng":121.478013,"gcj_lat":31.233923,"wgs84_loc":"121.473504,31.235876","wgs84Lng":121.473504,"wgs84Lat":31.235876,"__source_file__":"13-常用公服设施点/CSV/上海市_影剧院.csv"},"geometry":{"type":"Point","coordinates":[121.473504,31.235876]}},{"id":"1013","type":"Feature","properties":{"id":"B0K3ZAF2TQ","name":"怪物剧场","address":"九江路663号二楼","type":"体育休闲服务;影剧院;剧场","typecode":"080603","pcode":310000,"pname":"上海市","citycode":21,"cityname":"上海市","adcode":310101,"adname":"黄浦区","business_area":"北京路","location":"121.478083,31.234008","tel":"[]","bigType":"体育休闲服务","midType":"影剧院","smallType":"剧场","gcj_lng":121.478083,"gcj_lat":31.234008,"wgs84_loc":"121.473574,31.235961","wgs84Lng":121.473574,"wgs84Lat":31.235961,"__source_file__":"13-常用公服设施点/CSV/上海市_影剧院.csv"},"geometry":{"type":"Point","coordinates":[121.473574,31.235961]}},{"id":"1015","type":"Feature","properties":{"id":"B0I3LNYJ1X","name":"方寸剧场","address":"九江路663号2层星空间8号","type":"体育休闲服务;影剧院;剧场","typecode":"080603","pcode":310000,"pname":"上海市","citycode":21,"cityname":"上海市","adcode":310101,"adname":"黄浦区","business_area":"北京路","location":"121.477939,31.234247","tel":"[]","bigType":"体育休闲服务","midType":"影剧院","smallType":"剧场","gcj_lng":121.477939,"gcj_lat":31.234247,"wgs84_loc":"121.47343,31.236199","wgs84Lng":121.47343,"wgs84Lat":31.236199,"__source_file__":"13-常用公服设施点/CSV/上海市_影剧院.csv"},"geometry":{"type":"Point","coordinates":[121.47343,31.236199]}},{"id":"34","type":"Feature","properties":{"id":"B00155QDCQ","name":"人民大舞台","address":"九江路663号","type":"体育休闲服务;影剧院;剧场","typecode":"080603","pcode":310000,"pname":"上海市","citycode":21,"cityname":"上海市","adcode":310101,"adname":"黄浦区","business_area":"北京东路","location":"121.477932,31.234251","tel":"021-61326586;021-61005266;021-61326581","bigType":"体育休闲服务","midType":"影剧院","smallType":"剧场","gcj_lng":121.477932,"gcj_lat":31.234251,"wgs84_loc":"121.473423,31.236203","wgs84Lng":121.473423,"wgs84Lat":31.236203,"__source_file__":"13-常用公服设施点/CSV/上海市_影剧院.csv"},"geometry":{"type":"Point","coordinates":[121.473423,31.236203]}},{"id":"878","type":"Feature","properties":{"id":"B0H04CAVDW","name":"宇宙大明星-一台好戏小剧场","address":"九江路663号2楼星空间8号","type":"体育休闲服务;影剧院;剧场","typecode":"080603","pcode":310000,"pname":"上海市","citycode":21,"cityname":"上海市","adcode":310101,"adname":"黄浦区","business_area":"北京东路","location":"121.477936,31.234254","tel":"[]","bigType":"体育休闲服务","midType":"影剧院","smallType":"剧场","gcj_lng":121.477936,"gcj_lat":31.234254,"wgs84_loc":"121.473427,31.236206","wgs84Lng":121.473427,"wgs84Lat":31.236206,"__source_file__":"13-常用公服设施点/CSV/上海市_影剧院.csv"},"geometry":{"type":"Point","coordinates":[121.473427,31.236206]}},{"id":"885","type":"Feature","properties":{"id":"B0IAVPCQ5F","name":"人生奥斯卡私人影院(南京东路步行街店)","address":"南京东路635号永安百货3楼B15","type":"体育休闲服务;影剧院;电影院","typecode":"080601","pcode":310000,"pname":"上海市","citycode":21,"cityname":"上海市","adcode":310101,"adname":"黄浦区","business_area":"北京东路","location":"121.478304,31.234752","tel":"18930538090","bigType":"体育休闲服务","midType":"影剧院","smallType":"电影院","gcj_lng":121.478304,"gcj_lat":31.234752,"wgs84_loc":"121.473796,31.236705","wgs84Lng":121.473796,"wgs84Lat":31.236705,"__source_file__":"13-常用公服设施点/CSV/上海市_影剧院.csv"},"geometry":{"type":"Point","coordinates":[121.473796,31.236705]}},{"id":"39","type":"Feature","properties":{"id":"B0015416EA","name":"新光影艺苑","address":"宁波路586号","type":"体育休闲服务;影剧院;电影院","typecode":"080601","pcode":310000,"pname":"上海市","citycode":21,"cityname":"上海市","adcode":310101,"adname":"黄浦区","business_area":"北京东路","location":"121.476549,31.236775","tel":"021-63511055;021-63515866","bigType":"体育休闲服务","midType":"影剧院","smallType":"电影院","gcj_lng":121.476549,"gcj_lat":31.236775,"wgs84_loc":"121.472035,31.238722","wgs84Lng":121.472035,"wgs84Lat":31.238722,"__source_file__":"13-常用公服设施点/CSV/上海市_影剧院.csv"},"geometry":{"type":"Point","coordinates":[121.472035,31.238722]}},{"id":"37","type":"Feature","properties":{"id":"B001532792","name":"中国大戏院","address":"牛庄路704号","type":"体育休闲服务;影剧院;剧场","typecode":"080603","pcode":310000,"pname":"上海市","citycode":21,"cityname":"上海市","adcode":310101,"adname":"黄浦区","business_area":"北京东路","location":"121.476650,31.237584","tel":"[]","bigType":"体育休闲服务","midType":"影剧院","smallType":"剧场","gcj_lng":121.47665,"gcj_lat":31.237584,"wgs84_loc":"121.472136,31.239531","wgs84Lng":121.472136,"wgs84Lat":31.239531,"__source_file__":"13-常用公服设施点/CSV/上海市_影剧院.csv"},"geometry":{"type":"Point","coordinates":[121.472136,31.239531]}},{"id":"942","type":"Feature","properties":{"id":"B0FFK66PM3","name":"梦想空间点播影院(上海ist艾尚天地购物中心)","address":"四川北路1661号上海ist艾尚天地购物中心F2层","type":"体育休闲服务;影剧院;电影院","typecode":"080601","pcode":310000,"pname":"上海市","citycode":21,"cityname":"上海市","adcode":310109,"adname":"虹口区","business_area":"宝山路","location":"121.482481,31.257394","tel":"[]","bigType":"体育休闲服务","midType":"影剧院","smallType":"电影院","gcj_lng":121.482481,"gcj_lat":31.257394,"wgs84_loc":"121.477985,31.259349","wgs84Lng":121.477985,"wgs84Lat":31.259349,"__source_file__":"13-常用公服设施点/CSV/上海市_影剧院.csv"},"geometry":{"type":"Point","coordinates":[121.477985,31.259349]}},{"id":"202","type":"Feature","properties":{"id":"B0FFLFERQW","name":"梦想空间点播影院(上海大悦城北座)","address":"静安大悦城198号北座4楼402-04","type":"体育休闲服务;影剧院;电影院","typecode":"080601","pcode":310000,"pname":"上海市","citycode":21,"cityname":"上海市","adcode":310106,"adname":"静安区","business_area":"七浦路","location":"121.471661,31.244111","tel":"021-60830927","bigType":"体育休闲服务","midType":"影剧院","smallType":"电影院","gcj_lng":121.471661,"gcj_lat":31.244111,"wgs84_loc":"121.46713,31.246042","wgs84Lng":121.46713,"wgs84Lat":31.246042,"__source_file__":"13-常用公服设施点/CSV/上海市_影剧院.csv"},"geometry":{"type":"Point","coordinates":[121.46713,31.246042]}},{"id":"217","type":"Feature","properties":{"id":"B0HAAM3VO9","name":"平行宇宙·沉浸式游戏剧场(静安店)","address":"中兴路兴园373号","type":"体育休闲服务;影剧院;剧场","typecode":"080603","pcode":310000,"pname":"上海市","citycode":21,"cityname":"上海市","adcode":310106,"adname":"静安区","business_area":"宝山路","location":"121.475673,31.258491","tel":"[]","bigType":"体育休闲服务","midType":"影剧院","smallType":"剧场","gcj_lng":121.475673,"gcj_lat":31.258491,"wgs84_loc":"121.471154,31.260426","wgs84Lng":121.471154,"wgs84Lat":31.260426,"__source_file__":"13-常用公服设施点/CSV/上海市_影剧院.csv"},"geometry":{"type":"Point","coordinates":[121.471154,31.260426]}},{"id":"569","type":"Feature","properties":{"id":"B0HUGAPAAQ","name":"影院","address":"同心路与中山北一路交叉口东20米","type":"体育休闲服务;影剧院;电影院","typecode":"080601","pcode":310000,"pname":"上海市","citycode":21,"cityname":"上海市","adcode":310109,"adname":"虹口区","business_area":"江湾","location":"121.474353,31.268395","tel":"[]","bigType":"体育休闲服务","midType":"影剧院","smallType":"电影院","gcj_lng":121.474353,"gcj_lat":31.268395,"wgs84_loc":"121.469829,31.270322","wgs84Lng":121.469829,"wgs84Lat":31.270322,"__source_file__":"13-常用公服设施点/CSV/上海市_影剧院.csv"},"geometry":{"type":"Point","coordinates":[121.469829,31.270322]}},{"id":"500","type":"Feature","properties":{"id":"B0FFLCIUNP","name":"小鸟观映·暖语私人影院","address":"花园路88号1002室","type":"体育休闲服务;影剧院;电影院","typecode":"080601","pcode":310000,"pname":"上海市","citycode":21,"cityname":"上海市","adcode":310109,"adname":"虹口区","business_area":"和田","location":"121.476422,31.270373","tel":"13916299647","bigType":"体育休闲服务","midType":"影剧院","smallType":"电影院","gcj_lng":121.476422,"gcj_lat":31.270373,"wgs84_loc":"121.471904,31.272305","wgs84Lng":121.471904,"wgs84Lat":31.272305,"__source_file__":"13-常用公服设施点/CSV/上海市_影剧院.csv"},"geometry":{"type":"Point","coordinates":[121.471904,31.272305]}},{"id":"565","type":"Feature","properties":{"id":"B0G2AK2Y3M","name":"影酒屋MLB点播影院","address":"花园路128号德必LOFT园区7街区D座511","type":"体育休闲服务;影剧院;电影院","typecode":"080601","pcode":310000,"pname":"上海市","citycode":21,"cityname":"上海市","adcode":310109,"adname":"虹口区","business_area":"和田","location":"121.473034,31.270904","tel":"13122827559","bigType":"体育休闲服务","midType":"影剧院","smallType":"电影院","gcj_lng":121.473034,"gcj_lat":31.270904,"wgs84_loc":"121.468505,31.272827","wgs84Lng":121.468505,"wgs84Lat":31.272827,"__source_file__":"13-常用公服设施点/CSV/上海市_影剧院.csv"},"geometry":{"type":"Point","coordinates":[121.468505,31.272827]}},{"id":"562","type":"Feature","properties":{"id":"B0HRC4JNFM","name":"The Pearl珍珠剧场(乍浦路店)","address":"乍浦路471号","type":"体育休闲服务;影剧院;剧场","typecode":"080603","pcode":310000,"pname":"上海市","citycode":21,"cityname":"上海市","adcode":310109,"adname":"虹口区","business_area":"七浦路","location":"121.486255,31.251951","tel":"[]","bigType":"体育休闲服务","midType":"影剧院","smallType":"剧场","gcj_lng":121.486255,"gcj_lat":31.251951,"wgs84_loc":"121.481773,31.253919","wgs84Lng":121.481773,"wgs84Lat":31.253919,"__source_file__":"13-常用公服设施点/CSV/上海市_影剧院.csv"},"geometry":{"type":"Point","coordinates":[121.481773,31.253919]}},{"id":"563","type":"Feature","properties":{"id":"B0FFF7M0C8","name":"THE PEARL(乍浦路店)","address":"乍浦路471号(武进路)","type":"体育休闲服务;影剧院;剧场","typecode":"080603","pcode":310000,"pname":"上海市","citycode":21,"cityname":"上海市","adcode":310109,"adname":"虹口区","business_area":"七浦路","location":"121.486249,31.251998","tel":"[]","bigType":"体育休闲服务","midType":"影剧院","smallType":"剧场","gcj_lng":121.486249,"gcj_lat":31.251998,"wgs84_loc":"121.481767,31.253966","wgs84Lng":121.481767,"wgs84Lat":31.253966,"__source_file__":"13-常用公服设施点/CSV/上海市_影剧院.csv"},"geometry":{"type":"Point","coordinates":[121.481767,31.253966]}},{"id":"560","type":"Feature","properties":{"id":"B0FFKF6892","name":"帕加尼国际影城(虹口店)","address":"四川北路1363号壹丰广场3层","type":"体育休闲服务;影剧院;电影院","typecode":"080601","pcode":310000,"pname":"上海市","citycode":21,"cityname":"上海市","adcode":310109,"adname":"虹口区","business_area":"宝山路","location":"121.483961,31.252327","tel":"021-66776186","bigType":"体育休闲服务","midType":"影剧院","smallType":"电影院","gcj_lng":121.483961,"gcj_lat":31.252327,"wgs84_loc":"121.479471,31.254288","wgs84Lng":121.479471,"wgs84Lat":31.254288,"__source_file__":"13-常用公服设施点/CSV/上海市_影剧院.csv"},"geometry":{"type":"Point","coordinates":[121.479471,31.254288]}},{"id":"940","type":"Feature","properties":{"id":"B0JU5ZB6FL","name":"上影国际影城(壹丰广场店)","address":"四川北路1363号壹丰广场3楼","type":"体育休闲服务;影剧院;电影院","typecode":"080601","pcode":310000,"pname":"上海市","citycode":21,"cityname":"上海市","adcode":310109,"adname":"虹口区","business_area":"宝山路","location":"121.483347,31.252852","tel":"021-66052822;021-66776186","bigType":"体育休闲服务","midType":"影剧院","smallType":"电影院","gcj_lng":121.483347,"gcj_lat":31.252852,"wgs84_loc":"121.478855,31.254811","wgs84Lng":121.478855,"wgs84Lat":31.254811,"__source_file__":"13-常用公服设施点/CSV/上海市_影剧院.csv"},"geometry":{"type":"Point","coordinates":[121.478855,31.254811]}},{"id":"950","type":"Feature","properties":{"id":"B0ID6OAENV","name":"微剧场(1933购物中心店)","address":"溧阳路611号1933购物中心F2层","type":"体育休闲服务;影剧院;剧场","typecode":"080603","pcode":310000,"pname":"上海市","citycode":21,"cityname":"上海市","adcode":310109,"adname":"虹口区","business_area":"四平路","location":"121.492149,31.254488","tel":"[]","bigType":"体育休闲服务","midType":"影剧院","smallType":"剧场","gcj_lng":121.492149,"gcj_lat":31.254488,"wgs84_loc":"121.487687,31.256472","wgs84Lng":121.487687,"wgs84Lat":31.256472,"__source_file__":"13-常用公服设施点/CSV/上海市_影剧院.csv"},"geometry":{"type":"Point","coordinates":[121.487687,31.256472]}},{"id":"947","type":"Feature","properties":{"id":"B0KDYMTUM1","name":"德云社上海剧场","address":"四川北路1552号(群众影剧院二楼)","type":"体育休闲服务;影剧院;剧场","typecode":"080603","pcode":310000,"pname":"上海市","citycode":21,"cityname":"上海市","adcode":310109,"adname":"虹口区","business_area":"宝山路","location":"121.483503,31.255928","tel":"[]","bigType":"体育休闲服务","midType":"影剧院","smallType":"剧场","gcj_lng":121.483503,"gcj_lat":31.255928,"wgs84_loc":"121.479011,31.257886","wgs84Lng":121.479011,"wgs84Lat":31.257886,"__source_file__":"13-常用公服设施点/CSV/上海市_影剧院.csv"},"geometry":{"type":"Point","coordinates":[121.479011,31.257886]}},{"id":"903","type":"Feature","properties":{"id":"B001536B3D","name":"群众影剧院","address":"四川北路1552号(四川北路地铁站1号口步行430米)","type":"体育休闲服务;影剧院;剧场","typecode":"080603","pcode":310000,"pname":"上海市","citycode":21,"cityname":"上海市","adcode":310109,"adname":"虹口区","business_area":"宝山路","location":"121.483367,31.256094","tel":"021-63243772","bigType":"体育休闲服务","midType":"影剧院","smallType":"剧场","gcj_lng":121.483367,"gcj_lat":31.256094,"wgs84_loc":"121.478874,31.258052","wgs84Lng":121.478874,"wgs84Lat":31.258052,"__source_file__":"13-常用公服设施点/CSV/上海市_影剧院.csv"},"geometry":{"type":"Point","coordinates":[121.478874,31.258052]}},{"id":"499","type":"Feature","properties":{"id":"B00157I1T4","name":"星梦剧院","address":"嘉兴路267号","type":"体育休闲服务;影剧院;剧场","typecode":"080603","pcode":310000,"pname":"上海市","citycode":21,"cityname":"上海市","adcode":310109,"adname":"虹口区","business_area":"四平路","location":"121.490478,31.256894","tel":"4006176598","bigType":"体育休闲服务","midType":"影剧院","smallType":"剧场","gcj_lng":121.490478,"gcj_lat":31.256894,"wgs84_loc":"121.48601,31.258872","wgs84Lng":121.48601,"wgs84Lat":31.258872,"__source_file__":"13-常用公服设施点/CSV/上海市_影剧院.csv"},"geometry":{"type":"Point","coordinates":[121.48601,31.258872]}},{"id":"866","type":"Feature","properties":{"id":"B0FFJHKA82","name":"1885主题影吧(四川北路店)","address":"四川北路1885号多伦生活广场5楼1885","type":"体育休闲服务;影剧院;电影院","typecode":"080601","pcode":310000,"pname":"上海市","citycode":21,"cityname":"上海市","adcode":310109,"adname":"虹口区","business_area":"宝山路","location":"121.483566,31.261787","tel":"[]","bigType":"体育休闲服务","midType":"影剧院","smallType":"电影院","gcj_lng":121.483566,"gcj_lat":31.261787,"wgs84_loc":"121.479074,31.263743","wgs84Lng":121.479074,"wgs84Lat":31.263743,"__source_file__":"13-常用公服设施点/CSV/上海市_影剧院.csv"},"geometry":{"type":"Point","coordinates":[121.479074,31.263743]}},{"id":"556","type":"Feature","properties":{"id":"B0I6DZN9KI","name":"城事机密魔术剧场","address":"多伦路文化名人街251号公啡咖啡店一层","type":"体育休闲服务;影剧院;剧场","typecode":"080603","pcode":310000,"pname":"上海市","citycode":21,"cityname":"上海市","adcode":310109,"adname":"虹口区","business_area":"宝山路","location":"121.481501,31.264326","tel":"[]","bigType":"体育休闲服务","midType":"影剧院","smallType":"剧场","gcj_lng":121.481501,"gcj_lat":31.264326,"wgs84_loc":"121.477001,31.266275","wgs84Lng":121.477001,"wgs84Lat":31.266275,"__source_file__":"13-常用公服设施点/CSV/上海市_影剧院.csv"},"geometry":{"type":"Point","coordinates":[121.477001,31.266275]}},{"id":"69","type":"Feature","properties":{"id":"B0I6159V2Q","name":"影酒屋点播影院(绿地创客店)","address":"东江湾路151号绿地生活芸一层F101-102室","type":"体育休闲服务;影剧院;电影院","typecode":"080601","pcode":310000,"pname":"上海市","citycode":21,"cityname":"上海市","adcode":310109,"adname":"虹口区","business_area":"江湾","location":"121.479836,31.266494","tel":"18621796856;021-56982775","bigType":"体育休闲服务","midType":"影剧院","smallType":"电影院","gcj_lng":121.479836,"gcj_lat":31.266494,"wgs84_loc":"121.47533,31.268437","wgs84Lng":121.47533,"wgs84Lat":31.268437,"__source_file__":"13-常用公服设施点/CSV/上海市_影剧院.csv"},"geometry":{"type":"Point","coordinates":[121.47533,31.268437]}},{"id":"949","type":"Feature","properties":{"id":"B0KA2AG5BF","name":"黑書·推演剧场","address":"东江湾路151号绿地创客A栋526","type":"体育休闲服务;影剧院;剧场","typecode":"080603","pcode":310000,"pname":"上海市","citycode":21,"cityname":"上海市","adcode":310109,"adname":"虹口区","business_area":"江湾","location":"121.479435,31.266986","tel":"[]","bigType":"体育休闲服务","midType":"影剧院","smallType":"剧场","gcj_lng":121.479435,"gcj_lat":31.266986,"wgs84_loc":"121.474928,31.268928","wgs84Lng":121.474928,"wgs84Lat":31.268928,"__source_file__":"13-常用公服设施点/CSV/上海市_影剧院.csv"},"geometry":{"type":"Point","coordinates":[121.474928,31.268928]}},{"id":"67","type":"Feature","properties":{"id":"B0FFIGVE4I","name":"2分03秒私人影院(虹口店)","address":"东江湾路空间188G1幢(润德坊西门内)","type":"体育休闲服务;影剧院;电影院","typecode":"080601","pcode":310000,"pname":"上海市","citycode":21,"cityname":"上海市","adcode":310109,"adname":"虹口区","business_area":"江湾","location":"121.480359,31.267673","tel":"14721018052","bigType":"体育休闲服务","midType":"影剧院","smallType":"电影院","gcj_lng":121.480359,"gcj_lat":31.267673,"wgs84_loc":"121.475855,31.269617","wgs84Lng":121.475855,"wgs84Lat":31.269617,"__source_file__":"13-常用公服设施点/CSV/上海市_影剧院.csv"},"geometry":{"type":"Point","coordinates":[121.475855,31.269617]}},{"id":"498","type":"Feature","properties":{"id":"B00156EK4W","name":"金逸影城(上海龙之梦IMAX店)","address":"西江湾路388号凯德龙之梦B座6层","type":"体育休闲服务;影剧院;电影院","typecode":"080601","pcode":310000,"pname":"上海市","citycode":21,"cityname":"上海市","adcode":310109,"adname":"虹口区","business_area":"江湾","location":"121.477286,31.271164","tel":"021-36538850","bigType":"体育休闲服务","midType":"影剧院","smallType":"电影院","gcj_lng":121.477286,"gcj_lat":31.271164,"wgs84_loc":"121.472771,31.273098","wgs84Lng":121.472771,"wgs84Lat":31.273098,"__source_file__":"13-常用公服设施点/CSV/上海市_影剧院.csv"},"geometry":{"type":"Point","coordinates":[121.472771,31.273098]}}],"name":"上海市_影剧院","crs":{"type":"name","properties":{"name":"urn:ogc:def:crs:OGC:1.3:CRS84"}}}