{"type":"FeatureCollection","features":[{"id":"172","type":"Feature","properties":{"id":"B00155LANG","name":"美国美中贸易促进会上海代表处","address":"延安中路829达安广场西楼372室","type":"政府机构及社会团体;外国机构;外国机构相关","typecode":130200,"pcode":310000,"pname":"上海市","citycode":21,"cityname":"上海市","adcode":310106,"adname":"静安区","business_area":"淮海路","location":"121.455100,31.223518","tel":"[]","bigType":"政府机构及社会团体","midType":"外国机构","smallType":"外国机构相关","gcj_lng":121.4551,"gcj_lat":31.223518,"wgs84_loc":"121.450522,31.225417","wgs84Lng":121.450522,"wgs84Lat":31.225417,"__source_file__":"13-常用公服设施点/CSV/上海市_外国机构.csv"},"geometry":{"type":"Point","coordinates":[121.450522,31.225417]}},{"id":"130","type":"Feature","properties":{"id":"B00155AOBF","name":"马来西亚驻沪总领事馆贸易与投资部","address":"南京西路1515静安嘉里中心办公楼一座8层807","type":"政府机构及社会团体;外国机构;外国使领馆","typecode":130201,"pcode":310000,"pname":"上海市","citycode":21,"cityname":"上海市","adcode":310106,"adname":"静安区","business_area":"曹家渡","location":"121.450201,31.224596","tel":"[]","bigType":"政府机构及社会团体","midType":"外国机构","smallType":"外国使领馆","gcj_lng":121.450201,"gcj_lat":31.224596,"wgs84_loc":"121.445611,31.226484","wgs84Lng":121.445611,"wgs84Lat":31.226484,"__source_file__":"13-常用公服设施点/CSV/上海市_外国机构.csv"},"geometry":{"type":"Point","coordinates":[121.445611,31.226484]}},{"id":"128","type":"Feature","properties":{"id":"B00155IS8X","name":"秘鲁共和国驻上海总领事馆","address":"南京西路1515静安嘉里中心办公楼一座27层2705","type":"政府机构及社会团体;外国机构;外国使领馆","typecode":130201,"pcode":310000,"pname":"上海市","citycode":21,"cityname":"上海市","adcode":310106,"adname":"静安区","business_area":"淮海路","location":"121.450202,31.224596","tel":"021-52985900","bigType":"政府机构及社会团体","midType":"外国机构","smallType":"外国使领馆","gcj_lng":121.450202,"gcj_lat":31.224596,"wgs84_loc":"121.445612,31.226484","wgs84Lng":121.445612,"wgs84Lat":31.226484,"__source_file__":"13-常用公服设施点/CSV/上海市_外国机构.csv"},"geometry":{"type":"Point","coordinates":[121.445612,31.226484]}},{"id":"101","type":"Feature","properties":{"id":"B0GUKUFOW8","name":"上海商城-商务处","address":"南京西路1376号上海商城6层631号","type":"政府机构及社会团体;外国机构;外国机构相关","typecode":130200,"pcode":310000,"pname":"上海市","citycode":21,"cityname":"上海市","adcode":310106,"adname":"静安区","business_area":"淮海路","location":"121.451963,31.226580","tel":"[]","bigType":"政府机构及社会团体","midType":"外国机构","smallType":"外国机构相关","gcj_lng":121.451963,"gcj_lat":31.22658,"wgs84_loc":"121.447377,31.228471","wgs84Lng":121.447377,"wgs84Lat":31.228471,"__source_file__":"13-常用公服设施点/CSV/上海市_外国机构.csv"},"geometry":{"type":"Point","coordinates":[121.447377,31.228471]}},{"id":"94","type":"Feature","properties":{"id":"B00155LZ03","name":"英国驻上海总领事馆签证处","address":"南京西路1376号上海商城7层751室","type":"政府机构及社会团体;外国机构;外国使领馆","typecode":130201,"pcode":310000,"pname":"上海市","citycode":21,"cityname":"上海市","adcode":310106,"adname":"静安区","business_area":"曹家渡","location":"121.448850,31.226719","tel":"021-60326500","bigType":"政府机构及社会团体","midType":"外国机构","smallType":"外国使领馆","gcj_lng":121.44885,"gcj_lat":31.226719,"wgs84_loc":"121.444256,31.228604","wgs84Lng":121.444256,"wgs84Lat":31.228604,"__source_file__":"13-常用公服设施点/CSV/上海市_外国机构.csv"},"geometry":{"type":"Point","coordinates":[121.444256,31.228604]}},{"id":"55","type":"Feature","properties":{"id":"B00155LXOC","name":"美国食品药品管理局","address":"南京西路1376号上海商城7层723室","type":"政府机构及社会团体;外国机构;外国机构相关","typecode":130200,"pcode":310000,"pname":"上海市","citycode":21,"cityname":"上海市","adcode":310106,"adname":"静安区","business_area":"淮海路","location":"121.451954,31.226735","tel":"[]","bigType":"政府机构及社会团体","midType":"外国机构","smallType":"外国机构相关","gcj_lng":121.451954,"gcj_lat":31.226735,"wgs84_loc":"121.447368,31.228626","wgs84Lng":121.447368,"wgs84Lat":31.228626,"__source_file__":"13-常用公服设施点/CSV/上海市_外国机构.csv"},"geometry":{"type":"Point","coordinates":[121.447368,31.228626]}},{"id":"113","type":"Feature","properties":{"id":"B00155KLWI","name":"爱尔兰旅游局上海办事处","address":"南京西路1376号上海商城7层728室","type":"政府机构及社会团体;外国机构;外国机构相关","typecode":130200,"pcode":310000,"pname":"上海市","citycode":21,"cityname":"上海市","adcode":310106,"adname":"静安区","business_area":"淮海路","location":"121.451954,31.226735","tel":"[]","bigType":"政府机构及社会团体","midType":"外国机构","smallType":"外国机构相关","gcj_lng":121.451954,"gcj_lat":31.226735,"wgs84_loc":"121.447368,31.228626","wgs84Lng":121.447368,"wgs84Lat":31.228626,"__source_file__":"13-常用公服设施点/CSV/上海市_外国机构.csv"},"geometry":{"type":"Point","coordinates":[121.447368,31.228626]}},{"id":"156","type":"Feature","properties":{"id":"B00155KSLT","name":"爱尔兰驻上海总领事馆经济处","address":"南京西路1376号上海商城6层655室","type":"政府机构及社会团体;外国机构;外国使领馆","typecode":130201,"pcode":310000,"pname":"上海市","citycode":21,"cityname":"上海市","adcode":310106,"adname":"静安区","business_area":"淮海路","location":"121.451954,31.226735","tel":"[]","bigType":"政府机构及社会团体","midType":"外国机构","smallType":"外国使领馆","gcj_lng":121.451954,"gcj_lat":31.226735,"wgs84_loc":"121.447368,31.228626","wgs84Lng":121.447368,"wgs84Lat":31.228626,"__source_file__":"13-常用公服设施点/CSV/上海市_外国机构.csv"},"geometry":{"type":"Point","coordinates":[121.447368,31.228626]}},{"id":"92","type":"Feature","properties":{"id":"B00155KLWQ","name":"美国农业贸易处","address":"南京西路1376号上海商城3层331室","type":"政府机构及社会团体;外国机构;外国机构相关","typecode":130200,"pcode":310000,"pname":"上海市","citycode":21,"cityname":"上海市","adcode":310106,"adname":"静安区","business_area":"淮海路","location":"121.451954,31.226735","tel":"[]","bigType":"政府机构及社会团体","midType":"外国机构","smallType":"外国机构相关","gcj_lng":121.451954,"gcj_lat":31.226735,"wgs84_loc":"121.447368,31.228626","wgs84Lng":121.447368,"wgs84Lat":31.228626,"__source_file__":"13-常用公服设施点/CSV/上海市_外国机构.csv"},"geometry":{"type":"Point","coordinates":[121.447368,31.228626]}},{"id":"116","type":"Feature","properties":{"id":"B00155KVGT","name":"奥地利总领事馆商务处","address":"南京西路1376号上海商城5层514室","type":"政府机构及社会团体;外国机构;外国使领馆","typecode":130201,"pcode":310000,"pname":"上海市","citycode":21,"cityname":"上海市","adcode":310106,"adname":"静安区","business_area":"淮海路","location":"121.451954,31.226735","tel":"[]","bigType":"政府机构及社会团体","midType":"外国机构","smallType":"外国使领馆","gcj_lng":121.451954,"gcj_lat":31.226735,"wgs84_loc":"121.447368,31.228626","wgs84Lng":121.447368,"wgs84Lat":31.228626,"__source_file__":"13-常用公服设施点/CSV/上海市_外国机构.csv"},"geometry":{"type":"Point","coordinates":[121.447368,31.228626]}},{"id":"54","type":"Feature","properties":{"id":"B00155LXOB","name":"美国联邦航空局","address":"南京西路1376号上海商城6层631室","type":"政府机构及社会团体;外国机构;外国机构相关","typecode":130200,"pcode":310000,"pname":"上海市","citycode":21,"cityname":"上海市","adcode":310106,"adname":"静安区","business_area":"淮海路","location":"121.451954,31.226735","tel":"[]","bigType":"政府机构及社会团体","midType":"外国机构","smallType":"外国机构相关","gcj_lng":121.451954,"gcj_lat":31.226735,"wgs84_loc":"121.447368,31.228626","wgs84Lng":121.447368,"wgs84Lat":31.228626,"__source_file__":"13-常用公服设施点/CSV/上海市_外国机构.csv"},"geometry":{"type":"Point","coordinates":[121.447368,31.228626]}},{"id":"122","type":"Feature","properties":{"id":"B00155LVEK","name":"英国总领事馆商务处","address":"南京西路1376号上海商城3层302室","type":"政府机构及社会团体;外国机构;外国使领馆","typecode":130201,"pcode":310000,"pname":"上海市","citycode":21,"cityname":"上海市","adcode":310106,"adname":"静安区","business_area":"淮海路","location":"121.451954,31.226735","tel":"[]","bigType":"政府机构及社会团体","midType":"外国机构","smallType":"外国使领馆","gcj_lng":121.451954,"gcj_lat":31.226735,"wgs84_loc":"121.447368,31.228626","wgs84Lng":121.447368,"wgs84Lat":31.228626,"__source_file__":"13-常用公服设施点/CSV/上海市_外国机构.csv"},"geometry":{"type":"Point","coordinates":[121.447368,31.228626]}},{"id":"168","type":"Feature","properties":{"id":"B00155KLKN","name":"美国商务处商务中心","address":"南京西路1376号上海商城6层631室","type":"政府机构及社会团体;外国机构;外国机构相关","typecode":130200,"pcode":310000,"pname":"上海市","citycode":21,"cityname":"上海市","adcode":310106,"adname":"静安区","business_area":"淮海路","location":"121.451954,31.226735","tel":"[]","bigType":"政府机构及社会团体","midType":"外国机构","smallType":"外国机构相关","gcj_lng":121.451954,"gcj_lat":31.226735,"wgs84_loc":"121.447368,31.228626","wgs84Lng":121.447368,"wgs84Lat":31.228626,"__source_file__":"13-常用公服设施点/CSV/上海市_外国机构.csv"},"geometry":{"type":"Point","coordinates":[121.447368,31.228626]}},{"id":"65","type":"Feature","properties":{"id":"B00155KN3I","name":"爱尔兰驻上海总领事馆","address":"南京西路1376号上海商城7层700A","type":"政府机构及社会团体;外国机构;外国使领馆","typecode":130201,"pcode":310000,"pname":"上海市","citycode":21,"cityname":"上海市","adcode":310106,"adname":"静安区","business_area":"淮海路","location":"121.451936,31.226759","tel":"021-60101360","bigType":"政府机构及社会团体","midType":"外国机构","smallType":"外国使领馆","gcj_lng":121.451936,"gcj_lat":31.226759,"wgs84_loc":"121.44735,31.22865","wgs84Lng":121.44735,"wgs84Lat":31.22865,"__source_file__":"13-常用公服设施点/CSV/上海市_外国机构.csv"},"geometry":{"type":"Point","coordinates":[121.44735,31.22865]}},{"id":"4","type":"Feature","properties":{"id":"B00156GNTT","name":"德意志联邦共和国总领事馆","address":"铜仁路299号SOHO东海广场8层","type":"政府机构及社会团体;外国机构;外国使领馆","typecode":130201,"pcode":310000,"pname":"上海市","citycode":21,"cityname":"上海市","adcode":310106,"adname":"静安区","business_area":"[]","location":"121.448711,31.226795","tel":"[]","bigType":"政府机构及社会团体","midType":"外国机构","smallType":"外国使领馆","gcj_lng":121.448711,"gcj_lat":31.226795,"wgs84_loc":"121.444117,31.228679","wgs84Lng":121.444117,"wgs84Lat":31.228679,"__source_file__":"13-常用公服设施点/CSV/上海市_外国机构.csv"},"geometry":{"type":"Point","coordinates":[121.444117,31.228679]}},{"id":"45","type":"Feature","properties":{"id":"B0FFL2BTH7","name":"澳洲会计师公会上海办事处","address":"南京西路1168号中信泰富广场4003-4004","type":"政府机构及社会团体;外国机构;外国机构相关","typecode":130200,"pcode":310000,"pname":"上海市","citycode":21,"cityname":"上海市","adcode":310106,"adname":"静安区","business_area":"淮海路","location":"121.455688,31.228587","tel":"[]","bigType":"政府机构及社会团体","midType":"外国机构","smallType":"外国机构相关","gcj_lng":121.455688,"gcj_lat":31.228587,"wgs84_loc":"121.451111,31.230485","wgs84Lng":121.451111,"wgs84Lat":31.230485,"__source_file__":"13-常用公服设施点/CSV/上海市_外国机构.csv"},"geometry":{"type":"Point","coordinates":[121.451111,31.230485]}},{"id":"147","type":"Feature","properties":{"id":"B0FFJ8M5Y1","name":"美国驻上海总领事馆","address":"南京西路1038号梅龙镇广场8层","type":"政府机构及社会团体;外国机构;外国使领馆","typecode":130201,"pcode":310000,"pname":"上海市","citycode":21,"cityname":"上海市","adcode":310106,"adname":"静安区","business_area":"淮海路","location":"121.456700,31.228600","tel":"021-80112200;021-62797630","bigType":"政府机构及社会团体","midType":"外国机构","smallType":"外国使领馆","gcj_lng":121.4567,"gcj_lat":31.2286,"wgs84_loc":"121.452126,31.2305","wgs84Lng":121.452126,"wgs84Lat":31.2305,"__source_file__":"13-常用公服设施点/CSV/上海市_外国机构.csv"},"geometry":{"type":"Point","coordinates":[121.452126,31.2305]}},{"id":"82","type":"Feature","properties":{"id":"B00155KN1Z","name":"芬兰共和国驻上海总领事馆","address":"南京西路1168号中信泰富广场2505室(近陕西北路)","type":"政府机构及社会团体;外国机构;外国使领馆","typecode":130201,"pcode":310000,"pname":"上海市","citycode":21,"cityname":"上海市","adcode":310106,"adname":"静安区","business_area":"淮海路","location":"121.455691,31.228607","tel":"021-52929900","bigType":"政府机构及社会团体","midType":"外国机构","smallType":"外国使领馆","gcj_lng":121.455691,"gcj_lat":31.228607,"wgs84_loc":"121.451114,31.230505","wgs84Lng":121.451114,"wgs84Lat":31.230505,"__source_file__":"13-常用公服设施点/CSV/上海市_外国机构.csv"},"geometry":{"type":"Point","coordinates":[121.451114,31.230505]}},{"id":"60","type":"Feature","properties":{"id":"B00155KKA5","name":"澳大利亚驻上海总领事馆","address":"中信泰富广场22层","type":"政府机构及社会团体;外国机构;外国使领馆","typecode":130201,"pcode":310000,"pname":"上海市","citycode":21,"cityname":"上海市","adcode":310106,"adname":"静安区","business_area":"淮海路","location":"121.455691,31.228608","tel":"021-22155200","bigType":"政府机构及社会团体","midType":"外国机构","smallType":"外国使领馆","gcj_lng":121.455691,"gcj_lat":31.228608,"wgs84_loc":"121.451114,31.230506","wgs84Lng":121.451114,"wgs84Lat":31.230506,"__source_file__":"13-常用公服设施点/CSV/上海市_外国机构.csv"},"geometry":{"type":"Point","coordinates":[121.451114,31.230506]}},{"id":"111","type":"Feature","properties":{"id":"B00155KTB1","name":"澳大利亚投资局","address":"南京西路1168号中信泰富广场2204号","type":"政府机构及社会团体;外国机构;外国机构相关","typecode":130200,"pcode":310000,"pname":"上海市","citycode":21,"cityname":"上海市","adcode":310106,"adname":"静安区","business_area":"淮海路","location":"121.455680,31.228616","tel":"[]","bigType":"政府机构及社会团体","midType":"外国机构","smallType":"外国机构相关","gcj_lng":121.45568,"gcj_lat":31.228616,"wgs84_loc":"121.451103,31.230514","wgs84Lng":121.451103,"wgs84Lat":31.230514,"__source_file__":"13-常用公服设施点/CSV/上海市_外国机构.csv"},"geometry":{"type":"Point","coordinates":[121.451103,31.230514]}},{"id":"141","type":"Feature","properties":{"id":"B0FFF00KQW","name":"新南威尔士州政府上海商务代表处","address":"南京西路1168号中信泰富广场2208号","type":"政府机构及社会团体;外国机构;外国机构相关","typecode":130200,"pcode":310000,"pname":"上海市","citycode":21,"cityname":"上海市","adcode":310106,"adname":"静安区","business_area":"淮海路","location":"121.455680,31.228616","tel":"[]","bigType":"政府机构及社会团体","midType":"外国机构","smallType":"外国机构相关","gcj_lng":121.45568,"gcj_lat":31.228616,"wgs84_loc":"121.451103,31.230514","wgs84Lng":121.451103,"wgs84Lat":31.230514,"__source_file__":"13-常用公服设施点/CSV/上海市_外国机构.csv"},"geometry":{"type":"Point","coordinates":[121.451103,31.230514]}},{"id":"107","type":"Feature","properties":{"id":"B00155KL15","name":"澳大利亚贸易委员会上海办事处","address":"南京西路1168号中信泰富广场2101、2110-12","type":"政府机构及社会团体;外国机构;外国机构相关","typecode":130200,"pcode":310000,"pname":"上海市","citycode":21,"cityname":"上海市","adcode":310106,"adname":"静安区","business_area":"淮海路","location":"121.455680,31.228616","tel":"[]","bigType":"政府机构及社会团体","midType":"外国机构","smallType":"外国机构相关","gcj_lng":121.45568,"gcj_lat":31.228616,"wgs84_loc":"121.451103,31.230514","wgs84Lng":121.451103,"wgs84Lat":31.230514,"__source_file__":"13-常用公服设施点/CSV/上海市_外国机构.csv"},"geometry":{"type":"Point","coordinates":[121.451103,31.230514]}},{"id":"179","type":"Feature","properties":{"id":"B0FFLOKL46","name":"芬兰驻沪总领事馆","address":"南京西路1168号(南京西路地铁站14号口步行360米)","type":"政府机构及社会团体;外国机构;外国使领馆","typecode":130201,"pcode":310000,"pname":"上海市","citycode":21,"cityname":"上海市","adcode":310106,"adname":"静安区","business_area":"淮海路","location":"121.455696,31.228619","tel":"[]","bigType":"政府机构及社会团体","midType":"外国机构","smallType":"外国使领馆","gcj_lng":121.455696,"gcj_lat":31.228619,"wgs84_loc":"121.451119,31.230517","wgs84Lng":121.451119,"wgs84Lat":31.230517,"__source_file__":"13-常用公服设施点/CSV/上海市_外国机构.csv"},"geometry":{"type":"Point","coordinates":[121.451119,31.230517]}},{"id":"84","type":"Feature","properties":{"id":"B0FFK4K8EP","name":"芬兰驻沪总领事馆-签证处","address":"南京西路1168号中信泰富广场25层2505号","type":"政府机构及社会团体;外国机构;外国使领馆","typecode":130201,"pcode":310000,"pname":"上海市","citycode":21,"cityname":"上海市","adcode":310106,"adname":"静安区","business_area":"淮海路","location":"121.455875,31.228675","tel":"[]","bigType":"政府机构及社会团体","midType":"外国机构","smallType":"外国使领馆","gcj_lng":121.455875,"gcj_lat":31.228675,"wgs84_loc":"121.451299,31.230574","wgs84Lng":121.451299,"wgs84Lat":31.230574,"__source_file__":"13-常用公服设施点/CSV/上海市_外国机构.csv"},"geometry":{"type":"Point","coordinates":[121.451299,31.230574]}},{"id":"58","type":"Feature","properties":{"id":"B0FFF3DCLF","name":"美国驻上海总领事馆签证处(梅龙镇广场)","address":"南京西路1038号梅龙镇广场8层(近江宁路)","type":"政府机构及社会团体;外国机构;外国使领馆","typecode":130201,"pcode":310000,"pname":"上海市","citycode":21,"cityname":"上海市","adcode":310106,"adname":"静安区","business_area":"淮海路","location":"121.456755,31.228940","tel":"021-32174650;021-62797630","bigType":"政府机构及社会团体","midType":"外国机构","smallType":"外国使领馆","gcj_lng":121.456755,"gcj_lat":31.22894,"wgs84_loc":"121.452181,31.23084","wgs84Lng":121.452181,"wgs84Lat":31.23084,"__source_file__":"13-常用公服设施点/CSV/上海市_外国机构.csv"},"geometry":{"type":"Point","coordinates":[121.452181,31.23084]}},{"id":"78","type":"Feature","properties":{"id":"B0H0UCP35J","name":"美国领事馆签证处","address":"南京西路1038号梅龙镇广场F8","type":"政府机构及社会团体;外国机构;外国使领馆","typecode":130201,"pcode":310000,"pname":"上海市","citycode":21,"cityname":"上海市","adcode":310106,"adname":"静安区","business_area":"淮海路","location":"121.456860,31.228944","tel":"[]","bigType":"政府机构及社会团体","midType":"外国机构","smallType":"外国使领馆","gcj_lng":121.45686,"gcj_lat":31.228944,"wgs84_loc":"121.452286,31.230845","wgs84Lng":121.452286,"wgs84Lat":31.230845,"__source_file__":"13-常用公服设施点/CSV/上海市_外国机构.csv"},"geometry":{"type":"Point","coordinates":[121.452286,31.230845]}},{"id":"157","type":"Feature","properties":{"id":"B00155LV3C","name":"马来西亚棕榈油委员会上海代表处","address":"南京西路1038号梅龙镇商厦16层1610B","type":"政府机构及社会团体;外国机构;外国机构相关","typecode":130200,"pcode":310000,"pname":"上海市","citycode":21,"cityname":"上海市","adcode":310106,"adname":"静安区","business_area":"淮海路","location":"121.456878,31.229345","tel":"[]","bigType":"政府机构及社会团体","midType":"外国机构","smallType":"外国机构相关","gcj_lng":121.456878,"gcj_lat":31.229345,"wgs84_loc":"121.452304,31.231245","wgs84Lng":121.452304,"wgs84Lat":31.231245,"__source_file__":"13-常用公服设施点/CSV/上海市_外国机构.csv"},"geometry":{"type":"Point","coordinates":[121.452304,31.231245]}},{"id":"137","type":"Feature","properties":{"id":"B00157HYQX","name":"爱沙尼亚企业管理局上海代表处","address":"南京西路1038号梅龙镇商厦21层2108","type":"政府机构及社会团体;外国机构;外国机构相关","typecode":130200,"pcode":310000,"pname":"上海市","citycode":21,"cityname":"上海市","adcode":310106,"adname":"静安区","business_area":"淮海路","location":"121.456878,31.229345","tel":"[]","bigType":"政府机构及社会团体","midType":"外国机构","smallType":"外国机构相关","gcj_lng":121.456878,"gcj_lat":31.229345,"wgs84_loc":"121.452304,31.231245","wgs84Lng":121.452304,"wgs84Lat":31.231245,"__source_file__":"13-常用公服设施点/CSV/上海市_外国机构.csv"},"geometry":{"type":"Point","coordinates":[121.452304,31.231245]}},{"id":"144","type":"Feature","properties":{"id":"B00155LV47","name":"瑞士国家旅游局上海办事处","address":"南京西路1038号梅龙镇商厦12层1208","type":"政府机构及社会团体;外国机构;外国机构相关","typecode":130200,"pcode":310000,"pname":"上海市","citycode":21,"cityname":"上海市","adcode":310106,"adname":"静安区","business_area":"淮海路","location":"121.456878,31.229345","tel":"[]","bigType":"政府机构及社会团体","midType":"外国机构","smallType":"外国机构相关","gcj_lng":121.456878,"gcj_lat":31.229345,"wgs84_loc":"121.452304,31.231245","wgs84Lng":121.452304,"wgs84Lat":31.231245,"__source_file__":"13-常用公服设施点/CSV/上海市_外国机构.csv"},"geometry":{"type":"Point","coordinates":[121.452304,31.231245]}},{"id":"145","type":"Feature","properties":{"id":"B0FFF00KRD","name":"新加坡咨询通信发展管理局中国办事处","address":"南京西路1038号梅龙镇商厦1810B","type":"政府机构及社会团体;外国机构;外国机构相关","typecode":130200,"pcode":310000,"pname":"上海市","citycode":21,"cityname":"上海市","adcode":310106,"adname":"静安区","business_area":"淮海路","location":"121.456878,31.229345","tel":"[]","bigType":"政府机构及社会团体","midType":"外国机构","smallType":"外国机构相关","gcj_lng":121.456878,"gcj_lat":31.229345,"wgs84_loc":"121.452304,31.231245","wgs84Lng":121.452304,"wgs84Lat":31.231245,"__source_file__":"13-常用公服设施点/CSV/上海市_外国机构.csv"},"geometry":{"type":"Point","coordinates":[121.452304,31.231245]}},{"id":"146","type":"Feature","properties":{"id":"B00157HYQI","name":"西班牙加泰罗尼亚自治区企业发展局上海代表处","address":"南京西路1038号梅龙镇商厦16层1606-7A、19层1907","type":"政府机构及社会团体;外国机构;外国机构相关","typecode":130200,"pcode":310000,"pname":"上海市","citycode":21,"cityname":"上海市","adcode":310106,"adname":"静安区","business_area":"淮海路","location":"121.456878,31.229345","tel":"[]","bigType":"政府机构及社会团体","midType":"外国机构","smallType":"外国机构相关","gcj_lng":121.456878,"gcj_lat":31.229345,"wgs84_loc":"121.452304,31.231245","wgs84Lng":121.452304,"wgs84Lat":31.231245,"__source_file__":"13-常用公服设施点/CSV/上海市_外国机构.csv"},"geometry":{"type":"Point","coordinates":[121.452304,31.231245]}},{"id":"158","type":"Feature","properties":{"id":"B0FFF00KRE","name":"日本社团法人熊本县贸易协会上海代表处(熊本上海事务所)","address":"南京西路1038号梅龙镇商厦15层1509","type":"政府机构及社会团体;外国机构;外国机构相关","typecode":130200,"pcode":310000,"pname":"上海市","citycode":21,"cityname":"上海市","adcode":310106,"adname":"静安区","business_area":"淮海路","location":"121.456878,31.229345","tel":"[]","bigType":"政府机构及社会团体","midType":"外国机构","smallType":"外国机构相关","gcj_lng":121.456878,"gcj_lat":31.229345,"wgs84_loc":"121.452304,31.231245","wgs84Lng":121.452304,"wgs84Lat":31.231245,"__source_file__":"13-常用公服设施点/CSV/上海市_外国机构.csv"},"geometry":{"type":"Point","coordinates":[121.452304,31.231245]}},{"id":"159","type":"Feature","properties":{"id":"B00155LYZ3","name":"西班牙加泰罗尼亚政府贸易促进协会上海代表处","address":"南京西路1038号梅龙镇商厦19层1907B","type":"政府机构及社会团体;外国机构;外国机构相关","typecode":130200,"pcode":310000,"pname":"上海市","citycode":21,"cityname":"上海市","adcode":310106,"adname":"静安区","business_area":"淮海路","location":"121.456878,31.229345","tel":"[]","bigType":"政府机构及社会团体","midType":"外国机构","smallType":"外国机构相关","gcj_lng":121.456878,"gcj_lat":31.229345,"wgs84_loc":"121.452304,31.231245","wgs84Lng":121.452304,"wgs84Lat":31.231245,"__source_file__":"13-常用公服设施点/CSV/上海市_外国机构.csv"},"geometry":{"type":"Point","coordinates":[121.452304,31.231245]}},{"id":"164","type":"Feature","properties":{"id":"B00155LXEJ","name":"西班牙工业企业联合会","address":"南京西路1038号梅龙镇商厦12层1201","type":"政府机构及社会团体;外国机构;外国机构相关","typecode":130200,"pcode":310000,"pname":"上海市","citycode":21,"cityname":"上海市","adcode":310106,"adname":"静安区","business_area":"淮海路","location":"121.456878,31.229345","tel":"[]","bigType":"政府机构及社会团体","midType":"外国机构","smallType":"外国机构相关","gcj_lng":121.456878,"gcj_lat":31.229345,"wgs84_loc":"121.452304,31.231245","wgs84Lng":121.452304,"wgs84Lat":31.231245,"__source_file__":"13-常用公服设施点/CSV/上海市_外国机构.csv"},"geometry":{"type":"Point","coordinates":[121.452304,31.231245]}},{"id":"70","type":"Feature","properties":{"id":"B00155LYXD","name":"西班牙驻上海总领事馆经济商务处","address":"南京西路1038号梅龙镇商厦25层2501-2505A、2510B","type":"政府机构及社会团体;外国机构;外国使领馆","typecode":130201,"pcode":310000,"pname":"上海市","citycode":21,"cityname":"上海市","adcode":310106,"adname":"静安区","business_area":"淮海路","location":"121.456878,31.229345","tel":"[]","bigType":"政府机构及社会团体","midType":"外国机构","smallType":"外国使领馆","gcj_lng":121.456878,"gcj_lat":31.229345,"wgs84_loc":"121.452304,31.231245","wgs84Lng":121.452304,"wgs84Lat":31.231245,"__source_file__":"13-常用公服设施点/CSV/上海市_外国机构.csv"},"geometry":{"type":"Point","coordinates":[121.452304,31.231245]}},{"id":"103","type":"Feature","properties":{"id":"B0FFK6VOBD","name":"哥斯达黎加驻华商务处","address":"南京西路1376号5楼507号","type":"政府机构及社会团体;外国机构;外国机构相关","typecode":130200,"pcode":310000,"pname":"上海市","citycode":21,"cityname":"上海市","adcode":310106,"adname":"静安区","business_area":"淮海路","location":"121.452210,31.227130","tel":"[]","bigType":"政府机构及社会团体","midType":"外国机构","smallType":"外国机构相关","gcj_lng":121.45221,"gcj_lat":31.22713,"wgs84_loc":"121.447624,31.229021","wgs84Lng":121.447624,"wgs84Lat":31.229021,"__source_file__":"13-常用公服设施点/CSV/上海市_外国机构.csv"},"geometry":{"type":"Point","coordinates":[121.447624,31.229021]}},{"id":"79","type":"Feature","properties":{"id":"B0H1U11C0G","name":"马来西亚驻沪总领事馆","address":"奉贤路与江宁路交叉口西南约60米","type":"政府机构及社会团体;外国机构;外国使领馆","typecode":130201,"pcode":310000,"pname":"上海市","citycode":21,"cityname":"上海市","adcode":310106,"adname":"静安区","business_area":"淮海路","location":"121.455613,31.228757","tel":"[]","bigType":"政府机构及社会团体","midType":"外国机构","smallType":"外国使领馆","gcj_lng":121.455613,"gcj_lat":31.228757,"wgs84_loc":"121.451036,31.230655","wgs84Lng":121.451036,"wgs84Lat":31.230655,"__source_file__":"13-常用公服设施点/CSV/上海市_外国机构.csv"},"geometry":{"type":"Point","coordinates":[121.451036,31.230655]}},{"id":"118","type":"Feature","properties":{"id":"B0FFFGY68L","name":"老挝人民民主共和国驻上海总领事馆","address":"江宁路356号宝业静安紫苑行政公馆9层","type":"政府机构及社会团体;外国机构;外国使领馆","typecode":130201,"pcode":310000,"pname":"上海市","citycode":21,"cityname":"上海市","adcode":310106,"adname":"静安区","business_area":"曹家渡","location":"121.453225,31.234231","tel":"021-52987855","bigType":"政府机构及社会团体","midType":"外国机构","smallType":"外国使领馆","gcj_lng":121.453225,"gcj_lat":31.234231,"wgs84_loc":"121.448641,31.236121","wgs84Lng":121.448641,"wgs84Lat":31.236121,"__source_file__":"13-常用公服设施点/CSV/上海市_外国机构.csv"},"geometry":{"type":"Point","coordinates":[121.448641,31.236121]}},{"id":"96","type":"Feature","properties":{"id":"B0FFFGVZ1W","name":"哥伦比亚共和国驻上海总领事馆","address":"安远路518宝华城市晶典大厦2005室","type":"政府机构及社会团体;外国机构;外国使领馆","typecode":130201,"pcode":310000,"pname":"上海市","citycode":21,"cityname":"上海市","adcode":310107,"adname":"普陀区","business_area":"曹家渡","location":"121.437412,31.236959","tel":"021-60707161","bigType":"政府机构及社会团体","midType":"外国机构","smallType":"外国使领馆","gcj_lng":121.437412,"gcj_lat":31.236959,"wgs84_loc":"121.432793,31.238819","wgs84Lng":121.432793,"wgs84Lat":31.238819,"__source_file__":"13-常用公服设施点/CSV/上海市_外国机构.csv"},"geometry":{"type":"Point","coordinates":[121.432793,31.238819]}},{"id":"99","type":"Feature","properties":{"id":"B0HGDH8UBC","name":"巴西联邦共和国驻上海总领事馆","address":"嘉地中心10楼","type":"政府机构及社会团体;外国机构;外国使领馆","typecode":130201,"pcode":310000,"pname":"上海市","citycode":21,"cityname":"上海市","adcode":310106,"adname":"静安区","business_area":"淮海路","location":"121.456051,31.231198","tel":"021-64370110","bigType":"政府机构及社会团体","midType":"外国机构","smallType":"外国使领馆","gcj_lng":121.456051,"gcj_lat":31.231198,"wgs84_loc":"121.451475,31.233096","wgs84Lng":121.451475,"wgs84Lat":31.233096,"__source_file__":"13-常用公服设施点/CSV/上海市_外国机构.csv"},"geometry":{"type":"Point","coordinates":[121.451475,31.233096]}},{"id":"98","type":"Feature","properties":{"id":"B0FFHPPVXD","name":"英国驻沪领事馆","address":"北京西路968号嘉地中心16-17层","type":"政府机构及社会团体;外国机构;外国使领馆","typecode":130201,"pcode":310000,"pname":"上海市","citycode":21,"cityname":"上海市","adcode":310106,"adname":"静安区","business_area":"淮海路","location":"121.456035,31.231240","tel":"021-32792000","bigType":"政府机构及社会团体","midType":"外国机构","smallType":"外国使领馆","gcj_lng":121.456035,"gcj_lat":31.23124,"wgs84_loc":"121.451459,31.233138","wgs84Lng":121.451459,"wgs84Lat":31.233138,"__source_file__":"13-常用公服设施点/CSV/上海市_外国机构.csv"},"geometry":{"type":"Point","coordinates":[121.451459,31.233138]}},{"id":"117","type":"Feature","properties":{"id":"B0FFHOCHEY","name":"英国驻上海总领事馆-领事处","address":"嘉地中心17层","type":"政府机构及社会团体;外国机构;外国使领馆","typecode":130201,"pcode":310000,"pname":"上海市","citycode":21,"cityname":"上海市","adcode":310106,"adname":"静安区","business_area":"淮海路","location":"121.456427,31.231285","tel":"021-32792000","bigType":"政府机构及社会团体","midType":"外国机构","smallType":"外国使领馆","gcj_lng":121.456427,"gcj_lat":31.231285,"wgs84_loc":"121.451852,31.233184","wgs84Lng":121.451852,"wgs84Lat":31.233184,"__source_file__":"13-常用公服设施点/CSV/上海市_外国机构.csv"},"geometry":{"type":"Point","coordinates":[121.451852,31.233184]}},{"id":"50","type":"Feature","properties":{"id":"B0FFFDYXBA","name":"德国签证受理中心","address":"恒丰路329号隆宇国际商务广场","type":"政府机构及社会团体;外国机构;外国机构相关","typecode":130200,"pcode":310000,"pname":"上海市","citycode":21,"cityname":"上海市","adcode":310106,"adname":"静安区","business_area":"[]","location":"121.456357,31.243707","tel":"[]","bigType":"政府机构及社会团体","midType":"外国机构","smallType":"外国机构相关","gcj_lng":121.456357,"gcj_lat":31.243707,"wgs84_loc":"121.451781,31.2456","wgs84Lng":121.451781,"wgs84Lat":31.2456,"__source_file__":"13-常用公服设施点/CSV/上海市_外国机构.csv"},"geometry":{"type":"Point","coordinates":[121.451781,31.2456]}},{"id":"126","type":"Feature","properties":{"id":"B00156GSBS","name":"亚洲太平洋地区质量保障组织秘书处","address":"陕西南路202号","type":"政府机构及社会团体;外国机构;外国机构相关","typecode":130200,"pcode":310000,"pname":"上海市","citycode":21,"cityname":"上海市","adcode":310104,"adname":"徐汇区","business_area":"淮海路","location":"121.457934,31.218542","tel":"[]","bigType":"政府机构及社会团体","midType":"外国机构","smallType":"外国机构相关","gcj_lng":121.457934,"gcj_lat":31.218542,"wgs84_loc":"121.453364,31.22045","wgs84Lng":121.453364,"wgs84Lat":31.22045,"__source_file__":"13-常用公服设施点/CSV/上海市_外国机构.csv"},"geometry":{"type":"Point","coordinates":[121.453364,31.22045]}},{"id":"166","type":"Feature","properties":{"id":"B001571BLT","name":"瑞典驻上海总领事馆商务处","address":"茂名南路59号锦江饭店西楼六组W6313","type":"政府机构及社会团体;外国机构;外国使领馆","typecode":130201,"pcode":310000,"pname":"上海市","citycode":21,"cityname":"上海市","adcode":310101,"adname":"黄浦区","business_area":"淮海路","location":"121.461139,31.218661","tel":"[]","bigType":"政府机构及社会团体","midType":"外国机构","smallType":"外国使领馆","gcj_lng":121.461139,"gcj_lat":31.218661,"wgs84_loc":"121.456578,31.220576","wgs84Lng":121.456578,"wgs84Lat":31.220576,"__source_file__":"13-常用公服设施点/CSV/上海市_外国机构.csv"},"geometry":{"type":"Point","coordinates":[121.456578,31.220576]}},{"id":"136","type":"Feature","properties":{"id":"B0FFGBSM95","name":"新西兰驻上海总领事馆","address":"湖滨路150号企业天地5号楼2801-2802A 、2806B-2810室","type":"政府机构及社会团体;外国机构;外国使领馆","typecode":130201,"pcode":310000,"pname":"上海市","citycode":21,"cityname":"上海市","adcode":310101,"adname":"黄浦区","business_area":"淮海路","location":"121.479098,31.220936","tel":"[]","bigType":"政府机构及社会团体","midType":"外国机构","smallType":"外国使领馆","gcj_lng":121.479098,"gcj_lat":31.220936,"wgs84_loc":"121.474594,31.222898","wgs84Lng":121.474594,"wgs84Lat":31.222898,"__source_file__":"13-常用公服设施点/CSV/上海市_外国机构.csv"},"geometry":{"type":"Point","coordinates":[121.474594,31.222898]}},{"id":"106","type":"Feature","properties":{"id":"B0FFMBKAHX","name":"新西兰贸易发展局","address":"湖滨路150号企业天地5号楼2801-2802A、2806B-2810室","type":"政府机构及社会团体;外国机构;外国机构相关","typecode":130200,"pcode":310000,"pname":"上海市","citycode":21,"cityname":"上海市","adcode":310101,"adname":"黄浦区","business_area":"淮海路","location":"121.478993,31.220959","tel":"021-53317222","bigType":"政府机构及社会团体","midType":"外国机构","smallType":"外国机构相关","gcj_lng":121.478993,"gcj_lat":31.220959,"wgs84_loc":"121.474488,31.22292","wgs84Lng":121.474488,"wgs84Lat":31.22292,"__source_file__":"13-常用公服设施点/CSV/上海市_外国机构.csv"},"geometry":{"type":"Point","coordinates":[121.474488,31.22292]}},{"id":"120","type":"Feature","properties":{"id":"B0FFFTBKJI","name":"瑞典王国驻上海总领事馆签证处","address":"淮海中路381号中环广场1521-1541","type":"政府机构及社会团体;外国机构;外国使领馆","typecode":130201,"pcode":310000,"pname":"上海市","citycode":21,"cityname":"上海市","adcode":310101,"adname":"黄浦区","business_area":"淮海路","location":"121.472933,31.222220","tel":"021-53599610","bigType":"政府机构及社会团体","midType":"外国机构","smallType":"外国使领馆","gcj_lng":121.472933,"gcj_lat":31.22222,"wgs84_loc":"121.468408,31.224164","wgs84Lng":121.468408,"wgs84Lat":31.224164,"__source_file__":"13-常用公服设施点/CSV/上海市_外国机构.csv"},"geometry":{"type":"Point","coordinates":[121.468408,31.224164]}},{"id":"68","type":"Feature","properties":{"id":"B00154M5UA","name":"瑞典王国驻上海总领事馆","address":"淮海中路381号中环广场1521-1541室","type":"政府机构及社会团体;外国机构;外国使领馆","typecode":130201,"pcode":310000,"pname":"上海市","citycode":21,"cityname":"上海市","adcode":310101,"adname":"黄浦区","business_area":"淮海路","location":"121.472939,31.222229","tel":"021-53599610","bigType":"政府机构及社会团体","midType":"外国机构","smallType":"外国使领馆","gcj_lng":121.472939,"gcj_lat":31.222229,"wgs84_loc":"121.468414,31.224173","wgs84Lng":121.468414,"wgs84Lat":31.224173,"__source_file__":"13-常用公服设施点/CSV/上海市_外国机构.csv"},"geometry":{"type":"Point","coordinates":[121.468414,31.224173]}},{"id":"67","type":"Feature","properties":{"id":"B00155GJAS","name":"瑞典政府投资促进署","address":"淮海中路283号香港广场南楼2203","type":"政府机构及社会团体;外国机构;外国机构相关","typecode":130200,"pcode":310000,"pname":"上海市","citycode":21,"cityname":"上海市","adcode":310101,"adname":"黄浦区","business_area":"淮海路","location":"121.475227,31.222964","tel":"[]","bigType":"政府机构及社会团体","midType":"外国机构","smallType":"外国机构相关","gcj_lng":121.475227,"gcj_lat":31.222964,"wgs84_loc":"121.47071,31.224914","wgs84Lng":121.47071,"wgs84Lat":31.224914,"__source_file__":"13-常用公服设施点/CSV/上海市_外国机构.csv"},"geometry":{"type":"Point","coordinates":[121.47071,31.224914]}},{"id":"171","type":"Feature","properties":{"id":"B00155IATF","name":"乌拉圭东岸共和国驻上海总领事馆","address":"金陵西路3香港新世界大厦2403","type":"政府机构及社会团体;外国机构;外国使领馆","typecode":130201,"pcode":310000,"pname":"上海市","citycode":21,"cityname":"上海市","adcode":310101,"adname":"黄浦区","business_area":"北京东路","location":"121.473570,31.223541","tel":"021-63353927","bigType":"政府机构及社会团体","midType":"外国机构","smallType":"外国使领馆","gcj_lng":121.47357,"gcj_lat":31.223541,"wgs84_loc":"121.469047,31.225486","wgs84Lng":121.469047,"wgs84Lat":31.225486,"__source_file__":"13-常用公服设施点/CSV/上海市_外国机构.csv"},"geometry":{"type":"Point","coordinates":[121.469047,31.225486]}},{"id":"162","type":"Feature","properties":{"id":"B001571N4G","name":"乌拉圭总领事馆-签证处","address":"淮海中路300号香港新世界大厦24层2403室","type":"政府机构及社会团体;外国机构;外国使领馆","typecode":130201,"pcode":310000,"pname":"上海市","citycode":21,"cityname":"上海市","adcode":310101,"adname":"黄浦区","business_area":"北京东路","location":"121.473540,31.223680","tel":"[]","bigType":"政府机构及社会团体","midType":"外国机构","smallType":"外国使领馆","gcj_lng":121.47354,"gcj_lat":31.22368,"wgs84_loc":"121.469017,31.225625","wgs84Lng":121.469017,"wgs84Lat":31.225625,"__source_file__":"13-常用公服设施点/CSV/上海市_外国机构.csv"},"geometry":{"type":"Point","coordinates":[121.469017,31.225625]}},{"id":"85","type":"Feature","properties":{"id":"B00155GJ0Y","name":"日本读卖新闻上海支局","address":"淮海中路93号大上海时代广场办公楼1701","type":"政府机构及社会团体;外国机构;外国机构相关","typecode":130200,"pcode":310000,"pname":"上海市","citycode":21,"cityname":"上海市","adcode":310101,"adname":"黄浦区","business_area":"淮海路","location":"121.479157,31.224613","tel":"021-63840018","bigType":"政府机构及社会团体","midType":"外国机构","smallType":"外国机构相关","gcj_lng":121.479157,"gcj_lat":31.224613,"wgs84_loc":"121.474653,31.226573","wgs84Lng":121.474653,"wgs84Lat":31.226573,"__source_file__":"13-常用公服设施点/CSV/上海市_外国机构.csv"},"geometry":{"type":"Point","coordinates":[121.474653,31.226573]}},{"id":"97","type":"Feature","properties":{"id":"B0GDD7VCR3","name":"瓦努阿图共和国驻上海总领事馆","address":"威海路567号晶采世纪大厦7E","type":"政府机构及社会团体;外国机构;外国使领馆","typecode":130201,"pcode":310000,"pname":"上海市","citycode":21,"cityname":"上海市","adcode":310106,"adname":"静安区","business_area":"淮海路","location":"121.460999,31.226600","tel":"021-62838355","bigType":"政府机构及社会团体","midType":"外国机构","smallType":"外国使领馆","gcj_lng":121.460999,"gcj_lat":31.2266,"wgs84_loc":"121.456437,31.228511","wgs84Lng":121.456437,"wgs84Lat":31.228511,"__source_file__":"13-常用公服设施点/CSV/上海市_外国机构.csv"},"geometry":{"type":"Point","coordinates":[121.456437,31.228511]}},{"id":"95","type":"Feature","properties":{"id":"B0FFFGY87B","name":"罗马尼亚驻上海总领事馆","address":"成都北路199号恒利国际大厦502室","type":"政府机构及社会团体;外国机构;外国使领馆","typecode":130201,"pcode":310000,"pname":"上海市","citycode":21,"cityname":"上海市","adcode":310106,"adname":"静安区","business_area":"淮海路","location":"121.466674,31.226966","tel":"021-62701146","bigType":"政府机构及社会团体","midType":"外国机构","smallType":"外国使领馆","gcj_lng":121.466674,"gcj_lat":31.226966,"wgs84_loc":"121.462129,31.228891","wgs84Lng":121.462129,"wgs84Lat":31.228891,"__source_file__":"13-常用公服设施点/CSV/上海市_外国机构.csv"},"geometry":{"type":"Point","coordinates":[121.462129,31.228891]}},{"id":"135","type":"Feature","properties":{"id":"B0FFI3E5AG","name":"美国签证代办中心","address":"南京西路1025号","type":"政府机构及社会团体;外国机构;外国机构相关","typecode":130200,"pcode":310000,"pname":"上海市","citycode":21,"cityname":"上海市","adcode":310106,"adname":"静安区","business_area":"淮海路","location":"121.457835,31.228349","tel":"15201843805","bigType":"政府机构及社会团体","midType":"外国机构","smallType":"外国机构相关","gcj_lng":121.457835,"gcj_lat":31.228349,"wgs84_loc":"121.453264,31.230252","wgs84Lng":121.453264,"wgs84Lat":31.230252,"__source_file__":"13-常用公服设施点/CSV/上海市_外国机构.csv"},"geometry":{"type":"Point","coordinates":[121.453264,31.230252]}},{"id":"93","type":"Feature","properties":{"id":"B0FFK6W0UJ","name":"埃塞俄比亚驻上海总领事馆","address":"南京西路993号锦江向阳大楼18A","type":"政府机构及社会团体;外国机构;外国使领馆","typecode":130201,"pcode":310000,"pname":"上海市","citycode":21,"cityname":"上海市","adcode":310106,"adname":"静安区","business_area":"淮海路","location":"121.458461,31.228899","tel":"[]","bigType":"政府机构及社会团体","midType":"外国机构","smallType":"外国使领馆","gcj_lng":121.458461,"gcj_lat":31.228899,"wgs84_loc":"121.453892,31.230803","wgs84Lng":121.453892,"wgs84Lat":31.230803,"__source_file__":"13-常用公服设施点/CSV/上海市_外国机构.csv"},"geometry":{"type":"Point","coordinates":[121.453892,31.230803]}},{"id":"102","type":"Feature","properties":{"id":"B0FFHT6UVM","name":"美国公民服务美国签证处","address":"南京西路1038号梅龙镇商厦8层802","type":"政府机构及社会团体;外国机构;外国使领馆","typecode":130201,"pcode":310000,"pname":"上海市","citycode":21,"cityname":"上海市","adcode":310106,"adname":"静安区","business_area":"淮海路","location":"121.456879,31.229345","tel":"[]","bigType":"政府机构及社会团体","midType":"外国机构","smallType":"外国使领馆","gcj_lng":121.456879,"gcj_lat":31.229345,"wgs84_loc":"121.452305,31.231245","wgs84Lng":121.452305,"wgs84Lat":31.231245,"__source_file__":"13-常用公服设施点/CSV/上海市_外国机构.csv"},"geometry":{"type":"Point","coordinates":[121.452305,31.231245]}},{"id":"149","type":"Feature","properties":{"id":"B00156ECC0","name":"斯洛文尼亚共和国驻上海领事馆","address":"南京西路1038梅龙镇商厦21层2107A","type":"政府机构及社会团体;外国机构;外国使领馆","typecode":130201,"pcode":310000,"pname":"上海市","citycode":21,"cityname":"上海市","adcode":310106,"adname":"静安区","business_area":"淮海路","location":"121.456879,31.229345","tel":"021-62183235;021-62183055","bigType":"政府机构及社会团体","midType":"外国机构","smallType":"外国使领馆","gcj_lng":121.456879,"gcj_lat":31.229345,"wgs84_loc":"121.452305,31.231245","wgs84Lng":121.452305,"wgs84Lat":31.231245,"__source_file__":"13-常用公服设施点/CSV/上海市_外国机构.csv"},"geometry":{"type":"Point","coordinates":[121.452305,31.231245]}},{"id":"61","type":"Feature","properties":{"id":"B00155G8MS","name":"法国政府投资部","address":"广东路689号海通证券大厦202","type":"政府机构及社会团体;外国机构;外国机构相关","typecode":130200,"pcode":310000,"pname":"上海市","citycode":21,"cityname":"上海市","adcode":310101,"adname":"黄浦区","business_area":"北京东路","location":"121.478848,31.230715","tel":"[]","bigType":"政府机构及社会团体","midType":"外国机构","smallType":"外国机构相关","gcj_lng":121.478848,"gcj_lat":31.230715,"wgs84_loc":"121.474342,31.232671","wgs84Lng":121.474342,"wgs84Lat":31.232671,"__source_file__":"13-常用公服设施点/CSV/上海市_外国机构.csv"},"geometry":{"type":"Point","coordinates":[121.474342,31.232671]}},{"id":"56","type":"Feature","properties":{"id":"B00155LZD8","name":"泰国国家旅游局上海办事处","address":"南京西路288号创兴金融中心","type":"政府机构及社会团体;外国机构;外国机构相关","typecode":130200,"pcode":310000,"pname":"上海市","citycode":21,"cityname":"上海市","adcode":310101,"adname":"黄浦区","business_area":"北京东路","location":"121.470238,31.232396","tel":"[]","bigType":"政府机构及社会团体","midType":"外国机构","smallType":"外国机构相关","gcj_lng":121.470238,"gcj_lat":31.232396,"wgs84_loc":"121.465704,31.234328","wgs84Lng":121.465704,"wgs84Lat":31.234328,"__source_file__":"13-常用公服设施点/CSV/上海市_外国机构.csv"},"geometry":{"type":"Point","coordinates":[121.465704,31.234328]}},{"id":"154","type":"Feature","properties":{"id":"B00155GHKU","name":"尼泊尔联邦民主共和国驻上海名誉领事馆签证处","address":"北京西路669东展商业大厦16-A","type":"政府机构及社会团体;外国机构;外国使领馆","typecode":130201,"pcode":310000,"pname":"上海市","citycode":21,"cityname":"上海市","adcode":310106,"adname":"静安区","business_area":"淮海路","location":"121.461856,31.232655","tel":"021-62720259","bigType":"政府机构及社会团体","midType":"外国机构","smallType":"外国使领馆","gcj_lng":121.461856,"gcj_lat":31.232655,"wgs84_loc":"121.457296,31.234566","wgs84Lng":121.457296,"wgs84Lat":31.234566,"__source_file__":"13-常用公服设施点/CSV/上海市_外国机构.csv"},"geometry":{"type":"Point","coordinates":[121.457296,31.234566]}},{"id":"2","type":"Feature","properties":{"id":"B0JUT7OV7J","name":"委内瑞拉玻利瓦尔共和国驻上海总领事馆","address":"人民路300号D座1001(豫园地铁站7号口步行300米)","type":"政府机构及社会团体;外国机构;外国使领馆","typecode":130201,"pcode":310000,"pname":"上海市","citycode":21,"cityname":"上海市","adcode":310101,"adname":"黄浦区","business_area":"北京路","location":"121.493535,31.229874","tel":"[]","bigType":"政府机构及社会团体","midType":"外国机构","smallType":"外国使领馆","gcj_lng":121.493535,"gcj_lat":31.229874,"wgs84_loc":"121.48908,31.231874","wgs84Lng":121.48908,"wgs84Lat":31.231874,"__source_file__":"13-常用公服设施点/CSV/上海市_外国机构.csv"},"geometry":{"type":"Point","coordinates":[121.48908,31.231874]}},{"id":"87","type":"Feature","properties":{"id":"B0FFHVR89V","name":"南非驻上海总领事馆-签证处","address":"延安东路222号外滩中心27层2705/2706室","type":"政府机构及社会团体;外国机构;外国使领馆","typecode":130201,"pcode":310000,"pname":"上海市","citycode":21,"cityname":"上海市","adcode":310101,"adname":"黄浦区","business_area":"北京东路","location":"121.487627,31.232369","tel":"021-53594977","bigType":"政府机构及社会团体","midType":"外国机构","smallType":"外国使领馆","gcj_lng":121.487627,"gcj_lat":31.232369,"wgs84_loc":"121.483151,31.23435","wgs84Lng":121.483151,"wgs84Lat":31.23435,"__source_file__":"13-常用公服设施点/CSV/上海市_外国机构.csv"},"geometry":{"type":"Point","coordinates":[121.483151,31.23435]}},{"id":"74","type":"Feature","properties":{"id":"B0FFGB0WR1","name":"挪威驻上海总领事馆","address":"延安东路222号外滩中心1701室","type":"政府机构及社会团体;外国机构;外国使领馆","typecode":130201,"pcode":310000,"pname":"上海市","citycode":21,"cityname":"上海市","adcode":310101,"adname":"黄浦区","business_area":"北京东路","location":"121.487495,31.232570","tel":"021-60397500","bigType":"政府机构及社会团体","midType":"外国机构","smallType":"外国使领馆","gcj_lng":121.487495,"gcj_lat":31.23257,"wgs84_loc":"121.483019,31.234551","wgs84Lng":121.483019,"wgs84Lat":31.234551,"__source_file__":"13-常用公服设施点/CSV/上海市_外国机构.csv"},"geometry":{"type":"Point","coordinates":[121.483019,31.234551]}},{"id":"76","type":"Feature","properties":{"id":"B0FFGEQZWA","name":"南非共和国驻上海总领事馆","address":"延安东路222号外滩中心2706室","type":"政府机构及社会团体;外国机构;外国使领馆","typecode":130201,"pcode":310000,"pname":"上海市","citycode":21,"cityname":"上海市","adcode":310101,"adname":"黄浦区","business_area":"北京东路","location":"121.487515,31.232581","tel":"021-53594977","bigType":"政府机构及社会团体","midType":"外国机构","smallType":"外国使领馆","gcj_lng":121.487515,"gcj_lat":31.232581,"wgs84_loc":"121.483039,31.234562","wgs84Lng":121.483039,"wgs84Lat":31.234562,"__source_file__":"13-常用公服设施点/CSV/上海市_外国机构.csv"},"geometry":{"type":"Point","coordinates":[121.483039,31.234562]}},{"id":"72","type":"Feature","properties":{"id":"B00156EC6I","name":"阿根廷共和国驻上海总领事馆","address":"延安东路58高登金融大厦1202","type":"政府机构及社会团体;外国机构;外国使领馆","typecode":130201,"pcode":310000,"pname":"上海市","citycode":21,"cityname":"上海市","adcode":310101,"adname":"黄浦区","business_area":"北京东路","location":"121.490441,31.233276","tel":"021-63390322","bigType":"政府机构及社会团体","midType":"外国机构","smallType":"外国使领馆","gcj_lng":121.490441,"gcj_lat":31.233276,"wgs84_loc":"121.485975,31.235265","wgs84Lng":121.485975,"wgs84Lat":31.235265,"__source_file__":"13-常用公服设施点/CSV/上海市_外国机构.csv"},"geometry":{"type":"Point","coordinates":[121.485975,31.235265]}},{"id":"132","type":"Feature","properties":{"id":"B0FFHGSHT4","name":"澳洲签证中心","address":"四川中路久事商务大厦","type":"政府机构及社会团体;外国机构;外国机构相关","typecode":130200,"pcode":310000,"pname":"上海市","citycode":21,"cityname":"上海市","adcode":310101,"adname":"黄浦区","business_area":"北京东路","location":"121.488182,31.235862","tel":"[]","bigType":"政府机构及社会团体","midType":"外国机构","smallType":"外国机构相关","gcj_lng":121.488182,"gcj_lat":31.235862,"wgs84_loc":"121.483708,31.237843","wgs84Lng":121.483708,"wgs84Lat":31.237843,"__source_file__":"13-常用公服设施点/CSV/上海市_外国机构.csv"},"geometry":{"type":"Point","coordinates":[121.483708,31.237843]}},{"id":"131","type":"Feature","properties":{"id":"B0FFFPIMBZ","name":"加拿大签证申请中心","address":"四川中路213号久事商务大厦2层","type":"政府机构及社会团体;外国机构;外国使领馆","typecode":130201,"pcode":310000,"pname":"上海市","citycode":21,"cityname":"上海市","adcode":310101,"adname":"黄浦区","business_area":"北京东路","location":"121.488318,31.236046","tel":"021-51859715","bigType":"政府机构及社会团体","midType":"外国机构","smallType":"外国使领馆","gcj_lng":121.488318,"gcj_lat":31.236046,"wgs84_loc":"121.483844,31.238027","wgs84Lng":121.483844,"wgs84Lat":31.238027,"__source_file__":"13-常用公服设施点/CSV/上海市_外国机构.csv"},"geometry":{"type":"Point","coordinates":[121.483844,31.238027]}},{"id":"83","type":"Feature","properties":{"id":"B0FFI9ZU1U","name":"澳大利亚签证申请中心","address":"四川中路213号久事商务大厦2-3楼","type":"政府机构及社会团体;外国机构;外国机构相关","typecode":130200,"pcode":310000,"pname":"上海市","citycode":21,"cityname":"上海市","adcode":310101,"adname":"黄浦区","business_area":"北京东路","location":"121.487908,31.236053","tel":"[]","bigType":"政府机构及社会团体","midType":"外国机构","smallType":"外国机构相关","gcj_lng":121.487908,"gcj_lat":31.236053,"wgs84_loc":"121.483433,31.238033","wgs84Lng":121.483433,"wgs84Lat":31.238033,"__source_file__":"13-常用公服设施点/CSV/上海市_外国机构.csv"},"geometry":{"type":"Point","coordinates":[121.483433,31.238033]}},{"id":"52","type":"Feature","properties":{"id":"B001558889","name":"英国签证申请中心","address":"四川中路213号久事商务大厦2层","type":"政府机构及社会团体;外国机构;外国使领馆","typecode":130201,"pcode":310000,"pname":"上海市","citycode":21,"cityname":"上海市","adcode":310101,"adname":"黄浦区","business_area":"北京东路","location":"121.488113,31.236057","tel":"[]","bigType":"政府机构及社会团体","midType":"外国机构","smallType":"外国使领馆","gcj_lng":121.488113,"gcj_lat":31.236057,"wgs84_loc":"121.483639,31.238038","wgs84Lng":121.483639,"wgs84Lat":31.238038,"__source_file__":"13-常用公服设施点/CSV/上海市_外国机构.csv"},"geometry":{"type":"Point","coordinates":[121.483639,31.238038]}},{"id":"51","type":"Feature","properties":{"id":"B0FFFJXEQ2","name":"意大利签证申请中心","address":"四川中路213号久事商务大厦3层","type":"政府机构及社会团体;外国机构;外国机构相关","typecode":130200,"pcode":310000,"pname":"上海市","citycode":21,"cityname":"上海市","adcode":310101,"adname":"黄浦区","business_area":"北京东路","location":"121.488119,31.236057","tel":"021-51859768","bigType":"政府机构及社会团体","midType":"外国机构","smallType":"外国机构相关","gcj_lng":121.488119,"gcj_lat":31.236057,"wgs84_loc":"121.483645,31.238038","wgs84Lng":121.483645,"wgs84Lat":31.238038,"__source_file__":"13-常用公服设施点/CSV/上海市_外国机构.csv"},"geometry":{"type":"Point","coordinates":[121.483645,31.238038]}},{"id":"62","type":"Feature","properties":{"id":"B00155KLQL","name":"澳大利亚驻上海总领事馆签证处","address":"四川中路213号久事商务大厦2层","type":"政府机构及社会团体;外国机构;外国使领馆","typecode":130201,"pcode":310000,"pname":"上海市","citycode":21,"cityname":"上海市","adcode":310101,"adname":"黄浦区","business_area":"北京东路","location":"121.488104,31.236071","tel":"[]","bigType":"政府机构及社会团体","midType":"外国机构","smallType":"外国使领馆","gcj_lng":121.488104,"gcj_lat":31.236071,"wgs84_loc":"121.48363,31.238052","wgs84Lng":121.48363,"wgs84Lat":31.238052,"__source_file__":"13-常用公服设施点/CSV/上海市_外国机构.csv"},"geometry":{"type":"Point","coordinates":[121.48363,31.238052]}},{"id":"88","type":"Feature","properties":{"id":"B0FFGY82Y1","name":"比利时签证申请中心","address":"四川中路261号久事大厦3F","type":"政府机构及社会团体;外国机构;外国机构相关","typecode":130200,"pcode":310000,"pname":"上海市","citycode":21,"cityname":"上海市","adcode":310101,"adname":"黄浦区","business_area":"北京东路","location":"121.488416,31.236075","tel":"021-65965828","bigType":"政府机构及社会团体","midType":"外国机构","smallType":"外国机构相关","gcj_lng":121.488416,"gcj_lat":31.236075,"wgs84_loc":"121.483943,31.238057","wgs84Lng":121.483943,"wgs84Lat":31.238057,"__source_file__":"13-常用公服设施点/CSV/上海市_外国机构.csv"},"geometry":{"type":"Point","coordinates":[121.483943,31.238057]}},{"id":"104","type":"Feature","properties":{"id":"B0FFM4F95I","name":"捷克签证中心","address":"四川中路213号久事商务大厦","type":"政府机构及社会团体;外国机构;外国机构相关","typecode":130200,"pcode":310000,"pname":"上海市","citycode":21,"cityname":"上海市","adcode":310101,"adname":"黄浦区","business_area":"北京东路","location":"121.488058,31.236110","tel":"[]","bigType":"政府机构及社会团体","midType":"外国机构","smallType":"外国机构相关","gcj_lng":121.488058,"gcj_lat":31.23611,"wgs84_loc":"121.483583,31.238091","wgs84Lng":121.483583,"wgs84Lat":31.238091,"__source_file__":"13-常用公服设施点/CSV/上海市_外国机构.csv"},"geometry":{"type":"Point","coordinates":[121.483583,31.238091]}},{"id":"108","type":"Feature","properties":{"id":"B0FFMAUWKZ","name":"德国签证中心","address":"汉口路与四川中路交叉口西南约60米","type":"政府机构及社会团体;外国机构;外国机构相关","typecode":130200,"pcode":310000,"pname":"上海市","citycode":21,"cityname":"上海市","adcode":310101,"adname":"黄浦区","business_area":"北京东路","location":"121.488058,31.236110","tel":"[]","bigType":"政府机构及社会团体","midType":"外国机构","smallType":"外国机构相关","gcj_lng":121.488058,"gcj_lat":31.23611,"wgs84_loc":"121.483583,31.238091","wgs84Lng":121.483583,"wgs84Lat":31.238091,"__source_file__":"13-常用公服设施点/CSV/上海市_外国机构.csv"},"geometry":{"type":"Point","coordinates":[121.483583,31.238091]}},{"id":"143","type":"Feature","properties":{"id":"B0FFI03HEI","name":"挪威签证申请中心","address":"四川中路213号久事商务大厦3层","type":"政府机构及社会团体;外国机构;外国机构相关","typecode":130200,"pcode":310000,"pname":"上海市","citycode":21,"cityname":"上海市","adcode":310101,"adname":"黄浦区","business_area":"北京东路","location":"121.488095,31.236126","tel":"[]","bigType":"政府机构及社会团体","midType":"外国机构","smallType":"外国机构相关","gcj_lng":121.488095,"gcj_lat":31.236126,"wgs84_loc":"121.483621,31.238107","wgs84Lng":121.483621,"wgs84Lat":31.238107,"__source_file__":"13-常用公服设施点/CSV/上海市_外国机构.csv"},"geometry":{"type":"Point","coordinates":[121.483621,31.238107]}},{"id":"138","type":"Feature","properties":{"id":"B0FFG94SOH","name":"新西兰联合签证申请中心","address":"四川中路213号久事商务大厦","type":"政府机构及社会团体;外国机构;外国机构相关","typecode":130200,"pcode":310000,"pname":"上海市","citycode":21,"cityname":"上海市","adcode":310101,"adname":"黄浦区","business_area":"北京东路","location":"121.488362,31.236129","tel":"[]","bigType":"政府机构及社会团体","midType":"外国机构","smallType":"外国机构相关","gcj_lng":121.488362,"gcj_lat":31.236129,"wgs84_loc":"121.483889,31.23811","wgs84Lng":121.483889,"wgs84Lat":31.23811,"__source_file__":"13-常用公服设施点/CSV/上海市_外国机构.csv"},"geometry":{"type":"Point","coordinates":[121.483889,31.23811]}},{"id":"71","type":"Feature","properties":{"id":"B0FFGRRN12","name":"丹麦签证申请中心","address":"四川中路213号久事商务大厦3层","type":"政府机构及社会团体;外国机构;外国使领馆","typecode":130201,"pcode":310000,"pname":"上海市","citycode":21,"cityname":"上海市","adcode":310101,"adname":"黄浦区","business_area":"北京东路","location":"121.488034,31.236132","tel":"[]","bigType":"政府机构及社会团体","midType":"外国机构","smallType":"外国使领馆","gcj_lng":121.488034,"gcj_lat":31.236132,"wgs84_loc":"121.483559,31.238112","wgs84Lng":121.483559,"wgs84Lat":31.238112,"__source_file__":"13-常用公服设施点/CSV/上海市_外国机构.csv"},"geometry":{"type":"Point","coordinates":[121.483559,31.238112]}},{"id":"177","type":"Feature","properties":{"id":"B0FFHYGNVE","name":"希腊签证申请中心","address":"四川中路213号4层","type":"政府机构及社会团体;外国机构;外国使领馆","typecode":130201,"pcode":310000,"pname":"上海市","citycode":21,"cityname":"上海市","adcode":310101,"adname":"黄浦区","business_area":"北京东路","location":"121.488251,31.236157","tel":"021-65965813","bigType":"政府机构及社会团体","midType":"外国机构","smallType":"外国使领馆","gcj_lng":121.488251,"gcj_lat":31.236157,"wgs84_loc":"121.483777,31.238138","wgs84Lng":121.483777,"wgs84Lat":31.238138,"__source_file__":"13-常用公服设施点/CSV/上海市_外国机构.csv"},"geometry":{"type":"Point","coordinates":[121.483777,31.238138]}},{"id":"133","type":"Feature","properties":{"id":"B0FFICGVNB","name":"芬兰签证中心","address":"四川中路213号久事商务大厦底楼2号门","type":"政府机构及社会团体;外国机构;外国机构相关","typecode":130200,"pcode":310000,"pname":"上海市","citycode":21,"cityname":"上海市","adcode":310101,"adname":"黄浦区","business_area":"北京东路","location":"121.488020,31.236200","tel":"[]","bigType":"政府机构及社会团体","midType":"外国机构","smallType":"外国机构相关","gcj_lng":121.48802,"gcj_lat":31.2362,"wgs84_loc":"121.483545,31.23818","wgs84Lng":121.483545,"wgs84Lat":31.23818,"__source_file__":"13-常用公服设施点/CSV/上海市_外国机构.csv"},"geometry":{"type":"Point","coordinates":[121.483545,31.23818]}},{"id":"129","type":"Feature","properties":{"id":"B0FFICIFBF","name":"俄罗斯签证中心","address":"四川中路213号久事商务大厦4层","type":"政府机构及社会团体;外国机构;外国使领馆","typecode":130201,"pcode":310000,"pname":"上海市","citycode":21,"cityname":"上海市","adcode":310101,"adname":"黄浦区","business_area":"北京东路","location":"121.487989,31.236380","tel":"[]","bigType":"政府机构及社会团体","midType":"外国机构","smallType":"外国使领馆","gcj_lng":121.487989,"gcj_lat":31.23638,"wgs84_loc":"121.483514,31.23836","wgs84Lng":121.483514,"wgs84Lat":31.23836,"__source_file__":"13-常用公服设施点/CSV/上海市_外国机构.csv"},"geometry":{"type":"Point","coordinates":[121.483514,31.23836]}},{"id":"75","type":"Feature","properties":{"id":"B00157HWV0","name":"以色列国驻上海总领事馆","address":"福州路318号浦汇大厦13层","type":"政府机构及社会团体;外国机构;外国使领馆","typecode":130201,"pcode":310000,"pname":"上海市","citycode":21,"cityname":"上海市","adcode":310101,"adname":"黄浦区","business_area":"北京东路","location":"121.484148,31.234803","tel":"021-60102500","bigType":"政府机构及社会团体","midType":"外国机构","smallType":"外国使领馆","gcj_lng":121.484148,"gcj_lat":31.234803,"wgs84_loc":"121.47966,31.236773","wgs84Lng":121.47966,"wgs84Lat":31.236773,"__source_file__":"13-常用公服设施点/CSV/上海市_外国机构.csv"},"geometry":{"type":"Point","coordinates":[121.47966,31.236773]}},{"id":"3","type":"Feature","properties":{"id":"B001556SEX","name":"德国驻上海总领事馆文化教育处","address":"福州路318号浦汇大厦1层","type":"政府机构及社会团体;外国机构;外国使领馆","typecode":130201,"pcode":310000,"pname":"上海市","citycode":21,"cityname":"上海市","adcode":310101,"adname":"黄浦区","business_area":"北京路","location":"121.484243,31.235094","tel":"021-63912068","bigType":"政府机构及社会团体","midType":"外国机构","smallType":"外国使领馆","gcj_lng":121.484243,"gcj_lat":31.235094,"wgs84_loc":"121.479755,31.237064","wgs84Lng":121.479755,"wgs84Lat":31.237064,"__source_file__":"13-常用公服设施点/CSV/上海市_外国机构.csv"},"geometry":{"type":"Point","coordinates":[121.479755,31.237064]}},{"id":"112","type":"Feature","properties":{"id":"B0FFLHW3S8","name":"荷兰签证受理中心","address":"恒丰路299号隆宇国际商务广场8层","type":"政府机构及社会团体;外国机构;外国机构相关","typecode":130200,"pcode":310000,"pname":"上海市","citycode":21,"cityname":"上海市","adcode":310106,"adname":"静安区","business_area":"[]","location":"121.457185,31.242502","tel":"[]","bigType":"政府机构及社会团体","midType":"外国机构","smallType":"外国机构相关","gcj_lng":121.457185,"gcj_lat":31.242502,"wgs84_loc":"121.452611,31.244397","wgs84Lng":121.452611,"wgs84Lat":31.244397,"__source_file__":"13-常用公服设施点/CSV/上海市_外国机构.csv"},"geometry":{"type":"Point","coordinates":[121.452611,31.244397]}},{"id":"64","type":"Feature","properties":{"id":"B00155EHPQ","name":"柬埔寨王国驻上海总领事馆","address":"天目中路253-267号蓝宝石大厦A座12层","type":"政府机构及社会团体;外国机构;外国使领馆","typecode":130201,"pcode":310000,"pname":"上海市","citycode":21,"cityname":"上海市","adcode":310106,"adname":"静安区","business_area":"宝山路","location":"121.470255,31.246819","tel":"021-51015850;021-51015866","bigType":"政府机构及社会团体","midType":"外国机构","smallType":"外国使领馆","gcj_lng":121.470255,"gcj_lat":31.246819,"wgs84_loc":"121.465719,31.248745","wgs84Lng":121.465719,"wgs84Lat":31.248745,"__source_file__":"13-常用公服设施点/CSV/上海市_外国机构.csv"},"geometry":{"type":"Point","coordinates":[121.465719,31.248745]}},{"id":"46","type":"Feature","properties":{"id":"B00155E705","name":"俄罗斯联邦驻上海总领事馆","address":"北外滩街道ZAKHAROV PAVEL黄浦路20号(黄浦路金山路)","type":"政府机构及社会团体;外国机构;外国使领馆","typecode":130201,"pcode":310000,"pname":"上海市","citycode":21,"cityname":"上海市","adcode":310109,"adname":"虹口区","business_area":"提篮桥","location":"121.490862,31.243813","tel":"021-63242682","bigType":"政府机构及社会团体","midType":"外国机构","smallType":"外国使领馆","gcj_lng":121.490862,"gcj_lat":31.243813,"wgs84_loc":"121.486397,31.245798","wgs84Lng":121.486397,"wgs84Lat":31.245798,"__source_file__":"13-常用公服设施点/CSV/上海市_外国机构.csv"},"geometry":{"type":"Point","coordinates":[121.486397,31.245798]}},{"id":"49","type":"Feature","properties":{"id":"B0FFHIA6AE","name":"俄罗斯驻上海总领事馆-签证处","address":"黄浦路20号","type":"政府机构及社会团体;外国机构;外国使领馆","typecode":130201,"pcode":310000,"pname":"上海市","citycode":21,"cityname":"上海市","adcode":310109,"adname":"虹口区","business_area":"提篮桥","location":"121.490920,31.243849","tel":"[]","bigType":"政府机构及社会团体","midType":"外国机构","smallType":"外国使领馆","gcj_lng":121.49092,"gcj_lat":31.243849,"wgs84_loc":"121.486455,31.245835","wgs84Lng":121.486455,"wgs84Lat":31.245835,"__source_file__":"13-常用公服设施点/CSV/上海市_外国机构.csv"},"geometry":{"type":"Point","coordinates":[121.486455,31.245835]}},{"id":"48","type":"Feature","properties":{"id":"B00155GMO4","name":"乌兹别克斯坦共和国驻上海总领事馆","address":"吴淞路258号耀江国际广场801室","type":"政府机构及社会团体;外国机构;外国使领馆","typecode":130201,"pcode":310000,"pname":"上海市","citycode":21,"cityname":"上海市","adcode":310109,"adname":"虹口区","business_area":"提篮桥","location":"121.489936,31.249785","tel":"021-63071896","bigType":"政府机构及社会团体","midType":"外国机构","smallType":"外国使领馆","gcj_lng":121.489936,"gcj_lat":31.249785,"wgs84_loc":"121.485467,31.251765","wgs84Lng":121.485467,"wgs84Lat":31.251765,"__source_file__":"13-常用公服设施点/CSV/上海市_外国机构.csv"},"geometry":{"type":"Point","coordinates":[121.485467,31.251765]}},{"id":"47","type":"Feature","properties":{"id":"B0FFHSIKE0","name":"希腊驻上海总领事馆","address":"四川北路1350号利通广场2201室","type":"政府机构及社会团体;外国机构;外国使领馆","typecode":130201,"pcode":310000,"pname":"上海市","citycode":21,"cityname":"上海市","adcode":310109,"adname":"虹口区","business_area":"宝山路","location":"121.484920,31.252956","tel":"[]","bigType":"政府机构及社会团体","midType":"外国机构","smallType":"外国使领馆","gcj_lng":121.48492,"gcj_lat":31.252956,"wgs84_loc":"121.480433,31.25492","wgs84Lng":121.480433,"wgs84Lat":31.25492,"__source_file__":"13-常用公服设施点/CSV/上海市_外国机构.csv"},"geometry":{"type":"Point","coordinates":[121.480433,31.25492]}}],"name":"上海市_外国机构","crs":{"type":"name","properties":{"name":"urn:ogc:def:crs:OGC:1.3:CRS84"}}}