{"type":"FeatureCollection","features":[{"id":"57","type":"Feature","properties":{"id":"B0IUG7ONMS","name":"东方海外大厦核酸采样点(暂停营业)","address":"延安中路841号","type":"医疗保健服务;核酸检测;核酸检测","typecode":90800,"pcode":310000,"pname":"上海市","citycode":21,"cityname":"上海市","adcode":310106,"adname":"静安区","business_area":"淮海路","location":"121.454221,31.222904","tel":"[]","bigType":"医疗保健服务","midType":"核酸检测","smallType":"核酸检测","gcj_lng":121.454221,"gcj_lat":31.222904,"wgs84_loc":"121.449641,31.224802","wgs84Lng":121.449641,"wgs84Lat":31.224802,"__source_file__":"13-常用公服设施点/CSV/上海市_核酸检测.csv"},"geometry":{"type":"Point","coordinates":[121.449641,31.224802]}},{"id":"24","type":"Feature","properties":{"id":"B0ID0CLKND","name":"大沽路小区核酸采样点","address":"重庆北路大沽路路口","type":"医疗保健服务;核酸检测;核酸检测","typecode":90800,"pcode":310000,"pname":"上海市","citycode":21,"cityname":"上海市","adcode":310101,"adname":"黄浦区","business_area":"北京东路","location":"121.470104,31.225750","tel":"[]","bigType":"医疗保健服务","midType":"核酸检测","smallType":"核酸检测","gcj_lng":121.470104,"gcj_lat":31.22575,"wgs84_loc":"121.46557,31.227685","wgs84Lng":121.46557,"wgs84Lat":31.227685,"__source_file__":"13-常用公服设施点/CSV/上海市_核酸检测.csv"},"geometry":{"type":"Point","coordinates":[121.46557,31.227685]}},{"id":"46","type":"Feature","properties":{"id":"B0IUG7LCS0","name":"南京西路街道社区卫生服务中心核酸采样点","address":"成都北路137号","type":"医疗保健服务;核酸检测;核酸检测","typecode":90800,"pcode":310000,"pname":"上海市","citycode":21,"cityname":"上海市","adcode":310106,"adname":"静安区","business_area":"淮海路","location":"121.467113,31.226433","tel":"[]","bigType":"医疗保健服务","midType":"核酸检测","smallType":"核酸检测","gcj_lng":121.467113,"gcj_lat":31.226433,"wgs84_loc":"121.462569,31.22836","wgs84Lng":121.462569,"wgs84Lat":31.22836,"__source_file__":"13-常用公服设施点/CSV/上海市_核酸检测.csv"},"geometry":{"type":"Point","coordinates":[121.462569,31.22836]}},{"id":"47","type":"Feature","properties":{"id":"B0IUG7N6R8","name":"国泰君安总部侧门核酸采样点","address":"凤阳路奉贤路口(南京西路地铁站5号口步行230米)","type":"医疗保健服务;核酸检测;核酸检测","typecode":90800,"pcode":310000,"pname":"上海市","citycode":21,"cityname":"上海市","adcode":310106,"adname":"静安区","business_area":"淮海路","location":"121.463210,31.231638","tel":"[]","bigType":"医疗保健服务","midType":"核酸检测","smallType":"核酸检测","gcj_lng":121.46321,"gcj_lat":31.231638,"wgs84_loc":"121.458654,31.233552","wgs84Lng":121.458654,"wgs84Lat":31.233552,"__source_file__":"13-常用公服设施点/CSV/上海市_核酸检测.csv"},"geometry":{"type":"Point","coordinates":[121.458654,31.233552]}},{"id":"22","type":"Feature","properties":{"id":"B0IUG7M5LV","name":"上海长征医院核酸采样点","address":"凤阳路415号","type":"医疗保健服务;核酸检测;核酸检测","typecode":90800,"pcode":310000,"pname":"上海市","citycode":21,"cityname":"上海市","adcode":310101,"adname":"黄浦区","business_area":"淮海路","location":"121.467107,31.232847","tel":"[]","bigType":"医疗保健服务","midType":"核酸检测","smallType":"核酸检测","gcj_lng":121.467107,"gcj_lat":31.232847,"wgs84_loc":"121.462563,31.234771","wgs84Lng":121.462563,"wgs84Lat":31.234771,"__source_file__":"13-常用公服设施点/CSV/上海市_核酸检测.csv"},"geometry":{"type":"Point","coordinates":[121.462563,31.234771]}},{"id":"49","type":"Feature","properties":{"id":"B0IUG7ONE6","name":"雕塑公园1号门外公共空间核酸采样点","address":"石门二路128号(南京西路地铁站11号口步行320米)","type":"医疗保健服务;核酸检测;核酸检测","typecode":90800,"pcode":310000,"pname":"上海市","citycode":21,"cityname":"上海市","adcode":310106,"adname":"静安区","business_area":"淮海路","location":"121.461493,31.233108","tel":"[]","bigType":"医疗保健服务","midType":"核酸检测","smallType":"核酸检测","gcj_lng":121.461493,"gcj_lat":31.233108,"wgs84_loc":"121.456932,31.235018","wgs84Lng":121.456932,"wgs84Lat":31.235018,"__source_file__":"13-常用公服设施点/CSV/上海市_核酸检测.csv"},"geometry":{"type":"Point","coordinates":[121.456932,31.235018]}},{"id":"50","type":"Feature","properties":{"id":"B0IUG7K48P","name":"石门二路街道社区卫生服务中心核酸采样点","address":"山海关路456号(自然博物馆地铁站2号口步行90米)","type":"医疗保健服务;核酸检测;核酸检测","typecode":90800,"pcode":310000,"pname":"上海市","citycode":21,"cityname":"上海市","adcode":310106,"adname":"静安区","business_area":"淮海路","location":"121.461502,31.235353","tel":"[]","bigType":"医疗保健服务","midType":"核酸检测","smallType":"核酸检测","gcj_lng":121.461502,"gcj_lat":31.235353,"wgs84_loc":"121.456941,31.237262","wgs84Lng":121.456941,"wgs84Lat":31.237262,"__source_file__":"13-常用公服设施点/CSV/上海市_核酸检测.csv"},"geometry":{"type":"Point","coordinates":[121.456941,31.237262]}},{"id":"53","type":"Feature","properties":{"id":"B0IUG7NM0W","name":"石门二路街道社区党群服务中心核酸采样点","address":"石门二路347号(自然博物馆地铁站3号口步行430米)","type":"医疗保健服务;核酸检测;核酸检测","typecode":90800,"pcode":310000,"pname":"上海市","citycode":21,"cityname":"上海市","adcode":310106,"adname":"静安区","business_area":"淮海路","location":"121.459294,31.236608","tel":"[]","bigType":"医疗保健服务","midType":"核酸检测","smallType":"核酸检测","gcj_lng":121.459294,"gcj_lat":31.236608,"wgs84_loc":"121.454727,31.238511","wgs84Lng":121.454727,"wgs84Lat":31.238511,"__source_file__":"13-常用公服设施点/CSV/上海市_核酸检测.csv"},"geometry":{"type":"Point","coordinates":[121.454727,31.238511]}},{"id":"48","type":"Feature","properties":{"id":"B0IUG7ONDH","name":"四行仓库纪念广场核酸采样点","address":"晋元路光复路口(曲阜路地铁站3号口步行300米)","type":"医疗保健服务;核酸检测;核酸检测","typecode":90800,"pcode":310000,"pname":"上海市","citycode":21,"cityname":"上海市","adcode":310106,"adname":"静安区","business_area":"北京东路","location":"121.470422,31.240488","tel":"[]","bigType":"医疗保健服务","midType":"核酸检测","smallType":"核酸检测","gcj_lng":121.470422,"gcj_lat":31.240488,"wgs84_loc":"121.465888,31.242417","wgs84Lng":121.465888,"wgs84Lat":31.242417,"__source_file__":"13-常用公服设施点/CSV/上海市_核酸检测.csv"},"geometry":{"type":"Point","coordinates":[121.465888,31.242417]}},{"id":"51","type":"Feature","properties":{"id":"B0IUG7KXNX","name":"北站街道议法空间核酸采样点","address":"[]","type":"医疗保健服务;核酸检测;核酸检测","typecode":90800,"pcode":310000,"pname":"上海市","citycode":21,"cityname":"上海市","adcode":310106,"adname":"静安区","business_area":"七浦路","location":"121.469869,31.243242","tel":"[]","bigType":"医疗保健服务","midType":"核酸检测","smallType":"核酸检测","gcj_lng":121.469869,"gcj_lat":31.243242,"wgs84_loc":"121.465333,31.245168","wgs84Lng":121.465333,"wgs84Lat":31.245168,"__source_file__":"13-常用公服设施点/CSV/上海市_核酸检测.csv"},"geometry":{"type":"Point","coordinates":[121.465333,31.245168]}},{"id":"59","type":"Feature","properties":{"id":"B0IUG7JX2W","name":"静安公园核酸采样点(暂停营业)","address":"南京西路1649号(静安寺地铁站2号口步行110米)","type":"医疗保健服务;核酸检测;核酸检测","typecode":90800,"pcode":310000,"pname":"上海市","citycode":21,"cityname":"上海市","adcode":310106,"adname":"静安区","business_area":"曹家渡","location":"121.446611,31.223035","tel":"[]","bigType":"医疗保健服务","midType":"核酸检测","smallType":"核酸检测","gcj_lng":121.446611,"gcj_lat":31.223035,"wgs84_loc":"121.442012,31.224917","wgs84Lng":121.442012,"wgs84Lat":31.224917,"__source_file__":"13-常用公服设施点/CSV/上海市_核酸检测.csv"},"geometry":{"type":"Point","coordinates":[121.442012,31.224917]}},{"id":"56","type":"Feature","properties":{"id":"B0IUG7ONX8","name":"西康路661号全家门口核酸采样点","address":"西康路661号全家便利店门口(节假日、双休日暂停开放)","type":"医疗保健服务;核酸检测;核酸检测","typecode":90800,"pcode":310000,"pname":"上海市","citycode":21,"cityname":"上海市","adcode":310106,"adname":"静安区","business_area":"曹家渡","location":"121.445620,31.235373","tel":"[]","bigType":"医疗保健服务","midType":"核酸检测","smallType":"核酸检测","gcj_lng":121.44562,"gcj_lat":31.235373,"wgs84_loc":"121.441018,31.237247","wgs84Lng":121.441018,"wgs84Lat":31.237247,"__source_file__":"13-常用公服设施点/CSV/上海市_核酸检测.csv"},"geometry":{"type":"Point","coordinates":[121.441018,31.237247]}},{"id":"65","type":"Feature","properties":{"id":"B0IR5Z015T","name":"中港汇核酸采样点","address":"长寿路868号(武宁路地铁站2号口步行140米)","type":"医疗保健服务;核酸检测;核酸检测","typecode":90800,"pcode":310000,"pname":"上海市","citycode":21,"cityname":"上海市","adcode":310107,"adname":"普陀区","business_area":"曹家渡","location":"121.430506,31.235537","tel":"[]","bigType":"医疗保健服务","midType":"核酸检测","smallType":"核酸检测","gcj_lng":121.430506,"gcj_lat":31.235537,"wgs84_loc":"121.425876,31.237387","wgs84Lng":121.425876,"wgs84Lat":31.237387,"__source_file__":"13-常用公服设施点/CSV/上海市_核酸检测.csv"},"geometry":{"type":"Point","coordinates":[121.425876,31.237387]}},{"id":"61","type":"Feature","properties":{"id":"B0IUG7O873","name":"梅芳里居委核酸采样点","address":"长寿路433弄,长寿苑门口(长寿路地铁站7号口步行220米)","type":"医疗保健服务;核酸检测;核酸检测","typecode":90800,"pcode":310000,"pname":"上海市","citycode":21,"cityname":"上海市","adcode":310107,"adname":"普陀区","business_area":"曹家渡","location":"121.436133,31.238550","tel":"[]","bigType":"医疗保健服务","midType":"核酸检测","smallType":"核酸检测","gcj_lng":121.436133,"gcj_lat":31.23855,"wgs84_loc":"121.431512,31.240407","wgs84Lng":121.431512,"wgs84Lat":31.240407,"__source_file__":"13-常用公服设施点/CSV/上海市_核酸检测.csv"},"geometry":{"type":"Point","coordinates":[121.431512,31.240407]}},{"id":"64","type":"Feature","properties":{"id":"B0IUG7MSR2","name":"上青佳园居委核酸采样点","address":"澳门路727花坛边","type":"医疗保健服务;核酸检测;核酸检测","typecode":90800,"pcode":310000,"pname":"上海市","citycode":21,"cityname":"上海市","adcode":310107,"adname":"普陀区","business_area":"曹家渡","location":"121.436046,31.242253","tel":"[]","bigType":"医疗保健服务","midType":"核酸检测","smallType":"核酸检测","gcj_lng":121.436046,"gcj_lat":31.242253,"wgs84_loc":"121.431424,31.244108","wgs84Lng":121.431424,"wgs84Lat":31.244108,"__source_file__":"13-常用公服设施点/CSV/上海市_核酸检测.csv"},"geometry":{"type":"Point","coordinates":[121.431424,31.244108]}},{"id":"60","type":"Feature","properties":{"id":"B0IUG7M6OX","name":"河滨围城核酸采样点","address":"澳门路280号邮政银行门口","type":"医疗保健服务;核酸检测;核酸检测","typecode":90800,"pcode":310000,"pname":"上海市","citycode":21,"cityname":"上海市","adcode":310107,"adname":"普陀区","business_area":"光新","location":"121.443876,31.247166","tel":"[]","bigType":"医疗保健服务","midType":"核酸检测","smallType":"核酸检测","gcj_lng":121.443876,"gcj_lat":31.247166,"wgs84_loc":"121.439269,31.249032","wgs84Lng":121.439269,"wgs84Lat":31.249032,"__source_file__":"13-常用公服设施点/CSV/上海市_核酸检测.csv"},"geometry":{"type":"Point","coordinates":[121.439269,31.249032]}},{"id":"67","type":"Feature","properties":{"id":"B0IUG7LJPM","name":"秋月二期核酸采样点","address":"中山北路秋月步行街","type":"医疗保健服务;核酸检测;核酸检测","typecode":90800,"pcode":310000,"pname":"上海市","citycode":21,"cityname":"上海市","adcode":310107,"adname":"普陀区","business_area":"光新","location":"121.429091,31.247371","tel":"[]","bigType":"医疗保健服务","midType":"核酸检测","smallType":"核酸检测","gcj_lng":121.429091,"gcj_lat":31.247371,"wgs84_loc":"121.424457,31.249214","wgs84Lng":121.424457,"wgs84Lat":31.249214,"__source_file__":"13-常用公服设施点/CSV/上海市_核酸检测.csv"},"geometry":{"type":"Point","coordinates":[121.424457,31.249214]}},{"id":"66","type":"Feature","properties":{"id":"B0IUG7O0AM","name":"中一国际大厦核酸采样点(暂停营业)","address":"光新路88号","type":"医疗保健服务;核酸检测;核酸检测","typecode":90800,"pcode":310000,"pname":"上海市","citycode":21,"cityname":"上海市","adcode":310107,"adname":"普陀区","business_area":"光新","location":"121.433062,31.250663","tel":"[]","bigType":"医疗保健服务","midType":"核酸检测","smallType":"核酸检测","gcj_lng":121.433062,"gcj_lat":31.250663,"wgs84_loc":"121.428434,31.25251","wgs84Lng":121.428434,"wgs84Lat":31.25251,"__source_file__":"13-常用公服设施点/CSV/上海市_核酸检测.csv"},"geometry":{"type":"Point","coordinates":[121.428434,31.25251]}},{"id":"26","type":"Feature","properties":{"id":"B0IUG7ONRY","name":"淮海公园核酸采样点","address":"普安路南50米处近淮海中路(大世界地铁站3号口步行400米)","type":"医疗保健服务;核酸检测;核酸检测","typecode":90800,"pcode":310000,"pname":"上海市","citycode":21,"cityname":"上海市","adcode":310101,"adname":"黄浦区","business_area":"淮海路","location":"121.477687,31.223964","tel":"[]","bigType":"医疗保健服务","midType":"核酸检测","smallType":"核酸检测","gcj_lng":121.477687,"gcj_lat":31.223964,"wgs84_loc":"121.473178,31.22592","wgs84Lng":121.473178,"wgs84Lat":31.22592,"__source_file__":"13-常用公服设施点/CSV/上海市_核酸检测.csv"},"geometry":{"type":"Point","coordinates":[121.473178,31.22592]}},{"id":"25","type":"Feature","properties":{"id":"B0IUG7MECV","name":"海洋大厦核酸采样点","address":"浙江中路北海路路口","type":"医疗保健服务;核酸检测;核酸检测","typecode":90800,"pcode":310000,"pname":"上海市","citycode":21,"cityname":"上海市","adcode":310101,"adname":"黄浦区","business_area":"北京东路","location":"121.481324,31.230912","tel":"[]","bigType":"医疗保健服务","midType":"核酸检测","smallType":"核酸检测","gcj_lng":121.481324,"gcj_lat":31.230912,"wgs84_loc":"121.476826,31.232875","wgs84Lng":121.476826,"wgs84Lat":31.232875,"__source_file__":"13-常用公服设施点/CSV/上海市_核酸检测.csv"},"geometry":{"type":"Point","coordinates":[121.476826,31.232875]}},{"id":"20","type":"Feature","properties":{"id":"B0IUUHU12S","name":"地铁16号口核酸采样点","address":"[]","type":"医疗保健服务;核酸检测;核酸检测","typecode":90800,"pcode":310000,"pname":"上海市","citycode":21,"cityname":"上海市","adcode":310101,"adname":"黄浦区","business_area":"北京东路","location":"121.475600,31.232242","tel":"[]","bigType":"医疗保健服务","midType":"核酸检测","smallType":"核酸检测","gcj_lng":121.4756,"gcj_lat":31.232242,"wgs84_loc":"121.471083,31.234189","wgs84Lng":121.471083,"wgs84Lat":31.234189,"__source_file__":"13-常用公服设施点/CSV/上海市_核酸检测.csv"},"geometry":{"type":"Point","coordinates":[121.471083,31.234189]}},{"id":"28","type":"Feature","properties":{"id":"B0IUG7MEF2","name":"威斯汀酒店核酸采样点","address":"河南中路88号","type":"医疗保健服务;核酸检测;核酸检测","typecode":90800,"pcode":310000,"pname":"上海市","citycode":21,"cityname":"上海市","adcode":310101,"adname":"黄浦区","business_area":"北京东路","location":"121.486624,31.232357","tel":"[]","bigType":"医疗保健服务","midType":"核酸检测","smallType":"核酸检测","gcj_lng":121.486624,"gcj_lat":31.232357,"wgs84_loc":"121.482145,31.234335","wgs84Lng":121.482145,"wgs84Lat":31.234335,"__source_file__":"13-常用公服设施点/CSV/上海市_核酸检测.csv"},"geometry":{"type":"Point","coordinates":[121.482145,31.234335]}},{"id":"21","type":"Feature","properties":{"id":"B0IUG7MD8P","name":"广西北路九江路口核酸采样点","address":"广西北路近九江路口(人民广场地铁站14号口步行280米)","type":"医疗保健服务;核酸检测;核酸检测","typecode":90800,"pcode":310000,"pname":"上海市","citycode":21,"cityname":"上海市","adcode":310101,"adname":"黄浦区","business_area":"北京东路","location":"121.477350,31.234605","tel":"[]","bigType":"医疗保健服务","midType":"核酸检测","smallType":"核酸检测","gcj_lng":121.47735,"gcj_lat":31.234605,"wgs84_loc":"121.472839,31.236555","wgs84Lng":121.472839,"wgs84Lat":31.236555,"__source_file__":"13-常用公服设施点/CSV/上海市_核酸检测.csv"},"geometry":{"type":"Point","coordinates":[121.472839,31.236555]}},{"id":"23","type":"Feature","properties":{"id":"B0IUG7M6G5","name":"六合路室外空间核酸采样点","address":"六合路南京东路(人民广场地铁站19号口步行290米)","type":"医疗保健服务;核酸检测;核酸检测","typecode":90800,"pcode":310000,"pname":"上海市","citycode":21,"cityname":"上海市","adcode":310101,"adname":"黄浦区","business_area":"北京东路","location":"121.474877,31.236223","tel":"[]","bigType":"医疗保健服务","midType":"核酸检测","smallType":"核酸检测","gcj_lng":121.474877,"gcj_lat":31.236223,"wgs84_loc":"121.470357,31.238166","wgs84Lng":121.470357,"wgs84Lat":31.238166,"__source_file__":"13-常用公服设施点/CSV/上海市_核酸检测.csv"},"geometry":{"type":"Point","coordinates":[121.470357,31.238166]}},{"id":"27","type":"Feature","properties":{"id":"B0IUG7O0AP","name":"置地广场核酸采样点","address":"南京东路地铁站4号出口处","type":"医疗保健服务;核酸检测;核酸检测","typecode":90800,"pcode":310000,"pname":"上海市","citycode":21,"cityname":"上海市","adcode":310101,"adname":"黄浦区","business_area":"北京东路","location":"121.482750,31.236323","tel":"[]","bigType":"医疗保健服务","midType":"核酸检测","smallType":"核酸检测","gcj_lng":121.48275,"gcj_lat":31.236323,"wgs84_loc":"121.478257,31.238288","wgs84Lng":121.478257,"wgs84Lat":31.238288,"__source_file__":"13-常用公服设施点/CSV/上海市_核酸检测.csv"},"geometry":{"type":"Point","coordinates":[121.478257,31.238288]}},{"id":"77","type":"Feature","properties":{"id":"B0IUG7K3L0","name":"天潼路江西北路口核酸采样点","address":"天潼路江西北路口(天潼路地铁站3号口步行120米)","type":"医疗保健服务;核酸检测;核酸检测","typecode":90800,"pcode":310000,"pname":"上海市","citycode":21,"cityname":"上海市","adcode":310109,"adname":"虹口区","business_area":"北外滩","location":"121.483785,31.244364","tel":"[]","bigType":"医疗保健服务","midType":"核酸检测","smallType":"核酸检测","gcj_lng":121.483785,"gcj_lat":31.244364,"wgs84_loc":"121.479295,31.246328","wgs84Lng":121.479295,"wgs84Lat":31.246328,"__source_file__":"13-常用公服设施点/CSV/上海市_核酸检测.csv"},"geometry":{"type":"Point","coordinates":[121.479295,31.246328]}},{"id":"78","type":"Feature","properties":{"id":"B0IUG7M6K2","name":"四川北路街道社区卫生服务中心核酸采样点","address":"塘沽路300号","type":"医疗保健服务;核酸检测;核酸检测","typecode":90800,"pcode":310000,"pname":"上海市","citycode":21,"cityname":"上海市","adcode":310109,"adname":"虹口区","business_area":"北外滩","location":"121.489467,31.248125","tel":"[]","bigType":"医疗保健服务","midType":"核酸检测","smallType":"核酸检测","gcj_lng":121.489467,"gcj_lat":31.248125,"wgs84_loc":"121.484996,31.250104","wgs84Lng":121.484996,"wgs84Lat":31.250104,"__source_file__":"13-常用公服设施点/CSV/上海市_核酸检测.csv"},"geometry":{"type":"Point","coordinates":[121.484996,31.250104]}},{"id":"80","type":"Feature","properties":{"id":"B0IUG7MSO9","name":"西江湾路同心路核酸采样点","address":"西江湾路同心路路口(虹口足球场地铁站2号口步行420米)","type":"医疗保健服务;核酸检测;核酸检测","typecode":90800,"pcode":310000,"pname":"上海市","citycode":21,"cityname":"上海市","adcode":310109,"adname":"虹口区","business_area":"宝山路","location":"121.478118,31.266477","tel":"[]","bigType":"医疗保健服务","midType":"核酸检测","smallType":"核酸检测","gcj_lng":121.478118,"gcj_lat":31.266477,"wgs84_loc":"121.473606,31.268415","wgs84Lng":121.473606,"wgs84Lat":31.268415,"__source_file__":"13-常用公服设施点/CSV/上海市_核酸检测.csv"},"geometry":{"type":"Point","coordinates":[121.473606,31.268415]}},{"id":"54","type":"Feature","properties":{"id":"B0IUG7OVDG","name":"北站街道社区卫生服务中心核酸采样点","address":"大统路168号","type":"医疗保健服务;核酸检测;核酸检测","typecode":90800,"pcode":310000,"pname":"上海市","citycode":21,"cityname":"上海市","adcode":310106,"adname":"静安区","business_area":"七浦路","location":"121.464217,31.243469","tel":"[]","bigType":"医疗保健服务","midType":"核酸检测","smallType":"核酸检测","gcj_lng":121.464217,"gcj_lat":31.243469,"wgs84_loc":"121.459663,31.245381","wgs84Lng":121.459663,"wgs84Lat":31.245381,"__source_file__":"13-常用公服设施点/CSV/上海市_核酸检测.csv"},"geometry":{"type":"Point","coordinates":[121.459663,31.245381]}},{"id":"52","type":"Feature","properties":{"id":"B0IUG7LDDH","name":"静安大悦城南北座中间核酸采样点","address":"西藏北路188号(曲阜路地铁站5号口步行160米)","type":"医疗保健服务;核酸检测;核酸检测","typecode":90800,"pcode":310000,"pname":"上海市","citycode":21,"cityname":"上海市","adcode":310106,"adname":"静安区","business_area":"七浦路","location":"121.472838,31.243565","tel":"[]","bigType":"医疗保健服务","midType":"核酸检测","smallType":"核酸检测","gcj_lng":121.472838,"gcj_lat":31.243565,"wgs84_loc":"121.468311,31.245499","wgs84Lng":121.468311,"wgs84Lat":31.245499,"__source_file__":"13-常用公服设施点/CSV/上海市_核酸检测.csv"},"geometry":{"type":"Point","coordinates":[121.468311,31.245499]}},{"id":"55","type":"Feature","properties":{"id":"B0IUG7N71A","name":"不夜城绿地核酸采样点","address":"恒通路华盛路路口(汉中路地铁站1号口步行340米)","type":"医疗保健服务;核酸检测;核酸检测","typecode":90800,"pcode":310000,"pname":"上海市","citycode":21,"cityname":"上海市","adcode":310106,"adname":"静安区","business_area":"[]","location":"121.460857,31.244022","tel":"[]","bigType":"医疗保健服务","midType":"核酸检测","smallType":"核酸检测","gcj_lng":121.460857,"gcj_lat":31.244022,"wgs84_loc":"121.456293,31.245925","wgs84Lng":121.456293,"wgs84Lat":31.245925,"__source_file__":"13-常用公服设施点/CSV/上海市_核酸检测.csv"},"geometry":{"type":"Point","coordinates":[121.456293,31.245925]}},{"id":"58","type":"Feature","properties":{"id":"B0IUG7LE3K","name":"秣陵路白玉兰广场核酸采样点","address":"天目西路307号(上海火车站地铁站3号口步行180米)","type":"医疗保健服务;核酸检测;核酸检测","typecode":90800,"pcode":310000,"pname":"上海市","citycode":21,"cityname":"上海市","adcode":310106,"adname":"静安区","business_area":"[]","location":"121.454246,31.246636","tel":"[]","bigType":"医疗保健服务","midType":"核酸检测","smallType":"核酸检测","gcj_lng":121.454246,"gcj_lat":31.246636,"wgs84_loc":"121.449664,31.248523","wgs84Lng":121.449664,"wgs84Lat":31.248523,"__source_file__":"13-常用公服设施点/CSV/上海市_核酸检测.csv"},"geometry":{"type":"Point","coordinates":[121.449664,31.248523]}},{"id":"62","type":"Feature","properties":{"id":"B0IUG7OGOD","name":"嘉华苑核酸采样点","address":"中华新路与交通西路交叉口全家便利店门口","type":"医疗保健服务;核酸检测;核酸检测","typecode":90800,"pcode":310000,"pname":"上海市","citycode":21,"cityname":"上海市","adcode":310107,"adname":"普陀区","business_area":"和田","location":"121.448082,31.254935","tel":"[]","bigType":"医疗保健服务","midType":"核酸检测","smallType":"核酸检测","gcj_lng":121.448082,"gcj_lat":31.254935,"wgs84_loc":"121.443484,31.256805","wgs84Lng":121.443484,"wgs84Lat":31.256805,"__source_file__":"13-常用公服设施点/CSV/上海市_核酸检测.csv"},"geometry":{"type":"Point","coordinates":[121.443484,31.256805]}},{"id":"71","type":"Feature","properties":{"id":"B0IU1ZWC32","name":"新体育广场核酸采样点","address":"华池路58弄门口","type":"医疗保健服务;核酸检测;核酸检测","typecode":90800,"pcode":310000,"pname":"上海市","citycode":21,"cityname":"上海市","adcode":310107,"adname":"普陀区","business_area":"光新","location":"121.428712,31.256414","tel":"[]","bigType":"医疗保健服务","midType":"核酸检测","smallType":"核酸检测","gcj_lng":121.428712,"gcj_lat":31.256414,"wgs84_loc":"121.424077,31.258253","wgs84Lng":121.424077,"wgs84Lat":31.258253,"__source_file__":"13-常用公服设施点/CSV/上海市_核酸检测.csv"},"geometry":{"type":"Point","coordinates":[121.424077,31.258253]}},{"id":"63","type":"Feature","properties":{"id":"B0IUG7LEGC","name":"平江居委会核酸采样点","address":"交通西路188弄平江盛世家园内","type":"医疗保健服务;核酸检测;核酸检测","typecode":90800,"pcode":310000,"pname":"上海市","citycode":21,"cityname":"上海市","adcode":310107,"adname":"普陀区","business_area":"和田","location":"121.447876,31.257191","tel":"[]","bigType":"医疗保健服务","midType":"核酸检测","smallType":"核酸检测","gcj_lng":121.447876,"gcj_lat":31.257191,"wgs84_loc":"121.443277,31.25906","wgs84Lng":121.443277,"wgs84Lat":31.25906,"__source_file__":"13-常用公服设施点/CSV/上海市_核酸检测.csv"},"geometry":{"type":"Point","coordinates":[121.443277,31.25906]}},{"id":"73","type":"Feature","properties":{"id":"B0IUG7JWSN","name":"甘泉路休闲街(慈善超市)核酸采样点","address":"甘泉路1号(慈善超市西侧空地)","type":"医疗保健服务;核酸检测;核酸检测","typecode":90800,"pcode":310000,"pname":"上海市","citycode":21,"cityname":"上海市","adcode":310107,"adname":"普陀区","business_area":"大宁路","location":"121.435881,31.264438","tel":"[]","bigType":"医疗保健服务","midType":"核酸检测","smallType":"核酸检测","gcj_lng":121.435881,"gcj_lat":31.264438,"wgs84_loc":"121.431257,31.266283","wgs84Lng":121.431257,"wgs84Lat":31.266283,"__source_file__":"13-常用公服设施点/CSV/上海市_核酸检测.csv"},"geometry":{"type":"Point","coordinates":[121.431257,31.266283]}},{"id":"70","type":"Feature","properties":{"id":"B0IUG7M5BK","name":"沪太党群服务中心(沪太网格片区)核酸采样点","address":"宜川路600号","type":"医疗保健服务;核酸检测;核酸检测","typecode":90800,"pcode":310000,"pname":"上海市","citycode":21,"cityname":"上海市","adcode":310107,"adname":"普陀区","business_area":"大宁路","location":"121.435727,31.268156","tel":"[]","bigType":"医疗保健服务","midType":"核酸检测","smallType":"核酸检测","gcj_lng":121.435727,"gcj_lat":31.268156,"wgs84_loc":"121.431102,31.269999","wgs84Lng":121.431102,"wgs84Lat":31.269999,"__source_file__":"13-常用公服设施点/CSV/上海市_核酸检测.csv"},"geometry":{"type":"Point","coordinates":[121.431102,31.269999]}},{"id":"81","type":"Feature","properties":{"id":"B0IUG7NLQG","name":"鲁迅公园南门核酸采样点","address":"鲁迅公园南门西侧(近四川北路2388号)","type":"医疗保健服务;核酸检测;核酸检测","typecode":90800,"pcode":310000,"pname":"上海市","citycode":21,"cityname":"上海市","adcode":310109,"adname":"虹口区","business_area":"曲阳","location":"121.481843,31.268655","tel":"[]","bigType":"医疗保健服务","midType":"核酸检测","smallType":"核酸检测","gcj_lng":121.481843,"gcj_lat":31.268655,"wgs84_loc":"121.477344,31.270603","wgs84Lng":121.477344,"wgs84Lat":31.270603,"__source_file__":"13-常用公服设施点/CSV/上海市_核酸检测.csv"},"geometry":{"type":"Point","coordinates":[121.477344,31.270603]}},{"id":"83","type":"Feature","properties":{"id":"B0IUG7OGOI","name":"运动LOFT核酸采样点(暂停营业)","address":"花园路景祥路(虹口足球场地铁站7号口步行480米)","type":"医疗保健服务;核酸检测;核酸检测","typecode":90800,"pcode":310000,"pname":"上海市","citycode":21,"cityname":"上海市","adcode":310109,"adname":"虹口区","business_area":"和田","location":"121.474397,31.271962","tel":"[]","bigType":"医疗保健服务","midType":"核酸检测","smallType":"核酸检测","gcj_lng":121.474397,"gcj_lat":31.271962,"wgs84_loc":"121.469873,31.273888","wgs84Lng":121.469873,"wgs84Lat":31.273888,"__source_file__":"13-常用公服设施点/CSV/上海市_核酸检测.csv"},"geometry":{"type":"Point","coordinates":[121.469873,31.273888]}}],"name":"上海市_核酸检测","crs":{"type":"name","properties":{"name":"urn:ogc:def:crs:OGC:1.3:CRS84"}}}