{"type":"FeatureCollection","features":[{"id":"4000","type":"Feature","properties":{"id":"B0JRKNS7VX","name":"轮胎修理服务部","address":"南昌路与瑞金二路交叉口东60米","type":"汽车维修;汽车维修;汽车维修","typecode":"030000","pcode":310000,"pname":"上海市","citycode":21,"cityname":"上海市","adcode":310101,"adname":"黄浦区","business_area":"淮海路","location":"121.464815,31.217650","tel":"[]","bigType":"汽车维修","midType":"汽车维修","smallType":"汽车维修","gcj_lng":121.464815,"gcj_lat":31.21765,"wgs84_loc":"121.460265,31.219575","wgs84Lng":121.460265,"wgs84Lat":31.219575,"__source_file__":"13-常用公服设施点/CSV/上海市_汽车维修.csv"},"geometry":{"type":"Point","coordinates":[121.460265,31.219575]}},{"id":"3998","type":"Feature","properties":{"id":"B0K6GZUL5E","name":"上海专业道路救援搭电补胎快修拖车送油服务","address":"自忠路华府天地商场附近","type":"汽车维修;汽车维修;汽车维修","typecode":"030000","pcode":310000,"pname":"上海市","citycode":21,"cityname":"上海市","adcode":310101,"adname":"黄浦区","business_area":"新天地石库门街区","location":"121.474262,31.218881","tel":"15796599142","bigType":"汽车维修","midType":"汽车维修","smallType":"汽车维修","gcj_lng":121.474262,"gcj_lat":31.218881,"wgs84_loc":"121.469742,31.22083","wgs84Lng":121.469742,"wgs84Lat":31.22083,"__source_file__":"13-常用公服设施点/CSV/上海市_汽车维修.csv"},"geometry":{"type":"Point","coordinates":[121.469742,31.22083]}},{"id":"228","type":"Feature","properties":{"id":"B0G254SZ26","name":"上汽大众上海交运起元城市快修店","address":"延安中路与茂名北路交叉路口往西北约100米","type":"汽车维修;汽车维修;汽车维修","typecode":"030000","pcode":310000,"pname":"上海市","citycode":21,"cityname":"上海市","adcode":310106,"adname":"静安区","business_area":"淮海路","location":"121.460033,31.224178","tel":"[]","bigType":"汽车维修","midType":"汽车维修","smallType":"汽车维修","gcj_lng":121.460033,"gcj_lat":31.224178,"wgs84_loc":"121.455469,31.226088","wgs84Lng":121.455469,"wgs84Lat":31.226088,"__source_file__":"13-常用公服设施点/CSV/上海市_汽车维修.csv"},"geometry":{"type":"Point","coordinates":[121.455469,31.226088]}},{"id":"3839","type":"Feature","properties":{"id":"B0FFI13C4Y","name":"延中汽修","address":"延安中路730号(南京西路地铁站12号口步行400米)","type":"汽车维修;汽车维修;汽车维修","typecode":"030000","pcode":310000,"pname":"上海市","citycode":21,"cityname":"上海市","adcode":310106,"adname":"静安区","business_area":"淮海路","location":"121.460038,31.224229","tel":"[]","bigType":"汽车维修","midType":"汽车维修","smallType":"汽车维修","gcj_lng":121.460038,"gcj_lat":31.224229,"wgs84_loc":"121.455474,31.226139","wgs84Lng":121.455474,"wgs84Lat":31.226139,"__source_file__":"13-常用公服设施点/CSV/上海市_汽车维修.csv"},"geometry":{"type":"Point","coordinates":[121.455474,31.226139]}},{"id":"3901","type":"Feature","properties":{"id":"B0I39R0MKT","name":"立成汽车维修补胎(搭电补胎快修)","address":"陕西北路99号","type":"汽车维修;汽车维修;汽车维修","typecode":"030000","pcode":310000,"pname":"上海市","citycode":21,"cityname":"上海市","adcode":310106,"adname":"静安区","business_area":"淮海路","location":"121.456275,31.225383","tel":"15026803024","bigType":"汽车维修","midType":"汽车维修","smallType":"汽车维修","gcj_lng":121.456275,"gcj_lat":31.225383,"wgs84_loc":"121.4517,31.227284","wgs84Lng":121.4517,"wgs84Lat":31.227284,"__source_file__":"13-常用公服设施点/CSV/上海市_汽车维修.csv"},"geometry":{"type":"Point","coordinates":[121.4517,31.227284]}},{"id":"71","type":"Feature","properties":{"id":"B0HRVL5VNI","name":"宁宁汽车修补胎店","address":"大沽路163号","type":"汽车维修;汽车维修;汽车维修","typecode":"030000","pcode":310000,"pname":"上海市","citycode":21,"cityname":"上海市","adcode":310101,"adname":"黄浦区","business_area":"北京东路","location":"121.471138,31.226205","tel":"[]","bigType":"汽车维修","midType":"汽车维修","smallType":"汽车维修","gcj_lng":121.471138,"gcj_lat":31.226205,"wgs84_loc":"121.466607,31.228142","wgs84Lng":121.466607,"wgs84Lat":31.228142,"__source_file__":"13-常用公服设施点/CSV/上海市_汽车维修.csv"},"geometry":{"type":"Point","coordinates":[121.466607,31.228142]}},{"id":"3897","type":"Feature","properties":{"id":"B0I0BMCCEN","name":"美车堂(锦沧文华店)","address":"南京西路1225号","type":"汽车维修;汽车维修;汽车维修","typecode":"030000","pcode":310000,"pname":"上海市","citycode":21,"cityname":"上海市","adcode":310106,"adname":"静安区","business_area":"淮海路","location":"121.454399,31.226572","tel":"15796599142","bigType":"汽车维修","midType":"汽车维修","smallType":"汽车维修","gcj_lng":121.454399,"gcj_lat":31.226572,"wgs84_loc":"121.449819,31.228468","wgs84Lng":121.449819,"wgs84Lat":31.228468,"__source_file__":"13-常用公服设施点/CSV/上海市_汽车维修.csv"},"geometry":{"type":"Point","coordinates":[121.449819,31.228468]}},{"id":"4179","type":"Feature","properties":{"id":"B0JKSS42P0","name":"点点汽修补胎搭电(张园店)","address":"威海路与石门一路交叉口西北160米","type":"汽车维修;汽车维修;汽车维修","typecode":"030000","pcode":310000,"pname":"上海市","citycode":21,"cityname":"上海市","adcode":310106,"adname":"静安区","business_area":"淮海路","location":"121.461552,31.227788","tel":"[]","bigType":"汽车维修","midType":"汽车维修","smallType":"汽车维修","gcj_lng":121.461552,"gcj_lat":31.227788,"wgs84_loc":"121.456992,31.2297","wgs84Lng":121.456992,"wgs84Lat":31.2297,"__source_file__":"13-常用公服设施点/CSV/上海市_汽车维修.csv"},"geometry":{"type":"Point","coordinates":[121.456992,31.2297]}},{"id":"4177","type":"Feature","properties":{"id":"B0J3OHW7YG","name":"宏森汽车维修流动补胎搭电拖车救援","address":"石门一路213之(南京西路地铁站7号口步行70米)","type":"汽车维修;汽车维修;汽车维修","typecode":"030000","pcode":310000,"pname":"上海市","citycode":21,"cityname":"上海市","adcode":310106,"adname":"静安区","business_area":"淮海路","location":"121.462293,31.228275","tel":"021-64870181","bigType":"汽车维修","midType":"汽车维修","smallType":"汽车维修","gcj_lng":121.462293,"gcj_lat":31.228275,"wgs84_loc":"121.457735,31.230189","wgs84Lng":121.457735,"wgs84Lat":31.230189,"__source_file__":"13-常用公服设施点/CSV/上海市_汽车维修.csv"},"geometry":{"type":"Point","coordinates":[121.457735,31.230189]}},{"id":"236","type":"Feature","properties":{"id":"B0HUYMSFA7","name":"(长江快修)上海陆宝泰尔物资有限公司成都路分公司","address":"成都北路339号匝道下","type":"汽车维修;汽车维修;汽车维修","typecode":"030000","pcode":310000,"pname":"上海市","citycode":21,"cityname":"上海市","adcode":310106,"adname":"静安区","business_area":"淮海路","location":"121.466753,31.229261","tel":"021-62724901;13818826670","bigType":"汽车维修","midType":"汽车维修","smallType":"汽车维修","gcj_lng":121.466753,"gcj_lat":31.229261,"wgs84_loc":"121.462208,31.231185","wgs84Lng":121.462208,"wgs84Lat":31.231185,"__source_file__":"13-常用公服设施点/CSV/上海市_汽车维修.csv"},"geometry":{"type":"Point","coordinates":[121.462208,31.231185]}},{"id":"4043","type":"Feature","properties":{"id":"B0K0CCC1ET","name":"蓬霏货车修理厂","address":"南京西路1266号","type":"汽车维修;汽车维修;汽车维修","typecode":"030000","pcode":310000,"pname":"上海市","citycode":21,"cityname":"上海市","adcode":310106,"adname":"静安区","business_area":"淮海路","location":"121.453560,31.227710","tel":"[]","bigType":"汽车维修","midType":"汽车维修","smallType":"汽车维修","gcj_lng":121.45356,"gcj_lat":31.22771,"wgs84_loc":"121.448978,31.229604","wgs84Lng":121.448978,"wgs84Lat":31.229604,"__source_file__":"13-常用公服设施点/CSV/上海市_汽车维修.csv"},"geometry":{"type":"Point","coordinates":[121.448978,31.229604]}},{"id":"4178","type":"Feature","properties":{"id":"B0K6ZZVL1Q","name":"恒达汽车修理搭电补胎换电瓶道路救援","address":"南阳路186弄小区底商","type":"汽车维修;汽车维修;汽车维修","typecode":"030000","pcode":310000,"pname":"上海市","citycode":21,"cityname":"上海市","adcode":310106,"adname":"静安区","business_area":"[]","location":"121.450091,31.228225","tel":"18233031309","bigType":"汽车维修","midType":"汽车维修","smallType":"汽车维修","gcj_lng":121.450091,"gcj_lat":31.228225,"wgs84_loc":"121.4455,31.230111","wgs84Lng":121.4455,"wgs84Lat":31.230111,"__source_file__":"13-常用公服设施点/CSV/上海市_汽车维修.csv"},"geometry":{"type":"Point","coordinates":[121.4455,31.230111]}},{"id":"219","type":"Feature","properties":{"id":"B0G0ZXZG7T","name":"特斯拉静安维修中心","address":"康定路1155号","type":"汽车维修;汽车维修;汽车维修","typecode":"030000","pcode":310000,"pname":"上海市","citycode":21,"cityname":"上海市","adcode":310106,"adname":"静安区","business_area":"曹家渡","location":"121.434555,31.230625","tel":"[]","bigType":"汽车维修","midType":"汽车维修","smallType":"汽车维修","gcj_lng":121.434555,"gcj_lat":31.230625,"wgs84_loc":"121.429932,31.232483","wgs84Lng":121.429932,"wgs84Lat":31.232483,"__source_file__":"13-常用公服设施点/CSV/上海市_汽车维修.csv"},"geometry":{"type":"Point","coordinates":[121.429932,31.232483]}},{"id":"3837","type":"Feature","properties":{"id":"B0FFGZKA6Z","name":"进口大众上海腾众(静安维修店)","address":"康定路1155号(武宁路地铁站5A口步行320米)","type":"汽车维修;汽车维修;汽车维修","typecode":"030000","pcode":310000,"pname":"上海市","citycode":21,"cityname":"上海市","adcode":310106,"adname":"静安区","business_area":"曹家渡","location":"121.434908,31.230744","tel":"021-62187311;4008200410","bigType":"汽车维修","midType":"汽车维修","smallType":"汽车维修","gcj_lng":121.434908,"gcj_lat":31.230744,"wgs84_loc":"121.430285,31.232603","wgs84Lng":121.430285,"wgs84Lat":31.232603,"__source_file__":"13-常用公服设施点/CSV/上海市_汽车维修.csv"},"geometry":{"type":"Point","coordinates":[121.430285,31.232603]}},{"id":"238","type":"Feature","properties":{"id":"B0FFJ003XZ","name":"瑞丰汽车快修","address":"康定路964号(靠近延平路)","type":"汽车维修;汽车维修;汽车维修","typecode":"030000","pcode":310000,"pname":"上海市","citycode":21,"cityname":"上海市","adcode":310106,"adname":"静安区","business_area":"曹家渡","location":"121.438494,31.231182","tel":"13331920781;17505617520","bigType":"汽车维修","midType":"汽车维修","smallType":"汽车维修","gcj_lng":121.438494,"gcj_lat":31.231182,"wgs84_loc":"121.433878,31.233046","wgs84Lng":121.433878,"wgs84Lat":31.233046,"__source_file__":"13-常用公服设施点/CSV/上海市_汽车维修.csv"},"geometry":{"type":"Point","coordinates":[121.433878,31.233046]}},{"id":"3902","type":"Feature","properties":{"id":"B0I3JN1EQJ","name":"瓦尔塔蓄电池","address":"西康路336号","type":"汽车维修;汽车维修;汽车维修","typecode":"030000","pcode":310000,"pname":"上海市","citycode":21,"cityname":"上海市","adcode":310106,"adname":"静安区","business_area":"曹家渡","location":"121.449597,31.231775","tel":"17811925906","bigType":"汽车维修","midType":"汽车维修","smallType":"汽车维修","gcj_lng":121.449597,"gcj_lat":31.231775,"wgs84_loc":"121.445005,31.233659","wgs84Lng":121.445005,"wgs84Lat":31.233659,"__source_file__":"13-常用公服设施点/CSV/上海市_汽车维修.csv"},"geometry":{"type":"Point","coordinates":[121.445005,31.233659]}},{"id":"3905","type":"Feature","properties":{"id":"B0I3UAM7CV","name":"瓦尔塔蓄电池","address":"长寿路565-3号(地铁站1口步行350米)","type":"汽车维修;汽车维修;汽车维修","typecode":"030000","pcode":310000,"pname":"上海市","citycode":21,"cityname":"上海市","adcode":310107,"adname":"普陀区","business_area":"曹家渡","location":"121.435095,31.237771","tel":"13002180362","bigType":"汽车维修","midType":"汽车维修","smallType":"汽车维修","gcj_lng":121.435095,"gcj_lat":31.237771,"wgs84_loc":"121.430472,31.239627","wgs84Lng":121.430472,"wgs84Lat":31.239627,"__source_file__":"13-常用公服设施点/CSV/上海市_汽车维修.csv"},"geometry":{"type":"Point","coordinates":[121.430472,31.239627]}},{"id":"220","type":"Feature","properties":{"id":"B0FFK4PTHN","name":"名车汇汽车维修保养洗车美容轮胎电瓶搭电补胎汽车救援钣金周边车险审车二手车沪牌代拍","address":"江宁路768号","type":"汽车维修;汽车维修;汽车维修","typecode":"030000","pcode":310000,"pname":"上海市","citycode":21,"cityname":"上海市","adcode":310106,"adname":"静安区","business_area":"曹家渡","location":"121.448800,31.239007","tel":"18721545169","bigType":"汽车维修","midType":"汽车维修","smallType":"汽车维修","gcj_lng":121.4488,"gcj_lat":31.239007,"wgs84_loc":"121.444205,31.240886","wgs84Lng":121.444205,"wgs84Lat":31.240886,"__source_file__":"13-常用公服设施点/CSV/上海市_汽车维修.csv"},"geometry":{"type":"Point","coordinates":[121.444205,31.240886]}},{"id":"3996","type":"Feature","properties":{"id":"B0J1BMM7LY","name":"玲珑轮胎(搭电补胎)","address":"淮海中路97号(大世界地铁站6号口步行380米)","type":"汽车维修;汽车维修;汽车维修","typecode":"030000","pcode":310000,"pname":"上海市","citycode":21,"cityname":"上海市","adcode":310101,"adname":"黄浦区","business_area":"淮海路","location":"121.479053,31.224026","tel":"[]","bigType":"汽车维修","midType":"汽车维修","smallType":"汽车维修","gcj_lng":121.479053,"gcj_lat":31.224026,"wgs84_loc":"121.474548,31.225986","wgs84Lng":121.474548,"wgs84Lat":31.225986,"__source_file__":"13-常用公服设施点/CSV/上海市_汽车维修.csv"},"geometry":{"type":"Point","coordinates":[121.474548,31.225986]}},{"id":"3997","type":"Feature","properties":{"id":"B0I0MZ27UU","name":"上海专业搭电救援补胎快修服务","address":"淮海中路","type":"汽车维修;汽车维修;汽车维修","typecode":"030000","pcode":310000,"pname":"上海市","citycode":21,"cityname":"上海市","adcode":310101,"adname":"黄浦区","business_area":"淮海路","location":"121.479193,31.224084","tel":"17821255034","bigType":"汽车维修","midType":"汽车维修","smallType":"汽车维修","gcj_lng":121.479193,"gcj_lat":31.224084,"wgs84_loc":"121.474689,31.226044","wgs84Lng":121.474689,"wgs84Lat":31.226044,"__source_file__":"13-常用公服设施点/CSV/上海市_汽车维修.csv"},"geometry":{"type":"Point","coordinates":[121.474689,31.226044]}},{"id":"64","type":"Feature","properties":{"id":"B0IBCSMG0O","name":"上海福文祥汽车维修服务有限公司","address":"广东路339号地下室一层","type":"汽车维修;汽车维修;汽车维修","typecode":"030000","pcode":310000,"pname":"上海市","citycode":21,"cityname":"上海市","adcode":310101,"adname":"黄浦区","business_area":"北京东路","location":"121.484253,31.232505","tel":"18221032503","bigType":"汽车维修","midType":"汽车维修","smallType":"汽车维修","gcj_lng":121.484253,"gcj_lat":31.232505,"wgs84_loc":"121.479765,31.234476","wgs84Lng":121.479765,"wgs84Lat":31.234476,"__source_file__":"13-常用公服设施点/CSV/上海市_汽车维修.csv"},"geometry":{"type":"Point","coordinates":[121.479765,31.234476]}},{"id":"3999","type":"Feature","properties":{"id":"B0K3UZU28H","name":"F.D.League车美汽车维修搭电","address":"九江路与山西南路交叉口东40米","type":"汽车维修;汽车维修;汽车维修","typecode":"030000","pcode":310000,"pname":"上海市","citycode":21,"cityname":"上海市","adcode":310101,"adname":"黄浦区","business_area":"北京路","location":"121.483304,31.236009","tel":"[]","bigType":"汽车维修","midType":"汽车维修","smallType":"汽车维修","gcj_lng":121.483304,"gcj_lat":31.236009,"wgs84_loc":"121.478813,31.237976","wgs84Lng":121.478813,"wgs84Lat":31.237976,"__source_file__":"13-常用公服设施点/CSV/上海市_汽车维修.csv"},"geometry":{"type":"Point","coordinates":[121.478813,31.237976]}},{"id":"4001","type":"Feature","properties":{"id":"B0KDF1B59K","name":"天津路店","address":"天津路与五福弄交叉口东北20米","type":"汽车维修;汽车维修;汽车维修","typecode":"030000","pcode":310000,"pname":"上海市","citycode":21,"cityname":"上海市","adcode":310101,"adname":"黄浦区","business_area":"北京路","location":"121.481271,31.237595","tel":"[]","bigType":"汽车维修","midType":"汽车维修","smallType":"汽车维修","gcj_lng":121.481271,"gcj_lat":31.237595,"wgs84_loc":"121.476773,31.239555","wgs84Lng":121.476773,"wgs84Lat":31.239555,"__source_file__":"13-常用公服设施点/CSV/上海市_汽车维修.csv"},"geometry":{"type":"Point","coordinates":[121.476773,31.239555]}},{"id":"321","type":"Feature","properties":{"id":"B0H0FSKNF9","name":"一汽大众ID.HUB(上海嘉安外滩星荟中心店)","address":"天潼路328号1F-102","type":"汽车维修;汽车维修;汽车维修","typecode":"030000","pcode":310000,"pname":"上海市","citycode":21,"cityname":"上海市","adcode":310109,"adname":"虹口区","business_area":"北外滩","location":"121.486260,31.246589","tel":"[]","bigType":"汽车维修","midType":"汽车维修","smallType":"汽车维修","gcj_lng":121.48626,"gcj_lat":31.246589,"wgs84_loc":"121.481778,31.24856","wgs84Lng":121.481778,"wgs84Lat":31.24856,"__source_file__":"13-常用公服设施点/CSV/上海市_汽车维修.csv"},"geometry":{"type":"Point","coordinates":[121.481778,31.24856]}},{"id":"3759","type":"Feature","properties":{"id":"B0G0NZX9S7","name":"致远汽车修理厂","address":"旅顺路47号","type":"汽车维修;汽车维修;汽车维修","typecode":"030000","pcode":310000,"pname":"上海市","citycode":21,"cityname":"上海市","adcode":310109,"adname":"虹口区","business_area":"提篮桥","location":"121.495919,31.248157","tel":"[]","bigType":"汽车维修","midType":"汽车维修","smallType":"汽车维修","gcj_lng":121.495919,"gcj_lat":31.248157,"wgs84_loc":"121.491472,31.250156","wgs84Lng":121.491472,"wgs84Lat":31.250156,"__source_file__":"13-常用公服设施点/CSV/上海市_汽车维修.csv"},"geometry":{"type":"Point","coordinates":[121.491472,31.250156]}},{"id":"4156","type":"Feature","properties":{"id":"B0J2AD1GI4","name":"尚品汽修厂","address":"黄河路21号鸿祥大厦F6层","type":"汽车维修;汽车维修;汽车维修","typecode":"030000","pcode":310000,"pname":"上海市","citycode":21,"cityname":"上海市","adcode":310101,"adname":"黄浦区","business_area":"北京路","location":"121.471004,31.233517","tel":"[]","bigType":"汽车维修","midType":"汽车维修","smallType":"汽车维修","gcj_lng":121.471004,"gcj_lat":31.233517,"wgs84_loc":"121.466472,31.235451","wgs84Lng":121.466472,"wgs84Lat":31.235451,"__source_file__":"13-常用公服设施点/CSV/上海市_汽车维修.csv"},"geometry":{"type":"Point","coordinates":[121.466472,31.235451]}},{"id":"217","type":"Feature","properties":{"id":"B0G0UROA6W","name":"龙达汽车维修厂","address":"[]","type":"汽车维修;汽车维修;汽车维修","typecode":"030000","pcode":310000,"pname":"上海市","citycode":21,"cityname":"上海市","adcode":310106,"adname":"静安区","business_area":"曹家渡","location":"121.454360,31.236603","tel":"[]","bigType":"汽车维修","midType":"汽车维修","smallType":"汽车维修","gcj_lng":121.45436,"gcj_lat":31.236603,"wgs84_loc":"121.449779,31.238495","wgs84Lng":121.449779,"wgs84Lat":31.238495,"__source_file__":"13-常用公服设施点/CSV/上海市_汽车维修.csv"},"geometry":{"type":"Point","coordinates":[121.449779,31.238495]}},{"id":"2537","type":"Feature","properties":{"id":"B0G0NHXAQH","name":"广盛汽车修理厂","address":"[]","type":"汽车维修;汽车维修;汽车维修","typecode":"030000","pcode":310000,"pname":"上海市","citycode":21,"cityname":"上海市","adcode":310101,"adname":"黄浦区","business_area":"北京东路","location":"121.466931,31.237508","tel":"[]","bigType":"汽车维修","midType":"汽车维修","smallType":"汽车维修","gcj_lng":121.466931,"gcj_lat":31.237508,"wgs84_loc":"121.462386,31.239429","wgs84Lng":121.462386,"wgs84Lat":31.239429,"__source_file__":"13-常用公服设施点/CSV/上海市_汽车维修.csv"},"geometry":{"type":"Point","coordinates":[121.462386,31.239429]}},{"id":"4158","type":"Feature","properties":{"id":"B0K6Y9CV9U","name":"飞毛腿汽车救援搭电补胎送油拖车服务","address":"曲阜路与文安路交叉口南20米","type":"汽车维修;汽车维修;汽车维修","typecode":"030000","pcode":310000,"pname":"上海市","citycode":21,"cityname":"上海市","adcode":310106,"adname":"静安区","business_area":"北京路","location":"121.472938,31.242378","tel":"13002180362","bigType":"汽车维修","midType":"汽车维修","smallType":"汽车维修","gcj_lng":121.472938,"gcj_lat":31.242378,"wgs84_loc":"121.468411,31.244313","wgs84Lng":121.468411,"wgs84Lat":31.244313,"__source_file__":"13-常用公服设施点/CSV/上海市_汽车维修.csv"},"geometry":{"type":"Point","coordinates":[121.468411,31.244313]}},{"id":"3444","type":"Feature","properties":{"id":"B0FFHOKH5V","name":"汽车快修(大统店)","address":"大统路与南星路交叉口北20米","type":"汽车维修;汽车维修;汽车维修","typecode":"030000","pcode":310000,"pname":"上海市","citycode":21,"cityname":"上海市","adcode":310106,"adname":"静安区","business_area":"七浦路","location":"121.464874,31.243243","tel":"[]","bigType":"汽车维修","midType":"汽车维修","smallType":"汽车维修","gcj_lng":121.464874,"gcj_lat":31.243243,"wgs84_loc":"121.460322,31.245156","wgs84Lng":121.460322,"wgs84Lat":31.245156,"__source_file__":"13-常用公服设施点/CSV/上海市_汽车维修.csv"},"geometry":{"type":"Point","coordinates":[121.460322,31.245156]}},{"id":"232","type":"Feature","properties":{"id":"B0FFI781Y6","name":"大昌行汽车集团华东总部","address":"梅园路228号(企业广场)19楼","type":"汽车维修;汽车维修;汽车维修","typecode":"030000","pcode":310000,"pname":"上海市","citycode":21,"cityname":"上海市","adcode":310106,"adname":"静安区","business_area":"[]","location":"121.457341,31.243735","tel":"[]","bigType":"汽车维修","midType":"汽车维修","smallType":"汽车维修","gcj_lng":121.457341,"gcj_lat":31.243735,"wgs84_loc":"121.452767,31.24563","wgs84Lng":121.452767,"wgs84Lat":31.24563,"__source_file__":"13-常用公服设施点/CSV/上海市_汽车维修.csv"},"geometry":{"type":"Point","coordinates":[121.452767,31.24563]}},{"id":"216","type":"Feature","properties":{"id":"B0GDTHZLI2","name":"欧洲维修·翰森汽服","address":"共和新路418号","type":"汽车维修;汽车维修;汽车维修","typecode":"030000","pcode":310000,"pname":"上海市","citycode":21,"cityname":"上海市","adcode":310106,"adname":"静安区","business_area":"和田","location":"121.463074,31.250440","tel":"021-64339819","bigType":"汽车维修","midType":"汽车维修","smallType":"汽车维修","gcj_lng":121.463074,"gcj_lat":31.25044,"wgs84_loc":"121.458516,31.252346","wgs84Lng":121.458516,"wgs84Lat":31.252346,"__source_file__":"13-常用公服设施点/CSV/上海市_汽车维修.csv"},"geometry":{"type":"Point","coordinates":[121.458516,31.252346]}},{"id":"3898","type":"Feature","properties":{"id":"B0I3FRS7BZ","name":"米其林轮胎(永兴路店)","address":"永兴路565号","type":"汽车维修;汽车维修;汽车维修","typecode":"030000","pcode":310000,"pname":"上海市","citycode":21,"cityname":"上海市","adcode":310106,"adname":"静安区","business_area":"宝山路","location":"121.467254,31.251201","tel":"021-56626162","bigType":"汽车维修","midType":"汽车维修","smallType":"汽车维修","gcj_lng":121.467254,"gcj_lat":31.251201,"wgs84_loc":"121.462709,31.253117","wgs84Lng":121.462709,"wgs84Lat":31.253117,"__source_file__":"13-常用公服设施点/CSV/上海市_汽车维修.csv"},"geometry":{"type":"Point","coordinates":[121.462709,31.253117]}},{"id":"3900","type":"Feature","properties":{"id":"B0HBBL73W8","name":"鹏嘉汽车维修","address":"育婴堂路与永兴路交叉口西北20米","type":"汽车维修;汽车维修;汽车维修","typecode":"030000","pcode":310000,"pname":"上海市","citycode":21,"cityname":"上海市","adcode":310106,"adname":"静安区","business_area":"宝山路","location":"121.467338,31.251263","tel":"[]","bigType":"汽车维修","midType":"汽车维修","smallType":"汽车维修","gcj_lng":121.467338,"gcj_lat":31.251263,"wgs84_loc":"121.462793,31.253179","wgs84Lng":121.462793,"wgs84Lat":31.253179,"__source_file__":"13-常用公服设施点/CSV/上海市_汽车维修.csv"},"geometry":{"type":"Point","coordinates":[121.462793,31.253179]}},{"id":"4010","type":"Feature","properties":{"id":"B0J1R7ISIH","name":"车耀兴汽车快修救援补胎换胎","address":"柳营路与泽州路交叉口北100米","type":"汽车维修;汽车维修;汽车维修","typecode":"030000","pcode":310000,"pname":"上海市","citycode":21,"cityname":"上海市","adcode":310106,"adname":"静安区","business_area":"和田","location":"121.455593,31.264142","tel":"16601729360","bigType":"汽车维修","midType":"汽车维修","smallType":"汽车维修","gcj_lng":121.455593,"gcj_lat":31.264142,"wgs84_loc":"121.451013,31.266024","wgs84Lng":121.451013,"wgs84Lat":31.266024,"__source_file__":"13-常用公服设施点/CSV/上海市_汽车维修.csv"},"geometry":{"type":"Point","coordinates":[121.451013,31.266024]}},{"id":"250","type":"Feature","properties":{"id":"B0G2Z7IPIC","name":"永兴汽车钥匙","address":"胶州路与澳门路交叉口西北约20米","type":"汽车维修;汽车维修;汽车维修","typecode":"030000","pcode":310000,"pname":"上海市","citycode":21,"cityname":"上海市","adcode":310107,"adname":"普陀区","business_area":"曹家渡","location":"121.434435,31.239862","tel":"[]","bigType":"汽车维修","midType":"汽车维修","smallType":"汽车维修","gcj_lng":121.434435,"gcj_lat":31.239862,"wgs84_loc":"121.42981,31.241716","wgs84Lng":121.42981,"wgs84Lat":31.241716,"__source_file__":"13-常用公服设施点/CSV/上海市_汽车维修.csv"},"geometry":{"type":"Point","coordinates":[121.42981,31.241716]}},{"id":"4115","type":"Feature","properties":{"id":"B0J3S50SXK","name":"万隆汽车修理补胎搭电拖车救援送油","address":"岚皋路106号(镇坪路地铁站3号口步行480米)","type":"汽车维修;汽车维修;汽车维修","typecode":"030000","pcode":310000,"pname":"上海市","citycode":21,"cityname":"上海市","adcode":310107,"adname":"普陀区","business_area":"光新","location":"121.426672,31.247867","tel":"17755245138","bigType":"汽车维修","midType":"汽车维修","smallType":"汽车维修","gcj_lng":121.426672,"gcj_lat":31.247867,"wgs84_loc":"121.422035,31.249707","wgs84Lng":121.422035,"wgs84Lat":31.249707,"__source_file__":"13-常用公服设施点/CSV/上海市_汽车维修.csv"},"geometry":{"type":"Point","coordinates":[121.422035,31.249707]}},{"id":"4008","type":"Feature","properties":{"id":"B0J0SHG41G","name":"上海笠晟汽车快修搭电补胎拖车修理厂","address":"沪太路261号","type":"汽车维修;汽车维修;汽车维修","typecode":"030000","pcode":310000,"pname":"上海市","citycode":21,"cityname":"上海市","adcode":310106,"adname":"静安区","business_area":"不夜城","location":"121.453995,31.254080","tel":"15201860088","bigType":"汽车维修","midType":"汽车维修","smallType":"汽车维修","gcj_lng":121.453995,"gcj_lat":31.25408,"wgs84_loc":"121.449412,31.255963","wgs84Lng":121.449412,"wgs84Lat":31.255963,"__source_file__":"13-常用公服设施点/CSV/上海市_汽车维修.csv"},"geometry":{"type":"Point","coordinates":[121.449412,31.255963]}},{"id":"225","type":"Feature","properties":{"id":"B0FFH8JL7W","name":"风动车坊","address":"沪太路中华新路沪太路261号","type":"汽车维修;汽车维修;汽车维修|汽车服务;汽车服务相关;汽车服务相关","typecode":"030000|010000","pcode":310000,"pname":"上海市","citycode":21,"cityname":"上海市","adcode":310106,"adname":"静安区","business_area":"和田","location":"121.453849,31.254210","tel":"18821208076","bigType":"汽车维修","midType":"汽车维修","smallType":"汽车维修|汽车服务","gcj_lng":121.453849,"gcj_lat":31.25421,"wgs84_loc":"121.449265,31.256093","wgs84Lng":121.449265,"wgs84Lat":31.256093,"__source_file__":"13-常用公服设施点/CSV/上海市_汽车维修.csv"},"geometry":{"type":"Point","coordinates":[121.449265,31.256093]}},{"id":"245","type":"Feature","properties":{"id":"B0FFL5UV0U","name":"上海龙新汽车维修服务有限公司","address":"交通路1463号","type":"汽车维修;汽车维修;汽车维修","typecode":"030000","pcode":310000,"pname":"上海市","citycode":21,"cityname":"上海市","adcode":310107,"adname":"普陀区","business_area":"光新","location":"121.444724,31.255118","tel":"021-56370076","bigType":"汽车维修","midType":"汽车维修","smallType":"汽车维修","gcj_lng":121.444724,"gcj_lat":31.255118,"wgs84_loc":"121.440118,31.256982","wgs84Lng":121.440118,"wgs84Lat":31.256982,"__source_file__":"13-常用公服设施点/CSV/上海市_汽车维修.csv"},"geometry":{"type":"Point","coordinates":[121.440118,31.256982]}},{"id":"247","type":"Feature","properties":{"id":"B0H3Z5E8L1","name":"艾锐面漆面养护","address":"交通路2069号底层","type":"汽车维修;汽车维修;汽车维修","typecode":"030000","pcode":310000,"pname":"上海市","citycode":21,"cityname":"上海市","adcode":310107,"adname":"普陀区","business_area":"大宁路","location":"121.435627,31.257233","tel":"[]","bigType":"汽车维修","midType":"汽车维修","smallType":"汽车维修","gcj_lng":121.435627,"gcj_lat":31.257233,"wgs84_loc":"121.431003,31.259081","wgs84Lng":121.431003,"wgs84Lat":31.259081,"__source_file__":"13-常用公服设施点/CSV/上海市_汽车维修.csv"},"geometry":{"type":"Point","coordinates":[121.431003,31.259081]}},{"id":"246","type":"Feature","properties":{"id":"B00157HRXP","name":"明臣汽车用品(风神轮胎店)","address":"交通路2101-2105号","type":"汽车维修;汽车维修;汽车维修","typecode":"030000","pcode":310000,"pname":"上海市","citycode":21,"cityname":"上海市","adcode":310107,"adname":"普陀区","business_area":"光新","location":"121.435176,31.257358","tel":"13262226907","bigType":"汽车维修","midType":"汽车维修","smallType":"汽车维修","gcj_lng":121.435176,"gcj_lat":31.257358,"wgs84_loc":"121.430551,31.259205","wgs84Lng":121.430551,"wgs84Lat":31.259205,"__source_file__":"13-常用公服设施点/CSV/上海市_汽车维修.csv"},"geometry":{"type":"Point","coordinates":[121.430551,31.259205]}},{"id":"3624","type":"Feature","properties":{"id":"B0G07H2W5Z","name":"苏宁汽车指定服务商","address":"普善路438号附近","type":"汽车维修;汽车维修;汽车维修","typecode":"030000","pcode":310000,"pname":"上海市","citycode":21,"cityname":"上海市","adcode":310106,"adname":"静安区","business_area":"大宁路","location":"121.453872,31.260660","tel":"[]","bigType":"汽车维修","midType":"汽车维修","smallType":"汽车维修","gcj_lng":121.453872,"gcj_lat":31.26066,"wgs84_loc":"121.449288,31.26254","wgs84Lng":121.449288,"wgs84Lat":31.26254,"__source_file__":"13-常用公服设施点/CSV/上海市_汽车维修.csv"},"geometry":{"type":"Point","coordinates":[121.449288,31.26254]}},{"id":"231","type":"Feature","properties":{"id":"B0FFJ2FNTS","name":"龙之加汽车快修连锁","address":"洛川中路832号附近","type":"汽车维修;汽车维修;汽车维修","typecode":"030000","pcode":310000,"pname":"上海市","citycode":21,"cityname":"上海市","adcode":310106,"adname":"静安区","business_area":"和田","location":"121.452744,31.265720","tel":"[]","bigType":"汽车维修","midType":"汽车维修","smallType":"汽车维修","gcj_lng":121.452744,"gcj_lat":31.26572,"wgs84_loc":"121.448156,31.267595","wgs84Lng":121.448156,"wgs84Lat":31.267595,"__source_file__":"13-常用公服设施点/CSV/上海市_汽车维修.csv"},"geometry":{"type":"Point","coordinates":[121.448156,31.267595]}},{"id":"4181","type":"Feature","properties":{"id":"B0J1SUTUYX","name":"八戒轮胎补胎电瓶修车店","address":"四川北路859号(近海宁路)中信广场","type":"汽车维修;汽车维修;汽车维修","typecode":"030000","pcode":310000,"pname":"上海市","citycode":21,"cityname":"上海市","adcode":310109,"adname":"虹口区","business_area":"上海北外滩中心","location":"121.484632,31.248565","tel":"15821598285","bigType":"汽车维修","midType":"汽车维修","smallType":"汽车维修","gcj_lng":121.484632,"gcj_lat":31.248565,"wgs84_loc":"121.480144,31.25053","wgs84Lng":121.480144,"wgs84Lat":31.25053,"__source_file__":"13-常用公服设施点/CSV/上海市_汽车维修.csv"},"geometry":{"type":"Point","coordinates":[121.480144,31.25053]}},{"id":"324","type":"Feature","properties":{"id":"B0I6BUT5XB","name":"汽车玻璃修补中心","address":"旅顺路白金府邸","type":"汽车维修;汽车维修;汽车维修","typecode":"030000","pcode":310000,"pname":"上海市","citycode":21,"cityname":"上海市","adcode":310109,"adname":"虹口区","business_area":"北外滩","location":"121.495005,31.249824","tel":"[]","bigType":"汽车维修","midType":"汽车维修","smallType":"汽车维修","gcj_lng":121.495005,"gcj_lat":31.249824,"wgs84_loc":"121.490554,31.251819","wgs84Lng":121.490554,"wgs84Lat":31.251819,"__source_file__":"13-常用公服设施点/CSV/上海市_汽车维修.csv"},"geometry":{"type":"Point","coordinates":[121.490554,31.251819]}},{"id":"344","type":"Feature","properties":{"id":"B0FFK6VCKU","name":"1+1汽车维修","address":"[]","type":"汽车维修;汽车维修;汽车维修","typecode":"030000","pcode":310000,"pname":"上海市","citycode":21,"cityname":"上海市","adcode":310109,"adname":"虹口区","business_area":"北外滩","location":"121.493951,31.249949","tel":"[]","bigType":"汽车维修","midType":"汽车维修","smallType":"汽车维修","gcj_lng":121.493951,"gcj_lat":31.249949,"wgs84_loc":"121.489496,31.251941","wgs84Lng":121.489496,"wgs84Lat":31.251941,"__source_file__":"13-常用公服设施点/CSV/上海市_汽车维修.csv"},"geometry":{"type":"Point","coordinates":[121.489496,31.251941]}},{"id":"322","type":"Feature","properties":{"id":"B0G17SVZCN","name":"华邦汽车修理店轮胎电瓶救援","address":"四川北路与海宁路交叉口北约40米","type":"汽车维修;汽车维修;汽车维修","typecode":"030000","pcode":310000,"pname":"上海市","citycode":21,"cityname":"上海市","adcode":310109,"adname":"虹口区","business_area":"七浦路","location":"121.484915,31.250235","tel":"[]","bigType":"汽车维修","midType":"汽车维修","smallType":"汽车维修","gcj_lng":121.484915,"gcj_lat":31.250235,"wgs84_loc":"121.480428,31.2522","wgs84Lng":121.480428,"wgs84Lat":31.2522,"__source_file__":"13-常用公服设施点/CSV/上海市_汽车维修.csv"},"geometry":{"type":"Point","coordinates":[121.480428,31.2522]}},{"id":"2302","type":"Feature","properties":{"id":"B0IBB1S3PJ","name":"汽车快修","address":"[]","type":"汽车维修;汽车维修;汽车维修","typecode":"030000","pcode":310000,"pname":"上海市","citycode":21,"cityname":"上海市","adcode":310109,"adname":"虹口区","business_area":"提篮桥","location":"121.494566,31.250661","tel":"[]","bigType":"汽车维修","midType":"汽车维修","smallType":"汽车维修","gcj_lng":121.494566,"gcj_lat":31.250661,"wgs84_loc":"121.490113,31.252654","wgs84Lng":121.490113,"wgs84Lat":31.252654,"__source_file__":"13-常用公服设施点/CSV/上海市_汽车维修.csv"},"geometry":{"type":"Point","coordinates":[121.490113,31.252654]}},{"id":"323","type":"Feature","properties":{"id":"B0FFF5AP6G","name":"上海友军汽车维修装饰美容有限公司(总店)","address":"新嘉路23号","type":"汽车维修;汽车维修;汽车维修","typecode":"030000","pcode":310000,"pname":"上海市","citycode":21,"cityname":"上海市","adcode":310109,"adname":"虹口区","business_area":"四平路","location":"121.488546,31.256863","tel":"021-66056138;13040659456;18516355999","bigType":"汽车维修","midType":"汽车维修","smallType":"汽车维修","gcj_lng":121.488546,"gcj_lat":31.256863,"wgs84_loc":"121.484071,31.258836","wgs84Lng":121.484071,"wgs84Lat":31.258836,"__source_file__":"13-常用公服设施点/CSV/上海市_汽车维修.csv"},"geometry":{"type":"Point","coordinates":[121.484071,31.258836]}},{"id":"327","type":"Feature","properties":{"id":"B0FFIB7PLV","name":"米其林轮胎四轮定位","address":"高阳路562号","type":"汽车维修;汽车维修;汽车维修","typecode":"030000","pcode":310000,"pname":"上海市","citycode":21,"cityname":"上海市","adcode":310109,"adname":"虹口区","business_area":"提篮桥","location":"121.499725,31.257295","tel":"021-55078829;13816985921","bigType":"汽车维修","midType":"汽车维修","smallType":"汽车维修","gcj_lng":121.499725,"gcj_lat":31.257295,"wgs84_loc":"121.49529,31.259301","wgs84Lng":121.49529,"wgs84Lat":31.259301,"__source_file__":"13-常用公服设施点/CSV/上海市_汽车维修.csv"},"geometry":{"type":"Point","coordinates":[121.49529,31.259301]}},{"id":"4183","type":"Feature","properties":{"id":"B0JRL53U33","name":"维修保养","address":"海拉尔路与通州路交叉口南40米","type":"汽车维修;汽车维修;汽车维修","typecode":"030000","pcode":310000,"pname":"上海市","citycode":21,"cityname":"上海市","adcode":310109,"adname":"虹口区","business_area":"提篮桥","location":"121.495709,31.257656","tel":"[]","bigType":"汽车维修","midType":"汽车维修","smallType":"汽车维修","gcj_lng":121.495709,"gcj_lat":31.257656,"wgs84_loc":"121.49126,31.25965","wgs84Lng":121.49126,"wgs84Lat":31.25965,"__source_file__":"13-常用公服设施点/CSV/上海市_汽车维修.csv"},"geometry":{"type":"Point","coordinates":[121.49126,31.25965]}},{"id":"3560","type":"Feature","properties":{"id":"B0FFLJ3R96","name":"车杰汽修连锁","address":"海拉尔路浦江名邸","type":"汽车维修;汽车维修;汽车维修","typecode":"030000","pcode":310000,"pname":"上海市","citycode":21,"cityname":"上海市","adcode":310109,"adname":"虹口区","business_area":"四平路","location":"121.495776,31.257756","tel":"13162955555","bigType":"汽车维修","midType":"汽车维修","smallType":"汽车维修","gcj_lng":121.495776,"gcj_lat":31.257756,"wgs84_loc":"121.491327,31.25975","wgs84Lng":121.491327,"wgs84Lat":31.25975,"__source_file__":"13-常用公服设施点/CSV/上海市_汽车维修.csv"},"geometry":{"type":"Point","coordinates":[121.491327,31.25975]}},{"id":"4182","type":"Feature","properties":{"id":"B0KRRPNZAN","name":"火宝专业汽车维修","address":"中兴路与东宝兴路交叉口北40米","type":"汽车维修;汽车维修;汽车维修","typecode":"030000","pcode":310000,"pname":"上海市","citycode":21,"cityname":"上海市","adcode":310109,"adname":"虹口区","business_area":"宝山路","location":"121.478091,31.260850","tel":"[]","bigType":"汽车维修","midType":"汽车维修","smallType":"汽车维修","gcj_lng":121.478091,"gcj_lat":31.26085,"wgs84_loc":"121.47358,31.262791","wgs84Lng":121.47358,"wgs84Lat":31.262791,"__source_file__":"13-常用公服设施点/CSV/上海市_汽车维修.csv"},"geometry":{"type":"Point","coordinates":[121.47358,31.262791]}},{"id":"325","type":"Feature","properties":{"id":"B0G3RSALEO","name":"意诚修理厂","address":"华昌路与青云路交叉口东南约100米","type":"汽车维修;汽车维修;汽车维修","typecode":"030000","pcode":310000,"pname":"上海市","citycode":21,"cityname":"上海市","adcode":310109,"adname":"虹口区","business_area":"宝山路","location":"121.475522,31.264229","tel":"[]","bigType":"汽车维修","midType":"汽车维修","smallType":"汽车维修","gcj_lng":121.475522,"gcj_lat":31.264229,"wgs84_loc":"121.471002,31.266161","wgs84Lng":121.471002,"wgs84Lat":31.266161,"__source_file__":"13-常用公服设施点/CSV/上海市_汽车维修.csv"},"geometry":{"type":"Point","coordinates":[121.471002,31.266161]}},{"id":"4014","type":"Feature","properties":{"id":"B0K649ROHR","name":"车小二精养馆(汽车搭电补胎救援快修)","address":"溧阳华府附近","type":"汽车维修;汽车维修;汽车维修","typecode":"030000","pcode":310000,"pname":"上海市","citycode":21,"cityname":"上海市","adcode":310109,"adname":"虹口区","business_area":"曲阳","location":"121.488672,31.264550","tel":"16601729360","bigType":"汽车维修","midType":"汽车维修","smallType":"汽车维修","gcj_lng":121.488672,"gcj_lat":31.26455,"wgs84_loc":"121.484197,31.26652","wgs84Lng":121.484197,"wgs84Lat":31.26652,"__source_file__":"13-常用公服设施点/CSV/上海市_汽车维修.csv"},"geometry":{"type":"Point","coordinates":[121.484197,31.26652]}},{"id":"329","type":"Feature","properties":{"id":"B0FFJ02WOJ","name":"友君汽修","address":"欧阳路8号","type":"汽车维修;汽车维修;汽车维修","typecode":"030000","pcode":310000,"pname":"上海市","citycode":21,"cityname":"上海市","adcode":310109,"adname":"虹口区","business_area":"曲阳","location":"121.489470,31.264669","tel":"021-66056138;13040659456","bigType":"汽车维修","midType":"汽车维修","smallType":"汽车维修","gcj_lng":121.48947,"gcj_lat":31.264669,"wgs84_loc":"121.484998,31.266641","wgs84Lng":121.484998,"wgs84Lat":31.266641,"__source_file__":"13-常用公服设施点/CSV/上海市_汽车维修.csv"},"geometry":{"type":"Point","coordinates":[121.484998,31.266641]}},{"id":"3831","type":"Feature","properties":{"id":"B0FFL17VZW","name":"欧阳快修","address":"四达路1号附近","type":"汽车维修;汽车维修;汽车维修","typecode":"030000","pcode":310000,"pname":"上海市","citycode":21,"cityname":"上海市","adcode":310109,"adname":"虹口区","business_area":"曲阳","location":"121.489834,31.267101","tel":"[]","bigType":"汽车维修","midType":"汽车维修","smallType":"汽车维修","gcj_lng":121.489834,"gcj_lat":31.267101,"wgs84_loc":"121.485363,31.269073","wgs84Lng":121.485363,"wgs84Lat":31.269073,"__source_file__":"13-常用公服设施点/CSV/上海市_汽车维修.csv"},"geometry":{"type":"Point","coordinates":[121.485363,31.269073]}},{"id":"229","type":"Feature","properties":{"id":"B0G0PLG89O","name":"广媛汽车养护快修","address":"洛川中路与泽州路交叉口西南约80米","type":"汽车维修;汽车维修;汽车维修","typecode":"030000","pcode":310000,"pname":"上海市","citycode":21,"cityname":"上海市","adcode":310106,"adname":"静安区","business_area":"和田","location":"121.452676,31.265767","tel":"[]","bigType":"汽车维修","midType":"汽车维修","smallType":"汽车维修","gcj_lng":121.452676,"gcj_lat":31.265767,"wgs84_loc":"121.448088,31.267642","wgs84Lng":121.448088,"wgs84Lat":31.267642,"__source_file__":"13-常用公服设施点/CSV/上海市_汽车维修.csv"},"geometry":{"type":"Point","coordinates":[121.448088,31.267642]}},{"id":"3644","type":"Feature","properties":{"id":"B00157HZ37","name":"贵台汽车专项维修","address":"洛川中路834号","type":"汽车维修;汽车维修;汽车维修","typecode":"030000","pcode":310000,"pname":"上海市","citycode":21,"cityname":"上海市","adcode":310106,"adname":"静安区","business_area":"和田","location":"121.452548,31.265781","tel":"13636348515","bigType":"汽车维修","midType":"汽车维修","smallType":"汽车维修","gcj_lng":121.452548,"gcj_lat":31.265781,"wgs84_loc":"121.44796,31.267656","wgs84Lng":121.44796,"wgs84Lat":31.267656,"__source_file__":"13-常用公服设施点/CSV/上海市_汽车维修.csv"},"geometry":{"type":"Point","coordinates":[121.44796,31.267656]}},{"id":"253","type":"Feature","properties":{"id":"B0G22ZUFON","name":"上海强生集团汽车修理有限公司","address":"沪太路800号","type":"汽车维修;汽车维修;汽车维修","typecode":"030000","pcode":310000,"pname":"上海市","citycode":21,"cityname":"上海市","adcode":310107,"adname":"普陀区","business_area":"大宁路","location":"121.442647,31.267095","tel":"021-56373737","bigType":"汽车维修","midType":"汽车维修","smallType":"汽车维修","gcj_lng":121.442647,"gcj_lat":31.267095,"wgs84_loc":"121.438036,31.26895","wgs84Lng":121.438036,"wgs84Lat":31.26895,"__source_file__":"13-常用公服设施点/CSV/上海市_汽车维修.csv"},"geometry":{"type":"Point","coordinates":[121.438036,31.26895]}},{"id":"249","type":"Feature","properties":{"id":"B0GRMR10UG","name":"小新汽车美容维修服务有限公司","address":"沪太路818号","type":"汽车维修;汽车维修;汽车维修","typecode":"030000","pcode":310000,"pname":"上海市","citycode":21,"cityname":"上海市","adcode":310107,"adname":"普陀区","business_area":"大宁路","location":"121.442181,31.267467","tel":"[]","bigType":"汽车维修","midType":"汽车维修","smallType":"汽车维修","gcj_lng":121.442181,"gcj_lat":31.267467,"wgs84_loc":"121.437569,31.269321","wgs84Lng":121.437569,"wgs84Lat":31.269321,"__source_file__":"13-常用公服设施点/CSV/上海市_汽车维修.csv"},"geometry":{"type":"Point","coordinates":[121.437569,31.269321]}},{"id":"3499","type":"Feature","properties":{"id":"B0FFHJ1BNG","name":"翔凌大众","address":"老沪太路1282号大宁路路口","type":"汽车维修;汽车维修;汽车维修","typecode":"030000","pcode":310000,"pname":"上海市","citycode":21,"cityname":"上海市","adcode":310106,"adname":"静安区","business_area":"大宁路","location":"121.442804,31.269271","tel":"[]","bigType":"汽车维修","midType":"汽车维修","smallType":"汽车维修","gcj_lng":121.442804,"gcj_lat":31.269271,"wgs84_loc":"121.438193,31.271125","wgs84Lng":121.438193,"wgs84Lat":31.271125,"__source_file__":"13-常用公服设施点/CSV/上海市_汽车维修.csv"},"geometry":{"type":"Point","coordinates":[121.438193,31.271125]}},{"id":"120","type":"Feature","properties":{"id":"B0FFGWUPNN","name":"上海协通崇明汽车销售服务有限公司","address":"柳营路618号上海现代交通商务园区北楼3层302","type":"汽车维修;汽车维修;汽车维修","typecode":"030000","pcode":310000,"pname":"上海市","citycode":21,"cityname":"上海市","adcode":310106,"adname":"静安区","business_area":"和田","location":"121.460151,31.264988","tel":"[]","bigType":"汽车维修","midType":"汽车维修","smallType":"汽车维修","gcj_lng":121.460151,"gcj_lat":31.264988,"wgs84_loc":"121.455583,31.26688","wgs84Lng":121.455583,"wgs84Lat":31.26688,"__source_file__":"13-常用公服设施点/CSV/上海市_汽车维修.csv"},"geometry":{"type":"Point","coordinates":[121.455583,31.26688]}},{"id":"326","type":"Feature","properties":{"id":"B00155HWAQ","name":"上海贝登汽车服务有限公司","address":"中山北路123、129-131号","type":"汽车维修;汽车维修;汽车维修","typecode":"030000","pcode":310000,"pname":"上海市","citycode":21,"cityname":"上海市","adcode":310109,"adname":"虹口区","business_area":"和田","location":"121.471138,31.266574","tel":"021-56620240;021-56310693;13918538233","bigType":"汽车维修","midType":"汽车维修","smallType":"汽车维修","gcj_lng":121.471138,"gcj_lat":31.266574,"wgs84_loc":"121.466604,31.268493","wgs84Lng":121.466604,"wgs84Lat":31.268493,"__source_file__":"13-常用公服设施点/CSV/上海市_汽车维修.csv"},"geometry":{"type":"Point","coordinates":[121.466604,31.268493]}},{"id":"4122","type":"Feature","properties":{"id":"B0LBLRPXOD","name":"壳牌喜力(上海巍啸汽修中心)","address":"中山北路49号-6","type":"汽车维修;汽车维修;汽车维修","typecode":"030000","pcode":310000,"pname":"上海市","citycode":21,"cityname":"上海市","adcode":310109,"adname":"虹口区","business_area":"和田","location":"121.472348,31.267829","tel":"13122077606","bigType":"汽车维修","midType":"汽车维修","smallType":"汽车维修","gcj_lng":121.472348,"gcj_lat":31.267829,"wgs84_loc":"121.467817,31.269751","wgs84Lng":121.467817,"wgs84Lat":31.269751,"__source_file__":"13-常用公服设施点/CSV/上海市_汽车维修.csv"},"geometry":{"type":"Point","coordinates":[121.467817,31.269751]}},{"id":"3328","type":"Feature","properties":{"id":"B00156SKT1","name":"车杰汽车服务","address":"同心路与中山北一路交叉口西北120米","type":"汽车维修;汽车维修;汽车维修","typecode":"030000","pcode":310000,"pname":"上海市","citycode":21,"cityname":"上海市","adcode":310109,"adname":"虹口区","business_area":"和田","location":"121.473007,31.269233","tel":"[]","bigType":"汽车维修","midType":"汽车维修","smallType":"汽车维修","gcj_lng":121.473007,"gcj_lat":31.269233,"wgs84_loc":"121.468478,31.271156","wgs84Lng":121.468478,"wgs84Lat":31.271156,"__source_file__":"13-常用公服设施点/CSV/上海市_汽车维修.csv"},"geometry":{"type":"Point","coordinates":[121.468478,31.271156]}},{"id":"3329","type":"Feature","properties":{"id":"B0IG55J8NK","name":"现货热胶补胎","address":"北宝兴路与柳营路交叉口北80米","type":"汽车维修;汽车维修;汽车维修","typecode":"030000","pcode":310000,"pname":"上海市","citycode":21,"cityname":"上海市","adcode":310109,"adname":"虹口区","business_area":"凉城","location":"121.467551,31.271021","tel":"[]","bigType":"汽车维修","midType":"汽车维修","smallType":"汽车维修","gcj_lng":121.467551,"gcj_lat":31.271021,"wgs84_loc":"121.463005,31.272929","wgs84Lng":121.463005,"wgs84Lat":31.272929,"__source_file__":"13-常用公服设施点/CSV/上海市_汽车维修.csv"},"geometry":{"type":"Point","coordinates":[121.463005,31.272929]}},{"id":"330","type":"Feature","properties":{"id":"B0FFIAX9VU","name":"超捷汽修","address":"北宝兴路169号","type":"汽车维修;汽车维修;汽车维修","typecode":"030000","pcode":310000,"pname":"上海市","citycode":21,"cityname":"上海市","adcode":310109,"adname":"虹口区","business_area":"凉城","location":"121.465948,31.273452","tel":"18821262050;15901812119","bigType":"汽车维修","midType":"汽车维修","smallType":"汽车维修","gcj_lng":121.465948,"gcj_lat":31.273452,"wgs84_loc":"121.461397,31.275355","wgs84Lng":121.461397,"wgs84Lat":31.275355,"__source_file__":"13-常用公服设施点/CSV/上海市_汽车维修.csv"},"geometry":{"type":"Point","coordinates":[121.461397,31.275355]}},{"id":"221","type":"Feature","properties":{"id":"B0FFGJEEAY","name":"上海杰锐汽车修理有限公司","address":"平型关路712-718号","type":"汽车维修;汽车维修;汽车维修","typecode":"030000","pcode":310000,"pname":"上海市","citycode":21,"cityname":"上海市","adcode":310106,"adname":"静安区","business_area":"大宁路","location":"121.460176,31.275824","tel":"021-56330776;13321868198","bigType":"汽车维修","midType":"汽车维修","smallType":"汽车维修","gcj_lng":121.460176,"gcj_lat":31.275824,"wgs84_loc":"121.455608,31.277712","wgs84Lng":121.455608,"wgs84Lat":31.277712,"__source_file__":"13-常用公服设施点/CSV/上海市_汽车维修.csv"},"geometry":{"type":"Point","coordinates":[121.455608,31.277712]}},{"id":"332","type":"Feature","properties":{"id":"B0FFHWU1A0","name":"晓春汽修(虹口店)","address":"新同心路186号","type":"汽车维修;汽车维修;汽车维修","typecode":"030000","pcode":310000,"pname":"上海市","citycode":21,"cityname":"上海市","adcode":310109,"adname":"虹口区","business_area":"凉城","location":"121.467270,31.276471","tel":"021-62709699;021-64883588","bigType":"汽车维修","midType":"汽车维修","smallType":"汽车维修","gcj_lng":121.46727,"gcj_lat":31.276471,"wgs84_loc":"121.462723,31.278376","wgs84Lng":121.462723,"wgs84Lat":31.278376,"__source_file__":"13-常用公服设施点/CSV/上海市_汽车维修.csv"},"geometry":{"type":"Point","coordinates":[121.462723,31.278376]}}],"name":"上海市_汽车维修","crs":{"type":"name","properties":{"name":"urn:ogc:def:crs:OGC:1.3:CRS84"}}}