{"type":"FeatureCollection","features":[{"id":"40","type":"Feature","properties":{"id":"B0H2YMWFQS","name":"通畅拖车搭电修车送油道路救援","address":"北京西路1301号","type":"汽车服务;汽车救援;汽车救援","typecode":"010700","pcode":310000,"pname":"上海市","citycode":21,"cityname":"上海市","adcode":310106,"adname":"静安区","business_area":"曹家渡","location":"121.450420,31.228217","tel":"13122371169","bigType":"汽车服务","midType":"汽车救援","smallType":"汽车救援","gcj_lng":121.45042,"gcj_lat":31.228217,"wgs84_loc":"121.44583,31.230104","wgs84Lng":121.44583,"wgs84Lat":31.230104,"__source_file__":"13-常用公服设施点/CSV/上海市_汽车救援.csv"},"geometry":{"type":"Point","coordinates":[121.44583,31.230104]}},{"id":"39","type":"Feature","properties":{"id":"B0H3FCAF48","name":"元力汽车拖车道路救援服务公司","address":"北京西路1280号","type":"汽车服务;汽车救援;汽车救援","typecode":"010700","pcode":310000,"pname":"上海市","citycode":21,"cityname":"上海市","adcode":310106,"adname":"静安区","business_area":"曹家渡","location":"121.451199,31.229156","tel":"18521497126","bigType":"汽车服务","midType":"汽车救援","smallType":"汽车救援","gcj_lng":121.451199,"gcj_lat":31.229156,"wgs84_loc":"121.446611,31.231044","wgs84Lng":121.446611,"wgs84Lat":31.231044,"__source_file__":"13-常用公服设施点/CSV/上海市_汽车救援.csv"},"geometry":{"type":"Point","coordinates":[121.446611,31.231044]}},{"id":"4","type":"Feature","properties":{"id":"B0H2YUWPWJ","name":"速畅拖车搭电修车送油道路救援","address":"云南中路234号","type":"汽车服务;汽车救援;汽车救援","typecode":"010700","pcode":310000,"pname":"上海市","citycode":21,"cityname":"上海市","adcode":310101,"adname":"黄浦区","business_area":"北京东路","location":"121.477571,31.232347","tel":"13120937110","bigType":"汽车服务","midType":"汽车救援","smallType":"汽车救援","gcj_lng":121.477571,"gcj_lat":31.232347,"wgs84_loc":"121.473061,31.234299","wgs84Lng":121.473061,"wgs84Lat":31.234299,"__source_file__":"13-常用公服设施点/CSV/上海市_汽车救援.csv"},"geometry":{"type":"Point","coordinates":[121.473061,31.234299]}},{"id":"67","type":"Feature","properties":{"id":"B0I31U22A0","name":"卓驰汽车维修拖车道路救援中心","address":"北苏州路1040号","type":"汽车服务;汽车救援;汽车救援","typecode":"010700","pcode":310000,"pname":"上海市","citycode":21,"cityname":"上海市","adcode":310106,"adname":"静安区","business_area":"北京东路","location":"121.472595,31.241244","tel":"13063312682","bigType":"汽车服务","midType":"汽车救援","smallType":"汽车救援","gcj_lng":121.472595,"gcj_lat":31.241244,"wgs84_loc":"121.468067,31.243178","wgs84Lng":121.468067,"wgs84Lat":31.243178,"__source_file__":"13-常用公服设施点/CSV/上海市_汽车救援.csv"},"geometry":{"type":"Point","coordinates":[121.468067,31.243178]}},{"id":"9","type":"Feature","properties":{"id":"B0H3DUSZHZ","name":"上海小汪拖车救援维修服务点","address":"永兴路830号","type":"汽车服务;汽车救援;汽车救援","typecode":"010700","pcode":310000,"pname":"上海市","citycode":21,"cityname":"上海市","adcode":310106,"adname":"静安区","business_area":"宝山路","location":"121.461887,31.251158","tel":"16712110995;17521763195","bigType":"汽车服务","midType":"汽车救援","smallType":"汽车救援","gcj_lng":121.461887,"gcj_lat":31.251158,"wgs84_loc":"121.457326,31.25306","wgs84Lng":121.457326,"wgs84Lat":31.25306,"__source_file__":"13-常用公服设施点/CSV/上海市_汽车救援.csv"},"geometry":{"type":"Point","coordinates":[121.457326,31.25306]}},{"id":"10","type":"Feature","properties":{"id":"B0FFHM6A5R","name":"上海安畅汽车牵引有限公司(老沪太路店)","address":"老沪太路1300号","type":"汽车服务;汽车救援;汽车救援","typecode":"010700","pcode":310000,"pname":"上海市","citycode":21,"cityname":"上海市","adcode":310106,"adname":"静安区","business_area":"大宁路","location":"121.442464,31.269158","tel":"4008895995","bigType":"汽车服务","midType":"汽车救援","smallType":"汽车救援","gcj_lng":121.442464,"gcj_lat":31.269158,"wgs84_loc":"121.437852,31.271012","wgs84Lng":121.437852,"wgs84Lat":31.271012,"__source_file__":"13-常用公服设施点/CSV/上海市_汽车救援.csv"},"geometry":{"type":"Point","coordinates":[121.437852,31.271012]}},{"id":"3","type":"Feature","properties":{"id":"B0H2YUYD64","name":"先发拖车搭电修车送油道路救援","address":"方浜西路73号","type":"汽车服务;汽车救援;汽车救援","typecode":"010700","pcode":310000,"pname":"上海市","citycode":21,"cityname":"上海市","adcode":310101,"adname":"黄浦区","business_area":"淮海路","location":"121.482316,31.221072","tel":"15601687110","bigType":"汽车服务","midType":"汽车救援","smallType":"汽车救援","gcj_lng":121.482316,"gcj_lat":31.221072,"wgs84_loc":"121.477823,31.223043","wgs84Lng":121.477823,"wgs84Lat":31.223043,"__source_file__":"13-常用公服设施点/CSV/上海市_汽车救援.csv"},"geometry":{"type":"Point","coordinates":[121.477823,31.223043]}},{"id":"38","type":"Feature","properties":{"id":"B0FFKG9JCS","name":"上海佰通拖车道路救援汽车潍修服务公司","address":"淮海中路1号柳林大厦","type":"汽车服务;汽车救援;汽车救援","typecode":"010700","pcode":310000,"pname":"上海市","citycode":21,"cityname":"上海市","adcode":310101,"adname":"黄浦区","business_area":"淮海路","location":"121.480319,31.224848","tel":"17717858114","bigType":"汽车服务","midType":"汽车救援","smallType":"汽车救援","gcj_lng":121.480319,"gcj_lat":31.224848,"wgs84_loc":"121.475819,31.226811","wgs84Lng":121.475819,"wgs84Lat":31.226811,"__source_file__":"13-常用公服设施点/CSV/上海市_汽车救援.csv"},"geometry":{"type":"Point","coordinates":[121.475819,31.226811]}},{"id":"37","type":"Feature","properties":{"id":"B0HR5UAN6H","name":"路通搭电拖车道路救援送油抢修厂","address":"云南南路5号","type":"汽车服务;汽车救援;汽车救援","typecode":"010700","pcode":310000,"pname":"上海市","citycode":21,"cityname":"上海市","adcode":310101,"adname":"黄浦区","business_area":"北京东路","location":"121.480171,31.228791","tel":"13215522769","bigType":"汽车服务","midType":"汽车救援","smallType":"汽车救援","gcj_lng":121.480171,"gcj_lat":31.228791,"wgs84_loc":"121.47567,31.230752","wgs84Lng":121.47567,"wgs84Lat":31.230752,"__source_file__":"13-常用公服设施点/CSV/上海市_汽车救援.csv"},"geometry":{"type":"Point","coordinates":[121.47567,31.230752]}},{"id":"50","type":"Feature","properties":{"id":"B0H2MS1X3W","name":"通聚拖车搭电修车送油道路救援","address":"高阳路625号","type":"汽车服务;汽车救援;汽车救援","typecode":"010700","pcode":310000,"pname":"上海市","citycode":21,"cityname":"上海市","adcode":310109,"adname":"虹口区","business_area":"四平路","location":"121.498327,31.258099","tel":"17601234453","bigType":"汽车服务","midType":"汽车救援","smallType":"汽车救援","gcj_lng":121.498327,"gcj_lat":31.258099,"wgs84_loc":"121.493887,31.2601","wgs84Lng":121.493887,"wgs84Lat":31.2601,"__source_file__":"13-常用公服设施点/CSV/上海市_汽车救援.csv"},"geometry":{"type":"Point","coordinates":[121.493887,31.2601]}}],"name":"上海市_汽车救援","crs":{"type":"name","properties":{"name":"urn:ogc:def:crs:OGC:1.3:CRS84"}}}