{"type":"FeatureCollection","features":[{"id":"1","type":"Feature","properties":{"id":"B0FFG3WIZD","name":"黄浦区牙病防治所","address":"江西中路136弄2号","type":"医疗保健服务;疾病预防机构;疾病预防","typecode":"090500","pcode":310000,"pname":"上海市","citycode":21,"cityname":"上海市","adcode":310101,"adname":"黄浦区","business_area":"北京东路","location":"121.487693,31.234125","tel":"[]","bigType":"医疗保健服务","midType":"疾病预防机构","smallType":"疾病预防","gcj_lng":121.487693,"gcj_lat":31.234125,"wgs84_loc":"121.483217,31.236105","wgs84Lng":121.483217,"wgs84Lat":31.236105,"__source_file__":"13-常用公服设施点/CSV/上海市_疾病预防机构.csv"},"geometry":{"type":"Point","coordinates":[121.483217,31.236105]}},{"id":"5","type":"Feature","properties":{"id":"B0G1YSSJ8T","name":"静安区牙病防治所江宁分所","address":"江宁路422号甲","type":"医疗保健服务;疾病预防机构;疾病预防","typecode":"090500","pcode":310000,"pname":"上海市","citycode":21,"cityname":"上海市","adcode":310106,"adname":"静安区","business_area":"曹家渡","location":"121.453862,31.234834","tel":"021-62530433","bigType":"医疗保健服务","midType":"疾病预防机构","smallType":"疾病预防","gcj_lng":121.453862,"gcj_lat":31.234834,"wgs84_loc":"121.44928,31.236725","wgs84Lng":121.44928,"wgs84Lat":31.236725,"__source_file__":"13-常用公服设施点/CSV/上海市_疾病预防机构.csv"},"geometry":{"type":"Point","coordinates":[121.44928,31.236725]}},{"id":"61","type":"Feature","properties":{"id":"B0FFLEPFNV","name":"外滩街道社区卫生服务中心预防接种门诊","address":"五福弄无锡小区东南侧","type":"医疗保健服务;疾病预防机构;疾病预防","typecode":"090500","pcode":310000,"pname":"上海市","citycode":21,"cityname":"上海市","adcode":310101,"adname":"黄浦区","business_area":"北京东路","location":"121.480824,31.238310","tel":"[]","bigType":"医疗保健服务","midType":"疾病预防机构","smallType":"疾病预防","gcj_lng":121.480824,"gcj_lat":31.23831,"wgs84_loc":"121.476324,31.240269","wgs84Lng":121.476324,"wgs84Lat":31.240269,"__source_file__":"13-常用公服设施点/CSV/上海市_疾病预防机构.csv"},"geometry":{"type":"Point","coordinates":[121.476324,31.240269]}},{"id":"44","type":"Feature","properties":{"id":"B0FFLGJW7L","name":"中国铁路上海局集团有限公司上海疾病预防控制所","address":"虬江路与民德路交叉口东北100米","type":"医疗保健服务;疾病预防机构;疾病预防","typecode":"090500","pcode":310000,"pname":"上海市","citycode":21,"cityname":"上海市","adcode":310106,"adname":"静安区","business_area":"宝山路","location":"121.471837,31.251235","tel":"[]","bigType":"医疗保健服务","midType":"疾病预防机构","smallType":"疾病预防","gcj_lng":121.471837,"gcj_lat":31.251235,"wgs84_loc":"121.467306,31.253163","wgs84Lng":121.467306,"wgs84Lat":31.253163,"__source_file__":"13-常用公服设施点/CSV/上海市_疾病预防机构.csv"},"geometry":{"type":"Point","coordinates":[121.467306,31.253163]}},{"id":"14","type":"Feature","properties":{"id":"B00155EZ8X","name":"中国铁路上海局集团有限公司上海疾病预防控制所","address":"虬江路1059号","type":"医疗保健服务;疾病预防机构;疾病预防","typecode":"090500","pcode":310000,"pname":"上海市","citycode":21,"cityname":"上海市","adcode":310106,"adname":"静安区","business_area":"宝山路","location":"121.471912,31.251363","tel":"021-51225397","bigType":"医疗保健服务","midType":"疾病预防机构","smallType":"疾病预防","gcj_lng":121.471912,"gcj_lat":31.251363,"wgs84_loc":"121.467381,31.253291","wgs84Lng":121.467381,"wgs84Lat":31.253291,"__source_file__":"13-常用公服设施点/CSV/上海市_疾病预防机构.csv"},"geometry":{"type":"Point","coordinates":[121.467381,31.253291]}},{"id":"50","type":"Feature","properties":{"id":"B0FFHZMOXT","name":"闸北牙病防治区","address":"平型关路27-1临附近","type":"医疗保健服务;疾病预防机构;疾病预防","typecode":"090500","pcode":310000,"pname":"上海市","citycode":21,"cityname":"上海市","adcode":310106,"adname":"静安区","business_area":"和田","location":"121.468441,31.264317","tel":"[]","bigType":"医疗保健服务","midType":"疾病预防机构","smallType":"疾病预防","gcj_lng":121.468441,"gcj_lat":31.264317,"wgs84_loc":"121.463898,31.26623","wgs84Lng":121.463898,"wgs84Lat":31.26623,"__source_file__":"13-常用公服设施点/CSV/上海市_疾病预防机构.csv"},"geometry":{"type":"Point","coordinates":[121.463898,31.26623]}},{"id":"45","type":"Feature","properties":{"id":"B0FFHY8U7Y","name":"上海市眼病防治中心(康定路院区)-病房","address":"陕西北路805号","type":"医疗保健服务;疾病预防机构;疾病预防","typecode":"090500","pcode":310000,"pname":"上海市","citycode":21,"cityname":"上海市","adcode":310106,"adname":"静安区","business_area":"曹家渡","location":"121.448997,31.234894","tel":"[]","bigType":"医疗保健服务","midType":"疾病预防机构","smallType":"疾病预防","gcj_lng":121.448997,"gcj_lat":31.234894,"wgs84_loc":"121.444403,31.236775","wgs84Lng":121.444403,"wgs84Lat":31.236775,"__source_file__":"13-常用公服设施点/CSV/上海市_疾病预防机构.csv"},"geometry":{"type":"Point","coordinates":[121.444403,31.236775]}},{"id":"92","type":"Feature","properties":{"id":"B0JAFKGFU9","name":"中远两湾城疫苗接种点","address":"中潭路与潘家湾路交叉口东南80米","type":"医疗保健服务;疾病预防机构;疾病预防","typecode":"090500","pcode":310000,"pname":"上海市","citycode":21,"cityname":"上海市","adcode":310107,"adname":"普陀区","business_area":"光新","location":"121.444136,31.250612","tel":"[]","bigType":"医疗保健服务","midType":"疾病预防机构","smallType":"疾病预防","gcj_lng":121.444136,"gcj_lat":31.250612,"wgs84_loc":"121.439529,31.252477","wgs84Lng":121.439529,"wgs84Lat":31.252477,"__source_file__":"13-常用公服设施点/CSV/上海市_疾病预防机构.csv"},"geometry":{"type":"Point","coordinates":[121.439529,31.252477]}},{"id":"7","type":"Feature","properties":{"id":"B0IG9ZAZWA","name":"宜川公园新冠疫苗免费接种点","address":"宜川路与洛川路交叉口东南100米","type":"医疗保健服务;疾病预防机构;疾病预防","typecode":"090500","pcode":310000,"pname":"上海市","citycode":21,"cityname":"上海市","adcode":310107,"adname":"普陀区","business_area":"大宁路","location":"121.440261,31.259549","tel":"[]","bigType":"医疗保健服务","midType":"疾病预防机构","smallType":"疾病预防","gcj_lng":121.440261,"gcj_lat":31.259549,"wgs84_loc":"121.435646,31.261403","wgs84Lng":121.435646,"wgs84Lat":31.261403,"__source_file__":"13-常用公服设施点/CSV/上海市_疾病预防机构.csv"},"geometry":{"type":"Point","coordinates":[121.435646,31.261403]}},{"id":"22","type":"Feature","properties":{"id":"B0HK3DLD2Q","name":"动物检疫服务点","address":"大宁路与万荣路交叉口西南约160米","type":"医疗保健服务;疾病预防机构;疾病预防","typecode":"090500","pcode":310000,"pname":"上海市","citycode":21,"cityname":"上海市","adcode":310106,"adname":"静安区","business_area":"大宁路","location":"121.444893,31.271019","tel":"[]","bigType":"医疗保健服务","midType":"疾病预防机构","smallType":"疾病预防","gcj_lng":121.444893,"gcj_lat":31.271019,"wgs84_loc":"121.440286,31.272876","wgs84Lng":121.440286,"wgs84Lat":31.272876,"__source_file__":"13-常用公服设施点/CSV/上海市_疾病预防机构.csv"},"geometry":{"type":"Point","coordinates":[121.440286,31.272876]}}],"name":"上海市_疾病预防机构","crs":{"type":"name","properties":{"name":"urn:ogc:def:crs:OGC:1.3:CRS84"}}}