{"type":"FeatureCollection","features":[{"id":"36","type":"Feature","properties":{"id":"B0G3VSDTNC","name":"上海本吉金融信息服务有限公司","address":"上海市成都北路500号2006室","type":"金融保险服务;财务公司;财务公司","typecode":160600,"pcode":310000,"pname":"上海市","citycode":21,"cityname":"上海市","adcode":310101,"adname":"黄浦区","business_area":"北京东路","location":"121.467405,31.231711","tel":"[]","bigType":"金融保险服务","midType":"财务公司","smallType":"财务公司","gcj_lng":121.467405,"gcj_lat":31.231711,"wgs84_loc":"121.462862,31.233636","wgs84Lng":121.462862,"wgs84Lat":31.233636,"__source_file__":"13-常用公服设施点/CSV/上海市_财务公司.csv"},"geometry":{"type":"Point","coordinates":[121.462862,31.233636]}},{"id":"37","type":"Feature","properties":{"id":"B0FFKRQ1JV","name":"上海赛舟投资集团有限公司","address":"恒通路360号12B01室","type":"金融保险服务;财务公司;财务公司","typecode":160600,"pcode":310000,"pname":"上海市","citycode":21,"cityname":"上海市","adcode":310106,"adname":"静安区","business_area":"[]","location":"121.457324,31.240514","tel":"18701870359","bigType":"金融保险服务","midType":"财务公司","smallType":"财务公司","gcj_lng":121.457324,"gcj_lat":31.240514,"wgs84_loc":"121.452751,31.24241","wgs84Lng":121.452751,"wgs84Lat":31.24241,"__source_file__":"13-常用公服设施点/CSV/上海市_财务公司.csv"},"geometry":{"type":"Point","coordinates":[121.452751,31.24241]}},{"id":"38","type":"Feature","properties":{"id":"B0FFJ8SCUE","name":"上海屹隽财务咨询有限公司","address":"汉中路158号汉中广场605-606室","type":"金融保险服务;财务公司;财务公司","typecode":160600,"pcode":310000,"pname":"上海市","citycode":21,"cityname":"上海市","adcode":310106,"adname":"静安区","business_area":"[]","location":"121.457994,31.242352","tel":"15900866646","bigType":"金融保险服务","midType":"财务公司","smallType":"财务公司","gcj_lng":121.457994,"gcj_lat":31.242352,"wgs84_loc":"121.453422,31.244249","wgs84Lng":121.453422,"wgs84Lat":31.244249,"__source_file__":"13-常用公服设施点/CSV/上海市_财务公司.csv"},"geometry":{"type":"Point","coordinates":[121.453422,31.244249]}},{"id":"58","type":"Feature","properties":{"id":"B0FFM727OH","name":"银河期货有限公司上海分公司","address":"东大名路501号上海白玉兰广场28层2803室","type":"金融保险服务;财务公司;财务公司","typecode":160600,"pcode":310000,"pname":"上海市","citycode":21,"cityname":"上海市","adcode":310109,"adname":"虹口区","business_area":"提篮桥","location":"121.497787,31.249019","tel":"021-65789195","bigType":"金融保险服务","midType":"财务公司","smallType":"财务公司","gcj_lng":121.497787,"gcj_lat":31.249019,"wgs84_loc":"121.493346,31.251023","wgs84Lng":121.493346,"wgs84Lat":31.251023,"__source_file__":"13-常用公服设施点/CSV/上海市_财务公司.csv"},"geometry":{"type":"Point","coordinates":[121.493346,31.251023]}},{"id":"56","type":"Feature","properties":{"id":"B0GRLUMZVI","name":"上海鸣熙资产管理有限公司","address":"东长治路359号双狮汇大厦B座1803-1805室","type":"金融保险服务;财务公司;财务公司","typecode":160600,"pcode":310000,"pname":"上海市","citycode":21,"cityname":"上海市","adcode":310109,"adname":"虹口区","business_area":"提篮桥","location":"121.496340,31.250101","tel":"[]","bigType":"金融保险服务","midType":"财务公司","smallType":"财务公司","gcj_lng":121.49634,"gcj_lat":31.250101,"wgs84_loc":"121.491894,31.2521","wgs84Lng":121.491894,"wgs84Lat":31.2521,"__source_file__":"13-常用公服设施点/CSV/上海市_财务公司.csv"},"geometry":{"type":"Point","coordinates":[121.491894,31.2521]}}],"name":"上海市_财务公司","crs":{"type":"name","properties":{"name":"urn:ogc:def:crs:OGC:1.3:CRS84"}}}