{"type":"FeatureCollection","features":[{"id":"46","type":"Feature","properties":{"id":"B0IUTU7ARM","name":"半岛花园-西南门(网约车上车点)","address":"西康路与宜昌路交叉口东北20米","type":"交通设施服务;上下客区;上下客区","typecode":151400,"pcode":310000,"pname":"上海市","citycode":21,"cityname":"上海市","adcode":310107,"adname":"普陀区","business_area":"长寿路","location":"121.434475,31.245206","tel":"[]","bigType":"交通设施服务","midType":"上下客区","smallType":"上下客区","gcj_lng":121.434475,"gcj_lat":31.245206,"wgs84_loc":"121.42985,31.247057","wgs84Lng":121.42985,"wgs84Lat":31.247057,"__source_file__":"13-常用公服设施点/CSV/上海市_上下客区.csv"},"geometry":{"type":"Point","coordinates":[121.42985,31.247057]}},{"id":"18","type":"Feature","properties":{"id":"B0H1HMR027","name":"上海站出租车上客区","address":"秣陵路303号上海站","type":"交通设施服务;上下客区;出租车","typecode":151402,"pcode":310000,"pname":"上海市","citycode":21,"cityname":"上海市","adcode":310106,"adname":"静安区","business_area":"[]","location":"121.454326,31.247736","tel":"[]","bigType":"交通设施服务","midType":"上下客区","smallType":"出租车","gcj_lng":121.454326,"gcj_lat":31.247736,"wgs84_loc":"121.449744,31.249622","wgs84Lng":121.449744,"wgs84Lat":31.249622,"__source_file__":"13-常用公服设施点/CSV/上海市_上下客区.csv"},"geometry":{"type":"Point","coordinates":[121.449744,31.249622]}},{"id":"19","type":"Feature","properties":{"id":"B0H1HMR028","name":"上海站出租车下客区","address":"秣陵路303号上海站","type":"交通设施服务;上下客区;出租车","typecode":151402,"pcode":310000,"pname":"上海市","citycode":21,"cityname":"上海市","adcode":310106,"adname":"静安区","business_area":"[]","location":"121.454284,31.247751","tel":"[]","bigType":"交通设施服务","midType":"上下客区","smallType":"出租车","gcj_lng":121.454284,"gcj_lat":31.247751,"wgs84_loc":"121.449702,31.249637","wgs84Lng":121.449702,"wgs84Lat":31.249637,"__source_file__":"13-常用公服设施点/CSV/上海市_上下客区.csv"},"geometry":{"type":"Point","coordinates":[121.449702,31.249637]}},{"id":"16","type":"Feature","properties":{"id":"B0H1HMRFDK","name":"上海站出租车上客区","address":"秣陵路303号上海站","type":"交通设施服务;上下客区;出租车","typecode":151402,"pcode":310000,"pname":"上海市","citycode":21,"cityname":"上海市","adcode":310106,"adname":"静安区","business_area":"[]","location":"121.455218,31.248189","tel":"[]","bigType":"交通设施服务","midType":"上下客区","smallType":"出租车","gcj_lng":121.455218,"gcj_lat":31.248189,"wgs84_loc":"121.450638,31.250077","wgs84Lng":121.450638,"wgs84Lat":31.250077,"__source_file__":"13-常用公服设施点/CSV/上海市_上下客区.csv"},"geometry":{"type":"Point","coordinates":[121.450638,31.250077]}},{"id":"17","type":"Feature","properties":{"id":"B0H1HMSASC","name":"上海站出租车下客区","address":"秣陵路303号上海站","type":"交通设施服务;上下客区;出租车","typecode":151402,"pcode":310000,"pname":"上海市","citycode":21,"cityname":"上海市","adcode":310106,"adname":"静安区","business_area":"[]","location":"121.455218,31.248189","tel":"[]","bigType":"交通设施服务","midType":"上下客区","smallType":"出租车","gcj_lng":121.455218,"gcj_lat":31.248189,"wgs84_loc":"121.450638,31.250077","wgs84Lng":121.450638,"wgs84Lat":31.250077,"__source_file__":"13-常用公服设施点/CSV/上海市_上下客区.csv"},"geometry":{"type":"Point","coordinates":[121.450638,31.250077]}}],"name":"上海市_上下客区","crs":{"type":"name","properties":{"name":"urn:ogc:def:crs:OGC:1.3:CRS84"}}}