{"type":"FeatureCollection","features":[{"id":"410","type":"Feature","properties":{"id":"B0HUGDR3L5","name":"三A学车(自营静安店)","address":"南京西路1601室","type":"科教文化服务;驾校;驾校","typecode":"141500","pcode":310000,"pname":"上海市","citycode":21,"cityname":"上海市","adcode":310106,"adname":"静安区","business_area":"曹家渡","location":"121.447958,31.223914","tel":"[]","bigType":"科教文化服务","midType":"驾校","smallType":"驾校","gcj_lng":121.447958,"gcj_lat":31.223914,"wgs84_loc":"121.443362,31.225798","wgs84Lng":121.443362,"wgs84Lat":31.225798,"__source_file__":"13-常用公服设施点/CSV/上海市_驾校.csv"},"geometry":{"type":"Point","coordinates":[121.443362,31.225798]}},{"id":"58","type":"Feature","properties":{"id":"B0H2J7TSFN","name":"胜尊驾校","address":"长寿路780号","type":"科教文化服务;驾校;驾校","typecode":"141500","pcode":310000,"pname":"上海市","citycode":21,"cityname":"上海市","adcode":310107,"adname":"普陀区","business_area":"曹家渡","location":"121.431713,31.236748","tel":"[]","bigType":"科教文化服务","midType":"驾校","smallType":"驾校","gcj_lng":121.431713,"gcj_lat":31.236748,"wgs84_loc":"121.427084,31.238599","wgs84Lng":121.427084,"wgs84Lat":31.238599,"__source_file__":"13-常用公服设施点/CSV/上海市_驾校.csv"},"geometry":{"type":"Point","coordinates":[121.427084,31.238599]}},{"id":"65","type":"Feature","properties":{"id":"B0HUOYE35F","name":"开心无忧学车(静安店)","address":"长寿路1号出口","type":"科教文化服务;驾校;驾校","typecode":"141500","pcode":310000,"pname":"上海市","citycode":21,"cityname":"上海市","adcode":310107,"adname":"普陀区","business_area":"曹家渡","location":"121.440360,31.242090","tel":"[]","bigType":"科教文化服务","midType":"驾校","smallType":"驾校","gcj_lng":121.44036,"gcj_lat":31.24209,"wgs84_loc":"121.435746,31.243952","wgs84Lng":121.435746,"wgs84Lat":31.243952,"__source_file__":"13-常用公服设施点/CSV/上海市_驾校.csv"},"geometry":{"type":"Point","coordinates":[121.435746,31.243952]}},{"id":"409","type":"Feature","properties":{"id":"B0G1P6HQ6I","name":"上海广源驾校","address":"宝昌路255号","type":"科教文化服务;驾校;驾校","typecode":"141500","pcode":310000,"pname":"上海市","citycode":21,"cityname":"上海市","adcode":310106,"adname":"静安区","business_area":"宝山路","location":"121.476113,31.257206","tel":"[]","bigType":"科教文化服务","midType":"驾校","smallType":"驾校","gcj_lng":121.476113,"gcj_lat":31.257206,"wgs84_loc":"121.471596,31.259143","wgs84Lng":121.471596,"wgs84Lat":31.259143,"__source_file__":"13-常用公服设施点/CSV/上海市_驾校.csv"},"geometry":{"type":"Point","coordinates":[121.471596,31.259143]}},{"id":"403","type":"Feature","properties":{"id":"B0FFJYPN46","name":"上海巴士驾校(静安校区)","address":"西藏北路881号","type":"科教文化服务;驾校;驾校","typecode":"141500","pcode":310000,"pname":"上海市","citycode":21,"cityname":"上海市","adcode":310106,"adname":"静安区","business_area":"宝山路","location":"121.467279,31.257261","tel":"13052111208","bigType":"科教文化服务","midType":"驾校","smallType":"驾校","gcj_lng":121.467279,"gcj_lat":31.257261,"wgs84_loc":"121.462733,31.259174","wgs84Lng":121.462733,"wgs84Lat":31.259174,"__source_file__":"13-常用公服设施点/CSV/上海市_驾校.csv"},"geometry":{"type":"Point","coordinates":[121.462733,31.259174]}},{"id":"405","type":"Feature","properties":{"id":"B0FFKJO7EB","name":"强生驾校报名处","address":"延长路105号","type":"科教文化服务;驾校;驾校|生活服务;生活服务场所;生活服务场所","typecode":"141500|070000","pcode":310000,"pname":"上海市","citycode":21,"cityname":"上海市","adcode":310106,"adname":"静安区","business_area":"凉城","location":"121.462361,31.274435","tel":"13916429828","bigType":"科教文化服务","midType":"驾校","smallType":"驾校|生活服务","gcj_lng":121.462361,"gcj_lat":31.274435,"wgs84_loc":"121.457799,31.276328","wgs84Lng":121.457799,"wgs84Lat":31.276328,"__source_file__":"13-常用公服设施点/CSV/上海市_驾校.csv"},"geometry":{"type":"Point","coordinates":[121.457799,31.276328]}},{"id":"384","type":"Feature","properties":{"id":"B0HA6DAAMX","name":"大众驾校(黄浦淮海东路27)","address":"淮海东路27号","type":"科教文化服务;驾校;驾校","typecode":"141500","pcode":310000,"pname":"上海市","citycode":21,"cityname":"上海市","adcode":310101,"adname":"黄浦区","business_area":"城隍庙","location":"121.483018,31.226557","tel":"13585800013","bigType":"科教文化服务","midType":"驾校","smallType":"驾校","gcj_lng":121.483018,"gcj_lat":31.226557,"wgs84_loc":"121.478527,31.228527","wgs84Lng":121.478527,"wgs84Lat":31.228527,"__source_file__":"13-常用公服设施点/CSV/上海市_驾校.csv"},"geometry":{"type":"Point","coordinates":[121.478527,31.228527]}},{"id":"853","type":"Feature","properties":{"id":"B0KK3LX6BR","name":"三A学车报名处(人民广场店)","address":"人民广场地铁站1号口","type":"科教文化服务;驾校;驾校","typecode":"141500","pcode":310000,"pname":"上海市","citycode":21,"cityname":"上海市","adcode":310101,"adname":"黄浦区","business_area":"北京路","location":"121.476503,31.230857","tel":"13671705599","bigType":"科教文化服务","midType":"驾校","smallType":"驾校","gcj_lng":121.476503,"gcj_lat":31.230857,"wgs84_loc":"121.471989,31.232807","wgs84Lng":121.471989,"wgs84Lat":31.232807,"__source_file__":"13-常用公服设施点/CSV/上海市_驾校.csv"},"geometry":{"type":"Point","coordinates":[121.471989,31.232807]}},{"id":"838","type":"Feature","properties":{"id":"B0ID77LEN8","name":"派学车(人民广场店)","address":"九江路675号长江新能源大厦6栋ab室","type":"科教文化服务;驾校;驾校","typecode":"141500","pcode":310000,"pname":"上海市","citycode":21,"cityname":"上海市","adcode":310101,"adname":"黄浦区","business_area":"北京东路","location":"121.476962,31.234024","tel":"18221248176","bigType":"科教文化服务","midType":"驾校","smallType":"驾校","gcj_lng":121.476962,"gcj_lat":31.234024,"wgs84_loc":"121.472449,31.235974","wgs84Lng":121.472449,"wgs84Lat":31.235974,"__source_file__":"13-常用公服设施点/CSV/上海市_驾校.csv"},"geometry":{"type":"Point","coordinates":[121.472449,31.235974]}},{"id":"852","type":"Feature","properties":{"id":"B0J13AFIY1","name":"上海驾校(南京东路店)","address":"汉口路300号9楼905室","type":"科教文化服务;驾校;驾校","typecode":"141500","pcode":310000,"pname":"上海市","citycode":21,"cityname":"上海市","adcode":310101,"adname":"黄浦区","business_area":"北京路","location":"121.484374,31.236177","tel":"18221248176","bigType":"科教文化服务","midType":"驾校","smallType":"驾校","gcj_lng":121.484374,"gcj_lat":31.236177,"wgs84_loc":"121.479887,31.238147","wgs84Lng":121.479887,"wgs84Lat":31.238147,"__source_file__":"13-常用公服设施点/CSV/上海市_驾校.csv"},"geometry":{"type":"Point","coordinates":[121.479887,31.238147]}},{"id":"386","type":"Feature","properties":{"id":"B0G3FCMKC9","name":"湖人驾校","address":"东江湾路444号","type":"科教文化服务;驾校;驾校","typecode":"141500","pcode":310000,"pname":"上海市","citycode":21,"cityname":"上海市","adcode":310109,"adname":"虹口区","business_area":"曲阳","location":"121.480873,31.270111","tel":"[]","bigType":"科教文化服务","midType":"驾校","smallType":"驾校","gcj_lng":121.480873,"gcj_lat":31.270111,"wgs84_loc":"121.476371,31.272056","wgs84Lng":121.476371,"wgs84Lat":31.272056,"__source_file__":"13-常用公服设施点/CSV/上海市_驾校.csv"},"geometry":{"type":"Point","coordinates":[121.476371,31.272056]}},{"id":"779","type":"Feature","properties":{"id":"B0FFJC9J8R","name":"派学车","address":"西江湾路与同煌路交叉口西南约60米","type":"科教文化服务;驾校;驾校","typecode":"141500","pcode":310000,"pname":"上海市","citycode":21,"cityname":"上海市","adcode":310109,"adname":"虹口区","business_area":"和田","location":"121.478744,31.271113","tel":"[]","bigType":"科教文化服务","midType":"驾校","smallType":"驾校","gcj_lng":121.478744,"gcj_lat":31.271113,"wgs84_loc":"121.474234,31.273051","wgs84Lng":121.474234,"wgs84Lat":31.273051,"__source_file__":"13-常用公服设施点/CSV/上海市_驾校.csv"},"geometry":{"type":"Point","coordinates":[121.474234,31.273051]}},{"id":"737","type":"Feature","properties":{"id":"B0FFK6JV9G","name":"巴士学车","address":"西江湾路388号凯德虹口商业中心旁边","type":"科教文化服务;驾校;驾校","typecode":"141500","pcode":310000,"pname":"上海市","citycode":21,"cityname":"上海市","adcode":310109,"adname":"虹口区","business_area":"和田","location":"121.477568,31.271557","tel":"[]","bigType":"科教文化服务","midType":"驾校","smallType":"驾校","gcj_lng":121.477568,"gcj_lat":31.271557,"wgs84_loc":"121.473054,31.273492","wgs84Lng":121.473054,"wgs84Lat":31.273492,"__source_file__":"13-常用公服设施点/CSV/上海市_驾校.csv"},"geometry":{"type":"Point","coordinates":[121.473054,31.273492]}},{"id":"778","type":"Feature","properties":{"id":"B0FFKS9CDH","name":"模拟驾驶教室","address":"同心路1045弄22之2号西北100米","type":"科教文化服务;驾校;驾校","typecode":"141500","pcode":310000,"pname":"上海市","citycode":21,"cityname":"上海市","adcode":310109,"adname":"虹口区","business_area":"凉城","location":"121.470133,31.276498","tel":"[]","bigType":"科教文化服务","midType":"驾校","smallType":"驾校","gcj_lng":121.470133,"gcj_lat":31.276498,"wgs84_loc":"121.465595,31.27841","wgs84Lng":121.465595,"wgs84Lat":31.27841,"__source_file__":"13-常用公服设施点/CSV/上海市_驾校.csv"},"geometry":{"type":"Point","coordinates":[121.465595,31.27841]}}],"name":"上海市_驾校","crs":{"type":"name","properties":{"name":"urn:ogc:def:crs:OGC:1.3:CRS84"}}}