{"type":"FeatureCollection","features":[{"id":"898","type":"Feature","properties":{"id":"B00156GL6U","name":"韩国乐园旅行社(上海代表处)","address":"延安中路1440号阿波罗大厦6层620号","type":"生活服务;旅行社;旅行社","typecode":"070100","pcode":310000,"pname":"上海市","citycode":21,"cityname":"上海市","adcode":310106,"adname":"静安区","business_area":"曹家渡","location":"121.447294,31.221624","tel":"[]","bigType":"生活服务","midType":"旅行社","smallType":"旅行社","gcj_lng":121.447294,"gcj_lat":31.221624,"wgs84_loc":"121.442697,31.223508","wgs84Lng":121.442697,"wgs84Lat":31.223508,"__source_file__":"13-常用公服设施点/CSV/上海市_旅行社.csv"},"geometry":{"type":"Point","coordinates":[121.442697,31.223508]}},{"id":"1103","type":"Feature","properties":{"id":"B0IRPZ404M","name":"携程旅游(南京西路门市)","address":"南京西路1678弄19号","type":"生活服务;旅行社;旅行社","typecode":"070100","pcode":310000,"pname":"上海市","citycode":21,"cityname":"上海市","adcode":310106,"adname":"静安区","business_area":"静安寺","location":"121.445737,31.223451","tel":"13816397922","bigType":"生活服务","midType":"旅行社","smallType":"旅行社","gcj_lng":121.445737,"gcj_lat":31.223451,"wgs84_loc":"121.441136,31.225331","wgs84Lng":121.441136,"wgs84Lat":31.225331,"__source_file__":"13-常用公服设施点/CSV/上海市_旅行社.csv"},"geometry":{"type":"Point","coordinates":[121.441136,31.225331]}},{"id":"586","type":"Feature","properties":{"id":"B0FFG69V6J","name":"上海旅游咨询服务中心(南京西路)","address":"南京西路1678弄19号","type":"生活服务;旅行社;旅行社","typecode":"070100","pcode":310000,"pname":"上海市","citycode":21,"cityname":"上海市","adcode":310106,"adname":"静安区","business_area":"淮海路","location":"121.445722,31.223456","tel":"[]","bigType":"生活服务","midType":"旅行社","smallType":"旅行社","gcj_lng":121.445722,"gcj_lat":31.223456,"wgs84_loc":"121.441121,31.225336","wgs84Lng":121.441121,"wgs84Lat":31.225336,"__source_file__":"13-常用公服设施点/CSV/上海市_旅行社.csv"},"geometry":{"type":"Point","coordinates":[121.441121,31.225336]}},{"id":"882","type":"Feature","properties":{"id":"B0HGVLRBBL","name":"商务国际旅行社","address":"愚园路172号环球世界大厦主楼","type":"生活服务;旅行社;旅行社","typecode":"070100","pcode":310000,"pname":"上海市","citycode":21,"cityname":"上海市","adcode":310106,"adname":"静安区","business_area":"曹家渡","location":"121.444316,31.224227","tel":"[]","bigType":"生活服务","midType":"旅行社","smallType":"旅行社","gcj_lng":121.444316,"gcj_lat":31.224227,"wgs84_loc":"121.439712,31.226104","wgs84Lng":121.439712,"wgs84Lat":31.226104,"__source_file__":"13-常用公服设施点/CSV/上海市_旅行社.csv"},"geometry":{"type":"Point","coordinates":[121.439712,31.226104]}},{"id":"919","type":"Feature","properties":{"id":"B0FFLM43B6","name":"上海芒果国际旅行社","address":"延平路121号三和大厦7楼D座","type":"生活服务;旅行社;旅行社","typecode":"070100","pcode":310000,"pname":"上海市","citycode":21,"cityname":"上海市","adcode":310106,"adname":"静安区","business_area":"曹家渡","location":"121.441056,31.228480","tel":"[]","bigType":"生活服务","midType":"旅行社","smallType":"旅行社","gcj_lng":121.441056,"gcj_lat":31.22848,"wgs84_loc":"121.436445,31.230349","wgs84Lng":121.436445,"wgs84Lat":31.230349,"__source_file__":"13-常用公服设施点/CSV/上海市_旅行社.csv"},"geometry":{"type":"Point","coordinates":[121.436445,31.230349]}},{"id":"628","type":"Feature","properties":{"id":"B0FFJOZLU4","name":"锦春国际旅行社","address":"南汇路44号2楼","type":"生活服务;旅行社;旅行社","typecode":"070100","pcode":310000,"pname":"上海市","citycode":21,"cityname":"上海市","adcode":310106,"adname":"静安区","business_area":"淮海路","location":"121.457227,31.229644","tel":"[]","bigType":"生活服务","midType":"旅行社","smallType":"旅行社","gcj_lng":121.457227,"gcj_lat":31.229644,"wgs84_loc":"121.452654,31.231545","wgs84Lng":121.452654,"wgs84Lat":31.231545,"__source_file__":"13-常用公服设施点/CSV/上海市_旅行社.csv"},"geometry":{"type":"Point","coordinates":[121.452654,31.231545]}},{"id":"603","type":"Feature","properties":{"id":"B00155HNAE","name":"梅龙镇国际旅行社有限公司","address":"北京西路1003号","type":"生活服务;旅行社;旅行社","typecode":"070100","pcode":310000,"pname":"上海市","citycode":21,"cityname":"上海市","adcode":310106,"adname":"静安区","business_area":"淮海路","location":"121.455962,31.230344","tel":"021-62710670","bigType":"生活服务","midType":"旅行社","smallType":"旅行社","gcj_lng":121.455962,"gcj_lat":31.230344,"wgs84_loc":"121.451386,31.232242","wgs84Lng":121.451386,"wgs84Lat":31.232242,"__source_file__":"13-常用公服设施点/CSV/上海市_旅行社.csv"},"geometry":{"type":"Point","coordinates":[121.451386,31.232242]}},{"id":"957","type":"Feature","properties":{"id":"B0FFFP0NQ2","name":"上海银发国际旅行有限公司","address":"江宁路167号新城大厦1103B","type":"生活服务;旅行社;旅行社","typecode":"070100","pcode":310000,"pname":"上海市","citycode":21,"cityname":"上海市","adcode":310106,"adname":"静安区","business_area":"淮海路","location":"121.454466,31.230600","tel":"[]","bigType":"生活服务","midType":"旅行社","smallType":"旅行社","gcj_lng":121.454466,"gcj_lat":31.2306,"wgs84_loc":"121.449886,31.232495","wgs84Lng":121.449886,"wgs84Lat":31.232495,"__source_file__":"13-常用公服设施点/CSV/上海市_旅行社.csv"},"geometry":{"type":"Point","coordinates":[121.449886,31.232495]}},{"id":"564","type":"Feature","properties":{"id":"B00155FYJI","name":"东方旅行社","address":"新昌路103号","type":"生活服务;旅行社;旅行社","typecode":"070100","pcode":310000,"pname":"上海市","citycode":21,"cityname":"上海市","adcode":310101,"adname":"黄浦区","business_area":"北京东路","location":"121.469138,31.232818","tel":"[]","bigType":"生活服务","midType":"旅行社","smallType":"旅行社","gcj_lng":121.469138,"gcj_lat":31.232818,"wgs84_loc":"121.4646,31.234747","wgs84Lng":121.4646,"wgs84Lat":31.234747,"__source_file__":"13-常用公服设施点/CSV/上海市_旅行社.csv"},"geometry":{"type":"Point","coordinates":[121.4646,31.234747]}},{"id":"608","type":"Feature","properties":{"id":"B0HAYS0XGO","name":"上海牛拓国际旅行社","address":"北京西路555号","type":"生活服务;旅行社;旅行社","typecode":"070100","pcode":310000,"pname":"上海市","citycode":21,"cityname":"上海市","adcode":310106,"adname":"静安区","business_area":"淮海路","location":"121.462894,31.233317","tel":"021-53015690;021-63462715","bigType":"生活服务","midType":"旅行社","smallType":"旅行社","gcj_lng":121.462894,"gcj_lat":31.233317,"wgs84_loc":"121.458337,31.23523","wgs84Lng":121.458337,"wgs84Lat":31.23523,"__source_file__":"13-常用公服设施点/CSV/上海市_旅行社.csv"},"geometry":{"type":"Point","coordinates":[121.458337,31.23523]}},{"id":"575","type":"Feature","properties":{"id":"B00154DA1Y","name":"春秋旅游","address":"西藏中路342号华旭国际大厦1层","type":"生活服务;旅行社;旅行社","typecode":"070100","pcode":310000,"pname":"上海市","citycode":21,"cityname":"上海市","adcode":310101,"adname":"黄浦区","business_area":"北京东路","location":"121.475570,31.233559","tel":"021-63516666","bigType":"生活服务","midType":"旅行社","smallType":"旅行社","gcj_lng":121.47557,"gcj_lat":31.233559,"wgs84_loc":"121.471053,31.235505","wgs84Lng":121.471053,"wgs84Lat":31.235505,"__source_file__":"13-常用公服设施点/CSV/上海市_旅行社.csv"},"geometry":{"type":"Point","coordinates":[121.471053,31.235505]}},{"id":"585","type":"Feature","properties":{"id":"B0FFF9RISR","name":"华鑫旅行社(锦西路营业部人民广场出发点)","address":"南京西路58号(地铁7号口)","type":"生活服务;旅行社;旅行社","typecode":"070100","pcode":310000,"pname":"上海市","citycode":21,"cityname":"上海市","adcode":310101,"adname":"黄浦区","business_area":"北京东路","location":"121.474091,31.234785","tel":"[]","bigType":"生活服务","midType":"旅行社","smallType":"旅行社","gcj_lng":121.474091,"gcj_lat":31.234785,"wgs84_loc":"121.469569,31.236726","wgs84Lng":121.469569,"wgs84Lat":31.236726,"__source_file__":"13-常用公服设施点/CSV/上海市_旅行社.csv"},"geometry":{"type":"Point","coordinates":[121.469569,31.236726]}},{"id":"624","type":"Feature","properties":{"id":"B00153C85C","name":"上海阳光商务旅行社","address":"江宁路420号和一大厦24楼h","type":"生活服务;旅行社;旅行社","typecode":"070100","pcode":310000,"pname":"上海市","citycode":21,"cityname":"上海市","adcode":310106,"adname":"静安区","business_area":"曹家渡","location":"121.453736,31.234952","tel":"[]","bigType":"生活服务","midType":"旅行社","smallType":"旅行社","gcj_lng":121.453736,"gcj_lat":31.234952,"wgs84_loc":"121.449154,31.236843","wgs84Lng":121.449154,"wgs84Lat":31.236843,"__source_file__":"13-常用公服设施点/CSV/上海市_旅行社.csv"},"geometry":{"type":"Point","coordinates":[121.449154,31.236843]}},{"id":"974","type":"Feature","properties":{"id":"B0FFHHNFIH","name":"中青旅(北京西路营业部)","address":"北京西路358号","type":"生活服务;旅行社;旅行社","typecode":"070100","pcode":310000,"pname":"上海市","citycode":21,"cityname":"上海市","adcode":310101,"adname":"黄浦区","business_area":"北京东路","location":"121.467080,31.235079","tel":"[]","bigType":"生活服务","midType":"旅行社","smallType":"旅行社","gcj_lng":121.46708,"gcj_lat":31.235079,"wgs84_loc":"121.462536,31.237002","wgs84Lng":121.462536,"wgs84Lat":31.237002,"__source_file__":"13-常用公服设施点/CSV/上海市_旅行社.csv"},"geometry":{"type":"Point","coordinates":[121.462536,31.237002]}},{"id":"884","type":"Feature","properties":{"id":"B00155M0AK","name":"中国国旅(北京西路分部)","address":"北京西路276号","type":"生活服务;旅行社;旅行社","typecode":"070100","pcode":310000,"pname":"上海市","citycode":21,"cityname":"上海市","adcode":310101,"adname":"黄浦区","business_area":"北京东路","location":"121.468630,31.235650","tel":"[]","bigType":"生活服务","midType":"旅行社","smallType":"旅行社","gcj_lng":121.46863,"gcj_lat":31.23565,"wgs84_loc":"121.46409,31.237576","wgs84Lng":121.46409,"wgs84Lat":31.237576,"__source_file__":"13-常用公服设施点/CSV/上海市_旅行社.csv"},"geometry":{"type":"Point","coordinates":[121.46409,31.237576]}},{"id":"589","type":"Feature","properties":{"id":"B0FFI9DJMV","name":"中信旅游","address":"武定路1088号阳光科技广场14号楼3楼","type":"生活服务;旅行社;旅行社","typecode":"070100","pcode":310000,"pname":"上海市","citycode":21,"cityname":"上海市","adcode":310106,"adname":"静安区","business_area":"曹家渡","location":"121.441760,31.229918","tel":"021-61702833","bigType":"生活服务","midType":"旅行社","smallType":"旅行社","gcj_lng":121.44176,"gcj_lat":31.229918,"wgs84_loc":"121.43715,31.231788","wgs84Lng":121.43715,"wgs84Lat":31.231788,"__source_file__":"13-常用公服设施点/CSV/上海市_旅行社.csv"},"geometry":{"type":"Point","coordinates":[121.43715,31.231788]}},{"id":"635","type":"Feature","properties":{"id":"B0I6A7DAML","name":"信旅上海国际旅行社有限公司","address":"武定路1088号阳光科技广场14号楼3层","type":"生活服务;旅行社;旅行社","typecode":"070100","pcode":310000,"pname":"上海市","citycode":21,"cityname":"上海市","adcode":310106,"adname":"静安区","business_area":"曹家渡","location":"121.441536,31.229936","tel":"[]","bigType":"生活服务","midType":"旅行社","smallType":"旅行社","gcj_lng":121.441536,"gcj_lat":31.229936,"wgs84_loc":"121.436926,31.231805","wgs84Lng":121.436926,"wgs84Lat":31.231805,"__source_file__":"13-常用公服设施点/CSV/上海市_旅行社.csv"},"geometry":{"type":"Point","coordinates":[121.436926,31.231805]}},{"id":"918","type":"Feature","properties":{"id":"B0FFF5U6EG","name":"上海华一国际旅行社有限公司","address":"康定路1039号","type":"生活服务;旅行社;旅行社","typecode":"070100","pcode":310000,"pname":"上海市","citycode":21,"cityname":"上海市","adcode":310106,"adname":"静安区","business_area":"曹家渡","location":"121.437245,31.230055","tel":"021-60671818;021-60673333","bigType":"生活服务","midType":"旅行社","smallType":"旅行社","gcj_lng":121.437245,"gcj_lat":31.230055,"wgs84_loc":"121.432626,31.231917","wgs84Lng":121.432626,"wgs84Lat":31.231917,"__source_file__":"13-常用公服设施点/CSV/上海市_旅行社.csv"},"geometry":{"type":"Point","coordinates":[121.432626,31.231917]}},{"id":"634","type":"Feature","properties":{"id":"B0HG0705T3","name":"海兴旅行社","address":"余姚路与常德路交叉口西南60米","type":"生活服务;旅行社;旅行社","typecode":"070100","pcode":310000,"pname":"上海市","citycode":21,"cityname":"上海市","adcode":310106,"adname":"静安区","business_area":"曹家渡","location":"121.440384,31.236005","tel":"[]","bigType":"生活服务","midType":"旅行社","smallType":"旅行社","gcj_lng":121.440384,"gcj_lat":31.236005,"wgs84_loc":"121.435771,31.23787","wgs84Lng":121.435771,"wgs84Lat":31.23787,"__source_file__":"13-常用公服设施点/CSV/上海市_旅行社.csv"},"geometry":{"type":"Point","coordinates":[121.435771,31.23787]}},{"id":"316","type":"Feature","properties":{"id":"B0HR6B6CTT","name":"上海不夜城国际旅行社有限公司(叶家宅南路)","address":"长寿路699号国鑫大厦3层","type":"生活服务;旅行社;旅行社","typecode":"070100","pcode":310000,"pname":"上海市","citycode":21,"cityname":"上海市","adcode":310107,"adname":"普陀区","business_area":"曹家渡","location":"121.433277,31.236685","tel":"[]","bigType":"生活服务","midType":"旅行社","smallType":"旅行社","gcj_lng":121.433277,"gcj_lat":31.236685,"wgs84_loc":"121.428651,31.238539","wgs84Lng":121.428651,"wgs84Lat":31.238539,"__source_file__":"13-常用公服设施点/CSV/上海市_旅行社.csv"},"geometry":{"type":"Point","coordinates":[121.428651,31.238539]}},{"id":"308","type":"Feature","properties":{"id":"B0FFK01EZS","name":"唯一邮轮网","address":"长寿路699号国鑫大厦5楼(叶家宅路)","type":"生活服务;旅行社;旅行社","typecode":"070100","pcode":310000,"pname":"上海市","citycode":21,"cityname":"上海市","adcode":310107,"adname":"普陀区","business_area":"曹家渡","location":"121.433202,31.237013","tel":"[]","bigType":"生活服务","midType":"旅行社","smallType":"旅行社","gcj_lng":121.433202,"gcj_lat":31.237013,"wgs84_loc":"121.428576,31.238866","wgs84Lng":121.428576,"wgs84Lat":31.238866,"__source_file__":"13-常用公服设施点/CSV/上海市_旅行社.csv"},"geometry":{"type":"Point","coordinates":[121.428576,31.238866]}},{"id":"305","type":"Feature","properties":{"id":"B001550O8F","name":"不夜城国际旅行社(长寿路分部)","address":"长寿路699号国鑫大厦3-5层","type":"生活服务;旅行社;旅行社","typecode":"070100","pcode":310000,"pname":"上海市","citycode":21,"cityname":"上海市","adcode":310107,"adname":"普陀区","business_area":"曹家渡","location":"121.432932,31.237146","tel":"021-62666266;021-10106266","bigType":"生活服务","midType":"旅行社","smallType":"旅行社","gcj_lng":121.432932,"gcj_lat":31.237146,"wgs84_loc":"121.428305,31.238999","wgs84Lng":121.428305,"wgs84Lat":31.238999,"__source_file__":"13-常用公服设施点/CSV/上海市_旅行社.csv"},"geometry":{"type":"Point","coordinates":[121.428305,31.238999]}},{"id":"964","type":"Feature","properties":{"id":"B00157FL7I","name":"和美航空旅行社","address":"长寿路699号420室(近叶家宅路)","type":"生活服务;旅行社;旅行社","typecode":"070100","pcode":310000,"pname":"上海市","citycode":21,"cityname":"上海市","adcode":310107,"adname":"普陀区","business_area":"曹家渡","location":"121.433219,31.237225","tel":"021-62277530","bigType":"生活服务","midType":"旅行社","smallType":"旅行社","gcj_lng":121.433219,"gcj_lat":31.237225,"wgs84_loc":"121.428593,31.239078","wgs84Lng":121.428593,"wgs84Lat":31.239078,"__source_file__":"13-常用公服设施点/CSV/上海市_旅行社.csv"},"geometry":{"type":"Point","coordinates":[121.428593,31.239078]}},{"id":"912","type":"Feature","properties":{"id":"B0FFLEWMBK","name":"同程旅游常德路体验店","address":"常德路1083-2号","type":"生活服务;旅行社;旅行社","typecode":"070100","pcode":310000,"pname":"上海市","citycode":21,"cityname":"上海市","adcode":310106,"adname":"静安区","business_area":"曹家渡","location":"121.440011,31.237674","tel":"18321610468","bigType":"生活服务","midType":"旅行社","smallType":"旅行社","gcj_lng":121.440011,"gcj_lat":31.237674,"wgs84_loc":"121.435397,31.239537","wgs84Lng":121.435397,"wgs84Lat":31.239537,"__source_file__":"13-常用公服设施点/CSV/上海市_旅行社.csv"},"geometry":{"type":"Point","coordinates":[121.435397,31.239537]}},{"id":"992","type":"Feature","properties":{"id":"B0IGU13HVU","name":"上海京燕国际旅行社","address":"愚园路172号环球世界大厦B座1楼","type":"生活服务;旅行社;旅行社","typecode":"070100","pcode":310000,"pname":"上海市","citycode":21,"cityname":"上海市","adcode":310106,"adname":"静安区","business_area":"曹家渡","location":"121.444540,31.224282","tel":"[]","bigType":"生活服务","midType":"旅行社","smallType":"旅行社","gcj_lng":121.44454,"gcj_lat":31.224282,"wgs84_loc":"121.439937,31.226159","wgs84Lng":121.439937,"wgs84Lat":31.226159,"__source_file__":"13-常用公服设施点/CSV/上海市_旅行社.csv"},"geometry":{"type":"Point","coordinates":[121.439937,31.226159]}},{"id":"620","type":"Feature","properties":{"id":"B00155HNDI","name":"上海国旅(北京西路分部)","address":"北京西路1277号国旅大厦大厅(近西康路)","type":"生活服务;旅行社;旅行社","typecode":"070100","pcode":310000,"pname":"上海市","citycode":21,"cityname":"上海市","adcode":310106,"adname":"静安区","business_area":"曹家渡","location":"121.451144,31.228750","tel":"021-62894512","bigType":"生活服务","midType":"旅行社","smallType":"旅行社","gcj_lng":121.451144,"gcj_lat":31.22875,"wgs84_loc":"121.446556,31.230638","wgs84Lng":121.446556,"wgs84Lat":31.230638,"__source_file__":"13-常用公服设施点/CSV/上海市_旅行社.csv"},"geometry":{"type":"Point","coordinates":[121.446556,31.230638]}},{"id":"627","type":"Feature","properties":{"id":"B0FFM7F7DS","name":"春秋国旅","address":"北京西路1277号国旅大厦","type":"生活服务;旅行社;旅行社","typecode":"070100","pcode":310000,"pname":"上海市","citycode":21,"cityname":"上海市","adcode":310106,"adname":"静安区","business_area":"曹家渡","location":"121.451273,31.228788","tel":"[]","bigType":"生活服务","midType":"旅行社","smallType":"旅行社","gcj_lng":121.451273,"gcj_lat":31.228788,"wgs84_loc":"121.446685,31.230677","wgs84Lng":121.446685,"wgs84Lat":31.230677,"__source_file__":"13-常用公服设施点/CSV/上海市_旅行社.csv"},"geometry":{"type":"Point","coordinates":[121.446685,31.230677]}},{"id":"639","type":"Feature","properties":{"id":"B0FFLONNEP","name":"中信旅游","address":"江宁路418号一天下大厦12层","type":"生活服务;旅行社;旅行社","typecode":"070100","pcode":310000,"pname":"上海市","citycode":21,"cityname":"上海市","adcode":310106,"adname":"静安区","business_area":"曹家渡","location":"121.453503,31.234865","tel":"[]","bigType":"生活服务","midType":"旅行社","smallType":"旅行社","gcj_lng":121.453503,"gcj_lat":31.234865,"wgs84_loc":"121.44892,31.236755","wgs84Lng":121.44892,"wgs84Lat":31.236755,"__source_file__":"13-常用公服设施点/CSV/上海市_旅行社.csv"},"geometry":{"type":"Point","coordinates":[121.44892,31.236755]}},{"id":"949","type":"Feature","properties":{"id":"B0FFIRB1UG","name":"中国旅行社总社","address":"江宁路418-422号和一大厦18楼","type":"生活服务;旅行社;旅行社","typecode":"070100","pcode":310000,"pname":"上海市","citycode":21,"cityname":"上海市","adcode":310106,"adname":"静安区","business_area":"曹家渡","location":"121.453700,31.234938","tel":"[]","bigType":"生活服务","midType":"旅行社","smallType":"旅行社","gcj_lng":121.4537,"gcj_lat":31.234938,"wgs84_loc":"121.449118,31.236829","wgs84Lng":121.449118,"wgs84Lat":31.236829,"__source_file__":"13-常用公服设施点/CSV/上海市_旅行社.csv"},"geometry":{"type":"Point","coordinates":[121.449118,31.236829]}},{"id":"596","type":"Feature","properties":{"id":"B00155MZDH","name":"上海伟邦国际旅行社","address":"江宁路495号","type":"生活服务;旅行社;旅行社","typecode":"070100","pcode":310000,"pname":"上海市","citycode":21,"cityname":"上海市","adcode":310106,"adname":"静安区","business_area":"曹家渡","location":"121.451380,31.235110","tel":"18801959378","bigType":"生活服务","midType":"旅行社","smallType":"旅行社","gcj_lng":121.45138,"gcj_lat":31.23511,"wgs84_loc":"121.446792,31.236996","wgs84Lng":121.446792,"wgs84Lat":31.236996,"__source_file__":"13-常用公服设施点/CSV/上海市_旅行社.csv"},"geometry":{"type":"Point","coordinates":[121.446792,31.236996]}},{"id":"613","type":"Feature","properties":{"id":"B0FFJH8DRB","name":"上海益欣国际旅行社有限公司","address":"上海市上海市静安区","type":"生活服务;旅行社;旅行社","typecode":"070100","pcode":310000,"pname":"上海市","citycode":21,"cityname":"上海市","adcode":310106,"adname":"静安区","business_area":"曹家渡","location":"121.444212,31.237880","tel":"021-62792688","bigType":"生活服务","midType":"旅行社","smallType":"旅行社","gcj_lng":121.444212,"gcj_lat":31.23788,"wgs84_loc":"121.439607,31.239751","wgs84Lng":121.439607,"wgs84Lat":31.239751,"__source_file__":"13-常用公服设施点/CSV/上海市_旅行社.csv"},"geometry":{"type":"Point","coordinates":[121.439607,31.239751]}},{"id":"293","type":"Feature","properties":{"id":"B0FFIIU9PN","name":"阡鹿旅游","address":"陕西北路1438号903-907","type":"生活服务;旅行社;旅行社","typecode":"070100","pcode":310000,"pname":"上海市","citycode":21,"cityname":"上海市","adcode":310107,"adname":"普陀区","business_area":"曹家渡","location":"121.442401,31.242979","tel":"021-61539566","bigType":"生活服务","midType":"旅行社","smallType":"旅行社","gcj_lng":121.442401,"gcj_lat":31.242979,"wgs84_loc":"121.437791,31.244844","wgs84Lng":121.437791,"wgs84Lat":31.244844,"__source_file__":"13-常用公服设施点/CSV/上海市_旅行社.csv"},"geometry":{"type":"Point","coordinates":[121.437791,31.244844]}},{"id":"917","type":"Feature","properties":{"id":"B0HGNGJOCG","name":"华众旅行社","address":"长安路1001号长安大厦1号楼","type":"生活服务;旅行社;旅行社","typecode":"070100","pcode":310000,"pname":"上海市","citycode":21,"cityname":"上海市","adcode":310106,"adname":"静安区","business_area":"[]","location":"121.452201,31.245039","tel":"[]","bigType":"生活服务","midType":"旅行社","smallType":"旅行社","gcj_lng":121.452201,"gcj_lat":31.245039,"wgs84_loc":"121.447614,31.246922","wgs84Lng":121.447614,"wgs84Lat":31.246922,"__source_file__":"13-常用公服设施点/CSV/上海市_旅行社.csv"},"geometry":{"type":"Point","coordinates":[121.447614,31.246922]}},{"id":"614","type":"Feature","properties":{"id":"B0FFGIQU2N","name":"上海祥腾国际旅行社有限公司","address":"长安路1001号长安大厦1号楼1719室","type":"生活服务;旅行社;旅行社","typecode":"070100","pcode":310000,"pname":"上海市","citycode":21,"cityname":"上海市","adcode":310106,"adname":"静安区","business_area":"[]","location":"121.452267,31.245142","tel":"021-31089736","bigType":"生活服务","midType":"旅行社","smallType":"旅行社","gcj_lng":121.452267,"gcj_lat":31.245142,"wgs84_loc":"121.44768,31.247025","wgs84Lng":121.44768,"wgs84Lat":31.247025,"__source_file__":"13-常用公服设施点/CSV/上海市_旅行社.csv"},"geometry":{"type":"Point","coordinates":[121.44768,31.247025]}},{"id":"241","type":"Feature","properties":{"id":"B0FFHJT2AV","name":"上海旅游咨询中心","address":"长寿路457号","type":"生活服务;旅行社;旅行社","typecode":"070100","pcode":310000,"pname":"上海市","citycode":21,"cityname":"上海市","adcode":310107,"adname":"普陀区","business_area":"曹家渡","location":"121.436750,31.238783","tel":"[]","bigType":"生活服务","midType":"旅行社","smallType":"旅行社","gcj_lng":121.43675,"gcj_lat":31.238783,"wgs84_loc":"121.43213,31.240641","wgs84Lng":121.43213,"wgs84Lat":31.240641,"__source_file__":"13-常用公服设施点/CSV/上海市_旅行社.csv"},"geometry":{"type":"Point","coordinates":[121.43213,31.240641]}},{"id":"323","type":"Feature","properties":{"id":"B0FFL9OJHL","name":"漫程旅游签证中心","address":"长寿路393号昆仑大厦617室","type":"生活服务;旅行社;旅行社","typecode":"070100","pcode":310000,"pname":"上海市","citycode":21,"cityname":"上海市","adcode":310107,"adname":"普陀区","business_area":"曹家渡","location":"121.437518,31.239655","tel":"[]","bigType":"生活服务","midType":"旅行社","smallType":"旅行社","gcj_lng":121.437518,"gcj_lat":31.239655,"wgs84_loc":"121.432899,31.241513","wgs84Lng":121.432899,"wgs84Lat":31.241513,"__source_file__":"13-常用公服设施点/CSV/上海市_旅行社.csv"},"geometry":{"type":"Point","coordinates":[121.432899,31.241513]}},{"id":"300","type":"Feature","properties":{"id":"B0FFHPXLDM","name":"上海东晖旅行社有限公司","address":"长寿路393号昆仑商务中心910室","type":"生活服务;旅行社;旅行社","typecode":"070100","pcode":310000,"pname":"上海市","citycode":21,"cityname":"上海市","adcode":310107,"adname":"普陀区","business_area":"曹家渡","location":"121.437537,31.239706","tel":"[]","bigType":"生活服务","midType":"旅行社","smallType":"旅行社","gcj_lng":121.437537,"gcj_lat":31.239706,"wgs84_loc":"121.432918,31.241564","wgs84Lng":121.432918,"wgs84Lat":31.241564,"__source_file__":"13-常用公服设施点/CSV/上海市_旅行社.csv"},"geometry":{"type":"Point","coordinates":[121.432918,31.241564]}},{"id":"970","type":"Feature","properties":{"id":"B0FFF5P159","name":"上海豪鑫旅行社有限公司","address":"长寿路与常德路交叉口西南60米","type":"生活服务;旅行社;旅行社","typecode":"070100","pcode":310000,"pname":"上海市","citycode":21,"cityname":"上海市","adcode":310107,"adname":"普陀区","business_area":"曹家渡","location":"121.437472,31.239770","tel":"[]","bigType":"生活服务","midType":"旅行社","smallType":"旅行社","gcj_lng":121.437472,"gcj_lat":31.23977,"wgs84_loc":"121.432853,31.241628","wgs84Lng":121.432853,"wgs84Lat":31.241628,"__source_file__":"13-常用公服设施点/CSV/上海市_旅行社.csv"},"geometry":{"type":"Point","coordinates":[121.432853,31.241628]}},{"id":"310","type":"Feature","properties":{"id":"B0HGAH0YUY","name":"龙游国际旅行社","address":"长寿路393号","type":"生活服务;旅行社;旅行社","typecode":"070100","pcode":310000,"pname":"上海市","citycode":21,"cityname":"上海市","adcode":310107,"adname":"普陀区","business_area":"曹家渡","location":"121.437487,31.239770","tel":"[]","bigType":"生活服务","midType":"旅行社","smallType":"旅行社","gcj_lng":121.437487,"gcj_lat":31.23977,"wgs84_loc":"121.432868,31.241628","wgs84Lng":121.432868,"wgs84Lat":31.241628,"__source_file__":"13-常用公服设施点/CSV/上海市_旅行社.csv"},"geometry":{"type":"Point","coordinates":[121.432868,31.241628]}},{"id":"290","type":"Feature","properties":{"id":"B00155MZHO","name":"上海绿畅旅行社有限公司","address":"胶州路1118弄5-1号","type":"生活服务;旅行社;旅行社","typecode":"070100","pcode":310000,"pname":"上海市","citycode":21,"cityname":"上海市","adcode":310107,"adname":"普陀区","business_area":"曹家渡","location":"121.432876,31.240385","tel":"[]","bigType":"生活服务","midType":"旅行社","smallType":"旅行社","gcj_lng":121.432876,"gcj_lat":31.240385,"wgs84_loc":"121.428249,31.242236","wgs84Lng":121.428249,"wgs84Lat":31.242236,"__source_file__":"13-常用公服设施点/CSV/上海市_旅行社.csv"},"geometry":{"type":"Point","coordinates":[121.428249,31.242236]}},{"id":"301","type":"Feature","properties":{"id":"B00155LX5P","name":"上海玉屏国际旅行社长寿路营业部","address":"长寿路360号2006室","type":"生活服务;旅行社;旅行社","typecode":"070100","pcode":310000,"pname":"上海市","citycode":21,"cityname":"上海市","adcode":310107,"adname":"普陀区","business_area":"曹家渡","location":"121.439035,31.241942","tel":"[]","bigType":"生活服务","midType":"旅行社","smallType":"旅行社","gcj_lng":121.439035,"gcj_lat":31.241942,"wgs84_loc":"121.434419,31.243802","wgs84Lng":121.434419,"wgs84Lat":31.243802,"__source_file__":"13-常用公服设施点/CSV/上海市_旅行社.csv"},"geometry":{"type":"Point","coordinates":[121.434419,31.243802]}},{"id":"945","type":"Feature","properties":{"id":"B0FFF9R8IZ","name":"上海银叶旅游","address":"长寿路360号源达大厦1013室","type":"生活服务;旅行社;旅行社","typecode":"070100","pcode":310000,"pname":"上海市","citycode":21,"cityname":"上海市","adcode":310107,"adname":"普陀区","business_area":"曹家渡","location":"121.439052,31.242004","tel":"021-51692553","bigType":"生活服务","midType":"旅行社","smallType":"旅行社","gcj_lng":121.439052,"gcj_lat":31.242004,"wgs84_loc":"121.434436,31.243864","wgs84Lng":121.434436,"wgs84Lat":31.243864,"__source_file__":"13-常用公服设施点/CSV/上海市_旅行社.csv"},"geometry":{"type":"Point","coordinates":[121.434436,31.243864]}},{"id":"934","type":"Feature","properties":{"id":"B00156TNJZ","name":"欢天喜地国际旅行社(普陀店)","address":"岚皋路106号","type":"生活服务;旅行社;旅行社","typecode":"070100","pcode":310000,"pname":"上海市","citycode":21,"cityname":"上海市","adcode":310107,"adname":"普陀区","business_area":"光新","location":"121.426676,31.246072","tel":"021-62243609","bigType":"生活服务","midType":"旅行社","smallType":"旅行社","gcj_lng":121.426676,"gcj_lat":31.246072,"wgs84_loc":"121.422039,31.247913","wgs84Lng":121.422039,"wgs84Lat":31.247913,"__source_file__":"13-常用公服设施点/CSV/上海市_旅行社.csv"},"geometry":{"type":"Point","coordinates":[121.422039,31.247913]}},{"id":"240","type":"Feature","properties":{"id":"B0HU7SXIOQ","name":"上海玉屏国际旅行社普陀营业部","address":"中山北路2000号中期大厦23楼","type":"生活服务;旅行社;旅行社","typecode":"070100","pcode":310000,"pname":"上海市","citycode":21,"cityname":"上海市","adcode":310107,"adname":"普陀区","business_area":"光新","location":"121.431988,31.248783","tel":"[]","bigType":"生活服务","midType":"旅行社","smallType":"旅行社","gcj_lng":121.431988,"gcj_lat":31.248783,"wgs84_loc":"121.427359,31.250629","wgs84Lng":121.427359,"wgs84Lat":31.250629,"__source_file__":"13-常用公服设施点/CSV/上海市_旅行社.csv"},"geometry":{"type":"Point","coordinates":[121.427359,31.250629]}},{"id":"625","type":"Feature","properties":{"id":"B00155KJMO","name":"中国国际旅行社(长安大厦店)","address":"长安路1001号长安大厦1号楼16层","type":"生活服务;旅行社;旅行社","typecode":"070100","pcode":310000,"pname":"上海市","citycode":21,"cityname":"上海市","adcode":310106,"adname":"静安区","business_area":"[]","location":"121.452337,31.245214","tel":"021-61104982;021-63174751","bigType":"生活服务","midType":"旅行社","smallType":"旅行社","gcj_lng":121.452337,"gcj_lat":31.245214,"wgs84_loc":"121.44775,31.247097","wgs84Lng":121.44775,"wgs84Lat":31.247097,"__source_file__":"13-常用公服设施点/CSV/上海市_旅行社.csv"},"geometry":{"type":"Point","coordinates":[121.44775,31.247097]}},{"id":"932","type":"Feature","properties":{"id":"B0HD1H33I7","name":"上海神宇国旅行社","address":"长安大厦729","type":"生活服务;旅行社;旅行社","typecode":"070100","pcode":310000,"pname":"上海市","citycode":21,"cityname":"上海市","adcode":310106,"adname":"静安区","business_area":"[]","location":"121.452278,31.245320","tel":"[]","bigType":"生活服务","midType":"旅行社","smallType":"旅行社","gcj_lng":121.452278,"gcj_lat":31.24532,"wgs84_loc":"121.447691,31.247203","wgs84Lng":121.447691,"wgs84Lat":31.247203,"__source_file__":"13-常用公服设施点/CSV/上海市_旅行社.csv"},"geometry":{"type":"Point","coordinates":[121.447691,31.247203]}},{"id":"615","type":"Feature","properties":{"id":"B00155MZLR","name":"协和旅行社","address":"天目西路547号联通国际大厦B座2902室(近长安路)","type":"生活服务;旅行社;旅行社","typecode":"070100","pcode":310000,"pname":"上海市","citycode":21,"cityname":"上海市","adcode":310106,"adname":"静安区","business_area":"光新","location":"121.449868,31.245824","tel":"021-63533021","bigType":"生活服务","midType":"旅行社","smallType":"旅行社","gcj_lng":121.449868,"gcj_lat":31.245824,"wgs84_loc":"121.445275,31.247702","wgs84Lng":121.445275,"wgs84Lat":31.247702,"__source_file__":"13-常用公服设施点/CSV/上海市_旅行社.csv"},"geometry":{"type":"Point","coordinates":[121.445275,31.247702]}},{"id":"642","type":"Feature","properties":{"id":"B0FFF7045Z","name":"希尔顿蜜月行","address":"天目西路511号锦程大厦2318室","type":"生活服务;旅行社;旅行社","typecode":"070100","pcode":310000,"pname":"上海市","citycode":21,"cityname":"上海市","adcode":310106,"adname":"静安区","business_area":"[]","location":"121.451431,31.246201","tel":"[]","bigType":"生活服务","midType":"旅行社","smallType":"旅行社","gcj_lng":121.451431,"gcj_lat":31.246201,"wgs84_loc":"121.446842,31.248082","wgs84Lng":121.446842,"wgs84Lat":31.248082,"__source_file__":"13-常用公服设施点/CSV/上海市_旅行社.csv"},"geometry":{"type":"Point","coordinates":[121.446842,31.248082]}},{"id":"55","type":"Feature","properties":{"id":"B00154ZL5L","name":"上海和平国际旅行社有限公司(长安路)","address":"天目西路511号锦程大厦10楼-1005室","type":"生活服务;旅行社;旅行社","typecode":"070100","pcode":310000,"pname":"上海市","citycode":21,"cityname":"上海市","adcode":310106,"adname":"静安区","business_area":"[]","location":"121.451439,31.246258","tel":"13917592932","bigType":"生活服务","midType":"旅行社","smallType":"旅行社","gcj_lng":121.451439,"gcj_lat":31.246258,"wgs84_loc":"121.44685,31.248139","wgs84Lng":121.44685,"wgs84Lat":31.248139,"__source_file__":"13-常用公服设施点/CSV/上海市_旅行社.csv"},"geometry":{"type":"Point","coordinates":[121.44685,31.248139]}},{"id":"641","type":"Feature","properties":{"id":"B0FFFWUOLM","name":"兴铁旅行社","address":"长安路1138号1308室","type":"生活服务;旅行社;旅行社","typecode":"070100","pcode":310000,"pname":"上海市","citycode":21,"cityname":"上海市","adcode":310106,"adname":"静安区","business_area":"[]","location":"121.451561,31.247029","tel":"[]","bigType":"生活服务","midType":"旅行社","smallType":"旅行社","gcj_lng":121.451561,"gcj_lat":31.247029,"wgs84_loc":"121.446972,31.24891","wgs84Lng":121.446972,"wgs84Lat":31.24891,"__source_file__":"13-常用公服设施点/CSV/上海市_旅行社.csv"},"geometry":{"type":"Point","coordinates":[121.446972,31.24891]}},{"id":"630","type":"Feature","properties":{"id":"B0FFMGQLKL","name":"上海畅行国际旅行社有限公司","address":"长安路1001号长安大厦1办公楼711室","type":"生活服务;旅行社;旅行社","typecode":"070100","pcode":310000,"pname":"上海市","citycode":21,"cityname":"上海市","adcode":310106,"adname":"静安区","business_area":"[]","location":"121.451631,31.247051","tel":"18601732983","bigType":"生活服务","midType":"旅行社","smallType":"旅行社","gcj_lng":121.451631,"gcj_lat":31.247051,"wgs84_loc":"121.447042,31.248932","wgs84Lng":121.447042,"wgs84Lat":31.248932,"__source_file__":"13-常用公服设施点/CSV/上海市_旅行社.csv"},"geometry":{"type":"Point","coordinates":[121.447042,31.248932]}},{"id":"821","type":"Feature","properties":{"id":"B0FFFDNN6W","name":"雅歌国际旅行社上海分社","address":"长安路1138号中房华东大厦16层D、G座","type":"生活服务;旅行社;旅行社","typecode":"070100","pcode":310000,"pname":"上海市","citycode":21,"cityname":"上海市","adcode":310106,"adname":"静安区","business_area":"[]","location":"121.451750,31.247071","tel":"[]","bigType":"生活服务","midType":"旅行社","smallType":"旅行社","gcj_lng":121.45175,"gcj_lat":31.247071,"wgs84_loc":"121.447162,31.248952","wgs84Lng":121.447162,"wgs84Lat":31.248952,"__source_file__":"13-常用公服设施点/CSV/上海市_旅行社.csv"},"geometry":{"type":"Point","coordinates":[121.447162,31.248952]}},{"id":"598","type":"Feature","properties":{"id":"B0G3JD5Q3A","name":"玉屏旅行社(静安区恒丰路店)","address":"恒丰路638号1606室(靠近长安路路口)","type":"生活服务;旅行社;旅行社","typecode":"070100","pcode":310000,"pname":"上海市","citycode":21,"cityname":"上海市","adcode":310106,"adname":"静安区","business_area":"[]","location":"121.452157,31.247387","tel":"13651945908","bigType":"生活服务","midType":"旅行社","smallType":"旅行社","gcj_lng":121.452157,"gcj_lat":31.247387,"wgs84_loc":"121.44757,31.249269","wgs84Lng":121.44757,"wgs84Lat":31.249269,"__source_file__":"13-常用公服设施点/CSV/上海市_旅行社.csv"},"geometry":{"type":"Point","coordinates":[121.44757,31.249269]}},{"id":"601","type":"Feature","properties":{"id":"B0FFHRX8ED","name":"上海趣程假日国际旅行社有限公司总部","address":"恒丰路638号1916室","type":"生活服务;旅行社;旅行社","typecode":"070100","pcode":310000,"pname":"上海市","citycode":21,"cityname":"上海市","adcode":310106,"adname":"静安区","business_area":"[]","location":"121.451733,31.247641","tel":"[]","bigType":"生活服务","midType":"旅行社","smallType":"旅行社","gcj_lng":121.451733,"gcj_lat":31.247641,"wgs84_loc":"121.447144,31.249522","wgs84Lng":121.447144,"wgs84Lat":31.249522,"__source_file__":"13-常用公服设施点/CSV/上海市_旅行社.csv"},"geometry":{"type":"Point","coordinates":[121.447144,31.249522]}},{"id":"941","type":"Feature","properties":{"id":"B0FFLJFJBR","name":"艳阳度假","address":"中山北路1958号华源世界广场16层","type":"生活服务;旅行社;旅行社","typecode":"070100","pcode":310000,"pname":"上海市","citycode":21,"cityname":"上海市","adcode":310107,"adname":"普陀区","business_area":"光新","location":"121.432756,31.249587","tel":"021-61800305","bigType":"生活服务","midType":"旅行社","smallType":"旅行社","gcj_lng":121.432756,"gcj_lat":31.249587,"wgs84_loc":"121.428128,31.251434","wgs84Lng":121.428128,"wgs84Lat":31.251434,"__source_file__":"13-常用公服设施点/CSV/上海市_旅行社.csv"},"geometry":{"type":"Point","coordinates":[121.428128,31.251434]}},{"id":"1133","type":"Feature","properties":{"id":"B0KRBSQRPN","name":"携程旅游(石泉路营业部)","address":"石泉路101-1号","type":"生活服务;旅行社;旅行社","typecode":"070100","pcode":310000,"pname":"上海市","citycode":21,"cityname":"上海市","adcode":310107,"adname":"普陀区","business_area":"光新","location":"121.428211,31.251626","tel":"021-62888299;021-62888770;13916866662","bigType":"生活服务","midType":"旅行社","smallType":"旅行社","gcj_lng":121.428211,"gcj_lat":31.251626,"wgs84_loc":"121.423576,31.253466","wgs84Lng":121.423576,"wgs84Lat":31.253466,"__source_file__":"13-常用公服设施点/CSV/上海市_旅行社.csv"},"geometry":{"type":"Point","coordinates":[121.423576,31.253466]}},{"id":"297","type":"Feature","properties":{"id":"B0H1OOW3XY","name":"悦享旅游","address":"中山北路1759号1103室","type":"生活服务;旅行社;旅行社","typecode":"070100","pcode":310000,"pname":"上海市","citycode":21,"cityname":"上海市","adcode":310107,"adname":"普陀区","business_area":"大宁路","location":"121.433949,31.251987","tel":"[]","bigType":"生活服务","midType":"旅行社","smallType":"旅行社","gcj_lng":121.433949,"gcj_lat":31.251987,"wgs84_loc":"121.429323,31.253835","wgs84Lng":121.429323,"wgs84Lat":31.253835,"__source_file__":"13-常用公服设施点/CSV/上海市_旅行社.csv"},"geometry":{"type":"Point","coordinates":[121.429323,31.253835]}},{"id":"1134","type":"Feature","properties":{"id":"B0K6XPX914","name":"同程旅游(远景路营业部)","address":"远景路662号远景大厦B座B108(中潭路地铁站4号口旁)","type":"生活服务;旅行社;旅行社","typecode":"070100","pcode":310000,"pname":"上海市","citycode":21,"cityname":"上海市","adcode":310107,"adname":"普陀区","business_area":"光新","location":"121.440580,31.254955","tel":"[]","bigType":"生活服务","midType":"旅行社","smallType":"旅行社","gcj_lng":121.44058,"gcj_lat":31.254955,"wgs84_loc":"121.435966,31.256812","wgs84Lng":121.435966,"wgs84Lat":31.256812,"__source_file__":"13-常用公服设施点/CSV/上海市_旅行社.csv"},"geometry":{"type":"Point","coordinates":[121.435966,31.256812]}},{"id":"1136","type":"Feature","properties":{"id":"B0KUJMNSJI","name":"上海盛天旅行社(宜川路店)","address":"宜川路412号","type":"生活服务;旅行社;旅行社","typecode":"070100","pcode":310000,"pname":"上海市","citycode":21,"cityname":"上海市","adcode":310107,"adname":"普陀区","business_area":"大宁路","location":"121.436462,31.264223","tel":"15021429988","bigType":"生活服务","midType":"旅行社","smallType":"旅行社","gcj_lng":121.436462,"gcj_lat":31.264223,"wgs84_loc":"121.431839,31.266069","wgs84Lng":121.431839,"wgs84Lat":31.266069,"__source_file__":"13-常用公服设施点/CSV/上海市_旅行社.csv"},"geometry":{"type":"Point","coordinates":[121.431839,31.266069]}},{"id":"1135","type":"Feature","properties":{"id":"B0KAZRCN80","name":"同程旅行(新村路营业部)","address":"新村路247号","type":"生活服务;旅行社;旅行社","typecode":"070100","pcode":310000,"pname":"上海市","citycode":21,"cityname":"上海市","adcode":310107,"adname":"普陀区","business_area":"大宁路","location":"121.434460,31.266535","tel":"18701985230","bigType":"生活服务","midType":"旅行社","smallType":"旅行社","gcj_lng":121.43446,"gcj_lat":31.266535,"wgs84_loc":"121.429833,31.268377","wgs84Lng":121.429833,"wgs84Lat":31.268377,"__source_file__":"13-常用公服设施点/CSV/上海市_旅行社.csv"},"geometry":{"type":"Point","coordinates":[121.429833,31.268377]}},{"id":"605","type":"Feature","properties":{"id":"B0FFL7EHJK","name":"耀王府旅业","address":"恒丰路辅路与长安路交叉口西约100米","type":"生活服务;旅行社;旅行社","typecode":"070100","pcode":310000,"pname":"上海市","citycode":21,"cityname":"上海市","adcode":310106,"adname":"静安区","business_area":"[]","location":"121.451532,31.247657","tel":"[]","bigType":"生活服务","midType":"旅行社","smallType":"旅行社","gcj_lng":121.451532,"gcj_lat":31.247657,"wgs84_loc":"121.446943,31.249537","wgs84Lng":121.446943,"wgs84Lat":31.249537,"__source_file__":"13-常用公服设施点/CSV/上海市_旅行社.csv"},"geometry":{"type":"Point","coordinates":[121.446943,31.249537]}},{"id":"633","type":"Feature","properties":{"id":"B0FFK6UIKS","name":"上海华欣国际旅行社","address":"恒丰路638号苏河一号写字楼910室","type":"生活服务;旅行社;旅行社","typecode":"070100","pcode":310000,"pname":"上海市","citycode":21,"cityname":"上海市","adcode":310106,"adname":"静安区","business_area":"[]","location":"121.452071,31.247849","tel":"021-52788381;13120613818","bigType":"生活服务","midType":"旅行社","smallType":"旅行社","gcj_lng":121.452071,"gcj_lat":31.247849,"wgs84_loc":"121.447483,31.249731","wgs84Lng":121.447483,"wgs84Lat":31.249731,"__source_file__":"13-常用公服设施点/CSV/上海市_旅行社.csv"},"geometry":{"type":"Point","coordinates":[121.447483,31.249731]}},{"id":"809","type":"Feature","properties":{"id":"B0FFMB91US","name":"佳宜国际旅行社","address":"恒丰路638号苏河1号","type":"生活服务;旅行社;旅行社","typecode":"070100","pcode":310000,"pname":"上海市","citycode":21,"cityname":"上海市","adcode":310106,"adname":"静安区","business_area":"[]","location":"121.451419,31.248018","tel":"[]","bigType":"生活服务","midType":"旅行社","smallType":"旅行社","gcj_lng":121.451419,"gcj_lat":31.248018,"wgs84_loc":"121.44683,31.249898","wgs84Lng":121.44683,"wgs84Lat":31.249898,"__source_file__":"13-常用公服设施点/CSV/上海市_旅行社.csv"},"geometry":{"type":"Point","coordinates":[121.44683,31.249898]}},{"id":"595","type":"Feature","properties":{"id":"B001575P7T","name":"天承国际旅行社","address":"天目西路街道火车站南广场秣陵路355号甲","type":"生活服务;旅行社;旅行社","typecode":"070100","pcode":310000,"pname":"上海市","citycode":21,"cityname":"上海市","adcode":310106,"adname":"静安区","business_area":"[]","location":"121.452472,31.249550","tel":"[]","bigType":"生活服务","midType":"旅行社","smallType":"旅行社","gcj_lng":121.452472,"gcj_lat":31.24955,"wgs84_loc":"121.447885,31.251432","wgs84Lng":121.447885,"wgs84Lat":31.251432,"__source_file__":"13-常用公服设施点/CSV/上海市_旅行社.csv"},"geometry":{"type":"Point","coordinates":[121.447885,31.251432]}},{"id":"632","type":"Feature","properties":{"id":"B0FFL914MB","name":"上海周边一日游旅行社","address":"上海火车站南广场东南出口D07号","type":"生活服务;旅行社;旅行社","typecode":"070100","pcode":310000,"pname":"上海市","citycode":21,"cityname":"上海市","adcode":310106,"adname":"静安区","business_area":"[]","location":"121.451990,31.249629","tel":"15601780747","bigType":"生活服务","midType":"旅行社","smallType":"旅行社","gcj_lng":121.45199,"gcj_lat":31.249629,"wgs84_loc":"121.447402,31.25151","wgs84Lng":121.447402,"wgs84Lat":31.25151,"__source_file__":"13-常用公服设施点/CSV/上海市_旅行社.csv"},"geometry":{"type":"Point","coordinates":[121.447402,31.25151]}},{"id":"318","type":"Feature","properties":{"id":"B0FFI0CQP3","name":"途牛旅游(普陀中潭路店)","address":"中潭路51号103室","type":"生活服务;旅行社;旅行社","typecode":"070100","pcode":310000,"pname":"上海市","citycode":21,"cityname":"上海市","adcode":310107,"adname":"普陀区","business_area":"光新","location":"121.443214,31.251601","tel":"13501712077;021-61184477","bigType":"生活服务","midType":"旅行社","smallType":"旅行社","gcj_lng":121.443214,"gcj_lat":31.251601,"wgs84_loc":"121.438605,31.253464","wgs84Lng":121.438605,"wgs84Lat":31.253464,"__source_file__":"13-常用公服设施点/CSV/上海市_旅行社.csv"},"geometry":{"type":"Point","coordinates":[121.438605,31.253464]}},{"id":"828","type":"Feature","properties":{"id":"B0HG0NTIWA","name":"上海统领国际旅行社","address":"恒丰北路100号林顿大厦","type":"生活服务;旅行社;旅行社","typecode":"070100","pcode":310000,"pname":"上海市","citycode":21,"cityname":"上海市","adcode":310106,"adname":"静安区","business_area":"和田","location":"121.451556,31.255260","tel":"[]","bigType":"生活服务","midType":"旅行社","smallType":"旅行社","gcj_lng":121.451556,"gcj_lat":31.25526,"wgs84_loc":"121.446966,31.257137","wgs84Lng":121.446966,"wgs84Lat":31.257137,"__source_file__":"13-常用公服设施点/CSV/上海市_旅行社.csv"},"geometry":{"type":"Point","coordinates":[121.446966,31.257137]}},{"id":"1105","type":"Feature","properties":{"id":"B0JDB58RHM","name":"上海新金桥国际旅行社万荣路营业部","address":"万荣路105号","type":"生活服务;旅行社;旅行社","typecode":"070100","pcode":310000,"pname":"上海市","citycode":21,"cityname":"上海市","adcode":310106,"adname":"静安区","business_area":"大宁路","location":"121.448924,31.270592","tel":"13817426773","bigType":"生活服务","midType":"旅行社","smallType":"旅行社","gcj_lng":121.448924,"gcj_lat":31.270592,"wgs84_loc":"121.444327,31.272457","wgs84Lng":121.444327,"wgs84Lat":31.272457,"__source_file__":"13-常用公服设施点/CSV/上海市_旅行社.csv"},"geometry":{"type":"Point","coordinates":[121.444327,31.272457]}},{"id":"1110","type":"Feature","properties":{"id":"B0FFG9T85P","name":"秋韵国旅(中兴财富国际公寓店)","address":"中华新路576号","type":"生活服务;旅行社;旅行社","typecode":"070100","pcode":310000,"pname":"上海市","citycode":21,"cityname":"上海市","adcode":310106,"adname":"静安区","business_area":"宝山路","location":"121.463133,31.253396","tel":"021-66605550","bigType":"生活服务","midType":"旅行社","smallType":"旅行社","gcj_lng":121.463133,"gcj_lat":31.253396,"wgs84_loc":"121.458575,31.2553","wgs84Lng":121.458575,"wgs84Lat":31.2553,"__source_file__":"13-常用公服设施点/CSV/上海市_旅行社.csv"},"geometry":{"type":"Point","coordinates":[121.458575,31.2553]}},{"id":"840","type":"Feature","properties":{"id":"B0FFLNJPDK","name":"向阳国际旅行社","address":"芷江中路和田小区东南侧约110米","type":"生活服务;旅行社;旅行社","typecode":"070100","pcode":310000,"pname":"上海市","citycode":21,"cityname":"上海市","adcode":310106,"adname":"静安区","business_area":"宝山路","location":"121.467726,31.258179","tel":"[]","bigType":"生活服务","midType":"旅行社","smallType":"旅行社","gcj_lng":121.467726,"gcj_lat":31.258179,"wgs84_loc":"121.463182,31.260093","wgs84Lng":121.463182,"wgs84Lat":31.260093,"__source_file__":"13-常用公服设施点/CSV/上海市_旅行社.csv"},"geometry":{"type":"Point","coordinates":[121.463182,31.260093]}},{"id":"631","type":"Feature","properties":{"id":"B0FFLGKFPQ","name":"茂晶国旅","address":"西藏北路1044号","type":"生活服务;旅行社;旅行社","typecode":"070100","pcode":310000,"pname":"上海市","citycode":21,"cityname":"上海市","adcode":310106,"adname":"静安区","business_area":"和田","location":"121.467105,31.260854","tel":"[]","bigType":"生活服务","midType":"旅行社","smallType":"旅行社","gcj_lng":121.467105,"gcj_lat":31.260854,"wgs84_loc":"121.462558,31.262765","wgs84Lng":121.462558,"wgs84Lat":31.262765,"__source_file__":"13-常用公服设施点/CSV/上海市_旅行社.csv"},"geometry":{"type":"Point","coordinates":[121.462558,31.262765]}},{"id":"867","type":"Feature","properties":{"id":"B0FFF65ZOA","name":"上海吉途国际旅行社有限公司","address":"柳营路719号富驿酒店2楼","type":"生活服务;旅行社;旅行社","typecode":"070100","pcode":310000,"pname":"上海市","citycode":21,"cityname":"上海市","adcode":310106,"adname":"静安区","business_area":"和田","location":"121.456044,31.264070","tel":"021-62227779","bigType":"生活服务","midType":"旅行社","smallType":"旅行社","gcj_lng":121.456044,"gcj_lat":31.26407,"wgs84_loc":"121.451465,31.265953","wgs84Lng":121.451465,"wgs84Lat":31.265953,"__source_file__":"13-常用公服设施点/CSV/上海市_旅行社.csv"},"geometry":{"type":"Point","coordinates":[121.451465,31.265953]}},{"id":"88","type":"Feature","properties":{"id":"B0G0CKOLMF","name":"瑞景旅行社","address":"同心路与柳营路交叉口南约120米","type":"生活服务;旅行社;旅行社","typecode":"070100","pcode":310000,"pname":"上海市","citycode":21,"cityname":"上海市","adcode":310109,"adname":"虹口区","business_area":"和田","location":"121.470895,31.270955","tel":"[]","bigType":"生活服务","midType":"旅行社","smallType":"旅行社","gcj_lng":121.470895,"gcj_lat":31.270955,"wgs84_loc":"121.466359,31.272872","wgs84Lng":121.466359,"wgs84Lat":31.272872,"__source_file__":"13-常用公服设施点/CSV/上海市_旅行社.csv"},"geometry":{"type":"Point","coordinates":[121.466359,31.272872]}},{"id":"63","type":"Feature","properties":{"id":"B0GD9HMIN2","name":"上海九色鹿旅行社有限公司","address":"柳营路8号M座302室","type":"生活服务;旅行社;旅行社","typecode":"070100","pcode":310000,"pname":"上海市","citycode":21,"cityname":"上海市","adcode":310109,"adname":"虹口区","business_area":"和田","location":"121.470615,31.271389","tel":"17821927826","bigType":"生活服务","midType":"旅行社","smallType":"旅行社","gcj_lng":121.470615,"gcj_lat":31.271389,"wgs84_loc":"121.466078,31.273305","wgs84Lng":121.466078,"wgs84Lat":31.273305,"__source_file__":"13-常用公服设施点/CSV/上海市_旅行社.csv"},"geometry":{"type":"Point","coordinates":[121.466078,31.273305]}},{"id":"610","type":"Feature","properties":{"id":"B0GUJAQUNH","name":"盈科旅游延长路营业部","address":"延长路111号乙","type":"生活服务;旅行社;旅行社","typecode":"070100","pcode":310000,"pname":"上海市","citycode":21,"cityname":"上海市","adcode":310106,"adname":"静安区","business_area":"和田","location":"121.461945,31.274238","tel":"15821352019","bigType":"生活服务","midType":"旅行社","smallType":"旅行社","gcj_lng":121.461945,"gcj_lat":31.274238,"wgs84_loc":"121.457382,31.276131","wgs84Lng":121.457382,"wgs84Lat":31.276131,"__source_file__":"13-常用公服设施点/CSV/上海市_旅行社.csv"},"geometry":{"type":"Point","coordinates":[121.457382,31.276131]}},{"id":"616","type":"Feature","properties":{"id":"B0FFL7MTA9","name":"万国国旅延长路营业部","address":"延长路105号","type":"生活服务;旅行社;旅行社","typecode":"070100","pcode":310000,"pname":"上海市","citycode":21,"cityname":"上海市","adcode":310106,"adname":"静安区","business_area":"和田","location":"121.462315,31.274415","tel":"[]","bigType":"生活服务","midType":"旅行社","smallType":"旅行社","gcj_lng":121.462315,"gcj_lat":31.274415,"wgs84_loc":"121.457753,31.276308","wgs84Lng":121.457753,"wgs84Lat":31.276308,"__source_file__":"13-常用公服设施点/CSV/上海市_旅行社.csv"},"geometry":{"type":"Point","coordinates":[121.457753,31.276308]}},{"id":"542","type":"Feature","properties":{"id":"B0FFH0LJ2B","name":"锦江旅行家","address":"瑞金二路街道长乐路400-2锦江国际旅游中心5层507室","type":"生活服务;旅行社;旅行社","typecode":"070100","pcode":310000,"pname":"上海市","citycode":21,"cityname":"上海市","adcode":310101,"adname":"黄浦区","business_area":"淮海路","location":"121.459648,31.220415","tel":"021-54662525","bigType":"生活服务","midType":"旅行社","smallType":"旅行社","gcj_lng":121.459648,"gcj_lat":31.220415,"wgs84_loc":"121.455083,31.222326","wgs84Lng":121.455083,"wgs84Lat":31.222326,"__source_file__":"13-常用公服设施点/CSV/上海市_旅行社.csv"},"geometry":{"type":"Point","coordinates":[121.455083,31.222326]}},{"id":"551","type":"Feature","properties":{"id":"B0FFIS07TS","name":"上海锦江旅游控股有限公司","address":null,"type":"生活服务;旅行社;旅行社|公司企业;公司;公司","typecode":"070100|170200","pcode":310000,"pname":"上海市","citycode":21,"cityname":"上海市","adcode":310101,"adname":"黄浦区","business_area":"淮海路","location":"121.459993,31.220431","tel":"[]","bigType":"生活服务","midType":"旅行社","smallType":"旅行社|公司企业","gcj_lng":121.459993,"gcj_lat":31.220431,"wgs84_loc":"121.455429,31.222343","wgs84Lng":121.455429,"wgs84Lat":31.222343,"__source_file__":"13-常用公服设施点/CSV/上海市_旅行社.csv"},"geometry":{"type":"Point","coordinates":[121.455429,31.222343]}},{"id":"573","type":"Feature","properties":{"id":"B0FFLK07OI","name":"上海中旅国际旅行社有限公司(澳门路)","address":"长乐路191号","type":"生活服务;旅行社;旅行社","typecode":"070100","pcode":310000,"pname":"上海市","citycode":21,"cityname":"上海市","adcode":310101,"adname":"黄浦区","business_area":"淮海路","location":"121.460060,31.220440","tel":"021-62987666","bigType":"生活服务","midType":"旅行社","smallType":"旅行社","gcj_lng":121.46006,"gcj_lat":31.22044,"wgs84_loc":"121.455496,31.222352","wgs84Lng":121.455496,"wgs84Lat":31.222352,"__source_file__":"13-常用公服设施点/CSV/上海市_旅行社.csv"},"geometry":{"type":"Point","coordinates":[121.455496,31.222352]}},{"id":"541","type":"Feature","properties":{"id":"B0FFFX8U5C","name":"锦江国际旅游中心","address":"长乐路400-2锦江迪生商厦","type":"生活服务;旅行社;旅行社","typecode":"070100","pcode":310000,"pname":"上海市","citycode":21,"cityname":"上海市","adcode":310101,"adname":"黄浦区","business_area":"淮海路","location":"121.459659,31.220753","tel":"4008208286","bigType":"生活服务","midType":"旅行社","smallType":"旅行社","gcj_lng":121.459659,"gcj_lat":31.220753,"wgs84_loc":"121.455094,31.222664","wgs84Lng":121.455094,"wgs84Lat":31.222664,"__source_file__":"13-常用公服设施点/CSV/上海市_旅行社.csv"},"geometry":{"type":"Point","coordinates":[121.455094,31.222664]}},{"id":"552","type":"Feature","properties":{"id":"B00155LZO8","name":"上海旅游咨询服务中心(成都南路店)","address":"成都南路134-136号","type":"生活服务;旅行社;旅行社","typecode":"070100","pcode":310000,"pname":"上海市","citycode":21,"cityname":"上海市","adcode":310101,"adname":"黄浦区","business_area":"淮海路","location":"121.467852,31.221167","tel":"021-53827330","bigType":"生活服务","midType":"旅行社","smallType":"旅行社","gcj_lng":121.467852,"gcj_lat":31.221167,"wgs84_loc":"121.463311,31.223098","wgs84Lng":121.463311,"wgs84Lat":31.223098,"__source_file__":"13-常用公服设施点/CSV/上海市_旅行社.csv"},"geometry":{"type":"Point","coordinates":[121.463311,31.223098]}},{"id":"576","type":"Feature","properties":{"id":"B0H2A77OBZ","name":"上海中国青年旅行社有限公司","address":"陕西南路3号城市一品苑3-4楼N","type":"生活服务;旅行社;旅行社","typecode":"070100","pcode":310000,"pname":"上海市","citycode":21,"cityname":"上海市","adcode":310101,"adname":"黄浦区","business_area":"淮海路","location":"121.457346,31.222726","tel":"[]","bigType":"生活服务","midType":"旅行社","smallType":"旅行社","gcj_lng":121.457346,"gcj_lat":31.222726,"wgs84_loc":"121.452774,31.224631","wgs84Lng":121.452774,"wgs84Lat":31.224631,"__source_file__":"13-常用公服设施点/CSV/上海市_旅行社.csv"},"geometry":{"type":"Point","coordinates":[121.452774,31.224631]}},{"id":"565","type":"Feature","properties":{"id":"B0FFJ1I2SG","name":"上海花树企业商旅服务机票代理","address":"淮海中路283号2632室(近新天地)","type":"生活服务;旅行社;旅行社","typecode":"070100","pcode":310000,"pname":"上海市","citycode":21,"cityname":"上海市","adcode":310101,"adname":"黄浦区","business_area":"淮海路","location":"121.475281,31.223146","tel":"17717291370","bigType":"生活服务","midType":"旅行社","smallType":"旅行社","gcj_lng":121.475281,"gcj_lat":31.223146,"wgs84_loc":"121.470764,31.225096","wgs84Lng":121.470764,"wgs84Lat":31.225096,"__source_file__":"13-常用公服设施点/CSV/上海市_旅行社.csv"},"geometry":{"type":"Point","coordinates":[121.470764,31.225096]}},{"id":"554","type":"Feature","properties":{"id":"B0FFL79WLS","name":"新世界国际旅行社","address":"金陵西路38-40号连云大厦底楼(近金陵东路)","type":"生活服务;旅行社;旅行社","typecode":"070100","pcode":310000,"pname":"上海市","citycode":21,"cityname":"上海市","adcode":310101,"adname":"黄浦区","business_area":"淮海路","location":"121.472879,31.224095","tel":"021-63201060","bigType":"生活服务","midType":"旅行社","smallType":"旅行社","gcj_lng":121.472879,"gcj_lat":31.224095,"wgs84_loc":"121.468354,31.226038","wgs84Lng":121.468354,"wgs84Lat":31.226038,"__source_file__":"13-常用公服设施点/CSV/上海市_旅行社.csv"},"geometry":{"type":"Point","coordinates":[121.468354,31.226038]}},{"id":"853","type":"Feature","properties":{"id":"B00155LWW4","name":"丽星邮轮旅行社(上海)有限公司","address":"南京西路1038号梅龙镇商厦15层1506号","type":"生活服务;旅行社;旅行社","typecode":"070100","pcode":310000,"pname":"上海市","citycode":21,"cityname":"上海市","adcode":310106,"adname":"静安区","business_area":"淮海路","location":"121.456878,31.229345","tel":"021-52925608","bigType":"生活服务","midType":"旅行社","smallType":"旅行社","gcj_lng":121.456878,"gcj_lat":31.229345,"wgs84_loc":"121.452304,31.231245","wgs84Lng":121.452304,"wgs84Lat":31.231245,"__source_file__":"13-常用公服设施点/CSV/上海市_旅行社.csv"},"geometry":{"type":"Point","coordinates":[121.452304,31.231245]}},{"id":"938","type":"Feature","properties":{"id":"B0FFL5JHNP","name":"彩虹之旅国际旅行社","address":"黄陂北路227号中区广场235室","type":"生活服务;旅行社;旅行社","typecode":"070100","pcode":310000,"pname":"上海市","citycode":21,"cityname":"上海市","adcode":310101,"adname":"黄浦区","business_area":"北京东路","location":"121.470569,31.229318","tel":"[]","bigType":"生活服务","midType":"旅行社","smallType":"旅行社","gcj_lng":121.470569,"gcj_lat":31.229318,"wgs84_loc":"121.466036,31.231252","wgs84Lng":121.466036,"wgs84Lat":31.231252,"__source_file__":"13-常用公服设施点/CSV/上海市_旅行社.csv"},"geometry":{"type":"Point","coordinates":[121.466036,31.231252]}},{"id":"825","type":"Feature","properties":{"id":"B0FFJ8UNPU","name":"上海空集青旅","address":"永寿路85号金陵商厦3楼","type":"生活服务;旅行社;旅行社","typecode":"070100","pcode":310000,"pname":"上海市","citycode":21,"cityname":"上海市","adcode":310101,"adname":"黄浦区","business_area":"城隍庙","location":"121.482437,31.228285","tel":"[]","bigType":"生活服务","midType":"旅行社","smallType":"旅行社","gcj_lng":121.482437,"gcj_lat":31.228285,"wgs84_loc":"121.477943,31.230253","wgs84Lng":121.477943,"wgs84Lat":31.230253,"__source_file__":"13-常用公服设施点/CSV/上海市_旅行社.csv"},"geometry":{"type":"Point","coordinates":[121.477943,31.230253]}},{"id":"893","type":"Feature","properties":{"id":"B00155HP2W","name":"上海家家乐国际旅行社","address":"浙江南路78号(近延安东路)东新大厦一楼","type":"生活服务;旅行社;旅行社","typecode":"070100","pcode":310000,"pname":"上海市","citycode":21,"cityname":"上海市","adcode":310101,"adname":"黄浦区","business_area":"城隍庙","location":"121.482252,31.228799","tel":"021-53580337","bigType":"生活服务","midType":"旅行社","smallType":"旅行社","gcj_lng":121.482252,"gcj_lat":31.228799,"wgs84_loc":"121.477758,31.230766","wgs84Lng":121.477758,"wgs84Lat":31.230766,"__source_file__":"13-常用公服设施点/CSV/上海市_旅行社.csv"},"geometry":{"type":"Point","coordinates":[121.477758,31.230766]}},{"id":"1066","type":"Feature","properties":{"id":"B0K2LC8IUU","name":"天华国际旅行社","address":"丽水路1号(人民路口)悦园商厦","type":"生活服务;旅行社;旅行社","typecode":"070100","pcode":310000,"pname":"上海市","citycode":21,"cityname":"上海市","adcode":310101,"adname":"黄浦区","business_area":"城隍庙","location":"121.490816,31.228881","tel":"[]","bigType":"生活服务","midType":"旅行社","smallType":"旅行社","gcj_lng":121.490816,"gcj_lat":31.228881,"wgs84_loc":"121.486352,31.230873","wgs84Lng":121.486352,"wgs84Lat":31.230873,"__source_file__":"13-常用公服设施点/CSV/上海市_旅行社.csv"},"geometry":{"type":"Point","coordinates":[121.486352,31.230873]}},{"id":"546","type":"Feature","properties":{"id":"B00155QL2K","name":"上海旅游咨询服务中心(金陵路)","address":"十六铺中山东二路241号","type":"生活服务;旅行社;旅行社","typecode":"070100","pcode":310000,"pname":"上海市","citycode":21,"cityname":"上海市","adcode":310101,"adname":"黄浦区","business_area":"北京东路","location":"121.494352,31.231161","tel":"021-33317282","bigType":"生活服务","midType":"旅行社","smallType":"旅行社","gcj_lng":121.494352,"gcj_lat":31.231161,"wgs84_loc":"121.4899,31.233163","wgs84Lng":121.4899,"wgs84Lat":31.233163,"__source_file__":"13-常用公服设施点/CSV/上海市_旅行社.csv"},"geometry":{"type":"Point","coordinates":[121.4899,31.233163]}},{"id":"570","type":"Feature","properties":{"id":"B00152708D","name":"锦江国际集团有限公司","address":"延安东路100号联谊大厦4层","type":"生活服务;旅行社;旅行社","typecode":"070100","pcode":310000,"pname":"上海市","citycode":21,"cityname":"上海市","adcode":310101,"adname":"黄浦区","business_area":"北京东路","location":"121.490007,31.232998","tel":"[]","bigType":"生活服务","midType":"旅行社","smallType":"旅行社","gcj_lng":121.490007,"gcj_lat":31.232998,"wgs84_loc":"121.48554,31.234986","wgs84Lng":121.48554,"wgs84Lat":31.234986,"__source_file__":"13-常用公服设施点/CSV/上海市_旅行社.csv"},"geometry":{"type":"Point","coordinates":[121.48554,31.234986]}},{"id":"231","type":"Feature","properties":{"id":"B0FFGSRR80","name":"商务假期旅行社(中山东二路分部)","address":"中山东二路1号(延安东路口)","type":"生活服务;旅行社;旅行社","typecode":"070100","pcode":310000,"pname":"上海市","citycode":21,"cityname":"上海市","adcode":310101,"adname":"黄浦区","business_area":"北京东路","location":"121.492269,31.233239","tel":"15317636696","bigType":"生活服务","midType":"旅行社","smallType":"旅行社","gcj_lng":121.492269,"gcj_lat":31.233239,"wgs84_loc":"121.48781,31.235233","wgs84Lng":121.48781,"wgs84Lat":31.235233,"__source_file__":"13-常用公服设施点/CSV/上海市_旅行社.csv"},"geometry":{"type":"Point","coordinates":[121.48781,31.235233]}},{"id":"578","type":"Feature","properties":{"id":"B00155GF4S","name":"上海兰芩旅游公司","address":"江西中路105号201室","type":"生活服务;旅行社;旅行社","typecode":"070100","pcode":310000,"pname":"上海市","citycode":21,"cityname":"上海市","adcode":310101,"adname":"黄浦区","business_area":"北京东路","location":"121.487656,31.233523","tel":"[]","bigType":"生活服务","midType":"旅行社","smallType":"旅行社","gcj_lng":121.487656,"gcj_lat":31.233523,"wgs84_loc":"121.48318,31.235504","wgs84Lng":121.48318,"wgs84Lat":31.235504,"__source_file__":"13-常用公服设施点/CSV/上海市_旅行社.csv"},"geometry":{"type":"Point","coordinates":[121.48318,31.235504]}},{"id":"559","type":"Feature","properties":{"id":"B0FFIVUSWE","name":"八方旅行社(河南中路店)","address":"河南中路162号","type":"生活服务;旅行社;旅行社","typecode":"070100","pcode":310000,"pname":"上海市","citycode":21,"cityname":"上海市","adcode":310101,"adname":"黄浦区","business_area":"北京东路","location":"121.486176,31.233739","tel":"021-63215855","bigType":"生活服务","midType":"旅行社","smallType":"旅行社","gcj_lng":121.486176,"gcj_lat":31.233739,"wgs84_loc":"121.481695,31.235715","wgs84Lng":121.481695,"wgs84Lat":31.235715,"__source_file__":"13-常用公服设施点/CSV/上海市_旅行社.csv"},"geometry":{"type":"Point","coordinates":[121.481695,31.235715]}},{"id":"555","type":"Feature","properties":{"id":"B0FFJES0AQ","name":"上海敬业旅行社有限公司(惠乐途)","address":"中山西路999号515室","type":"生活服务;旅行社;旅行社","typecode":"070100","pcode":310000,"pname":"上海市","citycode":21,"cityname":"上海市","adcode":310101,"adname":"黄浦区","business_area":"北京东路","location":"121.482241,31.236362","tel":"15121008038","bigType":"生活服务","midType":"旅行社","smallType":"旅行社","gcj_lng":121.482241,"gcj_lat":31.236362,"wgs84_loc":"121.477746,31.238325","wgs84Lng":121.477746,"wgs84Lat":31.238325,"__source_file__":"13-常用公服设施点/CSV/上海市_旅行社.csv"},"geometry":{"type":"Point","coordinates":[121.477746,31.238325]}},{"id":"1064","type":"Feature","properties":{"id":"B0KDCZK6IR","name":"上海众信国际旅行社有限公司(柳林大厦店)","address":"淮海中路1号柳林大厦F24层","type":"生活服务;旅行社;旅行社","typecode":"070100","pcode":310000,"pname":"上海市","citycode":21,"cityname":"上海市","adcode":310101,"adname":"黄浦区","business_area":"淮海路","location":"121.480132,31.225050","tel":"021-80281258","bigType":"生活服务","midType":"旅行社","smallType":"旅行社","gcj_lng":121.480132,"gcj_lat":31.22505,"wgs84_loc":"121.475631,31.227013","wgs84Lng":121.475631,"wgs84Lat":31.227013,"__source_file__":"13-常用公服设施点/CSV/上海市_旅行社.csv"},"geometry":{"type":"Point","coordinates":[121.475631,31.227013]}},{"id":"558","type":"Feature","properties":{"id":"B0FFIK6226","name":"上海薄荷国际旅行社有限公司","address":"淮海东路99号恒积大厦18层N座","type":"生活服务;旅行社;旅行社","typecode":"070100","pcode":310000,"pname":"上海市","citycode":21,"cityname":"上海市","adcode":310101,"adname":"黄浦区","business_area":"淮海路","location":"121.480968,31.225336","tel":"021-63866218","bigType":"生活服务","midType":"旅行社","smallType":"旅行社","gcj_lng":121.480968,"gcj_lat":31.225336,"wgs84_loc":"121.47647,31.227301","wgs84Lng":121.47647,"wgs84Lat":31.227301,"__source_file__":"13-常用公服设施点/CSV/上海市_旅行社.csv"},"geometry":{"type":"Point","coordinates":[121.47647,31.227301]}},{"id":"902","type":"Feature","properties":{"id":"B0FFGSTO88","name":"东湖国际旅行社(淮海东路店)","address":"淮海东路(恒积大厦)99号15楼i座","type":"生活服务;旅行社;旅行社","typecode":"070100","pcode":310000,"pname":"上海市","citycode":21,"cityname":"上海市","adcode":310101,"adname":"黄浦区","business_area":"淮海路","location":"121.480995,31.225360","tel":"[]","bigType":"生活服务","midType":"旅行社","smallType":"旅行社","gcj_lng":121.480995,"gcj_lat":31.22536,"wgs84_loc":"121.476497,31.227325","wgs84Lng":121.476497,"wgs84Lat":31.227325,"__source_file__":"13-常用公服设施点/CSV/上海市_旅行社.csv"},"geometry":{"type":"Point","coordinates":[121.476497,31.227325]}},{"id":"914","type":"Feature","properties":{"id":"B0HGFA6VRQ","name":"凯撒旅游","address":"淮海东路99号1305","type":"生活服务;旅行社;旅行社","typecode":"070100","pcode":310000,"pname":"上海市","citycode":21,"cityname":"上海市","adcode":310101,"adname":"黄浦区","business_area":"淮海路","location":"121.481112,31.225747","tel":"[]","bigType":"生活服务","midType":"旅行社","smallType":"旅行社","gcj_lng":121.481112,"gcj_lat":31.225747,"wgs84_loc":"121.476614,31.227712","wgs84Lng":121.476614,"wgs84Lat":31.227712,"__source_file__":"13-常用公服设施点/CSV/上海市_旅行社.csv"},"geometry":{"type":"Point","coordinates":[121.476614,31.227712]}},{"id":"21","type":"Feature","properties":{"id":"B00155QL7D","name":"大世界国旅(西藏南路分部)","address":"西藏南路111","type":"生活服务;旅行社;旅行社","typecode":"070100","pcode":310000,"pname":"上海市","citycode":21,"cityname":"上海市","adcode":310101,"adname":"黄浦区","business_area":"北京东路","location":"121.479454,31.227484","tel":"021-63515777","bigType":"生活服务","midType":"旅行社","smallType":"旅行社","gcj_lng":121.479454,"gcj_lat":31.227484,"wgs84_loc":"121.47495,31.229444","wgs84Lng":121.47495,"wgs84Lat":31.229444,"__source_file__":"13-常用公服设施点/CSV/上海市_旅行社.csv"},"geometry":{"type":"Point","coordinates":[121.47495,31.229444]}},{"id":"569","type":"Feature","properties":{"id":"B00155M07R","name":"大世界国际旅游(西藏南路分部)","address":"浙江南路78东新大厦4层","type":"生活服务;旅行社;旅行社","typecode":"070100","pcode":310000,"pname":"上海市","citycode":21,"cityname":"上海市","adcode":310101,"adname":"黄浦区","business_area":"北京东路","location":"121.482056,31.228696","tel":"[]","bigType":"生活服务","midType":"旅行社","smallType":"旅行社","gcj_lng":121.482056,"gcj_lat":31.228696,"wgs84_loc":"121.477561,31.230662","wgs84Lng":121.477561,"wgs84Lat":31.230662,"__source_file__":"13-常用公服设施点/CSV/上海市_旅行社.csv"},"geometry":{"type":"Point","coordinates":[121.477561,31.230662]}},{"id":"890","type":"Feature","properties":{"id":"B00155QLH7","name":"上海新天地国际旅行社(浙江南路店)","address":"浙江南路78号东新大厦4层","type":"生活服务;旅行社;旅行社","typecode":"070100","pcode":310000,"pname":"上海市","citycode":21,"cityname":"上海市","adcode":310101,"adname":"黄浦区","business_area":"城隍庙","location":"121.482101,31.228721","tel":"021-63110258;021-63557333","bigType":"生活服务","midType":"旅行社","smallType":"旅行社","gcj_lng":121.482101,"gcj_lat":31.228721,"wgs84_loc":"121.477606,31.230688","wgs84Lng":121.477606,"wgs84Lat":31.230688,"__source_file__":"13-常用公服设施点/CSV/上海市_旅行社.csv"},"geometry":{"type":"Point","coordinates":[121.477606,31.230688]}},{"id":"581","type":"Feature","properties":{"id":"B0I65H7OKA","name":"国旅运通","address":"延安东路555号海洋大厦6楼","type":"生活服务;旅行社;旅行社","typecode":"070100","pcode":310000,"pname":"上海市","citycode":21,"cityname":"上海市","adcode":310101,"adname":"黄浦区","business_area":"北京东路","location":"121.481532,31.230896","tel":"[]","bigType":"生活服务","midType":"旅行社","smallType":"旅行社","gcj_lng":121.481532,"gcj_lat":31.230896,"wgs84_loc":"121.477035,31.23286","wgs84Lng":121.477035,"wgs84Lat":31.23286,"__source_file__":"13-常用公服设施点/CSV/上海市_旅行社.csv"},"geometry":{"type":"Point","coordinates":[121.477035,31.23286]}},{"id":"849","type":"Feature","properties":{"id":"B00155FY0R","name":"春申江国际旅行社","address":"西藏中路200号","type":"生活服务;旅行社;旅行社","typecode":"070100","pcode":310000,"pname":"上海市","citycode":21,"cityname":"上海市","adcode":310101,"adname":"黄浦区","business_area":"淮海路","location":"121.476713,31.231612","tel":"021-63619089","bigType":"生活服务","midType":"旅行社","smallType":"旅行社","gcj_lng":121.476713,"gcj_lat":31.231612,"wgs84_loc":"121.4722,31.233562","wgs84Lng":121.4722,"wgs84Lat":31.233562,"__source_file__":"13-常用公服设施点/CSV/上海市_旅行社.csv"},"geometry":{"type":"Point","coordinates":[121.4722,31.233562]}},{"id":"547","type":"Feature","properties":{"id":"B00155EJF0","name":"锦江旅游(上海旅行社店)","address":"福州路739号(近上海旅行社)","type":"生活服务;旅行社;旅行社","typecode":"070100","pcode":310000,"pname":"上海市","citycode":21,"cityname":"上海市","adcode":310101,"adname":"黄浦区","business_area":"北京东路","location":"121.476760,31.231634","tel":"021-32128690","bigType":"生活服务","midType":"旅行社","smallType":"旅行社","gcj_lng":121.47676,"gcj_lat":31.231634,"wgs84_loc":"121.472247,31.233584","wgs84Lng":121.472247,"wgs84Lat":31.233584,"__source_file__":"13-常用公服设施点/CSV/上海市_旅行社.csv"},"geometry":{"type":"Point","coordinates":[121.472247,31.233584]}},{"id":"851","type":"Feature","properties":{"id":"B00157403D","name":"中航嘉信商务旅行管理有限公司上海分公司","address":"广东路500号世纪贸易大厦26层","type":"生活服务;旅行社;旅行社|公司企业;公司;公司","typecode":"070100|170200","pcode":310000,"pname":"上海市","citycode":21,"cityname":"上海市","adcode":310101,"adname":"黄浦区","business_area":"北京东路","location":"121.481864,31.232540","tel":"[]","bigType":"生活服务","midType":"旅行社","smallType":"旅行社|公司企业","gcj_lng":121.481864,"gcj_lat":31.23254,"wgs84_loc":"121.477368,31.234504","wgs84Lng":121.477368,"wgs84Lat":31.234504,"__source_file__":"13-常用公服设施点/CSV/上海市_旅行社.csv"},"geometry":{"type":"Point","coordinates":[121.477368,31.234504]}},{"id":"550","type":"Feature","properties":{"id":"B00155N13N","name":"好好国旅","address":"九江路619号中福大厦5层520室","type":"生活服务;旅行社;旅行社","typecode":"070100","pcode":310000,"pname":"上海市","citycode":21,"cityname":"上海市","adcode":310101,"adname":"黄浦区","business_area":"北京东路","location":"121.478533,31.234253","tel":"021-63501968;13801749299;13585522489","bigType":"生活服务","midType":"旅行社","smallType":"旅行社","gcj_lng":121.478533,"gcj_lat":31.234253,"wgs84_loc":"121.474026,31.236207","wgs84Lng":121.474026,"wgs84Lat":31.236207,"__source_file__":"13-常用公服设施点/CSV/上海市_旅行社.csv"},"geometry":{"type":"Point","coordinates":[121.474026,31.236207]}},{"id":"566","type":"Feature","properties":{"id":"B0FFLJ5U1J","name":"云南芳华如初旅行社上海分公司","address":"浙江中路398号春申江大厦510室","type":"生活服务;旅行社;旅行社","typecode":"070100","pcode":310000,"pname":"上海市","citycode":21,"cityname":"上海市","adcode":310101,"adname":"黄浦区","business_area":"北京东路","location":"121.478246,31.236245","tel":"18017103712","bigType":"生活服务","midType":"旅行社","smallType":"旅行社","gcj_lng":121.478246,"gcj_lat":31.236245,"wgs84_loc":"121.473738,31.238197","wgs84Lng":121.473738,"wgs84Lat":31.238197,"__source_file__":"13-常用公服设施点/CSV/上海市_旅行社.csv"},"geometry":{"type":"Point","coordinates":[121.473738,31.238197]}},{"id":"561","type":"Feature","properties":{"id":"B0HURM31SU","name":"通达国际旅行社集团(上海公司)","address":"浙江中路398-400号春申江大厦411室","type":"生活服务;旅行社;旅行社","typecode":"070100","pcode":310000,"pname":"上海市","citycode":21,"cityname":"上海市","adcode":310101,"adname":"黄浦区","business_area":"北京东路","location":"121.478249,31.236248","tel":"021-61429235;021-61429236;021-61429237;021-61429238;15821269357","bigType":"生活服务","midType":"旅行社","smallType":"旅行社","gcj_lng":121.478249,"gcj_lat":31.236248,"wgs84_loc":"121.473741,31.2382","wgs84Lng":121.473741,"wgs84Lat":31.2382,"__source_file__":"13-常用公服设施点/CSV/上海市_旅行社.csv"},"geometry":{"type":"Point","coordinates":[121.473741,31.2382]}},{"id":"988","type":"Feature","properties":{"id":"B0FFHGMZ59","name":"上海龙廷国际旅行社","address":"浙江中路398-400号附近","type":"生活服务;旅行社;旅行社","typecode":"070100","pcode":310000,"pname":"上海市","citycode":21,"cityname":"上海市","adcode":310101,"adname":"黄浦区","business_area":"北京东路","location":"121.478393,31.236293","tel":"021-51698683","bigType":"生活服务","midType":"旅行社","smallType":"旅行社","gcj_lng":121.478393,"gcj_lat":31.236293,"wgs84_loc":"121.473885,31.238246","wgs84Lng":121.473885,"wgs84Lat":31.238246,"__source_file__":"13-常用公服设施点/CSV/上海市_旅行社.csv"},"geometry":{"type":"Point","coordinates":[121.473885,31.238246]}},{"id":"819","type":"Feature","properties":{"id":"B00156EVP9","name":"中国旅行社总社(上海)有限公司(天津路店)","address":"福建路","type":"生活服务;旅行社;旅行社","typecode":"070100","pcode":310000,"pname":"上海市","citycode":21,"cityname":"上海市","adcode":310101,"adname":"黄浦区","business_area":"北京东路","location":"121.480157,31.237035","tel":"021-63517851","bigType":"生活服务","midType":"旅行社","smallType":"旅行社","gcj_lng":121.480157,"gcj_lat":31.237035,"wgs84_loc":"121.475655,31.238992","wgs84Lng":121.475655,"wgs84Lat":31.238992,"__source_file__":"13-常用公服设施点/CSV/上海市_旅行社.csv"},"geometry":{"type":"Point","coordinates":[121.475655,31.238992]}},{"id":"545","type":"Feature","properties":{"id":"B0FFFPOHRY","name":"上海伟邦国际旅行社","address":"广西北路489号","type":"生活服务;旅行社;旅行社","typecode":"070100","pcode":310000,"pname":"上海市","citycode":21,"cityname":"上海市","adcode":310101,"adname":"黄浦区","business_area":"北京东路","location":"121.476399,31.237191","tel":"021-56300983;18801959378","bigType":"生活服务","midType":"旅行社","smallType":"旅行社","gcj_lng":121.476399,"gcj_lat":31.237191,"wgs84_loc":"121.471884,31.239138","wgs84Lng":121.471884,"wgs84Lat":31.239138,"__source_file__":"13-常用公服设施点/CSV/上海市_旅行社.csv"},"geometry":{"type":"Point","coordinates":[121.471884,31.239138]}},{"id":"549","type":"Feature","properties":{"id":"B00156NWQG","name":"上海伟邦国际旅游有限公司","address":"广西北路489号","type":"生活服务;旅行社;旅行社","typecode":"070100","pcode":310000,"pname":"上海市","citycode":21,"cityname":"上海市","adcode":310101,"adname":"黄浦区","business_area":"北京东路","location":"121.476404,31.237192","tel":"021-63355390;021-56300983","bigType":"生活服务","midType":"旅行社","smallType":"旅行社","gcj_lng":121.476404,"gcj_lat":31.237192,"wgs84_loc":"121.471889,31.239139","wgs84Lng":121.471889,"wgs84Lat":31.239139,"__source_file__":"13-常用公服设施点/CSV/上海市_旅行社.csv"},"geometry":{"type":"Point","coordinates":[121.471889,31.239139]}},{"id":"577","type":"Feature","properties":{"id":"B0G3RZA5NA","name":"长丘青旅(上海南京东路步行街店)","address":"山西南路239号","type":"生活服务;旅行社;旅行社","typecode":"070100","pcode":310000,"pname":"上海市","citycode":21,"cityname":"上海市","adcode":310101,"adname":"黄浦区","business_area":"北京东路","location":"121.481792,31.237993","tel":"021-53216668;18021054175","bigType":"生活服务","midType":"旅行社","smallType":"旅行社","gcj_lng":121.481792,"gcj_lat":31.237993,"wgs84_loc":"121.477295,31.239954","wgs84Lng":121.477295,"wgs84Lat":31.239954,"__source_file__":"13-常用公服设施点/CSV/上海市_旅行社.csv"},"geometry":{"type":"Point","coordinates":[121.477295,31.239954]}},{"id":"584","type":"Feature","properties":{"id":"B0FFGMA56C","name":"深圳康辉旅行社(上海代理处)","address":"北京东路668号科技京城30楼","type":"生活服务;旅行社;旅行社","typecode":"070100","pcode":310000,"pname":"上海市","citycode":21,"cityname":"上海市","adcode":310101,"adname":"黄浦区","business_area":"北京东路","location":"121.477087,31.239515","tel":"021-61127259;15000051172","bigType":"生活服务","midType":"旅行社","smallType":"旅行社","gcj_lng":121.477087,"gcj_lat":31.239515,"wgs84_loc":"121.472574,31.241462","wgs84Lng":121.472574,"wgs84Lat":31.241462,"__source_file__":"13-常用公服设施点/CSV/上海市_旅行社.csv"},"geometry":{"type":"Point","coordinates":[121.472574,31.241462]}},{"id":"20","type":"Feature","properties":{"id":"B0FFKF70BH","name":"上海悦荟广场旅游咨询站(悦荟mosaic店)","address":"南京东路353号","type":"生活服务;旅行社;旅行社","typecode":"070100","pcode":310000,"pname":"上海市","citycode":21,"cityname":"上海市","adcode":310101,"adname":"黄浦区","business_area":"北京东路","location":"121.484019,31.236486","tel":"[]","bigType":"生活服务","midType":"旅行社","smallType":"旅行社","gcj_lng":121.484019,"gcj_lat":31.236486,"wgs84_loc":"121.47953,31.238455","wgs84Lng":121.47953,"wgs84Lat":31.238455,"__source_file__":"13-常用公服设施点/CSV/上海市_旅行社.csv"},"geometry":{"type":"Point","coordinates":[121.47953,31.238455]}},{"id":"989","type":"Feature","properties":{"id":"B0FFIKFKNH","name":"缅甸小勐拉新金宝国际","address":"山东中路与南京路步行街交叉口南40米","type":"生活服务;旅行社;旅行社","typecode":"070100","pcode":310000,"pname":"上海市","citycode":21,"cityname":"上海市","adcode":310101,"adname":"黄浦区","business_area":"北京东路","location":"121.483886,31.236860","tel":"[]","bigType":"生活服务","midType":"旅行社","smallType":"旅行社","gcj_lng":121.483886,"gcj_lat":31.23686,"wgs84_loc":"121.479397,31.238828","wgs84Lng":121.479397,"wgs84Lat":31.238828,"__source_file__":"13-常用公服设施点/CSV/上海市_旅行社.csv"},"geometry":{"type":"Point","coordinates":[121.479397,31.238828]}},{"id":"557","type":"Feature","properties":{"id":"B0FFFZRXMT","name":"新华国旅行李寄存","address":"天津路185号(应氏大厦对面)","type":"生活服务;旅行社;旅行社","typecode":"070100","pcode":310000,"pname":"上海市","citycode":21,"cityname":"上海市","adcode":310101,"adname":"黄浦区","business_area":"北京东路","location":"121.482811,31.237968","tel":"13817169998;13916169968","bigType":"生活服务","midType":"旅行社","smallType":"旅行社","gcj_lng":121.482811,"gcj_lat":31.237968,"wgs84_loc":"121.478318,31.239932","wgs84Lng":121.478318,"wgs84Lat":31.239932,"__source_file__":"13-常用公服设施点/CSV/上海市_旅行社.csv"},"geometry":{"type":"Point","coordinates":[121.478318,31.239932]}},{"id":"982","type":"Feature","properties":{"id":"B00156NWAW","name":"洲际国际旅行社有限公司接待中心","address":"河南中路495永利大楼3层","type":"生活服务;旅行社;旅行社","typecode":"070100","pcode":310000,"pname":"上海市","citycode":21,"cityname":"上海市","adcode":310101,"adname":"黄浦区","business_area":"北京东路","location":"121.484207,31.238709","tel":"[]","bigType":"生活服务","midType":"旅行社","smallType":"旅行社","gcj_lng":121.484207,"gcj_lat":31.238709,"wgs84_loc":"121.479719,31.240677","wgs84Lng":121.479719,"wgs84Lat":31.240677,"__source_file__":"13-常用公服设施点/CSV/上海市_旅行社.csv"},"geometry":{"type":"Point","coordinates":[121.479719,31.240677]}},{"id":"958","type":"Feature","properties":{"id":"B0G2GKLKQF","name":"上海太平洋旅行社","address":"河南中路505号华东商务楼6层616","type":"生活服务;旅行社;旅行社","typecode":"070100","pcode":310000,"pname":"上海市","citycode":21,"cityname":"上海市","adcode":310101,"adname":"黄浦区","business_area":"北京东路","location":"121.484084,31.238916","tel":"021-56720312","bigType":"生活服务","midType":"旅行社","smallType":"旅行社","gcj_lng":121.484084,"gcj_lat":31.238916,"wgs84_loc":"121.479595,31.240884","wgs84Lng":121.479595,"wgs84Lat":31.240884,"__source_file__":"13-常用公服设施点/CSV/上海市_旅行社.csv"},"geometry":{"type":"Point","coordinates":[121.479595,31.240884]}},{"id":"815","type":"Feature","properties":{"id":"B0FFIJOZ1H","name":"真光旅行社","address":"江西中路349号市贸信大楼6楼601室(江西中路宁波路)","type":"生活服务;旅行社;旅行社","typecode":"070100","pcode":310000,"pname":"上海市","citycode":21,"cityname":"上海市","adcode":310101,"adname":"黄浦区","business_area":"北京东路","location":"121.486062,31.239459","tel":"[]","bigType":"生活服务","midType":"旅行社","smallType":"旅行社","gcj_lng":121.486062,"gcj_lat":31.239459,"wgs84_loc":"121.48158,31.241432","wgs84Lng":121.48158,"wgs84Lat":31.241432,"__source_file__":"13-常用公服设施点/CSV/上海市_旅行社.csv"},"geometry":{"type":"Point","coordinates":[121.48158,31.241432]}},{"id":"568","type":"Feature","properties":{"id":"B0FFHWHTIP","name":"观光旅游","address":"中山东一路349号B1","type":"生活服务;旅行社;旅行社","typecode":"070100","pcode":310000,"pname":"上海市","citycode":21,"cityname":"上海市","adcode":310101,"adname":"黄浦区","business_area":"北京东路","location":"121.490512,31.240040","tel":"[]","bigType":"生活服务","midType":"旅行社","smallType":"旅行社","gcj_lng":121.490512,"gcj_lat":31.24004,"wgs84_loc":"121.486046,31.242026","wgs84Lng":121.486046,"wgs84Lat":31.242026,"__source_file__":"13-常用公服设施点/CSV/上海市_旅行社.csv"},"geometry":{"type":"Point","coordinates":[121.486046,31.242026]}},{"id":"841","type":"Feature","properties":{"id":"B0FFFE2VLK","name":"云南熊猫国际旅行社上海云之旅旅行社分公司","address":"香港路111号凯恩商务楼3层332","type":"生活服务;旅行社;旅行社","typecode":"070100","pcode":310000,"pname":"上海市","citycode":21,"cityname":"上海市","adcode":310101,"adname":"黄浦区","business_area":"北京东路","location":"121.485720,31.242449","tel":"[]","bigType":"生活服务","midType":"旅行社","smallType":"旅行社","gcj_lng":121.48572,"gcj_lat":31.242449,"wgs84_loc":"121.481237,31.24442","wgs84Lng":121.481237,"wgs84Lat":31.24442,"__source_file__":"13-常用公服设施点/CSV/上海市_旅行社.csv"},"geometry":{"type":"Point","coordinates":[121.481237,31.24442]}},{"id":"859","type":"Feature","properties":{"id":"B001548C70","name":"上海立达旅游服务公司","address":"石门二路333弄3号恒安大厦29层29C","type":"生活服务;旅行社;旅行社","typecode":"070100","pcode":310000,"pname":"上海市","citycode":21,"cityname":"上海市","adcode":310106,"adname":"静安区","business_area":"淮海路","location":"121.459368,31.236017","tel":"021-62533758","bigType":"生活服务","midType":"旅行社","smallType":"旅行社","gcj_lng":121.459368,"gcj_lat":31.236017,"wgs84_loc":"121.454801,31.23792","wgs84Lng":121.454801,"wgs84Lat":31.23792,"__source_file__":"13-常用公服设施点/CSV/上海市_旅行社.csv"},"geometry":{"type":"Point","coordinates":[121.454801,31.23792]}},{"id":"567","type":"Feature","properties":{"id":"B0FFKCJ5UL","name":"上海春光国际旅行社(人民广场店)","address":"云南北路59号六合大厦16楼","type":"生活服务;旅行社;旅行社|购物服务;购物相关场所;购物相关场所","typecode":"070100|060000","pcode":310000,"pname":"上海市","citycode":21,"cityname":"上海市","adcode":310101,"adname":"黄浦区","business_area":"北京东路","location":"121.474938,31.237279","tel":"021-63357388","bigType":"生活服务","midType":"旅行社","smallType":"旅行社|购物服务","gcj_lng":121.474938,"gcj_lat":31.237279,"wgs84_loc":"121.470418,31.239221","wgs84Lng":121.470418,"wgs84Lat":31.239221,"__source_file__":"13-常用公服设施点/CSV/上海市_旅行社.csv"},"geometry":{"type":"Point","coordinates":[121.470418,31.239221]}},{"id":"602","type":"Feature","properties":{"id":"B0FFHE5XBX","name":"上海莲花之旅旅行社有限公司","address":"天目西路218号2号楼2701室","type":"生活服务;旅行社;旅行社","typecode":"070100","pcode":310000,"pname":"上海市","citycode":21,"cityname":"上海市","adcode":310106,"adname":"静安区","business_area":"[]","location":"121.456450,31.244747","tel":"15000260552","bigType":"生活服务","midType":"旅行社","smallType":"旅行社","gcj_lng":121.45645,"gcj_lat":31.244747,"wgs84_loc":"121.451874,31.246639","wgs84Lng":121.451874,"wgs84Lat":31.246639,"__source_file__":"13-常用公服设施点/CSV/上海市_旅行社.csv"},"geometry":{"type":"Point","coordinates":[121.451874,31.246639]}},{"id":"622","type":"Feature","properties":{"id":"B001570V25","name":"安莎国际旅行社有限公司","address":"秣陵路203号天达商务中心3-4层","type":"生活服务;旅行社;旅行社","typecode":"070100","pcode":310000,"pname":"上海市","citycode":21,"cityname":"上海市","adcode":310106,"adname":"静安区","business_area":"[]","location":"121.456690,31.248093","tel":"[]","bigType":"生活服务","midType":"旅行社","smallType":"旅行社","gcj_lng":121.45669,"gcj_lat":31.248093,"wgs84_loc":"121.452114,31.249985","wgs84Lng":121.452114,"wgs84Lat":31.249985,"__source_file__":"13-常用公服设施点/CSV/上海市_旅行社.csv"},"geometry":{"type":"Point","coordinates":[121.452114,31.249985]}},{"id":"956","type":"Feature","properties":{"id":"B0FFGSUCUN","name":"天缘国际旅行社(秣陵路店)","address":"秣陵路与长安路交叉口东北约80米","type":"生活服务;旅行社;旅行社","typecode":"070100","pcode":310000,"pname":"上海市","citycode":21,"cityname":"上海市","adcode":310106,"adname":"静安区","business_area":"[]","location":"121.453766,31.248505","tel":"[]","bigType":"生活服务","midType":"旅行社","smallType":"旅行社","gcj_lng":121.453766,"gcj_lat":31.248505,"wgs84_loc":"121.449183,31.25039","wgs84Lng":121.449183,"wgs84Lat":31.25039,"__source_file__":"13-常用公服设施点/CSV/上海市_旅行社.csv"},"geometry":{"type":"Point","coordinates":[121.449183,31.25039]}},{"id":"833","type":"Feature","properties":{"id":"B0G2K1VKMM","name":"明游国旅(上海站)","address":"秣陵路303号上海站1F层","type":"生活服务;旅行社;旅行社","typecode":"070100","pcode":310000,"pname":"上海市","citycode":21,"cityname":"上海市","adcode":310106,"adname":"静安区","business_area":"[]","location":"121.453816,31.249186","tel":"[]","bigType":"生活服务","midType":"旅行社","smallType":"旅行社","gcj_lng":121.453816,"gcj_lat":31.249186,"wgs84_loc":"121.449233,31.251071","wgs84Lng":121.449233,"wgs84Lat":31.251071,"__source_file__":"13-常用公服设施点/CSV/上海市_旅行社.csv"},"geometry":{"type":"Point","coordinates":[121.449233,31.251071]}},{"id":"617","type":"Feature","properties":{"id":"B0HG6CE0YS","name":"上海天辰国际旅行社有限公司","address":"永兴路928弄46号2层","type":"生活服务;旅行社;旅行社","typecode":"070100","pcode":310000,"pname":"上海市","citycode":21,"cityname":"上海市","adcode":310106,"adname":"静安区","business_area":"宝山路","location":"121.459701,31.250971","tel":"021-66580066","bigType":"生活服务","midType":"旅行社","smallType":"旅行社","gcj_lng":121.459701,"gcj_lat":31.250971,"wgs84_loc":"121.455133,31.252868","wgs84Lng":121.455133,"wgs84Lat":31.252868,"__source_file__":"13-常用公服设施点/CSV/上海市_旅行社.csv"},"geometry":{"type":"Point","coordinates":[121.455133,31.252868]}},{"id":"612","type":"Feature","properties":{"id":"B0FFK8DOYT","name":"中晟旅行社(静安分部)","address":"中兴路1662号","type":"生活服务;旅行社;旅行社","typecode":"070100","pcode":310000,"pname":"上海市","citycode":21,"cityname":"上海市","adcode":310106,"adname":"静安区","business_area":"和田","location":"121.455342,31.251796","tel":"18621037930","bigType":"生活服务","midType":"旅行社","smallType":"旅行社","gcj_lng":121.455342,"gcj_lat":31.251796,"wgs84_loc":"121.450762,31.253683","wgs84Lng":121.450762,"wgs84Lat":31.253683,"__source_file__":"13-常用公服设施点/CSV/上海市_旅行社.csv"},"geometry":{"type":"Point","coordinates":[121.450762,31.253683]}},{"id":"830","type":"Feature","properties":{"id":"B0GKDZS3H3","name":"千里马国旅","address":"公兴路复地新都国际南侧约40米","type":"生活服务;旅行社;旅行社","typecode":"070100","pcode":310000,"pname":"上海市","citycode":21,"cityname":"上海市","adcode":310106,"adname":"静安区","business_area":"宝山路","location":"121.475846,31.252653","tel":"[]","bigType":"生活服务","midType":"旅行社","smallType":"旅行社","gcj_lng":121.475846,"gcj_lat":31.252653,"wgs84_loc":"121.471328,31.254591","wgs84Lng":121.471328,"wgs84Lat":31.254591,"__source_file__":"13-常用公服设施点/CSV/上海市_旅行社.csv"},"geometry":{"type":"Point","coordinates":[121.471328,31.254591]}},{"id":"837","type":"Feature","properties":{"id":"B001574VOI","name":"中晟旅行社(中兴路店)","address":"中兴路1055号6层(近如来大酒店)","type":"生活服务;旅行社;旅行社","typecode":"070100","pcode":310000,"pname":"上海市","citycode":21,"cityname":"上海市","adcode":310106,"adname":"静安区","business_area":"和田","location":"121.466317,31.252756","tel":"021-56093607;021-56093601","bigType":"生活服务","midType":"旅行社","smallType":"旅行社","gcj_lng":121.466317,"gcj_lat":31.252756,"wgs84_loc":"121.461769,31.254669","wgs84Lng":121.461769,"wgs84Lat":31.254669,"__source_file__":"13-常用公服设施点/CSV/上海市_旅行社.csv"},"geometry":{"type":"Point","coordinates":[121.461769,31.254669]}},{"id":"1200","type":"Feature","properties":{"id":"B0JU2L7FHZ","name":"上海港国际邮轮旅行社有限公司","address":"东大名路与旅顺路交叉口东南100米","type":"生活服务;旅行社;旅行社","typecode":"070100","pcode":310000,"pname":"上海市","citycode":21,"cityname":"上海市","adcode":310109,"adname":"虹口区","business_area":"上海北外滩中心","location":"121.497679,31.247022","tel":"[]","bigType":"生活服务","midType":"旅行社","smallType":"旅行社","gcj_lng":121.497679,"gcj_lat":31.247022,"wgs84_loc":"121.493238,31.249026","wgs84Lng":121.493238,"wgs84Lat":31.249026,"__source_file__":"13-常用公服设施点/CSV/上海市_旅行社.csv"},"geometry":{"type":"Point","coordinates":[121.493238,31.249026]}},{"id":"75","type":"Feature","properties":{"id":"B0FFJAVPMS","name":"邮轮旅行社","address":"东大名路500号上港邮轮城B1","type":"生活服务;旅行社;旅行社","typecode":"070100","pcode":310000,"pname":"上海市","citycode":21,"cityname":"上海市","adcode":310109,"adname":"虹口区","business_area":"提篮桥","location":"121.497112,31.247223","tel":"[]","bigType":"生活服务","midType":"旅行社","smallType":"旅行社","gcj_lng":121.497112,"gcj_lat":31.247223,"wgs84_loc":"121.492669,31.249226","wgs84Lng":121.492669,"wgs84Lat":31.249226,"__source_file__":"13-常用公服设施点/CSV/上海市_旅行社.csv"},"geometry":{"type":"Point","coordinates":[121.492669,31.249226]}},{"id":"1003","type":"Feature","properties":{"id":"B0FFIEKRJQ","name":"完美假期旅行社","address":"武进路289号(四川北路地铁站2号口步行140米)","type":"生活服务;旅行社;旅行社","typecode":"070100","pcode":310000,"pname":"上海市","citycode":21,"cityname":"上海市","adcode":310109,"adname":"虹口区","business_area":"七浦路","location":"121.485426,31.251709","tel":"[]","bigType":"生活服务","midType":"旅行社","smallType":"旅行社","gcj_lng":121.485426,"gcj_lat":31.251709,"wgs84_loc":"121.480941,31.253675","wgs84Lng":121.480941,"wgs84Lat":31.253675,"__source_file__":"13-常用公服设施点/CSV/上海市_旅行社.csv"},"geometry":{"type":"Point","coordinates":[121.480941,31.253675]}},{"id":"85","type":"Feature","properties":{"id":"B0HATR27BX","name":"天涯旅游","address":"海宁路与峨嵋路交叉口北约40米","type":"生活服务;旅行社;旅行社","typecode":"070100","pcode":310000,"pname":"上海市","citycode":21,"cityname":"上海市","adcode":310109,"adname":"虹口区","business_area":"提篮桥","location":"121.489339,31.252561","tel":"[]","bigType":"生活服务","midType":"旅行社","smallType":"旅行社","gcj_lng":121.489339,"gcj_lat":31.252561,"wgs84_loc":"121.484868,31.254538","wgs84Lng":121.484868,"wgs84Lat":31.254538,"__source_file__":"13-常用公服设施点/CSV/上海市_旅行社.csv"},"geometry":{"type":"Point","coordinates":[121.484868,31.254538]}},{"id":"87","type":"Feature","properties":{"id":"B0H3LHKVN6","name":"上海世集迷塔文化科技有限公司","address":"沙泾路10号1933老场坊号楼5楼503C","type":"生活服务;旅行社;旅行社","typecode":"070100","pcode":310000,"pname":"上海市","citycode":21,"cityname":"上海市","adcode":310109,"adname":"虹口区","business_area":"四平路","location":"121.491771,31.254462","tel":"[]","bigType":"生活服务","midType":"旅行社","smallType":"旅行社","gcj_lng":121.491771,"gcj_lat":31.254462,"wgs84_loc":"121.487308,31.256445","wgs84Lng":121.487308,"wgs84Lat":31.256445,"__source_file__":"13-常用公服设施点/CSV/上海市_旅行社.csv"},"geometry":{"type":"Point","coordinates":[121.487308,31.256445]}},{"id":"836","type":"Feature","properties":{"id":"B0G0CZTDN0","name":"上海华游国际旅行社有限公司","address":"四川北路1688号2106室","type":"生活服务;旅行社;旅行社","typecode":"070100","pcode":310000,"pname":"上海市","citycode":21,"cityname":"上海市","adcode":310109,"adname":"虹口区","business_area":"宝山路","location":"121.483374,31.258172","tel":"[]","bigType":"生活服务","midType":"旅行社","smallType":"旅行社","gcj_lng":121.483374,"gcj_lat":31.258172,"wgs84_loc":"121.478881,31.260129","wgs84Lng":121.478881,"wgs84Lat":31.260129,"__source_file__":"13-常用公服设施点/CSV/上海市_旅行社.csv"},"geometry":{"type":"Point","coordinates":[121.478881,31.260129]}},{"id":"1171","type":"Feature","properties":{"id":"B0JRYXD9PG","name":"携程旅游(通州路门市)","address":"海拉尔路与通州路交叉口东北100米","type":"生活服务;旅行社;旅行社","typecode":"070100","pcode":310000,"pname":"上海市","citycode":21,"cityname":"上海市","adcode":310109,"adname":"虹口区","business_area":"提篮桥","location":"121.496029,31.258734","tel":"021-55950007;13621914465","bigType":"生活服务","midType":"旅行社","smallType":"旅行社","gcj_lng":121.496029,"gcj_lat":31.258734,"wgs84_loc":"121.491581,31.260728","wgs84Lng":121.491581,"wgs84Lat":31.260728,"__source_file__":"13-常用公服设施点/CSV/上海市_旅行社.csv"},"geometry":{"type":"Point","coordinates":[121.491581,31.260728]}},{"id":"1175","type":"Feature","properties":{"id":"B0KKGX933E","name":"上海科达国际旅行社有限公司","address":"物华路288号爱家国际大厦","type":"生活服务;旅行社;旅行社","typecode":"070100","pcode":310000,"pname":"上海市","citycode":21,"cityname":"上海市","adcode":310109,"adname":"虹口区","business_area":"四平路","location":"121.492147,31.262098","tel":"[]","bigType":"生活服务","midType":"旅行社","smallType":"旅行社","gcj_lng":121.492147,"gcj_lat":31.262098,"wgs84_loc":"121.487685,31.264079","wgs84Lng":121.487685,"wgs84Lat":31.264079,"__source_file__":"13-常用公服设施点/CSV/上海市_旅行社.csv"},"geometry":{"type":"Point","coordinates":[121.487685,31.264079]}},{"id":"1173","type":"Feature","properties":{"id":"B0K6D96SJQ","name":"山屿海国旅(虹口旗舰店国际公寓店)","address":"贯中路与四平路交叉口东南20米","type":"生活服务;旅行社;旅行社","typecode":"070100","pcode":310000,"pname":"上海市","citycode":21,"cityname":"上海市","adcode":310109,"adname":"虹口区","business_area":"四平路","location":"121.490126,31.262118","tel":"[]","bigType":"生活服务","midType":"旅行社","smallType":"旅行社","gcj_lng":121.490126,"gcj_lat":31.262118,"wgs84_loc":"121.485657,31.264093","wgs84Lng":121.485657,"wgs84Lat":31.264093,"__source_file__":"13-常用公服设施点/CSV/上海市_旅行社.csv"},"geometry":{"type":"Point","coordinates":[121.485657,31.264093]}},{"id":"1002","type":"Feature","properties":{"id":"B0HAKPIV6T","name":"中信国际旅行社","address":"河南北路426弄3-23号附近","type":"生活服务;旅行社;旅行社","typecode":"070100","pcode":310000,"pname":"上海市","citycode":21,"cityname":"上海市","adcode":310109,"adname":"虹口区","business_area":"七浦路","location":"121.480503,31.249189","tel":"[]","bigType":"生活服务","midType":"旅行社","smallType":"旅行社","gcj_lng":121.480503,"gcj_lat":31.249189,"wgs84_loc":"121.476001,31.251142","wgs84Lng":121.476001,"wgs84Lat":31.251142,"__source_file__":"13-常用公服设施点/CSV/上海市_旅行社.csv"},"geometry":{"type":"Point","coordinates":[121.476001,31.251142]}},{"id":"280","type":"Feature","properties":{"id":"B00155EGMD","name":"上铁国旅(天目东路)","address":"天目东路218号","type":"生活服务;旅行社;旅行社","typecode":"070100","pcode":310000,"pname":"上海市","citycode":21,"cityname":"上海市","adcode":310106,"adname":"静安区","business_area":"宝山路","location":"121.475923,31.249691","tel":"021-63250169","bigType":"生活服务","midType":"旅行社","smallType":"旅行社","gcj_lng":121.475923,"gcj_lat":31.249691,"wgs84_loc":"121.471406,31.251631","wgs84Lng":121.471406,"wgs84Lat":31.251631,"__source_file__":"13-常用公服设施点/CSV/上海市_旅行社.csv"},"geometry":{"type":"Point","coordinates":[121.471406,31.251631]}},{"id":"621","type":"Feature","properties":{"id":"B0G25GRAZJ","name":"上铁国旅","address":"天目东路206号","type":"生活服务;旅行社;旅行社","typecode":"070100","pcode":310000,"pname":"上海市","citycode":21,"cityname":"上海市","adcode":310106,"adname":"静安区","business_area":"宝山路","location":"121.478518,31.251846","tel":"021-63250169","bigType":"生活服务","midType":"旅行社","smallType":"旅行社","gcj_lng":121.478518,"gcj_lat":31.251846,"wgs84_loc":"121.474009,31.253792","wgs84Lng":121.474009,"wgs84Lat":31.253792,"__source_file__":"13-常用公服设施点/CSV/上海市_旅行社.csv"},"geometry":{"type":"Point","coordinates":[121.474009,31.253792]}},{"id":"920","type":"Feature","properties":{"id":"B0FFGIQ0CH","name":"真趣国际旅行社","address":"中州路133弄1号701室","type":"生活服务;旅行社;旅行社","typecode":"070100","pcode":310000,"pname":"上海市","citycode":21,"cityname":"上海市","adcode":310109,"adname":"虹口区","business_area":"宝山路","location":"121.482187,31.253524","tel":"[]","bigType":"生活服务","midType":"旅行社","smallType":"旅行社","gcj_lng":121.482187,"gcj_lat":31.253524,"wgs84_loc":"121.47769,31.25548","wgs84Lng":121.47769,"wgs84Lat":31.25548,"__source_file__":"13-常用公服设施点/CSV/上海市_旅行社.csv"},"geometry":{"type":"Point","coordinates":[121.47769,31.25548]}},{"id":"591","type":"Feature","properties":{"id":"B0H1RH95J3","name":"携程旅游鸿兴路营业部","address":"鸿兴路41号甲","type":"生活服务;旅行社;旅行社","typecode":"070100","pcode":310000,"pname":"上海市","citycode":21,"cityname":"上海市","adcode":310106,"adname":"静安区","business_area":"宝山路","location":"121.476069,31.254523","tel":"13817383997","bigType":"生活服务","midType":"旅行社","smallType":"旅行社","gcj_lng":121.476069,"gcj_lat":31.254523,"wgs84_loc":"121.471552,31.256461","wgs84Lng":121.471552,"wgs84Lat":31.256461,"__source_file__":"13-常用公服设施点/CSV/上海市_旅行社.csv"},"geometry":{"type":"Point","coordinates":[121.471552,31.256461]}},{"id":"609","type":"Feature","properties":{"id":"B0H3HR0ZNY","name":"中昊国旅","address":"中兴路373号","type":"生活服务;旅行社;旅行社","typecode":"070100","pcode":310000,"pname":"上海市","citycode":21,"cityname":"上海市","adcode":310106,"adname":"静安区","business_area":"宝山路","location":"121.476030,31.257931","tel":"[]","bigType":"生活服务","midType":"旅行社","smallType":"旅行社","gcj_lng":121.47603,"gcj_lat":31.257931,"wgs84_loc":"121.471512,31.259867","wgs84Lng":121.471512,"wgs84Lat":31.259867,"__source_file__":"13-常用公服设施点/CSV/上海市_旅行社.csv"},"geometry":{"type":"Point","coordinates":[121.471512,31.259867]}},{"id":"947","type":"Feature","properties":{"id":"B0H69DI67P","name":"潇游旅游","address":"宝山路宝山路499弄小区","type":"生活服务;旅行社;旅行社","typecode":"070100","pcode":310000,"pname":"上海市","citycode":21,"cityname":"上海市","adcode":310106,"adname":"静安区","business_area":"宝山路","location":"121.477897,31.258113","tel":"[]","bigType":"生活服务","midType":"旅行社","smallType":"旅行社","gcj_lng":121.477897,"gcj_lat":31.258113,"wgs84_loc":"121.473385,31.260054","wgs84Lng":121.473385,"wgs84Lat":31.260054,"__source_file__":"13-常用公服设施点/CSV/上海市_旅行社.csv"},"geometry":{"type":"Point","coordinates":[121.473385,31.260054]}},{"id":"60","type":"Feature","properties":{"id":"B00156O93R","name":"上海现代国际旅行社有限公司","address":"宝山路748号鑫成大楼9层","type":"生活服务;旅行社;旅行社","typecode":"070100","pcode":310000,"pname":"上海市","citycode":21,"cityname":"上海市","adcode":310109,"adname":"虹口区","business_area":"宝山路","location":"121.479332,31.261202","tel":"021-65872831","bigType":"生活服务","midType":"旅行社","smallType":"旅行社","gcj_lng":121.479332,"gcj_lat":31.261202,"wgs84_loc":"121.474825,31.263146","wgs84Lng":121.474825,"wgs84Lat":31.263146,"__source_file__":"13-常用公服设施点/CSV/上海市_旅行社.csv"},"geometry":{"type":"Point","coordinates":[121.474825,31.263146]}},{"id":"80","type":"Feature","properties":{"id":"B0FFKU9L9N","name":"戈多幻颜","address":"多伦路201弄8号","type":"生活服务;旅行社;旅行社","typecode":"070100","pcode":310000,"pname":"上海市","citycode":21,"cityname":"上海市","adcode":310109,"adname":"虹口区","business_area":"宝山路","location":"121.480590,31.263519","tel":"17317514220","bigType":"生活服务","midType":"旅行社","smallType":"旅行社","gcj_lng":121.48059,"gcj_lat":31.263519,"wgs84_loc":"121.476087,31.265466","wgs84Lng":121.476087,"wgs84Lat":31.265466,"__source_file__":"13-常用公服设施点/CSV/上海市_旅行社.csv"},"geometry":{"type":"Point","coordinates":[121.476087,31.265466]}},{"id":"74","type":"Feature","properties":{"id":"B0G0BU2FOE","name":"恒馨国际旅行社(上海)有限责任公司","address":"东江弯路151号绿地创客4楼A430室","type":"生活服务;旅行社;旅行社","typecode":"070100","pcode":310000,"pname":"上海市","citycode":21,"cityname":"上海市","adcode":310109,"adname":"虹口区","business_area":"宝山路","location":"121.479396,31.266802","tel":"18901581429","bigType":"生活服务","midType":"旅行社","smallType":"旅行社","gcj_lng":121.479396,"gcj_lat":31.266802,"wgs84_loc":"121.474889,31.268744","wgs84Lng":121.474889,"wgs84Lat":31.268744,"__source_file__":"13-常用公服设施点/CSV/上海市_旅行社.csv"},"geometry":{"type":"Point","coordinates":[121.474889,31.268744]}},{"id":"891","type":"Feature","properties":{"id":"B0FFIDVNB4","name":"中国旅行社总社(上海)有限公司(四川北路营业部)","address":"四川北路2118号天兴百货F1","type":"生活服务;旅行社;旅行社","typecode":"070100","pcode":310000,"pname":"上海市","citycode":21,"cityname":"上海市","adcode":310109,"adname":"虹口区","business_area":"江湾","location":"121.482307,31.266007","tel":"[]","bigType":"生活服务","midType":"旅行社","smallType":"旅行社","gcj_lng":121.482307,"gcj_lat":31.266007,"wgs84_loc":"121.47781,31.267958","wgs84Lng":121.47781,"wgs84Lat":31.267958,"__source_file__":"13-常用公服设施点/CSV/上海市_旅行社.csv"},"geometry":{"type":"Point","coordinates":[121.47781,31.267958]}},{"id":"89","type":"Feature","properties":{"id":"B0FFJAFKFU","name":"原野旅行社(四川北路分部)","address":"四川北路2118号天兴百货F1","type":"生活服务;旅行社;旅行社","typecode":"070100","pcode":310000,"pname":"上海市","citycode":21,"cityname":"上海市","adcode":310109,"adname":"虹口区","business_area":"江湾","location":"121.482345,31.266085","tel":"[]","bigType":"生活服务","midType":"旅行社","smallType":"旅行社","gcj_lng":121.482345,"gcj_lat":31.266085,"wgs84_loc":"121.477848,31.268036","wgs84Lng":121.477848,"wgs84Lat":31.268036,"__source_file__":"13-常用公服设施点/CSV/上海市_旅行社.csv"},"geometry":{"type":"Point","coordinates":[121.477848,31.268036]}},{"id":"59","type":"Feature","properties":{"id":"B0FFKXKIX3","name":"携程旅游(甜爱支路店)","address":"甜爱支路24-50号107-108室","type":"生活服务;旅行社;旅行社","typecode":"070100","pcode":310000,"pname":"上海市","citycode":21,"cityname":"上海市","adcode":310109,"adname":"虹口区","business_area":"曲阳","location":"121.483942,31.268296","tel":"021-31334161","bigType":"生活服务","midType":"旅行社","smallType":"旅行社","gcj_lng":121.483942,"gcj_lat":31.268296,"wgs84_loc":"121.47945,31.27025","wgs84Lng":121.47945,"wgs84Lat":31.27025,"__source_file__":"13-常用公服设施点/CSV/上海市_旅行社.csv"},"geometry":{"type":"Point","coordinates":[121.47945,31.27025]}},{"id":"1001","type":"Feature","properties":{"id":"B00154ZLLE","name":"上海市虹口区旅游咨询服务中心","address":"四川北路2286号(虹口足球场地铁站1号口步行300米)","type":"生活服务;旅行社;旅行社","typecode":"070100","pcode":310000,"pname":"上海市","citycode":21,"cityname":"上海市","adcode":310109,"adname":"虹口区","business_area":"宝山路","location":"121.482731,31.268419","tel":"[]","bigType":"生活服务","midType":"旅行社","smallType":"旅行社","gcj_lng":121.482731,"gcj_lat":31.268419,"wgs84_loc":"121.478235,31.27037","wgs84Lng":121.478235,"wgs84Lat":31.27037,"__source_file__":"13-常用公服设施点/CSV/上海市_旅行社.csv"},"geometry":{"type":"Point","coordinates":[121.478235,31.27037]}},{"id":"70","type":"Feature","properties":{"id":"B0IBG7JLO9","name":"上海金旅花园路营业部","address":"花园路16号2602室","type":"生活服务;旅行社;旅行社","typecode":"070100","pcode":310000,"pname":"上海市","citycode":21,"cityname":"上海市","adcode":310109,"adname":"虹口区","business_area":"宝山路","location":"121.478514,31.269505","tel":"[]","bigType":"生活服务","midType":"旅行社","smallType":"旅行社","gcj_lng":121.478514,"gcj_lat":31.269505,"wgs84_loc":"121.474004,31.271443","wgs84Lng":121.474004,"wgs84Lat":31.271443,"__source_file__":"13-常用公服设施点/CSV/上海市_旅行社.csv"},"geometry":{"type":"Point","coordinates":[121.474004,31.271443]}},{"id":"57","type":"Feature","properties":{"id":"B0FFIZ84MJ","name":"上海尊乐国际旅行社有限公司","address":"花园路16号2416室","type":"生活服务;旅行社;旅行社","typecode":"070100","pcode":310000,"pname":"上海市","citycode":21,"cityname":"上海市","adcode":310109,"adname":"虹口区","business_area":"和田","location":"121.478041,31.269716","tel":"021-56206228","bigType":"生活服务","midType":"旅行社","smallType":"旅行社","gcj_lng":121.478041,"gcj_lat":31.269716,"wgs84_loc":"121.473529,31.271653","wgs84Lng":121.473529,"wgs84Lat":31.271653,"__source_file__":"13-常用公服设施点/CSV/上海市_旅行社.csv"},"geometry":{"type":"Point","coordinates":[121.473529,31.271653]}},{"id":"71","type":"Feature","properties":{"id":"B0HGGHURP0","name":"上海玉屏国际旅行社虹口营业部","address":"花园路66弄嘉和大厦1号楼2006室","type":"生活服务;旅行社;旅行社","typecode":"070100","pcode":310000,"pname":"上海市","citycode":21,"cityname":"上海市","adcode":310109,"adname":"虹口区","business_area":"江湾","location":"121.477383,31.269926","tel":"13681776811","bigType":"生活服务","midType":"旅行社","smallType":"旅行社","gcj_lng":121.477383,"gcj_lat":31.269926,"wgs84_loc":"121.472869,31.271861","wgs84Lng":121.472869,"wgs84Lat":31.271861,"__source_file__":"13-常用公服设施点/CSV/上海市_旅行社.csv"},"geometry":{"type":"Point","coordinates":[121.472869,31.271861]}},{"id":"72","type":"Feature","properties":{"id":"B0HDFCHOBT","name":"上海华盾国际旅行社有限公司","address":"花园路66号嘉和国际大厦1号楼(西楼)20楼,2004室","type":"生活服务;旅行社;旅行社","typecode":"070100","pcode":310000,"pname":"上海市","citycode":21,"cityname":"上海市","adcode":310109,"adname":"虹口区","business_area":"江湾","location":"121.477415,31.269959","tel":"13816718238","bigType":"生活服务","midType":"旅行社","smallType":"旅行社","gcj_lng":121.477415,"gcj_lat":31.269959,"wgs84_loc":"121.472901,31.271894","wgs84Lng":121.472901,"wgs84Lat":31.271894,"__source_file__":"13-常用公服设施点/CSV/上海市_旅行社.csv"},"geometry":{"type":"Point","coordinates":[121.472901,31.271894]}},{"id":"940","type":"Feature","properties":{"id":"B0FFGTFEQN","name":"上海市中元国际旅行社有限公司","address":"东江湾路444号虹口体育场4区112号3层","type":"生活服务;旅行社;旅行社","typecode":"070100","pcode":310000,"pname":"上海市","citycode":21,"cityname":"上海市","adcode":310109,"adname":"虹口区","business_area":"曲阳","location":"121.481472,31.270664","tel":"021-53549777;15901909075","bigType":"生活服务","midType":"旅行社","smallType":"旅行社","gcj_lng":121.481472,"gcj_lat":31.270664,"wgs84_loc":"121.476972,31.27261","wgs84Lng":121.476972,"wgs84Lat":31.27261,"__source_file__":"13-常用公服设施点/CSV/上海市_旅行社.csv"},"geometry":{"type":"Point","coordinates":[121.476972,31.27261]}},{"id":"1169","type":"Feature","properties":{"id":"B0JUVR5RUO","name":"上海同程旅行(虹口足球场旗舰店)","address":"西江湾路500号沿街商铺104","type":"生活服务;旅行社;旅行社","typecode":"070100","pcode":310000,"pname":"上海市","citycode":21,"cityname":"上海市","adcode":310109,"adname":"虹口区","business_area":"江湾","location":"121.479145,31.273210","tel":"13248127602","bigType":"生活服务","midType":"旅行社","smallType":"旅行社","gcj_lng":121.479145,"gcj_lat":31.27321,"wgs84_loc":"121.474636,31.275148","wgs84Lng":121.474636,"wgs84Lat":31.275148,"__source_file__":"13-常用公服设施点/CSV/上海市_旅行社.csv"},"geometry":{"type":"Point","coordinates":[121.474636,31.275148]}},{"id":"1167","type":"Feature","properties":{"id":"B0KDXAD0P5","name":"喜之阳旅行社虹口营业部","address":"东体育会路10-1(虹口足球场地铁站1号口步行420米)","type":"生活服务;旅行社;旅行社","typecode":"070100","pcode":310000,"pname":"上海市","citycode":21,"cityname":"上海市","adcode":310109,"adname":"虹口区","business_area":"江湾","location":"121.480333,31.274771","tel":"[]","bigType":"生活服务","midType":"旅行社","smallType":"旅行社","gcj_lng":121.480333,"gcj_lat":31.274771,"wgs84_loc":"121.475828,31.276712","wgs84Lng":121.475828,"wgs84Lat":31.276712,"__source_file__":"13-常用公服设施点/CSV/上海市_旅行社.csv"},"geometry":{"type":"Point","coordinates":[121.475828,31.276712]}},{"id":"78","type":"Feature","properties":{"id":"B0HB2YTCV6","name":"佳宜爱玩客旅游广中路营业部","address":"西江湾路690号-1临","type":"生活服务;旅行社;旅行社","typecode":"070100","pcode":310000,"pname":"上海市","citycode":21,"cityname":"上海市","adcode":310109,"adname":"虹口区","business_area":"江湾","location":"121.480210,31.275748","tel":"18017646817","bigType":"生活服务","midType":"旅行社","smallType":"旅行社","gcj_lng":121.48021,"gcj_lat":31.275748,"wgs84_loc":"121.475705,31.277688","wgs84Lng":121.475705,"wgs84Lat":31.277688,"__source_file__":"13-常用公服设施点/CSV/上海市_旅行社.csv"},"geometry":{"type":"Point","coordinates":[121.475705,31.277688]}}],"name":"上海市_旅行社","crs":{"type":"name","properties":{"name":"urn:ogc:def:crs:OGC:1.3:CRS84"}}}