{"type":"FeatureCollection","features":[{"id":"94","type":"Feature","properties":{"id":"B0I6F7KPNX","name":"上海机场城市航站楼(装修中)","address":"南京西路1598-1600号","type":"交通设施服务;机场相关;机场相关","typecode":"150100","pcode":310000,"pname":"上海市","citycode":21,"cityname":"上海市","adcode":310106,"adname":"静安区","business_area":"曹家渡","location":"121.447218,31.223954","tel":"[]","bigType":"交通设施服务","midType":"机场相关","smallType":"机场相关","gcj_lng":121.447218,"gcj_lat":31.223954,"wgs84_loc":"121.442621,31.225837","wgs84Lng":121.442621,"wgs84Lat":31.225837,"__source_file__":"13-常用公服设施点/CSV/上海市_机场相关.csv"},"geometry":{"type":"Point","coordinates":[121.442621,31.225837]}}],"name":"上海市_机场相关","crs":{"type":"name","properties":{"name":"urn:ogc:def:crs:OGC:1.3:CRS84"}}}