{"type":"FeatureCollection","features":[{"id":"3512","type":"Feature","properties":{"id":"B0I3GZHY5I","name":"自游家汽车零售中心(上海新天地华府天地店)","address":"马当路222弄1-6号华府天地U单位","type":"汽车销售;汽车销售;汽车销售","typecode":"020000","pcode":310000,"pname":"上海市","citycode":21,"cityname":"上海市","adcode":310101,"adname":"黄浦区","business_area":"新天地(自忠路)","location":"121.474266,31.218827","tel":"[]","bigType":"汽车销售","midType":"汽车销售","smallType":"汽车销售","gcj_lng":121.474266,"gcj_lat":31.218827,"wgs84_loc":"121.469746,31.220776","wgs84Lng":121.469746,"wgs84Lat":31.220776,"__source_file__":"13-常用公服设施点/CSV/上海市_汽车销售.csv"},"geometry":{"type":"Point","coordinates":[121.469746,31.220776]}},{"id":"116","type":"Feature","properties":{"id":"B0H0MXP5FI","name":"极氪空间(上海华府天地店)","address":"马当路230号华府天地商场S单元1-2层","type":"汽车销售;汽车销售;汽车销售","typecode":"020000","pcode":310000,"pname":"上海市","citycode":21,"cityname":"上海市","adcode":310101,"adname":"黄浦区","business_area":"淮海路","location":"121.474244,31.218902","tel":"4000036036","bigType":"汽车销售","midType":"汽车销售","smallType":"汽车销售","gcj_lng":121.474244,"gcj_lat":31.218902,"wgs84_loc":"121.469724,31.220851","wgs84Lng":121.469724,"wgs84Lat":31.220851,"__source_file__":"13-常用公服设施点/CSV/上海市_汽车销售.csv"},"geometry":{"type":"Point","coordinates":[121.469724,31.220851]}},{"id":"3511","type":"Feature","properties":{"id":"B0I3GSJAJ4","name":"自游家汽车零售中心(上海新天地华府天地门店)","address":"马当路222号1-6号华府天地U单位","type":"汽车销售;汽车销售;汽车销售","typecode":"020000","pcode":310000,"pname":"上海市","citycode":21,"cityname":"上海市","adcode":310101,"adname":"黄浦区","business_area":"新天地(自忠路)","location":"121.474199,31.218955","tel":"[]","bigType":"汽车销售","midType":"汽车销售","smallType":"汽车销售","gcj_lng":121.474199,"gcj_lat":31.218955,"wgs84_loc":"121.469679,31.220904","wgs84Lng":121.469679,"wgs84Lat":31.220904,"__source_file__":"13-常用公服设施点/CSV/上海市_汽车销售.csv"},"geometry":{"type":"Point","coordinates":[121.469679,31.220904]}},{"id":"113","type":"Feature","properties":{"id":"B0FFJ9SMMD","name":"前途驿上海新天地店","address":"马当路222弄1-6号华府天地商场","type":"汽车销售;汽车销售;汽车销售","typecode":"020000","pcode":310000,"pname":"上海市","citycode":21,"cityname":"上海市","adcode":310101,"adname":"黄浦区","business_area":"新天地(自忠路)","location":"121.474237,31.219181","tel":"021-63860561","bigType":"汽车销售","midType":"汽车销售","smallType":"汽车销售","gcj_lng":121.474237,"gcj_lat":31.219181,"wgs84_loc":"121.469717,31.22113","wgs84Lng":121.469717,"wgs84Lat":31.22113,"__source_file__":"13-常用公服设施点/CSV/上海市_汽车销售.csv"},"geometry":{"type":"Point","coordinates":[121.469717,31.22113]}},{"id":"120","type":"Feature","properties":{"id":"B0FFGCU57M","name":"帕加尼上海","address":"湖滨路与顺昌路交汇处","type":"汽车销售;汽车销售;汽车销售","typecode":"020000","pcode":310000,"pname":"上海市","citycode":21,"cityname":"上海市","adcode":310101,"adname":"黄浦区","business_area":"淮海路","location":"121.476823,31.220534","tel":"021-63339096","bigType":"汽车销售","midType":"汽车销售","smallType":"汽车销售","gcj_lng":121.476823,"gcj_lat":31.220534,"wgs84_loc":"121.472311,31.222489","wgs84Lng":121.472311,"wgs84Lat":31.222489,"__source_file__":"13-常用公服设施点/CSV/上海市_汽车销售.csv"},"geometry":{"type":"Point","coordinates":[121.472311,31.222489]}},{"id":"114","type":"Feature","properties":{"id":"B0FFFDM3GD","name":"迈凯伦上海浦西","address":"湖滨路208号","type":"汽车销售;汽车销售;汽车销售|汽车维修;汽车维修;汽车维修","typecode":"020000|030000","pcode":310000,"pname":"上海市","citycode":21,"cityname":"上海市","adcode":310101,"adname":"黄浦区","business_area":"淮海路","location":"121.476346,31.220746","tel":"021-63869599","bigType":"汽车销售","midType":"汽车销售","smallType":"汽车销售|汽车维修","gcj_lng":121.476346,"gcj_lat":31.220746,"wgs84_loc":"121.471832,31.2227","wgs84Lng":121.471832,"wgs84Lat":31.2227,"__source_file__":"13-常用公服设施点/CSV/上海市_汽车销售.csv"},"geometry":{"type":"Point","coordinates":[121.471832,31.2227]}},{"id":"18","type":"Feature","properties":{"id":"B0J22CMVW5","name":"法拉利浦西新天地展厅","address":"太仓路233号1层01单元","type":"汽车销售;汽车销售;汽车销售","typecode":"020000","pcode":310000,"pname":"上海市","citycode":21,"cityname":"上海市","adcode":310101,"adname":"黄浦区","business_area":"淮海路","location":"121.473882,31.220755","tel":"021-53838818","bigType":"汽车销售","midType":"汽车销售","smallType":"汽车销售","gcj_lng":121.473882,"gcj_lat":31.220755,"wgs84_loc":"121.46936,31.222702","wgs84Lng":121.46936,"wgs84Lat":31.222702,"__source_file__":"13-常用公服设施点/CSV/上海市_汽车销售.csv"},"geometry":{"type":"Point","coordinates":[121.46936,31.222702]}},{"id":"3987","type":"Feature","properties":{"id":"B0LBLLR76G","name":"瑞丰德永","address":"淮海中路与淡水路交叉口东60米","type":"汽车销售;汽车销售;汽车销售","typecode":"020000","pcode":310000,"pname":"上海市","citycode":21,"cityname":"上海市","adcode":310101,"adname":"黄浦区","business_area":"淮海路","location":"121.472925,31.222025","tel":"[]","bigType":"汽车销售","midType":"汽车销售","smallType":"汽车销售","gcj_lng":121.472925,"gcj_lat":31.222025,"wgs84_loc":"121.4684,31.223969","wgs84Lng":121.4684,"wgs84Lat":31.223969,"__source_file__":"13-常用公服设施点/CSV/上海市_汽车销售.csv"},"geometry":{"type":"Point","coordinates":[121.4684,31.223969]}},{"id":"3770","type":"Feature","properties":{"id":"B0K2BU9DKA","name":"现代N品牌体验中心","address":"淮海中路283号香港广场南座SL1-02、SL2-01-02室","type":"汽车销售;汽车销售;汽车销售","typecode":"020000","pcode":310000,"pname":"上海市","citycode":21,"cityname":"上海市","adcode":310101,"adname":"黄浦区","business_area":"淮海路","location":"121.474955,31.222428","tel":"021-63130335","bigType":"汽车销售","midType":"汽车销售","smallType":"汽车销售","gcj_lng":121.474955,"gcj_lat":31.222428,"wgs84_loc":"121.470437,31.224377","wgs84Lng":121.470437,"wgs84Lat":31.224377,"__source_file__":"13-常用公服设施点/CSV/上海市_汽车销售.csv"},"geometry":{"type":"Point","coordinates":[121.470437,31.224377]}},{"id":"112","type":"Feature","properties":{"id":"B0HAAU62GX","name":"上海捷尼赛思之家","address":"淮海中路282号香港广场北座1楼","type":"汽车销售;汽车销售;汽车销售|汽车维修;汽车维修;汽车维修","typecode":"020000|030000","pcode":310000,"pname":"上海市","citycode":21,"cityname":"上海市","adcode":310101,"adname":"黄浦区","business_area":"北京东路","location":"121.474327,31.223802","tel":"021-53951234","bigType":"汽车销售","midType":"汽车销售","smallType":"汽车销售|汽车维修","gcj_lng":121.474327,"gcj_lat":31.223802,"wgs84_loc":"121.469807,31.225749","wgs84Lng":121.469807,"wgs84Lat":31.225749,"__source_file__":"13-常用公服设施点/CSV/上海市_汽车销售.csv"},"geometry":{"type":"Point","coordinates":[121.469807,31.225749]}},{"id":"118","type":"Feature","properties":{"id":"B0H6SZYSDQ","name":"高合体验店 HiPhi Hub（上海湖滨道）","address":"湖滨路150号一层E07单元","type":"汽车销售;汽车销售;汽车销售","typecode":"020000","pcode":310000,"pname":"上海市","citycode":21,"cityname":"上海市","adcode":310101,"adname":"黄浦区","business_area":"淮海路","location":"121.478757,31.220479","tel":"13120793996;18767388850","bigType":"汽车销售","midType":"汽车销售","smallType":"汽车销售","gcj_lng":121.478757,"gcj_lat":31.220479,"wgs84_loc":"121.474252,31.22244","wgs84Lng":121.474252,"wgs84Lat":31.22244,"__source_file__":"13-常用公服设施点/CSV/上海市_汽车销售.csv"},"geometry":{"type":"Point","coordinates":[121.474252,31.22244]}},{"id":"3273","type":"Feature","properties":{"id":"B0IG1ZDWDV","name":"比亚迪汽车","address":"龙门路与淮海中路交叉口北40米","type":"汽车销售;汽车销售;汽车销售","typecode":"020000","pcode":310000,"pname":"上海市","citycode":21,"cityname":"上海市","adcode":310101,"adname":"黄浦区","business_area":"北京东路","location":"121.478769,31.225405","tel":"[]","bigType":"汽车销售","midType":"汽车销售","smallType":"汽车销售","gcj_lng":121.478769,"gcj_lat":31.225405,"wgs84_loc":"121.474263,31.227364","wgs84Lng":121.474263,"wgs84Lat":31.227364,"__source_file__":"13-常用公服设施点/CSV/上海市_汽车销售.csv"},"geometry":{"type":"Point","coordinates":[121.474263,31.227364]}},{"id":"110","type":"Feature","properties":{"id":"B0HB3O9KQR","name":"捷成汽车销售有限公司","address":"延安东路618号东海商业中心二期19层B/C/D","type":"汽车销售;汽车销售;汽车销售","typecode":"020000","pcode":310000,"pname":"上海市","citycode":21,"cityname":"上海市","adcode":310101,"adname":"黄浦区","business_area":"北京东路","location":"121.479948,31.230005","tel":"[]","bigType":"汽车销售","midType":"汽车销售","smallType":"汽车销售","gcj_lng":121.479948,"gcj_lat":31.230005,"wgs84_loc":"121.475446,31.231965","wgs84Lng":121.475446,"wgs84Lat":31.231965,"__source_file__":"13-常用公服设施点/CSV/上海市_汽车销售.csv"},"geometry":{"type":"Point","coordinates":[121.475446,31.231965]}},{"id":"3775","type":"Feature","properties":{"id":"B0K3ZUFY6Z","name":"上海三田","address":"河南中路与汉口路交叉口北20米","type":"汽车销售;汽车销售;汽车销售","typecode":"020000","pcode":310000,"pname":"上海市","citycode":21,"cityname":"上海市","adcode":310101,"adname":"黄浦区","business_area":"北京路","location":"121.485512,31.236111","tel":"[]","bigType":"汽车销售","midType":"汽车销售","smallType":"汽车销售","gcj_lng":121.485512,"gcj_lat":31.236111,"wgs84_loc":"121.481028,31.238084","wgs84Lng":121.481028,"wgs84Lat":31.238084,"__source_file__":"13-常用公服设施点/CSV/上海市_汽车销售.csv"},"geometry":{"type":"Point","coordinates":[121.481028,31.238084]}},{"id":"2757","type":"Feature","properties":{"id":"B0GR6YXF3P","name":"上海威耀汽车集团","address":"陆家嘴街道滨江大道","type":"汽车销售;汽车销售;汽车销售","typecode":"020000","pcode":310000,"pname":"上海市","citycode":21,"cityname":"上海市","adcode":310115,"adname":"浦东新区","business_area":"陆家嘴","location":"121.495983,31.236700","tel":"[]","bigType":"汽车销售","midType":"汽车销售","smallType":"汽车销售","gcj_lng":121.495983,"gcj_lat":31.2367,"wgs84_loc":"121.491537,31.238704","wgs84Lng":121.491537,"wgs84Lat":31.238704,"__source_file__":"13-常用公服设施点/CSV/上海市_汽车销售.csv"},"geometry":{"type":"Point","coordinates":[121.491537,31.238704]}},{"id":"3849","type":"Feature","properties":{"id":"B0K6OUXNG0","name":"比亚迪汽车王朝网(瑞虹迪浦东正大广场商超店)","address":"陆家嘴西路168号","type":"汽车销售;汽车销售;汽车销售|汽车服务;汽车服务相关;汽车服务相关","typecode":"020000|010000","pcode":310000,"pname":"上海市","citycode":21,"cityname":"上海市","adcode":310115,"adname":"浦东新区","business_area":"陆家嘴","location":"121.499359,31.236806","tel":"021-58991172","bigType":"汽车销售","midType":"汽车销售","smallType":"汽车销售|汽车服务","gcj_lng":121.499359,"gcj_lat":31.236806,"wgs84_loc":"121.494925,31.23882","wgs84Lng":121.494925,"wgs84Lat":31.23882,"__source_file__":"13-常用公服设施点/CSV/上海市_汽车销售.csv"},"geometry":{"type":"Point","coordinates":[121.494925,31.23882]}},{"id":"978","type":"Feature","properties":{"id":"B0G0SH1JT7","name":"Polestar极星空间上海正大广场","address":"陆家嘴西路168号正大广场购物中心1幢1层GF03","type":"汽车销售;汽车销售;汽车销售|汽车维修;汽车维修;汽车维修","typecode":"020000|030000","pcode":310000,"pname":"上海市","citycode":21,"cityname":"上海市","adcode":310115,"adname":"浦东新区","business_area":"陆家嘴","location":"121.500007,31.237244","tel":"[]","bigType":"汽车销售","midType":"汽车销售","smallType":"汽车销售|汽车维修","gcj_lng":121.500007,"gcj_lat":31.237244,"wgs84_loc":"121.495575,31.23926","wgs84Lng":121.495575,"wgs84Lat":31.23926,"__source_file__":"13-常用公服设施点/CSV/上海市_汽车销售.csv"},"geometry":{"type":"Point","coordinates":[121.495575,31.23926]}},{"id":"119","type":"Feature","properties":{"id":"B0HBXRRJSF","name":"捷尼赛思汽车销售有限公司","address":"香港广场","type":"汽车销售;汽车销售;汽车销售","typecode":"020000","pcode":310000,"pname":"上海市","citycode":21,"cityname":"上海市","adcode":310101,"adname":"黄浦区","business_area":"北京东路","location":"121.474313,31.223810","tel":"[]","bigType":"汽车销售","midType":"汽车销售","smallType":"汽车销售","gcj_lng":121.474313,"gcj_lat":31.22381,"wgs84_loc":"121.469793,31.225757","wgs84Lng":121.469793,"wgs84Lat":31.225757,"__source_file__":"13-常用公服设施点/CSV/上海市_汽车销售.csv"},"geometry":{"type":"Point","coordinates":[121.469793,31.225757]}},{"id":"117","type":"Feature","properties":{"id":"B0GKXCEJ0T","name":"阿斯顿·马丁上海城市展厅","address":"淮海中路188号1层","type":"汽车销售;汽车销售;汽车销售","typecode":"020000","pcode":310000,"pname":"上海市","citycode":21,"cityname":"上海市","adcode":310101,"adname":"黄浦区","business_area":"北京东路","location":"121.476998,31.224463","tel":"021-63876007","bigType":"汽车销售","midType":"汽车销售","smallType":"汽车销售","gcj_lng":121.476998,"gcj_lat":31.224463,"wgs84_loc":"121.472486,31.226417","wgs84Lng":121.472486,"wgs84Lat":31.226417,"__source_file__":"13-常用公服设施点/CSV/上海市_汽车销售.csv"},"geometry":{"type":"Point","coordinates":[121.472486,31.226417]}},{"id":"224","type":"Feature","properties":{"id":"B0FFKGBBW3","name":"理想汽车上海南丰荟零售中心","address":"淮海中路188号淮海南丰荟103","type":"汽车销售;汽车销售;汽车销售|汽车维修;汽车维修;汽车维修","typecode":"020000|030000","pcode":310000,"pname":"上海市","citycode":21,"cityname":"上海市","adcode":310101,"adname":"黄浦区","business_area":"北京东路","location":"121.477135,31.224579","tel":"021-60664277","bigType":"汽车销售","midType":"汽车销售","smallType":"汽车销售|汽车维修","gcj_lng":121.477135,"gcj_lat":31.224579,"wgs84_loc":"121.472624,31.226533","wgs84Lng":121.472624,"wgs84Lat":31.226533,"__source_file__":"13-常用公服设施点/CSV/上海市_汽车销售.csv"},"geometry":{"type":"Point","coordinates":[121.472624,31.226533]}},{"id":"4010","type":"Feature","properties":{"id":"B0KR9XM3YQ","name":"泰康拜博上海昌仁IDDC(港陆广场店)","address":"西藏中路18号(近延安东路)港陆广场","type":"汽车销售;汽车销售;汽车销售","typecode":"020000","pcode":310000,"pname":"上海市","citycode":21,"cityname":"上海市","adcode":310101,"adname":"黄浦区","business_area":"北京路","location":"121.478633,31.229317","tel":"[]","bigType":"汽车销售","midType":"汽车销售","smallType":"汽车销售","gcj_lng":121.478633,"gcj_lat":31.229317,"wgs84_loc":"121.474126,31.231273","wgs84Lng":121.474126,"wgs84Lat":31.231273,"__source_file__":"13-常用公服设施点/CSV/上海市_汽车销售.csv"},"geometry":{"type":"Point","coordinates":[121.474126,31.231273]}},{"id":"3772","type":"Feature","properties":{"id":"B0K027ODY6","name":"水清泰荣","address":"西藏中路268号上海来福士广场","type":"汽车销售;汽车销售;汽车销售","typecode":"020000","pcode":310000,"pname":"上海市","citycode":21,"cityname":"上海市","adcode":310101,"adname":"黄浦区","business_area":"北京路","location":"121.476694,31.232461","tel":"[]","bigType":"汽车销售","midType":"汽车销售","smallType":"汽车销售","gcj_lng":121.476694,"gcj_lat":31.232461,"wgs84_loc":"121.472181,31.234411","wgs84Lng":121.472181,"wgs84Lat":31.234411,"__source_file__":"13-常用公服设施点/CSV/上海市_汽车销售.csv"},"geometry":{"type":"Point","coordinates":[121.472181,31.234411]}},{"id":"4057","type":"Feature","properties":{"id":"B0K62473B7","name":"蔚来汽车(上海苏河湾万象天地店)","address":"福建北路100号上海苏河湾万象天地B1层","type":"汽车销售;汽车销售;汽车销售","typecode":"020000","pcode":310000,"pname":"上海市","citycode":21,"cityname":"上海市","adcode":310106,"adname":"静安区","business_area":"北京路","location":"121.477694,31.242516","tel":"[]","bigType":"汽车销售","midType":"汽车销售","smallType":"汽车销售","gcj_lng":121.477694,"gcj_lat":31.242516,"wgs84_loc":"121.473183,31.244464","wgs84Lng":121.473183,"wgs84Lat":31.244464,"__source_file__":"13-常用公服设施点/CSV/上海市_汽车销售.csv"},"geometry":{"type":"Point","coordinates":[121.473183,31.244464]}},{"id":"3954","type":"Feature","properties":{"id":"B0KAUR7A6H","name":"蔚来中心(上海苏河湾万象天地)","address":"福建北路100号万象天地西里LG2层210-212室","type":"汽车销售;汽车销售;汽车销售","typecode":"020000","pcode":310000,"pname":"上海市","citycode":21,"cityname":"上海市","adcode":310106,"adname":"静安区","business_area":"北京路","location":"121.477596,31.242676","tel":"16601807438","bigType":"汽车销售","midType":"汽车销售","smallType":"汽车销售","gcj_lng":121.477596,"gcj_lat":31.242676,"wgs84_loc":"121.473085,31.244623","wgs84Lng":121.473085,"wgs84Lat":31.244623,"__source_file__":"13-常用公服设施点/CSV/上海市_汽车销售.csv"},"geometry":{"type":"Point","coordinates":[121.473085,31.244623]}},{"id":"349","type":"Feature","properties":{"id":"B0FFHRY0RI","name":"BMW(上海静安大悦城北座)","address":"西藏北路166号上海静安大悦城北座L1层","type":"汽车销售;汽车销售;汽车销售","typecode":"020000","pcode":310000,"pname":"上海市","citycode":21,"cityname":"上海市","adcode":310106,"adname":"静安区","business_area":"七浦路","location":"121.471959,31.243920","tel":"[]","bigType":"汽车销售","midType":"汽车销售","smallType":"汽车销售","gcj_lng":121.471959,"gcj_lat":31.24392,"wgs84_loc":"121.467429,31.245851","wgs84Lng":121.467429,"wgs84Lat":31.245851,"__source_file__":"13-常用公服设施点/CSV/上海市_汽车销售.csv"},"geometry":{"type":"Point","coordinates":[121.467429,31.245851]}},{"id":"345","type":"Feature","properties":{"id":"B0H3ZAE5XG","name":"Volkswagen ID.Store(上海大悦城店)","address":"西藏北路166号上海大悦城北座F1","type":"汽车销售;汽车销售;汽车销售","typecode":"020000","pcode":310000,"pname":"上海市","citycode":21,"cityname":"上海市","adcode":310106,"adname":"静安区","business_area":"七浦路","location":"121.472098,31.244160","tel":"[]","bigType":"汽车销售","midType":"汽车销售","smallType":"汽车销售","gcj_lng":121.472098,"gcj_lat":31.24416,"wgs84_loc":"121.467569,31.246092","wgs84Lng":121.467569,"wgs84Lat":31.246092,"__source_file__":"13-常用公服设施点/CSV/上海市_汽车销售.csv"},"geometry":{"type":"Point","coordinates":[121.467569,31.246092]}},{"id":"3171","type":"Feature","properties":{"id":"B0HDJAT4DS","name":"蔚来空间(上海静安大悦城)","address":"西藏北路198号静安大悦城北座N108","type":"汽车销售;汽车销售;汽车销售","typecode":"020000","pcode":310000,"pname":"上海市","citycode":21,"cityname":"上海市","adcode":310106,"adname":"静安区","business_area":"七浦路","location":"121.471787,31.244455","tel":"[]","bigType":"汽车销售","midType":"汽车销售","smallType":"汽车销售","gcj_lng":121.471787,"gcj_lat":31.244455,"wgs84_loc":"121.467257,31.246386","wgs84Lng":121.467257,"wgs84Lat":31.246386,"__source_file__":"13-常用公服设施点/CSV/上海市_汽车销售.csv"},"geometry":{"type":"Point","coordinates":[121.467257,31.246386]}},{"id":"3769","type":"Feature","properties":{"id":"B0K6P5ZE3F","name":"罗斯福","address":"中山东一路27号","type":"汽车销售;汽车销售;汽车销售","typecode":"020000","pcode":310000,"pname":"上海市","citycode":21,"cityname":"上海市","adcode":310101,"adname":"黄浦区","business_area":"北京路","location":"121.490026,31.240435","tel":"[]","bigType":"汽车销售","midType":"汽车销售","smallType":"汽车销售","gcj_lng":121.490026,"gcj_lat":31.240435,"wgs84_loc":"121.485558,31.242419","wgs84Lng":121.485558,"wgs84Lat":31.242419,"__source_file__":"13-常用公服设施点/CSV/上海市_汽车销售.csv"},"geometry":{"type":"Point","coordinates":[121.485558,31.242419]}},{"id":"3771","type":"Feature","properties":{"id":"B0J23H94W8","name":"仰望汽车(上海外滩仰望体验展厅)","address":"中山东一路27号102室","type":"汽车销售;汽车销售;汽车销售","typecode":"020000","pcode":310000,"pname":"上海市","citycode":21,"cityname":"上海市","adcode":310101,"adname":"黄浦区","business_area":"北京路","location":"121.489952,31.240571","tel":"18621848433;19946270939","bigType":"汽车销售","midType":"汽车销售","smallType":"汽车销售","gcj_lng":121.489952,"gcj_lat":31.240571,"wgs84_loc":"121.485484,31.242555","wgs84Lng":121.485484,"wgs84Lat":31.242555,"__source_file__":"13-常用公服设施点/CSV/上海市_汽车销售.csv"},"geometry":{"type":"Point","coordinates":[121.485484,31.242555]}},{"id":"347","type":"Feature","properties":{"id":"B0G147E32B","name":"科尼赛克及锐马克品牌中国展厅","address":"河南北路17,23号1层","type":"汽车销售;汽车销售;汽车销售","typecode":"020000","pcode":310000,"pname":"上海市","citycode":21,"cityname":"上海市","adcode":310106,"adname":"静安区","business_area":"北京东路","location":"121.481507,31.242599","tel":"021-56623008","bigType":"汽车销售","midType":"汽车销售","smallType":"汽车销售","gcj_lng":121.481507,"gcj_lat":31.242599,"wgs84_loc":"121.477009,31.244558","wgs84Lng":121.477009,"wgs84Lat":31.244558,"__source_file__":"13-常用公服设施点/CSV/上海市_汽车销售.csv"},"geometry":{"type":"Point","coordinates":[121.477009,31.244558]}},{"id":"4056","type":"Feature","properties":{"id":"B0LBRUI9CF","name":"BUGATTI","address":"河南北路辅路与北苏州路交叉口西120米","type":"汽车销售;汽车销售;汽车销售","typecode":"020000","pcode":310000,"pname":"上海市","citycode":21,"cityname":"上海市","adcode":310106,"adname":"静安区","business_area":"北京路","location":"121.481719,31.242649","tel":"[]","bigType":"汽车销售","midType":"汽车销售","smallType":"汽车销售","gcj_lng":121.481719,"gcj_lat":31.242649,"wgs84_loc":"121.477222,31.244608","wgs84Lng":121.477222,"wgs84Lat":31.244608,"__source_file__":"13-常用公服设施点/CSV/上海市_汽车销售.csv"},"geometry":{"type":"Point","coordinates":[121.477222,31.244608]}},{"id":"1450","type":"Feature","properties":{"id":"B0H1VHSZFE","name":"联富汽车港(上海静安店)","address":"河南北路99号上海联富服饰市场B2层","type":"汽车销售;汽车销售;汽车销售","typecode":"020000","pcode":310000,"pname":"上海市","citycode":21,"cityname":"上海市","adcode":310106,"adname":"静安区","business_area":"七浦路","location":"121.481286,31.243847","tel":"13817991368","bigType":"汽车销售","midType":"汽车销售","smallType":"汽车销售","gcj_lng":121.481286,"gcj_lat":31.243847,"wgs84_loc":"121.476787,31.245804","wgs84Lng":121.476787,"wgs84Lat":31.245804,"__source_file__":"13-常用公服设施点/CSV/上海市_汽车销售.csv"},"geometry":{"type":"Point","coordinates":[121.476787,31.245804]}},{"id":"4079","type":"Feature","properties":{"id":"B0K1UPAB0W","name":"上汽金控","address":"天潼路229号中美信托金融大厦","type":"汽车销售;汽车销售;汽车销售","typecode":"020000","pcode":310000,"pname":"上海市","citycode":21,"cityname":"上海市","adcode":310109,"adname":"虹口区","business_area":"上海北外滩中心","location":"121.488575,31.245075","tel":"[]","bigType":"汽车销售","midType":"汽车销售","smallType":"汽车销售","gcj_lng":121.488575,"gcj_lat":31.245075,"wgs84_loc":"121.484102,31.247053","wgs84Lng":121.484102,"wgs84Lat":31.247053,"__source_file__":"13-常用公服设施点/CSV/上海市_汽车销售.csv"},"geometry":{"type":"Point","coordinates":[121.484102,31.247053]}},{"id":"4082","type":"Feature","properties":{"id":"B0K61ARNRZ","name":"鑫上海新兴旺国际店","address":"七浦路与江西北路交叉口西南100米(天潼路地铁站1号口旁)","type":"汽车销售;汽车销售;汽车销售","typecode":"020000","pcode":310000,"pname":"上海市","citycode":21,"cityname":"上海市","adcode":310109,"adname":"虹口区","business_area":"上海北外滩中心","location":"121.482337,31.245496","tel":"[]","bigType":"汽车销售","midType":"汽车销售","smallType":"汽车销售","gcj_lng":121.482337,"gcj_lat":31.245496,"wgs84_loc":"121.477842,31.247456","wgs84Lng":121.477842,"wgs84Lat":31.247456,"__source_file__":"13-常用公服设施点/CSV/上海市_汽车销售.csv"},"geometry":{"type":"Point","coordinates":[121.477842,31.247456]}},{"id":"3956","type":"Feature","properties":{"id":"B0KG0O22M2","name":"超飞捷","address":"七浦兰城商厦西北门旁(天潼路地铁站6号口步行430米)","type":"汽车销售;汽车销售;汽车销售","typecode":"020000","pcode":310000,"pname":"上海市","citycode":21,"cityname":"上海市","adcode":310106,"adname":"静安区","business_area":"七浦路","location":"121.478859,31.245900","tel":"[]","bigType":"汽车销售","midType":"汽车销售","smallType":"汽车销售","gcj_lng":121.478859,"gcj_lat":31.2459,"wgs84_loc":"121.474352,31.24785","wgs84Lng":121.474352,"wgs84Lat":31.24785,"__source_file__":"13-常用公服设施点/CSV/上海市_汽车销售.csv"},"geometry":{"type":"Point","coordinates":[121.474352,31.24785]}},{"id":"4075","type":"Feature","properties":{"id":"B0LBL1RRO2","name":"德诚永义","address":"四川北路与南崇明路交叉口东北60米","type":"汽车销售;汽车销售;汽车销售","typecode":"020000","pcode":310000,"pname":"上海市","citycode":21,"cityname":"上海市","adcode":310109,"adname":"虹口区","business_area":"上海北外滩中心","location":"121.485975,31.245925","tel":"[]","bigType":"汽车销售","midType":"汽车销售","smallType":"汽车销售","gcj_lng":121.485975,"gcj_lat":31.245925,"wgs84_loc":"121.481492,31.247895","wgs84Lng":121.481492,"wgs84Lat":31.247895,"__source_file__":"13-常用公服设施点/CSV/上海市_汽车销售.csv"},"geometry":{"type":"Point","coordinates":[121.481492,31.247895]}},{"id":"1585","type":"Feature","properties":{"id":"B0GURUP47N","name":"合创汽车HYCAN(直营旗舰店)","address":"天潼路328号1层","type":"汽车销售;汽车销售;汽车销售","typecode":"020000","pcode":310000,"pname":"上海市","citycode":21,"cityname":"上海市","adcode":310109,"adname":"虹口区","business_area":"北外滩","location":"121.485743,31.246093","tel":"13122906615","bigType":"汽车销售","midType":"汽车销售","smallType":"汽车销售","gcj_lng":121.485743,"gcj_lat":31.246093,"wgs84_loc":"121.481259,31.248062","wgs84Lng":121.481259,"wgs84Lat":31.248062,"__source_file__":"13-常用公服设施点/CSV/上海市_汽车销售.csv"},"geometry":{"type":"Point","coordinates":[121.481259,31.248062]}},{"id":"3767","type":"Feature","properties":{"id":"B0KA97QLYU","name":"上海信义宝吉祥企业发展有限公司虹口分公司","address":"天潼路328号上海星荟中心","type":"汽车销售;汽车销售;汽车销售","typecode":"020000","pcode":310000,"pname":"上海市","citycode":21,"cityname":"上海市","adcode":310109,"adname":"虹口区","business_area":"七浦路","location":"121.487284,31.246189","tel":"[]","bigType":"汽车销售","midType":"汽车销售","smallType":"汽车销售","gcj_lng":121.487284,"gcj_lat":31.246189,"wgs84_loc":"121.482806,31.248163","wgs84Lng":121.482806,"wgs84Lat":31.248163,"__source_file__":"13-常用公服设施点/CSV/上海市_汽车销售.csv"},"geometry":{"type":"Point","coordinates":[121.482806,31.248163]}},{"id":"449","type":"Feature","properties":{"id":"B0HBBK1JON","name":"比亚迪汽车上海卓景(星荟中心店)","address":"天潼路328号1层L101-102室","type":"汽车销售;汽车销售;汽车销售|汽车维修;汽车维修;汽车维修","typecode":"020000|030000","pcode":310000,"pname":"上海市","citycode":21,"cityname":"上海市","adcode":310109,"adname":"虹口区","business_area":"北外滩","location":"121.485712,31.246416","tel":"16621720783;021-56060686","bigType":"汽车销售","midType":"汽车销售","smallType":"汽车销售|汽车维修","gcj_lng":121.485712,"gcj_lat":31.246416,"wgs84_loc":"121.481228,31.248385","wgs84Lng":121.481228,"wgs84Lat":31.248385,"__source_file__":"13-常用公服设施点/CSV/上海市_汽车销售.csv"},"geometry":{"type":"Point","coordinates":[121.481228,31.248385]}},{"id":"1584","type":"Feature","properties":{"id":"B0HR0GTKZ8","name":"比亚迪(星荟中心店)","address":"四川北路487号","type":"汽车销售;汽车销售;汽车销售","typecode":"020000","pcode":310000,"pname":"上海市","citycode":21,"cityname":"上海市","adcode":310109,"adname":"虹口区","business_area":"北外滩","location":"121.485666,31.246436","tel":"021-56060686;13148169586","bigType":"汽车销售","midType":"汽车销售","smallType":"汽车销售","gcj_lng":121.485666,"gcj_lat":31.246436,"wgs84_loc":"121.481182,31.248405","wgs84Lng":121.481182,"wgs84Lat":31.248405,"__source_file__":"13-常用公服设施点/CSV/上海市_汽车销售.csv"},"geometry":{"type":"Point","coordinates":[121.481182,31.248405]}},{"id":"181","type":"Feature","properties":{"id":"B0FFJBME17","name":"VOLVO","address":"东大名路555号上海白玉兰广场26楼","type":"汽车销售;汽车销售;汽车销售","typecode":"020000","pcode":310000,"pname":"上海市","citycode":21,"cityname":"上海市","adcode":310109,"adname":"虹口区","business_area":"提篮桥","location":"121.497859,31.249377","tel":"[]","bigType":"汽车销售","midType":"汽车销售","smallType":"汽车销售","gcj_lng":121.497859,"gcj_lat":31.249377,"wgs84_loc":"121.493418,31.251381","wgs84Lng":121.493418,"wgs84Lat":31.251381,"__source_file__":"13-常用公服设施点/CSV/上海市_汽车销售.csv"},"geometry":{"type":"Point","coordinates":[121.493418,31.251381]}},{"id":"42","type":"Feature","properties":{"id":"B0FFJBME17","name":"沃尔沃汽车集团亚太区销售公司","address":"东大名路501号上海白玉兰广场F26层","type":"汽车销售;汽车销售;汽车销售","typecode":"020000","pcode":310000,"pname":"上海市","citycode":21,"cityname":"上海市","adcode":310109,"adname":"虹口区","business_area":"提篮桥","location":"121.497859,31.249377","tel":"[]","bigType":"汽车销售","midType":"汽车销售","smallType":"汽车销售","gcj_lng":121.497859,"gcj_lat":31.249377,"wgs84_loc":"121.493418,31.251381","wgs84Lng":121.493418,"wgs84Lat":31.251381,"__source_file__":"13-常用公服设施点/CSV/上海市_汽车销售.csv"},"geometry":{"type":"Point","coordinates":[121.493418,31.251381]}},{"id":"1586","type":"Feature","properties":{"id":"B0015326CC","name":"夏宇汽贸","address":"东宝兴路415号-419","type":"汽车销售;汽车销售;汽车销售","typecode":"020000","pcode":310000,"pname":"上海市","citycode":21,"cityname":"上海市","adcode":310109,"adname":"虹口区","business_area":"宝山路","location":"121.479770,31.259090","tel":"021-66545111;021-66601528","bigType":"汽车销售","midType":"汽车销售","smallType":"汽车销售","gcj_lng":121.47977,"gcj_lat":31.25909,"wgs84_loc":"121.475265,31.261036","wgs84Lng":121.475265,"wgs84Lat":31.261036,"__source_file__":"13-常用公服设施点/CSV/上海市_汽车销售.csv"},"geometry":{"type":"Point","coordinates":[121.475265,31.261036]}},{"id":"2893","type":"Feature","properties":{"id":"B0FFKDW6CE","name":"长泰海滨城展厅","address":"海宁路899号长泰企业天地A座裙楼西广场大厅","type":"汽车销售;汽车销售;汽车销售","typecode":"020000","pcode":310000,"pname":"上海市","citycode":21,"cityname":"上海市","adcode":310106,"adname":"静安区","business_area":"七浦路","location":"121.477003,31.245976","tel":"[]","bigType":"汽车销售","midType":"汽车销售","smallType":"汽车销售","gcj_lng":121.477003,"gcj_lat":31.245976,"wgs84_loc":"121.47249,31.24792","wgs84Lng":121.47249,"wgs84Lat":31.24792,"__source_file__":"13-常用公服设施点/CSV/上海市_汽车销售.csv"},"geometry":{"type":"Point","coordinates":[121.47249,31.24792]}},{"id":"3536","type":"Feature","properties":{"id":"B0I3F13GKU","name":"掌上新疆·新疆名优产品销售旗舰店","address":"宝昌路与临山路交叉口东20米","type":"汽车销售;汽车销售;汽车销售","typecode":"020000","pcode":310000,"pname":"上海市","citycode":21,"cityname":"上海市","adcode":310106,"adname":"静安区","business_area":"宝山路","location":"121.476686,31.256538","tel":"[]","bigType":"汽车销售","midType":"汽车销售","smallType":"汽车销售","gcj_lng":121.476686,"gcj_lat":31.256538,"wgs84_loc":"121.472171,31.258477","wgs84Lng":121.472171,"wgs84Lat":31.258477,"__source_file__":"13-常用公服设施点/CSV/上海市_汽车销售.csv"},"geometry":{"type":"Point","coordinates":[121.472171,31.258477]}},{"id":"3749","type":"Feature","properties":{"id":"B0FFIB5GKI","name":"上海绿洲雅宾利","address":"中华新路199弄万科翡翠园","type":"汽车销售;汽车销售;汽车销售","typecode":"020000","pcode":310000,"pname":"上海市","citycode":21,"cityname":"上海市","adcode":310106,"adname":"静安区","business_area":"宝山路","location":"121.473601,31.258976","tel":"[]","bigType":"汽车销售","midType":"汽车销售","smallType":"汽车销售","gcj_lng":121.473601,"gcj_lat":31.258976,"wgs84_loc":"121.469075,31.260905","wgs84Lng":121.469075,"wgs84Lat":31.260905,"__source_file__":"13-常用公服设施点/CSV/上海市_汽车销售.csv"},"geometry":{"type":"Point","coordinates":[121.469075,31.260905]}},{"id":"1589","type":"Feature","properties":{"id":"B0H6PHO5AC","name":"飞凡汽车虹口凯德龙之梦体验中心","address":"西江湾路388号A幢01-40/41","type":"汽车销售;汽车销售;汽车销售","typecode":"020000","pcode":310000,"pname":"上海市","citycode":21,"cityname":"上海市","adcode":310109,"adname":"虹口区","business_area":"江湾","location":"121.478562,31.270261","tel":"18601600100","bigType":"汽车销售","midType":"汽车销售","smallType":"汽车销售","gcj_lng":121.478562,"gcj_lat":31.270261,"wgs84_loc":"121.474052,31.272199","wgs84Lng":121.474052,"wgs84Lat":31.272199,"__source_file__":"13-常用公服设施点/CSV/上海市_汽车销售.csv"},"geometry":{"type":"Point","coordinates":[121.474052,31.272199]}},{"id":"4080","type":"Feature","properties":{"id":"B0K39RFSUI","name":"长城智选(上海)虹口凯德零售中心","address":"西江湾路388号(虹口凯德商业中心)A区1F23B","type":"汽车销售;汽车销售;汽车销售","typecode":"020000","pcode":310000,"pname":"上海市","citycode":21,"cityname":"上海市","adcode":310109,"adname":"虹口区","business_area":"江湾","location":"121.477695,31.270542","tel":"13501640874;13761720103","bigType":"汽车销售","midType":"汽车销售","smallType":"汽车销售","gcj_lng":121.477695,"gcj_lat":31.270542,"wgs84_loc":"121.473182,31.272478","wgs84Lng":121.473182,"wgs84Lat":31.272478,"__source_file__":"13-常用公服设施点/CSV/上海市_汽车销售.csv"},"geometry":{"type":"Point","coordinates":[121.473182,31.272478]}},{"id":"4081","type":"Feature","properties":{"id":"B0K35YE6UK","name":"飞凡汽车体验空间","address":"西江湾路388号凯德虹口商业中心(虹口足球场地铁站出入口旁)","type":"汽车销售;汽车销售;汽车销售","typecode":"020000","pcode":310000,"pname":"上海市","citycode":21,"cityname":"上海市","adcode":310109,"adname":"虹口区","business_area":"江湾","location":"121.478401,31.270673","tel":"[]","bigType":"汽车销售","midType":"汽车销售","smallType":"汽车销售","gcj_lng":121.478401,"gcj_lat":31.270673,"wgs84_loc":"121.47389,31.27261","wgs84Lng":121.47389,"wgs84Lat":31.27261,"__source_file__":"13-常用公服设施点/CSV/上海市_汽车销售.csv"},"geometry":{"type":"Point","coordinates":[121.47389,31.27261]}},{"id":"3197","type":"Feature","properties":{"id":"B0G0RHDSIK","name":"特斯拉上海虹口龙之梦体验店","address":"西江湾路388号虹口龙之梦A座一楼01-38","type":"汽车销售;汽车销售;汽车销售","typecode":"020000","pcode":310000,"pname":"上海市","citycode":21,"cityname":"上海市","adcode":310109,"adname":"虹口区","business_area":"江湾","location":"121.478280,31.270693","tel":"[]","bigType":"汽车销售","midType":"汽车销售","smallType":"汽车销售","gcj_lng":121.47828,"gcj_lat":31.270693,"wgs84_loc":"121.473769,31.27263","wgs84Lng":121.473769,"wgs84Lat":31.27263,"__source_file__":"13-常用公服设施点/CSV/上海市_汽车销售.csv"},"geometry":{"type":"Point","coordinates":[121.473769,31.27263]}},{"id":"1393","type":"Feature","properties":{"id":"B0HDCXNLHE","name":"一汽大众","address":"花园路与中山北一路辅路交叉口东约60米","type":"汽车销售;汽车销售;汽车销售","typecode":"020000","pcode":310000,"pname":"上海市","citycode":21,"cityname":"上海市","adcode":310109,"adname":"虹口区","business_area":"江湾","location":"121.476968,31.270701","tel":"[]","bigType":"汽车销售","midType":"汽车销售","smallType":"汽车销售","gcj_lng":121.476968,"gcj_lat":31.270701,"wgs84_loc":"121.472452,31.272634","wgs84Lng":121.472452,"wgs84Lat":31.272634,"__source_file__":"13-常用公服设施点/CSV/上海市_汽车销售.csv"},"geometry":{"type":"Point","coordinates":[121.472452,31.272634]}},{"id":"4017","type":"Feature","properties":{"id":"B0KAD4QOOT","name":"理想汽车上海凯德虹口零售中心","address":"西江湾路388号1楼3839号商铺","type":"汽车销售;汽车销售;汽车销售","typecode":"020000","pcode":310000,"pname":"上海市","citycode":21,"cityname":"上海市","adcode":310109,"adname":"虹口区","business_area":"江湾","location":"121.478264,31.270712","tel":"15083141734","bigType":"汽车销售","midType":"汽车销售","smallType":"汽车销售","gcj_lng":121.478264,"gcj_lat":31.270712,"wgs84_loc":"121.473753,31.272649","wgs84Lng":121.473753,"wgs84Lat":31.272649,"__source_file__":"13-常用公服设施点/CSV/上海市_汽车销售.csv"},"geometry":{"type":"Point","coordinates":[121.473753,31.272649]}},{"id":"3571","type":"Feature","properties":{"id":"B0I1AS9EXK","name":"BRIDGE+SPARK","address":"西江湾路388号凯德龙之梦购物中心A座F1层","type":"汽车销售;汽车销售;汽车销售","typecode":"020000","pcode":310000,"pname":"上海市","citycode":21,"cityname":"上海市","adcode":310109,"adname":"虹口区","business_area":"江湾","location":"121.477760,31.270819","tel":"[]","bigType":"汽车销售","midType":"汽车销售","smallType":"汽车销售","gcj_lng":121.47776,"gcj_lat":31.270819,"wgs84_loc":"121.473247,31.272755","wgs84Lng":121.473247,"wgs84Lat":31.272755,"__source_file__":"13-常用公服设施点/CSV/上海市_汽车销售.csv"},"geometry":{"type":"Point","coordinates":[121.473247,31.272755]}},{"id":"3566","type":"Feature","properties":{"id":"B0I3BCBZT1","name":"ARCFOX极狐空间上海瑞虹天地","address":"天宝路280弄35号1层a室39b","type":"汽车销售;汽车销售;汽车销售","typecode":"020000","pcode":310000,"pname":"上海市","citycode":21,"cityname":"上海市","adcode":310109,"adname":"虹口区","business_area":"提篮桥","location":"121.495858,31.264756","tel":"13585611176","bigType":"汽车销售","midType":"汽车销售","smallType":"汽车销售","gcj_lng":121.495858,"gcj_lat":31.264756,"wgs84_loc":"121.491409,31.266747","wgs84Lng":121.491409,"wgs84Lat":31.266747,"__source_file__":"13-常用公服设施点/CSV/上海市_汽车销售.csv"},"geometry":{"type":"Point","coordinates":[121.491409,31.266747]}},{"id":"3564","type":"Feature","properties":{"id":"B0I32CMQVZ","name":"smart汽车(上海虹口瑞虹天地星星堂展厅)","address":"天宝路280号","type":"汽车销售;汽车销售;汽车销售","typecode":"020000","pcode":310000,"pname":"上海市","citycode":21,"cityname":"上海市","adcode":310109,"adname":"虹口区","business_area":"提篮桥","location":"121.495852,31.264777","tel":"[]","bigType":"汽车销售","midType":"汽车销售","smallType":"汽车销售","gcj_lng":121.495852,"gcj_lat":31.264777,"wgs84_loc":"121.491403,31.266768","wgs84Lng":121.491403,"wgs84Lat":31.266768,"__source_file__":"13-常用公服设施点/CSV/上海市_汽车销售.csv"},"geometry":{"type":"Point","coordinates":[121.491403,31.266768]}},{"id":"3146","type":"Feature","properties":{"id":"B0FFIBDS1U","name":"上海滴迪汽车代拍销售服务有限公司","address":"东江湾路444号4区113a(虹口体育场里面)","type":"汽车销售;汽车销售;汽车销售","typecode":"020000","pcode":310000,"pname":"上海市","citycode":21,"cityname":"上海市","adcode":310109,"adname":"虹口区","business_area":"曲阳","location":"121.481385,31.270591","tel":"[]","bigType":"汽车销售","midType":"汽车销售","smallType":"汽车销售","gcj_lng":121.481385,"gcj_lat":31.270591,"wgs84_loc":"121.476884,31.272537","wgs84Lng":121.476884,"wgs84Lat":31.272537,"__source_file__":"13-常用公服设施点/CSV/上海市_汽车销售.csv"},"geometry":{"type":"Point","coordinates":[121.476884,31.272537]}},{"id":"4098","type":"Feature","properties":{"id":"B0LBLRPRLK","name":"特斯拉(上海凯德虹口商业中心城市展厅)","address":"西江湾路388号1层","type":"汽车销售;汽车销售;汽车销售","typecode":"020000","pcode":310000,"pname":"上海市","citycode":21,"cityname":"上海市","adcode":310109,"adname":"虹口区","business_area":"江湾","location":"121.478639,31.271207","tel":"[]","bigType":"汽车销售","midType":"汽车销售","smallType":"汽车销售","gcj_lng":121.478639,"gcj_lat":31.271207,"wgs84_loc":"121.474129,31.273145","wgs84Lng":121.474129,"wgs84Lat":31.273145,"__source_file__":"13-常用公服设施点/CSV/上海市_汽车销售.csv"},"geometry":{"type":"Point","coordinates":[121.474129,31.273145]}},{"id":"3568","type":"Feature","properties":{"id":"B0I3DM1QWY","name":"华为AITO汽车体验店(虹口龙之梦店)","address":"凯德龙之梦A座一楼","type":"汽车销售;汽车销售;汽车销售","typecode":"020000","pcode":310000,"pname":"上海市","citycode":21,"cityname":"上海市","adcode":310109,"adname":"虹口区","business_area":"和田","location":"121.477933,31.270963","tel":"[]","bigType":"汽车销售","midType":"汽车销售","smallType":"汽车销售","gcj_lng":121.477933,"gcj_lat":31.270963,"wgs84_loc":"121.47342,31.272899","wgs84Lng":121.47342,"wgs84Lat":31.272899,"__source_file__":"13-常用公服设施点/CSV/上海市_汽车销售.csv"},"geometry":{"type":"Point","coordinates":[121.47342,31.272899]}},{"id":"3565","type":"Feature","properties":{"id":"B0IR6HPNKU","name":"福特电马(上海凯德虹口城市店)","address":"西江湾路388号(虹口龙之梦商场)B座a24-30-31","type":"汽车销售;汽车销售;汽车销售","typecode":"020000","pcode":310000,"pname":"上海市","citycode":21,"cityname":"上海市","adcode":310109,"adname":"虹口区","business_area":"和田","location":"121.477200,31.271051","tel":"021-36178598","bigType":"汽车销售","midType":"汽车销售","smallType":"汽车销售","gcj_lng":121.4772,"gcj_lat":31.271051,"wgs84_loc":"121.472685,31.272985","wgs84Lng":121.472685,"wgs84Lat":31.272985,"__source_file__":"13-常用公服设施点/CSV/上海市_汽车销售.csv"},"geometry":{"type":"Point","coordinates":[121.472685,31.272985]}},{"id":"4078","type":"Feature","properties":{"id":"B0FFIPQXHH","name":"小米汽车(虹口凯德龙之梦店)","address":"西江湾路388号凯德龙之梦B座1层","type":"汽车销售;汽车销售;汽车销售","typecode":"020000","pcode":310000,"pname":"上海市","citycode":21,"cityname":"上海市","adcode":310109,"adname":"虹口区","business_area":"江湾","location":"121.477375,31.271241","tel":"17621861052","bigType":"汽车销售","midType":"汽车销售","smallType":"汽车销售","gcj_lng":121.477375,"gcj_lat":31.271241,"wgs84_loc":"121.472861,31.273175","wgs84Lng":121.472861,"wgs84Lat":31.273175,"__source_file__":"13-常用公服设施点/CSV/上海市_汽车销售.csv"},"geometry":{"type":"Point","coordinates":[121.472861,31.273175]}},{"id":"451","type":"Feature","properties":{"id":"B0HBKDNZTS","name":"比亚迪(虹口龙之梦店)","address":"凯德龙之梦b幢一楼22-23","type":"汽车销售;汽车销售;汽车销售|汽车维修;汽车维修;汽车维修","typecode":"020000|030000","pcode":310000,"pname":"上海市","citycode":21,"cityname":"上海市","adcode":310109,"adname":"虹口区","business_area":"江湾","location":"121.477544,31.271252","tel":"[]","bigType":"汽车销售","midType":"汽车销售","smallType":"汽车销售|汽车维修","gcj_lng":121.477544,"gcj_lat":31.271252,"wgs84_loc":"121.47303,31.273187","wgs84Lng":121.47303,"wgs84Lat":31.273187,"__source_file__":"13-常用公服设施点/CSV/上海市_汽车销售.csv"},"geometry":{"type":"Point","coordinates":[121.47303,31.273187]}},{"id":"3563","type":"Feature","properties":{"id":"B0I14S7928","name":"比亚迪汽车王朝网(虹口龙之梦商超店)","address":"西江湾路388号凯德龙之梦购物中心1楼","type":"汽车销售;汽车销售;汽车销售","typecode":"020000","pcode":310000,"pname":"上海市","citycode":21,"cityname":"上海市","adcode":310109,"adname":"虹口区","business_area":"江湾","location":"121.477017,31.271302","tel":"18930053386","bigType":"汽车销售","midType":"汽车销售","smallType":"汽车销售","gcj_lng":121.477017,"gcj_lat":31.271302,"wgs84_loc":"121.472501,31.273235","wgs84Lng":121.472501,"wgs84Lat":31.273235,"__source_file__":"13-常用公服设施点/CSV/上海市_汽车销售.csv"},"geometry":{"type":"Point","coordinates":[121.472501,31.273235]}},{"id":"1599","type":"Feature","properties":{"id":"B0IBYSJWGD","name":"小鹏汽车上海凯德龙之梦体验中心","address":"西江湾路388号凯德龙之梦B栋1楼02-04室","type":"汽车销售;汽车销售;汽车销售","typecode":"020000","pcode":310000,"pname":"上海市","citycode":21,"cityname":"上海市","adcode":310109,"adname":"虹口区","business_area":"江湾","location":"121.477467,31.271435","tel":"021-56982957","bigType":"汽车销售","midType":"汽车销售","smallType":"汽车销售","gcj_lng":121.477467,"gcj_lat":31.271435,"wgs84_loc":"121.472953,31.273369","wgs84Lng":121.472953,"wgs84Lat":31.273369,"__source_file__":"13-常用公服设施点/CSV/上海市_汽车销售.csv"},"geometry":{"type":"Point","coordinates":[121.472953,31.273369]}},{"id":"3569","type":"Feature","properties":{"id":"B0J6ZKB0IF","name":"虹口区上汽·花园坊","address":"花园路与景祥路交叉口东北40米","type":"汽车销售;汽车销售;汽车销售","typecode":"020000","pcode":310000,"pname":"上海市","citycode":21,"cityname":"上海市","adcode":310109,"adname":"虹口区","business_area":"和田","location":"121.474563,31.272615","tel":"[]","bigType":"汽车销售","midType":"汽车销售","smallType":"汽车销售","gcj_lng":121.474563,"gcj_lat":31.272615,"wgs84_loc":"121.470039,31.274541","wgs84Lng":121.470039,"wgs84Lat":31.274541,"__source_file__":"13-常用公服设施点/CSV/上海市_汽车销售.csv"},"geometry":{"type":"Point","coordinates":[121.470039,31.274541]}},{"id":"121","type":"Feature","properties":{"id":"B0FFJB3BSE","name":"上海商泰汽车","address":"淮海中路755号新华联大厦东楼11楼","type":"汽车销售;汽车销售;汽车销售","typecode":"020000","pcode":310000,"pname":"上海市","citycode":21,"cityname":"上海市","adcode":310101,"adname":"黄浦区","business_area":"淮海路","location":"121.464381,31.218714","tel":"[]","bigType":"汽车销售","midType":"汽车销售","smallType":"汽车销售","gcj_lng":121.464381,"gcj_lat":31.218714,"wgs84_loc":"121.45983,31.220637","wgs84Lng":121.45983,"wgs84Lat":31.220637,"__source_file__":"13-常用公服设施点/CSV/上海市_汽车销售.csv"},"geometry":{"type":"Point","coordinates":[121.45983,31.220637]}},{"id":"3774","type":"Feature","properties":{"id":"B0JK7CJW13","name":"TX淮海体验空间","address":"淮海中路与成都南路交叉口东北20米","type":"汽车销售;汽车销售;汽车销售","typecode":"020000","pcode":310000,"pname":"上海市","citycode":21,"cityname":"上海市","adcode":310101,"adname":"黄浦区","business_area":"淮海路","location":"121.468294,31.220741","tel":"[]","bigType":"汽车销售","midType":"汽车销售","smallType":"汽车销售","gcj_lng":121.468294,"gcj_lat":31.220741,"wgs84_loc":"121.463755,31.222673","wgs84Lng":121.463755,"wgs84Lat":31.222673,"__source_file__":"13-常用公服设施点/CSV/上海市_汽车销售.csv"},"geometry":{"type":"Point","coordinates":[121.463755,31.222673]}},{"id":"131","type":"Feature","properties":{"id":"B0H1OOXZGS","name":"桃子汽车","address":"长乐路庆福里","type":"汽车销售;汽车销售;汽车销售","typecode":"020000","pcode":310000,"pname":"上海市","citycode":21,"cityname":"上海市","adcode":310101,"adname":"黄浦区","business_area":"淮海路","location":"121.465730,31.221654","tel":"[]","bigType":"汽车销售","midType":"汽车销售","smallType":"汽车销售","gcj_lng":121.46573,"gcj_lat":31.221654,"wgs84_loc":"121.461183,31.223579","wgs84Lng":121.461183,"wgs84Lat":31.223579,"__source_file__":"13-常用公服设施点/CSV/上海市_汽车销售.csv"},"geometry":{"type":"Point","coordinates":[121.461183,31.223579]}},{"id":"3958","type":"Feature","properties":{"id":"B0KB2AQLGT","name":"华域汽车","address":"威海路489号(南京西路地铁站8号口步行350米)","type":"汽车销售;汽车销售;汽车销售","typecode":"020000","pcode":310000,"pname":"上海市","citycode":21,"cityname":"上海市","adcode":310106,"adname":"静安区","business_area":"淮海路","location":"121.462735,31.225905","tel":"021-60595977","bigType":"汽车销售","midType":"汽车销售","smallType":"汽车销售","gcj_lng":121.462735,"gcj_lat":31.225905,"wgs84_loc":"121.458178,31.227821","wgs84Lng":121.458178,"wgs84Lat":31.227821,"__source_file__":"13-常用公服设施点/CSV/上海市_汽车销售.csv"},"geometry":{"type":"Point","coordinates":[121.458178,31.227821]}},{"id":"338","type":"Feature","properties":{"id":"B0I6HMX5DO","name":"上汽奥迪进取汇","address":"威海路459号","type":"汽车销售;汽车销售;汽车销售","typecode":"020000","pcode":310000,"pname":"上海市","citycode":21,"cityname":"上海市","adcode":310106,"adname":"静安区","business_area":"淮海路","location":"121.462691,31.226629","tel":"[]","bigType":"汽车销售","midType":"汽车销售","smallType":"汽车销售","gcj_lng":121.462691,"gcj_lat":31.226629,"wgs84_loc":"121.458134,31.228544","wgs84Lng":121.458134,"wgs84Lat":31.228544,"__source_file__":"13-常用公服设施点/CSV/上海市_汽车销售.csv"},"geometry":{"type":"Point","coordinates":[121.458134,31.228544]}},{"id":"3955","type":"Feature","properties":{"id":"B0K1G7R7OS","name":"道朗格品牌中心(上海旗舰店)","address":"威海路500号丰盛商业中心","type":"汽车销售;汽车销售;汽车销售","typecode":"020000","pcode":310000,"pname":"上海市","citycode":21,"cityname":"上海市","adcode":310106,"adname":"静安区","business_area":"淮海路","location":"121.462437,31.227157","tel":"18602184131","bigType":"汽车销售","midType":"汽车销售","smallType":"汽车销售","gcj_lng":121.462437,"gcj_lat":31.227157,"wgs84_loc":"121.457879,31.229072","wgs84Lng":121.457879,"wgs84Lat":31.229072,"__source_file__":"13-常用公服设施点/CSV/上海市_汽车销售.csv"},"geometry":{"type":"Point","coordinates":[121.457879,31.229072]}},{"id":"1454","type":"Feature","properties":{"id":"B0FFIPJP8L","name":"蔚来中心(上海兴业太古汇)","address":"石门一路180号兴业太古汇S101","type":"汽车销售;汽车销售;汽车销售","typecode":"020000","pcode":310000,"pname":"上海市","citycode":21,"cityname":"上海市","adcode":310106,"adname":"静安区","business_area":"淮海路","location":"121.463146,31.227510","tel":"4009996699","bigType":"汽车销售","midType":"汽车销售","smallType":"汽车销售","gcj_lng":121.463146,"gcj_lat":31.22751,"wgs84_loc":"121.45859,31.229426","wgs84Lng":121.45859,"wgs84Lat":31.229426,"__source_file__":"13-常用公服设施点/CSV/上海市_汽车销售.csv"},"geometry":{"type":"Point","coordinates":[121.45859,31.229426]}},{"id":"348","type":"Feature","properties":{"id":"B0FFJFU29L","name":"NIOHouse(兴业太古汇)","address":"石门一路180号兴业太古汇S101","type":"汽车销售;汽车销售;汽车销售","typecode":"020000","pcode":310000,"pname":"上海市","citycode":21,"cityname":"上海市","adcode":310106,"adname":"静安区","business_area":"淮海路","location":"121.463111,31.227554","tel":"[]","bigType":"汽车销售","midType":"汽车销售","smallType":"汽车销售","gcj_lng":121.463111,"gcj_lat":31.227554,"wgs84_loc":"121.458555,31.22947","wgs84Lng":121.458555,"wgs84Lat":31.22947,"__source_file__":"13-常用公服设施点/CSV/上海市_汽车销售.csv"},"geometry":{"type":"Point","coordinates":[121.458555,31.22947]}},{"id":"343","type":"Feature","properties":{"id":"B0HKVH548M","name":"捷尼赛思汽车销售(上海)有限公司","address":"石门一路288号一座24层2401-2406单元","type":"汽车销售;汽车销售;汽车销售","typecode":"020000","pcode":310000,"pname":"上海市","citycode":21,"cityname":"上海市","adcode":310106,"adname":"静安区","business_area":"淮海路","location":"121.463535,31.228064","tel":"021-60772895","bigType":"汽车销售","midType":"汽车销售","smallType":"汽车销售","gcj_lng":121.463535,"gcj_lat":31.228064,"wgs84_loc":"121.45898,31.229981","wgs84Lng":121.45898,"wgs84Lat":31.229981,"__source_file__":"13-常用公服设施点/CSV/上海市_汽车销售.csv"},"geometry":{"type":"Point","coordinates":[121.45898,31.229981]}},{"id":"344","type":"Feature","properties":{"id":"B0HKLCT9N5","name":"智己汽车体验中心(中信泰富广场)","address":"江宁路与奉贤路交叉口南约60米","type":"汽车销售;汽车销售;汽车销售","typecode":"020000","pcode":310000,"pname":"上海市","citycode":21,"cityname":"上海市","adcode":310106,"adname":"静安区","business_area":"淮海路","location":"121.455681,31.228621","tel":"021-60193039","bigType":"汽车销售","midType":"汽车销售","smallType":"汽车销售","gcj_lng":121.455681,"gcj_lat":31.228621,"wgs84_loc":"121.451104,31.230519","wgs84Lng":121.451104,"wgs84Lat":31.230519,"__source_file__":"13-常用公服设施点/CSV/上海市_汽车销售.csv"},"geometry":{"type":"Point","coordinates":[121.451104,31.230519]}},{"id":"3957","type":"Feature","properties":{"id":"B0KU7LH5BM","name":"极星(静安嘉里中心店)","address":"南京西路1515号静安嘉里中心南区L1层S1-01A","type":"汽车销售;汽车销售;汽车销售","typecode":"020000","pcode":310000,"pname":"上海市","citycode":21,"cityname":"上海市","adcode":310106,"adname":"静安区","business_area":"湖南路","location":"121.449206,31.223053","tel":"[]","bigType":"汽车销售","midType":"汽车销售","smallType":"汽车销售","gcj_lng":121.449206,"gcj_lat":31.223053,"wgs84_loc":"121.444613,31.22494","wgs84Lng":121.444613,"wgs84Lat":31.22494,"__source_file__":"13-常用公服设施点/CSV/上海市_汽车销售.csv"},"geometry":{"type":"Point","coordinates":[121.444613,31.22494]}},{"id":"357","type":"Feature","properties":{"id":"B0HBR64JQZ","name":"Polestar极星(静安嘉里中心南区)","address":"南京西路1515号静安嘉里中心南区L1层S1-01A","type":"汽车销售;汽车销售;汽车销售","typecode":"020000","pcode":310000,"pname":"上海市","citycode":21,"cityname":"上海市","adcode":310106,"adname":"静安区","business_area":"淮海路","location":"121.449139,31.223099","tel":"[]","bigType":"汽车销售","midType":"汽车销售","smallType":"汽车销售","gcj_lng":121.449139,"gcj_lat":31.223099,"wgs84_loc":"121.444546,31.224986","wgs84Lng":121.444546,"wgs84Lat":31.224986,"__source_file__":"13-常用公服设施点/CSV/上海市_汽车销售.csv"},"geometry":{"type":"Point","coordinates":[121.444546,31.224986]}},{"id":"353","type":"Feature","properties":{"id":"B0GUMU66P4","name":"Polestar上海静安嘉里中心","address":"延安中路1515号上海静安嘉里中心南区商场1层","type":"汽车销售;汽车销售;汽车销售","typecode":"020000","pcode":310000,"pname":"上海市","citycode":21,"cityname":"上海市","adcode":310106,"adname":"静安区","business_area":"湖南路","location":"121.448988,31.223139","tel":"4006171017;15965551761","bigType":"汽车销售","midType":"汽车销售","smallType":"汽车销售","gcj_lng":121.448988,"gcj_lat":31.223139,"wgs84_loc":"121.444395,31.225025","wgs84Lng":121.444395,"wgs84Lat":31.225025,"__source_file__":"13-常用公服设施点/CSV/上海市_汽车销售.csv"},"geometry":{"type":"Point","coordinates":[121.444395,31.225025]}},{"id":"346","type":"Feature","properties":{"id":"B0H0J7X3AO","name":"LING HOUSE·Shanghai","address":"铜仁路","type":"汽车销售;汽车销售;汽车销售","typecode":"020000","pcode":310000,"pname":"上海市","citycode":21,"cityname":"上海市","adcode":310106,"adname":"静安区","business_area":"淮海路","location":"121.450916,31.224310","tel":"[]","bigType":"汽车销售","midType":"汽车销售","smallType":"汽车销售","gcj_lng":121.450916,"gcj_lat":31.22431,"wgs84_loc":"121.446327,31.2262","wgs84Lng":121.446327,"wgs84Lat":31.2262,"__source_file__":"13-常用公服设施点/CSV/上海市_汽车销售.csv"},"geometry":{"type":"Point","coordinates":[121.446327,31.2262]}},{"id":"352","type":"Feature","properties":{"id":"B0H0XA3B2I","name":"五菱品牌中心上海店","address":"铜仁路96号","type":"汽车销售;汽车销售;汽车销售","typecode":"020000","pcode":310000,"pname":"上海市","citycode":21,"cityname":"上海市","adcode":310106,"adname":"静安区","business_area":"淮海路","location":"121.450864,31.224336","tel":"[]","bigType":"汽车销售","midType":"汽车销售","smallType":"汽车销售","gcj_lng":121.450864,"gcj_lat":31.224336,"wgs84_loc":"121.446275,31.226226","wgs84Lng":121.446275,"wgs84Lat":31.226226,"__source_file__":"13-常用公服设施点/CSV/上海市_汽车销售.csv"},"geometry":{"type":"Point","coordinates":[121.446275,31.226226]}},{"id":"355","type":"Feature","properties":{"id":"B0FFH015Y5","name":"北极星动力车辆贸易(上海)有限公司","address":"南京西路1515号静安嘉里中心一座908室","type":"汽车销售;汽车销售;汽车销售|汽车维修;汽车维修;汽车维修","typecode":"020000|030000","pcode":310000,"pname":"上海市","citycode":21,"cityname":"上海市","adcode":310106,"adname":"静安区","business_area":"淮海路","location":"121.450197,31.224541","tel":"[]","bigType":"汽车销售","midType":"汽车销售","smallType":"汽车销售|汽车维修","gcj_lng":121.450197,"gcj_lat":31.224541,"wgs84_loc":"121.445607,31.226429","wgs84Lng":121.445607,"wgs84Lat":31.226429,"__source_file__":"13-常用公服设施点/CSV/上海市_汽车销售.csv"},"geometry":{"type":"Point","coordinates":[121.445607,31.226429]}},{"id":"2888","type":"Feature","properties":{"id":"B0GK97PAHE","name":"NOVAT","address":"愚园路与常德路交叉路口西侧","type":"汽车销售;汽车销售;汽车销售","typecode":"020000","pcode":310000,"pname":"上海市","citycode":21,"cityname":"上海市","adcode":310106,"adname":"静安区","business_area":"曹家渡","location":"121.447165,31.225334","tel":"[]","bigType":"汽车销售","midType":"汽车销售","smallType":"汽车销售","gcj_lng":121.447165,"gcj_lat":31.225334,"wgs84_loc":"121.442567,31.227216","wgs84Lng":121.442567,"wgs84Lat":31.227216,"__source_file__":"13-常用公服设施点/CSV/上海市_汽车销售.csv"},"geometry":{"type":"Point","coordinates":[121.442567,31.227216]}},{"id":"350","type":"Feature","properties":{"id":"B0H0NDWL3J","name":"上海骏誉玛莎拉蒂","address":"愚园路68号晶品一楼(近常德路路口)","type":"汽车销售;汽车销售;汽车销售","typecode":"020000","pcode":310000,"pname":"上海市","citycode":21,"cityname":"上海市","adcode":310106,"adname":"静安区","business_area":"曹家渡","location":"121.447147,31.225456","tel":"021-63023188","bigType":"汽车销售","midType":"汽车销售","smallType":"汽车销售","gcj_lng":121.447147,"gcj_lat":31.225456,"wgs84_loc":"121.442549,31.227338","wgs84Lng":121.442549,"wgs84Lat":31.227338,"__source_file__":"13-常用公服设施点/CSV/上海市_汽车销售.csv"},"geometry":{"type":"Point","coordinates":[121.442549,31.227338]}},{"id":"3279","type":"Feature","properties":{"id":"B0IGXYKU3I","name":"Maserati","address":"愚园路与常德路交叉口西120米","type":"汽车销售;汽车销售;汽车销售","typecode":"020000","pcode":310000,"pname":"上海市","citycode":21,"cityname":"上海市","adcode":310106,"adname":"静安区","business_area":"曹家渡","location":"121.446351,31.225605","tel":"[]","bigType":"汽车销售","midType":"汽车销售","smallType":"汽车销售","gcj_lng":121.446351,"gcj_lat":31.225605,"wgs84_loc":"121.441751,31.227485","wgs84Lng":121.441751,"wgs84Lat":31.227485,"__source_file__":"13-常用公服设施点/CSV/上海市_汽车销售.csv"},"geometry":{"type":"Point","coordinates":[121.441751,31.227485]}},{"id":"3959","type":"Feature","properties":{"id":"B0K3ZMJBBO","name":"华为AITO汽车","address":"愚园路68号CP静安(静安寺地铁站10号口步行250米)","type":"汽车销售;汽车销售;汽车销售","typecode":"020000","pcode":310000,"pname":"上海市","citycode":21,"cityname":"上海市","adcode":310106,"adname":"静安区","business_area":"静安寺","location":"121.446921,31.225728","tel":"[]","bigType":"汽车销售","midType":"汽车销售","smallType":"汽车销售","gcj_lng":121.446921,"gcj_lat":31.225728,"wgs84_loc":"121.442323,31.227609","wgs84Lng":121.442323,"wgs84Lat":31.227609,"__source_file__":"13-常用公服设施点/CSV/上海市_汽车销售.csv"},"geometry":{"type":"Point","coordinates":[121.442323,31.227609]}},{"id":"3127","type":"Feature","properties":{"id":"B0G2U43GRA","name":"拓速乐汽车销售服务上海有限公司(静安分公司)","address":"石门一路288号兴业太古汇L109单元","type":"汽车销售;汽车销售;汽车销售","typecode":"020000","pcode":310000,"pname":"上海市","citycode":21,"cityname":"上海市","adcode":310106,"adname":"静安区","business_area":"淮海路","location":"121.462781,31.228949","tel":"021-80234090","bigType":"汽车销售","midType":"汽车销售","smallType":"汽车销售","gcj_lng":121.462781,"gcj_lat":31.228949,"wgs84_loc":"121.458224,31.230864","wgs84Lng":121.458224,"wgs84Lat":31.230864,"__source_file__":"13-常用公服设施点/CSV/上海市_汽车销售.csv"},"geometry":{"type":"Point","coordinates":[121.458224,31.230864]}},{"id":"2113","type":"Feature","properties":{"id":"B0FFI0NVYV","name":"上海太古汇特斯拉体验店","address":"南京西路789号兴业太古汇L1层L109","type":"汽车销售;汽车销售;汽车销售","typecode":"020000","pcode":310000,"pname":"上海市","citycode":21,"cityname":"上海市","adcode":310106,"adname":"静安区","business_area":"淮海路","location":"121.462688,31.229041","tel":"021-80234092","bigType":"汽车销售","midType":"汽车销售","smallType":"汽车销售","gcj_lng":121.462688,"gcj_lat":31.229041,"wgs84_loc":"121.458131,31.230955","wgs84Lng":121.458131,"wgs84Lat":31.230955,"__source_file__":"13-常用公服设施点/CSV/上海市_汽车销售.csv"},"geometry":{"type":"Point","coordinates":[121.458131,31.230955]}},{"id":"124","type":"Feature","properties":{"id":"B0FFLBJJ9A","name":"Jim&Bill名车展示厅","address":"南京西路389号B2层","type":"汽车销售;汽车销售;汽车销售","typecode":"020000","pcode":310000,"pname":"上海市","citycode":21,"cityname":"上海市","adcode":310101,"adname":"黄浦区","business_area":"北京东路","location":"121.469554,31.230271","tel":"[]","bigType":"汽车销售","midType":"汽车销售","smallType":"汽车销售","gcj_lng":121.469554,"gcj_lat":31.230271,"wgs84_loc":"121.465018,31.232202","wgs84Lng":121.465018,"wgs84Lat":31.232202,"__source_file__":"13-常用公服设施点/CSV/上海市_汽车销售.csv"},"geometry":{"type":"Point","coordinates":[121.465018,31.232202]}},{"id":"341","type":"Feature","properties":{"id":"B0FFMFL57R","name":"赛力斯SERES","address":"吴江路31号东方有线大厦一楼","type":"汽车销售;汽车销售;汽车销售|汽车维修;汽车维修;汽车维修","typecode":"020000|030000","pcode":310000,"pname":"上海市","citycode":21,"cityname":"上海市","adcode":310106,"adname":"静安区","business_area":"淮海路","location":"121.463256,31.230465","tel":"021-61406575","bigType":"汽车销售","midType":"汽车销售","smallType":"汽车销售|汽车维修","gcj_lng":121.463256,"gcj_lat":31.230465,"wgs84_loc":"121.4587,31.23238","wgs84Lng":121.4587,"wgs84Lat":31.23238,"__source_file__":"13-常用公服设施点/CSV/上海市_汽车销售.csv"},"geometry":{"type":"Point","coordinates":[121.4587,31.23238]}},{"id":"3531","type":"Feature","properties":{"id":"B0I2YCVNZN","name":"阿维塔体验中心(上海南京西路店)","address":"南京西路699号102-103室","type":"汽车销售;汽车销售;汽车销售","typecode":"020000","pcode":310000,"pname":"上海市","citycode":21,"cityname":"上海市","adcode":310106,"adname":"静安区","business_area":"淮海路","location":"121.463120,31.230476","tel":"[]","bigType":"汽车销售","midType":"汽车销售","smallType":"汽车销售","gcj_lng":121.46312,"gcj_lat":31.230476,"wgs84_loc":"121.458564,31.232391","wgs84Lng":121.458564,"wgs84Lat":31.232391,"__source_file__":"13-常用公服设施点/CSV/上海市_汽车销售.csv"},"geometry":{"type":"Point","coordinates":[121.458564,31.232391]}},{"id":"3953","type":"Feature","properties":{"id":"B0KRA52JMH","name":"上海红旗金葵花旗舰尊享中心(818广场店)","address":"南京西路818号818广场1层南门右侧(南京西路地铁站2号口步行90米)","type":"汽车销售;汽车销售;汽车销售","typecode":"020000","pcode":310000,"pname":"上海市","citycode":21,"cityname":"上海市","adcode":310106,"adname":"静安区","business_area":"淮海路","location":"121.461162,31.230938","tel":"13512120207","bigType":"汽车销售","midType":"汽车销售","smallType":"汽车销售","gcj_lng":121.461162,"gcj_lat":31.230938,"wgs84_loc":"121.4566,31.232848","wgs84Lng":121.4566,"wgs84Lat":31.232848,"__source_file__":"13-常用公服设施点/CSV/上海市_汽车销售.csv"},"geometry":{"type":"Point","coordinates":[121.4566,31.232848]}},{"id":"3532","type":"Feature","properties":{"id":"B0IR5C034F","name":"恒驰展示体验中心","address":"南京西路818商场","type":"汽车销售;汽车销售;汽车销售","typecode":"020000","pcode":310000,"pname":"上海市","citycode":21,"cityname":"上海市","adcode":310106,"adname":"静安区","business_area":"淮海路","location":"121.461110,31.231003","tel":"18629320457","bigType":"汽车销售","midType":"汽车销售","smallType":"汽车销售","gcj_lng":121.46111,"gcj_lat":31.231003,"wgs84_loc":"121.456548,31.232913","wgs84Lng":121.456548,"wgs84Lat":31.232913,"__source_file__":"13-常用公服设施点/CSV/上海市_汽车销售.csv"},"geometry":{"type":"Point","coordinates":[121.456548,31.232913]}},{"id":"413","type":"Feature","properties":{"id":"B0G35HW2DE","name":"小鹏汽车上海南京西路旗舰店","address":"南京西路762号汇银大厦1层C单元","type":"汽车销售;汽车销售;汽车销售|汽车维修;汽车维修;汽车维修","typecode":"020000|030000","pcode":310000,"pname":"上海市","citycode":21,"cityname":"上海市","adcode":310106,"adname":"静安区","business_area":"淮海路","location":"121.462891,31.231085","tel":"021-60387738","bigType":"汽车销售","midType":"汽车销售","smallType":"汽车销售|汽车维修","gcj_lng":121.462891,"gcj_lat":31.231085,"wgs84_loc":"121.458334,31.232999","wgs84Lng":121.458334,"wgs84Lat":31.232999,"__source_file__":"13-常用公服设施点/CSV/上海市_汽车销售.csv"},"geometry":{"type":"Point","coordinates":[121.458334,31.232999]}},{"id":"2923","type":"Feature","properties":{"id":"B0FFLGDSD0","name":"拜腾空间","address":"南京西路与石门二路交叉口东80米","type":"汽车销售;汽车销售;汽车销售","typecode":"020000","pcode":310000,"pname":"上海市","citycode":21,"cityname":"上海市","adcode":310106,"adname":"静安区","business_area":"淮海路","location":"121.462885,31.231109","tel":"[]","bigType":"汽车销售","midType":"汽车销售","smallType":"汽车销售","gcj_lng":121.462885,"gcj_lat":31.231109,"wgs84_loc":"121.458328,31.233023","wgs84Lng":121.458328,"wgs84Lat":31.233023,"__source_file__":"13-常用公服设施点/CSV/上海市_汽车销售.csv"},"geometry":{"type":"Point","coordinates":[121.458328,31.233023]}},{"id":"342","type":"Feature","properties":{"id":"B0H0K1SSY4","name":"摩登汽车","address":"南京西路与步行街交叉口东约100米","type":"汽车销售;汽车销售;汽车销售","typecode":"020000","pcode":310000,"pname":"上海市","citycode":21,"cityname":"上海市","adcode":310106,"adname":"静安区","business_area":"淮海路","location":"121.465469,31.231132","tel":"[]","bigType":"汽车销售","midType":"汽车销售","smallType":"汽车销售","gcj_lng":121.465469,"gcj_lat":31.231132,"wgs84_loc":"121.46092,31.233052","wgs84Lng":121.46092,"wgs84Lat":31.233052,"__source_file__":"13-常用公服设施点/CSV/上海市_汽车销售.csv"},"geometry":{"type":"Point","coordinates":[121.46092,31.233052]}},{"id":"3535","type":"Feature","properties":{"id":"B0J6COKKCI","name":"COYAH(晶品)","address":"愚园路68号晶品L1层L1-03","type":"汽车销售;汽车销售;汽车销售","typecode":"020000","pcode":310000,"pname":"上海市","citycode":21,"cityname":"上海市","adcode":310106,"adname":"静安区","business_area":"曹家渡","location":"121.446910,31.225965","tel":"[]","bigType":"汽车销售","midType":"汽车销售","smallType":"汽车销售","gcj_lng":121.44691,"gcj_lat":31.225965,"wgs84_loc":"121.442312,31.227846","wgs84Lng":121.442312,"wgs84Lat":31.227846,"__source_file__":"13-常用公服设施点/CSV/上海市_汽车销售.csv"},"geometry":{"type":"Point","coordinates":[121.442312,31.227846]}},{"id":"3233","type":"Feature","properties":{"id":"B00155KJK7","name":"上海世贸汽车贸易有限公司","address":"北京西路1465号国立大厦1层、1204-1207室","type":"汽车销售;汽车销售;汽车销售","typecode":"020000","pcode":310000,"pname":"上海市","citycode":21,"cityname":"上海市","adcode":310106,"adname":"静安区","business_area":"曹家渡","location":"121.447895,31.227349","tel":"[]","bigType":"汽车销售","midType":"汽车销售","smallType":"汽车销售","gcj_lng":121.447895,"gcj_lat":31.227349,"wgs84_loc":"121.443299,31.229231","wgs84Lng":121.443299,"wgs84Lat":31.229231,"__source_file__":"13-常用公服设施点/CSV/上海市_汽车销售.csv"},"geometry":{"type":"Point","coordinates":[121.443299,31.229231]}},{"id":"340","type":"Feature","properties":{"id":"B0FFHN0XQY","name":"上海名流汽车销售服务有限公司","address":"康定路1171号","type":"汽车销售;汽车销售;汽车销售|汽车维修;通用特约维修;别克维修","typecode":"020000|030502","pcode":310000,"pname":"上海市","citycode":21,"cityname":"上海市","adcode":310106,"adname":"静安区","business_area":"曹家渡","location":"121.434502,31.230176","tel":"021-62302733;021-62303030","bigType":"汽车销售","midType":"汽车销售","smallType":"汽车销售|汽车维修","gcj_lng":121.434502,"gcj_lat":31.230176,"wgs84_loc":"121.429878,31.232034","wgs84Lng":121.429878,"wgs84Lat":31.232034,"__source_file__":"13-常用公服设施点/CSV/上海市_汽车销售.csv"},"geometry":{"type":"Point","coordinates":[121.429878,31.232034]}},{"id":"358","type":"Feature","properties":{"id":"B0FFHEM7UG","name":"上海名流别克(康定店)","address":"康定路1171号","type":"汽车销售;汽车销售;汽车销售|购物服务;购物相关场所;购物相关场所|汽车维修;汽车维修;汽车维修","typecode":"020000|060000|030000","pcode":310000,"pname":"上海市","citycode":21,"cityname":"上海市","adcode":310106,"adname":"静安区","business_area":"曹家渡","location":"121.434169,31.230473","tel":"[]","bigType":"汽车销售","midType":"汽车销售","smallType":"汽车销售|购物服务","gcj_lng":121.434169,"gcj_lat":31.230473,"wgs84_loc":"121.429545,31.232331","wgs84Lng":121.429545,"wgs84Lat":31.232331,"__source_file__":"13-常用公服设施点/CSV/上海市_汽车销售.csv"},"geometry":{"type":"Point","coordinates":[121.429545,31.232331]}},{"id":"291","type":"Feature","properties":{"id":"B0FFLGFYDV","name":"上海安吉名门汽车服务有限公司","address":"武宁南路222号","type":"汽车销售;汽车销售;汽车销售|汽车维修;通用特约维修;雪佛兰维修","typecode":"020000|030503","pcode":310000,"pname":"上海市","citycode":21,"cityname":"上海市","adcode":310106,"adname":"静安区","business_area":"曹家渡","location":"121.434163,31.230493","tel":"021-52835505;021-52839299","bigType":"汽车销售","midType":"汽车销售","smallType":"汽车销售|汽车维修","gcj_lng":121.434163,"gcj_lat":31.230493,"wgs84_loc":"121.429539,31.232351","wgs84Lng":121.429539,"wgs84Lat":31.232351,"__source_file__":"13-常用公服设施点/CSV/上海市_汽车销售.csv"},"geometry":{"type":"Point","coordinates":[121.429539,31.232351]}},{"id":"360","type":"Feature","properties":{"id":"B0HRA5KBRN","name":"雪佛兰(康定路店)","address":"康定路1155号","type":"汽车销售;汽车销售;汽车销售","typecode":"020000","pcode":310000,"pname":"上海市","citycode":21,"cityname":"上海市","adcode":310106,"adname":"静安区","business_area":"曹家渡","location":"121.434414,31.230633","tel":"021-52835505","bigType":"汽车销售","midType":"汽车销售","smallType":"汽车销售","gcj_lng":121.434414,"gcj_lat":31.230633,"wgs84_loc":"121.42979,31.232491","wgs84Lng":121.42979,"wgs84Lat":31.232491,"__source_file__":"13-常用公服设施点/CSV/上海市_汽车销售.csv"},"geometry":{"type":"Point","coordinates":[121.42979,31.232491]}},{"id":"2844","type":"Feature","properties":{"id":"B00156NU6G","name":"上海上汽安吉汽车销售服务有限公司静安店","address":"武宁南路287号","type":"汽车销售;汽车销售;汽车销售","typecode":"020000","pcode":310000,"pname":"上海市","citycode":21,"cityname":"上海市","adcode":310106,"adname":"静安区","business_area":"曹家渡","location":"121.434598,31.230653","tel":"021-52560017","bigType":"汽车销售","midType":"汽车销售","smallType":"汽车销售","gcj_lng":121.434598,"gcj_lat":31.230653,"wgs84_loc":"121.429975,31.232511","wgs84Lng":121.429975,"wgs84Lat":31.232511,"__source_file__":"13-常用公服设施点/CSV/上海市_汽车销售.csv"},"geometry":{"type":"Point","coordinates":[121.429975,31.232511]}},{"id":"3932","type":"Feature","properties":{"id":"B0FFHOQFS6","name":"上汽通用","address":"武宁南路268-4号附近(武宁路地铁站5A口步行290米)","type":"汽车销售;汽车销售;汽车销售","typecode":"020000","pcode":310000,"pname":"上海市","citycode":21,"cityname":"上海市","adcode":310106,"adname":"静安区","business_area":"曹家渡","location":"121.434616,31.230766","tel":"[]","bigType":"汽车销售","midType":"汽车销售","smallType":"汽车销售","gcj_lng":121.434616,"gcj_lat":31.230766,"wgs84_loc":"121.429993,31.232624","wgs84Lng":121.429993,"wgs84Lat":31.232624,"__source_file__":"13-常用公服设施点/CSV/上海市_汽车销售.csv"},"geometry":{"type":"Point","coordinates":[121.429993,31.232624]}},{"id":"3130","type":"Feature","properties":{"id":"B0GKHZ01CK","name":"协通汽车","address":"新丰路上海市静安实验小学(安远路)南侧约80米","type":"汽车销售;汽车销售;汽车销售","typecode":"020000","pcode":310000,"pname":"上海市","citycode":21,"cityname":"上海市","adcode":310106,"adname":"静安区","business_area":"曹家渡","location":"121.445255,31.239467","tel":"[]","bigType":"汽车销售","midType":"汽车销售","smallType":"汽车销售","gcj_lng":121.445255,"gcj_lat":31.239467,"wgs84_loc":"121.440652,31.241339","wgs84Lng":121.440652,"wgs84Lat":31.241339,"__source_file__":"13-常用公服设施点/CSV/上海市_汽车销售.csv"},"geometry":{"type":"Point","coordinates":[121.440652,31.241339]}},{"id":"111","type":"Feature","properties":{"id":"B0G17SW66L","name":"上海尼英姆汽车销售服务有限公司","address":"南京西路388号裙房103室","type":"汽车销售;汽车销售;汽车销售","typecode":"020000","pcode":310000,"pname":"上海市","citycode":21,"cityname":"上海市","adcode":310101,"adname":"黄浦区","business_area":"北京东路","location":"121.469030,31.231188","tel":"[]","bigType":"汽车销售","midType":"汽车销售","smallType":"汽车销售","gcj_lng":121.46903,"gcj_lat":31.231188,"wgs84_loc":"121.464492,31.233117","wgs84Lng":121.464492,"wgs84Lat":31.233117,"__source_file__":"13-常用公服设施点/CSV/上海市_汽车销售.csv"},"geometry":{"type":"Point","coordinates":[121.464492,31.233117]}},{"id":"3952","type":"Feature","properties":{"id":"B0I0KU3FZX","name":"比亚迪汽车海洋网(盛世卓景太古汇店)","address":"南京西路694号1层IFA室","type":"汽车销售;汽车销售;汽车销售","typecode":"020000","pcode":310000,"pname":"上海市","citycode":21,"cityname":"上海市","adcode":310106,"adname":"静安区","business_area":"淮海路","location":"121.464264,31.231212","tel":"13564416454","bigType":"汽车销售","midType":"汽车销售","smallType":"汽车销售","gcj_lng":121.464264,"gcj_lat":31.231212,"wgs84_loc":"121.459711,31.233129","wgs84Lng":121.459711,"wgs84Lat":31.233129,"__source_file__":"13-常用公服设施点/CSV/上海市_汽车销售.csv"},"geometry":{"type":"Point","coordinates":[121.459711,31.233129]}},{"id":"3748","type":"Feature","properties":{"id":"B0K0H7KZR9","name":"宾利上海大昌行城市展厅","address":"江宁路268号嘉禾中心首层","type":"汽车销售;汽车销售;汽车销售","typecode":"020000","pcode":310000,"pname":"上海市","citycode":21,"cityname":"上海市","adcode":310106,"adname":"静安区","business_area":"淮海路","location":"121.454095,31.232590","tel":"[]","bigType":"汽车销售","midType":"汽车销售","smallType":"汽车销售","gcj_lng":121.454095,"gcj_lat":31.23259,"wgs84_loc":"121.449514,31.234483","wgs84Lng":121.449514,"wgs84Lat":31.234483,"__source_file__":"13-常用公服设施点/CSV/上海市_汽车销售.csv"},"geometry":{"type":"Point","coordinates":[121.449514,31.234483]}},{"id":"3951","type":"Feature","properties":{"id":"B0J3ZSV4F8","name":"上海利园","address":"新闸路668号Lee Gardens上海利園办公楼","type":"汽车销售;汽车销售;汽车销售","typecode":"020000","pcode":310000,"pname":"上海市","citycode":21,"cityname":"上海市","adcode":310106,"adname":"静安区","business_area":"[]","location":"121.461042,31.237188","tel":"[]","bigType":"汽车销售","midType":"汽车销售","smallType":"汽车销售","gcj_lng":121.461042,"gcj_lat":31.237188,"wgs84_loc":"121.456479,31.239095","wgs84Lng":121.456479,"wgs84Lat":31.239095,"__source_file__":"13-常用公服设施点/CSV/上海市_汽车销售.csv"},"geometry":{"type":"Point","coordinates":[121.456479,31.239095]}},{"id":"3533","type":"Feature","properties":{"id":"B0IUPUKL5A","name":"坦克汽车上海凯德星贸体验中心","address":"恒通路318号01层19号(汉中路地铁站5号口步行90米)","type":"汽车销售;汽车销售;汽车销售","typecode":"020000","pcode":310000,"pname":"上海市","citycode":21,"cityname":"上海市","adcode":310106,"adname":"静安区","business_area":"[]","location":"121.458143,31.241130","tel":"13816738171","bigType":"汽车销售","midType":"汽车销售","smallType":"汽车销售","gcj_lng":121.458143,"gcj_lat":31.24113,"wgs84_loc":"121.453572,31.243028","wgs84Lng":121.453572,"wgs84Lat":31.243028,"__source_file__":"13-常用公服设施点/CSV/上海市_汽车销售.csv"},"geometry":{"type":"Point","coordinates":[121.453572,31.243028]}},{"id":"3534","type":"Feature","properties":{"id":"B0I2GA5RQ8","name":"法拉利上海浦西展厅","address":"恒通东路69号首层","type":"汽车销售;汽车销售;汽车销售","typecode":"020000","pcode":310000,"pname":"上海市","citycode":21,"cityname":"上海市","adcode":310106,"adname":"静安区","business_area":"七浦路","location":"121.466898,31.241798","tel":"021-52868178","bigType":"汽车销售","midType":"汽车销售","smallType":"汽车销售","gcj_lng":121.466898,"gcj_lat":31.241798,"wgs84_loc":"121.462352,31.243717","wgs84Lng":121.462352,"wgs84Lat":31.243717,"__source_file__":"13-常用公服设施点/CSV/上海市_汽车销售.csv"},"geometry":{"type":"Point","coordinates":[121.462352,31.243717]}},{"id":"351","type":"Feature","properties":{"id":"B0H33SRZGL","name":"广汽埃安（上海静安国际中心店）","address":"裕通路89号L112","type":"汽车销售;汽车销售;汽车销售","typecode":"020000","pcode":310000,"pname":"上海市","citycode":21,"cityname":"上海市","adcode":310106,"adname":"静安区","business_area":"[]","location":"121.453740,31.243453","tel":"[]","bigType":"汽车销售","midType":"汽车销售","smallType":"汽车销售","gcj_lng":121.45374,"gcj_lat":31.243453,"wgs84_loc":"121.449157,31.24534","wgs84Lng":121.449157,"wgs84Lat":31.24534,"__source_file__":"13-常用公服设施点/CSV/上海市_汽车销售.csv"},"geometry":{"type":"Point","coordinates":[121.449157,31.24534]}},{"id":"356","type":"Feature","properties":{"id":"B0FFLGDXP3","name":"宝沃汽车(上海火车站城市展厅)","address":"天目西路111号","type":"汽车销售;汽车销售;汽车销售","typecode":"020000","pcode":310000,"pname":"上海市","citycode":21,"cityname":"上海市","adcode":310106,"adname":"静安区","business_area":"宝山路","location":"121.457754,31.246320","tel":"[]","bigType":"汽车销售","midType":"汽车销售","smallType":"汽车销售","gcj_lng":121.457754,"gcj_lat":31.24632,"wgs84_loc":"121.453181,31.248215","wgs84Lng":121.453181,"wgs84Lat":31.248215,"__source_file__":"13-常用公服设施点/CSV/上海市_汽车销售.csv"},"geometry":{"type":"Point","coordinates":[121.453181,31.248215]}},{"id":"359","type":"Feature","properties":{"id":"B0FFG14TZ8","name":"南京依维柯","address":"秣陵路305附近","type":"汽车销售;汽车销售;汽车销售","typecode":"020000","pcode":310000,"pname":"上海市","citycode":21,"cityname":"上海市","adcode":310106,"adname":"静安区","business_area":"[]","location":"121.454628,31.247985","tel":"[]","bigType":"汽车销售","midType":"汽车销售","smallType":"汽车销售","gcj_lng":121.454628,"gcj_lat":31.247985,"wgs84_loc":"121.450047,31.249872","wgs84Lng":121.450047,"wgs84Lat":31.249872,"__source_file__":"13-常用公服设施点/CSV/上海市_汽车销售.csv"},"geometry":{"type":"Point","coordinates":[121.450047,31.249872]}},{"id":"354","type":"Feature","properties":{"id":"B00156MZB1","name":"中智汽车贸易(共和新路店)","address":"共和新路435号(近永兴路)","type":"汽车销售;汽车销售;汽车销售","typecode":"020000","pcode":310000,"pname":"上海市","citycode":21,"cityname":"上海市","adcode":310106,"adname":"静安区","business_area":"宝山路","location":"121.464011,31.250437","tel":"021-66281313","bigType":"汽车销售","midType":"汽车销售","smallType":"汽车销售","gcj_lng":121.464011,"gcj_lat":31.250437,"wgs84_loc":"121.459456,31.252345","wgs84Lng":121.459456,"wgs84Lat":31.252345,"__source_file__":"13-常用公服设施点/CSV/上海市_汽车销售.csv"},"geometry":{"type":"Point","coordinates":[121.459456,31.252345]}},{"id":"3757","type":"Feature","properties":{"id":"B0JKXCQE6K","name":"长安大厦专卖店","address":"恒丰路568号恒汇国际大厦","type":"汽车销售;汽车销售;汽车销售","typecode":"020000","pcode":310000,"pname":"上海市","citycode":21,"cityname":"上海市","adcode":310106,"adname":"静安区","business_area":"[]","location":"121.451864,31.246004","tel":"[]","bigType":"汽车销售","midType":"汽车销售","smallType":"汽车销售","gcj_lng":121.451864,"gcj_lat":31.246004,"wgs84_loc":"121.447276,31.247886","wgs84Lng":121.447276,"wgs84Lat":31.247886,"__source_file__":"13-常用公服设施点/CSV/上海市_汽车销售.csv"},"geometry":{"type":"Point","coordinates":[121.447276,31.247886]}},{"id":"2907","type":"Feature","properties":{"id":"B0FFHWNB0I","name":"上海美日汽车租赁服务有限公司","address":"中山北路2185弄14-15号","type":"汽车销售;汽车销售;汽车销售","typecode":"020000","pcode":310000,"pname":"上海市","citycode":21,"cityname":"上海市","adcode":310107,"adname":"普陀区","business_area":"光新","location":"121.428129,31.247174","tel":"021-62458887","bigType":"汽车销售","midType":"汽车销售","smallType":"汽车销售","gcj_lng":121.428129,"gcj_lat":31.247174,"wgs84_loc":"121.423494,31.249016","wgs84Lng":121.423494,"wgs84Lat":31.249016,"__source_file__":"13-常用公服设施点/CSV/上海市_汽车销售.csv"},"geometry":{"type":"Point","coordinates":[121.423494,31.249016]}},{"id":"1580","type":"Feature","properties":{"id":"B0HA7DZ25B","name":"上海佳蒙汽车销售有限公司","address":"中山北路2130号万千大厦10层1001室","type":"汽车销售;汽车销售;汽车销售","typecode":"020000","pcode":310000,"pname":"上海市","citycode":21,"cityname":"上海市","adcode":310107,"adname":"普陀区","business_area":"光新","location":"121.430336,31.247197","tel":"021-32030654","bigType":"汽车销售","midType":"汽车销售","smallType":"汽车销售","gcj_lng":121.430336,"gcj_lat":31.247197,"wgs84_loc":"121.425704,31.249042","wgs84Lng":121.425704,"wgs84Lat":31.249042,"__source_file__":"13-常用公服设施点/CSV/上海市_汽车销售.csv"},"geometry":{"type":"Point","coordinates":[121.425704,31.249042]}},{"id":"2122","type":"Feature","properties":{"id":"B00150EAAE","name":"上海弘兆汽车销售服务有限公司","address":"中山北路2020中星经贸大厦9层","type":"汽车销售;汽车销售;汽车销售","typecode":"020000","pcode":310000,"pname":"上海市","citycode":21,"cityname":"上海市","adcode":310107,"adname":"普陀区","business_area":"光新","location":"121.431509,31.248343","tel":"021-32030313;021-52910538","bigType":"汽车销售","midType":"汽车销售","smallType":"汽车销售","gcj_lng":121.431509,"gcj_lat":31.248343,"wgs84_loc":"121.426879,31.250189","wgs84Lng":121.426879,"wgs84Lat":31.250189,"__source_file__":"13-常用公服设施点/CSV/上海市_汽车销售.csv"},"geometry":{"type":"Point","coordinates":[121.426879,31.250189]}},{"id":"1457","type":"Feature","properties":{"id":"B0FFL9CYM6","name":"管家式汽车服务","address":"莫干山路89号","type":"汽车销售;汽车销售;汽车销售","typecode":"020000","pcode":310000,"pname":"上海市","citycode":21,"cityname":"上海市","adcode":310107,"adname":"普陀区","business_area":"光新","location":"121.447554,31.248395","tel":"13127833333","bigType":"汽车销售","midType":"汽车销售","smallType":"汽车销售","gcj_lng":121.447554,"gcj_lat":31.248395,"wgs84_loc":"121.442955,31.250267","wgs84Lng":121.442955,"wgs84Lat":31.250267,"__source_file__":"13-常用公服设施点/CSV/上海市_汽车销售.csv"},"geometry":{"type":"Point","coordinates":[121.442955,31.250267]}},{"id":"3824","type":"Feature","properties":{"id":"B0K6OHNCID","name":"腾势汽车(上海天安千树腾势体验店)","address":"莫干山路12号天安广场F1层","type":"汽车销售;汽车销售;汽车销售","typecode":"020000","pcode":310000,"pname":"上海市","citycode":21,"cityname":"上海市","adcode":310107,"adname":"普陀区","business_area":"长寿路","location":"121.446125,31.249043","tel":"[]","bigType":"汽车销售","midType":"汽车销售","smallType":"汽车销售","gcj_lng":121.446125,"gcj_lat":31.249043,"wgs84_loc":"121.441523,31.250912","wgs84Lng":121.441523,"wgs84Lat":31.250912,"__source_file__":"13-常用公服设施点/CSV/上海市_汽车销售.csv"},"geometry":{"type":"Point","coordinates":[121.441523,31.250912]}},{"id":"3823","type":"Feature","properties":{"id":"B0KUBSUUQM","name":"方程豹汽车(普陀天安千树商超店)","address":"莫干山路600号W-L11","type":"汽车销售;汽车销售;汽车销售","typecode":"020000","pcode":310000,"pname":"上海市","citycode":21,"cityname":"上海市","adcode":310107,"adname":"普陀区","business_area":"长寿路","location":"121.445837,31.249112","tel":"[]","bigType":"汽车销售","midType":"汽车销售","smallType":"汽车销售","gcj_lng":121.445837,"gcj_lat":31.249112,"wgs84_loc":"121.441234,31.250981","wgs84Lng":121.441234,"wgs84Lat":31.250981,"__source_file__":"13-常用公服设施点/CSV/上海市_汽车销售.csv"},"geometry":{"type":"Point","coordinates":[121.441234,31.250981]}},{"id":"1458","type":"Feature","properties":{"id":"B0HKCS5Y27","name":"蔚来空间（上海天安千树）","address":"莫干山路600号天安千树W-L13店铺","type":"汽车销售;汽车销售;汽车销售","typecode":"020000","pcode":310000,"pname":"上海市","citycode":21,"cityname":"上海市","adcode":310107,"adname":"普陀区","business_area":"光新","location":"121.446529,31.249119","tel":"[]","bigType":"汽车销售","midType":"汽车销售","smallType":"汽车销售","gcj_lng":121.446529,"gcj_lat":31.249119,"wgs84_loc":"121.441928,31.250989","wgs84Lng":121.441928,"wgs84Lat":31.250989,"__source_file__":"13-常用公服设施点/CSV/上海市_汽车销售.csv"},"geometry":{"type":"Point","coordinates":[121.441928,31.250989]}},{"id":"1459","type":"Feature","properties":{"id":"B0HK0RCBJO","name":"智己汽车体验中心(天安千树)","address":"莫干山路600号","type":"汽车销售;汽车销售;汽车销售","typecode":"020000","pcode":310000,"pname":"上海市","citycode":21,"cityname":"上海市","adcode":310107,"adname":"普陀区","business_area":"光新","location":"121.446708,31.249152","tel":"[]","bigType":"汽车销售","midType":"汽车销售","smallType":"汽车销售","gcj_lng":121.446708,"gcj_lat":31.249152,"wgs84_loc":"121.442107,31.251022","wgs84Lng":121.442107,"wgs84Lat":31.251022,"__source_file__":"13-常用公服设施点/CSV/上海市_汽车销售.csv"},"geometry":{"type":"Point","coordinates":[121.442107,31.251022]}},{"id":"1579","type":"Feature","properties":{"id":"B0HGFN4CXI","name":"上海金康汽车销售有限公司","address":"交通路2231号","type":"汽车销售;汽车销售;汽车销售","typecode":"020000","pcode":310000,"pname":"上海市","citycode":21,"cityname":"上海市","adcode":310107,"adname":"普陀区","business_area":"大宁路","location":"121.433633,31.257644","tel":"[]","bigType":"汽车销售","midType":"汽车销售","smallType":"汽车销售","gcj_lng":121.433633,"gcj_lat":31.257644,"wgs84_loc":"121.429006,31.259489","wgs84Lng":121.429006,"wgs84Lat":31.259489,"__source_file__":"13-常用公服设施点/CSV/上海市_汽车销售.csv"},"geometry":{"type":"Point","coordinates":[121.429006,31.259489]}},{"id":"2814","type":"Feature","properties":{"id":"B0HGOSVCVP","name":"泰国突突车UrbanTukTuk(静安镇店)","address":"大统路988号B幢205、206、207室","type":"汽车销售;汽车销售;汽车销售","typecode":"020000","pcode":310000,"pname":"上海市","citycode":21,"cityname":"上海市","adcode":310106,"adname":"静安区","business_area":"宝山路","location":"121.459068,31.255579","tel":"[]","bigType":"汽车销售","midType":"汽车销售","smallType":"汽车销售","gcj_lng":121.459068,"gcj_lat":31.255579,"wgs84_loc":"121.454498,31.257473","wgs84Lng":121.454498,"wgs84Lat":31.257473,"__source_file__":"13-常用公服设施点/CSV/上海市_汽车销售.csv"},"geometry":{"type":"Point","coordinates":[121.454498,31.257473]}},{"id":"361","type":"Feature","properties":{"id":"B0H0ASR7UC","name":"上汽荣盛新能源","address":"青云路与中山北路交叉口东约60米","type":"汽车销售;汽车销售;汽车销售","typecode":"020000","pcode":310000,"pname":"上海市","citycode":21,"cityname":"上海市","adcode":310106,"adname":"静安区","business_area":"和田","location":"121.465371,31.261887","tel":"[]","bigType":"汽车销售","midType":"汽车销售","smallType":"汽车销售","gcj_lng":121.465371,"gcj_lat":31.261887,"wgs84_loc":"121.460819,31.263793","wgs84Lng":121.460819,"wgs84Lat":31.263793,"__source_file__":"13-常用公服设施点/CSV/上海市_汽车销售.csv"},"geometry":{"type":"Point","coordinates":[121.460819,31.263793]}},{"id":"374","type":"Feature","properties":{"id":"B0G3J42HFO","name":"别克展厅","address":"柳营路618号1楼","type":"汽车销售;汽车销售;汽车销售","typecode":"020000","pcode":310000,"pname":"上海市","citycode":21,"cityname":"上海市","adcode":310106,"adname":"静安区","business_area":"和田","location":"121.460013,31.265010","tel":"[]","bigType":"汽车销售","midType":"汽车销售","smallType":"汽车销售","gcj_lng":121.460013,"gcj_lat":31.26501,"wgs84_loc":"121.455445,31.266902","wgs84Lng":121.455445,"wgs84Lat":31.266902,"__source_file__":"13-常用公服设施点/CSV/上海市_汽车销售.csv"},"geometry":{"type":"Point","coordinates":[121.455445,31.266902]}},{"id":"4054","type":"Feature","properties":{"id":"B0JB1Y8BY3","name":"上海静安大宁国际店","address":"共和新路1878大宁国际商业广场F1层","type":"汽车销售;汽车销售;汽车销售","typecode":"020000","pcode":310000,"pname":"上海市","citycode":21,"cityname":"上海市","adcode":310106,"adname":"静安区","business_area":"大宁路","location":"121.452384,31.273763","tel":"[]","bigType":"汽车销售","midType":"汽车销售","smallType":"汽车销售","gcj_lng":121.452384,"gcj_lat":31.273763,"wgs84_loc":"121.447795,31.275634","wgs84Lng":121.447795,"wgs84Lat":31.275634,"__source_file__":"13-常用公服设施点/CSV/上海市_汽车销售.csv"},"geometry":{"type":"Point","coordinates":[121.447795,31.275634]}},{"id":"364","type":"Feature","properties":{"id":"B0HKOXNFYT","name":"理想汽车大宁国际商业广场店","address":"大宁国际商业广场共和新路1978号102D、103D、106D号","type":"汽车销售;汽车销售;汽车销售","typecode":"020000","pcode":310000,"pname":"上海市","citycode":21,"cityname":"上海市","adcode":310106,"adname":"静安区","business_area":"大宁路","location":"121.452360,31.274392","tel":"[]","bigType":"汽车销售","midType":"汽车销售","smallType":"汽车销售","gcj_lng":121.45236,"gcj_lat":31.274392,"wgs84_loc":"121.447771,31.276263","wgs84Lng":121.447771,"wgs84Lat":31.276263,"__source_file__":"13-常用公服设施点/CSV/上海市_汽车销售.csv"},"geometry":{"type":"Point","coordinates":[121.447771,31.276263]}},{"id":"363","type":"Feature","properties":{"id":"B0IBAZCOB4","name":"飞凡汽车大宁国际体验中心","address":"共和新路1978号108B","type":"汽车销售;汽车销售;汽车销售","typecode":"020000","pcode":310000,"pname":"上海市","citycode":21,"cityname":"上海市","adcode":310106,"adname":"静安区","business_area":"大宁路","location":"121.452168,31.274546","tel":"13917203327","bigType":"汽车销售","midType":"汽车销售","smallType":"汽车销售","gcj_lng":121.452168,"gcj_lat":31.274546,"wgs84_loc":"121.447578,31.276416","wgs84Lng":121.447578,"wgs84Lat":31.276416,"__source_file__":"13-常用公服设施点/CSV/上海市_汽车销售.csv"},"geometry":{"type":"Point","coordinates":[121.447578,31.276416]}},{"id":"372","type":"Feature","properties":{"id":"B0H11ZQ5TE","name":"蔚来空间(上海大宁国际商业广场)","address":"共和新路1988号10幢一层110-111单元","type":"汽车销售;汽车销售;汽车销售","typecode":"020000","pcode":310000,"pname":"上海市","citycode":21,"cityname":"上海市","adcode":310106,"adname":"静安区","business_area":"大宁路","location":"121.452400,31.275022","tel":"[]","bigType":"汽车销售","midType":"汽车销售","smallType":"汽车销售","gcj_lng":121.4524,"gcj_lat":31.275022,"wgs84_loc":"121.447811,31.276892","wgs84Lng":121.447811,"wgs84Lat":31.276892,"__source_file__":"13-常用公服设施点/CSV/上海市_汽车销售.csv"},"geometry":{"type":"Point","coordinates":[121.447811,31.276892]}},{"id":"2126","type":"Feature","properties":{"id":"B0FFKF8E67","name":"上海电宙汽车服务有限公司","address":"志丹路176-178号附近","type":"汽车销售;汽车销售;汽车销售","typecode":"020000","pcode":310000,"pname":"上海市","citycode":21,"cityname":"上海市","adcode":310107,"adname":"普陀区","business_area":"光新","location":"121.431259,31.261544","tel":"021-56302300","bigType":"汽车销售","midType":"汽车销售","smallType":"汽车销售","gcj_lng":121.431259,"gcj_lat":31.261544,"wgs84_loc":"121.426627,31.263384","wgs84Lng":121.426627,"wgs84Lat":31.263384,"__source_file__":"13-常用公服设施点/CSV/上海市_汽车销售.csv"},"geometry":{"type":"Point","coordinates":[121.426627,31.263384]}},{"id":"1627","type":"Feature","properties":{"id":"B0FFFSZ6X7","name":"雪佛兰(沪太路店)","address":"沪太路800号","type":"汽车销售;汽车销售;汽车销售","typecode":"020000","pcode":310000,"pname":"上海市","citycode":21,"cityname":"上海市","adcode":310107,"adname":"普陀区","business_area":"大宁路","location":"121.443672,31.265882","tel":"[]","bigType":"汽车销售","midType":"汽车销售","smallType":"汽车销售","gcj_lng":121.443672,"gcj_lat":31.265882,"wgs84_loc":"121.439063,31.267739","wgs84Lng":121.439063,"wgs84Lat":31.267739,"__source_file__":"13-常用公服设施点/CSV/上海市_汽车销售.csv"},"geometry":{"type":"Point","coordinates":[121.439063,31.267739]}},{"id":"230","type":"Feature","properties":{"id":"B0HK0LLI7O","name":"通用授权五星级4s店","address":"沪太路沪太路788弄16号","type":"汽车销售;汽车销售;汽车销售","typecode":"020000","pcode":310000,"pname":"上海市","citycode":21,"cityname":"上海市","adcode":310107,"adname":"普陀区","business_area":"大宁路","location":"121.443542,31.266019","tel":"[]","bigType":"汽车销售","midType":"汽车销售","smallType":"汽车销售","gcj_lng":121.443542,"gcj_lat":31.266019,"wgs84_loc":"121.438933,31.267876","wgs84Lng":121.438933,"wgs84Lat":31.267876,"__source_file__":"13-常用公服设施点/CSV/上海市_汽车销售.csv"},"geometry":{"type":"Point","coordinates":[121.438933,31.267876]}},{"id":"3246","type":"Feature","properties":{"id":"B0G3J54PK6","name":"平行进口车定制商务车","address":"沪太路望景苑南侧约30米","type":"汽车销售;汽车销售;汽车销售","typecode":"020000","pcode":310000,"pname":"上海市","citycode":21,"cityname":"上海市","adcode":310106,"adname":"静安区","business_area":"大宁路","location":"121.439352,31.268965","tel":"[]","bigType":"汽车销售","midType":"汽车销售","smallType":"汽车销售","gcj_lng":121.439352,"gcj_lat":31.268965,"wgs84_loc":"121.434734,31.270813","wgs84Lng":121.434734,"wgs84Lat":31.270813,"__source_file__":"13-常用公服设施点/CSV/上海市_汽车销售.csv"},"geometry":{"type":"Point","coordinates":[121.434734,31.270813]}}],"name":"上海市_汽车销售","crs":{"type":"name","properties":{"name":"urn:ogc:def:crs:OGC:1.3:CRS84"}}}