{"type":"FeatureCollection","features":[{"id":"434","type":"Feature","properties":{"id":"B0FFG0Z94T","name":"城市学校少年宫(万航渡路)","address":"万航渡路154号","type":"科教文化服务;文化宫;文化宫","typecode":"140800","pcode":310000,"pname":"上海市","citycode":21,"cityname":"上海市","adcode":310106,"adname":"静安区","business_area":"中山公园","location":"121.441950,31.224879","tel":"[]","bigType":"科教文化服务","midType":"文化宫","smallType":"文化宫","gcj_lng":121.44195,"gcj_lat":31.224879,"wgs84_loc":"121.437341,31.226752","wgs84Lng":121.437341,"wgs84Lat":31.226752,"__source_file__":"13-常用公服设施点/CSV/上海市_文化宫.csv"},"geometry":{"type":"Point","coordinates":[121.437341,31.226752]}},{"id":"19","type":"Feature","properties":{"id":"B0GKOS8EM3","name":"静安区青少年活动中心","address":"胶州路与康定路交叉口西北约80米","type":"科教文化服务;文化宫;文化宫","typecode":"140800","pcode":310000,"pname":"上海市","citycode":21,"cityname":"上海市","adcode":310106,"adname":"静安区","business_area":"曹家渡","location":"121.441716,31.232201","tel":"[]","bigType":"科教文化服务","midType":"文化宫","smallType":"文化宫","gcj_lng":121.441716,"gcj_lat":31.232201,"wgs84_loc":"121.437106,31.23407","wgs84Lng":121.437106,"wgs84Lat":31.23407,"__source_file__":"13-常用公服设施点/CSV/上海市_文化宫.csv"},"geometry":{"type":"Point","coordinates":[121.437106,31.23407]}},{"id":"20","type":"Feature","properties":{"id":"B00154J21K","name":"上海市静安区青少年活动中心","address":"胶州路15号(近久光百货)","type":"科教文化服务;文化宫;文化宫","typecode":"140800","pcode":310000,"pname":"上海市","citycode":21,"cityname":"上海市","adcode":310106,"adname":"静安区","business_area":"曹家渡","location":"121.444673,31.225045","tel":"021-62156738","bigType":"科教文化服务","midType":"文化宫","smallType":"文化宫","gcj_lng":121.444673,"gcj_lat":31.225045,"wgs84_loc":"121.44007,31.226922","wgs84Lng":121.44007,"wgs84Lat":31.226922,"__source_file__":"13-常用公服设施点/CSV/上海市_文化宫.csv"},"geometry":{"type":"Point","coordinates":[121.44007,31.226922]}},{"id":"353","type":"Feature","properties":{"id":"B0FFGAPPW2","name":"城市学校少年宫(威海路)","address":"威海路681号","type":"科教文化服务;文化宫;文化宫","typecode":"140800","pcode":310000,"pname":"上海市","citycode":21,"cityname":"上海市","adcode":310106,"adname":"静安区","business_area":"淮海路","location":"121.458771,31.225875","tel":"[]","bigType":"科教文化服务","midType":"文化宫","smallType":"文化宫","gcj_lng":121.458771,"gcj_lat":31.225875,"wgs84_loc":"121.454203,31.227781","wgs84Lng":121.454203,"wgs84Lat":31.227781,"__source_file__":"13-常用公服设施点/CSV/上海市_文化宫.csv"},"geometry":{"type":"Point","coordinates":[121.454203,31.227781]}},{"id":"262","type":"Feature","properties":{"id":"B0G3AG8BKG","name":"上海兴业太古汇L3层多功能厅","address":"南京西路789号(星巴克甄选上海烘焙工坊楼上)","type":"科教文化服务;文化宫;文化宫","typecode":"140800","pcode":310000,"pname":"上海市","citycode":21,"cityname":"上海市","adcode":310106,"adname":"静安区","business_area":"淮海路","location":"121.463071,31.228733","tel":"[]","bigType":"科教文化服务","midType":"文化宫","smallType":"文化宫","gcj_lng":121.463071,"gcj_lat":31.228733,"wgs84_loc":"121.458515,31.230648","wgs84Lng":121.458515,"wgs84Lat":31.230648,"__source_file__":"13-常用公服设施点/CSV/上海市_文化宫.csv"},"geometry":{"type":"Point","coordinates":[121.458515,31.230648]}},{"id":"398","type":"Feature","properties":{"id":"B00156GLMY","name":"南西社区文化活动中心","address":"南京西路591弄3号","type":"科教文化服务;文化宫;文化宫","typecode":"140800","pcode":310000,"pname":"上海市","citycode":21,"cityname":"上海市","adcode":310106,"adname":"静安区","business_area":"淮海路","location":"121.466236,31.229906","tel":"[]","bigType":"科教文化服务","midType":"文化宫","smallType":"文化宫","gcj_lng":121.466236,"gcj_lat":31.229906,"wgs84_loc":"121.461689,31.231829","wgs84Lng":121.461689,"wgs84Lat":31.231829,"__source_file__":"13-常用公服设施点/CSV/上海市_文化宫.csv"},"geometry":{"type":"Point","coordinates":[121.461689,31.231829]}},{"id":"265","type":"Feature","properties":{"id":"B0015726F6","name":"南京西路街道社区文化中心","address":"南京西路591弄5号(黄陂南路建国东路)","type":"科教文化服务;文化宫;文化宫","typecode":"140800","pcode":310000,"pname":"上海市","citycode":21,"cityname":"上海市","adcode":310106,"adname":"静安区","business_area":"淮海路","location":"121.466042,31.230003","tel":"021-62178662","bigType":"科教文化服务","midType":"文化宫","smallType":"文化宫","gcj_lng":121.466042,"gcj_lat":31.230003,"wgs84_loc":"121.461495,31.231925","wgs84Lng":121.461495,"wgs84Lat":31.231925,"__source_file__":"13-常用公服设施点/CSV/上海市_文化宫.csv"},"geometry":{"type":"Point","coordinates":[121.461495,31.231925]}},{"id":"471","type":"Feature","properties":{"id":"B0FFH3MJF5","name":"江宁社区文化活动中心","address":"西苏州路71号","type":"科教文化服务;文化宫;文化宫","typecode":"140800","pcode":310000,"pname":"上海市","citycode":21,"cityname":"上海市","adcode":310106,"adname":"静安区","business_area":"曹家渡","location":"121.450299,31.239237","tel":"[]","bigType":"科教文化服务","midType":"文化宫","smallType":"文化宫","gcj_lng":121.450299,"gcj_lat":31.239237,"wgs84_loc":"121.445708,31.241119","wgs84Lng":121.445708,"wgs84Lat":31.241119,"__source_file__":"13-常用公服设施点/CSV/上海市_文化宫.csv"},"geometry":{"type":"Point","coordinates":[121.445708,31.241119]}},{"id":"354","type":"Feature","properties":{"id":"B00155IEJ2","name":"天目西社区文化活动中心(汉中路)","address":"汉中路188汉中广场上海市青少年活动中心","type":"科教文化服务;文化宫;文化宫","typecode":"140800","pcode":310000,"pname":"上海市","citycode":21,"cityname":"上海市","adcode":310106,"adname":"静安区","business_area":"[]","location":"121.457754,31.241917","tel":"[]","bigType":"科教文化服务","midType":"文化宫","smallType":"文化宫","gcj_lng":121.457754,"gcj_lat":31.241917,"wgs84_loc":"121.453182,31.243814","wgs84Lng":121.453182,"wgs84Lat":31.243814,"__source_file__":"13-常用公服设施点/CSV/上海市_文化宫.csv"},"geometry":{"type":"Point","coordinates":[121.453182,31.243814]}},{"id":"67","type":"Feature","properties":{"id":"B00155I7DA","name":"青少年活动中心(汉中路店)","address":"汉中路188号","type":"科教文化服务;文化宫;文化宫","typecode":"140800","pcode":310000,"pname":"上海市","citycode":21,"cityname":"上海市","adcode":310106,"adname":"静安区","business_area":"[]","location":"121.457566,31.242034","tel":"021-63535988","bigType":"科教文化服务","midType":"文化宫","smallType":"文化宫","gcj_lng":121.457566,"gcj_lat":31.242034,"wgs84_loc":"121.452993,31.24393","wgs84Lng":121.452993,"wgs84Lat":31.24393,"__source_file__":"13-常用公服设施点/CSV/上海市_文化宫.csv"},"geometry":{"type":"Point","coordinates":[121.452993,31.24393]}},{"id":"260","type":"Feature","properties":{"id":"B0FFG0685M","name":"上海市工人文化宫","address":"西藏中路120号(近北海路)","type":"科教文化服务;文化宫;文化宫|科教文化服务;培训机构;培训机构","typecode":"140800|141400","pcode":310000,"pname":"上海市","citycode":21,"cityname":"上海市","adcode":310101,"adname":"黄浦区","business_area":"北京东路","location":"121.478028,31.2305","tel":"021-63526166;021-63226155","bigType":"科教文化服务","midType":"文化宫","smallType":"文化宫|科教文化服务","gcj_lng":121.478028,"gcj_lat":31.2305,"wgs84_loc":"121.473519,31.232454","wgs84Lng":121.473519,"wgs84Lat":31.232454,"__source_file__":"13-常用公服设施点/CSV/上海市_文化宫.csv"},"geometry":{"type":"Point","coordinates":[121.473519,31.232454]}},{"id":"14","type":"Feature","properties":{"id":"B001559ZEJ","name":"上海市黄浦区青少年艺术活动中心(福州路)","address":"福州路539号","type":"科教文化服务;文化宫;文化宫|科教文化服务;培训机构;培训机构","typecode":"140800|141400","pcode":310000,"pname":"上海市","citycode":21,"cityname":"上海市","adcode":310101,"adname":"黄浦区","business_area":"北京东路","location":"121.480427,31.232790","tel":"021-63514670","bigType":"科教文化服务","midType":"文化宫","smallType":"文化宫|科教文化服务","gcj_lng":121.480427,"gcj_lat":31.23279,"wgs84_loc":"121.475926,31.23475","wgs84Lng":121.475926,"wgs84Lat":31.23475,"__source_file__":"13-常用公服设施点/CSV/上海市_文化宫.csv"},"geometry":{"type":"Point","coordinates":[121.475926,31.23475]}},{"id":"17","type":"Feature","properties":{"id":"B0FFJ7WDKR","name":"百年老北站历史文化馆","address":"山西北路126号附近","type":"科教文化服务;文化宫;文化宫","typecode":"140800","pcode":310000,"pname":"上海市","citycode":21,"cityname":"上海市","adcode":310106,"adname":"静安区","business_area":"北京东路","location":"121.477934,31.241577","tel":"[]","bigType":"科教文化服务","midType":"文化宫","smallType":"文化宫","gcj_lng":121.477934,"gcj_lat":31.241577,"wgs84_loc":"121.473424,31.243526","wgs84Lng":121.473424,"wgs84Lat":31.243526,"__source_file__":"13-常用公服设施点/CSV/上海市_文化宫.csv"},"geometry":{"type":"Point","coordinates":[121.473424,31.243526]}},{"id":"373","type":"Feature","properties":{"id":"B00155GQV2","name":"乍浦路街道社区文化活动中心","address":"四川北路65号","type":"科教文化服务;文化宫;文化宫","typecode":"140800","pcode":310000,"pname":"上海市","citycode":21,"cityname":"上海市","adcode":310109,"adname":"虹口区","business_area":"北外滩","location":"121.485295,31.245785","tel":"[]","bigType":"科教文化服务","midType":"文化宫","smallType":"文化宫","gcj_lng":121.485295,"gcj_lat":31.245785,"wgs84_loc":"121.48081,31.247753","wgs84Lng":121.48081,"wgs84Lat":31.247753,"__source_file__":"13-常用公服设施点/CSV/上海市_文化宫.csv"},"geometry":{"type":"Point","coordinates":[121.48081,31.247753]}},{"id":"524","type":"Feature","properties":{"id":"B0KGYSH1E1","name":"缘申文化艺术中心","address":"金芙世纪公寓西南门旁(四川北路地铁站4号口步行480米)","type":"科教文化服务;文化宫;文化宫","typecode":"140800","pcode":310000,"pname":"上海市","citycode":21,"cityname":"上海市","adcode":310109,"adname":"虹口区","business_area":"宝山路","location":"121.480688,31.252421","tel":"[]","bigType":"科教文化服务","midType":"文化宫","smallType":"文化宫","gcj_lng":121.480688,"gcj_lat":31.252421,"wgs84_loc":"121.476186,31.254373","wgs84Lng":121.476186,"wgs84Lat":31.254373,"__source_file__":"13-常用公服设施点/CSV/上海市_文化宫.csv"},"geometry":{"type":"Point","coordinates":[121.476186,31.254373]}},{"id":"166","type":"Feature","properties":{"id":"B0FFHO7QG3","name":"四川北路街道文化活动中心","address":"海伦路505号","type":"科教文化服务;文化宫;文化宫|体育休闲服务;休闲场所;休闲场所","typecode":"140800|080500","pcode":310000,"pname":"上海市","citycode":21,"cityname":"上海市","adcode":310109,"adname":"虹口区","business_area":"宝山路","location":"121.487292,31.258386","tel":"[]","bigType":"科教文化服务","midType":"文化宫","smallType":"文化宫|体育休闲服务","gcj_lng":121.487292,"gcj_lat":31.258386,"wgs84_loc":"121.482813,31.260354","wgs84Lng":121.482813,"wgs84Lat":31.260354,"__source_file__":"13-常用公服设施点/CSV/上海市_文化宫.csv"},"geometry":{"type":"Point","coordinates":[121.482813,31.260354]}},{"id":"356","type":"Feature","properties":{"id":"B0HG7ONSM4","name":"梵普易学堪舆文化馆","address":"嘉兴路街道物华路118弄5号01室","type":"科教文化服务;文化宫;文化宫","typecode":"140800","pcode":310000,"pname":"上海市","citycode":21,"cityname":"上海市","adcode":310109,"adname":"虹口区","business_area":"提篮桥","location":"121.493691,31.259550","tel":"13061630667","bigType":"科教文化服务","midType":"文化宫","smallType":"文化宫","gcj_lng":121.493691,"gcj_lat":31.25955,"wgs84_loc":"121.489235,31.261537","wgs84Lng":121.489235,"wgs84Lat":31.261537,"__source_file__":"13-常用公服设施点/CSV/上海市_文化宫.csv"},"geometry":{"type":"Point","coordinates":[121.489235,31.261537]}},{"id":"355","type":"Feature","properties":{"id":"B0FFF9ZHTM","name":"上海多伦路地区海派文化馆(多伦生活广场店)","address":"多伦路179号","type":"科教文化服务;文化宫;文化宫","typecode":"140800","pcode":310000,"pname":"上海市","citycode":21,"cityname":"上海市","adcode":310109,"adname":"虹口区","business_area":"宝山路","location":"121.481627,31.263302","tel":"[]","bigType":"科教文化服务","midType":"文化宫","smallType":"文化宫","gcj_lng":121.481627,"gcj_lat":31.263302,"wgs84_loc":"121.477128,31.265252","wgs84Lng":121.477128,"wgs84Lat":31.265252,"__source_file__":"13-常用公服设施点/CSV/上海市_文化宫.csv"},"geometry":{"type":"Point","coordinates":[121.477128,31.265252]}},{"id":"308","type":"Feature","properties":{"id":"B0FFL1C7EB","name":"江宁路街道社区文化活动中心","address":"昌平路710号","type":"科教文化服务;文化宫;文化宫","typecode":"140800","pcode":310000,"pname":"上海市","citycode":21,"cityname":"上海市","adcode":310106,"adname":"静安区","business_area":"曹家渡","location":"121.442309,31.234794","tel":"021-62662559;021-62998992","bigType":"科教文化服务","midType":"文化宫","smallType":"文化宫","gcj_lng":121.442309,"gcj_lat":31.234794,"wgs84_loc":"121.4377,31.236663","wgs84Lng":121.4377,"wgs84Lat":31.236663,"__source_file__":"13-常用公服设施点/CSV/上海市_文化宫.csv"},"geometry":{"type":"Point","coordinates":[121.4377,31.236663]}},{"id":"266","type":"Feature","properties":{"id":"B00155HN63","name":"上海市总工会静安区工人文化宫","address":"常德路940上海市总工会静安区工人文化宫综合楼7层","type":"科教文化服务;文化宫;文化宫","typecode":"140800","pcode":310000,"pname":"上海市","citycode":21,"cityname":"上海市","adcode":310106,"adname":"静安区","business_area":"曹家渡","location":"121.442452,31.234861","tel":"021-62586154","bigType":"科教文化服务","midType":"文化宫","smallType":"文化宫","gcj_lng":121.442452,"gcj_lat":31.234861,"wgs84_loc":"121.437843,31.23673","wgs84Lng":121.437843,"wgs84Lat":31.23673,"__source_file__":"13-常用公服设施点/CSV/上海市_文化宫.csv"},"geometry":{"type":"Point","coordinates":[121.437843,31.23673]}},{"id":"352","type":"Feature","properties":{"id":"B0FFHN4KS0","name":"上海市第一中学-城市学校少年宫","address":"余姚路与海防路交叉口西南100米","type":"科教文化服务;文化宫;文化宫","typecode":"140800","pcode":310000,"pname":"上海市","citycode":21,"cityname":"上海市","adcode":310106,"adname":"静安区","business_area":"曹家渡","location":"121.442099,31.236112","tel":"[]","bigType":"科教文化服务","midType":"文化宫","smallType":"文化宫","gcj_lng":121.442099,"gcj_lat":31.236112,"wgs84_loc":"121.437489,31.23798","wgs84Lng":121.437489,"wgs84Lat":31.23798,"__source_file__":"13-常用公服设施点/CSV/上海市_文化宫.csv"},"geometry":{"type":"Point","coordinates":[121.437489,31.23798]}},{"id":"70","type":"Feature","properties":{"id":"B0HDO576YB","name":"旗袍创新与传承文化中心","address":"胶州路941号702A","type":"科教文化服务;文化宫;文化宫","typecode":"140800","pcode":310000,"pname":"上海市","citycode":21,"cityname":"上海市","adcode":310107,"adname":"普陀区","business_area":"曹家渡","location":"121.436707,31.237557","tel":"021-56532981;13585573087","bigType":"科教文化服务","midType":"文化宫","smallType":"文化宫","gcj_lng":121.436707,"gcj_lat":31.237557,"wgs84_loc":"121.432087,31.239415","wgs84Lng":121.432087,"wgs84Lat":31.239415,"__source_file__":"13-常用公服设施点/CSV/上海市_文化宫.csv"},"geometry":{"type":"Point","coordinates":[121.432087,31.239415]}},{"id":"311","type":"Feature","properties":{"id":"B0FFHPDIFD","name":"万代南梦宫上海文化中心","address":"宜昌路179号","type":"科教文化服务;文化宫;文化宫","typecode":"140800","pcode":310000,"pname":"上海市","citycode":21,"cityname":"上海市","adcode":310107,"adname":"普陀区","business_area":"光新","location":"121.440001,31.249007","tel":"021-62663191;021-62663199","bigType":"科教文化服务","midType":"文化宫","smallType":"文化宫","gcj_lng":121.440001,"gcj_lat":31.249007,"wgs84_loc":"121.435386,31.250865","wgs84Lng":121.435386,"wgs84Lat":31.250865,"__source_file__":"13-常用公服设施点/CSV/上海市_文化宫.csv"},"geometry":{"type":"Point","coordinates":[121.435386,31.250865]}},{"id":"152","type":"Feature","properties":{"id":"B0FFH1X6JZ","name":"两湾城青少年活动中心","address":"中潭路51号","type":"科教文化服务;文化宫;文化宫","typecode":"140800","pcode":310000,"pname":"上海市","citycode":21,"cityname":"上海市","adcode":310107,"adname":"普陀区","business_area":"光新","location":"121.443230,31.251502","tel":"[]","bigType":"科教文化服务","midType":"文化宫","smallType":"文化宫","gcj_lng":121.44323,"gcj_lat":31.251502,"wgs84_loc":"121.438621,31.253365","wgs84Lng":121.438621,"wgs84Lat":31.253365,"__source_file__":"13-常用公服设施点/CSV/上海市_文化宫.csv"},"geometry":{"type":"Point","coordinates":[121.438621,31.253365]}},{"id":"431","type":"Feature","properties":{"id":"B0FFG0GGQF","name":"香溢花城青少年文化宫","address":"中山北路1496弄4号2楼","type":"科教文化服务;文化宫;文化宫","typecode":"140800","pcode":310000,"pname":"上海市","citycode":21,"cityname":"上海市","adcode":310107,"adname":"普陀区","business_area":"大宁路","location":"121.436432,31.254671","tel":"[]","bigType":"科教文化服务","midType":"文化宫","smallType":"文化宫","gcj_lng":121.436432,"gcj_lat":31.254671,"wgs84_loc":"121.43181,31.256521","wgs84Lng":121.43181,"wgs84Lat":31.256521,"__source_file__":"13-常用公服设施点/CSV/上海市_文化宫.csv"},"geometry":{"type":"Point","coordinates":[121.43181,31.256521]}},{"id":"403","type":"Feature","properties":{"id":"B0FFG19MOB","name":"上海洛川学校-城市学校少年宫","address":"泾惠路34附近","type":"科教文化服务;文化宫;文化宫","typecode":"140800","pcode":310000,"pname":"上海市","citycode":21,"cityname":"上海市","adcode":310107,"adname":"普陀区","business_area":"光新","location":"121.435447,31.259342","tel":"[]","bigType":"科教文化服务","midType":"文化宫","smallType":"文化宫","gcj_lng":121.435447,"gcj_lat":31.259342,"wgs84_loc":"121.430823,31.261189","wgs84Lng":121.430823,"wgs84Lat":31.261189,"__source_file__":"13-常用公服设施点/CSV/上海市_文化宫.csv"},"geometry":{"type":"Point","coordinates":[121.430823,31.261189]}},{"id":"74","type":"Feature","properties":{"id":"B00155FMY0","name":"普陀区甘泉文化馆(延长西路)","address":"延长西路350-3号附近","type":"科教文化服务;文化宫;文化宫","typecode":"140800","pcode":310000,"pname":"上海市","citycode":21,"cityname":"上海市","adcode":310107,"adname":"普陀区","business_area":"光新","location":"121.436726,31.261210","tel":"[]","bigType":"科教文化服务","midType":"文化宫","smallType":"文化宫","gcj_lng":121.436726,"gcj_lat":31.26121,"wgs84_loc":"121.432104,31.263058","wgs84Lng":121.432104,"wgs84Lat":31.263058,"__source_file__":"13-常用公服设施点/CSV/上海市_文化宫.csv"},"geometry":{"type":"Point","coordinates":[121.432104,31.263058]}},{"id":"485","type":"Feature","properties":{"id":"B0H1U10PNI","name":"上海静安洲际酒店会场","address":"恒丰路与裕通路交叉口西约80米","type":"科教文化服务;文化宫;文化宫","typecode":"140800","pcode":310000,"pname":"上海市","citycode":21,"cityname":"上海市","adcode":310106,"adname":"静安区","business_area":"[]","location":"121.453723,31.244763","tel":"[]","bigType":"科教文化服务","midType":"文化宫","smallType":"文化宫","gcj_lng":121.453723,"gcj_lat":31.244763,"wgs84_loc":"121.44914,31.246649","wgs84Lng":121.44914,"wgs84Lat":31.246649,"__source_file__":"13-常用公服设施点/CSV/上海市_文化宫.csv"},"geometry":{"type":"Point","coordinates":[121.44914,31.246649]}},{"id":"146","type":"Feature","properties":{"id":"B0FFH1M5W1","name":"上海铁路工人文化宫","address":"王家宅路160号","type":"科教文化服务;文化宫;文化宫","typecode":"140800","pcode":310000,"pname":"上海市","citycode":21,"cityname":"上海市","adcode":310106,"adname":"静安区","business_area":"宝山路","location":"121.470698,31.249420","tel":"[]","bigType":"科教文化服务","midType":"文化宫","smallType":"文化宫","gcj_lng":121.470698,"gcj_lat":31.24942,"wgs84_loc":"121.466164,31.251346","wgs84Lng":121.466164,"wgs84Lat":31.251346,"__source_file__":"13-常用公服设施点/CSV/上海市_文化宫.csv"},"geometry":{"type":"Point","coordinates":[121.466164,31.251346]}},{"id":"409","type":"Feature","properties":{"id":"B00156NWK2","name":"闸北文化艺术中心","address":"中兴路1111","type":"科教文化服务;文化宫;文化宫","typecode":"140800","pcode":310000,"pname":"上海市","citycode":21,"cityname":"上海市","adcode":310106,"adname":"静安区","business_area":"和田","location":"121.464528,31.252658","tel":"[]","bigType":"科教文化服务","midType":"文化宫","smallType":"文化宫","gcj_lng":121.464528,"gcj_lat":31.252658,"wgs84_loc":"121.459974,31.254566","wgs84Lng":121.459974,"wgs84Lat":31.254566,"__source_file__":"13-常用公服设施点/CSV/上海市_文化宫.csv"},"geometry":{"type":"Point","coordinates":[121.459974,31.254566]}},{"id":"456","type":"Feature","properties":{"id":"B0FFHR86WA","name":"社区活动文化中心","address":"沪太路150号四楼前台天目西路","type":"科教文化服务;文化宫;文化宫","typecode":"140800","pcode":310000,"pname":"上海市","citycode":21,"cityname":"上海市","adcode":310106,"adname":"静安区","business_area":"和田","location":"121.456250,31.253372","tel":"[]","bigType":"科教文化服务","midType":"文化宫","smallType":"文化宫","gcj_lng":121.45625,"gcj_lat":31.253372,"wgs84_loc":"121.451673,31.25526","wgs84Lng":121.451673,"wgs84Lat":31.25526,"__source_file__":"13-常用公服设施点/CSV/上海市_文化宫.csv"},"geometry":{"type":"Point","coordinates":[121.451673,31.25526]}},{"id":"351","type":"Feature","properties":{"id":"B00156EPTR","name":"天目西社区文化活动中心(中华新路)","address":"沪太路150号4楼406室","type":"科教文化服务;文化宫;文化宫","typecode":"140800","pcode":310000,"pname":"上海市","citycode":21,"cityname":"上海市","adcode":310106,"adname":"静安区","business_area":"和田","location":"121.456236,31.253512","tel":"021-65215207","bigType":"科教文化服务","midType":"文化宫","smallType":"文化宫","gcj_lng":121.456236,"gcj_lat":31.253512,"wgs84_loc":"121.451659,31.2554","wgs84Lng":121.451659,"wgs84Lat":31.2554,"__source_file__":"13-常用公服设施点/CSV/上海市_文化宫.csv"},"geometry":{"type":"Point","coordinates":[121.451659,31.2554]}},{"id":"523","type":"Feature","properties":{"id":"B0KDROED8A","name":"静安区文化馆分馆","address":"金融街融府西北门东130米","type":"科教文化服务;文化宫;文化宫","typecode":"140800","pcode":310000,"pname":"上海市","citycode":21,"cityname":"上海市","adcode":310106,"adname":"静安区","business_area":"不夜城","location":"121.451426,31.254650","tel":"[]","bigType":"科教文化服务","midType":"文化宫","smallType":"文化宫","gcj_lng":121.451426,"gcj_lat":31.25465,"wgs84_loc":"121.446836,31.256527","wgs84Lng":121.446836,"wgs84Lat":31.256527,"__source_file__":"13-常用公服设施点/CSV/上海市_文化宫.csv"},"geometry":{"type":"Point","coordinates":[121.446836,31.256527]}},{"id":"350","type":"Feature","properties":{"id":"B00157I0V1","name":"芷江西社区文化活动中心","address":"芷江西路151号(近共和新路)","type":"科教文化服务;文化宫;文化宫","typecode":"140800","pcode":310000,"pname":"上海市","citycode":21,"cityname":"上海市","adcode":310106,"adname":"静安区","business_area":"和田","location":"121.464739,31.257991","tel":"[]","bigType":"科教文化服务","midType":"文化宫","smallType":"文化宫","gcj_lng":121.464739,"gcj_lat":31.257991,"wgs84_loc":"121.460185,31.259897","wgs84Lng":121.460185,"wgs84Lat":31.259897,"__source_file__":"13-常用公服设施点/CSV/上海市_文化宫.csv"},"geometry":{"type":"Point","coordinates":[121.460185,31.259897]}},{"id":"7","type":"Feature","properties":{"id":"B001556NMS","name":"宝山路街道社区文化活动中心","address":"宝山路街道宝昌路533号","type":"科教文化服务;文化宫;文化宫","typecode":"140800","pcode":310000,"pname":"上海市","citycode":21,"cityname":"上海市","adcode":310106,"adname":"静安区","business_area":"宝山路","location":"121.472723,31.260146","tel":"021-66296331","bigType":"科教文化服务","midType":"文化宫","smallType":"文化宫","gcj_lng":121.472723,"gcj_lat":31.260146,"wgs84_loc":"121.468194,31.262072","wgs84Lng":121.468194,"wgs84Lat":31.262072,"__source_file__":"13-常用公服设施点/CSV/上海市_文化宫.csv"},"geometry":{"type":"Point","coordinates":[121.468194,31.262072]}},{"id":"307","type":"Feature","properties":{"id":"B00155EBCC","name":"共和新路街道社区文化活动中心","address":"延长中路755","type":"科教文化服务;文化宫;文化宫","typecode":"140800","pcode":310000,"pname":"上海市","citycode":21,"cityname":"上海市","adcode":310106,"adname":"静安区","business_area":"大宁路","location":"121.445916,31.267062","tel":"021-51029138","bigType":"科教文化服务","midType":"文化宫","smallType":"文化宫","gcj_lng":121.445916,"gcj_lat":31.267062,"wgs84_loc":"121.441312,31.268923","wgs84Lng":121.441312,"wgs84Lat":31.268923,"__source_file__":"13-常用公服设施点/CSV/上海市_文化宫.csv"},"geometry":{"type":"Point","coordinates":[121.441312,31.268923]}},{"id":"430","type":"Feature","properties":{"id":"B00155GB6Y","name":"欧阳文化活动街(青少年活动中心分中心)","address":"欧阳路67号","type":"科教文化服务;文化宫;文化宫","typecode":"140800","pcode":310000,"pname":"上海市","citycode":21,"cityname":"上海市","adcode":310109,"adname":"虹口区","business_area":"曲阳","location":"121.489746,31.265211","tel":"[]","bigType":"科教文化服务","midType":"文化宫","smallType":"文化宫","gcj_lng":121.489746,"gcj_lat":31.265211,"wgs84_loc":"121.485275,31.267184","wgs84Lng":121.485275,"wgs84Lat":31.267184,"__source_file__":"13-常用公服设施点/CSV/上海市_文化宫.csv"},"geometry":{"type":"Point","coordinates":[121.485275,31.267184]}},{"id":"155","type":"Feature","properties":{"id":"B00151FAAA","name":"上海市虹口区青少年活动中心(欧阳路)","address":"欧阳路67号","type":"科教文化服务;文化宫;文化宫","typecode":"140800","pcode":310000,"pname":"上海市","citycode":21,"cityname":"上海市","adcode":310109,"adname":"虹口区","business_area":"曲阳","location":"121.489938,31.265431","tel":"021-56966218","bigType":"科教文化服务","midType":"文化宫","smallType":"文化宫","gcj_lng":121.489938,"gcj_lat":31.265431,"wgs84_loc":"121.485468,31.267404","wgs84Lng":121.485468,"wgs84Lat":31.267404,"__source_file__":"13-常用公服设施点/CSV/上海市_文化宫.csv"},"geometry":{"type":"Point","coordinates":[121.485468,31.267404]}},{"id":"412","type":"Feature","properties":{"id":"B0FFF5AYGX","name":"虹口少年宫","address":"模型运动馆附近","type":"科教文化服务;文化宫;文化宫","typecode":"140800","pcode":310000,"pname":"上海市","citycode":21,"cityname":"上海市","adcode":310109,"adname":"虹口区","business_area":"曲阳","location":"121.489992,31.265442","tel":"[]","bigType":"科教文化服务","midType":"文化宫","smallType":"文化宫","gcj_lng":121.489992,"gcj_lat":31.265442,"wgs84_loc":"121.485522,31.267415","wgs84Lng":121.485522,"wgs84Lat":31.267415,"__source_file__":"13-常用公服设施点/CSV/上海市_文化宫.csv"},"geometry":{"type":"Point","coordinates":[121.485522,31.267415]}},{"id":"375","type":"Feature","properties":{"id":"B00155HZPJ","name":"广中社区职工文化活动中心","address":"广中路123号广中社区文化活动中心","type":"科教文化服务;文化宫;文化宫","typecode":"140800","pcode":310000,"pname":"上海市","citycode":21,"cityname":"上海市","adcode":310109,"adname":"虹口区","business_area":"江湾","location":"121.478075,31.276326","tel":"[]","bigType":"科教文化服务","midType":"文化宫","smallType":"文化宫","gcj_lng":121.478075,"gcj_lat":31.276326,"wgs84_loc":"121.473562,31.27826","wgs84Lng":121.473562,"wgs84Lat":31.27826,"__source_file__":"13-常用公服设施点/CSV/上海市_文化宫.csv"},"geometry":{"type":"Point","coordinates":[121.473562,31.27826]}}],"name":"上海市_文化宫","crs":{"type":"name","properties":{"name":"urn:ogc:def:crs:OGC:1.3:CRS84"}}}