{"type":"FeatureCollection","features":[{"id":"182","type":"Feature","properties":{"id":"B0FFIAKD36","name":"兴业路123弄1-7号","address":"黄浦区","type":"地名地址信息;地名地址信息;地名地址信息","typecode":"190000","pcode":310000,"pname":"上海市","citycode":21,"cityname":"上海市","adcode":310101,"adname":"黄浦区","business_area":"淮海路","location":"121.475064,31.219815","tel":"[]","bigType":"地名地址信息","midType":"地名地址信息","smallType":"地名地址信息","gcj_lng":121.475064,"gcj_lat":31.219815,"wgs84_loc":"121.470546,31.221766","wgs84Lng":121.470546,"wgs84Lat":31.221766,"__source_file__":"13-常用公服设施点/CSV/上海市_地名地址信息.csv"},"geometry":{"type":"Point","coordinates":[121.470546,31.221766]}},{"id":"129","type":"Feature","properties":{"id":"B0FFIXRP12","name":"淡水路89弄13号楼","address":"黄浦区","type":"地名地址信息;地名地址信息;地名地址信息","typecode":"190000","pcode":310000,"pname":"上海市","citycode":21,"cityname":"上海市","adcode":310101,"adname":"黄浦区","business_area":"淮海路","location":"121.473256,31.221592","tel":"[]","bigType":"地名地址信息","midType":"地名地址信息","smallType":"地名地址信息","gcj_lng":121.473256,"gcj_lat":31.221592,"wgs84_loc":"121.468732,31.223537","wgs84Lng":121.468732,"wgs84Lat":31.223537,"__source_file__":"13-常用公服设施点/CSV/上海市_地名地址信息.csv"},"geometry":{"type":"Point","coordinates":[121.468732,31.223537]}},{"id":"219","type":"Feature","properties":{"id":"B0FFIXRLOS","name":"淮海东路89弄6号楼","address":"黄浦区","type":"地名地址信息;地名地址信息;地名地址信息","typecode":"190000","pcode":310000,"pname":"上海市","citycode":21,"cityname":"上海市","adcode":310101,"adname":"黄浦区","business_area":"城隍庙","location":"121.481916,31.225547","tel":"[]","bigType":"地名地址信息","midType":"地名地址信息","smallType":"地名地址信息","gcj_lng":121.481916,"gcj_lat":31.225547,"wgs84_loc":"121.477421,31.227515","wgs84Lng":121.477421,"wgs84Lat":31.227515,"__source_file__":"13-常用公服设施点/CSV/上海市_地名地址信息.csv"},"geometry":{"type":"Point","coordinates":[121.477421,31.227515]}},{"id":"512","type":"Feature","properties":{"id":"B0FFHYO6FZ","name":"云南南路261号401室","address":"黄浦区","type":"地名地址信息;地名地址信息;地名地址信息","typecode":"190000","pcode":310000,"pname":"上海市","citycode":21,"cityname":"上海市","adcode":310101,"adname":"黄浦区","business_area":"城隍庙","location":"121.482069,31.225902","tel":"[]","bigType":"地名地址信息","midType":"地名地址信息","smallType":"地名地址信息","gcj_lng":121.482069,"gcj_lat":31.225902,"wgs84_loc":"121.477574,31.22787","wgs84Lng":121.477574,"wgs84Lat":31.22787,"__source_file__":"13-常用公服设施点/CSV/上海市_地名地址信息.csv"},"geometry":{"type":"Point","coordinates":[121.477574,31.22787]}},{"id":"991","type":"Feature","properties":{"id":"B0FFLE4UD6","name":"福源一街","address":"黄浦区","type":"地名地址信息;地名地址信息;地名地址信息","typecode":"190000","pcode":310000,"pname":"上海市","citycode":21,"cityname":"上海市","adcode":310101,"adname":"黄浦区","business_area":"城隍庙","location":"121.489584,31.227774","tel":"[]","bigType":"地名地址信息","midType":"地名地址信息","smallType":"地名地址信息","gcj_lng":121.489584,"gcj_lat":31.227774,"wgs84_loc":"121.485116,31.229763","wgs84Lng":121.485116,"wgs84Lat":31.229763,"__source_file__":"13-常用公服设施点/CSV/上海市_地名地址信息.csv"},"geometry":{"type":"Point","coordinates":[121.485116,31.229763]}},{"id":"486","type":"Feature","properties":{"id":"B0FFI6BDQ1","name":"西藏中路336","address":"黄浦区","type":"地名地址信息;地名地址信息;地名地址信息","typecode":"190000","pcode":310000,"pname":"上海市","citycode":21,"cityname":"上海市","adcode":310101,"adname":"黄浦区","business_area":"北京东路","location":"121.476155,31.233840","tel":"[]","bigType":"地名地址信息","midType":"地名地址信息","smallType":"地名地址信息","gcj_lng":121.476155,"gcj_lat":31.23384,"wgs84_loc":"121.47164,31.235787","wgs84Lng":121.47164,"wgs84Lat":31.235787,"__source_file__":"13-常用公服设施点/CSV/上海市_地名地址信息.csv"},"geometry":{"type":"Point","coordinates":[121.47164,31.235787]}},{"id":"947","type":"Feature","properties":{"id":"B0FFIXQRMV","name":"淮海中路833弄7号楼","address":"黄浦区","type":"地名地址信息;地名地址信息;地名地址信息","typecode":"190000","pcode":310000,"pname":"上海市","citycode":21,"cityname":"上海市","adcode":310101,"adname":"黄浦区","business_area":"淮海路","location":"121.462558,31.217971","tel":"[]","bigType":"地名地址信息","midType":"地名地址信息","smallType":"地名地址信息","gcj_lng":121.462558,"gcj_lat":31.217971,"wgs84_loc":"121.458001,31.21989","wgs84Lng":121.458001,"wgs84Lat":31.21989,"__source_file__":"13-常用公服设施点/CSV/上海市_地名地址信息.csv"},"geometry":{"type":"Point","coordinates":[121.458001,31.21989]}},{"id":"746","type":"Feature","properties":{"id":"B0FFFDYVLE","name":"科学会堂8号楼","address":"黄浦区","type":"地名地址信息;地名地址信息;地名地址信息","typecode":"190000","pcode":310000,"pname":"上海市","citycode":21,"cityname":"上海市","adcode":310101,"adname":"黄浦区","business_area":"淮海路","location":"121.467101,31.218306","tel":"[]","bigType":"地名地址信息","midType":"地名地址信息","smallType":"地名地址信息","gcj_lng":121.467101,"gcj_lat":31.218306,"wgs84_loc":"121.462558,31.220236","wgs84Lng":121.462558,"wgs84Lat":31.220236,"__source_file__":"13-常用公服设施点/CSV/上海市_地名地址信息.csv"},"geometry":{"type":"Point","coordinates":[121.462558,31.220236]}},{"id":"364","type":"Feature","properties":{"id":"B0FFIAUY08","name":"威海路108号楼","address":"黄浦区","type":"地名地址信息;地名地址信息;地名地址信息","typecode":"190000","pcode":310000,"pname":"上海市","citycode":21,"cityname":"上海市","adcode":310101,"adname":"黄浦区","business_area":"北京东路","location":"121.469542,31.227797","tel":"[]","bigType":"地名地址信息","midType":"地名地址信息","smallType":"地名地址信息","gcj_lng":121.469542,"gcj_lat":31.227797,"wgs84_loc":"121.465006,31.229729","wgs84Lng":121.465006,"wgs84Lat":31.229729,"__source_file__":"13-常用公服设施点/CSV/上海市_地名地址信息.csv"},"geometry":{"type":"Point","coordinates":[121.465006,31.229729]}},{"id":"233","type":"Feature","properties":{"id":"B0FFIKCHWX","name":"南京西路591弄110号","address":"静安区","type":"地名地址信息;地名地址信息;地名地址信息","typecode":"190000","pcode":310000,"pname":"上海市","citycode":21,"cityname":"上海市","adcode":310106,"adname":"静安区","business_area":"淮海路","location":"121.465973,31.229261","tel":"[]","bigType":"地名地址信息","midType":"地名地址信息","smallType":"地名地址信息","gcj_lng":121.465973,"gcj_lat":31.229261,"wgs84_loc":"121.461426,31.231183","wgs84Lng":121.461426,"wgs84Lat":31.231183,"__source_file__":"13-常用公服设施点/CSV/上海市_地名地址信息.csv"},"geometry":{"type":"Point","coordinates":[121.461426,31.231183]}},{"id":"1332","type":"Feature","properties":{"id":"B0FFHZ42RL","name":"黄浦区长沙路177号","address":"黄浦区","type":"地名地址信息;地名地址信息;地名地址信息","typecode":"190000","pcode":310000,"pname":"上海市","citycode":21,"cityname":"上海市","adcode":310101,"adname":"黄浦区","business_area":"北京东路","location":"121.471076,31.238042","tel":"[]","bigType":"地名地址信息","midType":"地名地址信息","smallType":"地名地址信息","gcj_lng":121.471076,"gcj_lat":31.238042,"wgs84_loc":"121.466544,31.239974","wgs84Lng":121.466544,"wgs84Lat":31.239974,"__source_file__":"13-常用公服设施点/CSV/上海市_地名地址信息.csv"},"geometry":{"type":"Point","coordinates":[121.466544,31.239974]}},{"id":"1075","type":"Feature","properties":{"id":"B0FFG1NMY3","name":"新闸路444弄","address":"黄浦区","type":"地名地址信息;地名地址信息;地名地址信息","typecode":"190000","pcode":310000,"pname":"上海市","citycode":21,"cityname":"上海市","adcode":310101,"adname":"黄浦区","business_area":"北京东路","location":"121.465332,31.238691","tel":"[]","bigType":"地名地址信息","midType":"地名地址信息","smallType":"地名地址信息","gcj_lng":121.465332,"gcj_lat":31.238691,"wgs84_loc":"121.460782,31.240607","wgs84Lng":121.460782,"wgs84Lat":31.240607,"__source_file__":"13-常用公服设施点/CSV/上海市_地名地址信息.csv"},"geometry":{"type":"Point","coordinates":[121.460782,31.240607]}},{"id":"322","type":"Feature","properties":{"id":"B0FFIXQS44","name":"新昌路539弄14号","address":"黄浦区","type":"地名地址信息;地名地址信息;地名地址信息","typecode":"190000","pcode":310000,"pname":"上海市","citycode":21,"cityname":"上海市","adcode":310101,"adname":"黄浦区","business_area":"北京东路","location":"121.466254,31.239758","tel":"[]","bigType":"地名地址信息","midType":"地名地址信息","smallType":"地名地址信息","gcj_lng":121.466254,"gcj_lat":31.239758,"wgs84_loc":"121.461707,31.241676","wgs84Lng":121.461707,"wgs84Lat":31.241676,"__source_file__":"13-常用公服设施点/CSV/上海市_地名地址信息.csv"},"geometry":{"type":"Point","coordinates":[121.461707,31.241676]}},{"id":"550","type":"Feature","properties":{"id":"B0FFILFLCG","name":"梅园路35号","address":"静安区","type":"地名地址信息;地名地址信息;地名地址信息","typecode":"190000","pcode":310000,"pname":"上海市","citycode":21,"cityname":"上海市","adcode":310106,"adname":"静安区","business_area":"[]","location":"121.460653,31.241279","tel":"[]","bigType":"地名地址信息","midType":"地名地址信息","smallType":"地名地址信息","gcj_lng":121.460653,"gcj_lat":31.241279,"wgs84_loc":"121.456089,31.243183","wgs84Lng":121.456089,"wgs84Lat":31.243183,"__source_file__":"13-常用公服设施点/CSV/上海市_地名地址信息.csv"},"geometry":{"type":"Point","coordinates":[121.456089,31.243183]}},{"id":"145","type":"Feature","properties":{"id":"B0FFIXQGSP","name":"共和新路111弄9号楼","address":"静安区","type":"地名地址信息;地名地址信息;地名地址信息","typecode":"190000","pcode":310000,"pname":"上海市","citycode":21,"cityname":"上海市","adcode":310106,"adname":"静安区","business_area":"七浦路","location":"121.462963,31.243504","tel":"[]","bigType":"地名地址信息","midType":"地名地址信息","smallType":"地名地址信息","gcj_lng":121.462963,"gcj_lat":31.243504,"wgs84_loc":"121.458405,31.245412","wgs84Lng":121.458405,"wgs84Lat":31.245412,"__source_file__":"13-常用公服设施点/CSV/上海市_地名地址信息.csv"},"geometry":{"type":"Point","coordinates":[121.458405,31.245412]}},{"id":"29","type":"Feature","properties":{"id":"B0FFJLXNAR","name":"和园馨范南区23号楼","address":"静安区","type":"地名地址信息;地名地址信息;地名地址信息","typecode":"190000","pcode":310000,"pname":"上海市","citycode":21,"cityname":"上海市","adcode":310106,"adname":"静安区","business_area":"宝山路","location":"121.463778,31.247874","tel":"[]","bigType":"地名地址信息","midType":"地名地址信息","smallType":"地名地址信息","gcj_lng":121.463778,"gcj_lat":31.247874,"wgs84_loc":"121.459222,31.249782","wgs84Lng":121.459222,"wgs84Lat":31.249782,"__source_file__":"13-常用公服设施点/CSV/上海市_地名地址信息.csv"},"geometry":{"type":"Point","coordinates":[121.459222,31.249782]}},{"id":"513","type":"Feature","properties":{"id":"B0FFJCTSAF","name":"顺路直递","address":"黄浦区","type":"地名地址信息;地名地址信息;地名地址信息","typecode":"190000","pcode":310000,"pname":"上海市","citycode":21,"cityname":"上海市","adcode":310101,"adname":"黄浦区","business_area":"北京东路","location":"121.485133,31.235720","tel":"[]","bigType":"地名地址信息","midType":"地名地址信息","smallType":"地名地址信息","gcj_lng":121.485133,"gcj_lat":31.23572,"wgs84_loc":"121.480648,31.237692","wgs84Lng":121.480648,"wgs84Lat":31.237692,"__source_file__":"13-常用公服设施点/CSV/上海市_地名地址信息.csv"},"geometry":{"type":"Point","coordinates":[121.480648,31.237692]}},{"id":"521","type":"Feature","properties":{"id":"B0FFI9MUSH","name":"快客(四川北路店)","address":"虹口区","type":"地名地址信息;地名地址信息;地名地址信息","typecode":"190000","pcode":310000,"pname":"上海市","citycode":21,"cityname":"上海市","adcode":310109,"adname":"虹口区","business_area":"北外滩","location":"121.485767,31.244846","tel":"[]","bigType":"地名地址信息","midType":"地名地址信息","smallType":"地名地址信息","gcj_lng":121.485767,"gcj_lat":31.244846,"wgs84_loc":"121.481284,31.246816","wgs84Lng":121.481284,"wgs84Lat":31.246816,"__source_file__":"13-常用公服设施点/CSV/上海市_地名地址信息.csv"},"geometry":{"type":"Point","coordinates":[121.481284,31.246816]}},{"id":"849","type":"Feature","properties":{"id":"B0FFHISJQS","name":"堤防","address":"虹口区","type":"地名地址信息;地名地址信息;地名地址信息","typecode":"190000","pcode":310000,"pname":"上海市","citycode":21,"cityname":"上海市","adcode":310109,"adname":"虹口区","business_area":"北外滩","location":"121.489809,31.245562","tel":"[]","bigType":"地名地址信息","midType":"地名地址信息","smallType":"地名地址信息","gcj_lng":121.489809,"gcj_lat":31.245562,"wgs84_loc":"121.48534,31.247543","wgs84Lng":121.48534,"wgs84Lat":31.247543,"__source_file__":"13-常用公服设施点/CSV/上海市_地名地址信息.csv"},"geometry":{"type":"Point","coordinates":[121.48534,31.247543]}},{"id":"452","type":"Feature","properties":{"id":"B0FFIXQA6L","name":"东长治路299弄1号","address":"虹口区","type":"地名地址信息;地名地址信息;地名地址信息","typecode":"190000","pcode":310000,"pname":"上海市","citycode":21,"cityname":"上海市","adcode":310109,"adname":"虹口区","business_area":"提篮桥","location":"121.493936,31.248804","tel":"[]","bigType":"地名地址信息","midType":"地名地址信息","smallType":"地名地址信息","gcj_lng":121.493936,"gcj_lat":31.248804,"wgs84_loc":"121.489481,31.250796","wgs84Lng":121.489481,"wgs84Lat":31.250796,"__source_file__":"13-常用公服设施点/CSV/上海市_地名地址信息.csv"},"geometry":{"type":"Point","coordinates":[121.489481,31.250796]}},{"id":"508","type":"Feature","properties":{"id":"B0FFIXRPYF","name":"武进路297弄1号","address":"虹口区","type":"地名地址信息;地名地址信息;地名地址信息","typecode":"190000","pcode":310000,"pname":"上海市","citycode":21,"cityname":"上海市","adcode":310109,"adname":"虹口区","business_area":"七浦路","location":"121.485184,31.251604","tel":"[]","bigType":"地名地址信息","midType":"地名地址信息","smallType":"地名地址信息","gcj_lng":121.485184,"gcj_lat":31.251604,"wgs84_loc":"121.480698,31.253569","wgs84Lng":121.480698,"wgs84Lat":31.253569,"__source_file__":"13-常用公服设施点/CSV/上海市_地名地址信息.csv"},"geometry":{"type":"Point","coordinates":[121.480698,31.253569]}},{"id":"409","type":"Feature","properties":{"id":"B0FFHHU3C5","name":"艺术创客街","address":"虹口区","type":"地名地址信息;地名地址信息;地名地址信息","typecode":"190000","pcode":310000,"pname":"上海市","citycode":21,"cityname":"上海市","adcode":310109,"adname":"虹口区","business_area":"四平路","location":"121.489985,31.255798","tel":"[]","bigType":"地名地址信息","midType":"地名地址信息","smallType":"地名地址信息","gcj_lng":121.489985,"gcj_lat":31.255798,"wgs84_loc":"121.485516,31.257775","wgs84Lng":121.485516,"wgs84Lat":31.257775,"__source_file__":"13-常用公服设施点/CSV/上海市_地名地址信息.csv"},"geometry":{"type":"Point","coordinates":[121.485516,31.257775]}},{"id":"994","type":"Feature","properties":{"id":"B0FFIOBNP2","name":"体育彩票四川北路","address":"虹口区","type":"地名地址信息;地名地址信息;地名地址信息","typecode":"190000","pcode":310000,"pname":"上海市","citycode":21,"cityname":"上海市","adcode":310109,"adname":"虹口区","business_area":"[]","location":"121.487975,31.262981","tel":"[]","bigType":"地名地址信息","midType":"地名地址信息","smallType":"地名地址信息","gcj_lng":121.487975,"gcj_lat":31.262981,"wgs84_loc":"121.483498,31.264949","wgs84Lng":121.483498,"wgs84Lat":31.264949,"__source_file__":"13-常用公服设施点/CSV/上海市_地名地址信息.csv"},"geometry":{"type":"Point","coordinates":[121.483498,31.264949]}},{"id":"565","type":"Feature","properties":{"id":"B0FFKFZVVM","name":"四平路405号","address":"虹口区","type":"地名地址信息;地名地址信息;地名地址信息","typecode":"190000","pcode":310000,"pname":"上海市","citycode":21,"cityname":"上海市","adcode":310109,"adname":"虹口区","business_area":"曲阳","location":"121.492528,31.267315","tel":"[]","bigType":"地名地址信息","midType":"地名地址信息","smallType":"地名地址信息","gcj_lng":121.492528,"gcj_lat":31.267315,"wgs84_loc":"121.488067,31.269295","wgs84Lng":121.488067,"wgs84Lat":31.269295,"__source_file__":"13-常用公服设施点/CSV/上海市_地名地址信息.csv"},"geometry":{"type":"Point","coordinates":[121.488067,31.269295]}},{"id":"30","type":"Feature","properties":{"id":"B0FFIXRXPJ","name":"共和新路318弄2号楼","address":"静安区","type":"地名地址信息;地名地址信息;地名地址信息","typecode":"190000","pcode":310000,"pname":"上海市","citycode":21,"cityname":"上海市","adcode":310106,"adname":"静安区","business_area":"和田","location":"121.462451,31.248221","tel":"[]","bigType":"地名地址信息","midType":"地名地址信息","smallType":"地名地址信息","gcj_lng":121.462451,"gcj_lat":31.248221,"wgs84_loc":"121.457892,31.250126","wgs84Lng":121.457892,"wgs84Lat":31.250126,"__source_file__":"13-常用公服设施点/CSV/上海市_地名地址信息.csv"},"geometry":{"type":"Point","coordinates":[121.457892,31.250126]}},{"id":"352","type":"Feature","properties":{"id":"B0FFKOAD04","name":"王家宅路16号","address":"静安区","type":"地名地址信息;地名地址信息;地名地址信息","typecode":"190000","pcode":310000,"pname":"上海市","citycode":21,"cityname":"上海市","adcode":310106,"adname":"静安区","business_area":"宝山路","location":"121.473003,31.250964","tel":"[]","bigType":"地名地址信息","midType":"地名地址信息","smallType":"地名地址信息","gcj_lng":121.473003,"gcj_lat":31.250964,"wgs84_loc":"121.468476,31.252895","wgs84Lng":121.468476,"wgs84Lat":31.252895,"__source_file__":"13-常用公服设施点/CSV/上海市_地名地址信息.csv"},"geometry":{"type":"Point","coordinates":[121.468476,31.252895]}},{"id":"583","type":"Feature","properties":{"id":"B0FFGP12OP","name":"中兴路二店","address":"静安区","type":"地名地址信息;地名地址信息;地名地址信息","typecode":"190000","pcode":310000,"pname":"上海市","citycode":21,"cityname":"上海市","adcode":310106,"adname":"静安区","business_area":"宝山路","location":"121.462376,31.252459","tel":"[]","bigType":"地名地址信息","midType":"地名地址信息","smallType":"地名地址信息","gcj_lng":121.462376,"gcj_lat":31.252459,"wgs84_loc":"121.457816,31.254362","wgs84Lng":121.457816,"wgs84Lat":31.254362,"__source_file__":"13-常用公服设施点/CSV/上海市_地名地址信息.csv"},"geometry":{"type":"Point","coordinates":[121.457816,31.254362]}},{"id":"893","type":"Feature","properties":{"id":"B0FFIXQV4B","name":"共和新路635弄1号","address":"静安区","type":"地名地址信息;地名地址信息;地名地址信息","typecode":"190000","pcode":310000,"pname":"上海市","citycode":21,"cityname":"上海市","adcode":310106,"adname":"静安区","business_area":"宝山路","location":"121.464135,31.254413","tel":"[]","bigType":"地名地址信息","midType":"地名地址信息","smallType":"地名地址信息","gcj_lng":121.464135,"gcj_lat":31.254413,"wgs84_loc":"121.45958,31.256319","wgs84Lng":121.45958,"wgs84Lat":31.256319,"__source_file__":"13-常用公服设施点/CSV/上海市_地名地址信息.csv"},"geometry":{"type":"Point","coordinates":[121.45958,31.256319]}},{"id":"24","type":"Feature","properties":{"id":"B0FFI7W2KY","name":"临山路210号楼","address":"静安区","type":"地名地址信息;地名地址信息;地名地址信息","typecode":"190000","pcode":310000,"pname":"上海市","citycode":21,"cityname":"上海市","adcode":310106,"adname":"静安区","business_area":"宝山路","location":"121.473214,31.254529","tel":"[]","bigType":"地名地址信息","midType":"地名地址信息","smallType":"地名地址信息","gcj_lng":121.473214,"gcj_lat":31.254529,"wgs84_loc":"121.468687,31.256459","wgs84Lng":121.468687,"wgs84Lat":31.256459,"__source_file__":"13-常用公服设施点/CSV/上海市_地名地址信息.csv"},"geometry":{"type":"Point","coordinates":[121.468687,31.256459]}},{"id":"1007","type":"Feature","properties":{"id":"B0FFIXQ6C1","name":"中华新路455弄16号","address":"静安区","type":"地名地址信息;地名地址信息;地名地址信息","typecode":"190000","pcode":310000,"pname":"上海市","citycode":21,"cityname":"上海市","adcode":310106,"adname":"静安区","business_area":"宝山路","location":"121.467399,31.255030","tel":"[]","bigType":"地名地址信息","midType":"地名地址信息","smallType":"地名地址信息","gcj_lng":121.467399,"gcj_lat":31.25503,"wgs84_loc":"121.462854,31.256944","wgs84Lng":121.462854,"wgs84Lat":31.256944,"__source_file__":"13-常用公服设施点/CSV/上海市_地名地址信息.csv"},"geometry":{"type":"Point","coordinates":[121.462854,31.256944]}},{"id":"27","type":"Feature","properties":{"id":"B0FFIXS3UC","name":"南山路151弄1号楼","address":"静安区","type":"地名地址信息;地名地址信息;地名地址信息","typecode":"190000","pcode":310000,"pname":"上海市","citycode":21,"cityname":"上海市","adcode":310106,"adname":"静安区","business_area":"宝山路","location":"121.464428,31.256912","tel":"[]","bigType":"地名地址信息","midType":"地名地址信息","smallType":"地名地址信息","gcj_lng":121.464428,"gcj_lat":31.256912,"wgs84_loc":"121.459874,31.258818","wgs84Lng":121.459874,"wgs84Lat":31.258818,"__source_file__":"13-常用公服设施点/CSV/上海市_地名地址信息.csv"},"geometry":{"type":"Point","coordinates":[121.459874,31.258818]}},{"id":"28","type":"Feature","properties":{"id":"B0FFIXS4GO","name":"南山路35弄4号楼","address":"静安区","type":"地名地址信息;地名地址信息;地名地址信息","typecode":"190000","pcode":310000,"pname":"上海市","citycode":21,"cityname":"上海市","adcode":310106,"adname":"静安区","business_area":"和田","location":"121.466705,31.257537","tel":"[]","bigType":"地名地址信息","midType":"地名地址信息","smallType":"地名地址信息","gcj_lng":121.466705,"gcj_lat":31.257537,"wgs84_loc":"121.462157,31.259449","wgs84Lng":121.462157,"wgs84Lat":31.259449,"__source_file__":"13-常用公服设施点/CSV/上海市_地名地址信息.csv"},"geometry":{"type":"Point","coordinates":[121.462157,31.259449]}},{"id":"764","type":"Feature","properties":{"id":"B0FFIXRGWZ","name":"宝昌路610弄3号楼","address":"静安区","type":"地名地址信息;地名地址信息;地名地址信息","typecode":"190000","pcode":310000,"pname":"上海市","citycode":21,"cityname":"上海市","adcode":310106,"adname":"静安区","business_area":"宝山路","location":"121.471807,31.260616","tel":"[]","bigType":"地名地址信息","midType":"地名地址信息","smallType":"地名地址信息","gcj_lng":121.471807,"gcj_lat":31.260616,"wgs84_loc":"121.467275,31.26254","wgs84Lng":121.467275,"wgs84Lat":31.26254,"__source_file__":"13-常用公服设施点/CSV/上海市_地名地址信息.csv"},"geometry":{"type":"Point","coordinates":[121.467275,31.26254]}},{"id":"536","type":"Feature","properties":{"id":"B0FFIXRO32","name":"宝昌路610弄2号","address":"静安区","type":"地名地址信息;地名地址信息;地名地址信息","typecode":"190000","pcode":310000,"pname":"上海市","citycode":21,"cityname":"上海市","adcode":310106,"adname":"静安区","business_area":"和田","location":"121.471927,31.260671","tel":"[]","bigType":"地名地址信息","midType":"地名地址信息","smallType":"地名地址信息","gcj_lng":121.471927,"gcj_lat":31.260671,"wgs84_loc":"121.467396,31.262595","wgs84Lng":121.467396,"wgs84Lat":31.262595,"__source_file__":"13-常用公服设施点/CSV/上海市_地名地址信息.csv"},"geometry":{"type":"Point","coordinates":[121.467396,31.262595]}},{"id":"1324","type":"Feature","properties":{"id":"B0FFI9CLDS","name":"依视路","address":"静安区","type":"地名地址信息;地名地址信息;地名地址信息","typecode":"190000","pcode":310000,"pname":"上海市","citycode":21,"cityname":"上海市","adcode":310106,"adname":"静安区","business_area":"和田","location":"121.468739,31.261868","tel":"[]","bigType":"地名地址信息","midType":"地名地址信息","smallType":"地名地址信息","gcj_lng":121.468739,"gcj_lat":31.261868,"wgs84_loc":"121.464197,31.263783","wgs84Lng":121.464197,"wgs84Lat":31.263783,"__source_file__":"13-常用公服设施点/CSV/上海市_地名地址信息.csv"},"geometry":{"type":"Point","coordinates":[121.464197,31.263783]}},{"id":"1174","type":"Feature","properties":{"id":"B0FFIXRD3P","name":"和田路118弄1号","address":"静安区","type":"地名地址信息;地名地址信息;地名地址信息","typecode":"190000","pcode":310000,"pname":"上海市","citycode":21,"cityname":"上海市","adcode":310106,"adname":"静安区","business_area":"和田","location":"121.463791,31.264324","tel":"[]","bigType":"地名地址信息","midType":"地名地址信息","smallType":"地名地址信息","gcj_lng":121.463791,"gcj_lat":31.264324,"wgs84_loc":"121.459234,31.266225","wgs84Lng":121.459234,"wgs84Lat":31.266225,"__source_file__":"13-常用公服设施点/CSV/上海市_地名地址信息.csv"},"geometry":{"type":"Point","coordinates":[121.459234,31.266225]}},{"id":"303","type":"Feature","properties":{"id":"B0FFIXRC57","name":"和田路441弄3号楼","address":"静安区","type":"地名地址信息;地名地址信息;地名地址信息","typecode":"190000","pcode":310000,"pname":"上海市","citycode":21,"cityname":"上海市","adcode":310106,"adname":"静安区","business_area":"和田","location":"121.459464,31.267681","tel":"[]","bigType":"地名地址信息","midType":"地名地址信息","smallType":"地名地址信息","gcj_lng":121.459464,"gcj_lat":31.267681,"wgs84_loc":"121.454894,31.26957","wgs84Lng":121.454894,"wgs84Lat":31.26957,"__source_file__":"13-常用公服设施点/CSV/上海市_地名地址信息.csv"},"geometry":{"type":"Point","coordinates":[121.454894,31.26957]}},{"id":"413","type":"Feature","properties":{"id":"B0FFGTUTZL","name":"柳营路309弄15号楼","address":"静安区","type":"地名地址信息;地名地址信息;地名地址信息","typecode":"190000","pcode":310000,"pname":"上海市","citycode":21,"cityname":"上海市","adcode":310106,"adname":"静安区","business_area":"和田","location":"121.463346,31.268773","tel":"[]","bigType":"地名地址信息","midType":"地名地址信息","smallType":"地名地址信息","gcj_lng":121.463346,"gcj_lat":31.268773,"wgs84_loc":"121.458787,31.270671","wgs84Lng":121.458787,"wgs84Lat":31.270671,"__source_file__":"13-常用公服设施点/CSV/上海市_地名地址信息.csv"},"geometry":{"type":"Point","coordinates":[121.458787,31.270671]}},{"id":"234","type":"Feature","properties":{"id":"B0FFIXRR5W","name":"洛川东路352弄5号楼","address":"静安区","type":"地名地址信息;地名地址信息;地名地址信息","typecode":"190000","pcode":310000,"pname":"上海市","citycode":21,"cityname":"上海市","adcode":310106,"adname":"静安区","business_area":"和田","location":"121.462289,31.269877","tel":"[]","bigType":"地名地址信息","midType":"地名地址信息","smallType":"地名地址信息","gcj_lng":121.462289,"gcj_lat":31.269877,"wgs84_loc":"121.457727,31.271772","wgs84Lng":121.457727,"wgs84Lat":31.271772,"__source_file__":"13-常用公服设施点/CSV/上海市_地名地址信息.csv"},"geometry":{"type":"Point","coordinates":[121.457727,31.271772]}},{"id":"235","type":"Feature","properties":{"id":"B0FFFA1AB4","name":"洛川东路320弄5号楼","address":"静安区","type":"地名地址信息;地名地址信息;地名地址信息","typecode":"190000","pcode":310000,"pname":"上海市","citycode":21,"cityname":"上海市","adcode":310106,"adname":"静安区","business_area":"和田","location":"121.462460,31.270129","tel":"[]","bigType":"地名地址信息","midType":"地名地址信息","smallType":"地名地址信息","gcj_lng":121.46246,"gcj_lat":31.270129,"wgs84_loc":"121.457899,31.272025","wgs84Lng":121.457899,"wgs84Lat":31.272025,"__source_file__":"13-常用公服设施点/CSV/上海市_地名地址信息.csv"},"geometry":{"type":"Point","coordinates":[121.457899,31.272025]}},{"id":"587","type":"Feature","properties":{"id":"B0FFIXRLIT","name":"平型关路450弄2号楼","address":"静安区","type":"地名地址信息;地名地址信息;地名地址信息","typecode":"190000","pcode":310000,"pname":"上海市","citycode":21,"cityname":"上海市","adcode":310106,"adname":"静安区","business_area":"和田","location":"121.462009,31.272639","tel":"[]","bigType":"地名地址信息","midType":"地名地址信息","smallType":"地名地址信息","gcj_lng":121.462009,"gcj_lat":31.272639,"wgs84_loc":"121.457446,31.274532","wgs84Lng":121.457446,"wgs84Lat":31.274532,"__source_file__":"13-常用公服设施点/CSV/上海市_地名地址信息.csv"},"geometry":{"type":"Point","coordinates":[121.457446,31.274532]}},{"id":"436","type":"Feature","properties":{"id":"B0FFJ186ZK","name":"平型关路450弄1号楼","address":"静安区","type":"地名地址信息;地名地址信息;地名地址信息","typecode":"190000","pcode":310000,"pname":"上海市","citycode":21,"cityname":"上海市","adcode":310106,"adname":"静安区","business_area":"和田","location":"121.462149,31.272710","tel":"[]","bigType":"地名地址信息","midType":"地名地址信息","smallType":"地名地址信息","gcj_lng":121.462149,"gcj_lat":31.27271,"wgs84_loc":"121.457587,31.274604","wgs84Lng":121.457587,"wgs84Lat":31.274604,"__source_file__":"13-常用公服设施点/CSV/上海市_地名地址信息.csv"},"geometry":{"type":"Point","coordinates":[121.457587,31.274604]}},{"id":"750","type":"Feature","properties":{"id":"B0FFIKAFNF","name":"株洲路258弄1-24号","address":"虹口区","type":"地名地址信息;地名地址信息;地名地址信息","typecode":"190000","pcode":310000,"pname":"上海市","citycode":21,"cityname":"上海市","adcode":310109,"adname":"虹口区","business_area":"和田","location":"121.465411,31.276559","tel":"[]","bigType":"地名地址信息","midType":"地名地址信息","smallType":"地名地址信息","gcj_lng":121.465411,"gcj_lat":31.276559,"wgs84_loc":"121.460858,31.278459","wgs84Lng":121.460858,"wgs84Lat":31.278459,"__source_file__":"13-常用公服设施点/CSV/上海市_地名地址信息.csv"},"geometry":{"type":"Point","coordinates":[121.460858,31.278459]}},{"id":"338","type":"Feature","properties":{"id":"B0FFKJ7C98","name":"祥德路12弄","address":"虹口区","type":"地名地址信息;地名地址信息;地名地址信息","typecode":"190000","pcode":310000,"pname":"上海市","citycode":21,"cityname":"上海市","adcode":310109,"adname":"虹口区","business_area":"曲阳","location":"121.485098,31.269610","tel":"[]","bigType":"地名地址信息","midType":"地名地址信息","smallType":"地名地址信息","gcj_lng":121.485098,"gcj_lat":31.26961,"wgs84_loc":"121.48061,31.271567","wgs84Lng":121.48061,"wgs84Lat":31.271567,"__source_file__":"13-常用公服设施点/CSV/上海市_地名地址信息.csv"},"geometry":{"type":"Point","coordinates":[121.48061,31.271567]}},{"id":"737","type":"Feature","properties":{"id":"B0GU97VJK5","name":"中山北一路140弄","address":"虹口区","type":"地名地址信息;地名地址信息;地名地址信息","typecode":"190000","pcode":310000,"pname":"上海市","citycode":21,"cityname":"上海市","adcode":310109,"adname":"虹口区","business_area":"和田","location":"121.477794,31.271988","tel":"[]","bigType":"地名地址信息","midType":"地名地址信息","smallType":"地名地址信息","gcj_lng":121.477794,"gcj_lat":31.271988,"wgs84_loc":"121.473281,31.273923","wgs84Lng":121.473281,"wgs84Lat":31.273923,"__source_file__":"13-常用公服设施点/CSV/上海市_地名地址信息.csv"},"geometry":{"type":"Point","coordinates":[121.473281,31.273923]}},{"id":"484","type":"Feature","properties":{"id":"B0FFG4H095","name":"中山北一路131弄1-1号","address":"虹口区","type":"地名地址信息;地名地址信息;地名地址信息","typecode":"190000","pcode":310000,"pname":"上海市","citycode":21,"cityname":"上海市","adcode":310109,"adname":"虹口区","business_area":"江湾","location":"121.475900,31.272883","tel":"[]","bigType":"地名地址信息","midType":"地名地址信息","smallType":"地名地址信息","gcj_lng":121.4759,"gcj_lat":31.272883,"wgs84_loc":"121.471381,31.274813","wgs84Lng":121.471381,"wgs84Lat":31.274813,"__source_file__":"13-常用公服设施点/CSV/上海市_地名地址信息.csv"},"geometry":{"type":"Point","coordinates":[121.471381,31.274813]}},{"id":"1152","type":"Feature","properties":{"id":"B0FFIQCZC6","name":"陕西南路188弄","address":"徐汇区","type":"地名地址信息;地名地址信息;地名地址信息","typecode":"190000","pcode":310000,"pname":"上海市","citycode":21,"cityname":"上海市","adcode":310104,"adname":"徐汇区","business_area":"淮海路","location":"121.457801,31.219061","tel":"[]","bigType":"地名地址信息","midType":"地名地址信息","smallType":"地名地址信息","gcj_lng":121.457801,"gcj_lat":31.219061,"wgs84_loc":"121.453231,31.220968","wgs84Lng":121.453231,"wgs84Lat":31.220968,"__source_file__":"13-常用公服设施点/CSV/上海市_地名地址信息.csv"},"geometry":{"type":"Point","coordinates":[121.453231,31.220968]}},{"id":"569","type":"Feature","properties":{"id":"B0FFIXQYP1","name":"巨鹿路697弄4号楼","address":"静安区","type":"地名地址信息;地名地址信息;地名地址信息","typecode":"190000","pcode":310000,"pname":"上海市","citycode":21,"cityname":"上海市","adcode":310106,"adname":"静安区","business_area":"淮海路","location":"121.454911,31.220943","tel":"[]","bigType":"地名地址信息","midType":"地名地址信息","smallType":"地名地址信息","gcj_lng":121.454911,"gcj_lat":31.220943,"wgs84_loc":"121.450333,31.222843","wgs84Lng":121.450333,"wgs84Lat":31.222843,"__source_file__":"13-常用公服设施点/CSV/上海市_地名地址信息.csv"},"geometry":{"type":"Point","coordinates":[121.450333,31.222843]}},{"id":"952","type":"Feature","properties":{"id":"B0FFIYV2DE","name":"优秀历史建筑威海路651号","address":"静安区","type":"地名地址信息;地名地址信息;地名地址信息","typecode":"190000","pcode":310000,"pname":"上海市","citycode":21,"cityname":"上海市","adcode":310106,"adname":"静安区","business_area":"淮海路","location":"121.459211,31.226346","tel":"[]","bigType":"地名地址信息","midType":"地名地址信息","smallType":"地名地址信息","gcj_lng":121.459211,"gcj_lat":31.226346,"wgs84_loc":"121.454644,31.228253","wgs84Lng":121.454644,"wgs84Lat":31.228253,"__source_file__":"13-常用公服设施点/CSV/上海市_地名地址信息.csv"},"geometry":{"type":"Point","coordinates":[121.454644,31.228253]}},{"id":"681","type":"Feature","properties":{"id":"B0FFIXRYG8","name":"陕西北路186号楼","address":"静安区","type":"地名地址信息;地名地址信息;地名地址信息","typecode":"190000","pcode":310000,"pname":"上海市","citycode":21,"cityname":"上海市","adcode":310106,"adname":"静安区","business_area":"淮海路","location":"121.455778,31.226880","tel":"[]","bigType":"地名地址信息","midType":"地名地址信息","smallType":"地名地址信息","gcj_lng":121.455778,"gcj_lat":31.22688,"wgs84_loc":"121.451202,31.228779","wgs84Lng":121.451202,"wgs84Lat":31.228779,"__source_file__":"13-常用公服设施点/CSV/上海市_地名地址信息.csv"},"geometry":{"type":"Point","coordinates":[121.451202,31.228779]}},{"id":"1309","type":"Feature","properties":{"id":"B0FFKPVNSF","name":"常德路545弄小区171号楼","address":"静安区","type":"地名地址信息;地名地址信息;地名地址信息","typecode":"190000","pcode":310000,"pname":"上海市","citycode":21,"cityname":"上海市","adcode":310106,"adname":"静安区","business_area":"曹家渡","location":"121.444590,31.229259","tel":"[]","bigType":"地名地址信息","midType":"地名地址信息","smallType":"地名地址信息","gcj_lng":121.44459,"gcj_lat":31.229259,"wgs84_loc":"121.439986,31.231134","wgs84Lng":121.439986,"wgs84Lat":31.231134,"__source_file__":"13-常用公服设施点/CSV/上海市_地名地址信息.csv"},"geometry":{"type":"Point","coordinates":[121.439986,31.231134]}},{"id":"336","type":"Feature","properties":{"id":"B0FFJWZPUS","name":"静安枫景苑1号楼","address":"静安区","type":"地名地址信息;地名地址信息;地名地址信息","typecode":"190000","pcode":310000,"pname":"上海市","citycode":21,"cityname":"上海市","adcode":310106,"adname":"静安区","business_area":"曹家渡","location":"121.447576,31.230471","tel":"[]","bigType":"地名地址信息","midType":"地名地址信息","smallType":"地名地址信息","gcj_lng":121.447576,"gcj_lat":31.230471,"wgs84_loc":"121.442979,31.232351","wgs84Lng":121.442979,"wgs84Lat":31.232351,"__source_file__":"13-常用公服设施点/CSV/上海市_地名地址信息.csv"},"geometry":{"type":"Point","coordinates":[121.442979,31.232351]}},{"id":"1157","type":"Feature","properties":{"id":"B0FFJ383LZ","name":"延平路237号2号楼","address":"静安区","type":"地名地址信息;地名地址信息;地名地址信息","typecode":"190000","pcode":310000,"pname":"上海市","citycode":21,"cityname":"上海市","adcode":310106,"adname":"静安区","business_area":"曹家渡","location":"121.439619,31.230643","tel":"[]","bigType":"地名地址信息","midType":"地名地址信息","smallType":"地名地址信息","gcj_lng":121.439619,"gcj_lat":31.230643,"wgs84_loc":"121.435005,31.232509","wgs84Lng":121.435005,"wgs84Lat":31.232509,"__source_file__":"13-常用公服设施点/CSV/上海市_地名地址信息.csv"},"geometry":{"type":"Point","coordinates":[121.435005,31.232509]}},{"id":"307","type":"Feature","properties":{"id":"B0FFJ3A616","name":"延平路237弄2-8号2号楼","address":"静安区","type":"地名地址信息;地名地址信息;地名地址信息","typecode":"190000","pcode":310000,"pname":"上海市","citycode":21,"cityname":"上海市","adcode":310106,"adname":"静安区","business_area":"曹家渡","location":"121.439555,31.230648","tel":"[]","bigType":"地名地址信息","midType":"地名地址信息","smallType":"地名地址信息","gcj_lng":121.439555,"gcj_lat":31.230648,"wgs84_loc":"121.434941,31.232514","wgs84Lng":121.434941,"wgs84Lat":31.232514,"__source_file__":"13-常用公服设施点/CSV/上海市_地名地址信息.csv"},"geometry":{"type":"Point","coordinates":[121.434941,31.232514]}},{"id":"466","type":"Feature","properties":{"id":"B0FFKWQEB5","name":"昌平路888号","address":"静安区","type":"地名地址信息;地名地址信息;地名地址信息","typecode":"190000","pcode":310000,"pname":"上海市","citycode":21,"cityname":"上海市","adcode":310106,"adname":"静安区","business_area":"曹家渡","location":"121.439376,31.233536","tel":"[]","bigType":"地名地址信息","midType":"地名地址信息","smallType":"地名地址信息","gcj_lng":121.439376,"gcj_lat":31.233536,"wgs84_loc":"121.434761,31.2354","wgs84Lng":121.434761,"wgs84Lat":31.2354,"__source_file__":"13-常用公服设施点/CSV/上海市_地名地址信息.csv"},"geometry":{"type":"Point","coordinates":[121.434761,31.2354]}},{"id":"917","type":"Feature","properties":{"id":"B0FFLC3HSP","name":"余姚路500弄2号","address":"静安区","type":"地名地址信息;地名地址信息;地名地址信息","typecode":"190000","pcode":310000,"pname":"上海市","citycode":21,"cityname":"上海市","adcode":310106,"adname":"静安区","business_area":"曹家渡","location":"121.434182,31.233936","tel":"[]","bigType":"地名地址信息","midType":"地名地址信息","smallType":"地名地址信息","gcj_lng":121.434182,"gcj_lat":31.233936,"wgs84_loc":"121.429558,31.235792","wgs84Lng":121.429558,"wgs84Lat":31.235792,"__source_file__":"13-常用公服设施点/CSV/上海市_地名地址信息.csv"},"geometry":{"type":"Point","coordinates":[121.429558,31.235792]}},{"id":"620","type":"Feature","properties":{"id":"B0G3AGBDGT","name":"舒痒耳道(静安区安远路店)","address":"静安区","type":"地名地址信息;地名地址信息;地名地址信息","typecode":"190000","pcode":310000,"pname":"上海市","citycode":21,"cityname":"上海市","adcode":310106,"adname":"静安区","business_area":"曹家渡","location":"121.437540,31.236325","tel":"[]","bigType":"地名地址信息","midType":"地名地址信息","smallType":"地名地址信息","gcj_lng":121.43754,"gcj_lat":31.236325,"wgs84_loc":"121.432921,31.238185","wgs84Lng":121.432921,"wgs84Lat":31.238185,"__source_file__":"13-常用公服设施点/CSV/上海市_地名地址信息.csv"},"geometry":{"type":"Point","coordinates":[121.432921,31.238185]}},{"id":"304","type":"Feature","properties":{"id":"B0FFLFTLC3","name":"舒心耳道","address":"静安区","type":"地名地址信息;地名地址信息;地名地址信息","typecode":"190000","pcode":310000,"pname":"上海市","citycode":21,"cityname":"上海市","adcode":310106,"adname":"静安区","business_area":"曹家渡","location":"121.437571,31.236345","tel":"[]","bigType":"地名地址信息","midType":"地名地址信息","smallType":"地名地址信息","gcj_lng":121.437571,"gcj_lat":31.236345,"wgs84_loc":"121.432952,31.238205","wgs84Lng":121.432952,"wgs84Lat":31.238205,"__source_file__":"13-常用公服设施点/CSV/上海市_地名地址信息.csv"},"geometry":{"type":"Point","coordinates":[121.432952,31.238205]}},{"id":"787","type":"Feature","properties":{"id":"B0FFIXQKAJ","name":"胶州路1118弄14号","address":"普陀区","type":"地名地址信息;地名地址信息;地名地址信息","typecode":"190000","pcode":310000,"pname":"上海市","citycode":21,"cityname":"上海市","adcode":310107,"adname":"普陀区","business_area":"曹家渡","location":"121.434786,31.240323","tel":"[]","bigType":"地名地址信息","midType":"地名地址信息","smallType":"地名地址信息","gcj_lng":121.434786,"gcj_lat":31.240323,"wgs84_loc":"121.430162,31.242177","wgs84Lng":121.430162,"wgs84Lat":31.242177,"__source_file__":"13-常用公服设施点/CSV/上海市_地名地址信息.csv"},"geometry":{"type":"Point","coordinates":[121.430162,31.242177]}},{"id":"417","type":"Feature","properties":{"id":"B0FFIXR6LF","name":"宜昌路715弄3号","address":"普陀区","type":"地名地址信息;地名地址信息;地名地址信息","typecode":"190000","pcode":310000,"pname":"上海市","citycode":21,"cityname":"上海市","adcode":310107,"adname":"普陀区","business_area":"曹家渡","location":"121.431899,31.241961","tel":"[]","bigType":"地名地址信息","midType":"地名地址信息","smallType":"地名地址信息","gcj_lng":121.431899,"gcj_lat":31.241961,"wgs84_loc":"121.42727,31.24381","wgs84Lng":121.42727,"wgs84Lat":31.24381,"__source_file__":"13-常用公服设施点/CSV/上海市_地名地址信息.csv"},"geometry":{"type":"Point","coordinates":[121.42727,31.24381]}},{"id":"288","type":"Feature","properties":{"id":"B0FFFOX7H4","name":"常德路1393弄10号楼","address":"普陀区","type":"地名地址信息;地名地址信息;地名地址信息","typecode":"190000","pcode":310000,"pname":"上海市","citycode":21,"cityname":"上海市","adcode":310107,"adname":"普陀区","business_area":"光新","location":"121.432396,31.242146","tel":"[]","bigType":"地名地址信息","midType":"地名地址信息","smallType":"地名地址信息","gcj_lng":121.432396,"gcj_lat":31.242146,"wgs84_loc":"121.427768,31.243996","wgs84Lng":121.427768,"wgs84Lat":31.243996,"__source_file__":"13-常用公服设施点/CSV/上海市_地名地址信息.csv"},"geometry":{"type":"Point","coordinates":[121.427768,31.243996]}},{"id":"1066","type":"Feature","properties":{"id":"B0FFF52GCI","name":"石泉六村39号楼","address":"普陀区","type":"地名地址信息;地名地址信息;地名地址信息","typecode":"190000","pcode":310000,"pname":"上海市","citycode":21,"cityname":"上海市","adcode":310107,"adname":"普陀区","business_area":"光新","location":"121.427469,31.254239","tel":"[]","bigType":"地名地址信息","midType":"地名地址信息","smallType":"地名地址信息","gcj_lng":121.427469,"gcj_lat":31.254239,"wgs84_loc":"121.422833,31.256077","wgs84Lng":121.422833,"wgs84Lat":31.256077,"__source_file__":"13-常用公服设施点/CSV/上海市_地名地址信息.csv"},"geometry":{"type":"Point","coordinates":[121.422833,31.256077]}},{"id":"836","type":"Feature","properties":{"id":"B0FFKGFN9L","name":"香溢花城2期88号楼","address":"普陀区","type":"地名地址信息;地名地址信息;地名地址信息","typecode":"190000","pcode":310000,"pname":"上海市","citycode":21,"cityname":"上海市","adcode":310107,"adname":"普陀区","business_area":"大宁路","location":"121.437199,31.255538","tel":"[]","bigType":"地名地址信息","midType":"地名地址信息","smallType":"地名地址信息","gcj_lng":121.437199,"gcj_lat":31.255538,"wgs84_loc":"121.432578,31.257389","wgs84Lng":121.432578,"wgs84Lat":31.257389,"__source_file__":"13-常用公服设施点/CSV/上海市_地名地址信息.csv"},"geometry":{"type":"Point","coordinates":[121.432578,31.257389]}},{"id":"882","type":"Feature","properties":{"id":"B0FFHISCWP","name":"泰兴路353号","address":"静安区","type":"地名地址信息;地名地址信息;地名地址信息","typecode":"190000","pcode":310000,"pname":"上海市","citycode":21,"cityname":"上海市","adcode":310106,"adname":"静安区","business_area":"淮海路","location":"121.457335,31.232316","tel":"[]","bigType":"地名地址信息","midType":"地名地址信息","smallType":"地名地址信息","gcj_lng":121.457335,"gcj_lat":31.232316,"wgs84_loc":"121.452762,31.234216","wgs84Lng":121.452762,"wgs84Lat":31.234216,"__source_file__":"13-常用公服设施点/CSV/上海市_地名地址信息.csv"},"geometry":{"type":"Point","coordinates":[121.452762,31.234216]}},{"id":"580","type":"Feature","properties":{"id":"B0FFIKCLFC","name":"陕西北路721弄4号","address":"静安区","type":"地名地址信息;地名地址信息;地名地址信息","typecode":"190000","pcode":310000,"pname":"上海市","citycode":21,"cityname":"上海市","adcode":310106,"adname":"静安区","business_area":"曹家渡","location":"121.450314,31.233895","tel":"[]","bigType":"地名地址信息","midType":"地名地址信息","smallType":"地名地址信息","gcj_lng":121.450314,"gcj_lat":31.233895,"wgs84_loc":"121.445723,31.235779","wgs84Lng":121.445723,"wgs84Lat":31.235779,"__source_file__":"13-常用公服设施点/CSV/上海市_地名地址信息.csv"},"geometry":{"type":"Point","coordinates":[121.445723,31.235779]}},{"id":"650","type":"Feature","properties":{"id":"B0FFIXQ91Q","name":"昌化路600弄2号楼","address":"静安区","type":"地名地址信息;地名地址信息;地名地址信息","typecode":"190000","pcode":310000,"pname":"上海市","citycode":21,"cityname":"上海市","adcode":310106,"adname":"静安区","business_area":"曹家渡","location":"121.448589,31.241264","tel":"[]","bigType":"地名地址信息","midType":"地名地址信息","smallType":"地名地址信息","gcj_lng":121.448589,"gcj_lat":31.241264,"wgs84_loc":"121.443993,31.243141","wgs84Lng":121.443993,"wgs84Lat":31.243141,"__source_file__":"13-常用公服设施点/CSV/上海市_地名地址信息.csv"},"geometry":{"type":"Point","coordinates":[121.443993,31.243141]}},{"id":"279","type":"Feature","properties":{"id":"B0FFK1Q7WJ","name":"长寿路189号b119","address":"普陀区","type":"地名地址信息;地名地址信息;地名地址信息","typecode":"190000","pcode":310000,"pname":"上海市","citycode":21,"cityname":"上海市","adcode":310107,"adname":"普陀区","business_area":"曹家渡","location":"121.440697,31.242047","tel":"[]","bigType":"地名地址信息","midType":"地名地址信息","smallType":"地名地址信息","gcj_lng":121.440697,"gcj_lat":31.242047,"wgs84_loc":"121.436084,31.24391","wgs84Lng":121.436084,"wgs84Lat":31.24391,"__source_file__":"13-常用公服设施点/CSV/上海市_地名地址信息.csv"},"geometry":{"type":"Point","coordinates":[121.436084,31.24391]}},{"id":"610","type":"Feature","properties":{"id":"B0FFIXQY3J","name":"长寿路28弄10号楼","address":"普陀区","type":"地名地址信息;地名地址信息;地名地址信息","typecode":"190000","pcode":310000,"pname":"上海市","citycode":21,"cityname":"上海市","adcode":310107,"adname":"普陀区","business_area":"光新","location":"121.446851,31.245267","tel":"[]","bigType":"地名地址信息","midType":"地名地址信息","smallType":"地名地址信息","gcj_lng":121.446851,"gcj_lat":31.245267,"wgs84_loc":"121.442251,31.247139","wgs84Lng":121.442251,"wgs84Lat":31.247139,"__source_file__":"13-常用公服设施点/CSV/上海市_地名地址信息.csv"},"geometry":{"type":"Point","coordinates":[121.442251,31.247139]}},{"id":"31","type":"Feature","properties":{"id":"B0FFKTJTDR","name":"澳门路58弄27号楼","address":"普陀区","type":"地名地址信息;地名地址信息;地名地址信息","typecode":"190000","pcode":310000,"pname":"上海市","citycode":21,"cityname":"上海市","adcode":310107,"adname":"普陀区","business_area":"光新","location":"121.447104,31.247819","tel":"[]","bigType":"地名地址信息","midType":"地名地址信息","smallType":"地名地址信息","gcj_lng":121.447104,"gcj_lat":31.247819,"wgs84_loc":"121.442504,31.24969","wgs84Lng":121.442504,"wgs84Lat":31.24969,"__source_file__":"13-常用公服设施点/CSV/上海市_地名地址信息.csv"},"geometry":{"type":"Point","coordinates":[121.442504,31.24969]}},{"id":"88","type":"Feature","properties":{"id":"B0FFH10O23","name":"远景路97弄15","address":"普陀区","type":"地名地址信息;地名地址信息;地名地址信息","typecode":"190000","pcode":310000,"pname":"上海市","citycode":21,"cityname":"上海市","adcode":310107,"adname":"普陀区","business_area":"光新","location":"121.447834,31.252684","tel":"[]","bigType":"地名地址信息","midType":"地名地址信息","smallType":"地名地址信息","gcj_lng":121.447834,"gcj_lat":31.252684,"wgs84_loc":"121.443236,31.254555","wgs84Lng":121.443236,"wgs84Lat":31.254555,"__source_file__":"13-常用公服设施点/CSV/上海市_地名地址信息.csv"},"geometry":{"type":"Point","coordinates":[121.443236,31.254555]}},{"id":"238","type":"Feature","properties":{"id":"B0FFIXRG7J","name":"交通路1401弄22号楼","address":"普陀区","type":"地名地址信息;地名地址信息;地名地址信息","typecode":"190000","pcode":310000,"pname":"上海市","citycode":21,"cityname":"上海市","adcode":310107,"adname":"普陀区","business_area":"光新","location":"121.446116,31.255467","tel":"[]","bigType":"地名地址信息","midType":"地名地址信息","smallType":"地名地址信息","gcj_lng":121.446116,"gcj_lat":31.255467,"wgs84_loc":"121.441513,31.257333","wgs84Lng":121.441513,"wgs84Lat":31.257333,"__source_file__":"13-常用公服设施点/CSV/上海市_地名地址信息.csv"},"geometry":{"type":"Point","coordinates":[121.441513,31.257333]}},{"id":"147","type":"Feature","properties":{"id":"B0FFIXS2PR","name":"柳营路650弄36号楼","address":"静安区","type":"地名地址信息;地名地址信息;地名地址信息","typecode":"190000","pcode":310000,"pname":"上海市","citycode":21,"cityname":"上海市","adcode":310106,"adname":"静安区","business_area":"和田","location":"121.457562,31.263327","tel":"[]","bigType":"地名地址信息","midType":"地名地址信息","smallType":"地名地址信息","gcj_lng":121.457562,"gcj_lat":31.263327,"wgs84_loc":"121.452987,31.265214","wgs84Lng":121.452987,"wgs84Lat":31.265214,"__source_file__":"13-常用公服设施点/CSV/上海市_地名地址信息.csv"},"geometry":{"type":"Point","coordinates":[121.452987,31.265214]}},{"id":"489","type":"Feature","properties":{"id":"B0FFI0ZYZF","name":"泽州路168号","address":"静安区","type":"地名地址信息;地名地址信息;地名地址信息","typecode":"190000","pcode":310000,"pname":"上海市","citycode":21,"cityname":"上海市","adcode":310106,"adname":"静安区","business_area":"大宁路","location":"121.454419,31.265624","tel":"[]","bigType":"地名地址信息","midType":"地名地址信息","smallType":"地名地址信息","gcj_lng":121.454419,"gcj_lat":31.265624,"wgs84_loc":"121.449836,31.267503","wgs84Lng":121.449836,"wgs84Lat":31.267503,"__source_file__":"13-常用公服设施点/CSV/上海市_地名地址信息.csv"},"geometry":{"type":"Point","coordinates":[121.449836,31.267503]}},{"id":"240","type":"Feature","properties":{"id":"B0FFKE18V6","name":"上海香溢花城2期120号楼","address":"普陀区","type":"地名地址信息;地名地址信息;地名地址信息","typecode":"190000","pcode":310000,"pname":"上海市","citycode":21,"cityname":"上海市","adcode":310107,"adname":"普陀区","business_area":"大宁路","location":"121.436554,31.255736","tel":"[]","bigType":"地名地址信息","midType":"地名地址信息","smallType":"地名地址信息","gcj_lng":121.436554,"gcj_lat":31.255736,"wgs84_loc":"121.431932,31.257586","wgs84Lng":121.431932,"wgs84Lat":31.257586,"__source_file__":"13-常用公服设施点/CSV/上海市_地名地址信息.csv"},"geometry":{"type":"Point","coordinates":[121.431932,31.257586]}},{"id":"241","type":"Feature","properties":{"id":"B0FFKF50QC","name":"上海香溢花城2期118号楼","address":"普陀区","type":"地名地址信息;地名地址信息;地名地址信息","typecode":"190000","pcode":310000,"pname":"上海市","citycode":21,"cityname":"上海市","adcode":310107,"adname":"普陀区","business_area":"大宁路","location":"121.436492,31.255782","tel":"[]","bigType":"地名地址信息","midType":"地名地址信息","smallType":"地名地址信息","gcj_lng":121.436492,"gcj_lat":31.255782,"wgs84_loc":"121.43187,31.257632","wgs84Lng":121.43187,"wgs84Lat":31.257632,"__source_file__":"13-常用公服设施点/CSV/上海市_地名地址信息.csv"},"geometry":{"type":"Point","coordinates":[121.43187,31.257632]}},{"id":"237","type":"Feature","properties":{"id":"B0FFIXQSQH","name":"交通路2285弄2号楼","address":"普陀区","type":"地名地址信息;地名地址信息;地名地址信息","typecode":"190000","pcode":310000,"pname":"上海市","citycode":21,"cityname":"上海市","adcode":310107,"adname":"普陀区","business_area":"大宁路","location":"121.432779,31.257909","tel":"[]","bigType":"地名地址信息","midType":"地名地址信息","smallType":"地名地址信息","gcj_lng":121.432779,"gcj_lat":31.257909,"wgs84_loc":"121.42815,31.259752","wgs84Lng":121.42815,"wgs84Lat":31.259752,"__source_file__":"13-常用公服设施点/CSV/上海市_地名地址信息.csv"},"geometry":{"type":"Point","coordinates":[121.42815,31.259752]}},{"id":"242","type":"Feature","properties":{"id":"B0FFG3XE3S","name":"延长西路633弄21号楼","address":"普陀区","type":"地名地址信息;地名地址信息;地名地址信息","typecode":"190000","pcode":310000,"pname":"上海市","citycode":21,"cityname":"上海市","adcode":310107,"adname":"普陀区","business_area":"光新","location":"121.429689,31.258827","tel":"[]","bigType":"地名地址信息","midType":"地名地址信息","smallType":"地名地址信息","gcj_lng":121.429689,"gcj_lat":31.258827,"wgs84_loc":"121.425055,31.260666","wgs84Lng":121.425055,"wgs84Lat":31.260666,"__source_file__":"13-常用公服设施点/CSV/上海市_地名地址信息.csv"},"geometry":{"type":"Point","coordinates":[121.425055,31.260666]}},{"id":"785","type":"Feature","properties":{"id":"B0FFIXRRHZ","name":"志丹路97弄7号楼","address":"普陀区","type":"地名地址信息;地名地址信息;地名地址信息","typecode":"190000","pcode":310000,"pname":"上海市","citycode":21,"cityname":"上海市","adcode":310107,"adname":"普陀区","business_area":"光新","location":"121.429759,31.260458","tel":"[]","bigType":"地名地址信息","midType":"地名地址信息","smallType":"地名地址信息","gcj_lng":121.429759,"gcj_lat":31.260458,"wgs84_loc":"121.425125,31.262296","wgs84Lng":121.425125,"wgs84Lat":31.262296,"__source_file__":"13-常用公服设施点/CSV/上海市_地名地址信息.csv"},"geometry":{"type":"Point","coordinates":[121.425125,31.262296]}},{"id":"446","type":"Feature","properties":{"id":"B0FFIXR8KH","name":"普善路958弄5号楼","address":"静安区","type":"地名地址信息;地名地址信息;地名地址信息","typecode":"190000","pcode":310000,"pname":"上海市","citycode":21,"cityname":"上海市","adcode":310106,"adname":"静安区","business_area":"大宁路","location":"121.449812,31.267019","tel":"[]","bigType":"地名地址信息","midType":"地名地址信息","smallType":"地名地址信息","gcj_lng":121.449812,"gcj_lat":31.267019,"wgs84_loc":"121.445217,31.268887","wgs84Lng":121.445217,"wgs84Lat":31.268887,"__source_file__":"13-常用公服设施点/CSV/上海市_地名地址信息.csv"},"geometry":{"type":"Point","coordinates":[121.445217,31.268887]}},{"id":"1175","type":"Feature","properties":{"id":"B0FFK7C34Q","name":"老沪太路230号","address":"静安区","type":"地名地址信息;地名地址信息;地名地址信息","typecode":"190000","pcode":310000,"pname":"上海市","citycode":21,"cityname":"上海市","adcode":310106,"adname":"静安区","business_area":"大宁路","location":"121.451954,31.268045","tel":"[]","bigType":"地名地址信息","midType":"地名地址信息","smallType":"地名地址信息","gcj_lng":121.451954,"gcj_lat":31.268045,"wgs84_loc":"121.447364,31.269917","wgs84Lng":121.447364,"wgs84Lat":31.269917,"__source_file__":"13-常用公服设施点/CSV/上海市_地名地址信息.csv"},"geometry":{"type":"Point","coordinates":[121.447364,31.269917]}},{"id":"646","type":"Feature","properties":{"id":"B0FFIUAM05","name":"绿色丽园21号楼","address":"静安区","type":"地名地址信息;地名地址信息;地名地址信息","typecode":"190000","pcode":310000,"pname":"上海市","citycode":21,"cityname":"上海市","adcode":310106,"adname":"静安区","business_area":"大宁路","location":"121.447943,31.273121","tel":"[]","bigType":"地名地址信息","midType":"地名地址信息","smallType":"地名地址信息","gcj_lng":121.447943,"gcj_lat":31.273121,"wgs84_loc":"121.443343,31.274983","wgs84Lng":121.443343,"wgs84Lat":31.274983,"__source_file__":"13-常用公服设施点/CSV/上海市_地名地址信息.csv"},"geometry":{"type":"Point","coordinates":[121.443343,31.274983]}},{"id":"1163","type":"Feature","properties":{"id":"B0FFIXPVX6","name":"大宁路535弄11号楼","address":"静安区","type":"地名地址信息;地名地址信息;地名地址信息","typecode":"190000","pcode":310000,"pname":"上海市","citycode":21,"cityname":"上海市","adcode":310106,"adname":"静安区","business_area":"大宁路","location":"121.449106,31.274180","tel":"[]","bigType":"地名地址信息","midType":"地名地址信息","smallType":"地名地址信息","gcj_lng":121.449106,"gcj_lat":31.27418,"wgs84_loc":"121.444509,31.276044","wgs84Lng":121.444509,"wgs84Lat":31.276044,"__source_file__":"13-常用公服设施点/CSV/上海市_地名地址信息.csv"},"geometry":{"type":"Point","coordinates":[121.444509,31.276044]}},{"id":"730","type":"Feature","properties":{"id":"B0FFIXR10C","name":"大宁路535弄3号楼","address":"静安区","type":"地名地址信息;地名地址信息;地名地址信息","typecode":"190000","pcode":310000,"pname":"上海市","citycode":21,"cityname":"上海市","adcode":310106,"adname":"静安区","business_area":"大宁路","location":"121.450078,31.274387","tel":"[]","bigType":"地名地址信息","midType":"地名地址信息","smallType":"地名地址信息","gcj_lng":121.450078,"gcj_lat":31.274387,"wgs84_loc":"121.445483,31.276253","wgs84Lng":121.445483,"wgs84Lat":31.276253,"__source_file__":"13-常用公服设施点/CSV/上海市_地名地址信息.csv"},"geometry":{"type":"Point","coordinates":[121.445483,31.276253]}},{"id":"1250","type":"Feature","properties":{"id":"B0FFL107Z0","name":"大宁路667弄41号楼","address":"静安区","type":"地名地址信息;地名地址信息;地名地址信息","typecode":"190000","pcode":310000,"pname":"上海市","citycode":21,"cityname":"上海市","adcode":310106,"adname":"静安区","business_area":"大宁路","location":"121.448026,31.274850","tel":"[]","bigType":"地名地址信息","midType":"地名地址信息","smallType":"地名地址信息","gcj_lng":121.448026,"gcj_lat":31.27485,"wgs84_loc":"121.443426,31.276712","wgs84Lng":121.443426,"wgs84Lat":31.276712,"__source_file__":"13-常用公服设施点/CSV/上海市_地名地址信息.csv"},"geometry":{"type":"Point","coordinates":[121.443426,31.276712]}},{"id":"887","type":"Feature","properties":{"id":"B0FFIXR3JS","name":"广延路350弄31号楼","address":"静安区","type":"地名地址信息;地名地址信息;地名地址信息","typecode":"190000","pcode":310000,"pname":"上海市","citycode":21,"cityname":"上海市","adcode":310106,"adname":"静安区","business_area":"大宁路","location":"121.455684,31.275690","tel":"[]","bigType":"地名地址信息","midType":"地名地址信息","smallType":"地名地址信息","gcj_lng":121.455684,"gcj_lat":31.27569,"wgs84_loc":"121.451103,31.277567","wgs84Lng":121.451103,"wgs84Lat":31.277567,"__source_file__":"13-常用公服设施点/CSV/上海市_地名地址信息.csv"},"geometry":{"type":"Point","coordinates":[121.451103,31.277567]}}],"name":"上海市_地名地址信息","crs":{"type":"name","properties":{"name":"urn:ogc:def:crs:OGC:1.3:CRS84"}}}