{"type":"FeatureCollection","features":[{"id":"23","type":"Feature","properties":{"id":"B0H14RTJUR","name":"程欢豪车超跑俱乐部","address":"湖滨路196号","type":"汽车服务;汽车俱乐部;汽车俱乐部","typecode":"010600","pcode":310000,"pname":"上海市","citycode":21,"cityname":"上海市","adcode":310101,"adname":"黄浦区","business_area":"淮海路","location":"121.476551,31.220566","tel":"021-53540539","bigType":"汽车服务","midType":"汽车俱乐部","smallType":"汽车俱乐部","gcj_lng":121.476551,"gcj_lat":31.220566,"wgs84_loc":"121.472038,31.222521","wgs84Lng":121.472038,"wgs84Lat":31.222521,"__source_file__":"13-常用公服设施点/CSV/上海市_汽车俱乐部.csv"},"geometry":{"type":"Point","coordinates":[121.472038,31.222521]}},{"id":"24","type":"Feature","properties":{"id":"B0H1ZH7M7P","name":"程欢超跑共享俱乐部","address":"湖滨路196号","type":"汽车服务;汽车俱乐部;汽车俱乐部","typecode":"010600","pcode":310000,"pname":"上海市","citycode":21,"cityname":"上海市","adcode":310101,"adname":"黄浦区","business_area":"淮海路","location":"121.476608,31.220617","tel":"021-53540539","bigType":"汽车服务","midType":"汽车俱乐部","smallType":"汽车俱乐部","gcj_lng":121.476608,"gcj_lat":31.220617,"wgs84_loc":"121.472095,31.222572","wgs84Lng":121.472095,"wgs84Lat":31.222572,"__source_file__":"13-常用公服设施点/CSV/上海市_汽车俱乐部.csv"},"geometry":{"type":"Point","coordinates":[121.472095,31.222572]}},{"id":"10","type":"Feature","properties":{"id":"B0FFHUA442","name":"车栈汽车俱乐部(常德店)","address":"常德路1055号近新丰路路口","type":"汽车服务;汽车俱乐部;汽车俱乐部","typecode":"010600","pcode":310000,"pname":"上海市","citycode":21,"cityname":"上海市","adcode":310106,"adname":"静安区","business_area":"曹家渡","location":"121.440228,31.237083","tel":"13918384199","bigType":"汽车服务","midType":"汽车俱乐部","smallType":"汽车俱乐部","gcj_lng":121.440228,"gcj_lat":31.237083,"wgs84_loc":"121.435614,31.238947","wgs84Lng":121.435614,"wgs84Lat":31.238947,"__source_file__":"13-常用公服设施点/CSV/上海市_汽车俱乐部.csv"},"geometry":{"type":"Point","coordinates":[121.435614,31.238947]}}],"name":"上海市_汽车俱乐部","crs":{"type":"name","properties":{"name":"urn:ogc:def:crs:OGC:1.3:CRS84"}}}