{"type":"FeatureCollection","features":[{"id":"31","type":"Feature","properties":{"id":"B00155I66N","name":"上海名流高尔夫俱乐部","address":"延平路98号98创意园B栋2层","type":"体育休闲服务;高尔夫相关;高尔夫练习场","typecode":"080202","pcode":310000,"pname":"上海市","citycode":21,"cityname":"上海市","adcode":310106,"adname":"静安区","business_area":"曹家渡","location":"121.442353,31.228472","tel":"021-62713606;021-62713608","bigType":"体育休闲服务","midType":"高尔夫相关","smallType":"高尔夫练习场","gcj_lng":121.442353,"gcj_lat":31.228472,"wgs84_loc":"121.437745,31.230344","wgs84Lng":121.437745,"wgs84Lat":31.230344,"__source_file__":"13-常用公服设施点/CSV/上海市_高尔夫相关.csv"},"geometry":{"type":"Point","coordinates":[121.437745,31.230344]}},{"id":"30","type":"Feature","properties":{"id":"B00156LI7Z","name":"1012城市高尔夫俱乐部","address":"河南中路1号5楼","type":"体育休闲服务;高尔夫相关;高尔夫练习场","typecode":"080202","pcode":310000,"pname":"上海市","citycode":21,"cityname":"上海市","adcode":310101,"adname":"黄浦区","business_area":"城隍庙","location":"121.486194,31.231885","tel":"021-33662156","bigType":"体育休闲服务","midType":"高尔夫相关","smallType":"高尔夫练习场","gcj_lng":121.486194,"gcj_lat":31.231885,"wgs84_loc":"121.481713,31.233862","wgs84Lng":121.481713,"wgs84Lat":31.233862,"__source_file__":"13-常用公服设施点/CSV/上海市_高尔夫相关.csv"},"geometry":{"type":"Point","coordinates":[121.481713,31.233862]}},{"id":"94","type":"Feature","properties":{"id":"B0FFG77B91","name":"上海静安(昱同)青少年高尔夫训练基地","address":"昌化路165号5楼","type":"体育休闲服务;高尔夫相关;高尔夫练习场","typecode":"080202","pcode":310000,"pname":"上海市","citycode":21,"cityname":"上海市","adcode":310106,"adname":"静安区","business_area":"曹家渡","location":"121.453918,31.235007","tel":"[]","bigType":"体育休闲服务","midType":"高尔夫相关","smallType":"高尔夫练习场","gcj_lng":121.453918,"gcj_lat":31.235007,"wgs84_loc":"121.449336,31.236898","wgs84Lng":121.449336,"wgs84Lat":31.236898,"__source_file__":"13-常用公服设施点/CSV/上海市_高尔夫相关.csv"},"geometry":{"type":"Point","coordinates":[121.449336,31.236898]}},{"id":"98","type":"Feature","properties":{"id":"B0K06M2Q8T","name":"WELINKS·GOLFZON","address":"苏河湾万象天地西里LG109","type":"体育休闲服务;高尔夫相关;高尔夫球场","typecode":"080201","pcode":310000,"pname":"上海市","citycode":21,"cityname":"上海市","adcode":310106,"adname":"静安区","business_area":"北京路","location":"121.477534,31.242926","tel":"18217693742","bigType":"体育休闲服务","midType":"高尔夫相关","smallType":"高尔夫球场","gcj_lng":121.477534,"gcj_lat":31.242926,"wgs84_loc":"121.473023,31.244873","wgs84Lng":121.473023,"wgs84Lat":31.244873,"__source_file__":"13-常用公服设施点/CSV/上海市_高尔夫相关.csv"},"geometry":{"type":"Point","coordinates":[121.473023,31.244873]}}],"name":"上海市_高尔夫相关","crs":{"type":"name","properties":{"name":"urn:ogc:def:crs:OGC:1.3:CRS84"}}}