{"type":"FeatureCollection","features":[{"id":"29","type":"Feature","properties":{"id":"B0G1YZS3GY","name":"上海站南广场出租车候车站","address":"秣陵路303号","type":"交通设施服务;出租车;出租车","typecode":151100,"pcode":310000,"pname":"上海市","citycode":21,"cityname":"上海市","adcode":310106,"adname":"静安区","business_area":"[]","location":"121.454548,31.247576","tel":"[]","bigType":"交通设施服务","midType":"出租车","smallType":"出租车","gcj_lng":121.454548,"gcj_lat":31.247576,"wgs84_loc":"121.449967,31.249463","wgs84Lng":121.449967,"wgs84Lat":31.249463,"__source_file__":"13-常用公服设施点/CSV/上海市_出租车.csv"},"geometry":{"type":"Point","coordinates":[121.449967,31.249463]}},{"id":"4","type":"Feature","properties":{"id":"B0G1YZS3GZ","name":"出租车候车站","address":"海宁路与江西北路交叉口东北约60米","type":"交通设施服务;出租车;出租车","typecode":151100,"pcode":310000,"pname":"上海市","citycode":21,"cityname":"上海市","adcode":310109,"adname":"虹口区","business_area":"七浦路","location":"121.483537,31.249030","tel":"[]","bigType":"交通设施服务","midType":"出租车","smallType":"出租车","gcj_lng":121.483537,"gcj_lat":31.24903,"wgs84_loc":"121.479046,31.250992","wgs84Lng":121.479046,"wgs84Lat":31.250992,"__source_file__":"13-常用公服设施点/CSV/上海市_出租车.csv"},"geometry":{"type":"Point","coordinates":[121.479046,31.250992]}}],"name":"上海市_出租车","crs":{"type":"name","properties":{"name":"urn:ogc:def:crs:OGC:1.3:CRS84"}}}