{"type":"FeatureCollection","features":[{"id":"77","type":"Feature","properties":{"id":"B00154XJ1R","name":"上海先锋商泰电子技术有限公司","address":"淮海中路775号新华联大厦西7、11-13、19","type":"公司企业;知名企业;知名企业","typecode":"170100","pcode":310000,"pname":"上海市","citycode":21,"cityname":"上海市","adcode":310101,"adname":"黄浦区","business_area":"淮海路","location":"121.463695,31.218379","tel":"021-64739882","bigType":"公司企业","midType":"知名企业","smallType":"知名企业","gcj_lng":121.463695,"gcj_lat":31.218379,"wgs84_loc":"121.459142,31.220301","wgs84Lng":121.459142,"wgs84Lat":31.220301,"__source_file__":"13-常用公服设施点/CSV/上海市_知名企业.csv"},"geometry":{"type":"Point","coordinates":[121.459142,31.220301]}},{"id":"94","type":"Feature","properties":{"id":"B0FFHVWVMQ","name":"富士通天国际贸易(天津)有限公司上海分公司","address":"南京西路1468号中欣大厦2606室","type":"公司企业;知名企业;知名企业","typecode":"170100","pcode":310000,"pname":"上海市","citycode":21,"cityname":"上海市","adcode":310106,"adname":"静安区","business_area":"曹家渡","location":"121.449735,31.225526","tel":"021-52925225","bigType":"公司企业","midType":"知名企业","smallType":"知名企业","gcj_lng":121.449735,"gcj_lat":31.225526,"wgs84_loc":"121.445143,31.227413","wgs84Lng":121.445143,"wgs84Lat":31.227413,"__source_file__":"13-常用公服设施点/CSV/上海市_知名企业.csv"},"geometry":{"type":"Point","coordinates":[121.445143,31.227413]}},{"id":"103","type":"Feature","properties":{"id":"B0HRL4VGUN","name":"上海汽车集团股份有限公司","address":"威海路489号(南京西路地铁站8号口步行150米)","type":"公司企业;知名企业;知名企业","typecode":"170100","pcode":310000,"pname":"上海市","citycode":21,"cityname":"上海市","adcode":310106,"adname":"静安区","business_area":"淮海路","location":"121.462587,31.226512","tel":"021-22011888","bigType":"公司企业","midType":"知名企业","smallType":"知名企业","gcj_lng":121.462587,"gcj_lat":31.226512,"wgs84_loc":"121.45803,31.228427","wgs84Lng":121.45803,"wgs84Lat":31.228427,"__source_file__":"13-常用公服设施点/CSV/上海市_知名企业.csv"},"geometry":{"type":"Point","coordinates":[121.45803,31.228427]}},{"id":"84","type":"Feature","properties":{"id":"B0HB2AVJZ5","name":"阿尔派电子(中国)有限公司上海分公司","address":"南京西路580号仲益大厦45F","type":"公司企业;知名企业;知名企业","typecode":"170100","pcode":310000,"pname":"上海市","citycode":21,"cityname":"上海市","adcode":310106,"adname":"静安区","business_area":"淮海路","location":"121.465974,31.231396","tel":"021-52418883","bigType":"公司企业","midType":"知名企业","smallType":"知名企业","gcj_lng":121.465974,"gcj_lat":31.231396,"wgs84_loc":"121.461427,31.233317","wgs84Lng":121.461427,"wgs84Lat":31.233317,"__source_file__":"13-常用公服设施点/CSV/上海市_知名企业.csv"},"geometry":{"type":"Point","coordinates":[121.461427,31.233317]}},{"id":"12","type":"Feature","properties":{"id":"B0G0LSFTKK","name":"阿里巴巴国际站华东总部","address":"广东路500号世界贸易大厦36层","type":"公司企业;知名企业;知名企业","typecode":"170100","pcode":310000,"pname":"上海市","citycode":21,"cityname":"上海市","adcode":310101,"adname":"黄浦区","business_area":"北京东路","location":"121.481671,31.232346","tel":"[]","bigType":"公司企业","midType":"知名企业","smallType":"知名企业","gcj_lng":121.481671,"gcj_lat":31.232346,"wgs84_loc":"121.477174,31.23431","wgs84Lng":121.477174,"wgs84Lat":31.23431,"__source_file__":"13-常用公服设施点/CSV/上海市_知名企业.csv"},"geometry":{"type":"Point","coordinates":[121.477174,31.23431]}},{"id":"83","type":"Feature","properties":{"id":"B00156G7R3","name":"哈曼(中国)投资有限公司","address":"南京西路288号创兴金融中心30层","type":"公司企业;知名企业;知名企业","typecode":"170100","pcode":310000,"pname":"上海市","citycode":21,"cityname":"上海市","adcode":310101,"adname":"黄浦区","business_area":"北京东路","location":"121.470238,31.232396","tel":"021-23060000","bigType":"公司企业","midType":"知名企业","smallType":"知名企业","gcj_lng":121.470238,"gcj_lat":31.232396,"wgs84_loc":"121.465704,31.234328","wgs84Lng":121.465704,"wgs84Lat":31.234328,"__source_file__":"13-常用公服设施点/CSV/上海市_知名企业.csv"},"geometry":{"type":"Point","coordinates":[121.465704,31.234328]}},{"id":"13","type":"Feature","properties":{"id":"B0FFGWUPMD","name":"法拉利大中华","address":"北京西路708号","type":"公司企业;知名企业;知名企业","typecode":"170100","pcode":310000,"pname":"上海市","citycode":21,"cityname":"上海市","adcode":310106,"adname":"静安区","business_area":"淮海路","location":"121.460728,31.232806","tel":"021-61710222","bigType":"公司企业","midType":"知名企业","smallType":"知名企业","gcj_lng":121.460728,"gcj_lat":31.232806,"wgs84_loc":"121.456165,31.234714","wgs84Lng":121.456165,"wgs84Lat":31.234714,"__source_file__":"13-常用公服设施点/CSV/上海市_知名企业.csv"},"geometry":{"type":"Point","coordinates":[121.456165,31.234714]}},{"id":"0","type":"Feature","properties":{"id":"B0H2A787F7","name":"法拉利大中华","address":"新闸路博华广场42楼(自然博物馆地铁站3号口步行180米)","type":"公司企业;知名企业;知名企业","typecode":"170100","pcode":310000,"pname":"上海市","citycode":21,"cityname":"上海市","adcode":310106,"adname":"静安区","business_area":"淮海路","location":"121.462039,31.236333","tel":"021-61710222","bigType":"公司企业","midType":"知名企业","smallType":"知名企业","gcj_lng":121.462039,"gcj_lat":31.236333,"wgs84_loc":"121.457479,31.238242","wgs84Lng":121.457479,"wgs84Lat":31.238242,"__source_file__":"13-常用公服设施点/CSV/上海市_知名企业.csv"},"geometry":{"type":"Point","coordinates":[121.457479,31.238242]}},{"id":"19","type":"Feature","properties":{"id":"B0FFFDPMAZ","name":"上海建工集团股份有限公司","address":"东大名路666号","type":"公司企业;知名企业;知名企业","typecode":"170100","pcode":310000,"pname":"上海市","citycode":21,"cityname":"上海市","adcode":310109,"adname":"虹口区","business_area":"提篮桥","location":"121.501436,31.249270","tel":"021-55885959","bigType":"公司企业","midType":"知名企业","smallType":"知名企业","gcj_lng":121.501436,"gcj_lat":31.24927,"wgs84_loc":"121.497008,31.251285","wgs84Lng":121.497008,"wgs84Lat":31.251285,"__source_file__":"13-常用公服设施点/CSV/上海市_知名企业.csv"},"geometry":{"type":"Point","coordinates":[121.497008,31.251285]}}],"name":"上海市_知名企业","crs":{"type":"name","properties":{"name":"urn:ogc:def:crs:OGC:1.3:CRS84"}}}