{"type":"FeatureCollection","features":[{"id":"2","type":"Feature","properties":{"id":"B0HRB7XDQ4","name":"东北门","address":"江宁路与普陀路交叉口南约80米","type":"通行设施;虚拟门;虚拟门","typecode":991500,"pcode":310000,"pname":"上海市","citycode":21,"cityname":"上海市","adcode":310107,"adname":"普陀区","business_area":"光新","location":"121.442400,31.244854","tel":"[]","bigType":"通行设施","midType":"虚拟门","smallType":"虚拟门","gcj_lng":121.4424,"gcj_lat":31.244854,"wgs84_loc":"121.43779,31.246718","wgs84Lng":121.43779,"wgs84Lat":31.246718,"__source_file__":"13-常用公服设施点/CSV/上海市_虚拟门.csv"},"geometry":{"type":"Point","coordinates":[121.43779,31.246718]}}],"name":"上海市_虚拟门","crs":{"type":"name","properties":{"name":"urn:ogc:def:crs:OGC:1.3:CRS84"}}}