{"type":"FeatureCollection","features":[{"id":"258","type":"Feature","properties":{"id":"B0FFFWUZG5","name":"又一车(上海来福士检测点)","address":"西藏中路268号B2(美车堂门店内)","type":"汽车服务;二手车交易;二手车交易","typecode":"011000","pcode":310000,"pname":"上海市","citycode":21,"cityname":"上海市","adcode":310101,"adname":"黄浦区","business_area":"北京东路","location":"121.476710,31.232370","tel":"[]","bigType":"汽车服务","midType":"二手车交易","smallType":"二手车交易","gcj_lng":121.47671,"gcj_lat":31.23237,"wgs84_loc":"121.472197,31.23432","wgs84Lng":121.472197,"wgs84Lat":31.23432,"__source_file__":"13-常用公服设施点/CSV/上海市_二手车交易.csv"},"geometry":{"type":"Point","coordinates":[121.472197,31.23432]}},{"id":"665","type":"Feature","properties":{"id":"B0FFHMT070","name":"开新二手车帮卖","address":"海宁路与百官街交叉口西北40米","type":"汽车服务;二手车交易;二手车交易","typecode":"011000","pcode":310000,"pname":"上海市","citycode":21,"cityname":"上海市","adcode":310109,"adname":"虹口区","business_area":"七浦路","location":"121.485898,31.250746","tel":"18621636252","bigType":"汽车服务","midType":"二手车交易","smallType":"二手车交易","gcj_lng":121.485898,"gcj_lat":31.250746,"wgs84_loc":"121.481415,31.252714","wgs84Lng":121.481415,"wgs84Lat":31.252714,"__source_file__":"13-常用公服设施点/CSV/上海市_二手车交易.csv"},"geometry":{"type":"Point","coordinates":[121.481415,31.252714]}},{"id":"46","type":"Feature","properties":{"id":"B0GK7719SC","name":"高价收购二手车","address":"华昌路与青云路交叉口东南约100米","type":"汽车服务;二手车交易;二手车交易","typecode":"011000","pcode":310000,"pname":"上海市","citycode":21,"cityname":"上海市","adcode":310109,"adname":"虹口区","business_area":"宝山路","location":"121.475509,31.264176","tel":"[]","bigType":"汽车服务","midType":"二手车交易","smallType":"二手车交易","gcj_lng":121.475509,"gcj_lat":31.264176,"wgs84_loc":"121.470989,31.266108","wgs84Lng":121.470989,"wgs84Lat":31.266108,"__source_file__":"13-常用公服设施点/CSV/上海市_二手车交易.csv"},"geometry":{"type":"Point","coordinates":[121.470989,31.266108]}},{"id":"656","type":"Feature","properties":{"id":"B0015594S1","name":"诚新二手车(新华文化创新科技园B西南)","address":"沪太路800号","type":"汽车服务;二手车交易;二手车交易","typecode":"011000","pcode":310000,"pname":"上海市","citycode":21,"cityname":"上海市","adcode":310107,"adname":"普陀区","business_area":"大宁路","location":"121.443500,31.266151","tel":"[]","bigType":"汽车服务","midType":"二手车交易","smallType":"二手车交易","gcj_lng":121.4435,"gcj_lat":31.266151,"wgs84_loc":"121.438891,31.268008","wgs84Lng":121.438891,"wgs84Lat":31.268008,"__source_file__":"13-常用公服设施点/CSV/上海市_二手车交易.csv"},"geometry":{"type":"Point","coordinates":[121.438891,31.268008]}}],"name":"上海市_二手车交易","crs":{"type":"name","properties":{"name":"urn:ogc:def:crs:OGC:1.3:CRS84"}}}