{"type":"FeatureCollection","features":[{"id":"43","type":"Feature","properties":{"id":"B00154NWG0","name":"上海市文化艺术档案馆","address":"巨鹿路709号","type":"科教文化服务;档案馆;档案馆","typecode":"140900","pcode":310000,"pname":"上海市","citycode":21,"cityname":"上海市","adcode":310106,"adname":"静安区","business_area":"淮海路","location":"121.453489,31.220838","tel":"[]","bigType":"科教文化服务","midType":"档案馆","smallType":"档案馆","gcj_lng":121.453489,"gcj_lat":31.220838,"wgs84_loc":"121.448907,31.222735","wgs84Lng":121.448907,"wgs84Lat":31.222735,"__source_file__":"13-常用公服设施点/CSV/上海市_档案馆.csv"},"geometry":{"type":"Point","coordinates":[121.448907,31.222735]}},{"id":"3","type":"Feature","properties":{"id":"B00155LZQL","name":"上海市黄浦区档案馆","address":"广西北路158号上海黄浦区图书馆大楼","type":"科教文化服务;档案馆;档案馆","typecode":"140900","pcode":310000,"pname":"上海市","citycode":21,"cityname":"上海市","adcode":310101,"adname":"黄浦区","business_area":"北京东路","location":"121.478637,31.231933","tel":"[]","bigType":"科教文化服务","midType":"档案馆","smallType":"档案馆","gcj_lng":121.478637,"gcj_lat":31.231933,"wgs84_loc":"121.47413,31.233888","wgs84Lng":121.47413,"wgs84Lat":31.233888,"__source_file__":"13-常用公服设施点/CSV/上海市_档案馆.csv"},"geometry":{"type":"Point","coordinates":[121.47413,31.233888]}},{"id":"62","type":"Feature","properties":{"id":"B0FFF6XUR5","name":"上海市档案馆(外滩新馆)","address":"中山东二路9号","type":"科教文化服务;档案馆;档案馆","typecode":"140900","pcode":310000,"pname":"上海市","citycode":21,"cityname":"上海市","adcode":310101,"adname":"黄浦区","business_area":"城隍庙","location":"121.492316,31.232364","tel":"021-63336633","bigType":"科教文化服务","midType":"档案馆","smallType":"档案馆","gcj_lng":121.492316,"gcj_lat":31.232364,"wgs84_loc":"121.487857,31.234359","wgs84Lng":121.487857,"wgs84Lat":31.234359,"__source_file__":"13-常用公服设施点/CSV/上海市_档案馆.csv"},"geometry":{"type":"Point","coordinates":[121.487857,31.234359]}},{"id":"36","type":"Feature","properties":{"id":"B0G3DGZK2H","name":"南京东路派出所档案室","address":"云南中路242号","type":"科教文化服务;档案馆;档案馆","typecode":"140900","pcode":310000,"pname":"上海市","citycode":21,"cityname":"上海市","adcode":310101,"adname":"黄浦区","business_area":"北京东路","location":"121.477218,31.232936","tel":"[]","bigType":"科教文化服务","midType":"档案馆","smallType":"档案馆","gcj_lng":121.477218,"gcj_lat":31.232936,"wgs84_loc":"121.472706,31.234887","wgs84Lng":121.472706,"wgs84Lat":31.234887,"__source_file__":"13-常用公服设施点/CSV/上海市_档案馆.csv"},"geometry":{"type":"Point","coordinates":[121.472706,31.234887]}},{"id":"44","type":"Feature","properties":{"id":"B0GK559FFS","name":"中科院区块链艺术家档案馆","address":"余姚路与西康路交叉口西约60米","type":"科教文化服务;档案馆;档案馆","typecode":"140900","pcode":310000,"pname":"上海市","citycode":21,"cityname":"上海市","adcode":310106,"adname":"静安区","business_area":"曹家渡","location":"121.444123,31.236273","tel":"[]","bigType":"科教文化服务","midType":"档案馆","smallType":"档案馆","gcj_lng":121.444123,"gcj_lat":31.236273,"wgs84_loc":"121.439518,31.238144","wgs84Lng":121.439518,"wgs84Lat":31.238144,"__source_file__":"13-常用公服设施点/CSV/上海市_档案馆.csv"},"geometry":{"type":"Point","coordinates":[121.439518,31.238144]}},{"id":"70","type":"Feature","properties":{"id":"B0I2UR1NF3","name":"不思议档案馆","address":"四川北路1727弄11-3233号","type":"科教文化服务;档案馆;档案馆","typecode":"140900","pcode":310000,"pname":"上海市","citycode":21,"cityname":"上海市","adcode":310109,"adname":"虹口区","business_area":"宝山路","location":"121.482175,31.259006","tel":"[]","bigType":"科教文化服务","midType":"档案馆","smallType":"档案馆","gcj_lng":121.482175,"gcj_lat":31.259006,"wgs84_loc":"121.477678,31.260959","wgs84Lng":121.477678,"wgs84Lat":31.260959,"__source_file__":"13-常用公服设施点/CSV/上海市_档案馆.csv"},"geometry":{"type":"Point","coordinates":[121.477678,31.260959]}},{"id":"45","type":"Feature","properties":{"id":"B0H6DD7MHW","name":"迷雾档案所","address":"俞泾港路11号金赢108创意广场金座618-619室","type":"科教文化服务;档案馆;档案馆","typecode":"140900","pcode":310000,"pname":"上海市","citycode":21,"cityname":"上海市","adcode":310106,"adname":"静安区","business_area":"和田","location":"121.466037,31.266537","tel":"17317230417","bigType":"科教文化服务","midType":"档案馆","smallType":"档案馆","gcj_lng":121.466037,"gcj_lat":31.266537,"wgs84_loc":"121.461487,31.268443","wgs84Lng":121.461487,"wgs84Lat":31.268443,"__source_file__":"13-常用公服设施点/CSV/上海市_档案馆.csv"},"geometry":{"type":"Point","coordinates":[121.461487,31.268443]}}],"name":"上海市_档案馆","crs":{"type":"name","properties":{"name":"urn:ogc:def:crs:OGC:1.3:CRS84"}}}