{"type":"FeatureCollection","features":[{"id":"2562","type":"Feature","properties":{"id":"B0H6A5KZ7O","name":"安驭租车(万春街店)","address":"万春街162弄74号1层","type":"汽车服务;汽车服务相关;汽车服务相关","typecode":"010000","pcode":310000,"pname":"上海市","citycode":21,"cityname":"上海市","adcode":310106,"adname":"静安区","business_area":"曹家渡","location":"121.438061,31.228785","tel":"[]","bigType":"汽车服务","midType":"汽车服务相关","smallType":"汽车服务相关","gcj_lng":121.438061,"gcj_lat":31.228785,"wgs84_loc":"121.433444,31.230649","wgs84Lng":121.433444,"wgs84Lat":31.230649,"__source_file__":"13-常用公服设施点/CSV/上海市_汽车服务相关.csv"},"geometry":{"type":"Point","coordinates":[121.433444,31.230649]}},{"id":"147","type":"Feature","properties":{"id":"B0H0BL0TJN","name":"别克汽车(康定路店)","address":"康定路上海名流汽车售后服务有限公司","type":"汽车服务;汽车服务相关;汽车服务相关","typecode":"010000","pcode":310000,"pname":"上海市","citycode":21,"cityname":"上海市","adcode":310106,"adname":"静安区","business_area":"曹家渡","location":"121.434314,31.230540","tel":"[]","bigType":"汽车服务","midType":"汽车服务相关","smallType":"汽车服务相关","gcj_lng":121.434314,"gcj_lat":31.23054,"wgs84_loc":"121.42969,31.232398","wgs84Lng":121.42969,"wgs84Lat":31.232398,"__source_file__":"13-常用公服设施点/CSV/上海市_汽车服务相关.csv"},"geometry":{"type":"Point","coordinates":[121.42969,31.232398]}},{"id":"1781","type":"Feature","properties":{"id":"B0FFM39IPB","name":"金车噶玛兰(TX淮海店)","address":"淮海中路与成都南路交叉口东约80米","type":"汽车服务;汽车服务相关;汽车服务相关","typecode":"010000","pcode":310000,"pname":"上海市","citycode":21,"cityname":"上海市","adcode":310101,"adname":"黄浦区","business_area":"淮海路","location":"121.469009,31.220533","tel":"021-31027020","bigType":"汽车服务","midType":"汽车服务相关","smallType":"汽车服务相关","gcj_lng":121.469009,"gcj_lat":31.220533,"wgs84_loc":"121.464472,31.222467","wgs84Lng":121.464472,"wgs84Lat":31.222467,"__source_file__":"13-常用公服设施点/CSV/上海市_汽车服务相关.csv"},"geometry":{"type":"Point","coordinates":[121.464472,31.222467]}},{"id":"1785","type":"Feature","properties":{"id":"B0H2OGB7HR","name":"金车·噶玛兰威士忌(淮海中路店)","address":"淮海中路523号TX淮海F4","type":"汽车服务;汽车服务相关;汽车服务相关","typecode":"010000","pcode":310000,"pname":"上海市","citycode":21,"cityname":"上海市","adcode":310101,"adname":"黄浦区","business_area":"淮海路","location":"121.468837,31.220592","tel":"021-31027020","bigType":"汽车服务","midType":"汽车服务相关","smallType":"汽车服务相关","gcj_lng":121.468837,"gcj_lat":31.220592,"wgs84_loc":"121.464299,31.222526","wgs84Lng":121.464299,"wgs84Lat":31.222526,"__source_file__":"13-常用公服设施点/CSV/上海市_汽车服务相关.csv"},"geometry":{"type":"Point","coordinates":[121.464299,31.222526]}},{"id":"1925","type":"Feature","properties":{"id":"B0FFIYN0AU","name":"神州租车(静安寺店)","address":"陕西南路30号马勒别墅地下停车场二层(近延安路高架)","type":"汽车服务;汽车服务相关;汽车服务相关","typecode":"010000","pcode":310000,"pname":"上海市","citycode":21,"cityname":"上海市","adcode":310106,"adname":"静安区","business_area":"淮海路","location":"121.456520,31.223070","tel":"4006166666","bigType":"汽车服务","midType":"汽车服务相关","smallType":"汽车服务相关","gcj_lng":121.45652,"gcj_lat":31.22307,"wgs84_loc":"121.451946,31.224973","wgs84Lng":121.451946,"wgs84Lat":31.224973,"__source_file__":"13-常用公服设施点/CSV/上海市_汽车服务相关.csv"},"geometry":{"type":"Point","coordinates":[121.451946,31.224973]}},{"id":"1796","type":"Feature","properties":{"id":"B0FFIVOVP3","name":"德国马牌(巨鹿路店)","address":"巨鹿路巨鹿路272弄小区","type":"汽车服务;汽车服务相关;汽车服务相关","typecode":"010000","pcode":310000,"pname":"上海市","citycode":21,"cityname":"上海市","adcode":310101,"adname":"黄浦区","business_area":"淮海路","location":"121.461301,31.223195","tel":"[]","bigType":"汽车服务","midType":"汽车服务相关","smallType":"汽车服务相关","gcj_lng":121.461301,"gcj_lat":31.223195,"wgs84_loc":"121.45674,31.225109","wgs84Lng":121.45674,"wgs84Lat":31.225109,"__source_file__":"13-常用公服设施点/CSV/上海市_汽车服务相关.csv"},"geometry":{"type":"Point","coordinates":[121.45674,31.225109]}},{"id":"1791","type":"Feature","properties":{"id":"B0FFH1X8DZ","name":"车工坊(巨鹿路店)","address":"巨鹿路272号附近","type":"汽车服务;汽车服务相关;汽车服务相关","typecode":"010000","pcode":310000,"pname":"上海市","citycode":21,"cityname":"上海市","adcode":310101,"adname":"黄浦区","business_area":"淮海路","location":"121.461271,31.223231","tel":"[]","bigType":"汽车服务","midType":"汽车服务相关","smallType":"汽车服务相关","gcj_lng":121.461271,"gcj_lat":31.223231,"wgs84_loc":"121.45671,31.225145","wgs84Lng":121.45671,"wgs84Lat":31.225145,"__source_file__":"13-常用公服设施点/CSV/上海市_汽车服务相关.csv"},"geometry":{"type":"Point","coordinates":[121.45671,31.225145]}},{"id":"1809","type":"Feature","properties":{"id":"B0IB2URJ1R","name":"巨鹿叉车吊车出租","address":"巨鹿路266号附2","type":"汽车服务;汽车服务相关;汽车服务相关","typecode":"010000","pcode":310000,"pname":"上海市","citycode":21,"cityname":"上海市","adcode":310101,"adname":"黄浦区","business_area":"淮海路","location":"121.461752,31.223259","tel":"13012874441","bigType":"汽车服务","midType":"汽车服务相关","smallType":"汽车服务相关","gcj_lng":121.461752,"gcj_lat":31.223259,"wgs84_loc":"121.457193,31.225174","wgs84Lng":121.457193,"wgs84Lat":31.225174,"__source_file__":"13-常用公服设施点/CSV/上海市_汽车服务相关.csv"},"geometry":{"type":"Point","coordinates":[121.457193,31.225174]}},{"id":"1795","type":"Feature","properties":{"id":"B0FFK6UM1K","name":"神州共享车(延安路服务点)","address":"延安中路639号附近延安中路大型公共绿地卡菱停车场","type":"汽车服务;汽车服务相关;汽车服务相关","typecode":"010000","pcode":310000,"pname":"上海市","citycode":21,"cityname":"上海市","adcode":310101,"adname":"黄浦区","business_area":"淮海路","location":"121.465384,31.223523","tel":"[]","bigType":"汽车服务","midType":"汽车服务相关","smallType":"汽车服务相关","gcj_lng":121.465384,"gcj_lat":31.223523,"wgs84_loc":"121.460835,31.225447","wgs84Lng":121.460835,"wgs84Lat":31.225447,"__source_file__":"13-常用公服设施点/CSV/上海市_汽车服务相关.csv"},"geometry":{"type":"Point","coordinates":[121.460835,31.225447]}},{"id":"6219","type":"Feature","properties":{"id":"B0LBLSD84B","name":"富强吊车登高车出租","address":"延安中路608号(南京西路地铁站12号口步行430米)","type":"汽车服务;汽车服务相关;汽车服务相关","typecode":"010000","pcode":310000,"pname":"上海市","citycode":21,"cityname":"上海市","adcode":310106,"adname":"静安区","business_area":"淮海路","location":"121.462111,31.224317","tel":"13456392789","bigType":"汽车服务","midType":"汽车服务相关","smallType":"汽车服务相关","gcj_lng":121.462111,"gcj_lat":31.224317,"wgs84_loc":"121.457553,31.226232","wgs84Lng":121.457553,"wgs84Lat":31.226232,"__source_file__":"13-常用公服设施点/CSV/上海市_汽车服务相关.csv"},"geometry":{"type":"Point","coordinates":[121.457553,31.226232]}},{"id":"1794","type":"Feature","properties":{"id":"B0HUBUGBCH","name":"上海曲闽汽车牵引服务分公司","address":"大沽路","type":"汽车服务;汽车服务相关;汽车服务相关","typecode":"010000","pcode":310000,"pname":"上海市","citycode":21,"cityname":"上海市","adcode":310101,"adname":"黄浦区","business_area":"北京东路","location":"121.470500,31.225936","tel":"[]","bigType":"汽车服务","midType":"汽车服务相关","smallType":"汽车服务相关","gcj_lng":121.4705,"gcj_lat":31.225936,"wgs84_loc":"121.465967,31.227872","wgs84Lng":121.465967,"wgs84Lat":31.227872,"__source_file__":"13-常用公服设施点/CSV/上海市_汽车服务相关.csv"},"geometry":{"type":"Point","coordinates":[121.465967,31.227872]}},{"id":"43","type":"Feature","properties":{"id":"B0FFF9ZNHD","name":"嘎嘎汽车服务","address":"威海路184号","type":"汽车服务;汽车服务相关;汽车服务相关","typecode":"010000","pcode":310000,"pname":"上海市","citycode":21,"cityname":"上海市","adcode":310101,"adname":"黄浦区","business_area":"北京东路","location":"121.467947,31.227722","tel":"13916070177","bigType":"汽车服务","midType":"汽车服务相关","smallType":"汽车服务相关","gcj_lng":121.467947,"gcj_lat":31.227722,"wgs84_loc":"121.463406,31.22965","wgs84Lng":121.463406,"wgs84Lat":31.22965,"__source_file__":"13-常用公服设施点/CSV/上海市_汽车服务相关.csv"},"geometry":{"type":"Point","coordinates":[121.463406,31.22965]}},{"id":"4360","type":"Feature","properties":{"id":"B0G3DH0SC0","name":"驾仕堂julu","address":"巨鹿路741弄7号","type":"汽车服务;汽车服务相关;汽车服务相关","typecode":"010000","pcode":310000,"pname":"上海市","citycode":21,"cityname":"上海市","adcode":310106,"adname":"静安区","business_area":"淮海路","location":"121.451922,31.220406","tel":"[]","bigType":"汽车服务","midType":"汽车服务相关","smallType":"汽车服务相关","gcj_lng":121.451922,"gcj_lat":31.220406,"wgs84_loc":"121.447336,31.2223","wgs84Lng":121.447336,"wgs84Lat":31.2223,"__source_file__":"13-常用公服设施点/CSV/上海市_汽车服务相关.csv"},"geometry":{"type":"Point","coordinates":[121.447336,31.2223]}},{"id":"6069","type":"Feature","properties":{"id":"B0JABUNKDG","name":"鸿蒙智行体验中心(问界|智界|享界)·上海静安晶品购物中心","address":"愚园路68号CP静安晶品购物中心1层101部位01室、02室","type":"汽车服务;汽车服务相关;汽车服务相关","typecode":"010000","pcode":310000,"pname":"上海市","citycode":21,"cityname":"上海市","adcode":310106,"adname":"静安区","business_area":"静安寺","location":"121.446837,31.225662","tel":"021-52908072;18101977356","bigType":"汽车服务","midType":"汽车服务相关","smallType":"汽车服务相关","gcj_lng":121.446837,"gcj_lat":31.225662,"wgs84_loc":"121.442239,31.227543","wgs84Lng":121.442239,"wgs84Lat":31.227543,"__source_file__":"13-常用公服设施点/CSV/上海市_汽车服务相关.csv"},"geometry":{"type":"Point","coordinates":[121.442239,31.227543]}},{"id":"1881","type":"Feature","properties":{"id":"B0HGSC50P1","name":"沙岸轻卡(静安寺店)","address":"愚园东路28号1号楼2层","type":"汽车服务;汽车服务相关;汽车服务相关","typecode":"010000","pcode":310000,"pname":"上海市","citycode":21,"cityname":"上海市","adcode":310106,"adname":"静安区","business_area":"曹家渡","location":"121.448809,31.226012","tel":"[]","bigType":"汽车服务","midType":"汽车服务相关","smallType":"汽车服务相关","gcj_lng":121.448809,"gcj_lat":31.226012,"wgs84_loc":"121.444215,31.227897","wgs84Lng":121.444215,"wgs84Lat":31.227897,"__source_file__":"13-常用公服设施点/CSV/上海市_汽车服务相关.csv"},"geometry":{"type":"Point","coordinates":[121.444215,31.227897]}},{"id":"1883","type":"Feature","properties":{"id":"B0FFLEWRAP","name":"四通吊车租赁公司","address":"新闸路与胶州路交叉路口往东约100米","type":"汽车服务;汽车服务相关;汽车服务相关","typecode":"010000","pcode":310000,"pname":"上海市","citycode":21,"cityname":"上海市","adcode":310106,"adname":"静安区","business_area":"曹家渡","location":"121.445183,31.227680","tel":"13608210849","bigType":"汽车服务","midType":"汽车服务相关","smallType":"汽车服务相关","gcj_lng":121.445183,"gcj_lat":31.22768,"wgs84_loc":"121.440581,31.229557","wgs84Lng":121.440581,"wgs84Lat":31.229557,"__source_file__":"13-常用公服设施点/CSV/上海市_汽车服务相关.csv"},"geometry":{"type":"Point","coordinates":[121.440581,31.229557]}},{"id":"1779","type":"Feature","properties":{"id":"B0H6DRAGEO","name":"上海瓦尔塔风帆蓄电池专卖店","address":"陕西北路与北京西路交叉口北约120米","type":"汽车服务;汽车服务相关;汽车服务相关","typecode":"010000","pcode":310000,"pname":"上海市","citycode":21,"cityname":"上海市","adcode":310106,"adname":"静安区","business_area":"曹家渡","location":"121.452968,31.230698","tel":"[]","bigType":"汽车服务","midType":"汽车服务相关","smallType":"汽车服务相关","gcj_lng":121.452968,"gcj_lat":31.230698,"wgs84_loc":"121.448384,31.232589","wgs84Lng":121.448384,"wgs84Lat":31.232589,"__source_file__":"13-常用公服设施点/CSV/上海市_汽车服务相关.csv"},"geometry":{"type":"Point","coordinates":[121.448384,31.232589]}},{"id":"150","type":"Feature","properties":{"id":"B0FFMF8JFE","name":"上海程力洒水车厂家销售点","address":"江宁路与北京西路交叉口北约160米","type":"汽车服务;汽车服务相关;汽车服务相关","typecode":"010000","pcode":310000,"pname":"上海市","citycode":21,"cityname":"上海市","adcode":310106,"adname":"静安区","business_area":"淮海路","location":"121.454934,31.231608","tel":"[]","bigType":"汽车服务","midType":"汽车服务相关","smallType":"汽车服务相关","gcj_lng":121.454934,"gcj_lat":31.231608,"wgs84_loc":"121.450355,31.233503","wgs84Lng":121.450355,"wgs84Lat":31.233503,"__source_file__":"13-常用公服设施点/CSV/上海市_汽车服务相关.csv"},"geometry":{"type":"Point","coordinates":[121.450355,31.233503]}},{"id":"1911","type":"Feature","properties":{"id":"B0HKLLV9Y9","name":"勇于跨越","address":"武定路静安枫景苑北侧","type":"汽车服务;汽车服务相关;汽车服务相关","typecode":"010000","pcode":310000,"pname":"上海市","citycode":21,"cityname":"上海市","adcode":310106,"adname":"静安区","business_area":"曹家渡","location":"121.446826,31.231837","tel":"[]","bigType":"汽车服务","midType":"汽车服务相关","smallType":"汽车服务相关","gcj_lng":121.446826,"gcj_lat":31.231837,"wgs84_loc":"121.442227,31.233715","wgs84Lng":121.442227,"wgs84Lat":31.233715,"__source_file__":"13-常用公服设施点/CSV/上海市_汽车服务相关.csv"},"geometry":{"type":"Point","coordinates":[121.442227,31.233715]}},{"id":"4748","type":"Feature","properties":{"id":"B0G065O510","name":"乐华充电站(静安艺阁直流充电站)","address":"康定路1038号","type":"汽车服务;汽车服务相关;汽车服务相关","typecode":"010000","pcode":310000,"pname":"上海市","citycode":21,"cityname":"上海市","adcode":310106,"adname":"静安区","business_area":"曹家渡","location":"121.437435,31.230713","tel":"[]","bigType":"汽车服务","midType":"汽车服务相关","smallType":"汽车服务相关","gcj_lng":121.437435,"gcj_lat":31.230713,"wgs84_loc":"121.432817,31.232575","wgs84Lng":121.432817,"wgs84Lat":31.232575,"__source_file__":"13-常用公服设施点/CSV/上海市_汽车服务相关.csv"},"geometry":{"type":"Point","coordinates":[121.432817,31.232575]}},{"id":"163","type":"Feature","properties":{"id":"B00156O5W6","name":"一路驰汽车服务(途虎昌平路店)","address":"昌平路1017-1023号","type":"汽车服务;汽车服务相关;汽车服务相关","typecode":"010000","pcode":310000,"pname":"上海市","citycode":21,"cityname":"上海市","adcode":310106,"adname":"静安区","business_area":"曹家渡","location":"121.435731,31.231482","tel":"021-62321696;13651724604","bigType":"汽车服务","midType":"汽车服务相关","smallType":"汽车服务相关","gcj_lng":121.435731,"gcj_lat":31.231482,"wgs84_loc":"121.431109,31.233341","wgs84Lng":121.431109,"wgs84Lat":31.233341,"__source_file__":"13-常用公服设施点/CSV/上海市_汽车服务相关.csv"},"geometry":{"type":"Point","coordinates":[121.431109,31.233341]}},{"id":"1882","type":"Feature","properties":{"id":"B0FFL9BB2L","name":"德国马牌(余姚店)","address":"余姚路467号","type":"汽车服务;汽车服务相关;汽车服务相关","typecode":"010000","pcode":310000,"pname":"上海市","citycode":21,"cityname":"上海市","adcode":310106,"adname":"静安区","business_area":"曹家渡","location":"121.435218,31.233742","tel":"021-62174188;4000011262","bigType":"汽车服务","midType":"汽车服务相关","smallType":"汽车服务相关","gcj_lng":121.435218,"gcj_lat":31.233742,"wgs84_loc":"121.430595,31.2356","wgs84Lng":121.430595,"wgs84Lat":31.2356,"__source_file__":"13-常用公服设施点/CSV/上海市_汽车服务相关.csv"},"geometry":{"type":"Point","coordinates":[121.430595,31.2356]}},{"id":"4870","type":"Feature","properties":{"id":"B0FFIYKJ43","name":"挑米汽车连锁(余姚店)","address":"余姚路473-475-1号附近","type":"汽车服务;汽车服务相关;汽车服务相关","typecode":"010000","pcode":310000,"pname":"上海市","citycode":21,"cityname":"上海市","adcode":310106,"adname":"静安区","business_area":"曹家渡","location":"121.435233,31.233751","tel":"021-62174188;4000011262","bigType":"汽车服务","midType":"汽车服务相关","smallType":"汽车服务相关","gcj_lng":121.435233,"gcj_lat":31.233751,"wgs84_loc":"121.43061,31.235609","wgs84Lng":121.43061,"wgs84Lat":31.235609,"__source_file__":"13-常用公服设施点/CSV/上海市_汽车服务相关.csv"},"geometry":{"type":"Point","coordinates":[121.43061,31.235609]}},{"id":"1927","type":"Feature","properties":{"id":"B0H255MN86","name":"仁德叉车出租","address":"余姚路317-2号","type":"汽车服务;汽车服务相关;汽车服务相关","typecode":"010000","pcode":310000,"pname":"上海市","citycode":21,"cityname":"上海市","adcode":310106,"adname":"静安区","business_area":"曹家渡","location":"121.438013,31.235305","tel":"13381708362","bigType":"汽车服务","midType":"汽车服务相关","smallType":"汽车服务相关","gcj_lng":121.438013,"gcj_lat":31.235305,"wgs84_loc":"121.433395,31.237166","wgs84Lng":121.433395,"wgs84Lat":31.237166,"__source_file__":"13-常用公服设施点/CSV/上海市_汽车服务相关.csv"},"geometry":{"type":"Point","coordinates":[121.433395,31.237166]}},{"id":"1838","type":"Feature","properties":{"id":"B0HKNRSQCU","name":"锁博士汽车钥匙汽车开锁","address":"胶州路1118弄","type":"汽车服务;汽车服务相关;汽车服务相关","typecode":"010000","pcode":310000,"pname":"上海市","citycode":21,"cityname":"上海市","adcode":310107,"adname":"普陀区","business_area":"曹家渡","location":"121.433541,31.240300","tel":"16621718993","bigType":"汽车服务","midType":"汽车服务相关","smallType":"汽车服务相关","gcj_lng":121.433541,"gcj_lat":31.2403,"wgs84_loc":"121.428915,31.242152","wgs84Lng":121.428915,"wgs84Lat":31.242152,"__source_file__":"13-常用公服设施点/CSV/上海市_汽车服务相关.csv"},"geometry":{"type":"Point","coordinates":[121.428915,31.242152]}},{"id":"1816","type":"Feature","properties":{"id":"B0FFJ28FKD","name":"上海点奇新能源汽车租赁有限公司","address":"长寿路360号源达大厦822室","type":"汽车服务;汽车服务相关;汽车服务相关","typecode":"010000","pcode":310000,"pname":"上海市","citycode":21,"cityname":"上海市","adcode":310107,"adname":"普陀区","business_area":"光新","location":"121.439076,31.242007","tel":"[]","bigType":"汽车服务","midType":"汽车服务相关","smallType":"汽车服务相关","gcj_lng":121.439076,"gcj_lat":31.242007,"wgs84_loc":"121.43446,31.243867","wgs84Lng":121.43446,"wgs84Lat":31.243867,"__source_file__":"13-常用公服设施点/CSV/上海市_汽车服务相关.csv"},"geometry":{"type":"Point","coordinates":[121.43446,31.243867]}},{"id":"1822","type":"Feature","properties":{"id":"B0GK6ZQ1MI","name":"上海市俊豪吊车租赁(常德路)","address":"[]","type":"汽车服务;汽车服务相关;汽车服务相关","typecode":"010000","pcode":310000,"pname":"上海市","citycode":21,"cityname":"上海市","adcode":310107,"adname":"普陀区","business_area":"曹家渡","location":"121.433345,31.243145","tel":"[]","bigType":"汽车服务","midType":"汽车服务相关","smallType":"汽车服务相关","gcj_lng":121.433345,"gcj_lat":31.243145,"wgs84_loc":"121.428718,31.244996","wgs84Lng":121.428718,"wgs84Lat":31.244996,"__source_file__":"13-常用公服设施点/CSV/上海市_汽车服务相关.csv"},"geometry":{"type":"Point","coordinates":[121.428718,31.244996]}},{"id":"1231","type":"Feature","properties":{"id":"B0FFINMWYD","name":"上海地伟汽车零配件","address":"宜昌路570号附近","type":"汽车服务;汽车服务相关;汽车服务相关","typecode":"010000","pcode":310000,"pname":"上海市","citycode":21,"cityname":"上海市","adcode":310107,"adname":"普陀区","business_area":"曹家渡","location":"121.431900,31.243398","tel":"[]","bigType":"汽车服务","midType":"汽车服务相关","smallType":"汽车服务相关","gcj_lng":121.4319,"gcj_lat":31.243398,"wgs84_loc":"121.427271,31.245247","wgs84Lng":121.427271,"wgs84Lat":31.245247,"__source_file__":"13-常用公服设施点/CSV/上海市_汽车服务相关.csv"},"geometry":{"type":"Point","coordinates":[121.427271,31.245247]}},{"id":"5990","type":"Feature","properties":{"id":"B0JAHZ5BXO","name":"BIGGER WASH自助洗烘房(常德路)","address":"常德路735号(昌平路地铁站3号口步行70米)","type":"汽车服务;汽车服务相关;汽车服务相关","typecode":"010000","pcode":310000,"pname":"上海市","citycode":21,"cityname":"上海市","adcode":310106,"adname":"静安区","business_area":"[]","location":"121.443396,31.232618","tel":"18049937331","bigType":"汽车服务","midType":"汽车服务相关","smallType":"汽车服务相关","gcj_lng":121.443396,"gcj_lat":31.232618,"wgs84_loc":"121.438789,31.234489","wgs84Lng":121.438789,"wgs84Lat":31.234489,"__source_file__":"13-常用公服设施点/CSV/上海市_汽车服务相关.csv"},"geometry":{"type":"Point","coordinates":[121.438789,31.234489]}},{"id":"179","type":"Feature","properties":{"id":"B0FFMBYNEJ","name":"君豪婚车(一站式服务旗舰店)","address":"新闸路1136弄1号楼10楼B08室","type":"汽车服务;汽车服务相关;汽车服务相关","typecode":"010000","pcode":310000,"pname":"上海市","citycode":21,"cityname":"上海市","adcode":310106,"adname":"静安区","business_area":"曹家渡","location":"121.453892,31.233095","tel":"17701714327","bigType":"汽车服务","midType":"汽车服务相关","smallType":"汽车服务相关","gcj_lng":121.453892,"gcj_lat":31.233095,"wgs84_loc":"121.44931,31.234987","wgs84Lng":121.44931,"wgs84Lat":31.234987,"__source_file__":"13-常用公服设施点/CSV/上海市_汽车服务相关.csv"},"geometry":{"type":"Point","coordinates":[121.44931,31.234987]}},{"id":"6142","type":"Feature","properties":{"id":"B0I2YMQ9TA","name":"神州租车(静安寺店)","address":"江宁路356弄静安紫苑停车场B1层","type":"汽车服务;汽车服务相关;汽车服务相关","typecode":"010000","pcode":310000,"pname":"上海市","citycode":21,"cityname":"上海市","adcode":310106,"adname":"静安区","business_area":"曹家渡","location":"121.453505,31.233501","tel":"4006166666","bigType":"汽车服务","midType":"汽车服务相关","smallType":"汽车服务相关","gcj_lng":121.453505,"gcj_lat":31.233501,"wgs84_loc":"121.448922,31.235392","wgs84Lng":121.448922,"wgs84Lat":31.235392,"__source_file__":"13-常用公服设施点/CSV/上海市_汽车服务相关.csv"},"geometry":{"type":"Point","coordinates":[121.448922,31.235392]}},{"id":"1934","type":"Feature","properties":{"id":"B0G23OFBTY","name":"亨通叉车出租(静安店)","address":"常德路776号","type":"汽车服务;汽车服务相关;汽车服务相关","typecode":"010000","pcode":310000,"pname":"上海市","citycode":21,"cityname":"上海市","adcode":310106,"adname":"静安区","business_area":"曹家渡","location":"121.443086,31.233610","tel":"17555021348","bigType":"汽车服务","midType":"汽车服务相关","smallType":"汽车服务相关","gcj_lng":121.443086,"gcj_lat":31.23361,"wgs84_loc":"121.438479,31.23548","wgs84Lng":121.438479,"wgs84Lat":31.23548,"__source_file__":"13-常用公服设施点/CSV/上海市_汽车服务相关.csv"},"geometry":{"type":"Point","coordinates":[121.438479,31.23548]}},{"id":"6233","type":"Feature","properties":{"id":"B0L6DL93CN","name":"女王驾到俱乐部","address":"昌平路与西康路交叉口东北20米","type":"汽车服务;汽车服务相关;汽车服务相关","typecode":"010000","pcode":310000,"pname":"上海市","citycode":21,"cityname":"上海市","adcode":310106,"adname":"静安区","business_area":"[]","location":"121.446032,31.235434","tel":"[]","bigType":"汽车服务","midType":"汽车服务相关","smallType":"汽车服务相关","gcj_lng":121.446032,"gcj_lat":31.235434,"wgs84_loc":"121.441431,31.237309","wgs84Lng":121.441431,"wgs84Lat":31.237309,"__source_file__":"13-常用公服设施点/CSV/上海市_汽车服务相关.csv"},"geometry":{"type":"Point","coordinates":[121.441431,31.237309]}},{"id":"6232","type":"Feature","properties":{"id":"B0J32ZAROQ","name":"Pone汽车服务","address":"江宁路699号MOHOMALL地下停车场B3层-B区","type":"汽车服务;汽车服务相关;汽车服务相关","typecode":"010000","pcode":310000,"pname":"上海市","citycode":21,"cityname":"上海市","adcode":310106,"adname":"静安区","business_area":"[]","location":"121.448640,31.238204","tel":"15821000955","bigType":"汽车服务","midType":"汽车服务相关","smallType":"汽车服务相关","gcj_lng":121.44864,"gcj_lat":31.238204,"wgs84_loc":"121.444045,31.240083","wgs84Lng":121.444045,"wgs84Lat":31.240083,"__source_file__":"13-常用公服设施点/CSV/上海市_汽车服务相关.csv"},"geometry":{"type":"Point","coordinates":[121.444045,31.240083]}},{"id":"1227","type":"Feature","properties":{"id":"B00155FV2G","name":"文英轮胎商行(途虎养车店)","address":"常德路1160-1号","type":"汽车服务;汽车服务相关;汽车服务相关","typecode":"010000","pcode":310000,"pname":"上海市","citycode":21,"cityname":"上海市","adcode":310107,"adname":"普陀区","business_area":"曹家渡","location":"121.439643,31.238736","tel":"021-62986938;18621954849","bigType":"汽车服务","midType":"汽车服务相关","smallType":"汽车服务相关","gcj_lng":121.439643,"gcj_lat":31.238736,"wgs84_loc":"121.435028,31.240598","wgs84Lng":121.435028,"wgs84Lat":31.240598,"__source_file__":"13-常用公服设施点/CSV/上海市_汽车服务相关.csv"},"geometry":{"type":"Point","coordinates":[121.435028,31.240598]}},{"id":"181","type":"Feature","properties":{"id":"B0FFG87RY2","name":"车享家汽车服务中心(澳门店)","address":"澳门路19号","type":"汽车服务;汽车服务相关;汽车服务相关","typecode":"010000","pcode":310000,"pname":"上海市","citycode":21,"cityname":"上海市","adcode":310107,"adname":"普陀区","business_area":"光新","location":"121.447518,31.245729","tel":"021-62999820","bigType":"汽车服务","midType":"汽车服务相关","smallType":"汽车服务相关","gcj_lng":121.447518,"gcj_lat":31.245729,"wgs84_loc":"121.442919,31.247602","wgs84Lng":121.442919,"wgs84Lat":31.247602,"__source_file__":"13-常用公服设施点/CSV/上海市_汽车服务相关.csv"},"geometry":{"type":"Point","coordinates":[121.442919,31.247602]}},{"id":"182","type":"Feature","properties":{"id":"B0FFJU0W8Y","name":"靓沪车管家(莫干山路店)","address":"莫干山路89号","type":"汽车服务;汽车服务相关;汽车服务相关","typecode":"010000","pcode":310000,"pname":"上海市","citycode":21,"cityname":"上海市","adcode":310107,"adname":"普陀区","business_area":"光新","location":"121.447512,31.248378","tel":"13381890789","bigType":"汽车服务","midType":"汽车服务相关","smallType":"汽车服务相关","gcj_lng":121.447512,"gcj_lat":31.248378,"wgs84_loc":"121.442913,31.25025","wgs84Lng":121.442913,"wgs84Lat":31.25025,"__source_file__":"13-常用公服设施点/CSV/上海市_汽车服务相关.csv"},"geometry":{"type":"Point","coordinates":[121.442913,31.25025]}},{"id":"1829","type":"Feature","properties":{"id":"B0FFKFCZPG","name":"上海雨缘汽车服务中心","address":"中谭路91弄39号B1","type":"汽车服务;汽车服务相关;汽车服务相关","typecode":"010000","pcode":310000,"pname":"上海市","citycode":21,"cityname":"上海市","adcode":310107,"adname":"普陀区","business_area":"光新","location":"121.443126,31.251385","tel":"13621739885","bigType":"汽车服务","midType":"汽车服务相关","smallType":"汽车服务相关","gcj_lng":121.443126,"gcj_lat":31.251385,"wgs84_loc":"121.438517,31.253248","wgs84Lng":121.438517,"wgs84Lat":31.253248,"__source_file__":"13-常用公服设施点/CSV/上海市_汽车服务相关.csv"},"geometry":{"type":"Point","coordinates":[121.438517,31.253248]}},{"id":"3612","type":"Feature","properties":{"id":"B0FFIY33CJ","name":"上海市毅桥汽车服务","address":"共和新路435号","type":"汽车服务;汽车服务相关;汽车服务相关","typecode":"010000","pcode":310000,"pname":"上海市","citycode":21,"cityname":"上海市","adcode":310106,"adname":"静安区","business_area":"宝山路","location":"121.463982,31.250153","tel":"021-56208988","bigType":"汽车服务","midType":"汽车服务相关","smallType":"汽车服务相关","gcj_lng":121.463982,"gcj_lat":31.250153,"wgs84_loc":"121.459427,31.252061","wgs84Lng":121.459427,"wgs84Lat":31.252061,"__source_file__":"13-常用公服设施点/CSV/上海市_汽车服务相关.csv"},"geometry":{"type":"Point","coordinates":[121.459427,31.252061]}},{"id":"1884","type":"Feature","properties":{"id":"B0G3AZC68V","name":"德国马牌(永兴路店)","address":"永兴路光华坊","type":"汽车服务;汽车服务相关;汽车服务相关","typecode":"010000","pcode":310000,"pname":"上海市","citycode":21,"cityname":"上海市","adcode":310106,"adname":"静安区","business_area":"宝山路","location":"121.467029,31.251161","tel":"[]","bigType":"汽车服务","midType":"汽车服务相关","smallType":"汽车服务相关","gcj_lng":121.467029,"gcj_lat":31.251161,"wgs84_loc":"121.462483,31.253076","wgs84Lng":121.462483,"wgs84Lat":31.253076,"__source_file__":"13-常用公服设施点/CSV/上海市_汽车服务相关.csv"},"geometry":{"type":"Point","coordinates":[121.462483,31.253076]}},{"id":"175","type":"Feature","properties":{"id":"B0FFHNSWXC","name":"米其林轮胎(鹏嘉汽车维修店)","address":"永兴路565号育婴堂交叉路口","type":"汽车服务;汽车服务相关;汽车服务相关","typecode":"010000","pcode":310000,"pname":"上海市","citycode":21,"cityname":"上海市","adcode":310106,"adname":"静安区","business_area":"宝山路","location":"121.467251,31.251236","tel":"[]","bigType":"汽车服务","midType":"汽车服务相关","smallType":"汽车服务相关","gcj_lng":121.467251,"gcj_lat":31.251236,"wgs84_loc":"121.462706,31.253152","wgs84Lng":121.462706,"wgs84Lat":31.253152,"__source_file__":"13-常用公服设施点/CSV/上海市_汽车服务相关.csv"},"geometry":{"type":"Point","coordinates":[121.462706,31.253152]}},{"id":"2564","type":"Feature","properties":{"id":"B0H1FCE2TC","name":"星耀叉车租赁","address":"大统路867号附1","type":"汽车服务;汽车服务相关;汽车服务相关","typecode":"010000","pcode":310000,"pname":"上海市","citycode":21,"cityname":"上海市","adcode":310106,"adname":"静安区","business_area":"宝山路","location":"121.459418,31.253298","tel":"17891921655","bigType":"汽车服务","midType":"汽车服务相关","smallType":"汽车服务相关","gcj_lng":121.459418,"gcj_lat":31.253298,"wgs84_loc":"121.454849,31.255194","wgs84Lng":121.454849,"wgs84Lat":31.255194,"__source_file__":"13-常用公服设施点/CSV/上海市_汽车服务相关.csv"},"geometry":{"type":"Point","coordinates":[121.454849,31.255194]}},{"id":"4060","type":"Feature","properties":{"id":"B00157I445","name":"上海渝云贸易有限公司","address":"普善路100之1-2","type":"汽车服务;汽车服务相关;汽车服务相关","typecode":"010000","pcode":310000,"pname":"上海市","citycode":21,"cityname":"上海市","adcode":310106,"adname":"静安区","business_area":"和田","location":"121.456808,31.255441","tel":"[]","bigType":"汽车服务","midType":"汽车服务相关","smallType":"汽车服务相关","gcj_lng":121.456808,"gcj_lat":31.255441,"wgs84_loc":"121.452232,31.25733","wgs84Lng":121.452232,"wgs84Lat":31.25733,"__source_file__":"13-常用公服设施点/CSV/上海市_汽车服务相关.csv"},"geometry":{"type":"Point","coordinates":[121.452232,31.25733]}},{"id":"4622","type":"Feature","properties":{"id":"B00154W3XX","name":"上海美铭实业有限公司","address":"中山北路856金甸大楼","type":"汽车服务;汽车服务相关;汽车服务相关","typecode":"010000","pcode":310000,"pname":"上海市","citycode":21,"cityname":"上海市","adcode":310106,"adname":"静安区","business_area":"和田","location":"121.456422,31.259200","tel":"021-56550625","bigType":"汽车服务","midType":"汽车服务相关","smallType":"汽车服务相关","gcj_lng":121.456422,"gcj_lat":31.2592,"wgs84_loc":"121.451845,31.261086","wgs84Lng":121.451845,"wgs84Lat":31.261086,"__source_file__":"13-常用公服设施点/CSV/上海市_汽车服务相关.csv"},"geometry":{"type":"Point","coordinates":[121.451845,31.261086]}},{"id":"162","type":"Feature","properties":{"id":"B0FFLFK16S","name":"良吉汽车服务","address":"中山北路558号","type":"汽车服务;汽车服务相关;汽车服务相关","typecode":"010000","pcode":310000,"pname":"上海市","citycode":21,"cityname":"上海市","adcode":310106,"adname":"静安区","business_area":"和田","location":"121.464279,31.261640","tel":"021-65929761","bigType":"汽车服务","midType":"汽车服务相关","smallType":"汽车服务相关","gcj_lng":121.464279,"gcj_lat":31.26164,"wgs84_loc":"121.459724,31.263544","wgs84Lng":121.459724,"wgs84Lat":31.263544,"__source_file__":"13-常用公服设施点/CSV/上海市_汽车服务相关.csv"},"geometry":{"type":"Point","coordinates":[121.459724,31.263544]}},{"id":"6231","type":"Feature","properties":{"id":"B0KDV5S3O1","name":"宴涵汽车服务","address":"青云路与中山北路交叉口东60米","type":"汽车服务;汽车服务相关;汽车服务相关","typecode":"010000","pcode":310000,"pname":"上海市","citycode":21,"cityname":"上海市","adcode":310106,"adname":"静安区","business_area":"宝山路","location":"121.465356,31.261874","tel":"[]","bigType":"汽车服务","midType":"汽车服务相关","smallType":"汽车服务相关","gcj_lng":121.465356,"gcj_lat":31.261874,"wgs84_loc":"121.460804,31.26378","wgs84Lng":121.460804,"wgs84Lat":31.26378,"__source_file__":"13-常用公服设施点/CSV/上海市_汽车服务相关.csv"},"geometry":{"type":"Point","coordinates":[121.460804,31.26378]}},{"id":"1888","type":"Feature","properties":{"id":"B0FFJ2FOC2","name":"祺旅汽配","address":"和田路1号附近","type":"汽车服务;汽车服务相关;汽车服务相关","typecode":"010000","pcode":310000,"pname":"上海市","citycode":21,"cityname":"上海市","adcode":310106,"adname":"静安区","business_area":"和田","location":"121.464547,31.263044","tel":"[]","bigType":"汽车服务","midType":"汽车服务相关","smallType":"汽车服务相关","gcj_lng":121.464547,"gcj_lat":31.263044,"wgs84_loc":"121.459992,31.264948","wgs84Lng":121.459992,"wgs84Lat":31.264948,"__source_file__":"13-常用公服设施点/CSV/上海市_汽车服务相关.csv"},"geometry":{"type":"Point","coordinates":[121.459992,31.264948]}},{"id":"6143","type":"Feature","properties":{"id":"B0K6KBXX4K","name":"上海辛皓(包车租车)服务有限公司","address":"柳营路618号(现代交通商务园)北楼716室","type":"汽车服务;汽车服务相关;汽车服务相关","typecode":"010000","pcode":310000,"pname":"上海市","citycode":21,"cityname":"上海市","adcode":310106,"adname":"静安区","business_area":"和田","location":"121.460151,31.264955","tel":"13127592888","bigType":"汽车服务","midType":"汽车服务相关","smallType":"汽车服务相关","gcj_lng":121.460151,"gcj_lat":31.264955,"wgs84_loc":"121.455583,31.266847","wgs84Lng":121.455583,"wgs84Lat":31.266847,"__source_file__":"13-常用公服设施点/CSV/上海市_汽车服务相关.csv"},"geometry":{"type":"Point","coordinates":[121.455583,31.266847]}},{"id":"6048","type":"Feature","properties":{"id":"B0J6MZHKTO","name":"J-auto汽美膜界中心(普陀店)","address":"中潭路91弄39号地下车库(中潭路地铁站2号口步行380米)","type":"汽车服务;汽车服务相关;汽车服务相关","typecode":"010000","pcode":310000,"pname":"上海市","citycode":21,"cityname":"上海市","adcode":310107,"adname":"普陀区","business_area":"光新","location":"121.443003,31.251995","tel":"15011024071","bigType":"汽车服务","midType":"汽车服务相关","smallType":"汽车服务相关","gcj_lng":121.443003,"gcj_lat":31.251995,"wgs84_loc":"121.438394,31.253857","wgs84Lng":121.438394,"wgs84Lat":31.253857,"__source_file__":"13-常用公服设施点/CSV/上海市_汽车服务相关.csv"},"geometry":{"type":"Point","coordinates":[121.438394,31.253857]}},{"id":"5929","type":"Feature","properties":{"id":"B0HUA55CA1","name":"车杰汽车服务","address":"交通路龚家宅","type":"汽车服务;汽车服务相关;汽车服务相关","typecode":"010000","pcode":310000,"pname":"上海市","citycode":21,"cityname":"上海市","adcode":310107,"adname":"普陀区","business_area":"光新","location":"121.444949,31.255100","tel":"[]","bigType":"汽车服务","midType":"汽车服务相关","smallType":"汽车服务相关","gcj_lng":121.444949,"gcj_lat":31.2551,"wgs84_loc":"121.440344,31.256964","wgs84Lng":121.440344,"wgs84Lat":31.256964,"__source_file__":"13-常用公服设施点/CSV/上海市_汽车服务相关.csv"},"geometry":{"type":"Point","coordinates":[121.440344,31.256964]}},{"id":"3631","type":"Feature","properties":{"id":"B0IBKYGLRJ","name":"车汇汽车服务","address":"[]","type":"汽车服务;汽车服务相关;汽车服务相关","typecode":"010000","pcode":310000,"pname":"上海市","citycode":21,"cityname":"上海市","adcode":310107,"adname":"普陀区","business_area":"光新","location":"121.445020,31.255181","tel":"[]","bigType":"汽车服务","midType":"汽车服务相关","smallType":"汽车服务相关","gcj_lng":121.44502,"gcj_lat":31.255181,"wgs84_loc":"121.440415,31.257045","wgs84Lng":121.440415,"wgs84Lat":31.257045,"__source_file__":"13-常用公服设施点/CSV/上海市_汽车服务相关.csv"},"geometry":{"type":"Point","coordinates":[121.440415,31.257045]}},{"id":"4325","type":"Feature","properties":{"id":"B0FFLBXJRL","name":"亦中(上海)汽车服务有限公司","address":"交通西路201号","type":"汽车服务;汽车服务相关;汽车服务相关","typecode":"010000","pcode":310000,"pname":"上海市","citycode":21,"cityname":"上海市","adcode":310107,"adname":"普陀区","business_area":"光新","location":"121.447341,31.257126","tel":"18621569002","bigType":"汽车服务","midType":"汽车服务相关","smallType":"汽车服务相关","gcj_lng":121.447341,"gcj_lat":31.257126,"wgs84_loc":"121.442741,31.258994","wgs84Lng":121.442741,"wgs84Lat":31.258994,"__source_file__":"13-常用公服设施点/CSV/上海市_汽车服务相关.csv"},"geometry":{"type":"Point","coordinates":[121.442741,31.258994]}},{"id":"206","type":"Feature","properties":{"id":"B0FFLACQTD","name":"中益拖车汽车道路救援(中山北路店)","address":"中山北路1218号","type":"汽车服务;汽车服务相关;汽车服务相关","typecode":"010000","pcode":310000,"pname":"上海市","citycode":21,"cityname":"上海市","adcode":310107,"adname":"普陀区","business_area":"光新","location":"121.447172,31.257169","tel":"[]","bigType":"汽车服务","midType":"汽车服务相关","smallType":"汽车服务相关","gcj_lng":121.447172,"gcj_lat":31.257169,"wgs84_loc":"121.442572,31.259037","wgs84Lng":121.442572,"wgs84Lat":31.259037,"__source_file__":"13-常用公服设施点/CSV/上海市_汽车服务相关.csv"},"geometry":{"type":"Point","coordinates":[121.442572,31.259037]}},{"id":"4712","type":"Feature","properties":{"id":"B0G0DZ7MCG","name":"全力吊车叉车(中山北路)","address":"沪太路与泰山支路交叉口东南约60米","type":"汽车服务;汽车服务相关;汽车服务相关","typecode":"010000","pcode":310000,"pname":"上海市","citycode":21,"cityname":"上海市","adcode":310106,"adname":"静安区","business_area":"和田","location":"121.449288,31.259109","tel":"[]","bigType":"汽车服务","midType":"汽车服务相关","smallType":"汽车服务相关","gcj_lng":121.449288,"gcj_lat":31.259109,"wgs84_loc":"121.444692,31.26098","wgs84Lng":121.444692,"wgs84Lat":31.26098,"__source_file__":"13-常用公服设施点/CSV/上海市_汽车服务相关.csv"},"geometry":{"type":"Point","coordinates":[121.444692,31.26098]}},{"id":"159","type":"Feature","properties":{"id":"B0FFG80NCD","name":"车享家汽车服务中心(上海洛川店)","address":"共和新路街道洛川中路840号","type":"汽车服务;汽车服务相关;汽车服务相关","typecode":"010000","pcode":310000,"pname":"上海市","citycode":21,"cityname":"上海市","adcode":310106,"adname":"静安区","business_area":"和田","location":"121.452234,31.265655","tel":"021-56770126","bigType":"汽车服务","midType":"汽车服务相关","smallType":"汽车服务相关","gcj_lng":121.452234,"gcj_lat":31.265655,"wgs84_loc":"121.447645,31.267529","wgs84Lng":121.447645,"wgs84Lat":31.267529,"__source_file__":"13-常用公服设施点/CSV/上海市_汽车服务相关.csv"},"geometry":{"type":"Point","coordinates":[121.447645,31.267529]}},{"id":"6083","type":"Feature","properties":{"id":"B0J0NZG2ZD","name":"求强邓禄普轮胎店","address":"洛川中路828号","type":"汽车服务;汽车服务相关;汽车服务相关","typecode":"010000","pcode":310000,"pname":"上海市","citycode":21,"cityname":"上海市","adcode":310106,"adname":"静安区","business_area":"和田","location":"121.452676,31.265767","tel":"13818189552","bigType":"汽车服务","midType":"汽车服务相关","smallType":"汽车服务相关","gcj_lng":121.452676,"gcj_lat":31.265767,"wgs84_loc":"121.448088,31.267642","wgs84Lng":121.448088,"wgs84Lat":31.267642,"__source_file__":"13-常用公服设施点/CSV/上海市_汽车服务相关.csv"},"geometry":{"type":"Point","coordinates":[121.448088,31.267642]}},{"id":"5935","type":"Feature","properties":{"id":"B0IASXQ56X","name":"别克汽车(沪太路店)","address":"沪太路沪太路788弄16号","type":"汽车服务;汽车服务相关;汽车服务相关","typecode":"010000","pcode":310000,"pname":"上海市","citycode":21,"cityname":"上海市","adcode":310107,"adname":"普陀区","business_area":"大宁路","location":"121.443632,31.265985","tel":"[]","bigType":"汽车服务","midType":"汽车服务相关","smallType":"汽车服务相关","gcj_lng":121.443632,"gcj_lat":31.265985,"wgs84_loc":"121.439023,31.267842","wgs84Lng":121.439023,"wgs84Lat":31.267842,"__source_file__":"13-常用公服设施点/CSV/上海市_汽车服务相关.csv"},"geometry":{"type":"Point","coordinates":[121.439023,31.267842]}},{"id":"1216","type":"Feature","properties":{"id":"B0FFI68KHI","name":"考拉爱车(老沪太路社区店)","address":"老沪太路1315号101室","type":"汽车服务;汽车服务相关;汽车服务相关","typecode":"010000","pcode":310000,"pname":"上海市","citycode":21,"cityname":"上海市","adcode":310106,"adname":"静安区","business_area":"大宁路","location":"121.440095,31.268826","tel":"021-56797126","bigType":"汽车服务","midType":"汽车服务相关","smallType":"汽车服务相关","gcj_lng":121.440095,"gcj_lat":31.268826,"wgs84_loc":"121.435478,31.270676","wgs84Lng":121.435478,"wgs84Lat":31.270676,"__source_file__":"13-常用公服设施点/CSV/上海市_汽车服务相关.csv"},"geometry":{"type":"Point","coordinates":[121.435478,31.270676]}},{"id":"184","type":"Feature","properties":{"id":"B0FFKUFSR4","name":"强生汽车服务","address":"中山北路1766号","type":"汽车服务;汽车服务相关;汽车服务相关","typecode":"010000","pcode":310000,"pname":"上海市","citycode":21,"cityname":"上海市","adcode":310107,"adname":"普陀区","business_area":"光新","location":"121.435748,31.252769","tel":"13671889299","bigType":"汽车服务","midType":"汽车服务相关","smallType":"汽车服务相关","gcj_lng":121.435748,"gcj_lat":31.252769,"wgs84_loc":"121.431125,31.254619","wgs84Lng":121.431125,"wgs84Lat":31.254619,"__source_file__":"13-常用公服设施点/CSV/上海市_汽车服务相关.csv"},"geometry":{"type":"Point","coordinates":[121.431125,31.254619]}},{"id":"1821","type":"Feature","properties":{"id":"B0HR06HX2U","name":"丰硕电动叉车租赁销售","address":"光新路268号","type":"汽车服务;汽车服务相关;汽车服务相关","typecode":"010000","pcode":310000,"pname":"上海市","citycode":21,"cityname":"上海市","adcode":310107,"adname":"普陀区","business_area":"光新","location":"121.431782,31.253638","tel":"18656256491","bigType":"汽车服务","midType":"汽车服务相关","smallType":"汽车服务相关","gcj_lng":121.431782,"gcj_lat":31.253638,"wgs84_loc":"121.427152,31.255482","wgs84Lng":121.427152,"wgs84Lat":31.255482,"__source_file__":"13-常用公服设施点/CSV/上海市_汽车服务相关.csv"},"geometry":{"type":"Point","coordinates":[121.427152,31.255482]}},{"id":"6173","type":"Feature","properties":{"id":"B00155CHBA","name":"芷新轮胎(交通路店)","address":"交通路2043号","type":"汽车服务;汽车服务相关;汽车服务相关","typecode":"010000","pcode":310000,"pname":"上海市","citycode":21,"cityname":"上海市","adcode":310107,"adname":"普陀区","business_area":"大宁路","location":"121.436028,31.257225","tel":"021-56373647;13611879407","bigType":"汽车服务","midType":"汽车服务相关","smallType":"汽车服务相关","gcj_lng":121.436028,"gcj_lat":31.257225,"wgs84_loc":"121.431405,31.259073","wgs84Lng":121.431405,"wgs84Lat":31.259073,"__source_file__":"13-常用公服设施点/CSV/上海市_汽车服务相关.csv"},"geometry":{"type":"Point","coordinates":[121.431405,31.259073]}},{"id":"5162","type":"Feature","properties":{"id":"B0HRLC2LWJ","name":"莱瑞车行","address":"交通路2143-2145号","type":"汽车服务;汽车服务相关;汽车服务相关","typecode":"010000","pcode":310000,"pname":"上海市","citycode":21,"cityname":"上海市","adcode":310107,"adname":"普陀区","business_area":"光新","location":"121.434320,31.257513","tel":"[]","bigType":"汽车服务","midType":"汽车服务相关","smallType":"汽车服务相关","gcj_lng":121.43432,"gcj_lat":31.257513,"wgs84_loc":"121.429694,31.259359","wgs84Lng":121.429694,"wgs84Lat":31.259359,"__source_file__":"13-常用公服设施点/CSV/上海市_汽车服务相关.csv"},"geometry":{"type":"Point","coordinates":[121.429694,31.259359]}},{"id":"1848","type":"Feature","properties":{"id":"B0G2C79C2C","name":"醒狮车改","address":"交通路2223-2227号","type":"汽车服务;汽车服务相关;汽车服务相关","typecode":"010000","pcode":310000,"pname":"上海市","citycode":21,"cityname":"上海市","adcode":310107,"adname":"普陀区","business_area":"大宁路","location":"121.433817,31.257634","tel":"13818870490","bigType":"汽车服务","midType":"汽车服务相关","smallType":"汽车服务相关","gcj_lng":121.433817,"gcj_lat":31.257634,"wgs84_loc":"121.42919,31.259479","wgs84Lng":121.42919,"wgs84Lat":31.259479,"__source_file__":"13-常用公服设施点/CSV/上海市_汽车服务相关.csv"},"geometry":{"type":"Point","coordinates":[121.42919,31.259479]}},{"id":"6230","type":"Feature","properties":{"id":"B0J0BORX8I","name":"乐澜汽车服务","address":"沪太路与新村路交叉口北120米","type":"汽车服务;汽车服务相关;汽车服务相关","typecode":"010000","pcode":310000,"pname":"上海市","citycode":21,"cityname":"上海市","adcode":310106,"adname":"静安区","business_area":"大宁路","location":"121.441181,31.269091","tel":"[]","bigType":"汽车服务","midType":"汽车服务相关","smallType":"汽车服务相关","gcj_lng":121.441181,"gcj_lat":31.269091,"wgs84_loc":"121.436567,31.270942","wgs84Lng":121.436567,"wgs84Lat":31.270942,"__source_file__":"13-常用公服设施点/CSV/上海市_汽车服务相关.csv"},"geometry":{"type":"Point","coordinates":[121.436567,31.270942]}},{"id":"1885","type":"Feature","properties":{"id":"B0H6XCX562","name":"乐澜汽车服务","address":"老沪太路1265号","type":"汽车服务;汽车服务相关;汽车服务相关","typecode":"010000","pcode":310000,"pname":"上海市","citycode":21,"cityname":"上海市","adcode":310106,"adname":"静安区","business_area":"大宁路","location":"121.441275,31.269099","tel":"15216842186;13917041117","bigType":"汽车服务","midType":"汽车服务相关","smallType":"汽车服务相关","gcj_lng":121.441275,"gcj_lat":31.269099,"wgs84_loc":"121.436661,31.270951","wgs84Lng":121.436661,"wgs84Lat":31.270951,"__source_file__":"13-常用公服设施点/CSV/上海市_汽车服务相关.csv"},"geometry":{"type":"Point","coordinates":[121.436661,31.270951]}},{"id":"1929","type":"Feature","properties":{"id":"B0HA2CQHFF","name":"驰宇叉车出租","address":"大宁路883弄13号乙1层","type":"汽车服务;汽车服务相关;汽车服务相关","typecode":"010000","pcode":310000,"pname":"上海市","citycode":21,"cityname":"上海市","adcode":310106,"adname":"静安区","business_area":"大宁路","location":"121.442872,31.270599","tel":"13774377727","bigType":"汽车服务","midType":"汽车服务相关","smallType":"汽车服务相关","gcj_lng":121.442872,"gcj_lat":31.270599,"wgs84_loc":"121.438261,31.272453","wgs84Lng":121.438261,"wgs84Lat":31.272453,"__source_file__":"13-常用公服设施点/CSV/上海市_汽车服务相关.csv"},"geometry":{"type":"Point","coordinates":[121.438261,31.272453]}},{"id":"158","type":"Feature","properties":{"id":"B0FFHI8FGR","name":"车享家汽车服务中心(上海运城路店)","address":"彭浦镇运城路267号一层","type":"汽车服务;汽车服务相关;汽车服务相关","typecode":"010000","pcode":310000,"pname":"上海市","citycode":21,"cityname":"上海市","adcode":310106,"adname":"静安区","business_area":"大宁路","location":"121.439449,31.270655","tel":"021-56319875","bigType":"汽车服务","midType":"汽车服务相关","smallType":"汽车服务相关","gcj_lng":121.439449,"gcj_lat":31.270655,"wgs84_loc":"121.434831,31.272503","wgs84Lng":121.434831,"wgs84Lat":31.272503,"__source_file__":"13-常用公服设施点/CSV/上海市_汽车服务相关.csv"},"geometry":{"type":"Point","coordinates":[121.434831,31.272503]}},{"id":"4783","type":"Feature","properties":{"id":"B0FFH1YEIA","name":"pp停车洗车打蜡","address":"大宁路571附近","type":"汽车服务;汽车服务相关;汽车服务相关","typecode":"010000","pcode":310000,"pname":"上海市","citycode":21,"cityname":"上海市","adcode":310106,"adname":"静安区","business_area":"大宁路","location":"121.449090,31.273642","tel":"[]","bigType":"汽车服务","midType":"汽车服务相关","smallType":"汽车服务相关","gcj_lng":121.44909,"gcj_lat":31.273642,"wgs84_loc":"121.444493,31.275506","wgs84Lng":121.444493,"wgs84Lat":31.275506,"__source_file__":"13-常用公服设施点/CSV/上海市_汽车服务相关.csv"},"geometry":{"type":"Point","coordinates":[121.444493,31.275506]}},{"id":"5909","type":"Feature","properties":{"id":"B0I1B15T8O","name":"迈凯伦上海销售服务中心","address":"湖滨路222号企业天地F1层","type":"汽车服务;汽车服务相关;汽车服务相关","typecode":"010000","pcode":310000,"pname":"上海市","citycode":21,"cityname":"上海市","adcode":310101,"adname":"黄浦区","business_area":"淮海路","location":"121.476159,31.220727","tel":"[]","bigType":"汽车服务","midType":"汽车服务相关","smallType":"汽车服务相关","gcj_lng":121.476159,"gcj_lat":31.220727,"wgs84_loc":"121.471645,31.222681","wgs84Lng":121.471645,"wgs84Lat":31.222681,"__source_file__":"13-常用公服设施点/CSV/上海市_汽车服务相关.csv"},"geometry":{"type":"Point","coordinates":[121.471645,31.222681]}},{"id":"48","type":"Feature","properties":{"id":"B0G0MDM7TM","name":"中源乐充上海广场汽车充电站","address":"淮海中路138号B2层","type":"汽车服务;汽车服务相关;汽车服务相关","typecode":"010000","pcode":310000,"pname":"上海市","citycode":21,"cityname":"上海市","adcode":310101,"adname":"黄浦区","business_area":"北京东路","location":"121.477867,31.225169","tel":"[]","bigType":"汽车服务","midType":"汽车服务相关","smallType":"汽车服务相关","gcj_lng":121.477867,"gcj_lat":31.225169,"wgs84_loc":"121.473358,31.227125","wgs84Lng":121.473358,"wgs84Lat":31.227125,"__source_file__":"13-常用公服设施点/CSV/上海市_汽车服务相关.csv"},"geometry":{"type":"Point","coordinates":[121.473358,31.227125]}},{"id":"5135","type":"Feature","properties":{"id":"B0IGFZRD6G","name":"惠力叉车吊车出租有限公司","address":"人民路857号(大世界地铁站5号口步行410米)","type":"汽车服务;汽车服务相关;汽车服务相关","typecode":"010000","pcode":310000,"pname":"上海市","citycode":21,"cityname":"上海市","adcode":310101,"adname":"黄浦区","business_area":"城隍庙","location":"121.482948,31.225952","tel":"18101722876","bigType":"汽车服务","midType":"汽车服务相关","smallType":"汽车服务相关","gcj_lng":121.482948,"gcj_lat":31.225952,"wgs84_loc":"121.478456,31.227922","wgs84Lng":121.478456,"wgs84Lat":31.227922,"__source_file__":"13-常用公服设施点/CSV/上海市_汽车服务相关.csv"},"geometry":{"type":"Point","coordinates":[121.478456,31.227922]}},{"id":"1150","type":"Feature","properties":{"id":"B0FFMBR70R","name":"上海人广地库迪美洗车美容","address":"黄陂北路武胜路迪美购物中心地下停车场","type":"汽车服务;汽车服务相关;汽车服务相关","typecode":"010000","pcode":310000,"pname":"上海市","citycode":21,"cityname":"上海市","adcode":310101,"adname":"黄浦区","business_area":"北京东路","location":"121.472772,31.227586","tel":"[]","bigType":"汽车服务","midType":"汽车服务相关","smallType":"汽车服务相关","gcj_lng":121.472772,"gcj_lat":31.227586,"wgs84_loc":"121.468246,31.229527","wgs84Lng":121.468246,"wgs84Lat":31.229527,"__source_file__":"13-常用公服设施点/CSV/上海市_汽车服务相关.csv"},"geometry":{"type":"Point","coordinates":[121.468246,31.229527]}},{"id":"46","type":"Feature","properties":{"id":"B0HGRLOSX8","name":"乐华汽车充电站(港陆广场直流充电站)","address":"云南中路与北海路交叉口南约60米","type":"汽车服务;汽车服务相关;汽车服务相关","typecode":"010000","pcode":310000,"pname":"上海市","citycode":21,"cityname":"上海市","adcode":310101,"adname":"黄浦区","business_area":"北京东路","location":"121.478647,31.229683","tel":"[]","bigType":"汽车服务","midType":"汽车服务相关","smallType":"汽车服务相关","gcj_lng":121.478647,"gcj_lat":31.229683,"wgs84_loc":"121.47414,31.231639","wgs84Lng":121.47414,"wgs84Lat":31.231639,"__source_file__":"13-常用公服设施点/CSV/上海市_汽车服务相关.csv"},"geometry":{"type":"Point","coordinates":[121.47414,31.231639]}},{"id":"1707","type":"Feature","properties":{"id":"B0FFJC4948","name":"孙行者救援在线","address":"浙江中路395号","type":"汽车服务;汽车服务相关;汽车服务相关","typecode":"010000","pcode":310000,"pname":"上海市","citycode":21,"cityname":"上海市","adcode":310101,"adname":"黄浦区","business_area":"北京东路","location":"121.478075,31.236148","tel":"4000040195","bigType":"汽车服务","midType":"汽车服务相关","smallType":"汽车服务相关","gcj_lng":121.478075,"gcj_lat":31.236148,"wgs84_loc":"121.473566,31.2381","wgs84Lng":121.473566,"wgs84Lat":31.2381,"__source_file__":"13-常用公服设施点/CSV/上海市_汽车服务相关.csv"},"geometry":{"type":"Point","coordinates":[121.473566,31.2381]}},{"id":"4230","type":"Feature","properties":{"id":"B0FFKR04P6","name":"网约车乘客险","address":"云南北路与牛庄路交叉口西南50米","type":"汽车服务;汽车服务相关;汽车服务相关","typecode":"010000","pcode":310000,"pname":"上海市","citycode":21,"cityname":"上海市","adcode":310101,"adname":"黄浦区","business_area":"北京东路","location":"121.475056,31.236763","tel":"[]","bigType":"汽车服务","midType":"汽车服务相关","smallType":"汽车服务相关","gcj_lng":121.475056,"gcj_lat":31.236763,"wgs84_loc":"121.470537,31.238706","wgs84Lng":121.470537,"wgs84Lat":31.238706,"__source_file__":"13-常用公服设施点/CSV/上海市_汽车服务相关.csv"},"geometry":{"type":"Point","coordinates":[121.470537,31.238706]}},{"id":"49","type":"Feature","properties":{"id":"B0GK05AX1E","name":"乐充充电港陆黄浦中心直流汽车充电","address":"牛庄路与六合路交叉口东北约20米","type":"汽车服务;汽车服务相关;汽车服务相关","typecode":"010000","pcode":310000,"pname":"上海市","citycode":21,"cityname":"上海市","adcode":310101,"adname":"黄浦区","business_area":"北京东路","location":"121.474862,31.236946","tel":"[]","bigType":"汽车服务","midType":"汽车服务相关","smallType":"汽车服务相关","gcj_lng":121.474862,"gcj_lat":31.236946,"wgs84_loc":"121.470342,31.238888","wgs84Lng":121.470342,"wgs84Lat":31.238888,"__source_file__":"13-常用公服设施点/CSV/上海市_汽车服务相关.csv"},"geometry":{"type":"Point","coordinates":[121.470342,31.238888]}},{"id":"5905","type":"Feature","properties":{"id":"B0IDOZXIOG","name":"专业拖车救援","address":"广西北路493号","type":"汽车服务;汽车服务相关;汽车服务相关","typecode":"010000","pcode":310000,"pname":"上海市","citycode":21,"cityname":"上海市","adcode":310101,"adname":"黄浦区","business_area":"北京东路","location":"121.476270,31.237228","tel":"[]","bigType":"汽车服务","midType":"汽车服务相关","smallType":"汽车服务相关","gcj_lng":121.47627,"gcj_lat":31.237228,"wgs84_loc":"121.471755,31.239174","wgs84Lng":121.471755,"wgs84Lat":31.239174,"__source_file__":"13-常用公服设施点/CSV/上海市_汽车服务相关.csv"},"geometry":{"type":"Point","coordinates":[121.471755,31.239174]}},{"id":"1783","type":"Feature","properties":{"id":"B0HKVH5JB7","name":"牛丁国标车","address":"福建中路485号","type":"汽车服务;汽车服务相关;汽车服务相关","typecode":"010000","pcode":310000,"pname":"上海市","citycode":21,"cityname":"上海市","adcode":310101,"adname":"黄浦区","business_area":"北京东路","location":"121.479359,31.238130","tel":"[]","bigType":"汽车服务","midType":"汽车服务相关","smallType":"汽车服务相关","gcj_lng":121.479359,"gcj_lat":31.23813,"wgs84_loc":"121.474854,31.240084","wgs84Lng":121.474854,"wgs84Lat":31.240084,"__source_file__":"13-常用公服设施点/CSV/上海市_汽车服务相关.csv"},"geometry":{"type":"Point","coordinates":[121.474854,31.240084]}},{"id":"1706","type":"Feature","properties":{"id":"B0GKKUYTNZ","name":"景乔道路救援","address":"河南中路199号","type":"汽车服务;汽车服务相关;汽车服务相关","typecode":"010000","pcode":310000,"pname":"上海市","citycode":21,"cityname":"上海市","adcode":310101,"adname":"黄浦区","business_area":"北京东路","location":"121.485807,31.233572","tel":"[]","bigType":"汽车服务","midType":"汽车服务相关","smallType":"汽车服务相关","gcj_lng":121.485807,"gcj_lat":31.233572,"wgs84_loc":"121.481325,31.235547","wgs84Lng":121.481325,"wgs84Lat":31.235547,"__source_file__":"13-常用公服设施点/CSV/上海市_汽车服务相关.csv"},"geometry":{"type":"Point","coordinates":[121.481325,31.235547]}},{"id":"1782","type":"Feature","properties":{"id":"B0FFK0V5VY","name":"国拍车牌服务网点","address":"福州路108号","type":"汽车服务;汽车服务相关;汽车服务相关","typecode":"010000","pcode":310000,"pname":"上海市","citycode":21,"cityname":"上海市","adcode":310101,"adname":"黄浦区","business_area":"北京东路","location":"121.488544,31.235399","tel":"4001155136","bigType":"汽车服务","midType":"汽车服务相关","smallType":"汽车服务相关","gcj_lng":121.488544,"gcj_lat":31.235399,"wgs84_loc":"121.484071,31.237381","wgs84Lng":121.484071,"wgs84Lat":31.237381,"__source_file__":"13-常用公服设施点/CSV/上海市_汽车服务相关.csv"},"geometry":{"type":"Point","coordinates":[121.484071,31.237381]}},{"id":"1790","type":"Feature","properties":{"id":"B0FFKP5IB1","name":"上海君祥租车(外滩店)","address":"中山东一路12号附近","type":"汽车服务;汽车服务相关;汽车服务相关","typecode":"010000","pcode":310000,"pname":"上海市","citycode":21,"cityname":"上海市","adcode":310101,"adname":"黄浦区","business_area":"北京东路","location":"121.489894,31.236047","tel":"021-58696999","bigType":"汽车服务","midType":"汽车服务相关","smallType":"汽车服务相关","gcj_lng":121.489894,"gcj_lat":31.236047,"wgs84_loc":"121.485426,31.238033","wgs84Lng":121.485426,"wgs84Lat":31.238033,"__source_file__":"13-常用公服设施点/CSV/上海市_汽车服务相关.csv"},"geometry":{"type":"Point","coordinates":[121.485426,31.238033]}},{"id":"1780","type":"Feature","properties":{"id":"B0G1Z43V02","name":"万牛膈膜屋(外滩店)","address":"南京东路139号外滩中央广场美伦大楼2层","type":"汽车服务;汽车服务相关;汽车服务相关","typecode":"010000","pcode":310000,"pname":"上海市","citycode":21,"cityname":"上海市","adcode":310101,"adname":"黄浦区","business_area":"北京东路","location":"121.486936,31.238080","tel":"021-63730987","bigType":"汽车服务","midType":"汽车服务相关","smallType":"汽车服务相关","gcj_lng":121.486936,"gcj_lat":31.23808,"wgs84_loc":"121.482457,31.240056","wgs84Lng":121.482457,"wgs84Lat":31.240056,"__source_file__":"13-常用公服设施点/CSV/上海市_汽车服务相关.csv"},"geometry":{"type":"Point","coordinates":[121.482457,31.240056]}},{"id":"900","type":"Feature","properties":{"id":"B0FFFDO1DW","name":"东方明珠塔贵宾车道(2)","address":"丰和路与明珠塔路交叉口东约20米","type":"汽车服务;汽车服务相关;汽车服务相关","typecode":"010000","pcode":310000,"pname":"上海市","citycode":21,"cityname":"上海市","adcode":310115,"adname":"浦东新区","business_area":"陆家嘴","location":"121.499371,31.239073","tel":"[]","bigType":"汽车服务","midType":"汽车服务相关","smallType":"汽车服务相关","gcj_lng":121.499371,"gcj_lat":31.239073,"wgs84_loc":"121.494937,31.241086","wgs84Lng":121.494937,"wgs84Lat":31.241086,"__source_file__":"13-常用公服设施点/CSV/上海市_汽车服务相关.csv"},"geometry":{"type":"Point","coordinates":[121.494937,31.241086]}},{"id":"1784","type":"Feature","properties":{"id":"B0FFLJBNNE","name":"赛麟汽车(上海体验中心)","address":"黄浦区中山东一路27号罗斯福公馆一层","type":"汽车服务;汽车服务相关;汽车服务相关","typecode":"010000","pcode":310000,"pname":"上海市","citycode":21,"cityname":"上海市","adcode":310101,"adname":"黄浦区","business_area":"北京东路","location":"121.489937,31.240311","tel":"021-63210630","bigType":"汽车服务","midType":"汽车服务相关","smallType":"汽车服务相关","gcj_lng":121.489937,"gcj_lat":31.240311,"wgs84_loc":"121.485469,31.242295","wgs84Lng":121.485469,"wgs84Lat":31.242295,"__source_file__":"13-常用公服设施点/CSV/上海市_汽车服务相关.csv"},"geometry":{"type":"Point","coordinates":[121.485469,31.242295]}},{"id":"4972","type":"Feature","properties":{"id":"B0FFKOM56X","name":"SSC国际经典车超级盛荟","address":"东大名路与旅顺路交叉路口往南约100米","type":"汽车服务;汽车服务相关;汽车服务相关","typecode":"010000","pcode":310000,"pname":"上海市","citycode":21,"cityname":"上海市","adcode":310109,"adname":"虹口区","business_area":"北外滩","location":"121.496689,31.246147","tel":"[]","bigType":"汽车服务","midType":"汽车服务相关","smallType":"汽车服务相关","gcj_lng":121.496689,"gcj_lat":31.246147,"wgs84_loc":"121.492244,31.248149","wgs84Lng":121.492244,"wgs84Lat":31.248149,"__source_file__":"13-常用公服设施点/CSV/上海市_汽车服务相关.csv"},"geometry":{"type":"Point","coordinates":[121.492244,31.248149]}},{"id":"5156","type":"Feature","properties":{"id":"B0IBM5HCGN","name":"奉贤路65号共享车行","address":"奉贤路65号(南京西路地铁站2号口步行180米)","type":"汽车服务;汽车服务相关;汽车服务相关","typecode":"010000","pcode":310000,"pname":"上海市","citycode":21,"cityname":"上海市","adcode":310106,"adname":"静安区","business_area":"淮海路","location":"121.461260,31.231557","tel":"[]","bigType":"汽车服务","midType":"汽车服务相关","smallType":"汽车服务相关","gcj_lng":121.46126,"gcj_lat":31.231557,"wgs84_loc":"121.456699,31.233467","wgs84Lng":121.456699,"wgs84Lat":31.233467,"__source_file__":"13-常用公服设施点/CSV/上海市_汽车服务相关.csv"},"geometry":{"type":"Point","coordinates":[121.456699,31.233467]}},{"id":"1793","type":"Feature","properties":{"id":"B0G0TSDHMS","name":"上海金诚汽车服务中心(南京西路)","address":"南京西路288号创兴金融中心1层","type":"汽车服务;汽车服务相关;汽车服务相关","typecode":"010000","pcode":310000,"pname":"上海市","citycode":21,"cityname":"上海市","adcode":310101,"adname":"黄浦区","business_area":"北京东路","location":"121.470479,31.232136","tel":"[]","bigType":"汽车服务","midType":"汽车服务相关","smallType":"汽车服务相关","gcj_lng":121.470479,"gcj_lat":31.232136,"wgs84_loc":"121.465945,31.234069","wgs84Lng":121.465945,"wgs84Lat":31.234069,"__source_file__":"13-常用公服设施点/CSV/上海市_汽车服务相关.csv"},"geometry":{"type":"Point","coordinates":[121.465945,31.234069]}},{"id":"1215","type":"Feature","properties":{"id":"B0H0F7KRHR","name":"车体美容护理","address":"北京西路辅路与成都北路交叉口西南约40米","type":"汽车服务;汽车服务相关;汽车服务相关","typecode":"010000","pcode":310000,"pname":"上海市","citycode":21,"cityname":"上海市","adcode":310106,"adname":"静安区","business_area":"淮海路","location":"121.465851,31.234181","tel":"[]","bigType":"汽车服务","midType":"汽车服务相关","smallType":"汽车服务相关","gcj_lng":121.465851,"gcj_lat":31.234181,"wgs84_loc":"121.461303,31.236101","wgs84Lng":121.461303,"wgs84Lat":31.236101,"__source_file__":"13-常用公服设施点/CSV/上海市_汽车服务相关.csv"},"geometry":{"type":"Point","coordinates":[121.461303,31.236101]}},{"id":"1806","type":"Feature","properties":{"id":"B0FFL79SBO","name":"上海拯通汽车牵引服务有限公司","address":"新闸路168号","type":"汽车服务;汽车服务相关;汽车服务相关","typecode":"010000","pcode":310000,"pname":"上海市","citycode":21,"cityname":"上海市","adcode":310101,"adname":"黄浦区","business_area":"北京东路","location":"121.470767,31.238137","tel":"[]","bigType":"汽车服务","midType":"汽车服务相关","smallType":"汽车服务相关","gcj_lng":121.470767,"gcj_lat":31.238137,"wgs84_loc":"121.466234,31.240068","wgs84Lng":121.466234,"wgs84Lat":31.240068,"__source_file__":"13-常用公服设施点/CSV/上海市_汽车服务相关.csv"},"geometry":{"type":"Point","coordinates":[121.466234,31.240068]}},{"id":"171","type":"Feature","properties":{"id":"B0HKMS7RSD","name":"黄鹏汽车开锁汽车钥匙4s店","address":"长安路500号","type":"汽车服务;汽车服务相关;汽车服务相关","typecode":"010000","pcode":310000,"pname":"上海市","citycode":21,"cityname":"上海市","adcode":310106,"adname":"静安区","business_area":"[]","location":"121.456992,31.239988","tel":"021-68799998","bigType":"汽车服务","midType":"汽车服务相关","smallType":"汽车服务相关","gcj_lng":121.456992,"gcj_lat":31.239988,"wgs84_loc":"121.452418,31.241884","wgs84Lng":121.452418,"wgs84Lat":31.241884,"__source_file__":"13-常用公服设施点/CSV/上海市_汽车服务相关.csv"},"geometry":{"type":"Point","coordinates":[121.452418,31.241884]}},{"id":"1932","type":"Feature","properties":{"id":"B0G2T18V7Y","name":"亨通叉车出租","address":"梅园路101号","type":"汽车服务;汽车服务相关;汽车服务相关","typecode":"010000","pcode":310000,"pname":"上海市","citycode":21,"cityname":"上海市","adcode":310106,"adname":"静安区","business_area":"[]","location":"121.459152,31.242893","tel":"13195421237","bigType":"汽车服务","midType":"汽车服务相关","smallType":"汽车服务相关","gcj_lng":121.459152,"gcj_lat":31.242893,"wgs84_loc":"121.454584,31.244793","wgs84Lng":121.454584,"wgs84Lat":31.244793,"__source_file__":"13-常用公服设施点/CSV/上海市_汽车服务相关.csv"},"geometry":{"type":"Point","coordinates":[121.454584,31.244793]}},{"id":"2561","type":"Feature","properties":{"id":"B0FFKS7BPW","name":"凹凸租车","address":"西藏北路与西藏北路辅路交叉口附近","type":"汽车服务;汽车服务相关;汽车服务相关","typecode":"010000","pcode":310000,"pname":"上海市","citycode":21,"cityname":"上海市","adcode":310106,"adname":"静安区","business_area":"七浦路","location":"121.471566,31.243943","tel":"[]","bigType":"汽车服务","midType":"汽车服务相关","smallType":"汽车服务相关","gcj_lng":121.471566,"gcj_lat":31.243943,"wgs84_loc":"121.467035,31.245873","wgs84Lng":121.467035,"wgs84Lat":31.245873,"__source_file__":"13-常用公服设施点/CSV/上海市_汽车服务相关.csv"},"geometry":{"type":"Point","coordinates":[121.467035,31.245873]}},{"id":"5157","type":"Feature","properties":{"id":"B0H2DCEPC8","name":"诚祥吊车叉车挖机出租","address":"南星路南星小区2号楼门面","type":"汽车服务;汽车服务相关;汽车服务相关","typecode":"010000","pcode":310000,"pname":"上海市","citycode":21,"cityname":"上海市","adcode":310106,"adname":"静安区","business_area":"七浦路","location":"121.465904,31.243983","tel":"18101959503","bigType":"汽车服务","midType":"汽车服务相关","smallType":"汽车服务相关","gcj_lng":121.465904,"gcj_lat":31.243983,"wgs84_loc":"121.461355,31.245899","wgs84Lng":121.461355,"wgs84Lat":31.245899,"__source_file__":"13-常用公服设施点/CSV/上海市_汽车服务相关.csv"},"geometry":{"type":"Point","coordinates":[121.461355,31.245899]}},{"id":"174","type":"Feature","properties":{"id":"B0G32CHTGK","name":"汽车服务(修理轮胎洗车)","address":"晋元路中石化加油站327号","type":"汽车服务;汽车服务相关;汽车服务相关","typecode":"010000","pcode":310000,"pname":"上海市","citycode":21,"cityname":"上海市","adcode":310106,"adname":"静安区","business_area":"七浦路","location":"121.469339,31.245306","tel":"[]","bigType":"汽车服务","midType":"汽车服务相关","smallType":"汽车服务相关","gcj_lng":121.469339,"gcj_lat":31.245306,"wgs84_loc":"121.464801,31.24723","wgs84Lng":121.464801,"wgs84Lat":31.24723,"__source_file__":"13-常用公服设施点/CSV/上海市_汽车服务相关.csv"},"geometry":{"type":"Point","coordinates":[121.464801,31.24723]}},{"id":"4730","type":"Feature","properties":{"id":"B0GDOUP83S","name":"奕麦(上海)汽车服务有限公司","address":"天目西路128号企业中心1座803","type":"汽车服务;汽车服务相关;汽车服务相关","typecode":"010000","pcode":310000,"pname":"上海市","citycode":21,"cityname":"上海市","adcode":310106,"adname":"静安区","business_area":"宝山路","location":"121.458672,31.245454","tel":"[]","bigType":"汽车服务","midType":"汽车服务相关","smallType":"汽车服务相关","gcj_lng":121.458672,"gcj_lat":31.245454,"wgs84_loc":"121.454102,31.247351","wgs84Lng":121.454102,"wgs84Lat":31.247351,"__source_file__":"13-常用公服设施点/CSV/上海市_汽车服务相关.csv"},"geometry":{"type":"Point","coordinates":[121.454102,31.247351]}},{"id":"1812","type":"Feature","properties":{"id":"B0HGV7ROSN","name":"耀朗吊车叉车出租","address":"北京东路","type":"汽车服务;汽车服务相关;汽车服务相关","typecode":"010000","pcode":310000,"pname":"上海市","citycode":21,"cityname":"上海市","adcode":310101,"adname":"黄浦区","business_area":"北京东路","location":"121.474622,31.238149","tel":"13816004516","bigType":"汽车服务","midType":"汽车服务相关","smallType":"汽车服务相关","gcj_lng":121.474622,"gcj_lat":31.238149,"wgs84_loc":"121.470101,31.24009","wgs84Lng":121.470101,"wgs84Lat":31.24009,"__source_file__":"13-常用公服设施点/CSV/上海市_汽车服务相关.csv"},"geometry":{"type":"Point","coordinates":[121.470101,31.24009]}},{"id":"6169","type":"Feature","properties":{"id":"B0K2JM26UP","name":"鑫光吊车叉车高空车搬运","address":"青村镇南公路3878号26146","type":"汽车服务;汽车服务相关;汽车服务相关","typecode":"010000","pcode":310000,"pname":"上海市","citycode":21,"cityname":"上海市","adcode":310101,"adname":"黄浦区","business_area":"北京路","location":"121.481302,31.239007","tel":"13052514666","bigType":"汽车服务","midType":"汽车服务相关","smallType":"汽车服务相关","gcj_lng":121.481302,"gcj_lat":31.239007,"wgs84_loc":"121.476804,31.240967","wgs84Lng":121.476804,"wgs84Lat":31.240967,"__source_file__":"13-常用公服设施点/CSV/上海市_汽车服务相关.csv"},"geometry":{"type":"Point","coordinates":[121.476804,31.240967]}},{"id":"5906","type":"Feature","properties":{"id":"B0IDOZWCPF","name":"专业拖车救援","address":"西藏中路37号","type":"汽车服务;汽车服务相关;汽车服务相关","typecode":"010000","pcode":310000,"pname":"上海市","citycode":21,"cityname":"上海市","adcode":310101,"adname":"黄浦区","business_area":"北京东路","location":"121.476739,31.239187","tel":"[]","bigType":"汽车服务","midType":"汽车服务相关","smallType":"汽车服务相关","gcj_lng":121.476739,"gcj_lat":31.239187,"wgs84_loc":"121.472225,31.241134","wgs84Lng":121.472225,"wgs84Lat":31.241134,"__source_file__":"13-常用公服设施点/CSV/上海市_汽车服务相关.csv"},"geometry":{"type":"Point","coordinates":[121.472225,31.241134]}},{"id":"1807","type":"Feature","properties":{"id":"B001557HFW","name":"菱重叉车(上海)有限公司","address":"西藏中路728号美欣大厦","type":"汽车服务;汽车服务相关;汽车服务相关","typecode":"010000","pcode":310000,"pname":"上海市","citycode":21,"cityname":"上海市","adcode":310101,"adname":"黄浦区","business_area":"北京东路","location":"121.473008,31.239780","tel":"13621653190","bigType":"汽车服务","midType":"汽车服务相关","smallType":"汽车服务相关","gcj_lng":121.473008,"gcj_lat":31.23978,"wgs84_loc":"121.468482,31.241716","wgs84Lng":121.468482,"wgs84Lat":31.241716,"__source_file__":"13-常用公服设施点/CSV/上海市_汽车服务相关.csv"},"geometry":{"type":"Point","coordinates":[121.468482,31.241716]}},{"id":"3915","type":"Feature","properties":{"id":"B0FFJRWDPC","name":"上海车坤汽车服务有限公司","address":"河南北路233号圣和圣时尚汇西区B2层","type":"汽车服务;汽车服务相关;汽车服务相关","typecode":"010000","pcode":310000,"pname":"上海市","citycode":21,"cityname":"上海市","adcode":310106,"adname":"静安区","business_area":"七浦路","location":"121.480261,31.246748","tel":"[]","bigType":"汽车服务","midType":"汽车服务相关","smallType":"汽车服务相关","gcj_lng":121.480261,"gcj_lat":31.246748,"wgs84_loc":"121.475758,31.248701","wgs84Lng":121.475758,"wgs84Lat":31.248701,"__source_file__":"13-常用公服设施点/CSV/上海市_汽车服务相关.csv"},"geometry":{"type":"Point","coordinates":[121.475758,31.248701]}},{"id":"6072","type":"Feature","properties":{"id":"B0LBLCMCQL","name":"德国马牌轮缘汽车维修厂","address":"四川北路859号(四川北路地铁站2号口步行420米)","type":"汽车服务;汽车服务相关;汽车服务相关","typecode":"010000","pcode":310000,"pname":"上海市","citycode":21,"cityname":"上海市","adcode":310109,"adname":"虹口区","business_area":"上海北外滩中心","location":"121.484632,31.248565","tel":"[]","bigType":"汽车服务","midType":"汽车服务相关","smallType":"汽车服务相关","gcj_lng":121.484632,"gcj_lat":31.248565,"wgs84_loc":"121.480144,31.25053","wgs84Lng":121.480144,"wgs84Lat":31.25053,"__source_file__":"13-常用公服设施点/CSV/上海市_汽车服务相关.csv"},"geometry":{"type":"Point","coordinates":[121.480144,31.25053]}},{"id":"4285","type":"Feature","properties":{"id":"B0HBK6N4MC","name":"天猫汽车(中信广场店)","address":"四川北路859号中信广场F1","type":"汽车服务;汽车服务相关;汽车服务相关","typecode":"010000","pcode":310000,"pname":"上海市","citycode":21,"cityname":"上海市","adcode":310109,"adname":"虹口区","business_area":"北外滩","location":"121.484394,31.248600","tel":"[]","bigType":"汽车服务","midType":"汽车服务相关","smallType":"汽车服务相关","gcj_lng":121.484394,"gcj_lat":31.2486,"wgs84_loc":"121.479906,31.250564","wgs84Lng":121.479906,"wgs84Lat":31.250564,"__source_file__":"13-常用公服设施点/CSV/上海市_汽车服务相关.csv"},"geometry":{"type":"Point","coordinates":[121.479906,31.250564]}},{"id":"5928","type":"Feature","properties":{"id":"B0IRP75BP8","name":"车立行汽车维修美容(宝源路店)","address":"宝源路265号(东宝兴路地铁站2号口步行160米)","type":"汽车服务;汽车服务相关;汽车服务相关","typecode":"010000","pcode":310000,"pname":"上海市","citycode":21,"cityname":"上海市","adcode":310106,"adname":"静安区","business_area":"宝山路","location":"121.480214,31.257767","tel":"[]","bigType":"汽车服务","midType":"汽车服务相关","smallType":"汽车服务相关","gcj_lng":121.480214,"gcj_lat":31.257767,"wgs84_loc":"121.47571,31.259715","wgs84Lng":121.47571,"wgs84Lat":31.259715,"__source_file__":"13-常用公服设施点/CSV/上海市_汽车服务相关.csv"},"geometry":{"type":"Point","coordinates":[121.47571,31.259715]}},{"id":"1985","type":"Feature","properties":{"id":"B0FFJ0M8FA","name":"TOP+车体养护贴膜","address":"四川北路1689号附近","type":"汽车服务;汽车服务相关;汽车服务相关","typecode":"010000","pcode":310000,"pname":"上海市","citycode":21,"cityname":"上海市","adcode":310109,"adname":"虹口区","business_area":"宝山路","location":"121.482548,31.258550","tel":"18516241518","bigType":"汽车服务","midType":"汽车服务相关","smallType":"汽车服务相关","gcj_lng":121.482548,"gcj_lat":31.25855,"wgs84_loc":"121.478052,31.260504","wgs84Lng":121.478052,"wgs84Lat":31.260504,"__source_file__":"13-常用公服设施点/CSV/上海市_汽车服务相关.csv"},"geometry":{"type":"Point","coordinates":[121.478052,31.260504]}},{"id":"4608","type":"Feature","properties":{"id":"B0FFKDBN1D","name":"洗车","address":"东横浜路与海伦西路交叉口北100米","type":"汽车服务;汽车服务相关;汽车服务相关","typecode":"010000","pcode":310000,"pname":"上海市","citycode":21,"cityname":"上海市","adcode":310109,"adname":"虹口区","business_area":"宝山路","location":"121.480719,31.261189","tel":"[]","bigType":"汽车服务","midType":"汽车服务相关","smallType":"汽车服务相关","gcj_lng":121.480719,"gcj_lat":31.261189,"wgs84_loc":"121.476217,31.263137","wgs84Lng":121.476217,"wgs84Lat":31.263137,"__source_file__":"13-常用公服设施点/CSV/上海市_汽车服务相关.csv"},"geometry":{"type":"Point","coordinates":[121.476217,31.263137]}},{"id":"5939","type":"Feature","properties":{"id":"B0I1J5GK5M","name":"汽车之家能源空间站","address":"星荟中心L104","type":"汽车服务;汽车服务相关;汽车服务相关","typecode":"010000","pcode":310000,"pname":"上海市","citycode":21,"cityname":"上海市","adcode":310109,"adname":"虹口区","business_area":"北外滩","location":"121.486438,31.246683","tel":"[]","bigType":"汽车服务","midType":"汽车服务相关","smallType":"汽车服务相关","gcj_lng":121.486438,"gcj_lat":31.246683,"wgs84_loc":"121.481957,31.248654","wgs84Lng":121.481957,"wgs84Lat":31.248654,"__source_file__":"13-常用公服设施点/CSV/上海市_汽车服务相关.csv"},"geometry":{"type":"Point","coordinates":[121.481957,31.248654]}},{"id":"5170","type":"Feature","properties":{"id":"B0HBXUQNK9","name":"具荣汽车服务(上海)有限公司","address":"吴淞路308号1206室","type":"汽车服务;汽车服务相关;汽车服务相关","typecode":"010000","pcode":310000,"pname":"上海市","citycode":21,"cityname":"上海市","adcode":310109,"adname":"虹口区","business_area":"提篮桥","location":"121.489743,31.249789","tel":"4000999237","bigType":"汽车服务","midType":"汽车服务相关","smallType":"汽车服务相关","gcj_lng":121.489743,"gcj_lat":31.249789,"wgs84_loc":"121.485273,31.251768","wgs84Lng":121.485273,"wgs84Lat":31.251768,"__source_file__":"13-常用公服设施点/CSV/上海市_汽车服务相关.csv"},"geometry":{"type":"Point","coordinates":[121.485273,31.251768]}},{"id":"4179","type":"Feature","properties":{"id":"B0FFLFGIQA","name":"上海炜煜汽车服务有限公司","address":"北外滩街道旅顺路169号(近东长治路)","type":"汽车服务;汽车服务相关;汽车服务相关|汽车维修;汽车维修;汽车维修","typecode":"010000|030000","pcode":310000,"pname":"上海市","citycode":21,"cityname":"上海市","adcode":310109,"adname":"虹口区","business_area":"提篮桥","location":"121.495002,31.249808","tel":"[]","bigType":"汽车服务","midType":"汽车服务相关","smallType":"汽车服务相关|汽车维修","gcj_lng":121.495002,"gcj_lat":31.249808,"wgs84_loc":"121.490551,31.251803","wgs84Lng":121.490551,"wgs84Lat":31.251803,"__source_file__":"13-常用公服设施点/CSV/上海市_汽车服务相关.csv"},"geometry":{"type":"Point","coordinates":[121.490551,31.251803]}},{"id":"1876","type":"Feature","properties":{"id":"B0H1KH0MJA","name":"煜炜汽车服务","address":"旅顺路上海外滩W酒店西北侧约120米","type":"汽车服务;汽车服务相关;汽车服务相关","typecode":"010000","pcode":310000,"pname":"上海市","citycode":21,"cityname":"上海市","adcode":310109,"adname":"虹口区","business_area":"提篮桥","location":"121.495050,31.249837","tel":"[]","bigType":"汽车服务","midType":"汽车服务相关","smallType":"汽车服务相关","gcj_lng":121.49505,"gcj_lat":31.249837,"wgs84_loc":"121.490599,31.251832","wgs84Lng":121.490599,"wgs84Lat":31.251832,"__source_file__":"13-常用公服设施点/CSV/上海市_汽车服务相关.csv"},"geometry":{"type":"Point","coordinates":[121.490599,31.251832]}},{"id":"215","type":"Feature","properties":{"id":"B0FFGZAO0L","name":"车享家汽车服务中心(东汉阳路店)","address":"东汉阳路284号","type":"汽车服务;汽车服务相关;汽车服务相关","typecode":"010000","pcode":310000,"pname":"上海市","citycode":21,"cityname":"上海市","adcode":310109,"adname":"虹口区","business_area":"提篮桥","location":"121.494528,31.250709","tel":"021-65126028","bigType":"汽车服务","midType":"汽车服务相关","smallType":"汽车服务相关","gcj_lng":121.494528,"gcj_lat":31.250709,"wgs84_loc":"121.490075,31.252702","wgs84Lng":121.490075,"wgs84Lat":31.252702,"__source_file__":"13-常用公服设施点/CSV/上海市_汽车服务相关.csv"},"geometry":{"type":"Point","coordinates":[121.490075,31.252702]}},{"id":"2602","type":"Feature","properties":{"id":"B0HU2ZTH6U","name":"炜煜新汽美","address":"东汉阳路268号","type":"汽车服务;汽车服务相关;汽车服务相关","typecode":"010000","pcode":310000,"pname":"上海市","citycode":21,"cityname":"上海市","adcode":310109,"adname":"虹口区","business_area":"北外滩","location":"121.494103,31.250782","tel":"18939823308","bigType":"汽车服务","midType":"汽车服务相关","smallType":"汽车服务相关","gcj_lng":121.494103,"gcj_lat":31.250782,"wgs84_loc":"121.489649,31.252774","wgs84Lng":121.489649,"wgs84Lat":31.252774,"__source_file__":"13-常用公服设施点/CSV/上海市_汽车服务相关.csv"},"geometry":{"type":"Point","coordinates":[121.489649,31.252774]}},{"id":"2603","type":"Feature","properties":{"id":"B0GU7SF3PL","name":"1886品质汽美(东汉阳路店)","address":"东汉阳路276号","type":"汽车服务;汽车服务相关;汽车服务相关","typecode":"010000","pcode":310000,"pname":"上海市","citycode":21,"cityname":"上海市","adcode":310109,"adname":"虹口区","business_area":"提篮桥","location":"121.494361,31.250813","tel":"13045682116;15000323263","bigType":"汽车服务","midType":"汽车服务相关","smallType":"汽车服务相关","gcj_lng":121.494361,"gcj_lat":31.250813,"wgs84_loc":"121.489908,31.252806","wgs84Lng":121.489908,"wgs84Lat":31.252806,"__source_file__":"13-常用公服设施点/CSV/上海市_汽车服务相关.csv"},"geometry":{"type":"Point","coordinates":[121.489908,31.252806]}},{"id":"6205","type":"Feature","properties":{"id":"B0KURS97T4","name":"上海福荟洗汽车服务有限公司","address":"东余杭路333号107室","type":"汽车服务;汽车服务相关;汽车服务相关","typecode":"010000","pcode":310000,"pname":"上海市","citycode":21,"cityname":"上海市","adcode":310109,"adname":"虹口区","business_area":"提篮桥","location":"121.495451,31.252428","tel":"[]","bigType":"汽车服务","midType":"汽车服务相关","smallType":"汽车服务相关","gcj_lng":121.495451,"gcj_lat":31.252428,"wgs84_loc":"121.491001,31.254423","wgs84Lng":121.491001,"wgs84Lat":31.254423,"__source_file__":"13-常用公服设施点/CSV/上海市_汽车服务相关.csv"},"geometry":{"type":"Point","coordinates":[121.491001,31.254423]}},{"id":"4336","type":"Feature","properties":{"id":"B0FFKMOLKX","name":"上海小楠叉车出租","address":"海拉尔路金田路","type":"汽车服务;汽车服务相关;汽车服务相关","typecode":"010000","pcode":310000,"pname":"上海市","citycode":21,"cityname":"上海市","adcode":310109,"adname":"虹口区","business_area":"提篮桥","location":"121.493820,31.255142","tel":"18516735689","bigType":"汽车服务","midType":"汽车服务相关","smallType":"汽车服务相关","gcj_lng":121.49382,"gcj_lat":31.255142,"wgs84_loc":"121.489364,31.257131","wgs84Lng":121.489364,"wgs84Lat":31.257131,"__source_file__":"13-常用公服设施点/CSV/上海市_汽车服务相关.csv"},"geometry":{"type":"Point","coordinates":[121.489364,31.257131]}},{"id":"3107","type":"Feature","properties":{"id":"B0FFFZJQ5A","name":"IPark爱车公园","address":"衡水路77号","type":"汽车服务;汽车服务相关;汽车服务相关","typecode":"010000","pcode":310000,"pname":"上海市","citycode":21,"cityname":"上海市","adcode":310109,"adname":"虹口区","business_area":"宝山路","location":"121.486048,31.255605","tel":"021-63933026","bigType":"汽车服务","midType":"汽车服务相关","smallType":"汽车服务相关","gcj_lng":121.486048,"gcj_lat":31.255605,"wgs84_loc":"121.481565,31.257571","wgs84Lng":121.481565,"wgs84Lat":31.257571,"__source_file__":"13-常用公服设施点/CSV/上海市_汽车服务相关.csv"},"geometry":{"type":"Point","coordinates":[121.481565,31.257571]}},{"id":"216","type":"Feature","properties":{"id":"B0HGFP3DW3","name":"爱车公园汽车美容贴膜维修保养","address":"衡水路77号","type":"汽车服务;汽车服务相关;汽车服务相关","typecode":"010000","pcode":310000,"pname":"上海市","citycode":21,"cityname":"上海市","adcode":310109,"adname":"虹口区","business_area":"宝山路","location":"121.486057,31.255669","tel":"[]","bigType":"汽车服务","midType":"汽车服务相关","smallType":"汽车服务相关","gcj_lng":121.486057,"gcj_lat":31.255669,"wgs84_loc":"121.481574,31.257635","wgs84Lng":121.481574,"wgs84Lat":31.257635,"__source_file__":"13-常用公服设施点/CSV/上海市_汽车服务相关.csv"},"geometry":{"type":"Point","coordinates":[121.481574,31.257635]}},{"id":"226","type":"Feature","properties":{"id":"B0H09UJADP","name":"嘉实多护车保养站","address":"新嘉路瑞嘉苑","type":"汽车服务;汽车服务相关;汽车服务相关","typecode":"010000","pcode":310000,"pname":"上海市","citycode":21,"cityname":"上海市","adcode":310109,"adname":"虹口区","business_area":"四平路","location":"121.488698,31.256885","tel":"[]","bigType":"汽车服务","midType":"汽车服务相关","smallType":"汽车服务相关","gcj_lng":121.488698,"gcj_lat":31.256885,"wgs84_loc":"121.484224,31.258858","wgs84Lng":121.484224,"wgs84Lat":31.258858,"__source_file__":"13-常用公服设施点/CSV/上海市_汽车服务相关.csv"},"geometry":{"type":"Point","coordinates":[121.484224,31.258858]}},{"id":"5945","type":"Feature","properties":{"id":"B0I3FLZ5S9","name":"上海上海市虹口区宝安路7号永金车行","address":"宝安路与物华路交叉口北20米","type":"汽车服务;汽车服务相关;汽车服务相关","typecode":"010000","pcode":310000,"pname":"上海市","citycode":21,"cityname":"上海市","adcode":310109,"adname":"虹口区","business_area":"[]","location":"121.488163,31.262955","tel":"[]","bigType":"汽车服务","midType":"汽车服务相关","smallType":"汽车服务相关","gcj_lng":121.488163,"gcj_lat":31.262955,"wgs84_loc":"121.483687,31.264924","wgs84Lng":121.483687,"wgs84Lat":31.264924,"__source_file__":"13-常用公服设施点/CSV/上海市_汽车服务相关.csv"},"geometry":{"type":"Point","coordinates":[121.483687,31.264924]}},{"id":"217","type":"Feature","properties":{"id":"B0H3DUSTAF","name":"嘉实多护车保养站(宝安支路店)","address":"宝安支路新文苑","type":"汽车服务;汽车服务相关;汽车服务相关","typecode":"010000","pcode":310000,"pname":"上海市","citycode":21,"cityname":"上海市","adcode":310109,"adname":"虹口区","business_area":"曲阳","location":"121.489538,31.264662","tel":"[]","bigType":"汽车服务","midType":"汽车服务相关","smallType":"汽车服务相关","gcj_lng":121.489538,"gcj_lat":31.264662,"wgs84_loc":"121.485066,31.266634","wgs84Lng":121.485066,"wgs84Lat":31.266634,"__source_file__":"13-常用公服设施点/CSV/上海市_汽车服务相关.csv"},"geometry":{"type":"Point","coordinates":[121.485066,31.266634]}},{"id":"3111","type":"Feature","properties":{"id":"B0G0VALNOP","name":"一池泊车","address":"四平路与临平北路交叉口北约140米","type":"汽车服务;汽车服务相关;汽车服务相关","typecode":"010000","pcode":310000,"pname":"上海市","citycode":21,"cityname":"上海市","adcode":310109,"adname":"虹口区","business_area":"曲阳","location":"121.491074,31.265576","tel":"[]","bigType":"汽车服务","midType":"汽车服务相关","smallType":"汽车服务相关","gcj_lng":121.491074,"gcj_lat":31.265576,"wgs84_loc":"121.486608,31.267552","wgs84Lng":121.486608,"wgs84Lat":31.267552,"__source_file__":"13-常用公服设施点/CSV/上海市_汽车服务相关.csv"},"geometry":{"type":"Point","coordinates":[121.486608,31.267552]}},{"id":"225","type":"Feature","properties":{"id":"B0HGO5VDTA","name":"乐华充电法兰桥直流汽车充电站","address":"欧阳路与四达路交叉口西约80米","type":"汽车服务;汽车服务相关;汽车服务相关","typecode":"010000","pcode":310000,"pname":"上海市","citycode":21,"cityname":"上海市","adcode":310109,"adname":"虹口区","business_area":"曲阳","location":"121.487626,31.267030","tel":"[]","bigType":"汽车服务","midType":"汽车服务相关","smallType":"汽车服务相关","gcj_lng":121.487626,"gcj_lat":31.26703,"wgs84_loc":"121.483147,31.268996","wgs84Lng":121.483147,"wgs84Lat":31.268996,"__source_file__":"13-常用公服设施点/CSV/上海市_汽车服务相关.csv"},"geometry":{"type":"Point","coordinates":[121.483147,31.268996]}},{"id":"213","type":"Feature","properties":{"id":"B0H2HUHXI2","name":"上海飞达叉车吊车挖机出租","address":"欧阳路378弄11-17号楼","type":"汽车服务;汽车服务相关;汽车服务相关","typecode":"010000","pcode":310000,"pname":"上海市","citycode":21,"cityname":"上海市","adcode":310109,"adname":"虹口区","business_area":"曲阳","location":"121.486587,31.270184","tel":"17717386112","bigType":"汽车服务","midType":"汽车服务相关","smallType":"汽车服务相关","gcj_lng":121.486587,"gcj_lat":31.270184,"wgs84_loc":"121.482104,31.272145","wgs84Lng":121.482104,"wgs84Lat":31.272145,"__source_file__":"13-常用公服设施点/CSV/上海市_汽车服务相关.csv"},"geometry":{"type":"Point","coordinates":[121.482104,31.272145]}},{"id":"3752","type":"Feature","properties":{"id":"B0FFLF7ACC","name":"上海劲惠吊车租赁公司","address":"华昌路9号","type":"汽车服务;汽车服务相关;汽车服务相关","typecode":"010000","pcode":310000,"pname":"上海市","citycode":21,"cityname":"上海市","adcode":310109,"adname":"虹口区","business_area":"和田","location":"121.478210,31.261382","tel":"18301969697","bigType":"汽车服务","midType":"汽车服务相关","smallType":"汽车服务相关","gcj_lng":121.47821,"gcj_lat":31.261382,"wgs84_loc":"121.473699,31.263323","wgs84Lng":121.473699,"wgs84Lat":31.263323,"__source_file__":"13-常用公服设施点/CSV/上海市_汽车服务相关.csv"},"geometry":{"type":"Point","coordinates":[121.473699,31.263323]}},{"id":"210","type":"Feature","properties":{"id":"B0FFHJOMLI","name":"上海懿源汽车租赁服务有限公司","address":"四川北路1919号","type":"汽车服务;汽车服务相关;汽车服务相关","typecode":"010000","pcode":310000,"pname":"上海市","citycode":21,"cityname":"上海市","adcode":310109,"adname":"虹口区","business_area":"宝山路","location":"121.483736,31.262237","tel":"4007728852","bigType":"汽车服务","midType":"汽车服务相关","smallType":"汽车服务相关","gcj_lng":121.483736,"gcj_lat":31.262237,"wgs84_loc":"121.479244,31.264193","wgs84Lng":121.479244,"wgs84Lat":31.264193,"__source_file__":"13-常用公服设施点/CSV/上海市_汽车服务相关.csv"},"geometry":{"type":"Point","coordinates":[121.479244,31.264193]}},{"id":"608","type":"Feature","properties":{"id":"B0G17SW5VB","name":"良骑汽车服务(东宝兴路店)","address":"华昌路169号世纪联华B1地下停车场(近芷江中路)","type":"汽车服务;汽车服务相关;汽车服务相关","typecode":"010000","pcode":310000,"pname":"上海市","citycode":21,"cityname":"上海市","adcode":310109,"adname":"虹口区","business_area":"宝山路","location":"121.475436,31.263245","tel":"17749783018","bigType":"汽车服务","midType":"汽车服务相关","smallType":"汽车服务相关","gcj_lng":121.475436,"gcj_lat":31.263245,"wgs84_loc":"121.470916,31.265177","wgs84Lng":121.470916,"wgs84Lat":31.265177,"__source_file__":"13-常用公服设施点/CSV/上海市_汽车服务相关.csv"},"geometry":{"type":"Point","coordinates":[121.470916,31.265177]}},{"id":"6204","type":"Feature","properties":{"id":"B0KG6CR4RS","name":"CAR WASH炫车坊汽服(宏慧·新里店)","address":"东宝兴路777号宏慧·新里","type":"汽车服务;汽车服务相关;汽车服务相关","typecode":"010000","pcode":310000,"pname":"上海市","citycode":21,"cityname":"上海市","adcode":310109,"adname":"虹口区","business_area":"宝山路","location":"121.475679,31.263714","tel":"17749783018","bigType":"汽车服务","midType":"汽车服务相关","smallType":"汽车服务相关","gcj_lng":121.475679,"gcj_lat":31.263714,"wgs84_loc":"121.47116,31.265647","wgs84Lng":121.47116,"wgs84Lat":31.265647,"__source_file__":"13-常用公服设施点/CSV/上海市_汽车服务相关.csv"},"geometry":{"type":"Point","coordinates":[121.47116,31.265647]}},{"id":"1859","type":"Feature","properties":{"id":"B0FFKZGIQN","name":"途虎养车(虹口区华昌路龙霄)(暂停营业)","address":"[]","type":"汽车服务;汽车服务相关;汽车服务相关","typecode":"010000","pcode":310000,"pname":"上海市","citycode":21,"cityname":"上海市","adcode":310109,"adname":"虹口区","business_area":"和田","location":"121.475553,31.264140","tel":"[]","bigType":"汽车服务","midType":"汽车服务相关","smallType":"汽车服务相关","gcj_lng":121.475553,"gcj_lat":31.26414,"wgs84_loc":"121.471033,31.266072","wgs84Lng":121.471033,"wgs84Lat":31.266072,"__source_file__":"13-常用公服设施点/CSV/上海市_汽车服务相关.csv"},"geometry":{"type":"Point","coordinates":[121.471033,31.266072]}},{"id":"5168","type":"Feature","properties":{"id":"B0H39CT478","name":"新浦叉车出租","address":"青云路140号附3","type":"汽车服务;汽车服务相关;汽车服务相关","typecode":"010000","pcode":310000,"pname":"上海市","citycode":21,"cityname":"上海市","adcode":310109,"adname":"虹口区","business_area":"和田","location":"121.475753,31.265135","tel":"18901935420","bigType":"汽车服务","midType":"汽车服务相关","smallType":"汽车服务相关","gcj_lng":121.475753,"gcj_lat":31.265135,"wgs84_loc":"121.471234,31.267067","wgs84Lng":121.471234,"wgs84Lat":31.267067,"__source_file__":"13-常用公服设施点/CSV/上海市_汽车服务相关.csv"},"geometry":{"type":"Point","coordinates":[121.471234,31.267067]}},{"id":"5054","type":"Feature","properties":{"id":"B0GR0UWCAF","name":"上海途启汽车服务有限公司","address":"宝山路888弄虹祺花苑","type":"汽车服务;汽车服务相关;汽车服务相关","typecode":"010000","pcode":310000,"pname":"上海市","citycode":21,"cityname":"上海市","adcode":310109,"adname":"虹口区","business_area":"和田","location":"121.478963,31.265269","tel":"13918053506","bigType":"汽车服务","midType":"汽车服务相关","smallType":"汽车服务相关","gcj_lng":121.478963,"gcj_lat":31.265269,"wgs84_loc":"121.474454,31.26721","wgs84Lng":121.474454,"wgs84Lat":31.26721,"__source_file__":"13-常用公服设施点/CSV/上海市_汽车服务相关.csv"},"geometry":{"type":"Point","coordinates":[121.474454,31.26721]}},{"id":"208","type":"Feature","properties":{"id":"B0G064KZFV","name":"壳牌喜力","address":"华昌路虹口花苑","type":"汽车服务;汽车服务相关;汽车服务相关","typecode":"010000","pcode":310000,"pname":"上海市","citycode":21,"cityname":"上海市","adcode":310109,"adname":"虹口区","business_area":"和田","location":"121.472330,31.267710","tel":"021-36339653","bigType":"汽车服务","midType":"汽车服务相关","smallType":"汽车服务相关","gcj_lng":121.47233,"gcj_lat":31.26771,"wgs84_loc":"121.467799,31.269632","wgs84Lng":121.467799,"wgs84Lat":31.269632,"__source_file__":"13-常用公服设施点/CSV/上海市_汽车服务相关.csv"},"geometry":{"type":"Point","coordinates":[121.467799,31.269632]}},{"id":"1856","type":"Feature","properties":{"id":"B0FFK7ZF6F","name":"双人汽车","address":"四川北路2288号鲁迅公园内","type":"汽车服务;汽车服务相关;汽车服务相关","typecode":"010000","pcode":310000,"pname":"上海市","citycode":21,"cityname":"上海市","adcode":310109,"adname":"虹口区","business_area":"曲阳","location":"121.481828,31.269003","tel":"[]","bigType":"汽车服务","midType":"汽车服务相关","smallType":"汽车服务相关","gcj_lng":121.481828,"gcj_lat":31.269003,"wgs84_loc":"121.477329,31.270951","wgs84Lng":121.477329,"wgs84Lat":31.270951,"__source_file__":"13-常用公服设施点/CSV/上海市_汽车服务相关.csv"},"geometry":{"type":"Point","coordinates":[121.477329,31.270951]}},{"id":"6220","type":"Feature","properties":{"id":"B0KR96A4FF","name":"智车优享","address":"同心路与中山北一路交叉口西北120米","type":"汽车服务;汽车服务相关;汽车服务相关|汽车销售;汽车销售;汽车销售","typecode":"010000|020000","pcode":310000,"pname":"上海市","citycode":21,"cityname":"上海市","adcode":310109,"adname":"虹口区","business_area":"和田","location":"121.472997,31.269265","tel":"13817455951","bigType":"汽车服务","midType":"汽车服务相关","smallType":"汽车服务相关|汽车销售","gcj_lng":121.472997,"gcj_lat":31.269265,"wgs84_loc":"121.468468,31.271188","wgs84Lng":121.468468,"wgs84Lat":31.271188,"__source_file__":"13-常用公服设施点/CSV/上海市_汽车服务相关.csv"},"geometry":{"type":"Point","coordinates":[121.468468,31.271188]}},{"id":"1991","type":"Feature","properties":{"id":"B0FFMCZP5M","name":"智车优享汽车服务中心(同心店)","address":"同心路651号","type":"汽车服务;汽车服务相关;汽车服务相关","typecode":"010000","pcode":310000,"pname":"上海市","citycode":21,"cityname":"上海市","adcode":310109,"adname":"虹口区","business_area":"和田","location":"121.472972,31.269287","tel":"13764081667;13817455951","bigType":"汽车服务","midType":"汽车服务相关","smallType":"汽车服务相关","gcj_lng":121.472972,"gcj_lat":31.269287,"wgs84_loc":"121.468443,31.27121","wgs84Lng":121.468443,"wgs84Lat":31.27121,"__source_file__":"13-常用公服设施点/CSV/上海市_汽车服务相关.csv"},"geometry":{"type":"Point","coordinates":[121.468443,31.27121]}},{"id":"6049","type":"Feature","properties":{"id":"B0IKFM0HZ9","name":"荣威(凯德龙之梦A座店)","address":"西江湾路388号(虹口足球场地铁站出入口旁)凯德龙之梦A座L1层A01-38、A01-39","type":"汽车服务;汽车服务相关;汽车服务相关","typecode":"010000","pcode":310000,"pname":"上海市","citycode":21,"cityname":"上海市","adcode":310109,"adname":"虹口区","business_area":"江湾","location":"121.478268,31.270660","tel":"[]","bigType":"汽车服务","midType":"汽车服务相关","smallType":"汽车服务相关","gcj_lng":121.478268,"gcj_lat":31.27066,"wgs84_loc":"121.473757,31.272597","wgs84Lng":121.473757,"wgs84Lat":31.272597,"__source_file__":"13-常用公服设施点/CSV/上海市_汽车服务相关.csv"},"geometry":{"type":"Point","coordinates":[121.473757,31.272597]}},{"id":"2584","type":"Feature","properties":{"id":"B0FFMGDZ8F","name":"大明拖车救援服务","address":"广中支路24弄8号楼101","type":"汽车服务;汽车服务相关;汽车服务相关","typecode":"010000","pcode":310000,"pname":"上海市","citycode":21,"cityname":"上海市","adcode":310109,"adname":"虹口区","business_area":"和田","location":"121.475669,31.273758","tel":"[]","bigType":"汽车服务","midType":"汽车服务相关","smallType":"汽车服务相关","gcj_lng":121.475669,"gcj_lat":31.273758,"wgs84_loc":"121.471149,31.275687","wgs84Lng":121.471149,"wgs84Lat":31.275687,"__source_file__":"13-常用公服设施点/CSV/上海市_汽车服务相关.csv"},"geometry":{"type":"Point","coordinates":[121.471149,31.275687]}},{"id":"2583","type":"Feature","properties":{"id":"B0GKHR2C9L","name":"明速拖车服务部","address":"广中支路","type":"汽车服务;汽车服务相关;汽车服务相关","typecode":"010000","pcode":310000,"pname":"上海市","citycode":21,"cityname":"上海市","adcode":310109,"adname":"虹口区","business_area":"江湾","location":"121.475671,31.273953","tel":"13918366717","bigType":"汽车服务","midType":"汽车服务相关","smallType":"汽车服务相关","gcj_lng":121.475671,"gcj_lat":31.273953,"wgs84_loc":"121.471151,31.275881","wgs84Lng":121.471151,"wgs84Lat":31.275881,"__source_file__":"13-常用公服设施点/CSV/上海市_汽车服务相关.csv"},"geometry":{"type":"Point","coordinates":[121.471151,31.275881]}},{"id":"3110","type":"Feature","properties":{"id":"B0GRNZ7LLP","name":"沪牌代拍","address":"西宝兴路961号","type":"汽车服务;汽车服务相关;汽车服务相关","typecode":"010000","pcode":310000,"pname":"上海市","citycode":21,"cityname":"上海市","adcode":310109,"adname":"虹口区","business_area":"和田","location":"121.468229,31.269974","tel":"18321156186","bigType":"汽车服务","midType":"汽车服务相关","smallType":"汽车服务相关","gcj_lng":121.468229,"gcj_lat":31.269974,"wgs84_loc":"121.463685,31.271884","wgs84Lng":121.463685,"wgs84Lat":31.271884,"__source_file__":"13-常用公服设施点/CSV/上海市_汽车服务相关.csv"},"geometry":{"type":"Point","coordinates":[121.463685,31.271884]}},{"id":"178","type":"Feature","properties":{"id":"B0FFFGYXC0","name":"腾欢·车管家一站式服务中心","address":"平型关路746-760号","type":"汽车服务;汽车服务相关;汽车服务相关","typecode":"010000","pcode":310000,"pname":"上海市","citycode":21,"cityname":"上海市","adcode":310106,"adname":"静安区","business_area":"大宁路","location":"121.459855,31.276233","tel":"021-56386044;021-56339146;15221537363","bigType":"汽车服务","midType":"汽车服务相关","smallType":"汽车服务相关","gcj_lng":121.459855,"gcj_lat":31.276233,"wgs84_loc":"121.455286,31.27812","wgs84Lng":121.455286,"wgs84Lat":31.27812,"__source_file__":"13-常用公服设施点/CSV/上海市_汽车服务相关.csv"},"geometry":{"type":"Point","coordinates":[121.455286,31.27812]}},{"id":"4229","type":"Feature","properties":{"id":"B0FFIZPWE3","name":"途虎养车(虹口新同心路店)","address":"新同心路春满园B区约51米","type":"汽车服务;汽车服务相关;汽车服务相关","typecode":"010000","pcode":310000,"pname":"上海市","citycode":21,"cityname":"上海市","adcode":310109,"adname":"虹口区","business_area":"和田","location":"121.467268,31.276385","tel":"[]","bigType":"汽车服务","midType":"汽车服务相关","smallType":"汽车服务相关","gcj_lng":121.467268,"gcj_lat":31.276385,"wgs84_loc":"121.462721,31.27829","wgs84Lng":121.462721,"wgs84Lat":31.27829,"__source_file__":"13-常用公服设施点/CSV/上海市_汽车服务相关.csv"},"geometry":{"type":"Point","coordinates":[121.462721,31.27829]}},{"id":"5938","type":"Feature","properties":{"id":"B0IUV4RVOW","name":"求强汽车连锁服务","address":"新同心路与同心路交叉口东80米","type":"汽车服务;汽车服务相关;汽车服务相关","typecode":"010000","pcode":310000,"pname":"上海市","citycode":21,"cityname":"上海市","adcode":310109,"adname":"虹口区","business_area":"凉城","location":"121.467724,31.276620","tel":"[]","bigType":"汽车服务","midType":"汽车服务相关","smallType":"汽车服务相关","gcj_lng":121.467724,"gcj_lat":31.27662,"wgs84_loc":"121.463178,31.278526","wgs84Lng":121.463178,"wgs84Lat":31.278526,"__source_file__":"13-常用公服设施点/CSV/上海市_汽车服务相关.csv"},"geometry":{"type":"Point","coordinates":[121.463178,31.278526]}},{"id":"219","type":"Feature","properties":{"id":"B00156NUFR","name":"雷朋·车管家一站式服务站","address":"新同心路216号(近虹口龙之梦)","type":"汽车服务;汽车服务相关;汽车服务相关","typecode":"010000","pcode":310000,"pname":"上海市","citycode":21,"cityname":"上海市","adcode":310109,"adname":"虹口区","business_area":"和田","location":"121.467747,31.276624","tel":"021-56030488;13681800563","bigType":"汽车服务","midType":"汽车服务相关","smallType":"汽车服务相关","gcj_lng":121.467747,"gcj_lat":31.276624,"wgs84_loc":"121.463201,31.27853","wgs84Lng":121.463201,"wgs84Lat":31.27853,"__source_file__":"13-常用公服设施点/CSV/上海市_汽车服务相关.csv"},"geometry":{"type":"Point","coordinates":[121.463201,31.27853]}}],"name":"上海市_汽车服务相关","crs":{"type":"name","properties":{"name":"urn:ogc:def:crs:OGC:1.3:CRS84"}}}