{"type":"FeatureCollection","features":[{"id":"1016","type":"Feature","properties":{"id":"B0HGCLHQ2B","name":"爱森人才公寓洗车店","address":"老西门街道中华路1011号中华大厦","type":"汽车服务;汽车养护/装饰;汽车养护","typecode":"010400","pcode":310000,"pname":"上海市","citycode":21,"cityname":"上海市","adcode":310101,"adname":"黄浦区","business_area":"城隍庙","location":"121.483455,31.225559","tel":"[]","bigType":"汽车服务","midType":"汽车养护/装饰","smallType":"汽车养护","gcj_lng":121.483455,"gcj_lat":31.225559,"wgs84_loc":"121.478965,31.227531","wgs84Lng":121.478965,"wgs84Lat":31.227531,"__source_file__":"13-常用公服设施点/CSV/上海市_汽车养护or装饰.csv"},"geometry":{"type":"Point","coordinates":[121.478965,31.227531]}},{"id":"1647","type":"Feature","properties":{"id":"B0FFFFHP96","name":"杰熙手机壳车饰贴钻馆","address":"福佑路225号(丽水路)福佑商厦地下一层E48","type":"汽车服务;汽车养护/装饰;汽车养护","typecode":"010400","pcode":310000,"pname":"上海市","citycode":21,"cityname":"上海市","adcode":310101,"adname":"黄浦区","business_area":"城隍庙","location":"121.491696,31.228140","tel":"[]","bigType":"汽车服务","midType":"汽车养护/装饰","smallType":"汽车养护","gcj_lng":121.491696,"gcj_lat":31.22814,"wgs84_loc":"121.487235,31.230135","wgs84Lng":121.487235,"wgs84Lat":31.230135,"__source_file__":"13-常用公服设施点/CSV/上海市_汽车养护or装饰.csv"},"geometry":{"type":"Point","coordinates":[121.487235,31.230135]}},{"id":"1646","type":"Feature","properties":{"id":"B0G0KPR3X3","name":"谷柏特车工场(豫园店)","address":"丽水路50号B1层","type":"汽车服务;汽车养护/装饰;汽车养护","typecode":"010400","pcode":310000,"pname":"上海市","citycode":21,"cityname":"上海市","adcode":310101,"adname":"黄浦区","business_area":"城隍庙","location":"121.490323,31.228825","tel":"18301843369","bigType":"汽车服务","midType":"汽车养护/装饰","smallType":"汽车养护","gcj_lng":121.490323,"gcj_lat":31.228825,"wgs84_loc":"121.485857,31.230816","wgs84Lng":121.485857,"wgs84Lat":31.230816,"__source_file__":"13-常用公服设施点/CSV/上海市_汽车养护or装饰.csv"},"geometry":{"type":"Point","coordinates":[121.485857,31.230816]}},{"id":"3975","type":"Feature","properties":{"id":"B0I1RZYOTA","name":"上海鑫铮一站式汽车美容服务中心","address":"广东路357号","type":"汽车服务;汽车养护/装饰;汽车养护|汽车服务;洗车场;洗车场|汽车维修;汽车维修;汽车维修","typecode":"010400|010500|030000","pcode":310000,"pname":"上海市","citycode":21,"cityname":"上海市","adcode":310101,"adname":"黄浦区","business_area":"北京东路","location":"121.484379,31.232394","tel":"13052068151;18221032503","bigType":"汽车服务","midType":"汽车养护/装饰","smallType":"汽车养护|汽车服务","gcj_lng":121.484379,"gcj_lat":31.232394,"wgs84_loc":"121.479892,31.234365","wgs84Lng":121.479892,"wgs84Lat":31.234365,"__source_file__":"13-常用公服设施点/CSV/上海市_汽车养护or装饰.csv"},"geometry":{"type":"Point","coordinates":[121.479892,31.234365]}},{"id":"4100","type":"Feature","properties":{"id":"B0J6A6V419","name":"车微家(无限极荟购物中心)","address":"湖滨路168号无限极荟购物中心B3层","type":"汽车服务;汽车养护/装饰;汽车养护","typecode":"010400","pcode":310000,"pname":"上海市","citycode":21,"cityname":"上海市","adcode":310101,"adname":"黄浦区","business_area":"淮海路","location":"121.478253,31.220443","tel":"15026862729","bigType":"汽车服务","midType":"汽车养护/装饰","smallType":"汽车养护","gcj_lng":121.478253,"gcj_lat":31.220443,"wgs84_loc":"121.473746,31.222403","wgs84Lng":121.473746,"wgs84Lat":31.222403,"__source_file__":"13-常用公服设施点/CSV/上海市_汽车养护or装饰.csv"},"geometry":{"type":"Point","coordinates":[121.473746,31.222403]}},{"id":"3974","type":"Feature","properties":{"id":"B0I0JXB5EN","name":"守护名车米克丽(无限极荟购物中心)","address":"湖滨路168号无限极荟购物中心B3层","type":"汽车服务;汽车养护/装饰;汽车养护","typecode":"010400","pcode":310000,"pname":"上海市","citycode":21,"cityname":"上海市","adcode":310101,"adname":"黄浦区","business_area":"淮海路","location":"121.478170,31.220452","tel":"[]","bigType":"汽车服务","midType":"汽车养护/装饰","smallType":"汽车养护","gcj_lng":121.47817,"gcj_lat":31.220452,"wgs84_loc":"121.473663,31.222411","wgs84Lng":121.473663,"wgs84Lat":31.222411,"__source_file__":"13-常用公服设施点/CSV/上海市_汽车养护or装饰.csv"},"geometry":{"type":"Point","coordinates":[121.473663,31.222411]}},{"id":"37","type":"Feature","properties":{"id":"B0FFF2B2L3","name":"美车堂(大上海时代广场)","address":"淮海中路99号大上海时代广场B3层","type":"汽车服务;汽车养护/装饰;汽车养护","typecode":"010400","pcode":310000,"pname":"上海市","citycode":21,"cityname":"上海市","adcode":310101,"adname":"黄浦区","business_area":"淮海路","location":"121.479229,31.224992","tel":"021-63910268","bigType":"汽车服务","midType":"汽车养护/装饰","smallType":"汽车养护","gcj_lng":121.479229,"gcj_lat":31.224992,"wgs84_loc":"121.474725,31.226952","wgs84Lng":121.474725,"wgs84Lat":31.226952,"__source_file__":"13-常用公服设施点/CSV/上海市_汽车养护or装饰.csv"},"geometry":{"type":"Point","coordinates":[121.474725,31.226952]}},{"id":"4039","type":"Feature","properties":{"id":"B0G2T15RSV","name":"镜像私车护理XPEL贴膜店","address":"江阴路与黄陂北路交叉口西80米","type":"汽车服务;汽车养护/装饰;汽车养护","typecode":"010400","pcode":310000,"pname":"上海市","citycode":21,"cityname":"上海市","adcode":310101,"adname":"黄浦区","business_area":"北京路","location":"121.469699,31.230380","tel":"13980626956","bigType":"汽车服务","midType":"汽车养护/装饰","smallType":"汽车养护","gcj_lng":121.469699,"gcj_lat":31.23038,"wgs84_loc":"121.465163,31.232312","wgs84Lng":121.465163,"wgs84Lat":31.232312,"__source_file__":"13-常用公服设施点/CSV/上海市_汽车养护or装饰.csv"},"geometry":{"type":"Point","coordinates":[121.465163,31.232312]}},{"id":"3973","type":"Feature","properties":{"id":"B0I2NDLJWK","name":"美车坊","address":"湖北路与北海路交叉口东南40米","type":"汽车服务;汽车养护/装饰;汽车养护","typecode":"010400","pcode":310000,"pname":"上海市","citycode":21,"cityname":"上海市","adcode":310101,"adname":"黄浦区","business_area":"北京东路","location":"121.481899,31.231261","tel":"[]","bigType":"汽车服务","midType":"汽车养护/装饰","smallType":"汽车养护","gcj_lng":121.481899,"gcj_lat":31.231261,"wgs84_loc":"121.477403,31.233226","wgs84Lng":121.477403,"wgs84Lat":31.233226,"__source_file__":"13-常用公服设施点/CSV/上海市_汽车养护or装饰.csv"},"geometry":{"type":"Point","coordinates":[121.477403,31.233226]}},{"id":"35","type":"Feature","properties":{"id":"B0FFF74MTU","name":"晟旺汽车美容养护中心","address":"湖北路20号","type":"汽车服务;汽车养护/装饰;汽车养护|汽车服务;洗车场;洗车场|汽车维修;汽车维修;汽车维修","typecode":"010400|010500|030000","pcode":310000,"pname":"上海市","citycode":21,"cityname":"上海市","adcode":310101,"adname":"黄浦区","business_area":"北京东路","location":"121.481911,31.231268","tel":"15021683544","bigType":"汽车服务","midType":"汽车养护/装饰","smallType":"汽车养护|汽车服务","gcj_lng":121.481911,"gcj_lat":31.231268,"wgs84_loc":"121.477415,31.233233","wgs84Lng":121.477415,"wgs84Lat":31.233233,"__source_file__":"13-常用公服设施点/CSV/上海市_汽车养护or装饰.csv"},"geometry":{"type":"Point","coordinates":[121.477415,31.233233]}},{"id":"4204","type":"Feature","properties":{"id":"B0KUBOQJ5N","name":"途虎养车工场店(上海南京西路店)","address":"南京西路580号仲益大厦","type":"汽车服务;汽车养护/装饰;汽车养护","typecode":"010400","pcode":310000,"pname":"上海市","citycode":21,"cityname":"上海市","adcode":310106,"adname":"静安区","business_area":"淮海路","location":"121.466014,31.231491","tel":"19921517376","bigType":"汽车服务","midType":"汽车养护/装饰","smallType":"汽车养护","gcj_lng":121.466014,"gcj_lat":31.231491,"wgs84_loc":"121.461467,31.233412","wgs84Lng":121.461467,"wgs84Lat":31.233412,"__source_file__":"13-常用公服设施点/CSV/上海市_汽车养护or装饰.csv"},"geometry":{"type":"Point","coordinates":[121.461467,31.233412]}},{"id":"4041","type":"Feature","properties":{"id":"B0KA7UX6K5","name":"壳牌喜力搭电补胎维修保养","address":"浙江中路507号","type":"汽车服务;汽车养护/装饰;汽车养护|汽车维修;汽车维修;汽车维修","typecode":"010400|030000","pcode":310000,"pname":"上海市","citycode":21,"cityname":"上海市","adcode":310101,"adname":"黄浦区","business_area":"北京路","location":"121.476921,31.237788","tel":"[]","bigType":"汽车服务","midType":"汽车养护/装饰","smallType":"汽车养护|汽车维修","gcj_lng":121.476921,"gcj_lat":31.237788,"wgs84_loc":"121.472408,31.239736","wgs84Lng":121.472408,"wgs84Lat":31.239736,"__source_file__":"13-常用公服设施点/CSV/上海市_汽车养护or装饰.csv"},"geometry":{"type":"Point","coordinates":[121.472408,31.239736]}},{"id":"4042","type":"Feature","properties":{"id":"B0KAM52CIO","name":"炳华汽修电瓶搭电补胎救援公司","address":"南京东路地铁站1号口步行330米","type":"汽车服务;汽车养护/装饰;汽车养护|汽车维修;汽车维修;汽车维修","typecode":"010400|030000","pcode":310000,"pname":"上海市","citycode":21,"cityname":"上海市","adcode":310101,"adname":"黄浦区","business_area":"北京路","location":"121.480676,31.238293","tel":"13795350840","bigType":"汽车服务","midType":"汽车养护/装饰","smallType":"汽车养护|汽车维修","gcj_lng":121.480676,"gcj_lat":31.238293,"wgs84_loc":"121.476176,31.240251","wgs84Lng":121.476176,"wgs84Lat":31.240251,"__source_file__":"13-常用公服设施点/CSV/上海市_汽车养护or装饰.csv"},"geometry":{"type":"Point","coordinates":[121.476176,31.240251]}},{"id":"4040","type":"Feature","properties":{"id":"B0JAZSS7F7","name":"及时达汽车救援搭电补胎快修拖车换电瓶服务","address":"汉口路300号解放大厦(南京东路地铁站3号口步行150米)","type":"汽车服务;汽车养护/装饰;汽车养护|汽车维修;汽车维修;汽车维修","typecode":"010400|030000","pcode":310000,"pname":"上海市","citycode":21,"cityname":"上海市","adcode":310101,"adname":"黄浦区","business_area":"北京路","location":"121.484649,31.235881","tel":"17811964181","bigType":"汽车服务","midType":"汽车养护/装饰","smallType":"汽车养护|汽车维修","gcj_lng":121.484649,"gcj_lat":31.235881,"wgs84_loc":"121.480162,31.237852","wgs84Lng":121.480162,"wgs84Lat":31.237852,"__source_file__":"13-常用公服设施点/CSV/上海市_汽车养护or装饰.csv"},"geometry":{"type":"Point","coordinates":[121.480162,31.237852]}},{"id":"164","type":"Feature","properties":{"id":"B0FFKHFFPD","name":"爱座驾汽车养护专家(七浦路店)","address":"七浦路133号上海兴旺国际服装城B2","type":"汽车服务;汽车养护/装饰;汽车养护","typecode":"010400","pcode":310000,"pname":"上海市","citycode":21,"cityname":"上海市","adcode":310109,"adname":"虹口区","business_area":"七浦路","location":"121.483219,31.245017","tel":"15221413136","bigType":"汽车服务","midType":"汽车养护/装饰","smallType":"汽车养护","gcj_lng":121.483219,"gcj_lat":31.245017,"wgs84_loc":"121.478727,31.246979","wgs84Lng":121.478727,"wgs84Lat":31.246979,"__source_file__":"13-常用公服设施点/CSV/上海市_汽车养护or装饰.csv"},"geometry":{"type":"Point","coordinates":[121.478727,31.246979]}},{"id":"166","type":"Feature","properties":{"id":"B0FFFVGJ3T","name":"东锐汽车生活馆","address":"东长治路350号","type":"汽车服务;汽车养护/装饰;汽车养护","typecode":"010400","pcode":310000,"pname":"上海市","citycode":21,"cityname":"上海市","adcode":310109,"adname":"虹口区","business_area":"提篮桥","location":"121.495637,31.248809","tel":"13661817637","bigType":"汽车服务","midType":"汽车养护/装饰","smallType":"汽车养护","gcj_lng":121.495637,"gcj_lat":31.248809,"wgs84_loc":"121.491188,31.250806","wgs84Lng":121.491188,"wgs84Lat":31.250806,"__source_file__":"13-常用公服设施点/CSV/上海市_汽车养护or装饰.csv"},"geometry":{"type":"Point","coordinates":[121.491188,31.250806]}},{"id":"1748","type":"Feature","properties":{"id":"B0HR0KKBV2","name":"车车佳","address":"耀江国际广场2号楼1206号","type":"汽车服务;汽车养护/装饰;汽车养护","typecode":"010400","pcode":310000,"pname":"上海市","citycode":21,"cityname":"上海市","adcode":310109,"adname":"虹口区","business_area":"北外滩","location":"121.490261,31.249773","tel":"4000999237","bigType":"汽车服务","midType":"汽车养护/装饰","smallType":"汽车养护","gcj_lng":121.490261,"gcj_lat":31.249773,"wgs84_loc":"121.485793,31.251754","wgs84Lng":121.485793,"wgs84Lat":31.251754,"__source_file__":"13-常用公服设施点/CSV/上海市_汽车养护or装饰.csv"},"geometry":{"type":"Point","coordinates":[121.485793,31.251754]}},{"id":"4258","type":"Feature","properties":{"id":"B0JAFRLYZ8","name":"程亦汽车快修美容养护中心","address":"西安路81-85号(国际客运中心地铁站4号口步行410米)","type":"汽车服务;汽车养护/装饰;汽车养护","typecode":"010400","pcode":310000,"pname":"上海市","citycode":21,"cityname":"上海市","adcode":310109,"adname":"虹口区","business_area":"提篮桥","location":"121.493911,31.249981","tel":"021-55098220;13564024999","bigType":"汽车服务","midType":"汽车养护/装饰","smallType":"汽车养护","gcj_lng":121.493911,"gcj_lat":31.249981,"wgs84_loc":"121.489456,31.251973","wgs84Lng":121.489456,"wgs84Lat":31.251973,"__source_file__":"13-常用公服设施点/CSV/上海市_汽车养护or装饰.csv"},"geometry":{"type":"Point","coordinates":[121.489456,31.251973]}},{"id":"4205","type":"Feature","properties":{"id":"B0K2X59RCI","name":"天猫养车(西安路店)","address":"西安路203号","type":"汽车服务;汽车养护/装饰;汽车养护","typecode":"010400","pcode":310000,"pname":"上海市","citycode":21,"cityname":"上海市","adcode":310109,"adname":"虹口区","business_area":"提篮桥","location":"121.495985,31.250536","tel":"18616588638","bigType":"汽车服务","midType":"汽车养护/装饰","smallType":"汽车养护","gcj_lng":121.495985,"gcj_lat":31.250536,"wgs84_loc":"121.491538,31.252534","wgs84Lng":121.491538,"wgs84Lat":31.252534,"__source_file__":"13-常用公服设施点/CSV/上海市_汽车养护or装饰.csv"},"geometry":{"type":"Point","coordinates":[121.491538,31.252534]}},{"id":"1745","type":"Feature","properties":{"id":"B0GRJCMUHH","name":"脉冲品质汽美(北外滩店)","address":"西安路203号","type":"汽车服务;汽车养护/装饰;汽车养护","typecode":"010400","pcode":310000,"pname":"上海市","citycode":21,"cityname":"上海市","adcode":310109,"adname":"虹口区","business_area":"提篮桥","location":"121.495911,31.250545","tel":"13361808639","bigType":"汽车服务","midType":"汽车养护/装饰","smallType":"汽车养护","gcj_lng":121.495911,"gcj_lat":31.250545,"wgs84_loc":"121.491463,31.252542","wgs84Lng":121.491463,"wgs84Lat":31.252542,"__source_file__":"13-常用公服设施点/CSV/上海市_汽车养护or装饰.csv"},"geometry":{"type":"Point","coordinates":[121.491463,31.252542]}},{"id":"3424","type":"Feature","properties":{"id":"B0FFJBZZPJ","name":"UEnom AUTOCARE","address":"西安路203号底层A室","type":"汽车服务;汽车养护/装饰;汽车养护","typecode":"010400","pcode":310000,"pname":"上海市","citycode":21,"cityname":"上海市","adcode":310109,"adname":"虹口区","business_area":"提篮桥","location":"121.495871,31.250558","tel":"[]","bigType":"汽车服务","midType":"汽车养护/装饰","smallType":"汽车养护","gcj_lng":121.495871,"gcj_lat":31.250558,"wgs84_loc":"121.491423,31.252555","wgs84Lng":121.491423,"wgs84Lat":31.252555,"__source_file__":"13-常用公服设施点/CSV/上海市_汽车养护or装饰.csv"},"geometry":{"type":"Point","coordinates":[121.491423,31.252555]}},{"id":"1050","type":"Feature","properties":{"id":"B0FFJDWCVV","name":"美车堂(上海静安大悦城北座)","address":"西藏北路166号上海静安大悦城北座B2层","type":"汽车服务;汽车养护/装饰;汽车养护","typecode":"010400","pcode":310000,"pname":"上海市","citycode":21,"cityname":"上海市","adcode":310106,"adname":"静安区","business_area":"七浦路","location":"121.472372,31.243964","tel":"021-56052511","bigType":"汽车服务","midType":"汽车养护/装饰","smallType":"汽车养护","gcj_lng":121.472372,"gcj_lat":31.243964,"wgs84_loc":"121.467843,31.245896","wgs84Lng":121.467843,"wgs84Lat":31.245896,"__source_file__":"13-常用公服设施点/CSV/上海市_汽车养护or装饰.csv"},"geometry":{"type":"Point","coordinates":[121.467843,31.245896]}},{"id":"1048","type":"Feature","properties":{"id":"B0FFM7EWC1","name":"ASR透明车衣汽车美容工作室(中粮天悦店)","address":"七浦路537号旁商业地库B2","type":"汽车服务;汽车养护/装饰;汽车养护","typecode":"010400","pcode":310000,"pname":"上海市","citycode":21,"cityname":"上海市","adcode":310106,"adname":"静安区","business_area":"七浦路","location":"121.474474,31.244359","tel":"15021233428","bigType":"汽车服务","midType":"汽车养护/装饰","smallType":"汽车养护","gcj_lng":121.474474,"gcj_lat":31.244359,"wgs84_loc":"121.469952,31.246297","wgs84Lng":121.469952,"wgs84Lat":31.246297,"__source_file__":"13-常用公服设施点/CSV/上海市_汽车养护or装饰.csv"},"geometry":{"type":"Point","coordinates":[121.469952,31.246297]}},{"id":"100","type":"Feature","properties":{"id":"B0FFLB0F6I","name":"上海锦泉汽车服务有限公司","address":"塘沽路1032号","type":"汽车服务;汽车养护/装饰;汽车养护|汽车维修;汽车维修;汽车维修","typecode":"010400|030000","pcode":310000,"pname":"上海市","citycode":21,"cityname":"上海市","adcode":310106,"adname":"静安区","business_area":"七浦路","location":"121.476062,31.245402","tel":"13585626361","bigType":"汽车服务","midType":"汽车养护/装饰","smallType":"汽车养护|汽车维修","gcj_lng":121.476062,"gcj_lat":31.245402,"wgs84_loc":"121.471545,31.247344","wgs84Lng":121.471545,"wgs84Lat":31.247344,"__source_file__":"13-常用公服设施点/CSV/上海市_汽车养护or装饰.csv"},"geometry":{"type":"Point","coordinates":[121.471545,31.247344]}},{"id":"99","type":"Feature","properties":{"id":"B0FFMH7NDO","name":"上海靓洁汽车养护中心","address":"塘沽路1032号","type":"汽车服务;汽车养护/装饰;汽车养护","typecode":"010400","pcode":310000,"pname":"上海市","citycode":21,"cityname":"上海市","adcode":310106,"adname":"静安区","business_area":"七浦路","location":"121.476062,31.245406","tel":"13816275100","bigType":"汽车服务","midType":"汽车养护/装饰","smallType":"汽车养护","gcj_lng":121.476062,"gcj_lat":31.245406,"wgs84_loc":"121.471545,31.247348","wgs84Lng":121.471545,"wgs84Lat":31.247348,"__source_file__":"13-常用公服设施点/CSV/上海市_汽车养护or装饰.csv"},"geometry":{"type":"Point","coordinates":[121.471545,31.247348]}},{"id":"3168","type":"Feature","properties":{"id":"B0HG071AAX","name":"奢侈品养护(海宁路店)","address":"海宁路圣和圣广场-3期","type":"汽车服务;汽车养护/装饰;汽车养护","typecode":"010400","pcode":310000,"pname":"上海市","citycode":21,"cityname":"上海市","adcode":310106,"adname":"静安区","business_area":"七浦路","location":"121.479329,31.246592","tel":"[]","bigType":"汽车服务","midType":"汽车养护/装饰","smallType":"汽车养护","gcj_lng":121.479329,"gcj_lat":31.246592,"wgs84_loc":"121.474823,31.248543","wgs84Lng":121.474823,"wgs84Lat":31.248543,"__source_file__":"13-常用公服设施点/CSV/上海市_汽车养护or装饰.csv"},"geometry":{"type":"Point","coordinates":[121.474823,31.248543]}},{"id":"3157","type":"Feature","properties":{"id":"B0G3JS58R6","name":"途虎养车认证店(静安区塘沽路店)","address":"塘沽路766号地下2层圣和圣车库d区","type":"汽车服务;汽车养护/装饰;汽车养护","typecode":"010400","pcode":310000,"pname":"上海市","citycode":21,"cityname":"上海市","adcode":310106,"adname":"静安区","business_area":"七浦路","location":"121.480975,31.246634","tel":"15000391200","bigType":"汽车服务","midType":"汽车养护/装饰","smallType":"汽车养护","gcj_lng":121.480975,"gcj_lat":31.246634,"wgs84_loc":"121.476475,31.248589","wgs84Lng":121.476475,"wgs84Lat":31.248589,"__source_file__":"13-常用公服设施点/CSV/上海市_汽车养护or装饰.csv"},"geometry":{"type":"Point","coordinates":[121.476475,31.248589]}},{"id":"4237","type":"Feature","properties":{"id":"B0K2OH2F1C","name":"格耐国际汽车美容","address":"塘沽路766号地下2层圣和圣车库D区","type":"汽车服务;汽车养护/装饰;汽车养护","typecode":"010400","pcode":310000,"pname":"上海市","citycode":21,"cityname":"上海市","adcode":310106,"adname":"静安区","business_area":"七浦路","location":"121.480937,31.246662","tel":"[]","bigType":"汽车服务","midType":"汽车养护/装饰","smallType":"汽车养护","gcj_lng":121.480937,"gcj_lat":31.246662,"wgs84_loc":"121.476437,31.248617","wgs84Lng":121.476437,"wgs84Lat":31.248617,"__source_file__":"13-常用公服设施点/CSV/上海市_汽车养护or装饰.csv"},"geometry":{"type":"Point","coordinates":[121.476437,31.248617]}},{"id":"1893","type":"Feature","properties":{"id":"B0FFMC7SBY","name":"哈啰车服(永兴路店)","address":"永兴路与育婴堂路交叉口西40米","type":"汽车服务;汽车养护/装饰;汽车养护","typecode":"010400","pcode":310000,"pname":"上海市","citycode":21,"cityname":"上海市","adcode":310106,"adname":"静安区","business_area":"宝山路","location":"121.467216,31.251217","tel":"[]","bigType":"汽车服务","midType":"汽车养护/装饰","smallType":"汽车养护","gcj_lng":121.467216,"gcj_lat":31.251217,"wgs84_loc":"121.462671,31.253133","wgs84Lng":121.462671,"wgs84Lat":31.253133,"__source_file__":"13-常用公服设施点/CSV/上海市_汽车养护or装饰.csv"},"geometry":{"type":"Point","coordinates":[121.462671,31.253133]}},{"id":"519","type":"Feature","properties":{"id":"B00157I0VQ","name":"汽宝汽车美容专营店(永兴店)","address":"永兴路555","type":"汽车服务;汽车养护/装饰;汽车养护","typecode":"010400","pcode":310000,"pname":"上海市","citycode":21,"cityname":"上海市","adcode":310106,"adname":"静安区","business_area":"宝山路","location":"121.467686,31.251226","tel":"18616665557","bigType":"汽车服务","midType":"汽车养护/装饰","smallType":"汽车养护","gcj_lng":121.467686,"gcj_lat":31.251226,"wgs84_loc":"121.463142,31.253143","wgs84Lng":121.463142,"wgs84Lat":31.253143,"__source_file__":"13-常用公服设施点/CSV/上海市_汽车养护or装饰.csv"},"geometry":{"type":"Point","coordinates":[121.463142,31.253143]}},{"id":"3419","type":"Feature","properties":{"id":"B0FFK950F5","name":"安顺汽车美容中心","address":"松卫北潞755号","type":"汽车服务;汽车养护/装饰;汽车养护","typecode":"010400","pcode":310000,"pname":"上海市","citycode":21,"cityname":"上海市","adcode":310106,"adname":"静安区","business_area":"宝山路","location":"121.474374,31.256253","tel":"13190171141","bigType":"汽车服务","midType":"汽车养护/装饰","smallType":"汽车养护","gcj_lng":121.474374,"gcj_lat":31.256253,"wgs84_loc":"121.469851,31.258185","wgs84Lng":121.469851,"wgs84Lat":31.258185,"__source_file__":"13-常用公服设施点/CSV/上海市_汽车养护or装饰.csv"},"geometry":{"type":"Point","coordinates":[121.469851,31.258185]}},{"id":"1746","type":"Feature","properties":{"id":"B0FFKZNPZR","name":"闪映展车护理中心","address":"东余杭路333号107商铺(商丘路口)","type":"汽车服务;汽车养护/装饰;汽车养护","typecode":"010400","pcode":310000,"pname":"上海市","citycode":21,"cityname":"上海市","adcode":310109,"adname":"虹口区","business_area":"提篮桥","location":"121.495476,31.252404","tel":"021-63732373","bigType":"汽车服务","midType":"汽车养护/装饰","smallType":"汽车养护","gcj_lng":121.495476,"gcj_lat":31.252404,"wgs84_loc":"121.491027,31.254399","wgs84Lng":121.491027,"wgs84Lat":31.254399,"__source_file__":"13-常用公服设施点/CSV/上海市_汽车养护or装饰.csv"},"geometry":{"type":"Point","coordinates":[121.491027,31.254399]}},{"id":"1744","type":"Feature","properties":{"id":"B0FFJWFO3X","name":"IPark爱车公园汽车养护改装中心","address":"衡水路75-77号","type":"汽车服务;汽车养护/装饰;汽车养护","typecode":"010400","pcode":310000,"pname":"上海市","citycode":21,"cityname":"上海市","adcode":310109,"adname":"虹口区","business_area":"宝山路","location":"121.486048,31.255605","tel":"13651663265","bigType":"汽车服务","midType":"汽车养护/装饰","smallType":"汽车养护","gcj_lng":121.486048,"gcj_lat":31.255605,"wgs84_loc":"121.481565,31.257571","wgs84Lng":121.481565,"wgs84Lat":31.257571,"__source_file__":"13-常用公服设施点/CSV/上海市_汽车养护or装饰.csv"},"geometry":{"type":"Point","coordinates":[121.481565,31.257571]}},{"id":"3996","type":"Feature","properties":{"id":"B0I0OM324T","name":"上海友军汽车维修装饰美容有限公司","address":"四平路与新嘉路交叉口南40米","type":"汽车服务;汽车养护/装饰;汽车养护","typecode":"010400","pcode":310000,"pname":"上海市","citycode":21,"cityname":"上海市","adcode":310109,"adname":"虹口区","business_area":"四平路","location":"121.488529,31.256867","tel":"[]","bigType":"汽车服务","midType":"汽车养护/装饰","smallType":"汽车养护","gcj_lng":121.488529,"gcj_lat":31.256867,"wgs84_loc":"121.484054,31.25884","wgs84Lng":121.484054,"wgs84Lat":31.25884,"__source_file__":"13-常用公服设施点/CSV/上海市_汽车养护or装饰.csv"},"geometry":{"type":"Point","coordinates":[121.484054,31.25884]}},{"id":"1747","type":"Feature","properties":{"id":"B0FFI6FFO0","name":"车缘汽车贴膜","address":"海拉尔路188号","type":"汽车服务;汽车养护/装饰;汽车养护","typecode":"010400","pcode":310000,"pname":"上海市","citycode":21,"cityname":"上海市","adcode":310109,"adname":"虹口区","business_area":"提篮桥","location":"121.495857,31.257679","tel":"021-55958078;13162955555","bigType":"汽车服务","midType":"汽车养护/装饰","smallType":"汽车养护","gcj_lng":121.495857,"gcj_lat":31.257679,"wgs84_loc":"121.491408,31.259673","wgs84Lng":121.491408,"wgs84Lat":31.259673,"__source_file__":"13-常用公服设施点/CSV/上海市_汽车养护or装饰.csv"},"geometry":{"type":"Point","coordinates":[121.491408,31.259673]}},{"id":"165","type":"Feature","properties":{"id":"B0FFITIJ4B","name":"途虎养车工场店(海伦路店)","address":"海伦路336号","type":"汽车服务;汽车养护/装饰;汽车养护","typecode":"010400","pcode":310000,"pname":"上海市","citycode":21,"cityname":"上海市","adcode":310109,"adname":"虹口区","business_area":"四平路","location":"121.491277,31.257755","tel":"021-36035657","bigType":"汽车服务","midType":"汽车养护/装饰","smallType":"汽车养护","gcj_lng":121.491277,"gcj_lat":31.257755,"wgs84_loc":"121.486812,31.259735","wgs84Lng":121.486812,"wgs84Lat":31.259735,"__source_file__":"13-常用公服设施点/CSV/上海市_汽车养护or装饰.csv"},"geometry":{"type":"Point","coordinates":[121.486812,31.259735]}},{"id":"4206","type":"Feature","properties":{"id":"B0IUXHDN68","name":"24小时迅停智能无人洗车(合新里)","address":"四川北路1689号(合新里地下停车场东宝兴路进口进入)","type":"汽车服务;汽车养护/装饰;汽车养护","typecode":"010400","pcode":310000,"pname":"上海市","citycode":21,"cityname":"上海市","adcode":310109,"adname":"虹口区","business_area":"宝山路","location":"121.482098,31.258512","tel":"4008620608","bigType":"汽车服务","midType":"汽车养护/装饰","smallType":"汽车养护","gcj_lng":121.482098,"gcj_lat":31.258512,"wgs84_loc":"121.477601,31.260465","wgs84Lng":121.477601,"wgs84Lat":31.260465,"__source_file__":"13-常用公服设施点/CSV/上海市_汽车养护or装饰.csv"},"geometry":{"type":"Point","coordinates":[121.477601,31.260465]}},{"id":"1723","type":"Feature","properties":{"id":"B0H2VZWGJW","name":"徽祥汽车装潢美容养护维修","address":"宝安路35号","type":"汽车服务;汽车养护/装饰;汽车养护","typecode":"010400","pcode":310000,"pname":"上海市","citycode":21,"cityname":"上海市","adcode":310109,"adname":"虹口区","business_area":"[]","location":"121.488202,31.262870","tel":"[]","bigType":"汽车服务","midType":"汽车养护/装饰","smallType":"汽车养护","gcj_lng":121.488202,"gcj_lat":31.26287,"wgs84_loc":"121.483726,31.264839","wgs84Lng":121.483726,"wgs84Lat":31.264839,"__source_file__":"13-常用公服设施点/CSV/上海市_汽车养护or装饰.csv"},"geometry":{"type":"Point","coordinates":[121.483726,31.264839]}},{"id":"3588","type":"Feature","properties":{"id":"B001533D62","name":"止天汽车装潢服务中心","address":"江中路止园路292","type":"汽车服务;汽车养护/装饰;汽车养护","typecode":"010400","pcode":310000,"pname":"上海市","citycode":21,"cityname":"上海市","adcode":310106,"adname":"静安区","business_area":"和田","location":"121.469757,31.258234","tel":"021-56901884;13816078821","bigType":"汽车服务","midType":"汽车养护/装饰","smallType":"汽车养护","gcj_lng":121.469757,"gcj_lat":31.258234,"wgs84_loc":"121.465219,31.260153","wgs84Lng":121.465219,"wgs84Lat":31.260153,"__source_file__":"13-常用公服设施点/CSV/上海市_汽车养护or装饰.csv"},"geometry":{"type":"Point","coordinates":[121.465219,31.260153]}},{"id":"1058","type":"Feature","properties":{"id":"B0HGVHO7QL","name":"豫龙汽车美容养护中心","address":"通阁路长信公寓西南侧","type":"汽车服务;汽车养护/装饰;汽车养护","typecode":"010400","pcode":310000,"pname":"上海市","citycode":21,"cityname":"上海市","adcode":310106,"adname":"静安区","business_area":"和田","location":"121.471024,31.258446","tel":"[]","bigType":"汽车服务","midType":"汽车养护/装饰","smallType":"汽车养护","gcj_lng":121.471024,"gcj_lat":31.258446,"wgs84_loc":"121.46649,31.260368","wgs84Lng":121.46649,"wgs84Lat":31.260368,"__source_file__":"13-常用公服设施点/CSV/上海市_汽车养护or装饰.csv"},"geometry":{"type":"Point","coordinates":[121.46649,31.260368]}},{"id":"4058","type":"Feature","properties":{"id":"B0K165VJHY","name":"京东养车(东宝兴路店)","address":"中兴路122号(东宝兴路地铁站1号口步行350米)","type":"汽车服务;汽车养护/装饰;汽车养护|汽车服务;洗车场;洗车场|汽车维修;汽车维修;汽车维修","typecode":"010400|010500|030000","pcode":310000,"pname":"上海市","citycode":21,"cityname":"上海市","adcode":310109,"adname":"虹口区","business_area":"宝山路","location":"121.478044,31.260788","tel":"18321101211","bigType":"汽车服务","midType":"汽车养护/装饰","smallType":"汽车养护|汽车服务","gcj_lng":121.478044,"gcj_lat":31.260788,"wgs84_loc":"121.473533,31.262729","wgs84Lng":121.473533,"wgs84Lat":31.262729,"__source_file__":"13-常用公服设施点/CSV/上海市_汽车养护or装饰.csv"},"geometry":{"type":"Point","coordinates":[121.473533,31.262729]}},{"id":"110","type":"Feature","properties":{"id":"B0FFHT6UFA","name":"恒通汽车养护","address":"宝昌路702号","type":"汽车服务;汽车养护/装饰;汽车养护","typecode":"010400","pcode":310000,"pname":"上海市","citycode":21,"cityname":"上海市","adcode":310106,"adname":"静安区","business_area":"和田","location":"121.471205,31.262261","tel":"18721379658","bigType":"汽车服务","midType":"汽车养护/装饰","smallType":"汽车养护","gcj_lng":121.471205,"gcj_lat":31.262261,"wgs84_loc":"121.466671,31.264182","wgs84Lng":121.466671,"wgs84Lat":31.264182,"__source_file__":"13-常用公服设施点/CSV/上海市_汽车养护or装饰.csv"},"geometry":{"type":"Point","coordinates":[121.466671,31.264182]}},{"id":"169","type":"Feature","properties":{"id":"B0FFFA04R8","name":"锦祯汽车服务有限公司","address":"华昌路146号","type":"汽车服务;汽车养护/装饰;汽车养护","typecode":"010400","pcode":310000,"pname":"上海市","citycode":21,"cityname":"上海市","adcode":310109,"adname":"虹口区","business_area":"宝山路","location":"121.475960,31.263796","tel":"18021068678;13801709714","bigType":"汽车服务","midType":"汽车养护/装饰","smallType":"汽车养护","gcj_lng":121.47596,"gcj_lat":31.263796,"wgs84_loc":"121.471442,31.26573","wgs84Lng":121.471442,"wgs84Lat":31.26573,"__source_file__":"13-常用公服设施点/CSV/上海市_汽车养护or装饰.csv"},"geometry":{"type":"Point","coordinates":[121.471442,31.26573]}},{"id":"4061","type":"Feature","properties":{"id":"B0J1KH4MW1","name":"上海虹口唯依汽车服务(修理)","address":"西宝兴路717-719号(西藏北路地铁站1号口步行430米)","type":"汽车服务;汽车养护/装饰;汽车养护|汽车维修;汽车维修;汽车维修","typecode":"010400|030000","pcode":310000,"pname":"上海市","citycode":21,"cityname":"上海市","adcode":310109,"adname":"虹口区","business_area":"和田","location":"121.470717,31.266864","tel":"13916873759;15601782666","bigType":"汽车服务","midType":"汽车养护/装饰","smallType":"汽车养护|汽车维修","gcj_lng":121.470717,"gcj_lat":31.266864,"wgs84_loc":"121.466181,31.268782","wgs84Lng":121.466181,"wgs84Lat":31.268782,"__source_file__":"13-常用公服设施点/CSV/上海市_汽车养护or装饰.csv"},"geometry":{"type":"Point","coordinates":[121.466181,31.268782]}},{"id":"3618","type":"Feature","properties":{"id":"B00155QX9D","name":"亚洲汽车养护中心","address":"中山北路95号","type":"汽车服务;汽车养护/装饰;汽车养护","typecode":"010400","pcode":310000,"pname":"上海市","citycode":21,"cityname":"上海市","adcode":310109,"adname":"虹口区","business_area":"和田","location":"121.471639,31.266972","tel":"13817585384","bigType":"汽车服务","midType":"汽车养护/装饰","smallType":"汽车养护","gcj_lng":121.471639,"gcj_lat":31.266972,"wgs84_loc":"121.467106,31.268892","wgs84Lng":121.467106,"wgs84Lat":31.268892,"__source_file__":"13-常用公服设施点/CSV/上海市_汽车养护or装饰.csv"},"geometry":{"type":"Point","coordinates":[121.467106,31.268892]}},{"id":"4059","type":"Feature","properties":{"id":"B0J1UA8KVM","name":"壳牌喜力爱车养护中心","address":"广联路与中山北路交叉口西20米","type":"汽车服务;汽车养护/装饰;汽车养护|汽车维修;汽车维修;汽车维修","typecode":"010400|030000","pcode":310000,"pname":"上海市","citycode":21,"cityname":"上海市","adcode":310109,"adname":"虹口区","business_area":"和田","location":"121.472321,31.267708","tel":"13122077606","bigType":"汽车服务","midType":"汽车养护/装饰","smallType":"汽车养护|汽车维修","gcj_lng":121.472321,"gcj_lat":31.267708,"wgs84_loc":"121.46779,31.26963","wgs84Lng":121.46779,"wgs84Lat":31.26963,"__source_file__":"13-常用公服设施点/CSV/上海市_汽车养护or装饰.csv"},"geometry":{"type":"Point","coordinates":[121.46779,31.26963]}},{"id":"1751","type":"Feature","properties":{"id":"B0H1VHQX3D","name":"EVB英虎车体精护·贴膜·改色(上海灯具城店)","address":"柳营路125号D111-D112室","type":"汽车服务;汽车养护/装饰;汽车养护","typecode":"010400","pcode":310000,"pname":"上海市","citycode":21,"cityname":"上海市","adcode":310109,"adname":"虹口区","business_area":"和田","location":"121.468959,31.271440","tel":"18621707656","bigType":"汽车服务","midType":"汽车养护/装饰","smallType":"汽车养护","gcj_lng":121.468959,"gcj_lat":31.27144,"wgs84_loc":"121.464417,31.273351","wgs84Lng":121.464417,"wgs84Lat":31.273351,"__source_file__":"13-常用公服设施点/CSV/上海市_汽车养护or装饰.csv"},"geometry":{"type":"Point","coordinates":[121.464417,31.273351]}},{"id":"4207","type":"Feature","properties":{"id":"B0JBH5VPFY","name":"车倍洁精洗贴膜","address":"柳营路125号上海灯具城B2","type":"汽车服务;汽车养护/装饰;汽车养护","typecode":"010400","pcode":310000,"pname":"上海市","citycode":21,"cityname":"上海市","adcode":310109,"adname":"虹口区","business_area":"凉城","location":"121.468579,31.271815","tel":"13918236889;15221989516","bigType":"汽车服务","midType":"汽车养护/装饰","smallType":"汽车养护","gcj_lng":121.468579,"gcj_lat":31.271815,"wgs84_loc":"121.464036,31.273725","wgs84Lng":121.464036,"wgs84Lat":31.273725,"__source_file__":"13-常用公服设施点/CSV/上海市_汽车养护or装饰.csv"},"geometry":{"type":"Point","coordinates":[121.464036,31.273725]}},{"id":"168","type":"Feature","properties":{"id":"B0G0BM2DAV","name":"途虎养车工场店(同丰路店)","address":"北宝兴路75号","type":"汽车服务;汽车养护/装饰;汽车养护","typecode":"010400","pcode":310000,"pname":"上海市","citycode":21,"cityname":"上海市","adcode":310109,"adname":"虹口区","business_area":"和田","location":"121.467071,31.272481","tel":"021-66958891;18616892497","bigType":"汽车服务","midType":"汽车养护/装饰","smallType":"汽车养护","gcj_lng":121.467071,"gcj_lat":31.272481,"wgs84_loc":"121.462523,31.274387","wgs84Lng":121.462523,"wgs84Lat":31.274387,"__source_file__":"13-常用公服设施点/CSV/上海市_汽车养护or装饰.csv"},"geometry":{"type":"Point","coordinates":[121.462523,31.274387]}},{"id":"4147","type":"Feature","properties":{"id":"B0JRUMRRYK","name":"上海骁众威固7V不凡门店","address":"同丰路661号威固贴膜","type":"汽车服务;汽车养护/装饰;汽车养护","typecode":"010400","pcode":310000,"pname":"上海市","citycode":21,"cityname":"上海市","adcode":310109,"adname":"虹口区","business_area":"凉城","location":"121.467814,31.273536","tel":"15000334555;16621256788","bigType":"汽车服务","midType":"汽车养护/装饰","smallType":"汽车养护","gcj_lng":121.467814,"gcj_lat":31.273536,"wgs84_loc":"121.463269,31.275444","wgs84Lng":121.463269,"wgs84Lat":31.275444,"__source_file__":"13-常用公服设施点/CSV/上海市_汽车养护or装饰.csv"},"geometry":{"type":"Point","coordinates":[121.463269,31.275444]}},{"id":"172","type":"Feature","properties":{"id":"B0FFH023TI","name":"车美饰专业汽车服务","address":"新同心路84号","type":"汽车服务;汽车养护/装饰;汽车养护","typecode":"010400","pcode":310000,"pname":"上海市","citycode":21,"cityname":"上海市","adcode":310109,"adname":"虹口区","business_area":"和田","location":"121.465960,31.275602","tel":"18821262050","bigType":"汽车服务","midType":"汽车养护/装饰","smallType":"汽车养护","gcj_lng":121.46596,"gcj_lat":31.275602,"wgs84_loc":"121.461409,31.277504","wgs84Lng":121.461409,"wgs84Lat":31.277504,"__source_file__":"13-常用公服设施点/CSV/上海市_汽车养护or装饰.csv"},"geometry":{"type":"Point","coordinates":[121.461409,31.277504]}},{"id":"1054","type":"Feature","properties":{"id":"B0FFJP9EHC","name":"美车堂(静安嘉里中心东区)","address":"南京西路1515号静安嘉里中心东区B2层","type":"汽车服务;汽车养护/装饰;汽车养护","typecode":"010400","pcode":310000,"pname":"上海市","citycode":21,"cityname":"上海市","adcode":310106,"adname":"静安区","business_area":"淮海路","location":"121.451058,31.222718","tel":"021-51756937","bigType":"汽车服务","midType":"汽车养护/装饰","smallType":"汽车养护","gcj_lng":121.451058,"gcj_lat":31.222718,"wgs84_loc":"121.44647,31.224609","wgs84Lng":121.44647,"wgs84Lat":31.224609,"__source_file__":"13-常用公服设施点/CSV/上海市_汽车养护or装饰.csv"},"geometry":{"type":"Point","coordinates":[121.44647,31.224609]}},{"id":"1645","type":"Feature","properties":{"id":"B0HR06JD77","name":"车主世界","address":"巨鹿路272号","type":"汽车服务;汽车养护/装饰;汽车养护","typecode":"010400","pcode":310000,"pname":"上海市","citycode":21,"cityname":"上海市","adcode":310101,"adname":"黄浦区","business_area":"淮海路","location":"121.461311,31.223221","tel":"[]","bigType":"汽车服务","midType":"汽车养护/装饰","smallType":"汽车养护","gcj_lng":121.461311,"gcj_lat":31.223221,"wgs84_loc":"121.45675,31.225135","wgs84Lng":121.45675,"wgs84Lat":31.225135,"__source_file__":"13-常用公服设施点/CSV/上海市_汽车养护or装饰.csv"},"geometry":{"type":"Point","coordinates":[121.45675,31.225135]}},{"id":"3991","type":"Feature","properties":{"id":"B0I2YUWNUH","name":"BR光电保养(上海商城店)","address":"南京西路与西康路交叉口西140米","type":"汽车服务;汽车养护/装饰;汽车养护","typecode":"010400","pcode":310000,"pname":"上海市","citycode":21,"cityname":"上海市","adcode":310106,"adname":"静安区","business_area":"淮海路","location":"121.451486,31.226796","tel":"[]","bigType":"汽车服务","midType":"汽车养护/装饰","smallType":"汽车养护","gcj_lng":121.451486,"gcj_lat":31.226796,"wgs84_loc":"121.446899,31.228686","wgs84Lng":121.446899,"wgs84Lat":31.228686,"__source_file__":"13-常用公服设施点/CSV/上海市_汽车养护or装饰.csv"},"geometry":{"type":"Point","coordinates":[121.446899,31.228686]}},{"id":"1051","type":"Feature","properties":{"id":"B0H3FOHL9V","name":"美车堂汽车美容(梅龙镇广场)","address":"南京西路1038号梅龙镇广场B2层","type":"汽车服务;汽车养护/装饰;汽车养护","typecode":"010400","pcode":310000,"pname":"上海市","citycode":21,"cityname":"上海市","adcode":310106,"adname":"静安区","business_area":"淮海路","location":"121.456749,31.228745","tel":"[]","bigType":"汽车服务","midType":"汽车养护/装饰","smallType":"汽车养护","gcj_lng":121.456749,"gcj_lat":31.228745,"wgs84_loc":"121.452175,31.230645","wgs84Lng":121.452175,"wgs84Lat":31.230645,"__source_file__":"13-常用公服设施点/CSV/上海市_汽车养护or装饰.csv"},"geometry":{"type":"Point","coordinates":[121.452175,31.230645]}},{"id":"4235","type":"Feature","properties":{"id":"B0J64CBI04","name":"TOP+隐形车衣·改色膜·精洗","address":"江宁路与新闸路交叉口北80米","type":"汽车服务;汽车养护/装饰;汽车养护","typecode":"010400","pcode":310000,"pname":"上海市","citycode":21,"cityname":"上海市","adcode":310106,"adname":"静安区","business_area":"[]","location":"121.453667,31.233400","tel":"[]","bigType":"汽车服务","midType":"汽车养护/装饰","smallType":"汽车养护","gcj_lng":121.453667,"gcj_lat":31.2334,"wgs84_loc":"121.449085,31.235291","wgs84Lng":121.449085,"wgs84Lat":31.235291,"__source_file__":"13-常用公服设施点/CSV/上海市_汽车养护or装饰.csv"},"geometry":{"type":"Point","coordinates":[121.449085,31.235291]}},{"id":"1724","type":"Feature","properties":{"id":"B0G2G7OOHB","name":"C DC WASH","address":"北京西路469-471号","type":"汽车服务;汽车养护/装饰;汽车养护","typecode":"010400","pcode":310000,"pname":"上海市","citycode":21,"cityname":"上海市","adcode":310106,"adname":"静安区","business_area":"淮海路","location":"121.465865,31.234184","tel":"[]","bigType":"汽车服务","midType":"汽车养护/装饰","smallType":"汽车养护","gcj_lng":121.465865,"gcj_lat":31.234184,"wgs84_loc":"121.461317,31.236104","wgs84Lng":121.461317,"wgs84Lat":31.236104,"__source_file__":"13-常用公服设施点/CSV/上海市_汽车养护or装饰.csv"},"geometry":{"type":"Point","coordinates":[121.461317,31.236104]}},{"id":"3989","type":"Feature","properties":{"id":"B0HUB7G4YR","name":"C DC WASH","address":"北京西路469-471号","type":"汽车服务;汽车养护/装饰;汽车养护","typecode":"010400","pcode":310000,"pname":"上海市","citycode":21,"cityname":"上海市","adcode":310106,"adname":"静安区","business_area":"淮海路","location":"121.465865,31.234184","tel":"[]","bigType":"汽车服务","midType":"汽车养护/装饰","smallType":"汽车养护","gcj_lng":121.465865,"gcj_lat":31.234184,"wgs84_loc":"121.461317,31.236104","wgs84Lng":121.461317,"wgs84Lat":31.236104,"__source_file__":"13-常用公服设施点/CSV/上海市_汽车养护or装饰.csv"},"geometry":{"type":"Point","coordinates":[121.461317,31.236104]}},{"id":"4236","type":"Feature","properties":{"id":"B0J35KT7PK","name":"车体美容护理","address":"北京西路辅路与成都北路辅路交叉口西南60米","type":"汽车服务;汽车养护/装饰;汽车养护","typecode":"010400","pcode":310000,"pname":"上海市","citycode":21,"cityname":"上海市","adcode":310106,"adname":"静安区","business_area":"淮海路","location":"121.465804,31.234191","tel":"[]","bigType":"汽车服务","midType":"汽车养护/装饰","smallType":"汽车养护","gcj_lng":121.465804,"gcj_lat":31.234191,"wgs84_loc":"121.461256,31.236111","wgs84Lng":121.461256,"wgs84Lat":31.236111,"__source_file__":"13-常用公服设施点/CSV/上海市_汽车养护or装饰.csv"},"geometry":{"type":"Point","coordinates":[121.461256,31.236111]}},{"id":"1049","type":"Feature","properties":{"id":"B0GKZ79E3D","name":"DC WASH(北京西路店)","address":"北京西路469号(成都北路口)","type":"汽车服务;汽车养护/装饰;汽车养护","typecode":"010400","pcode":310000,"pname":"上海市","citycode":21,"cityname":"上海市","adcode":310106,"adname":"静安区","business_area":"淮海路","location":"121.465933,31.234298","tel":"15301693315","bigType":"汽车服务","midType":"汽车养护/装饰","smallType":"汽车养护","gcj_lng":121.465933,"gcj_lat":31.234298,"wgs84_loc":"121.461385,31.236218","wgs84Lng":121.461385,"wgs84Lat":31.236218,"__source_file__":"13-常用公服设施点/CSV/上海市_汽车养护or装饰.csv"},"geometry":{"type":"Point","coordinates":[121.461385,31.236218]}},{"id":"3605","type":"Feature","properties":{"id":"B0HA3U3C27","name":"净道车体护理(博华广场店)","address":"慈溪路188号博华广场地下四层(近停车场出口处)","type":"汽车服务;汽车养护/装饰;汽车养护","typecode":"010400","pcode":310000,"pname":"上海市","citycode":21,"cityname":"上海市","adcode":310106,"adname":"静安区","business_area":"淮海路","location":"121.461790,31.235585","tel":"[]","bigType":"汽车服务","midType":"汽车养护/装饰","smallType":"汽车养护","gcj_lng":121.46179,"gcj_lat":31.235585,"wgs84_loc":"121.45723,31.237494","wgs84Lng":121.45723,"wgs84Lat":31.237494,"__source_file__":"13-常用公服设施点/CSV/上海市_汽车养护or装饰.csv"},"geometry":{"type":"Point","coordinates":[121.45723,31.237494]}},{"id":"1680","type":"Feature","properties":{"id":"B0FFILHKVA","name":"筋骨养护(普陀店)","address":"长寿路748-1号湖南大厦10楼","type":"汽车服务;汽车养护/装饰;汽车养护","typecode":"010400","pcode":310000,"pname":"上海市","citycode":21,"cityname":"上海市","adcode":310107,"adname":"普陀区","business_area":"曹家渡","location":"121.431657,31.237260","tel":"[]","bigType":"汽车服务","midType":"汽车养护/装饰","smallType":"汽车养护","gcj_lng":121.431657,"gcj_lat":31.23726,"wgs84_loc":"121.427028,31.239111","wgs84Lng":121.427028,"wgs84Lat":31.239111,"__source_file__":"13-常用公服设施点/CSV/上海市_汽车养护or装饰.csv"},"geometry":{"type":"Point","coordinates":[121.427028,31.239111]}},{"id":"120","type":"Feature","properties":{"id":"B00155AY3M","name":"旗伟汽车装潢商行(安远店)","address":"安远路472号","type":"汽车服务;汽车养护/装饰;汽车养护","typecode":"010400","pcode":310000,"pname":"上海市","citycode":21,"cityname":"上海市","adcode":310107,"adname":"普陀区","business_area":"曹家渡","location":"121.438861,31.237647","tel":"13764434406","bigType":"汽车服务","midType":"汽车养护/装饰","smallType":"汽车养护","gcj_lng":121.438861,"gcj_lat":31.237647,"wgs84_loc":"121.434245,31.239508","wgs84Lng":121.434245,"wgs84Lat":31.239508,"__source_file__":"13-常用公服设施点/CSV/上海市_汽车养护or装饰.csv"},"geometry":{"type":"Point","coordinates":[121.434245,31.239508]}},{"id":"119","type":"Feature","properties":{"id":"B0FFLHN1H3","name":"途虎养车工场店(安远路店)","address":"安远路480号","type":"汽车服务;汽车养护/装饰;汽车养护","typecode":"010400","pcode":310000,"pname":"上海市","citycode":21,"cityname":"上海市","adcode":310107,"adname":"普陀区","business_area":"曹家渡","location":"121.438690,31.237670","tel":"15655120588;021-62661633","bigType":"汽车服务","midType":"汽车养护/装饰","smallType":"汽车养护","gcj_lng":121.43869,"gcj_lat":31.23767,"wgs84_loc":"121.434073,31.239531","wgs84Lng":121.434073,"wgs84Lat":31.239531,"__source_file__":"13-常用公服设施点/CSV/上海市_汽车养护or装饰.csv"},"geometry":{"type":"Point","coordinates":[121.434073,31.239531]}},{"id":"2393","type":"Feature","properties":{"id":"B0FFL6BHIF","name":"停车场洗车","address":"长寿路398-3号附近","type":"汽车服务;汽车养护/装饰;汽车养护","typecode":"010400","pcode":310000,"pname":"上海市","citycode":21,"cityname":"上海市","adcode":310107,"adname":"普陀区","business_area":"曹家渡","location":"121.438329,31.241241","tel":"[]","bigType":"汽车服务","midType":"汽车养护/装饰","smallType":"汽车养护","gcj_lng":121.438329,"gcj_lat":31.241241,"wgs84_loc":"121.433711,31.2431","wgs84Lng":121.433711,"wgs84Lat":31.2431,"__source_file__":"13-常用公服设施点/CSV/上海市_汽车养护or装饰.csv"},"geometry":{"type":"Point","coordinates":[121.433711,31.2431]}},{"id":"1052","type":"Feature","properties":{"id":"B00155GDC0","name":"杰生洗车美容装潢技术服务中心","address":"石门二路493号","type":"汽车服务;汽车养护/装饰;汽车养护","typecode":"010400","pcode":310000,"pname":"上海市","citycode":21,"cityname":"上海市","adcode":310106,"adname":"静安区","business_area":"淮海路","location":"121.459066,31.237068","tel":"[]","bigType":"汽车服务","midType":"汽车养护/装饰","smallType":"汽车养护","gcj_lng":121.459066,"gcj_lat":31.237068,"wgs84_loc":"121.454498,31.23897","wgs84Lng":121.454498,"wgs84Lat":31.23897,"__source_file__":"13-常用公服设施点/CSV/上海市_汽车养护or装饰.csv"},"geometry":{"type":"Point","coordinates":[121.454498,31.23897]}},{"id":"1057","type":"Feature","properties":{"id":"B0FFGPNJC0","name":"车立靓(新丰路店)","address":"新丰路326-328号","type":"汽车服务;汽车养护/装饰;汽车养护","typecode":"010400","pcode":310000,"pname":"上海市","citycode":21,"cityname":"上海市","adcode":310106,"adname":"静安区","business_area":"曹家渡","location":"121.445077,31.239340","tel":"021-62301058","bigType":"汽车服务","midType":"汽车养护/装饰","smallType":"汽车养护","gcj_lng":121.445077,"gcj_lat":31.23934,"wgs84_loc":"121.440473,31.241211","wgs84Lng":121.440473,"wgs84Lat":31.241211,"__source_file__":"13-常用公服设施点/CSV/上海市_汽车养护or装饰.csv"},"geometry":{"type":"Point","coordinates":[121.440473,31.241211]}},{"id":"1056","type":"Feature","properties":{"id":"B0FFFDSL86","name":"奥德索斯汽车美学专家(陕西北路店)","address":"陕西北路1111号(近新丰路口)","type":"汽车服务;汽车养护/装饰;汽车养护","typecode":"010400","pcode":310000,"pname":"上海市","citycode":21,"cityname":"上海市","adcode":310106,"adname":"静安区","business_area":"曹家渡","location":"121.445230,31.239505","tel":"021-52662633","bigType":"汽车服务","midType":"汽车养护/装饰","smallType":"汽车养护","gcj_lng":121.44523,"gcj_lat":31.239505,"wgs84_loc":"121.440627,31.241377","wgs84Lng":121.440627,"wgs84Lat":31.241377,"__source_file__":"13-常用公服设施点/CSV/上海市_汽车养护or装饰.csv"},"geometry":{"type":"Point","coordinates":[121.440627,31.241377]}},{"id":"1053","type":"Feature","properties":{"id":"B0G2PXJVD8","name":"梅园汽车美容店光复路555号店","address":"光复路555号梅园加油站","type":"汽车服务;汽车养护/装饰;汽车养护","typecode":"010400","pcode":310000,"pname":"上海市","citycode":21,"cityname":"上海市","adcode":310106,"adname":"静安区","business_area":"[]","location":"121.462300,31.241640","tel":"13764580682","bigType":"汽车服务","midType":"汽车养护/装饰","smallType":"汽车养护","gcj_lng":121.4623,"gcj_lat":31.24164,"wgs84_loc":"121.457741,31.243548","wgs84Lng":121.457741,"wgs84Lat":31.243548,"__source_file__":"13-常用公服设施点/CSV/上海市_汽车养护or装饰.csv"},"geometry":{"type":"Point","coordinates":[121.457741,31.243548]}},{"id":"1055","type":"Feature","properties":{"id":"B0H1HUSCQ4","name":"伍尔特养车(上海欧曲店)","address":"安远路84号102室","type":"汽车服务;汽车养护/装饰;汽车养护","typecode":"010400","pcode":310000,"pname":"上海市","citycode":21,"cityname":"上海市","adcode":310106,"adname":"静安区","business_area":"曹家渡","location":"121.447475,31.241827","tel":"021-52527728","bigType":"汽车服务","midType":"汽车养护/装饰","smallType":"汽车养护","gcj_lng":121.447475,"gcj_lat":31.241827,"wgs84_loc":"121.442877,31.243702","wgs84Lng":121.442877,"wgs84Lat":31.243702,"__source_file__":"13-常用公服设施点/CSV/上海市_汽车养护or装饰.csv"},"geometry":{"type":"Point","coordinates":[121.442877,31.243702]}},{"id":"1662","type":"Feature","properties":{"id":"B0FFG4ZKMT","name":"上海欧曲汽车技术有限公司","address":"安远路84号-101室","type":"汽车服务;汽车养护/装饰;汽车养护","typecode":"010400","pcode":310000,"pname":"上海市","citycode":21,"cityname":"上海市","adcode":310107,"adname":"普陀区","business_area":"曹家渡","location":"121.447498,31.242096","tel":"[]","bigType":"汽车服务","midType":"汽车养护/装饰","smallType":"汽车养护","gcj_lng":121.447498,"gcj_lat":31.242096,"wgs84_loc":"121.4429,31.243971","wgs84Lng":121.4429,"wgs84Lat":31.243971,"__source_file__":"13-常用公服设施点/CSV/上海市_汽车养护or装饰.csv"},"geometry":{"type":"Point","coordinates":[121.4429,31.243971]}},{"id":"3781","type":"Feature","properties":{"id":"B0HB3Z8BRK","name":"车美佳汽车美容店","address":"天目中路立交桥与天目西路交叉口东北80米","type":"汽车服务;汽车养护/装饰;汽车养护","typecode":"010400","pcode":310000,"pname":"上海市","citycode":21,"cityname":"上海市","adcode":310106,"adname":"静安区","business_area":"宝山路","location":"121.458593,31.246663","tel":"[]","bigType":"汽车服务","midType":"汽车养护/装饰","smallType":"汽车养护","gcj_lng":121.458593,"gcj_lat":31.246663,"wgs84_loc":"121.454023,31.24856","wgs84Lng":121.454023,"wgs84Lat":31.24856,"__source_file__":"13-常用公服设施点/CSV/上海市_汽车养护or装饰.csv"},"geometry":{"type":"Point","coordinates":[121.454023,31.24856]}},{"id":"3170","type":"Feature","properties":{"id":"B0G3UX4QN5","name":"坐享品质专车","address":"秣陵路上海站-南广场南侧约30米","type":"汽车服务;汽车养护/装饰;汽车养护","typecode":"010400","pcode":310000,"pname":"上海市","citycode":21,"cityname":"上海市","adcode":310106,"adname":"静安区","business_area":"[]","location":"121.454953,31.247187","tel":"[]","bigType":"汽车服务","midType":"汽车养护/装饰","smallType":"汽车养护","gcj_lng":121.454953,"gcj_lat":31.247187,"wgs84_loc":"121.450373,31.249075","wgs84Lng":121.450373,"wgs84Lat":31.249075,"__source_file__":"13-常用公服设施点/CSV/上海市_汽车养护or装饰.csv"},"geometry":{"type":"Point","coordinates":[121.450373,31.249075]}},{"id":"3169","type":"Feature","properties":{"id":"B0G17SV2HG","name":"爱上汽车","address":"秣陵路环龙商场","type":"汽车服务;汽车养护/装饰;汽车养护","typecode":"010400","pcode":310000,"pname":"上海市","citycode":21,"cityname":"上海市","adcode":310106,"adname":"静安区","business_area":"[]","location":"121.456764,31.247332","tel":"[]","bigType":"汽车服务","midType":"汽车养护/装饰","smallType":"汽车养护","gcj_lng":121.456764,"gcj_lat":31.247332,"wgs84_loc":"121.452189,31.249224","wgs84Lng":121.452189,"wgs84Lat":31.249224,"__source_file__":"13-常用公服设施点/CSV/上海市_汽车养护or装饰.csv"},"geometry":{"type":"Point","coordinates":[121.452189,31.249224]}},{"id":"109","type":"Feature","properties":{"id":"B0FFIHGCES","name":"途虎养车工场店(共和新路店)","address":"共和新路435号","type":"汽车服务;汽车养护/装饰;汽车养护","typecode":"010400","pcode":310000,"pname":"上海市","citycode":21,"cityname":"上海市","adcode":310106,"adname":"静安区","business_area":"宝山路","location":"121.463989,31.250299","tel":"021-56208988","bigType":"汽车服务","midType":"汽车养护/装饰","smallType":"汽车养护","gcj_lng":121.463989,"gcj_lat":31.250299,"wgs84_loc":"121.459434,31.252207","wgs84Lng":121.459434,"wgs84Lat":31.252207,"__source_file__":"13-常用公服设施点/CSV/上海市_汽车养护or装饰.csv"},"geometry":{"type":"Point","coordinates":[121.459434,31.252207]}},{"id":"3994","type":"Feature","properties":{"id":"B0I3Z7TZL2","name":"瓦尔塔蓄电池(长寿路店)","address":"长寿路378号(地铁站3口步行80米)","type":"汽车服务;汽车养护/装饰;汽车养护|汽车维修;汽车维修;汽车维修","typecode":"010400|030000","pcode":310000,"pname":"上海市","citycode":21,"cityname":"上海市","adcode":310107,"adname":"普陀区","business_area":"曹家渡","location":"121.438992,31.241624","tel":"13585751887","bigType":"汽车服务","midType":"汽车养护/装饰","smallType":"汽车养护|汽车维修","gcj_lng":121.438992,"gcj_lat":31.241624,"wgs84_loc":"121.434376,31.243484","wgs84Lng":121.434376,"wgs84Lat":31.243484,"__source_file__":"13-常用公服设施点/CSV/上海市_汽车养护or装饰.csv"},"geometry":{"type":"Point","coordinates":[121.434376,31.243484]}},{"id":"2392","type":"Feature","properties":{"id":"B0H0RZC0VA","name":"途虎养车纯洗店(万代南梦宫店)","address":"澳门路736弄1-12号","type":"汽车服务;汽车养护/装饰;汽车养护","typecode":"010400","pcode":310000,"pname":"上海市","citycode":21,"cityname":"上海市","adcode":310107,"adname":"普陀区","business_area":"光新","location":"121.442248,31.249278","tel":"15655120588","bigType":"汽车服务","midType":"汽车养护/装饰","smallType":"汽车养护","gcj_lng":121.442248,"gcj_lat":31.249278,"wgs84_loc":"121.437637,31.25114","wgs84Lng":121.437637,"wgs84Lat":31.25114,"__source_file__":"13-常用公服设施点/CSV/上海市_汽车养护or装饰.csv"},"geometry":{"type":"Point","coordinates":[121.437637,31.25114]}},{"id":"4110","type":"Feature","properties":{"id":"B0JKGH32T0","name":"传美车衣改色贴膜(梦清园店)","address":"宜昌路5号","type":"汽车服务;汽车养护/装饰;汽车养护","typecode":"010400","pcode":310000,"pname":"上海市","citycode":21,"cityname":"上海市","adcode":310107,"adname":"普陀区","business_area":"长寿路","location":"121.442147,31.249398","tel":"15316408334","bigType":"汽车服务","midType":"汽车养护/装饰","smallType":"汽车养护","gcj_lng":121.442147,"gcj_lat":31.249398,"wgs84_loc":"121.437536,31.25126","wgs84Lng":121.437536,"wgs84Lat":31.25126,"__source_file__":"13-常用公服设施点/CSV/上海市_汽车养护or装饰.csv"},"geometry":{"type":"Point","coordinates":[121.437536,31.25126]}},{"id":"4112","type":"Feature","properties":{"id":"B0KDUCDAIG","name":"保缥隐形车衣","address":"宜昌路5号地库","type":"汽车服务;汽车养护/装饰;汽车养护|汽车服务;洗车场;洗车场","typecode":"010400|010500","pcode":310000,"pname":"上海市","citycode":21,"cityname":"上海市","adcode":310107,"adname":"普陀区","business_area":"光新","location":"121.442174,31.249455","tel":"13816516728","bigType":"汽车服务","midType":"汽车养护/装饰","smallType":"汽车养护|汽车服务","gcj_lng":121.442174,"gcj_lat":31.249455,"wgs84_loc":"121.437563,31.251317","wgs84Lng":121.437563,"wgs84Lat":31.251317,"__source_file__":"13-常用公服设施点/CSV/上海市_汽车养护or装饰.csv"},"geometry":{"type":"Point","coordinates":[121.437563,31.251317]}},{"id":"4109","type":"Feature","properties":{"id":"B0JKNACXF3","name":"超级车坊","address":"中潭路中远两湾城91弄39号楼B1","type":"汽车服务;汽车养护/装饰;汽车养护","typecode":"010400","pcode":310000,"pname":"上海市","citycode":21,"cityname":"上海市","adcode":310107,"adname":"普陀区","business_area":"光新","location":"121.443056,31.251861","tel":"15601671008","bigType":"汽车服务","midType":"汽车养护/装饰","smallType":"汽车养护","gcj_lng":121.443056,"gcj_lat":31.251861,"wgs84_loc":"121.438447,31.253723","wgs84Lng":121.438447,"wgs84Lat":31.253723,"__source_file__":"13-常用公服设施点/CSV/上海市_汽车养护or装饰.csv"},"geometry":{"type":"Point","coordinates":[121.438447,31.253723]}},{"id":"1688","type":"Feature","properties":{"id":"B0G1B1AYQU","name":"浩途养车(石泉东路店)","address":"石泉东路256号(融创精彩天地)B2层G区","type":"汽车服务;汽车养护/装饰;汽车养护","typecode":"010400","pcode":310000,"pname":"上海市","citycode":21,"cityname":"上海市","adcode":310107,"adname":"普陀区","business_area":"光新","location":"121.431378,31.254823","tel":"13801854888","bigType":"汽车服务","midType":"汽车养护/装饰","smallType":"汽车养护","gcj_lng":121.431378,"gcj_lat":31.254823,"wgs84_loc":"121.426747,31.256666","wgs84Lng":121.426747,"wgs84Lat":31.256666,"__source_file__":"13-常用公服设施点/CSV/上海市_汽车养护or装饰.csv"},"geometry":{"type":"Point","coordinates":[121.426747,31.256666]}},{"id":"126","type":"Feature","properties":{"id":"B0FFKGPKCL","name":"上海雨缘汽车维修美容","address":"农林路97号","type":"汽车服务;汽车养护/装饰;汽车养护|汽车服务;洗车场;洗车场|汽车维修;汽车维修;汽车维修","typecode":"010400|010500|030000","pcode":310000,"pname":"上海市","citycode":21,"cityname":"上海市","adcode":310107,"adname":"普陀区","business_area":"光新","location":"121.435205,31.254836","tel":"17679040683;13621739885","bigType":"汽车服务","midType":"汽车养护/装饰","smallType":"汽车养护|汽车服务","gcj_lng":121.435205,"gcj_lat":31.254836,"wgs84_loc":"121.430581,31.256684","wgs84Lng":121.430581,"wgs84Lat":31.256684,"__source_file__":"13-常用公服设施点/CSV/上海市_汽车养护or装饰.csv"},"geometry":{"type":"Point","coordinates":[121.430581,31.256684]}},{"id":"137","type":"Feature","properties":{"id":"B0FFHK8F57","name":"唯佳车工场","address":"交通路2083-2093号","type":"汽车服务;汽车养护/装饰;汽车养护","typecode":"010400","pcode":310000,"pname":"上海市","citycode":21,"cityname":"上海市","adcode":310107,"adname":"普陀区","business_area":"大宁路","location":"121.435450,31.257285","tel":"[]","bigType":"汽车服务","midType":"汽车养护/装饰","smallType":"汽车养护","gcj_lng":121.43545,"gcj_lat":31.257285,"wgs84_loc":"121.430826,31.259132","wgs84Lng":121.430826,"wgs84Lat":31.259132,"__source_file__":"13-常用公服设施点/CSV/上海市_汽车养护or装饰.csv"},"geometry":{"type":"Point","coordinates":[121.430826,31.259132]}},{"id":"1685","type":"Feature","properties":{"id":"B0H3ZLI8BC","name":"车工坊(交通路店)","address":"交通路嘉怡苑","type":"汽车服务;汽车养护/装饰;汽车养护","typecode":"010400","pcode":310000,"pname":"上海市","citycode":21,"cityname":"上海市","adcode":310107,"adname":"普陀区","business_area":"光新","location":"121.433808,31.257635","tel":"[]","bigType":"汽车服务","midType":"汽车养护/装饰","smallType":"汽车养护","gcj_lng":121.433808,"gcj_lat":31.257635,"wgs84_loc":"121.429181,31.25948","wgs84Lng":121.429181,"wgs84Lat":31.25948,"__source_file__":"13-常用公服设施点/CSV/上海市_汽车养护or装饰.csv"},"geometry":{"type":"Point","coordinates":[121.429181,31.25948]}},{"id":"1661","type":"Feature","properties":{"id":"B00156O5AD","name":"美车地带(途虎交通路店)","address":"交通路2261号(志丹路泾惠路间)","type":"汽车服务;汽车养护/装饰;汽车养护","typecode":"010400","pcode":310000,"pname":"上海市","citycode":21,"cityname":"上海市","adcode":310107,"adname":"普陀区","business_area":"大宁路","location":"121.433066,31.257814","tel":"021-36529979;18049857097","bigType":"汽车服务","midType":"汽车养护/装饰","smallType":"汽车养护","gcj_lng":121.433066,"gcj_lat":31.257814,"wgs84_loc":"121.428438,31.259658","wgs84Lng":121.428438,"wgs84Lat":31.259658,"__source_file__":"13-常用公服设施点/CSV/上海市_汽车养护or装饰.csv"},"geometry":{"type":"Point","coordinates":[121.428438,31.259658]}},{"id":"1911","type":"Feature","properties":{"id":"B0FFLNPUZ3","name":"专业保养","address":"中兴路三兴小区","type":"汽车服务;汽车养护/装饰;汽车养护","typecode":"010400","pcode":310000,"pname":"上海市","citycode":21,"cityname":"上海市","adcode":310106,"adname":"静安区","business_area":"宝山路","location":"121.459771,31.252124","tel":"[]","bigType":"汽车服务","midType":"汽车养护/装饰","smallType":"汽车养护","gcj_lng":121.459771,"gcj_lat":31.252124,"wgs84_loc":"121.455204,31.254021","wgs84Lng":121.455204,"wgs84Lat":31.254021,"__source_file__":"13-常用公服设施点/CSV/上海市_汽车养护or装饰.csv"},"geometry":{"type":"Point","coordinates":[121.455204,31.254021]}},{"id":"121","type":"Feature","properties":{"id":"B0FFLFWUES","name":"芷脉养车","address":"宜川骊山路26号115-116","type":"汽车服务;汽车养护/装饰;汽车养护","typecode":"010400","pcode":310000,"pname":"上海市","citycode":21,"cityname":"上海市","adcode":310107,"adname":"普陀区","business_area":"大宁路","location":"121.444775,31.257573","tel":"021-66279277","bigType":"汽车服务","midType":"汽车养护/装饰","smallType":"汽车养护","gcj_lng":121.444775,"gcj_lat":31.257573,"wgs84_loc":"121.440169,31.259436","wgs84Lng":121.440169,"wgs84Lat":31.259436,"__source_file__":"13-常用公服设施点/CSV/上海市_汽车养护or装饰.csv"},"geometry":{"type":"Point","coordinates":[121.440169,31.259436]}},{"id":"106","type":"Feature","properties":{"id":"B0G2M5WIXY","name":"途虎养车工场店(普善路店)","address":"普善路424号","type":"汽车服务;汽车养护/装饰;汽车养护","typecode":"010400","pcode":310000,"pname":"上海市","citycode":21,"cityname":"上海市","adcode":310106,"adname":"静安区","business_area":"和田","location":"121.454045,31.260631","tel":"021-56790612;18001697109","bigType":"汽车服务","midType":"汽车养护/装饰","smallType":"汽车养护","gcj_lng":121.454045,"gcj_lat":31.260631,"wgs84_loc":"121.449461,31.262511","wgs84Lng":121.449461,"wgs84Lat":31.262511,"__source_file__":"13-常用公服设施点/CSV/上海市_汽车养护or装饰.csv"},"geometry":{"type":"Point","coordinates":[121.449461,31.262511]}},{"id":"4054","type":"Feature","properties":{"id":"B0K3F5N2U7","name":"顺鑫汽车24h维修搭电补胎道路救援二手轮胎","address":"中山北路647号","type":"汽车服务;汽车养护/装饰;汽车养护|汽车维修;汽车维修;汽车维修","typecode":"010400|030000","pcode":310000,"pname":"上海市","citycode":21,"cityname":"上海市","adcode":310106,"adname":"静安区","business_area":"和田","location":"121.460025,31.260818","tel":"13162186746","bigType":"汽车服务","midType":"汽车养护/装饰","smallType":"汽车养护|汽车维修","gcj_lng":121.460025,"gcj_lat":31.260818,"wgs84_loc":"121.455457,31.262712","wgs84Lng":121.455457,"wgs84Lat":31.262712,"__source_file__":"13-常用公服设施点/CSV/上海市_汽车养护or装饰.csv"},"geometry":{"type":"Point","coordinates":[121.455457,31.262712]}},{"id":"107","type":"Feature","properties":{"id":"B0FFK834CX","name":"京东京车会(华麟普善路店)","address":"普善路576号580号","type":"汽车服务;汽车养护/装饰;汽车养护","typecode":"010400","pcode":310000,"pname":"上海市","citycode":21,"cityname":"上海市","adcode":310106,"adname":"静安区","business_area":"和田","location":"121.453799,31.261140","tel":"021-56502778;18916122077","bigType":"汽车服务","midType":"汽车养护/装饰","smallType":"汽车养护","gcj_lng":121.453799,"gcj_lat":31.26114,"wgs84_loc":"121.449215,31.263019","wgs84Lng":121.449215,"wgs84Lat":31.263019,"__source_file__":"13-常用公服设施点/CSV/上海市_汽车养护or装饰.csv"},"geometry":{"type":"Point","coordinates":[121.449215,31.263019]}},{"id":"101","type":"Feature","properties":{"id":"B0FFHS1NXB","name":"京东京车会","address":"普善路与谈家桥路交叉口西北约20米","type":"汽车服务;汽车养护/装饰;汽车养护","typecode":"010400","pcode":310000,"pname":"上海市","citycode":21,"cityname":"上海市","adcode":310106,"adname":"静安区","business_area":"和田","location":"121.453846,31.261141","tel":"13585626361","bigType":"汽车服务","midType":"汽车养护/装饰","smallType":"汽车养护","gcj_lng":121.453846,"gcj_lat":31.261141,"wgs84_loc":"121.449262,31.26302","wgs84Lng":121.449262,"wgs84Lat":31.26302,"__source_file__":"13-常用公服设施点/CSV/上海市_汽车养护or装饰.csv"},"geometry":{"type":"Point","coordinates":[121.449262,31.26302]}},{"id":"3161","type":"Feature","properties":{"id":"B0G12KJCXS","name":"哈啰车服(陈家宅路店)","address":"陈家宅路盛和玲珑苑","type":"汽车服务;汽车养护/装饰;汽车养护","typecode":"010400","pcode":310000,"pname":"上海市","citycode":21,"cityname":"上海市","adcode":310106,"adname":"静安区","business_area":"和田","location":"121.463856,31.264250","tel":"[]","bigType":"汽车服务","midType":"汽车养护/装饰","smallType":"汽车养护","gcj_lng":121.463856,"gcj_lat":31.26425,"wgs84_loc":"121.459299,31.266151","wgs84Lng":121.459299,"wgs84Lat":31.266151,"__source_file__":"13-常用公服设施点/CSV/上海市_汽车养护or装饰.csv"},"geometry":{"type":"Point","coordinates":[121.459299,31.266151]}},{"id":"3842","type":"Feature","properties":{"id":"B0FFLFGELA","name":"吉安驰换油养护连锁中心","address":"陈家宅路38号","type":"汽车服务;汽车养护/装饰;汽车养护","typecode":"010400","pcode":310000,"pname":"上海市","citycode":21,"cityname":"上海市","adcode":310106,"adname":"静安区","business_area":"和田","location":"121.465956,31.264512","tel":"021-56885881","bigType":"汽车服务","midType":"汽车养护/装饰","smallType":"汽车养护","gcj_lng":121.465956,"gcj_lat":31.264512,"wgs84_loc":"121.461406,31.266419","wgs84Lng":121.461406,"wgs84Lat":31.266419,"__source_file__":"13-常用公服设施点/CSV/上海市_汽车养护or装饰.csv"},"geometry":{"type":"Point","coordinates":[121.461406,31.266419]}},{"id":"3158","type":"Feature","properties":{"id":"B0I6B7U1GW","name":"天猫养车（陈家宅路店）","address":"陈家宅路38号-2","type":"汽车服务;汽车养护/装饰;汽车养护","typecode":"010400","pcode":310000,"pname":"上海市","citycode":21,"cityname":"上海市","adcode":310106,"adname":"静安区","business_area":"和田","location":"121.465952,31.264522","tel":"[]","bigType":"汽车服务","midType":"汽车养护/装饰","smallType":"汽车养护","gcj_lng":121.465952,"gcj_lat":31.264522,"wgs84_loc":"121.461402,31.266429","wgs84Lng":121.461402,"wgs84Lat":31.266429,"__source_file__":"13-常用公服设施点/CSV/上海市_汽车养护or装饰.csv"},"geometry":{"type":"Point","coordinates":[121.461402,31.266429]}},{"id":"1061","type":"Feature","properties":{"id":"B00153C1C9","name":"吉安汽车美容","address":"延长中路702号","type":"汽车服务;汽车养护/装饰;汽车养护","typecode":"010400","pcode":310000,"pname":"上海市","citycode":21,"cityname":"上海市","adcode":310106,"adname":"静安区","business_area":"和田","location":"121.447174,31.267223","tel":"[]","bigType":"汽车服务","midType":"汽车养护/装饰","smallType":"汽车养护","gcj_lng":121.447174,"gcj_lat":31.267223,"wgs84_loc":"121.442573,31.269086","wgs84Lng":121.442573,"wgs84Lat":31.269086,"__source_file__":"13-常用公服设施点/CSV/上海市_汽车养护or装饰.csv"},"geometry":{"type":"Point","coordinates":[121.442573,31.269086]}},{"id":"1087","type":"Feature","properties":{"id":"B0G17SUMR6","name":"轮胎保养美容车品","address":"志丹路佰隆商务楼","type":"汽车服务;汽车养护/装饰;汽车养护","typecode":"010400","pcode":310000,"pname":"上海市","citycode":21,"cityname":"上海市","adcode":310107,"adname":"普陀区","business_area":"光新","location":"121.431268,31.261478","tel":"[]","bigType":"汽车服务","midType":"汽车养护/装饰","smallType":"汽车养护","gcj_lng":121.431268,"gcj_lat":31.261478,"wgs84_loc":"121.426636,31.263318","wgs84Lng":121.426636,"wgs84Lat":31.263318,"__source_file__":"13-常用公服设施点/CSV/上海市_汽车养护or装饰.csv"},"geometry":{"type":"Point","coordinates":[121.426636,31.263318]}},{"id":"124","type":"Feature","properties":{"id":"B0FFILLZFP","name":"途虎养车工场店(甘泉路店)","address":"志丹路176号","type":"汽车服务;汽车养护/装饰;汽车养护","typecode":"010400","pcode":310000,"pname":"上海市","citycode":21,"cityname":"上海市","adcode":310107,"adname":"普陀区","business_area":"光新","location":"121.431259,31.261537","tel":"021-56302300","bigType":"汽车服务","midType":"汽车养护/装饰","smallType":"汽车养护","gcj_lng":121.431259,"gcj_lat":31.261537,"wgs84_loc":"121.426627,31.263377","wgs84Lng":121.426627,"wgs84Lat":31.263377,"__source_file__":"13-常用公服设施点/CSV/上海市_汽车养护or装饰.csv"},"geometry":{"type":"Point","coordinates":[121.426627,31.263377]}},{"id":"1084","type":"Feature","properties":{"id":"B0FFF5VR4Y","name":"强生汽车装饰有限公司","address":"沪太路790号","type":"汽车服务;汽车养护/装饰;汽车养护","typecode":"010400","pcode":310000,"pname":"上海市","citycode":21,"cityname":"上海市","adcode":310107,"adname":"普陀区","business_area":"大宁路","location":"121.443667,31.265892","tel":"021-56612787;021-56945175","bigType":"汽车服务","midType":"汽车养护/装饰","smallType":"汽车养护","gcj_lng":121.443667,"gcj_lat":31.265892,"wgs84_loc":"121.439058,31.267749","wgs84Lng":121.439058,"wgs84Lat":31.267749,"__source_file__":"13-常用公服设施点/CSV/上海市_汽车养护or装饰.csv"},"geometry":{"type":"Point","coordinates":[121.439058,31.267749]}},{"id":"4111","type":"Feature","properties":{"id":"B0KRSSHSTO","name":"车界汽车服务","address":"沪太路790号","type":"汽车服务;汽车养护/装饰;汽车养护","typecode":"010400","pcode":310000,"pname":"上海市","citycode":21,"cityname":"上海市","adcode":310107,"adname":"普陀区","business_area":"大宁路","location":"121.443653,31.265905","tel":"18017326723","bigType":"汽车服务","midType":"汽车养护/装饰","smallType":"汽车养护","gcj_lng":121.443653,"gcj_lat":31.265905,"wgs84_loc":"121.439044,31.267762","wgs84Lng":121.439044,"wgs84Lat":31.267762,"__source_file__":"13-常用公服设施点/CSV/上海市_汽车养护or装饰.csv"},"geometry":{"type":"Point","coordinates":[121.439044,31.267762]}},{"id":"1059","type":"Feature","properties":{"id":"B0FFJW79FW","name":"脉冲品质汽美(沪太店)","address":"老沪太路1315号","type":"汽车服务;汽车养护/装饰;汽车养护","typecode":"010400","pcode":310000,"pname":"上海市","citycode":21,"cityname":"上海市","adcode":310106,"adname":"静安区","business_area":"大宁路","location":"121.440055,31.268851","tel":"18917168530;021-56413958","bigType":"汽车服务","midType":"汽车养护/装饰","smallType":"汽车养护","gcj_lng":121.440055,"gcj_lat":31.268851,"wgs84_loc":"121.435438,31.270701","wgs84Lng":121.435438,"wgs84Lat":31.270701,"__source_file__":"13-常用公服设施点/CSV/上海市_汽车养护or装饰.csv"},"geometry":{"type":"Point","coordinates":[121.435438,31.270701]}},{"id":"3847","type":"Feature","properties":{"id":"B0HARM0BOV","name":"绿园洗车店","address":"沪太路857号加气站内","type":"汽车服务;汽车养护/装饰;汽车养护","typecode":"010400","pcode":310000,"pname":"上海市","citycode":21,"cityname":"上海市","adcode":310106,"adname":"静安区","business_area":"大宁路","location":"121.438065,31.269222","tel":"[]","bigType":"汽车服务","midType":"汽车养护/装饰","smallType":"汽车养护","gcj_lng":121.438065,"gcj_lat":31.269222,"wgs84_loc":"121.433444,31.271068","wgs84Lng":121.433444,"wgs84Lat":31.271068,"__source_file__":"13-常用公服设施点/CSV/上海市_汽车养护or装饰.csv"},"geometry":{"type":"Point","coordinates":[121.433444,31.271068]}},{"id":"3992","type":"Feature","properties":{"id":"B0I3YCLOTD","name":"途虎养车工场店(万荣路店)","address":"万荣路209号","type":"汽车服务;汽车养护/装饰;汽车养护","typecode":"010400","pcode":310000,"pname":"上海市","citycode":21,"cityname":"上海市","adcode":310106,"adname":"静安区","business_area":"大宁路","location":"121.448025,31.271199","tel":"021-56356177","bigType":"汽车服务","midType":"汽车养护/装饰","smallType":"汽车养护","gcj_lng":121.448025,"gcj_lat":31.271199,"wgs84_loc":"121.443425,31.273062","wgs84Lng":121.443425,"wgs84Lat":31.273062,"__source_file__":"13-常用公服设施点/CSV/上海市_汽车养护or装饰.csv"},"geometry":{"type":"Point","coordinates":[121.443425,31.273062]}},{"id":"1062","type":"Feature","properties":{"id":"B0HKHOGT6R","name":"美车堂(大宁国际商业广场12座)","address":"共和新路1988号大宁国际商业广场12座B1层","type":"汽车服务;汽车养护/装饰;汽车养护","typecode":"010400","pcode":310000,"pname":"上海市","citycode":21,"cityname":"上海市","adcode":310106,"adname":"静安区","business_area":"大宁路","location":"121.452397,31.273297","tel":"[]","bigType":"汽车服务","midType":"汽车养护/装饰","smallType":"汽车养护","gcj_lng":121.452397,"gcj_lat":31.273297,"wgs84_loc":"121.447808,31.275168","wgs84Lng":121.447808,"wgs84Lat":31.275168,"__source_file__":"13-常用公服设施点/CSV/上海市_汽车养护or装饰.csv"},"geometry":{"type":"Point","coordinates":[121.447808,31.275168]}},{"id":"118","type":"Feature","properties":{"id":"B0GRX78IA1","name":"屋理想·理想荟车友俱乐部","address":"平型关路756号","type":"汽车服务;汽车养护/装饰;汽车养护","typecode":"010400","pcode":310000,"pname":"上海市","citycode":21,"cityname":"上海市","adcode":310106,"adname":"静安区","business_area":"大宁路","location":"121.459805,31.276336","tel":"021-56339146;18602155188","bigType":"汽车服务","midType":"汽车养护/装饰","smallType":"汽车养护","gcj_lng":121.459805,"gcj_lat":31.276336,"wgs84_loc":"121.455236,31.278223","wgs84Lng":121.455236,"wgs84Lat":31.278223,"__source_file__":"13-常用公服设施点/CSV/上海市_汽车养护or装饰.csv"},"geometry":{"type":"Point","coordinates":[121.455236,31.278223]}}],"name":"上海市_汽车养护or装饰","crs":{"type":"name","properties":{"name":"urn:ogc:def:crs:OGC:1.3:CRS84"}}}