{"type":"FeatureCollection","features":[{"id":"2295","type":"Feature","properties":{"id":"B0K375VKG7","name":"静安市民园艺中心","address":"西康路与新闸路交叉口东南120米","type":"公司企业;农林牧渔基地;其它农林牧渔基地","typecode":"170400","pcode":310000,"pname":"上海市","citycode":21,"cityname":"上海市","adcode":310106,"adname":"静安区","business_area":"[]","location":"121.450369,31.230288","tel":"[]","bigType":"公司企业","midType":"农林牧渔基地","smallType":"其它农林牧渔基地","gcj_lng":121.450369,"gcj_lat":31.230288,"wgs84_loc":"121.445779,31.232174","wgs84Lng":121.445779,"wgs84Lat":31.232174,"__source_file__":"13-常用公服设施点/CSV/上海市_农林牧渔基地.csv"},"geometry":{"type":"Point","coordinates":[121.445779,31.232174]}},{"id":"1482","type":"Feature","properties":{"id":"B0FFIQRRIT","name":"上海地尔景观","address":"西康路928号创展大厦9楼907室","type":"公司企业;农林牧渔基地;其它农林牧渔基地","typecode":"170400","pcode":310000,"pname":"上海市","citycode":21,"cityname":"上海市","adcode":310106,"adname":"静安区","business_area":"曹家渡","location":"121.443429,31.239454","tel":"[]","bigType":"公司企业","midType":"农林牧渔基地","smallType":"其它农林牧渔基地","gcj_lng":121.443429,"gcj_lat":31.239454,"wgs84_loc":"121.438822,31.241322","wgs84Lng":121.438822,"wgs84Lat":31.241322,"__source_file__":"13-常用公服设施点/CSV/上海市_农林牧渔基地.csv"},"geometry":{"type":"Point","coordinates":[121.438822,31.241322]}},{"id":"2028","type":"Feature","properties":{"id":"B0GRMC15T5","name":"银蕨农场(胶州路店)","address":"胶州路1110号底层","type":"公司企业;农林牧渔基地;其它农林牧渔基地","typecode":"170400","pcode":310000,"pname":"上海市","citycode":21,"cityname":"上海市","adcode":310107,"adname":"普陀区","business_area":"曹家渡","location":"121.433868,31.240030","tel":"[]","bigType":"公司企业","midType":"农林牧渔基地","smallType":"其它农林牧渔基地","gcj_lng":121.433868,"gcj_lat":31.24003,"wgs84_loc":"121.429243,31.241883","wgs84Lng":121.429243,"wgs84Lat":31.241883,"__source_file__":"13-常用公服设施点/CSV/上海市_农林牧渔基地.csv"},"geometry":{"type":"Point","coordinates":[121.429243,31.241883]}},{"id":"17","type":"Feature","properties":{"id":"B0G23ZCW1Q","name":"崇明农场","address":"昌化路月星家居澳门路店","type":"公司企业;农林牧渔基地;其它农林牧渔基地","typecode":"170400","pcode":310000,"pname":"上海市","citycode":21,"cityname":"上海市","adcode":310107,"adname":"普陀区","business_area":"光新","location":"121.444269,31.248304","tel":"[]","bigType":"公司企业","midType":"农林牧渔基地","smallType":"其它农林牧渔基地","gcj_lng":121.444269,"gcj_lat":31.248304,"wgs84_loc":"121.439663,31.25017","wgs84Lng":121.439663,"wgs84Lat":31.25017,"__source_file__":"13-常用公服设施点/CSV/上海市_农林牧渔基地.csv"},"geometry":{"type":"Point","coordinates":[121.439663,31.25017]}},{"id":"1483","type":"Feature","properties":{"id":"B0FFFDP1MV","name":"上海青浦水乡园艺场","address":"中山北路198号申航大厦19层","type":"公司企业;农林牧渔基地;其它农林牧渔基地","typecode":"170400","pcode":310000,"pname":"上海市","citycode":21,"cityname":"上海市","adcode":310106,"adname":"静安区","business_area":"和田","location":"121.470620,31.264560","tel":"[]","bigType":"公司企业","midType":"农林牧渔基地","smallType":"其它农林牧渔基地","gcj_lng":121.47062,"gcj_lat":31.26456,"wgs84_loc":"121.466084,31.266479","wgs84Lng":121.466084,"wgs84Lat":31.266479,"__source_file__":"13-常用公服设施点/CSV/上海市_农林牧渔基地.csv"},"geometry":{"type":"Point","coordinates":[121.466084,31.266479]}},{"id":"16","type":"Feature","properties":{"id":"B0HK0LLAIA","name":"香蕉农场","address":"宜川路新宜小区西南侧","type":"公司企业;农林牧渔基地;其它农林牧渔基地","typecode":"170400","pcode":310000,"pname":"上海市","citycode":21,"cityname":"上海市","adcode":310107,"adname":"普陀区","business_area":"大宁路","location":"121.436103,31.264852","tel":"[]","bigType":"公司企业","midType":"农林牧渔基地","smallType":"其它农林牧渔基地","gcj_lng":121.436103,"gcj_lat":31.264852,"wgs84_loc":"121.431479,31.266697","wgs84Lng":121.431479,"wgs84Lat":31.266697,"__source_file__":"13-常用公服设施点/CSV/上海市_农林牧渔基地.csv"},"geometry":{"type":"Point","coordinates":[121.431479,31.266697]}},{"id":"827","type":"Feature","properties":{"id":"B0FFKP3133","name":"上海怡兰园艺","address":"西藏南路417号A025室","type":"公司企业;农林牧渔基地;其它农林牧渔基地","typecode":"170400","pcode":310000,"pname":"上海市","citycode":21,"cityname":"上海市","adcode":310101,"adname":"黄浦区","business_area":"淮海路","location":"121.481730,31.221720","tel":"15001786585","bigType":"公司企业","midType":"农林牧渔基地","smallType":"其它农林牧渔基地","gcj_lng":121.48173,"gcj_lat":31.22172,"wgs84_loc":"121.477235,31.223689","wgs84Lng":121.477235,"wgs84Lat":31.223689,"__source_file__":"13-常用公服设施点/CSV/上海市_农林牧渔基地.csv"},"geometry":{"type":"Point","coordinates":[121.477235,31.223689]}},{"id":"2241","type":"Feature","properties":{"id":"B0K6F5FYKE","name":"La Ferme de Lulu Lulu农场","address":"金陵中路与黄陂南路东南侧(一大会址·黄陂南路地铁站5号口旁)","type":"公司企业;农林牧渔基地;其它农林牧渔基地","typecode":"170400","pcode":310000,"pname":"上海市","citycode":21,"cityname":"上海市","adcode":310101,"adname":"黄浦区","business_area":"北京路","location":"121.473957,31.224809","tel":"[]","bigType":"公司企业","midType":"农林牧渔基地","smallType":"其它农林牧渔基地","gcj_lng":121.473957,"gcj_lat":31.224809,"wgs84_loc":"121.469435,31.226755","wgs84Lng":121.469435,"wgs84Lat":31.226755,"__source_file__":"13-常用公服设施点/CSV/上海市_农林牧渔基地.csv"},"geometry":{"type":"Point","coordinates":[121.469435,31.226755]}},{"id":"15","type":"Feature","properties":{"id":"B0FFHOVL84","name":"上海翼天文旅集团总部","address":"中山南一路528号华西融创中心17-18楼","type":"公司企业;农林牧渔基地;其它农林牧渔基地","typecode":"170400","pcode":310000,"pname":"上海市","citycode":21,"cityname":"上海市","adcode":310101,"adname":"黄浦区","business_area":"北京东路","location":"121.494332,31.229957","tel":"[]","bigType":"公司企业","midType":"农林牧渔基地","smallType":"其它农林牧渔基地","gcj_lng":121.494332,"gcj_lat":31.229957,"wgs84_loc":"121.48988,31.231959","wgs84Lng":121.48988,"wgs84Lat":31.231959,"__source_file__":"13-常用公服设施点/CSV/上海市_农林牧渔基地.csv"},"geometry":{"type":"Point","coordinates":[121.48988,31.231959]}},{"id":"1858","type":"Feature","properties":{"id":"B0FFKJ3YLZ","name":"纯易企业管理中心源资本","address":"武进路440号附近","type":"公司企业;农林牧渔基地;其它农林牧渔基地","typecode":"170400","pcode":310000,"pname":"上海市","citycode":21,"cityname":"上海市","adcode":310109,"adname":"虹口区","business_area":"七浦路","location":"121.482448,31.251127","tel":"[]","bigType":"公司企业","midType":"农林牧渔基地","smallType":"其它农林牧渔基地","gcj_lng":121.482448,"gcj_lat":31.251127,"wgs84_loc":"121.477953,31.253084","wgs84Lng":121.477953,"wgs84Lat":31.253084,"__source_file__":"13-常用公服设施点/CSV/上海市_农林牧渔基地.csv"},"geometry":{"type":"Point","coordinates":[121.477953,31.253084]}}],"name":"上海市_农林牧渔基地","crs":{"type":"name","properties":{"name":"urn:ogc:def:crs:OGC:1.3:CRS84"}}}