{"type":"FeatureCollection","features":[{"id":"6","type":"Feature","properties":{"id":"B0KKB7WSQA","name":"微星售后维修中心(上海总店)","address":"九江路333号","type":"虚拟数据;虚拟店铺;虚拟店铺","typecode":980200,"pcode":310000,"pname":"上海市","citycode":21,"cityname":"上海市","adcode":310101,"adname":"黄浦区","business_area":"北京路","location":"121.483206,31.235733","tel":"021-64730522","bigType":"虚拟数据","midType":"虚拟店铺","smallType":"虚拟店铺","gcj_lng":121.483206,"gcj_lat":31.235733,"wgs84_loc":"121.478714,31.2377","wgs84Lng":121.478714,"wgs84Lat":31.2377,"__source_file__":"13-常用公服设施点/CSV/上海市_虚拟店铺.csv"},"geometry":{"type":"Point","coordinates":[121.478714,31.2377]}},{"id":"2","type":"Feature","properties":{"id":"B0L6BRN9KY","name":"惠普电脑售后维修中心","address":"中山北路2052号","type":"虚拟数据;虚拟店铺;虚拟店铺","typecode":980200,"pcode":310000,"pname":"上海市","citycode":21,"cityname":"上海市","adcode":310107,"adname":"普陀区","business_area":"光新","location":"121.430988,31.248021","tel":"18717788894","bigType":"虚拟数据","midType":"虚拟店铺","smallType":"虚拟店铺","gcj_lng":121.430988,"gcj_lat":31.248021,"wgs84_loc":"121.426357,31.249866","wgs84Lng":121.426357,"wgs84Lat":31.249866,"__source_file__":"13-常用公服设施点/CSV/上海市_虚拟店铺.csv"},"geometry":{"type":"Point","coordinates":[121.426357,31.249866]}},{"id":"1","type":"Feature","properties":{"id":"B0KK4D8DN3","name":"微星售后维修中心(上海总店)","address":"西藏北路525号2幢","type":"虚拟数据;虚拟店铺;虚拟店铺","typecode":980200,"pcode":310000,"pname":"上海市","citycode":21,"cityname":"上海市","adcode":310106,"adname":"静安区","business_area":"宝山路","location":"121.468945,31.250611","tel":"021-64680263","bigType":"虚拟数据","midType":"虚拟店铺","smallType":"虚拟店铺","gcj_lng":121.468945,"gcj_lat":31.250611,"wgs84_loc":"121.464405,31.252531","wgs84Lng":121.464405,"wgs84Lat":31.252531,"__source_file__":"13-常用公服设施点/CSV/上海市_虚拟店铺.csv"},"geometry":{"type":"Point","coordinates":[121.464405,31.252531]}}],"name":"上海市_虚拟店铺","crs":{"type":"name","properties":{"name":"urn:ogc:def:crs:OGC:1.3:CRS84"}}}