{"type":"FeatureCollection","features":[{"id":"62","type":"Feature","properties":{"id":"B0I6BOS7JE","name":"云趣VR科技馆(普陀区天安千树店)","address":"莫干山路600号3层W-0326室","type":"科教文化服务;科技馆;科技馆","typecode":"140600","pcode":310000,"pname":"上海市","citycode":21,"cityname":"上海市","adcode":310107,"adname":"普陀区","business_area":"光新","location":"121.445487,31.249158","tel":"18326675319","bigType":"科教文化服务","midType":"科技馆","smallType":"科技馆","gcj_lng":121.445487,"gcj_lat":31.249158,"wgs84_loc":"121.440884,31.251026","wgs84Lng":121.440884,"wgs84Lat":31.251026,"__source_file__":"13-常用公服设施点/CSV/上海市_科技馆.csv"},"geometry":{"type":"Point","coordinates":[121.440884,31.251026]}},{"id":"57","type":"Feature","properties":{"id":"B0FFMAQBPM","name":"毅心广告富力城(东门)","address":"富力城东门","type":"科教文化服务;科技馆;科技馆","typecode":"140600","pcode":310000,"pname":"上海市","citycode":21,"cityname":"上海市","adcode":310106,"adname":"静安区","business_area":"宝山路","location":"121.459598,31.250868","tel":"18768457257","bigType":"科教文化服务","midType":"科技馆","smallType":"科技馆","gcj_lng":121.459598,"gcj_lat":31.250868,"wgs84_loc":"121.45503,31.252765","wgs84Lng":121.45503,"wgs84Lat":31.252765,"__source_file__":"13-常用公服设施点/CSV/上海市_科技馆.csv"},"geometry":{"type":"Point","coordinates":[121.45503,31.252765]}},{"id":"64","type":"Feature","properties":{"id":"B0J0CAE5DA","name":"中环金茂府科技馆B馆","address":"共和新路2188号上海久光中心","type":"科教文化服务;科技馆;科技馆","typecode":"140600","pcode":310000,"pname":"上海市","citycode":21,"cityname":"上海市","adcode":310106,"adname":"静安区","business_area":"大宁路","location":"121.451298,31.275643","tel":"13764249602;17621681701","bigType":"科教文化服务","midType":"科技馆","smallType":"科技馆","gcj_lng":121.451298,"gcj_lat":31.275643,"wgs84_loc":"121.446706,31.277511","wgs84Lng":121.446706,"wgs84Lat":31.277511,"__source_file__":"13-常用公服设施点/CSV/上海市_科技馆.csv"},"geometry":{"type":"Point","coordinates":[121.446706,31.277511]}},{"id":"33","type":"Feature","properties":{"id":"B00155HZPE","name":"广中社区科普活动中心","address":"广中路123号广中社区文化活动中心","type":"科教文化服务;科技馆;科技馆","typecode":"140600","pcode":310000,"pname":"上海市","citycode":21,"cityname":"上海市","adcode":310109,"adname":"虹口区","business_area":"江湾","location":"121.478075,31.276325","tel":"[]","bigType":"科教文化服务","midType":"科技馆","smallType":"科技馆","gcj_lng":121.478075,"gcj_lat":31.276325,"wgs84_loc":"121.473562,31.278259","wgs84Lng":121.473562,"wgs84Lat":31.278259,"__source_file__":"13-常用公服设施点/CSV/上海市_科技馆.csv"},"geometry":{"type":"Point","coordinates":[121.473562,31.278259]}}],"name":"上海市_科技馆","crs":{"type":"name","properties":{"name":"urn:ogc:def:crs:OGC:1.3:CRS84"}}}