{"type":"FeatureCollection","features":[{"id":"203","type":"Feature","properties":{"id":"B00155LXLF","name":"中国邮政速递物流(卢湾营业部)","address":"思南路9号","type":"生活服务;邮局;邮政速递","typecode":"070401","pcode":310000,"pname":"上海市","citycode":21,"cityname":"上海市","adcode":310101,"adname":"黄浦区","business_area":"淮海路","location":"121.466183,31.219071","tel":"11183","bigType":"生活服务","midType":"邮局","smallType":"邮政速递","gcj_lng":121.466183,"gcj_lat":31.219071,"wgs84_loc":"121.461637,31.220999","wgs84Lng":121.461637,"wgs84Lat":31.220999,"__source_file__":"13-常用公服设施点/CSV/上海市_邮局.csv"},"geometry":{"type":"Point","coordinates":[121.461637,31.220999]}},{"id":"2","type":"Feature","properties":{"id":"B0FFHGIOW8","name":"卢湾邮政支局","address":"思南路与淮海中路交叉口东南50米","type":"生活服务;邮局;邮局","typecode":"070400","pcode":310000,"pname":"上海市","citycode":21,"cityname":"上海市","adcode":310101,"adname":"黄浦区","business_area":"淮海路","location":"121.466175,31.219084","tel":"021-53064132","bigType":"生活服务","midType":"邮局","smallType":"邮局","gcj_lng":121.466175,"gcj_lat":31.219084,"wgs84_loc":"121.461629,31.221012","wgs84Lng":121.461629,"wgs84Lat":31.221012,"__source_file__":"13-常用公服设施点/CSV/上海市_邮局.csv"},"geometry":{"type":"Point","coordinates":[121.461629,31.221012]}},{"id":"204","type":"Feature","properties":{"id":"B0FFFDWV46","name":"思南路EMS投递部","address":"思南路9号","type":"生活服务;邮局;邮局","typecode":"070400","pcode":310000,"pname":"上海市","citycode":21,"cityname":"上海市","adcode":310101,"adname":"黄浦区","business_area":"淮海路","location":"121.466199,31.219085","tel":"021-53068344","bigType":"生活服务","midType":"邮局","smallType":"邮局","gcj_lng":121.466199,"gcj_lat":31.219085,"wgs84_loc":"121.461653,31.221013","wgs84Lng":121.461653,"wgs84Lat":31.221013,"__source_file__":"13-常用公服设施点/CSV/上海市_邮局.csv"},"geometry":{"type":"Point","coordinates":[121.461653,31.221013]}},{"id":"917","type":"Feature","properties":{"id":"B0IALOFWHL","name":"Play Station","address":"思南路7号卢湾邮政支局(淮海中路地铁站1号口步行210米)","type":"生活服务;邮局;邮局","typecode":"070400","pcode":310000,"pname":"上海市","citycode":21,"cityname":"上海市","adcode":310101,"adname":"黄浦区","business_area":"淮海路","location":"121.466290,31.219132","tel":"[]","bigType":"生活服务","midType":"邮局","smallType":"邮局","gcj_lng":121.46629,"gcj_lat":31.219132,"wgs84_loc":"121.461745,31.22106","wgs84Lng":121.461745,"wgs84Lat":31.22106,"__source_file__":"13-常用公服设施点/CSV/上海市_邮局.csv"},"geometry":{"type":"Point","coordinates":[121.461745,31.22106]}},{"id":"212","type":"Feature","properties":{"id":"B001552OLH","name":"中国邮政(卢湾邮政支局)","address":"思南路7号南大厅","type":"生活服务;邮局;邮局","typecode":"070400","pcode":310000,"pname":"上海市","citycode":21,"cityname":"上海市","adcode":310101,"adname":"黄浦区","business_area":"淮海路","location":"121.466159,31.219158","tel":"021-63451189;11183","bigType":"生活服务","midType":"邮局","smallType":"邮局","gcj_lng":121.466159,"gcj_lat":31.219158,"wgs84_loc":"121.461613,31.221086","wgs84Lng":121.461613,"wgs84Lat":31.221086,"__source_file__":"13-常用公服设施点/CSV/上海市_邮局.csv"},"geometry":{"type":"Point","coordinates":[121.461613,31.221086]}},{"id":"868","type":"Feature","properties":{"id":"B0FFK6V35O","name":"中国邮政(东方海外大厦邮政服务)","address":"延安中路841号东方海外大厦地下1层","type":"生活服务;邮局;邮局","typecode":"070400","pcode":310000,"pname":"上海市","citycode":21,"cityname":"上海市","adcode":310106,"adname":"静安区","business_area":"淮海路","location":"121.454238,31.222895","tel":"11185","bigType":"生活服务","midType":"邮局","smallType":"邮局","gcj_lng":121.454238,"gcj_lat":31.222895,"wgs84_loc":"121.449658,31.224793","wgs84Lng":121.449658,"wgs84Lat":31.224793,"__source_file__":"13-常用公服设施点/CSV/上海市_邮局.csv"},"geometry":{"type":"Point","coordinates":[121.449658,31.224793]}},{"id":"56","type":"Feature","properties":{"id":"B00155GKEC","name":"中国邮政储蓄银行(石门一路营业所)","address":"延安中路608号(近石门一路)","type":"生活服务;邮局;邮局","typecode":"070400","pcode":310000,"pname":"上海市","citycode":21,"cityname":"上海市","adcode":310106,"adname":"静安区","business_area":"淮海路","location":"121.462421,31.224191","tel":"021-62673844","bigType":"生活服务","midType":"邮局","smallType":"邮局","gcj_lng":121.462421,"gcj_lat":31.224191,"wgs84_loc":"121.457864,31.226107","wgs84Lng":121.457864,"wgs84Lat":31.226107,"__source_file__":"13-常用公服设施点/CSV/上海市_邮局.csv"},"geometry":{"type":"Point","coordinates":[121.457864,31.226107]}},{"id":"245","type":"Feature","properties":{"id":"B0FFHBTDPO","name":"中国邮政(石门一路邮政所)","address":"延安中路608号","type":"生活服务;邮局;邮局","typecode":"070400","pcode":310000,"pname":"上海市","citycode":21,"cityname":"上海市","adcode":310106,"adname":"静安区","business_area":"淮海路","location":"121.462411,31.224210","tel":"021-62673844","bigType":"生活服务","midType":"邮局","smallType":"邮局","gcj_lng":121.462411,"gcj_lat":31.22421,"wgs84_loc":"121.457854,31.226126","wgs84Lng":121.457854,"wgs84Lat":31.226126,"__source_file__":"13-常用公服设施点/CSV/上海市_邮局.csv"},"geometry":{"type":"Point","coordinates":[121.457854,31.226126]}},{"id":"34","type":"Feature","properties":{"id":"B00154DD4X","name":"静安邮政支局","address":"北京西路1737号","type":"生活服务;邮局;邮局","typecode":"070400","pcode":310000,"pname":"上海市","citycode":21,"cityname":"上海市","adcode":310106,"adname":"静安区","business_area":"曹家渡","location":"121.443366,31.224919","tel":"021-62885415;021-62886108","bigType":"生活服务","midType":"邮局","smallType":"邮局","gcj_lng":121.443366,"gcj_lat":31.224919,"wgs84_loc":"121.43876,31.226794","wgs84Lng":121.43876,"wgs84Lat":31.226794,"__source_file__":"13-常用公服设施点/CSV/上海市_邮局.csv"},"geometry":{"type":"Point","coordinates":[121.43876,31.226794]}},{"id":"247","type":"Feature","properties":{"id":"B0FFG0X4BI","name":"中国邮政(常德路营业部)","address":"常德路733号(近康定路)","type":"生活服务;邮局;邮局","typecode":"070400","pcode":310000,"pname":"上海市","citycode":21,"cityname":"上海市","adcode":310106,"adname":"静安区","business_area":"曹家渡","location":"121.443285,31.232654","tel":"021-62586047","bigType":"生活服务","midType":"邮局","smallType":"邮局","gcj_lng":121.443285,"gcj_lat":31.232654,"wgs84_loc":"121.438678,31.234525","wgs84Lng":121.438678,"wgs84Lat":31.234525,"__source_file__":"13-常用公服设施点/CSV/上海市_邮局.csv"},"geometry":{"type":"Point","coordinates":[121.438678,31.234525]}},{"id":"229","type":"Feature","properties":{"id":"B0I6JKYGLO","name":"中国邮政(常德路营业部)","address":"[]","type":"生活服务;邮局;邮局","typecode":"070400","pcode":310000,"pname":"上海市","citycode":21,"cityname":"上海市","adcode":310106,"adname":"静安区","business_area":"曹家渡","location":"121.443304,31.232664","tel":"[]","bigType":"生活服务","midType":"邮局","smallType":"邮局","gcj_lng":121.443304,"gcj_lat":31.232664,"wgs84_loc":"121.438697,31.234535","wgs84Lng":121.438697,"wgs84Lat":31.234535,"__source_file__":"13-常用公服设施点/CSV/上海市_邮局.csv"},"geometry":{"type":"Point","coordinates":[121.438697,31.234535]}},{"id":"745","type":"Feature","properties":{"id":"B00155KLI5","name":"邮政局(上海商城邮政服务处)","address":"南京西路1376号上海商城东办公楼3楼355A","type":"生活服务;邮局;邮局","typecode":"070400","pcode":310000,"pname":"上海市","citycode":21,"cityname":"上海市","adcode":310106,"adname":"静安区","business_area":"淮海路","location":"121.451954,31.226735","tel":"021-62798600","bigType":"生活服务","midType":"邮局","smallType":"邮局","gcj_lng":121.451954,"gcj_lat":31.226735,"wgs84_loc":"121.447368,31.228626","wgs84Lng":121.447368,"wgs84Lat":31.228626,"__source_file__":"13-常用公服设施点/CSV/上海市_邮局.csv"},"geometry":{"type":"Point","coordinates":[121.447368,31.228626]}},{"id":"33","type":"Feature","properties":{"id":"B0FFLH27LY","name":"中国邮政(易邮柜)","address":"北京西路1588号","type":"生活服务;邮局;邮局","typecode":"070400","pcode":310000,"pname":"上海市","citycode":21,"cityname":"上海市","adcode":310106,"adname":"静安区","business_area":"曹家渡","location":"121.446236,31.227094","tel":"[]","bigType":"生活服务","midType":"邮局","smallType":"邮局","gcj_lng":121.446236,"gcj_lat":31.227094,"wgs84_loc":"121.441636,31.228973","wgs84Lng":121.441636,"wgs84Lat":31.228973,"__source_file__":"13-常用公服设施点/CSV/上海市_邮局.csv"},"geometry":{"type":"Point","coordinates":[121.441636,31.228973]}},{"id":"32","type":"Feature","properties":{"id":"B0015250A7","name":"中国邮政(石门二路支局)","address":"石门二路180号","type":"生活服务;邮局;邮局","typecode":"070400","pcode":310000,"pname":"上海市","citycode":21,"cityname":"上海市","adcode":310106,"adname":"静安区","business_area":"淮海路","location":"121.460993,31.233961","tel":"021-62673437;021-62531873;11185","bigType":"生活服务","midType":"邮局","smallType":"邮局","gcj_lng":121.460993,"gcj_lat":31.233961,"wgs84_loc":"121.456431,31.235869","wgs84Lng":121.456431,"wgs84Lat":31.235869,"__source_file__":"13-常用公服设施点/CSV/上海市_邮局.csv"},"geometry":{"type":"Point","coordinates":[121.456431,31.235869]}},{"id":"243","type":"Feature","properties":{"id":"B0FFHUDSVB","name":"中国邮政(上海市邮政局包裹服务局大宗包裹收寄处)","address":"康定路458号洪安大厦一楼","type":"生活服务;邮局;邮政速递","typecode":"070401","pcode":310000,"pname":"上海市","citycode":21,"cityname":"上海市","adcode":310106,"adname":"静安区","business_area":"曹家渡","location":"121.451336,31.234359","tel":"11183","bigType":"生活服务","midType":"邮局","smallType":"邮政速递","gcj_lng":121.451336,"gcj_lat":31.234359,"wgs84_loc":"121.446748,31.236245","wgs84Lng":121.446748,"wgs84Lat":31.236245,"__source_file__":"13-常用公服设施点/CSV/上海市_邮局.csv"},"geometry":{"type":"Point","coordinates":[121.446748,31.236245]}},{"id":"52","type":"Feature","properties":{"id":"B00156EFUA","name":"中国邮政(武定路邮政所)","address":"武定路458号洪安大厦21-26号","type":"生活服务;邮局;邮局","typecode":"070400","pcode":310000,"pname":"上海市","citycode":21,"cityname":"上海市","adcode":310106,"adname":"静安区","business_area":"曹家渡","location":"121.451439,31.234364","tel":"[]","bigType":"生活服务","midType":"邮局","smallType":"邮局","gcj_lng":121.451439,"gcj_lat":31.234364,"wgs84_loc":"121.446851,31.23625","wgs84Lng":121.446851,"wgs84Lat":31.23625,"__source_file__":"13-常用公服设施点/CSV/上海市_邮局.csv"},"geometry":{"type":"Point","coordinates":[121.446851,31.23625]}},{"id":"225","type":"Feature","properties":{"id":"B00155HN6O","name":"上海市邮政速递物流有限公司","address":"武定路458号洪安大厦","type":"生活服务;邮局;邮政速递","typecode":"070401","pcode":310000,"pname":"上海市","citycode":21,"cityname":"上海市","adcode":310106,"adname":"静安区","business_area":"曹家渡","location":"121.451464,31.234373","tel":"[]","bigType":"生活服务","midType":"邮局","smallType":"邮政速递","gcj_lng":121.451464,"gcj_lat":31.234373,"wgs84_loc":"121.446876,31.236259","wgs84Lng":121.446876,"wgs84Lat":31.236259,"__source_file__":"13-常用公服设施点/CSV/上海市_邮局.csv"},"geometry":{"type":"Point","coordinates":[121.446876,31.236259]}},{"id":"248","type":"Feature","properties":{"id":"B00155LXMN","name":"上海邮政市内快递有限公司","address":"武定路458号洪安大厦","type":"生活服务;邮局;邮政速递","typecode":"070401","pcode":310000,"pname":"上海市","citycode":21,"cityname":"上海市","adcode":310106,"adname":"静安区","business_area":"曹家渡","location":"121.451406,31.234393","tel":"11183","bigType":"生活服务","midType":"邮局","smallType":"邮政速递","gcj_lng":121.451406,"gcj_lat":31.234393,"wgs84_loc":"121.446818,31.236279","wgs84Lng":121.446818,"wgs84Lat":31.236279,"__source_file__":"13-常用公服设施点/CSV/上海市_邮局.csv"},"geometry":{"type":"Point","coordinates":[121.446818,31.236279]}},{"id":"24","type":"Feature","properties":{"id":"B0FFIDMNNO","name":"中国邮政(黄河路邮政所)","address":"青岛路8号","type":"生活服务;邮局;邮局","typecode":"070400","pcode":310000,"pname":"上海市","citycode":21,"cityname":"上海市","adcode":310101,"adname":"黄浦区","business_area":"北京东路","location":"121.468766,31.237629","tel":"021-53860267","bigType":"生活服务","midType":"邮局","smallType":"邮局","gcj_lng":121.468766,"gcj_lat":31.237629,"wgs84_loc":"121.464227,31.239555","wgs84Lng":121.464227,"wgs84Lat":31.239555,"__source_file__":"13-常用公服设施点/CSV/上海市_邮局.csv"},"geometry":{"type":"Point","coordinates":[121.464227,31.239555]}},{"id":"31","type":"Feature","properties":{"id":"B0FFHPS6ZZ","name":"中国邮政(火车站邮政支局)","address":"秣陵路400号","type":"生活服务;邮局;邮局","typecode":"070400","pcode":310000,"pname":"上海市","citycode":21,"cityname":"上海市","adcode":310106,"adname":"静安区","business_area":"[]","location":"121.453108,31.247929","tel":"021-63178888","bigType":"生活服务","midType":"邮局","smallType":"邮局","gcj_lng":121.453108,"gcj_lat":31.247929,"wgs84_loc":"121.448523,31.249813","wgs84Lng":121.448523,"wgs84Lat":31.249813,"__source_file__":"13-常用公服设施点/CSV/上海市_邮局.csv"},"geometry":{"type":"Point","coordinates":[121.448523,31.249813]}},{"id":"46","type":"Feature","properties":{"id":"B0FFK78OFT","name":"火车站邮政支局","address":"秣陵路300号","type":"生活服务;邮局;邮局","typecode":"070400","pcode":310000,"pname":"上海市","citycode":21,"cityname":"上海市","adcode":310106,"adname":"静安区","business_area":"[]","location":"121.453167,31.248003","tel":"021-63173885","bigType":"生活服务","midType":"邮局","smallType":"邮局","gcj_lng":121.453167,"gcj_lat":31.248003,"wgs84_loc":"121.448582,31.249887","wgs84Lng":121.448582,"wgs84Lat":31.249887,"__source_file__":"13-常用公服设施点/CSV/上海市_邮局.csv"},"geometry":{"type":"Point","coordinates":[121.448582,31.249887]}},{"id":"775","type":"Feature","properties":{"id":"B0FFJXMCMX","name":"中国邮政(叶家宅邮政所)","address":"长寿路822弄57号","type":"生活服务;邮局;邮局","typecode":"070400","pcode":310000,"pname":"上海市","citycode":21,"cityname":"上海市","adcode":310107,"adname":"普陀区","business_area":"曹家渡","location":"121.429670,31.235600","tel":"021-32212900","bigType":"生活服务","midType":"邮局","smallType":"邮局","gcj_lng":121.42967,"gcj_lat":31.2356,"wgs84_loc":"121.425038,31.237449","wgs84Lng":121.425038,"wgs84Lat":31.237449,"__source_file__":"13-常用公服设施点/CSV/上海市_邮局.csv"},"geometry":{"type":"Point","coordinates":[121.425038,31.237449]}},{"id":"44","type":"Feature","properties":{"id":"B0FFG0YZ47","name":"常德路邮政所","address":"常德路1041号","type":"生活服务;邮局;邮局","typecode":"070400","pcode":310000,"pname":"上海市","citycode":21,"cityname":"上海市","adcode":310106,"adname":"静安区","business_area":"曹家渡","location":"121.440496,31.236846","tel":"[]","bigType":"生活服务","midType":"邮局","smallType":"邮局","gcj_lng":121.440496,"gcj_lat":31.236846,"wgs84_loc":"121.435883,31.238711","wgs84Lng":121.435883,"wgs84Lat":31.238711,"__source_file__":"13-常用公服设施点/CSV/上海市_邮局.csv"},"geometry":{"type":"Point","coordinates":[121.435883,31.238711]}},{"id":"249","type":"Feature","properties":{"id":"B0FFHPF83M","name":"中国速递(静安揽投部)","address":"西康路907号","type":"生活服务;邮局;邮政速递","typecode":"070401","pcode":310000,"pname":"上海市","citycode":21,"cityname":"上海市","adcode":310106,"adname":"静安区","business_area":"曹家渡","location":"121.442895,31.239008","tel":"[]","bigType":"生活服务","midType":"邮局","smallType":"邮政速递","gcj_lng":121.442895,"gcj_lat":31.239008,"wgs84_loc":"121.438287,31.240876","wgs84Lng":121.438287,"wgs84Lat":31.240876,"__source_file__":"13-常用公服设施点/CSV/上海市_邮局.csv"},"geometry":{"type":"Point","coordinates":[121.438287,31.240876]}},{"id":"228","type":"Feature","properties":{"id":"B00156EHX3","name":"中国邮政","address":"西康路907号","type":"生活服务;邮局;邮政速递","typecode":"070401","pcode":310000,"pname":"上海市","citycode":21,"cityname":"上海市","adcode":310106,"adname":"静安区","business_area":"曹家渡","location":"121.442839,31.239030","tel":"11183","bigType":"生活服务","midType":"邮局","smallType":"邮政速递","gcj_lng":121.442839,"gcj_lat":31.23903,"wgs84_loc":"121.438231,31.240898","wgs84Lng":121.438231,"wgs84Lat":31.240898,"__source_file__":"13-常用公服设施点/CSV/上海市_邮局.csv"},"geometry":{"type":"Point","coordinates":[121.438231,31.240898]}},{"id":"54","type":"Feature","properties":{"id":"B00157GFA7","name":"中国邮政静安电信服务处","address":"西康路907号","type":"生活服务;邮局;邮局","typecode":"070400","pcode":310000,"pname":"上海市","citycode":21,"cityname":"上海市","adcode":310106,"adname":"静安区","business_area":"曹家渡","location":"121.442831,31.239070","tel":"021-62276173","bigType":"生活服务","midType":"邮局","smallType":"邮局","gcj_lng":121.442831,"gcj_lat":31.23907,"wgs84_loc":"121.438223,31.240938","wgs84Lng":121.438223,"wgs84Lat":31.240938,"__source_file__":"13-常用公服设施点/CSV/上海市_邮局.csv"},"geometry":{"type":"Point","coordinates":[121.438223,31.240938]}},{"id":"909","type":"Feature","properties":{"id":"B0FFGH9ZUT","name":"普陀投递支局","address":"常德路1269号2楼","type":"生活服务;邮局;邮局","typecode":"070400","pcode":310000,"pname":"上海市","citycode":21,"cityname":"上海市","adcode":310107,"adname":"普陀区","business_area":"曹家渡","location":"121.435898,31.241220","tel":"[]","bigType":"生活服务","midType":"邮局","smallType":"邮局","gcj_lng":121.435898,"gcj_lat":31.24122,"wgs84_loc":"121.431276,31.243075","wgs84Lng":121.431276,"wgs84Lat":31.243075,"__source_file__":"13-常用公服设施点/CSV/上海市_邮局.csv"},"geometry":{"type":"Point","coordinates":[121.431276,31.243075]}},{"id":"254","type":"Feature","properties":{"id":"B0FFL4F4ZD","name":"中国邮政(普陀邮政支局)","address":"常德路1269号","type":"生活服务;邮局;邮局","typecode":"070400","pcode":310000,"pname":"上海市","citycode":21,"cityname":"上海市","adcode":310107,"adname":"普陀区","business_area":"曹家渡","location":"121.435877,31.241288","tel":"021-62276803","bigType":"生活服务","midType":"邮局","smallType":"邮局","gcj_lng":121.435877,"gcj_lat":31.241288,"wgs84_loc":"121.431255,31.243143","wgs84Lng":121.431255,"wgs84Lat":31.243143,"__source_file__":"13-常用公服设施点/CSV/上海市_邮局.csv"},"geometry":{"type":"Point","coordinates":[121.431255,31.243143]}},{"id":"523","type":"Feature","properties":{"id":"B001546FAB","name":"昌化路邮政所","address":"江宁路1236号","type":"生活服务;邮局;邮局","typecode":"070400","pcode":310000,"pname":"上海市","citycode":21,"cityname":"上海市","adcode":310107,"adname":"普陀区","business_area":"光新","location":"121.442722,31.245243","tel":"021-62774955;021-62767079","bigType":"生活服务","midType":"邮局","smallType":"邮局","gcj_lng":121.442722,"gcj_lat":31.245243,"wgs84_loc":"121.438113,31.247108","wgs84Lng":121.438113,"wgs84Lat":31.247108,"__source_file__":"13-常用公服设施点/CSV/上海市_邮局.csv"},"geometry":{"type":"Point","coordinates":[121.438113,31.247108]}},{"id":"769","type":"Feature","properties":{"id":"B0FFK465GJ","name":"中国邮政","address":"镇坪路(地铁站)3号口步行108米","type":"生活服务;邮局;邮局","typecode":"070400","pcode":310000,"pname":"上海市","citycode":21,"cityname":"上海市","adcode":310107,"adname":"普陀区","business_area":"光新","location":"121.430158,31.247121","tel":"[]","bigType":"生活服务","midType":"邮局","smallType":"邮局","gcj_lng":121.430158,"gcj_lat":31.247121,"wgs84_loc":"121.425526,31.248966","wgs84Lng":121.425526,"wgs84Lat":31.248966,"__source_file__":"13-常用公服设施点/CSV/上海市_邮局.csv"},"geometry":{"type":"Point","coordinates":[121.425526,31.248966]}},{"id":"252","type":"Feature","properties":{"id":"B0HR646DDN","name":"上海市邮政公司普陀区邮政局","address":"石泉路19号","type":"生活服务;邮局;邮局","typecode":"070400","pcode":310000,"pname":"上海市","citycode":21,"cityname":"上海市","adcode":310107,"adname":"普陀区","business_area":"光新","location":"121.430731,31.253042","tel":"[]","bigType":"生活服务","midType":"邮局","smallType":"邮局","gcj_lng":121.430731,"gcj_lat":31.253042,"wgs84_loc":"121.426099,31.254885","wgs84Lng":121.426099,"wgs84Lat":31.254885,"__source_file__":"13-常用公服设施点/CSV/上海市_邮局.csv"},"geometry":{"type":"Point","coordinates":[121.426099,31.254885]}},{"id":"978","type":"Feature","properties":{"id":"B0K3H94BPT","name":"上海市邮政速递物流公司同城快递仓储","address":"上海邮电大厦转运楼(长安路2)","type":"生活服务;邮局;邮政速递","typecode":"070401","pcode":310000,"pname":"上海市","citycode":21,"cityname":"上海市","adcode":310106,"adname":"静安区","business_area":"不夜城","location":"121.453233,31.248356","tel":"[]","bigType":"生活服务","midType":"邮局","smallType":"邮政速递","gcj_lng":121.453233,"gcj_lat":31.248356,"wgs84_loc":"121.448648,31.25024","wgs84Lng":121.448648,"wgs84Lat":31.25024,"__source_file__":"13-常用公服设施点/CSV/上海市_邮局.csv"},"geometry":{"type":"Point","coordinates":[121.448648,31.25024]}},{"id":"36","type":"Feature","properties":{"id":"B00155MQBX","name":"闸北邮政支局","address":"沪太路129号1层","type":"生活服务;邮局;邮局","typecode":"070400","pcode":310000,"pname":"上海市","citycode":21,"cityname":"上海市","adcode":310106,"adname":"静安区","business_area":"和田","location":"121.456484,31.253683","tel":"021-56628759;021-56900509","bigType":"生活服务","midType":"邮局","smallType":"邮局","gcj_lng":121.456484,"gcj_lat":31.253683,"wgs84_loc":"121.451907,31.255572","wgs84Lng":121.451907,"wgs84Lat":31.255572,"__source_file__":"13-常用公服设施点/CSV/上海市_邮局.csv"},"geometry":{"type":"Point","coordinates":[121.451907,31.255572]}},{"id":"238","type":"Feature","properties":{"id":"B0HR646ZSM","name":"中国邮政(芷江西路邮政所)","address":"西藏北路与天通庵路交叉口西南约40米","type":"生活服务;邮局;邮局","typecode":"070400","pcode":310000,"pname":"上海市","citycode":21,"cityname":"上海市","adcode":310106,"adname":"静安区","business_area":"和田","location":"121.467601,31.256359","tel":"[]","bigType":"生活服务","midType":"邮局","smallType":"邮局","gcj_lng":121.467601,"gcj_lat":31.256359,"wgs84_loc":"121.463056,31.258273","wgs84Lng":121.463056,"wgs84Lat":31.258273,"__source_file__":"13-常用公服设施点/CSV/上海市_邮局.csv"},"geometry":{"type":"Point","coordinates":[121.463056,31.258273]}},{"id":"45","type":"Feature","properties":{"id":"B001558G0Q","name":"芷江西路邮政所","address":"西藏北路849号","type":"生活服务;邮局;邮局","typecode":"070400","pcode":310000,"pname":"上海市","citycode":21,"cityname":"上海市","adcode":310106,"adname":"静安区","business_area":"宝山路","location":"121.467599,31.256386","tel":"021-56327378","bigType":"生活服务","midType":"邮局","smallType":"邮局","gcj_lng":121.467599,"gcj_lat":31.256386,"wgs84_loc":"121.463054,31.2583","wgs84Lng":121.463054,"wgs84Lat":31.2583,"__source_file__":"13-常用公服设施点/CSV/上海市_邮局.csv"},"geometry":{"type":"Point","coordinates":[121.463054,31.2583]}},{"id":"42","type":"Feature","properties":{"id":"B0FFLB8ZJV","name":"柳营桥邮政所","address":"共和新路1312号","type":"生活服务;邮局;邮局","typecode":"070400","pcode":310000,"pname":"上海市","citycode":21,"cityname":"上海市","adcode":310106,"adname":"静安区","business_area":"和田","location":"121.460309,31.263309","tel":"021-56325998","bigType":"生活服务","midType":"邮局","smallType":"邮局","gcj_lng":121.460309,"gcj_lat":31.263309,"wgs84_loc":"121.455742,31.265202","wgs84Lng":121.455742,"wgs84Lat":31.265202,"__source_file__":"13-常用公服设施点/CSV/上海市_邮局.csv"},"geometry":{"type":"Point","coordinates":[121.455742,31.265202]}},{"id":"227","type":"Feature","properties":{"id":"B0HAUHQZMW","name":"中国邮政","address":"共和新路辅路与柳营路交叉口东南约220米","type":"生活服务;邮局;邮局","typecode":"070400","pcode":310000,"pname":"上海市","citycode":21,"cityname":"上海市","adcode":310106,"adname":"静安区","business_area":"和田","location":"121.460258,31.263344","tel":"[]","bigType":"生活服务","midType":"邮局","smallType":"邮局","gcj_lng":121.460258,"gcj_lat":31.263344,"wgs84_loc":"121.455691,31.265237","wgs84Lng":121.455691,"wgs84Lat":31.265237,"__source_file__":"13-常用公服设施点/CSV/上海市_邮局.csv"},"geometry":{"type":"Point","coordinates":[121.455691,31.265237]}},{"id":"240","type":"Feature","properties":{"id":"B0H6D7BI5O","name":"中国邮政(柳营桥营业所)","address":"共和新路辅路与柳营路交叉口东南约220米","type":"生活服务;邮局;邮局","typecode":"070400","pcode":310000,"pname":"上海市","citycode":21,"cityname":"上海市","adcode":310106,"adname":"静安区","business_area":"和田","location":"121.460244,31.263346","tel":"[]","bigType":"生活服务","midType":"邮局","smallType":"邮局","gcj_lng":121.460244,"gcj_lat":31.263346,"wgs84_loc":"121.455677,31.265239","wgs84Lng":121.455677,"wgs84Lat":31.265239,"__source_file__":"13-常用公服设施点/CSV/上海市_邮局.csv"},"geometry":{"type":"Point","coordinates":[121.455677,31.265239]}},{"id":"860","type":"Feature","properties":{"id":"B0FFGC38PH","name":"上海市邮政公司投递服务局-邮区中心局","address":"老沪太路1270号","type":"生活服务;邮局;邮局","typecode":"070400","pcode":310000,"pname":"上海市","citycode":21,"cityname":"上海市","adcode":310106,"adname":"静安区","business_area":"大宁路","location":"121.443904,31.269238","tel":"[]","bigType":"生活服务","midType":"邮局","smallType":"邮局","gcj_lng":121.443904,"gcj_lat":31.269238,"wgs84_loc":"121.439295,31.271094","wgs84Lng":121.439295,"wgs84Lat":31.271094,"__source_file__":"13-常用公服设施点/CSV/上海市_邮局.csv"},"geometry":{"type":"Point","coordinates":[121.439295,31.271094]}},{"id":"50","type":"Feature","properties":{"id":"B00155QTUG","name":"闸北公园邮政所","address":"平型关路376号(闸北公园沿街商户)","type":"生活服务;邮局;邮局","typecode":"070400","pcode":310000,"pname":"上海市","citycode":21,"cityname":"上海市","adcode":310106,"adname":"静安区","business_area":"和田","location":"121.463226,31.271235","tel":"021-36051056","bigType":"生活服务","midType":"邮局","smallType":"邮局","gcj_lng":121.463226,"gcj_lat":31.271235,"wgs84_loc":"121.458667,31.273132","wgs84Lng":121.458667,"wgs84Lat":31.273132,"__source_file__":"13-常用公服设施点/CSV/上海市_邮局.csv"},"geometry":{"type":"Point","coordinates":[121.458667,31.273132]}},{"id":"237","type":"Feature","properties":{"id":"B0HR6K6WA8","name":"中国邮政(闸北公园店)","address":"平型关路376","type":"生活服务;邮局;邮局","typecode":"070400","pcode":310000,"pname":"上海市","citycode":21,"cityname":"上海市","adcode":310106,"adname":"静安区","business_area":"大宁路","location":"121.463123,31.271241","tel":"[]","bigType":"生活服务","midType":"邮局","smallType":"邮局","gcj_lng":121.463123,"gcj_lat":31.271241,"wgs84_loc":"121.458564,31.273138","wgs84Lng":121.458564,"wgs84Lat":31.273138,"__source_file__":"13-常用公服设施点/CSV/上海市_邮局.csv"},"geometry":{"type":"Point","coordinates":[121.458564,31.273138]}},{"id":"772","type":"Feature","properties":{"id":"B0HUV15L96","name":"中国邮政(石泉路邮政支局)","address":"石泉路19号2楼","type":"生活服务;邮局;邮局","typecode":"070400","pcode":310000,"pname":"上海市","citycode":21,"cityname":"上海市","adcode":310107,"adname":"普陀区","business_area":"光新","location":"121.430547,31.253047","tel":"021-62146079","bigType":"生活服务","midType":"邮局","smallType":"邮局","gcj_lng":121.430547,"gcj_lat":31.253047,"wgs84_loc":"121.425915,31.25489","wgs84Lng":121.425915,"wgs84Lat":31.25489,"__source_file__":"13-常用公服设施点/CSV/上海市_邮局.csv"},"geometry":{"type":"Point","coordinates":[121.425915,31.25489]}},{"id":"256","type":"Feature","properties":{"id":"B00156O4CK","name":"石泉路邮政支局","address":"石泉路19号2楼","type":"生活服务;邮局;邮局","typecode":"070400","pcode":310000,"pname":"上海市","citycode":21,"cityname":"上海市","adcode":310107,"adname":"普陀区","business_area":"光新","location":"121.430600,31.253056","tel":"[]","bigType":"生活服务","midType":"邮局","smallType":"邮局","gcj_lng":121.4306,"gcj_lat":31.253056,"wgs84_loc":"121.425968,31.254899","wgs84Lng":121.425968,"wgs84Lat":31.254899,"__source_file__":"13-常用公服设施点/CSV/上海市_邮局.csv"},"geometry":{"type":"Point","coordinates":[121.425968,31.254899]}},{"id":"979","type":"Feature","properties":{"id":"B0FFGFCA9R","name":"中国邮政集团公司普陀区分公司","address":"石泉路19号","type":"生活服务;邮局;邮政速递|公司企业;公司;公司","typecode":"070401|170200","pcode":310000,"pname":"上海市","citycode":21,"cityname":"上海市","adcode":310107,"adname":"普陀区","business_area":"光新","location":"121.430786,31.253098","tel":"11183","bigType":"生活服务","midType":"邮局","smallType":"邮政速递|公司企业","gcj_lng":121.430786,"gcj_lat":31.253098,"wgs84_loc":"121.426154,31.254941","wgs84Lng":121.426154,"wgs84Lat":31.254941,"__source_file__":"13-常用公服设施点/CSV/上海市_邮局.csv"},"geometry":{"type":"Point","coordinates":[121.426154,31.254941]}},{"id":"519","type":"Feature","properties":{"id":"B0FFH8J9P7","name":"宜川邮政所","address":"华阴路219号","type":"生活服务;邮局;邮局","typecode":"070400","pcode":310000,"pname":"上海市","citycode":21,"cityname":"上海市","adcode":310107,"adname":"普陀区","business_area":"大宁路","location":"121.441088,31.258917","tel":"021-56081971","bigType":"生活服务","midType":"邮局","smallType":"邮局","gcj_lng":121.441088,"gcj_lat":31.258917,"wgs84_loc":"121.436474,31.260773","wgs84Lng":121.436474,"wgs84Lat":31.260773,"__source_file__":"13-常用公服设施点/CSV/上海市_邮局.csv"},"geometry":{"type":"Point","coordinates":[121.436474,31.260773]}},{"id":"770","type":"Feature","properties":{"id":"B0HUVO5VQI","name":"中国邮政(宜川邮政所)","address":"华阴路219号","type":"生活服务;邮局;邮局","typecode":"070400","pcode":310000,"pname":"上海市","citycode":21,"cityname":"上海市","adcode":310107,"adname":"普陀区","business_area":"大宁路","location":"121.441107,31.258925","tel":"021-56081971","bigType":"生活服务","midType":"邮局","smallType":"邮局","gcj_lng":121.441107,"gcj_lat":31.258925,"wgs84_loc":"121.436493,31.260781","wgs84Lng":121.436493,"wgs84Lat":31.260781,"__source_file__":"13-常用公服设施点/CSV/上海市_邮局.csv"},"geometry":{"type":"Point","coordinates":[121.436493,31.260781]}},{"id":"778","type":"Feature","properties":{"id":"B00155GBQ4","name":"沪太投递支局","address":"宜川路349号","type":"生活服务;邮局;邮政速递","typecode":"070401","pcode":310000,"pname":"上海市","citycode":21,"cityname":"上海市","adcode":310107,"adname":"普陀区","business_area":"大宁路","location":"121.437551,31.263450","tel":"[]","bigType":"生活服务","midType":"邮局","smallType":"邮政速递","gcj_lng":121.437551,"gcj_lat":31.26345,"wgs84_loc":"121.43293,31.265298","wgs84Lng":121.43293,"wgs84Lat":31.265298,"__source_file__":"13-常用公服设施点/CSV/上海市_邮局.csv"},"geometry":{"type":"Point","coordinates":[121.43293,31.265298]}},{"id":"258","type":"Feature","properties":{"id":"B001526E40","name":"沪太邮政支局","address":"宜川路街道宜川路349号","type":"生活服务;邮局;邮局","typecode":"070400","pcode":310000,"pname":"上海市","citycode":21,"cityname":"上海市","adcode":310107,"adname":"普陀区","business_area":"光新","location":"121.437337,31.263547","tel":"021-56618540;021-56054149","bigType":"生活服务","midType":"邮局","smallType":"邮局","gcj_lng":121.437337,"gcj_lat":31.263547,"wgs84_loc":"121.432716,31.265395","wgs84Lng":121.432716,"wgs84Lat":31.265395,"__source_file__":"13-常用公服设施点/CSV/上海市_邮局.csv"},"geometry":{"type":"Point","coordinates":[121.432716,31.265395]}},{"id":"251","type":"Feature","properties":{"id":"B0FFL517SF","name":"中邮物流","address":"彭浦镇沪太路841号","type":"生活服务;邮局;邮政速递","typecode":"070401","pcode":310000,"pname":"上海市","citycode":21,"cityname":"上海市","adcode":310106,"adname":"静安区","business_area":"大宁路","location":"121.442625,31.267676","tel":"[]","bigType":"生活服务","midType":"邮局","smallType":"邮政速递","gcj_lng":121.442625,"gcj_lat":31.267676,"wgs84_loc":"121.438014,31.269531","wgs84Lng":121.438014,"wgs84Lat":31.269531,"__source_file__":"13-常用公服设施点/CSV/上海市_邮局.csv"},"geometry":{"type":"Point","coordinates":[121.438014,31.269531]}},{"id":"250","type":"Feature","properties":{"id":"B0FFG2ZIYV","name":"中国邮政上海邮政物流分公司配送中心(沪太路配送站)","address":"宜川一村华阴路","type":"生活服务;邮局;邮政速递","typecode":"070401","pcode":310000,"pname":"上海市","citycode":21,"cityname":"上海市","adcode":310106,"adname":"静安区","business_area":"大宁路","location":"121.442578,31.267708","tel":"11183","bigType":"生活服务","midType":"邮局","smallType":"邮政速递","gcj_lng":121.442578,"gcj_lat":31.267708,"wgs84_loc":"121.437967,31.269562","wgs84Lng":121.437967,"wgs84Lat":31.269562,"__source_file__":"13-常用公服设施点/CSV/上海市_邮局.csv"},"geometry":{"type":"Point","coordinates":[121.437967,31.269562]}},{"id":"55","type":"Feature","properties":{"id":"B0FFKSBNFG","name":"上海国际邮件申报受理网点","address":"沪太路841号","type":"生活服务;邮局;邮政速递","typecode":"070401","pcode":310000,"pname":"上海市","citycode":21,"cityname":"上海市","adcode":310106,"adname":"静安区","business_area":"大宁路","location":"121.442501,31.267756","tel":"[]","bigType":"生活服务","midType":"邮局","smallType":"邮政速递","gcj_lng":121.442501,"gcj_lat":31.267756,"wgs84_loc":"121.437889,31.26961","wgs84Lng":121.437889,"wgs84Lat":31.26961,"__source_file__":"13-常用公服设施点/CSV/上海市_邮局.csv"},"geometry":{"type":"Point","coordinates":[121.437889,31.26961]}},{"id":"242","type":"Feature","properties":{"id":"B0FFLFQ6DM","name":"中国邮政(沪太路报刊门市部)","address":"沪太路与新村路交叉口东约100米","type":"生活服务;邮局;邮局","typecode":"070400","pcode":310000,"pname":"上海市","citycode":21,"cityname":"上海市","adcode":310106,"adname":"静安区","business_area":"大宁路","location":"121.442458,31.267797","tel":"[]","bigType":"生活服务","midType":"邮局","smallType":"邮局","gcj_lng":121.442458,"gcj_lat":31.267797,"wgs84_loc":"121.437846,31.269651","wgs84Lng":121.437846,"wgs84Lat":31.269651,"__source_file__":"13-常用公服设施点/CSV/上海市_邮局.csv"},"geometry":{"type":"Point","coordinates":[121.437846,31.269651]}},{"id":"232","type":"Feature","properties":{"id":"B0HUV96NM0","name":"中国邮政(杨家宅邮政所)","address":"共和新路1941","type":"生活服务;邮局;邮局","typecode":"070400","pcode":310000,"pname":"上海市","citycode":21,"cityname":"上海市","adcode":310106,"adname":"静安区","business_area":"大宁路","location":"121.453641,31.274938","tel":"[]","bigType":"生活服务","midType":"邮局","smallType":"邮局","gcj_lng":121.453641,"gcj_lat":31.274938,"wgs84_loc":"121.449055,31.276811","wgs84Lng":121.449055,"wgs84Lat":31.276811,"__source_file__":"13-常用公服设施点/CSV/上海市_邮局.csv"},"geometry":{"type":"Point","coordinates":[121.449055,31.276811]}},{"id":"43","type":"Feature","properties":{"id":"B0FFHWWIO7","name":"杨家宅邮政所","address":"共和新路1941号","type":"生活服务;邮局;邮局","typecode":"070400","pcode":310000,"pname":"上海市","citycode":21,"cityname":"上海市","adcode":310106,"adname":"静安区","business_area":"大宁路","location":"121.453590,31.274961","tel":"021-56383736;021-56382471","bigType":"生活服务","midType":"邮局","smallType":"邮局","gcj_lng":121.45359,"gcj_lat":31.274961,"wgs84_loc":"121.449004,31.276834","wgs84Lng":121.449004,"wgs84Lat":31.276834,"__source_file__":"13-常用公服设施点/CSV/上海市_邮局.csv"},"geometry":{"type":"Point","coordinates":[121.449004,31.276834]}},{"id":"10","type":"Feature","properties":{"id":"B001557HVD","name":"龙门路邮政支局","address":"柳林路156号","type":"生活服务;邮局;邮局","typecode":"070400","pcode":310000,"pname":"上海市","citycode":21,"cityname":"上海市","adcode":310101,"adname":"黄浦区","business_area":"淮海路","location":"121.480237,31.223322","tel":"021-53064187;021-53064186","bigType":"生活服务","midType":"邮局","smallType":"邮局","gcj_lng":121.480237,"gcj_lat":31.223322,"wgs84_loc":"121.475736,31.225286","wgs84Lng":121.475736,"wgs84Lat":31.225286,"__source_file__":"13-常用公服设施点/CSV/上海市_邮局.csv"},"geometry":{"type":"Point","coordinates":[121.475736,31.225286]}},{"id":"209","type":"Feature","properties":{"id":"B0HR6K50QU","name":"中国邮政(老北门邮政所)","address":"人民路775号","type":"生活服务;邮局;邮局","typecode":"070400","pcode":310000,"pname":"上海市","citycode":21,"cityname":"上海市","adcode":310101,"adname":"黄浦区","business_area":"城隍庙","location":"121.485034,31.227797","tel":"021-63200069","bigType":"生活服务","midType":"邮局","smallType":"邮局","gcj_lng":121.485034,"gcj_lat":31.227797,"wgs84_loc":"121.48055,31.229773","wgs84Lng":121.48055,"wgs84Lat":31.229773,"__source_file__":"13-常用公服设施点/CSV/上海市_邮局.csv"},"geometry":{"type":"Point","coordinates":[121.48055,31.229773]}},{"id":"12","type":"Feature","properties":{"id":"B00151EADC","name":"老北门邮政所","address":"人民路775号","type":"生活服务;邮局;邮局","typecode":"070400","pcode":310000,"pname":"上海市","citycode":21,"cityname":"上海市","adcode":310101,"adname":"黄浦区","business_area":"城隍庙","location":"121.485119,31.227814","tel":"021-63200069","bigType":"生活服务","midType":"邮局","smallType":"邮局","gcj_lng":121.485119,"gcj_lat":31.227814,"wgs84_loc":"121.480635,31.22979","wgs84Lng":121.480635,"wgs84Lat":31.22979,"__source_file__":"13-常用公服设施点/CSV/上海市_邮局.csv"},"geometry":{"type":"Point","coordinates":[121.480635,31.22979]}},{"id":"205","type":"Feature","properties":{"id":"B0HR6P7GOM","name":"中国邮政(人民公园邮政支局)","address":"黄陂北路279-1号","type":"生活服务;邮局;邮局","typecode":"070400","pcode":310000,"pname":"上海市","citycode":21,"cityname":"上海市","adcode":310101,"adname":"黄浦区","business_area":"淮海路","location":"121.470402,31.230032","tel":"021-63274444","bigType":"生活服务","midType":"邮局","smallType":"邮局","gcj_lng":121.470402,"gcj_lat":31.230032,"wgs84_loc":"121.465868,31.231966","wgs84Lng":121.465868,"wgs84Lat":31.231966,"__source_file__":"13-常用公服设施点/CSV/上海市_邮局.csv"},"geometry":{"type":"Point","coordinates":[121.465868,31.231966]}},{"id":"9","type":"Feature","properties":{"id":"B001513524","name":"人民公园邮政支局","address":"黄陂北路279号","type":"生活服务;邮局;邮局","typecode":"070400","pcode":310000,"pname":"上海市","citycode":21,"cityname":"上海市","adcode":310101,"adname":"黄浦区","business_area":"北京东路","location":"121.470376,31.230061","tel":"021-63274444","bigType":"生活服务","midType":"邮局","smallType":"邮局","gcj_lng":121.470376,"gcj_lat":31.230061,"wgs84_loc":"121.465842,31.231994","wgs84Lng":121.465842,"wgs84Lat":31.231994,"__source_file__":"13-常用公服设施点/CSV/上海市_邮局.csv"},"geometry":{"type":"Point","coordinates":[121.465842,31.231994]}},{"id":"16","type":"Feature","properties":{"id":"B00151EE6C","name":"延安东路邮政所","address":"北海路85号(南京西路)","type":"生活服务;邮局;邮局","typecode":"070400","pcode":310000,"pname":"上海市","citycode":21,"cityname":"上海市","adcode":310101,"adname":"黄浦区","business_area":"北京东路","location":"121.481353,31.231036","tel":"021-63523639","bigType":"生活服务","midType":"邮局","smallType":"邮局","gcj_lng":121.481353,"gcj_lat":31.231036,"wgs84_loc":"121.476856,31.232999","wgs84Lng":121.476856,"wgs84Lat":31.232999,"__source_file__":"13-常用公服设施点/CSV/上海市_邮局.csv"},"geometry":{"type":"Point","coordinates":[121.476856,31.232999]}},{"id":"913","type":"Feature","properties":{"id":"B0FFKT6I61","name":"邮政信筒","address":"南京西路288号1楼","type":"生活服务;邮局;邮局","typecode":"070400","pcode":310000,"pname":"上海市","citycode":21,"cityname":"上海市","adcode":310101,"adname":"黄浦区","business_area":"北京东路","location":"121.468870,31.233528","tel":"[]","bigType":"生活服务","midType":"邮局","smallType":"邮局","gcj_lng":121.46887,"gcj_lat":31.233528,"wgs84_loc":"121.464331,31.235456","wgs84Lng":121.464331,"wgs84Lat":31.235456,"__source_file__":"13-常用公服设施点/CSV/上海市_邮局.csv"},"geometry":{"type":"Point","coordinates":[121.464331,31.235456]}},{"id":"22","type":"Feature","properties":{"id":"B0FFHBVL5T","name":"云南中路邮政所","address":"湖北路219号","type":"生活服务;邮局;邮局","typecode":"070400","pcode":310000,"pname":"上海市","citycode":21,"cityname":"上海市","adcode":310101,"adname":"黄浦区","business_area":"北京东路","location":"121.480281,31.233976","tel":"021-63506682","bigType":"生活服务","midType":"邮局","smallType":"邮局","gcj_lng":121.480281,"gcj_lat":31.233976,"wgs84_loc":"121.47578,31.235935","wgs84Lng":121.47578,"wgs84Lat":31.235935,"__source_file__":"13-常用公服设施点/CSV/上海市_邮局.csv"},"geometry":{"type":"Point","coordinates":[121.47578,31.235935]}},{"id":"28","type":"Feature","properties":{"id":"B0GK1CZ3ID","name":"豫园邮站","address":"豫园新路四达里小区西侧约110米","type":"生活服务;邮局;邮局","typecode":"070400","pcode":310000,"pname":"上海市","citycode":21,"cityname":"上海市","adcode":310101,"adname":"黄浦区","business_area":"城隍庙","location":"121.491589,31.227247","tel":"[]","bigType":"生活服务","midType":"邮局","smallType":"邮局","gcj_lng":121.491589,"gcj_lat":31.227247,"wgs84_loc":"121.487128,31.229242","wgs84Lng":121.487128,"wgs84Lat":31.229242,"__source_file__":"13-常用公服设施点/CSV/上海市_邮局.csv"},"geometry":{"type":"Point","coordinates":[121.487128,31.229242]}},{"id":"15","type":"Feature","properties":{"id":"B0FFHC8OGD","name":"金陵东路邮政所","address":"金陵东路71号","type":"生活服务;邮局;邮局","typecode":"070400","pcode":310000,"pname":"上海市","citycode":21,"cityname":"上海市","adcode":310101,"adname":"黄浦区","business_area":"城隍庙","location":"121.490803,31.231270","tel":"021-63366962","bigType":"生活服务","midType":"邮局","smallType":"邮局","gcj_lng":121.490803,"gcj_lat":31.23127,"wgs84_loc":"121.486339,31.233261","wgs84Lng":121.486339,"wgs84Lat":31.233261,"__source_file__":"13-常用公服设施点/CSV/上海市_邮局.csv"},"geometry":{"type":"Point","coordinates":[121.486339,31.233261]}},{"id":"919","type":"Feature","properties":{"id":"B0HR6N74P8","name":"中国邮政(金陵东路邮政所)","address":"金陵东路71号(豫园地铁站7号口步行230米)","type":"生活服务;邮局;邮局","typecode":"070400","pcode":310000,"pname":"上海市","citycode":21,"cityname":"上海市","adcode":310101,"adname":"黄浦区","business_area":"北京东路","location":"121.490798,31.231289","tel":"021-63366962","bigType":"生活服务","midType":"邮局","smallType":"邮局","gcj_lng":121.490798,"gcj_lat":31.231289,"wgs84_loc":"121.486334,31.23328","wgs84Lng":121.486334,"wgs84Lat":31.23328,"__source_file__":"13-常用公服设施点/CSV/上海市_邮局.csv"},"geometry":{"type":"Point","coordinates":[121.486334,31.23328]}},{"id":"207","type":"Feature","properties":{"id":"B0HR6K7387","name":"中国邮政(福州路邮政所)","address":"福佑路288号豫园商城1层","type":"生活服务;邮局;邮局","typecode":"070400","pcode":310000,"pname":"上海市","citycode":21,"cityname":"上海市","adcode":310101,"adname":"黄浦区","business_area":"北京东路","location":"121.485280,31.234499","tel":"021-63607771","bigType":"生活服务","midType":"邮局","smallType":"邮局","gcj_lng":121.48528,"gcj_lat":31.234499,"wgs84_loc":"121.480796,31.236472","wgs84Lng":121.480796,"wgs84Lat":31.236472,"__source_file__":"13-常用公服设施点/CSV/上海市_邮局.csv"},"geometry":{"type":"Point","coordinates":[121.480796,31.236472]}},{"id":"211","type":"Feature","properties":{"id":"B0FFJWPKKE","name":"中国邮政(云南中路邮政所)","address":"湖北路219号","type":"生活服务;邮局;邮局","typecode":"070400","pcode":310000,"pname":"上海市","citycode":21,"cityname":"上海市","adcode":310101,"adname":"黄浦区","business_area":"北京东路","location":"121.480281,31.233976","tel":"[]","bigType":"生活服务","midType":"邮局","smallType":"邮局","gcj_lng":121.480281,"gcj_lat":31.233976,"wgs84_loc":"121.47578,31.235935","wgs84Lng":121.47578,"wgs84Lat":31.235935,"__source_file__":"13-常用公服设施点/CSV/上海市_邮局.csv"},"geometry":{"type":"Point","coordinates":[121.47578,31.235935]}},{"id":"1","type":"Feature","properties":{"id":"B0FFG9MBTA","name":"黄浦邮政支局","address":"福建中路414号","type":"生活服务;邮局;邮局","typecode":"070400","pcode":310000,"pname":"上海市","citycode":21,"cityname":"上海市","adcode":310101,"adname":"黄浦区","business_area":"北京东路","location":"121.479853,31.237392","tel":"021-63223152","bigType":"生活服务","midType":"邮局","smallType":"邮局","gcj_lng":121.479853,"gcj_lat":31.237392,"wgs84_loc":"121.47535,31.239348","wgs84Lng":121.47535,"wgs84Lat":31.239348,"__source_file__":"13-常用公服设施点/CSV/上海市_邮局.csv"},"geometry":{"type":"Point","coordinates":[121.47535,31.239348]}},{"id":"19","type":"Feature","properties":{"id":"B0FFG0PWVL","name":"黄河路邮政所","address":"黄河路333号","type":"生活服务;邮局;邮局","typecode":"070400","pcode":310000,"pname":"上海市","citycode":21,"cityname":"上海市","adcode":310101,"adname":"黄浦区","business_area":"北京东路","location":"121.468811,31.237675","tel":"021-53860267","bigType":"生活服务","midType":"邮局","smallType":"邮局","gcj_lng":121.468811,"gcj_lat":31.237675,"wgs84_loc":"121.464272,31.239601","wgs84Lng":121.464272,"wgs84Lat":31.239601,"__source_file__":"13-常用公服设施点/CSV/上海市_邮局.csv"},"geometry":{"type":"Point","coordinates":[121.464272,31.239601]}},{"id":"870","type":"Feature","properties":{"id":"B0FFMEMC70","name":"中国邮政(新闸路邮政所)","address":"新闸路81号","type":"生活服务;邮局;邮局","typecode":"070400","pcode":310000,"pname":"上海市","citycode":21,"cityname":"上海市","adcode":310101,"adname":"黄浦区","business_area":"北京东路","location":"121.471776,31.237916","tel":"[]","bigType":"生活服务","midType":"邮局","smallType":"邮局","gcj_lng":121.471776,"gcj_lat":31.237916,"wgs84_loc":"121.467246,31.23985","wgs84Lng":121.467246,"wgs84Lat":31.23985,"__source_file__":"13-常用公服设施点/CSV/上海市_邮局.csv"},"geometry":{"type":"Point","coordinates":[121.467246,31.23985]}},{"id":"874","type":"Feature","properties":{"id":"B0FFHB9A1P","name":"新闸路邮政所","address":"新闸路81号","type":"生活服务;邮局;邮局","typecode":"070400","pcode":310000,"pname":"上海市","citycode":21,"cityname":"上海市","adcode":310101,"adname":"黄浦区","business_area":"北京东路","location":"121.471791,31.237998","tel":"021-63278389","bigType":"生活服务","midType":"邮局","smallType":"邮局","gcj_lng":121.471791,"gcj_lat":31.237998,"wgs84_loc":"121.467261,31.239932","wgs84Lng":121.467261,"wgs84Lat":31.239932,"__source_file__":"13-常用公服设施点/CSV/上海市_邮局.csv"},"geometry":{"type":"Point","coordinates":[121.467261,31.239932]}},{"id":"214","type":"Feature","properties":{"id":"B0FFJBBWC8","name":"邮政服务处(恒基名人购物中心)","address":"南京东路300号恒基名人购物中心B2","type":"生活服务;邮局;邮政速递","typecode":"070401","pcode":310000,"pname":"上海市","citycode":21,"cityname":"上海市","adcode":310101,"adname":"黄浦区","business_area":"北京东路","location":"121.483803,31.238178","tel":"[]","bigType":"生活服务","midType":"邮局","smallType":"邮政速递","gcj_lng":121.483803,"gcj_lat":31.238178,"wgs84_loc":"121.479313,31.240145","wgs84Lng":121.479313,"wgs84Lat":31.240145,"__source_file__":"13-常用公服设施点/CSV/上海市_邮局.csv"},"geometry":{"type":"Point","coordinates":[121.479313,31.240145]}},{"id":"387","type":"Feature","properties":{"id":"B0015175BC","name":"中国邮政(四川路桥邮政支局)","address":"北苏州路250号","type":"生活服务;邮局;邮局","typecode":"070400","pcode":310000,"pname":"上海市","citycode":21,"cityname":"上海市","adcode":310109,"adname":"虹口区","business_area":"七浦路","location":"121.485070,31.244213","tel":"021-63063972","bigType":"生活服务","midType":"邮局","smallType":"邮局","gcj_lng":121.48507,"gcj_lat":31.244213,"wgs84_loc":"121.480584,31.246181","wgs84Lng":121.480584,"wgs84Lat":31.246181,"__source_file__":"13-常用公服设施点/CSV/上海市_邮局.csv"},"geometry":{"type":"Point","coordinates":[121.480584,31.246181]}},{"id":"53","type":"Feature","properties":{"id":"B0FFLFLYBR","name":"中国邮政速递物流EMS","address":"福建北路白马大厦","type":"生活服务;邮局;邮政速递","typecode":"070401","pcode":310000,"pname":"上海市","citycode":21,"cityname":"上海市","adcode":310106,"adname":"静安区","business_area":"七浦路","location":"121.477934,31.245655","tel":"[]","bigType":"生活服务","midType":"邮局","smallType":"邮政速递","gcj_lng":121.477934,"gcj_lat":31.245655,"wgs84_loc":"121.473424,31.247602","wgs84Lng":121.473424,"wgs84Lat":31.247602,"__source_file__":"13-常用公服设施点/CSV/上海市_邮局.csv"},"geometry":{"type":"Point","coordinates":[121.473424,31.247602]}},{"id":"246","type":"Feature","properties":{"id":"B0FFGY8943","name":"中国邮政(天目路邮政支局)","address":"天目东路如家商旅酒店(上海外滩四川北路宝山路地铁站店)西侧约70米","type":"生活服务;邮局;邮局","typecode":"070400","pcode":310000,"pname":"上海市","citycode":21,"cityname":"上海市","adcode":310106,"adname":"静安区","business_area":"七浦路","location":"121.477735,31.249729","tel":"[]","bigType":"生活服务","midType":"邮局","smallType":"邮局","gcj_lng":121.477735,"gcj_lat":31.249729,"wgs84_loc":"121.473224,31.251674","wgs84Lng":121.473224,"wgs84Lat":31.251674,"__source_file__":"13-常用公服设施点/CSV/上海市_邮局.csv"},"geometry":{"type":"Point","coordinates":[121.473224,31.251674]}},{"id":"226","type":"Feature","properties":{"id":"B00155HGQQ","name":"上海市邮政速递物流有限公司(虬江营业部)","address":"虬江路1090号","type":"生活服务;邮局;邮政速递|生活服务;物流速递;物流速递","typecode":"070401|070500","pcode":310000,"pname":"上海市","citycode":21,"cityname":"上海市","adcode":310106,"adname":"静安区","business_area":"宝山路","location":"121.471737,31.250923","tel":"11183","bigType":"生活服务","midType":"邮局","smallType":"邮政速递|生活服务","gcj_lng":121.471737,"gcj_lat":31.250923,"wgs84_loc":"121.467206,31.252851","wgs84Lng":121.467206,"wgs84Lat":31.252851,"__source_file__":"13-常用公服设施点/CSV/上海市_邮局.csv"},"geometry":{"type":"Point","coordinates":[121.467206,31.252851]}},{"id":"8","type":"Feature","properties":{"id":"B00154DJCU","name":"福州路邮政所","address":"福佑路288号豫园商城1层","type":"生活服务;邮局;邮局","typecode":"070400","pcode":310000,"pname":"上海市","citycode":21,"cityname":"上海市","adcode":310101,"adname":"黄浦区","business_area":"北京东路","location":"121.485364,31.234522","tel":"021-63607771","bigType":"生活服务","midType":"邮局","smallType":"邮局","gcj_lng":121.485364,"gcj_lat":31.234522,"wgs84_loc":"121.48088,31.236495","wgs84Lng":121.48088,"wgs84Lat":31.236495,"__source_file__":"13-常用公服设施点/CSV/上海市_邮局.csv"},"geometry":{"type":"Point","coordinates":[121.48088,31.236495]}},{"id":"5","type":"Feature","properties":{"id":"B0FFIIIBI4","name":"外滩邮政支局","address":"江西中路148号","type":"生活服务;邮局;邮局","typecode":"070400","pcode":310000,"pname":"上海市","citycode":21,"cityname":"上海市","adcode":310101,"adname":"黄浦区","business_area":"北京东路","location":"121.487562,31.234588","tel":"021-63211612","bigType":"生活服务","midType":"邮局","smallType":"邮局","gcj_lng":121.487562,"gcj_lat":31.234588,"wgs84_loc":"121.483086,31.236568","wgs84Lng":121.483086,"wgs84Lat":31.236568,"__source_file__":"13-常用公服设施点/CSV/上海市_邮局.csv"},"geometry":{"type":"Point","coordinates":[121.483086,31.236568]}},{"id":"23","type":"Feature","properties":{"id":"B0G0XH15HY","name":"中国邮政(外滩邮政支局)","address":"江西中路与福州路交叉口东南约60米","type":"生活服务;邮局;邮局","typecode":"070400","pcode":310000,"pname":"上海市","citycode":21,"cityname":"上海市","adcode":310101,"adname":"黄浦区","business_area":"北京东路","location":"121.487549,31.234626","tel":"[]","bigType":"生活服务","midType":"邮局","smallType":"邮局","gcj_lng":121.487549,"gcj_lat":31.234626,"wgs84_loc":"121.483073,31.236606","wgs84Lng":121.483073,"wgs84Lat":31.236606,"__source_file__":"13-常用公服设施点/CSV/上海市_邮局.csv"},"geometry":{"type":"Point","coordinates":[121.483073,31.236606]}},{"id":"742","type":"Feature","properties":{"id":"B0G25KSB62","name":"老介福营业处(福建中路)","address":"外滩街道河南中路382弄1号南京大楼6层601室","type":"生活服务;邮局;邮局","typecode":"070400","pcode":310000,"pname":"上海市","citycode":21,"cityname":"上海市","adcode":310101,"adname":"黄浦区","business_area":"北京东路","location":"121.485230,31.236922","tel":"021-33100690;021-63213221","bigType":"生活服务","midType":"邮局","smallType":"邮局","gcj_lng":121.48523,"gcj_lat":31.236922,"wgs84_loc":"121.480745,31.238894","wgs84Lng":121.480745,"wgs84Lat":31.238894,"__source_file__":"13-常用公服设施点/CSV/上海市_邮局.csv"},"geometry":{"type":"Point","coordinates":[121.480745,31.238894]}},{"id":"30","type":"Feature","properties":{"id":"B00156NWRK","name":"中国邮政速递物流(外滩揽投部)","address":"宁波路86号","type":"生活服务;邮局;邮政速递","typecode":"070401","pcode":310000,"pname":"上海市","citycode":21,"cityname":"上海市","adcode":310101,"adname":"黄浦区","business_area":"北京东路","location":"121.485210,31.239520","tel":"11183","bigType":"生活服务","midType":"邮局","smallType":"邮政速递","gcj_lng":121.48521,"gcj_lat":31.23952,"wgs84_loc":"121.480725,31.241491","wgs84Lng":121.480725,"wgs84Lat":31.241491,"__source_file__":"13-常用公服设施点/CSV/上海市_邮局.csv"},"geometry":{"type":"Point","coordinates":[121.480725,31.241491]}},{"id":"27","type":"Feature","properties":{"id":"B0FFHGFOYS","name":"EMS揽投站(外滩揽投部)","address":"宁波路86号","type":"生活服务;邮局;邮政速递","typecode":"070401","pcode":310000,"pname":"上海市","citycode":21,"cityname":"上海市","adcode":310101,"adname":"黄浦区","business_area":"北京东路","location":"121.485233,31.239558","tel":"[]","bigType":"生活服务","midType":"邮局","smallType":"邮政速递","gcj_lng":121.485233,"gcj_lat":31.239558,"wgs84_loc":"121.480748,31.241529","wgs84Lng":121.480748,"wgs84Lat":31.241529,"__source_file__":"13-常用公服设施点/CSV/上海市_邮局.csv"},"geometry":{"type":"Point","coordinates":[121.480748,31.241529]}},{"id":"927","type":"Feature","properties":{"id":"B0HUV95TGE","name":"四川路桥邮政支局","address":"北苏州路250、258(天潼路地铁站3号口步行400米)","type":"生活服务;邮局;邮局","typecode":"070400","pcode":310000,"pname":"上海市","citycode":21,"cityname":"上海市","adcode":310109,"adname":"虹口区","business_area":"七浦路","location":"121.485363,31.244712","tel":"021-63240425","bigType":"生活服务","midType":"邮局","smallType":"邮局","gcj_lng":121.485363,"gcj_lat":31.244712,"wgs84_loc":"121.480878,31.246681","wgs84Lng":121.480878,"wgs84Lat":31.246681,"__source_file__":"13-常用公服设施点/CSV/上海市_邮局.csv"},"geometry":{"type":"Point","coordinates":[121.480878,31.246681]}},{"id":"384","type":"Feature","properties":{"id":"B0FFL4F50X","name":"中国邮政(长治路邮政所)","address":"东长治路336号","type":"生活服务;邮局;邮局","typecode":"070400","pcode":310000,"pname":"上海市","citycode":21,"cityname":"上海市","adcode":310109,"adname":"虹口区","business_area":"北外滩","location":"121.495162,31.248654","tel":"021-65869337","bigType":"生活服务","midType":"邮局","smallType":"邮局","gcj_lng":121.495162,"gcj_lat":31.248654,"wgs84_loc":"121.490712,31.25065","wgs84Lng":121.490712,"wgs84Lat":31.25065,"__source_file__":"13-常用公服设施点/CSV/上海市_邮局.csv"},"geometry":{"type":"Point","coordinates":[121.490712,31.25065]}},{"id":"366","type":"Feature","properties":{"id":"B00155HHHO","name":"虹口邮政支局","address":"吴淞路529号","type":"生活服务;邮局;邮局","typecode":"070400","pcode":310000,"pname":"上海市","citycode":21,"cityname":"上海市","adcode":310109,"adname":"虹口区","business_area":"七浦路","location":"121.487918,31.252440","tel":"11185","bigType":"生活服务","midType":"邮局","smallType":"邮局","gcj_lng":121.487918,"gcj_lat":31.25244,"wgs84_loc":"121.483442,31.254413","wgs84Lng":121.483442,"wgs84Lat":31.254413,"__source_file__":"13-常用公服设施点/CSV/上海市_邮局.csv"},"geometry":{"type":"Point","coordinates":[121.483442,31.254413]}},{"id":"35","type":"Feature","properties":{"id":"B0FFJ1YO38","name":"中国邮政集团公司上海市静安区鸿兴路邮政所","address":"鸿兴路50-52号","type":"生活服务;邮局;邮局","typecode":"070400","pcode":310000,"pname":"上海市","citycode":21,"cityname":"上海市","adcode":310106,"adname":"静安区","business_area":"宝山路","location":"121.475707,31.254550","tel":"[]","bigType":"生活服务","midType":"邮局","smallType":"邮局","gcj_lng":121.475707,"gcj_lat":31.25455,"wgs84_loc":"121.471188,31.256487","wgs84Lng":121.471188,"wgs84Lat":31.256487,"__source_file__":"13-常用公服设施点/CSV/上海市_邮局.csv"},"geometry":{"type":"Point","coordinates":[121.471188,31.256487]}},{"id":"231","type":"Feature","properties":{"id":"B0HUVX65DZ","name":"中国邮政(鸿兴路邮政所)","address":"鸿兴路52号","type":"生活服务;邮局;邮局","typecode":"070400","pcode":310000,"pname":"上海市","citycode":21,"cityname":"上海市","adcode":310106,"adname":"静安区","business_area":"宝山路","location":"121.475675,31.254579","tel":"021-63174562","bigType":"生活服务","midType":"邮局","smallType":"邮局","gcj_lng":121.475675,"gcj_lat":31.254579,"wgs84_loc":"121.471156,31.256516","wgs84Lng":121.471156,"wgs84Lat":31.256516,"__source_file__":"13-常用公服设施点/CSV/上海市_邮局.csv"},"geometry":{"type":"Point","coordinates":[121.471156,31.256516]}},{"id":"383","type":"Feature","properties":{"id":"B0G09CPSH9","name":"中国邮政(虬江路邮政所)","address":"新广路209号","type":"生活服务;邮局;邮局","typecode":"070400","pcode":310000,"pname":"上海市","citycode":21,"cityname":"上海市","adcode":310109,"adname":"虹口区","business_area":"宝山路","location":"121.482062,31.254697","tel":"021-63070143;021-63571407","bigType":"生活服务","midType":"邮局","smallType":"邮局","gcj_lng":121.482062,"gcj_lat":31.254697,"wgs84_loc":"121.477565,31.256652","wgs84Lng":121.477565,"wgs84Lat":31.256652,"__source_file__":"13-常用公服设施点/CSV/上海市_邮局.csv"},"geometry":{"type":"Point","coordinates":[121.477565,31.256652]}},{"id":"376","type":"Feature","properties":{"id":"B0FFHC8OKJ","name":"虬江路邮政所","address":"新广路209号虬江路","type":"生活服务;邮局;邮局","typecode":"070400","pcode":310000,"pname":"上海市","citycode":21,"cityname":"上海市","adcode":310109,"adname":"虹口区","business_area":"宝山路","location":"121.481958,31.254789","tel":"021-63070143","bigType":"生活服务","midType":"邮局","smallType":"邮局","gcj_lng":121.481958,"gcj_lat":31.254789,"wgs84_loc":"121.477461,31.256743","wgs84Lng":121.477461,"wgs84Lat":31.256743,"__source_file__":"13-常用公服设施点/CSV/上海市_邮局.csv"},"geometry":{"type":"Point","coordinates":[121.477461,31.256743]}},{"id":"374","type":"Feature","properties":{"id":"B00154W0DM","name":"鲁迅公园邮政支局","address":"四川北路1991号","type":"生活服务;邮局;邮局","typecode":"070400","pcode":310000,"pname":"上海市","citycode":21,"cityname":"上海市","adcode":310109,"adname":"虹口区","business_area":"宝山路","location":"121.483908,31.263588","tel":"021-56662408","bigType":"生活服务","midType":"邮局","smallType":"邮局","gcj_lng":121.483908,"gcj_lat":31.263588,"wgs84_loc":"121.479417,31.265544","wgs84Lng":121.479417,"wgs84Lat":31.265544,"__source_file__":"13-常用公服设施点/CSV/上海市_邮局.csv"},"geometry":{"type":"Point","coordinates":[121.479417,31.265544]}},{"id":"928","type":"Feature","properties":{"id":"B0HUVO699K","name":"中国邮政(华昌路邮政所)","address":"华昌路190-192号","type":"生活服务;邮局;邮局","typecode":"070400","pcode":310000,"pname":"上海市","citycode":21,"cityname":"上海市","adcode":310109,"adname":"虹口区","business_area":"和田","location":"121.475229,31.264373","tel":"[]","bigType":"生活服务","midType":"邮局","smallType":"邮局","gcj_lng":121.475229,"gcj_lat":31.264373,"wgs84_loc":"121.470708,31.266304","wgs84Lng":121.470708,"wgs84Lat":31.266304,"__source_file__":"13-常用公服设施点/CSV/上海市_邮局.csv"},"geometry":{"type":"Point","coordinates":[121.470708,31.266304]}},{"id":"371","type":"Feature","properties":{"id":"B0FFGS9KNO","name":"华昌路邮政所","address":"华昌路190-192号","type":"生活服务;邮局;邮局","typecode":"070400","pcode":310000,"pname":"上海市","citycode":21,"cityname":"上海市","adcode":310109,"adname":"虹口区","business_area":"宝山路","location":"121.475235,31.264457","tel":"021-56722321","bigType":"生活服务","midType":"邮局","smallType":"邮局","gcj_lng":121.475235,"gcj_lat":31.264457,"wgs84_loc":"121.470714,31.266388","wgs84Lng":121.470714,"wgs84Lat":31.266388,"__source_file__":"13-常用公服设施点/CSV/上海市_邮局.csv"},"geometry":{"type":"Point","coordinates":[121.470714,31.266388]}},{"id":"581","type":"Feature","properties":{"id":"B0FFHUJPVE","name":"EMS广中路投揽部","address":"中山北一路26号","type":"生活服务;邮局;邮局","typecode":"070400","pcode":310000,"pname":"上海市","citycode":21,"cityname":"上海市","adcode":310109,"adname":"虹口区","business_area":"江湾","location":"121.475183,31.268956","tel":"[]","bigType":"生活服务","midType":"邮局","smallType":"邮局","gcj_lng":121.475183,"gcj_lat":31.268956,"wgs84_loc":"121.470661,31.270885","wgs84Lng":121.470661,"wgs84Lat":31.270885,"__source_file__":"13-常用公服设施点/CSV/上海市_邮局.csv"},"geometry":{"type":"Point","coordinates":[121.470661,31.270885]}},{"id":"582","type":"Feature","properties":{"id":"B0I6BUSJ84","name":"中国邮政(中山北一路)","address":"中山北一路26号","type":"生活服务;邮局;邮局","typecode":"070400","pcode":310000,"pname":"上海市","citycode":21,"cityname":"上海市","adcode":310109,"adname":"虹口区","business_area":"江湾","location":"121.475186,31.268961","tel":"[]","bigType":"生活服务","midType":"邮局","smallType":"邮局","gcj_lng":121.475186,"gcj_lat":31.268961,"wgs84_loc":"121.470664,31.27089","wgs84Lng":121.470664,"wgs84Lat":31.27089,"__source_file__":"13-常用公服设施点/CSV/上海市_邮局.csv"},"geometry":{"type":"Point","coordinates":[121.470664,31.27089]}},{"id":"862","type":"Feature","properties":{"id":"B0HG35D12G","name":"中国邮政投递部(中山北一路)","address":"中山北一路26号","type":"生活服务;邮局;邮局","typecode":"070400","pcode":310000,"pname":"上海市","citycode":21,"cityname":"上海市","adcode":310109,"adname":"虹口区","business_area":"和田","location":"121.475177,31.268996","tel":"[]","bigType":"生活服务","midType":"邮局","smallType":"邮局","gcj_lng":121.475177,"gcj_lat":31.268996,"wgs84_loc":"121.470655,31.270925","wgs84Lng":121.470655,"wgs84Lat":31.270925,"__source_file__":"13-常用公服设施点/CSV/上海市_邮局.csv"},"geometry":{"type":"Point","coordinates":[121.470655,31.270925]}},{"id":"368","type":"Feature","properties":{"id":"B0FFHBTFI2","name":"临平路邮政支局","address":"临平北路36号","type":"生活服务;邮局;邮局","typecode":"070400","pcode":310000,"pname":"上海市","citycode":21,"cityname":"上海市","adcode":310109,"adname":"虹口区","business_area":"四平路","location":"121.492653,31.263160","tel":"021-65210073;11185","bigType":"生活服务","midType":"邮局","smallType":"邮局","gcj_lng":121.492653,"gcj_lat":31.26316,"wgs84_loc":"121.488192,31.265142","wgs84Lng":121.488192,"wgs84Lat":31.265142,"__source_file__":"13-常用公服设施点/CSV/上海市_邮局.csv"},"geometry":{"type":"Point","coordinates":[121.488192,31.265142]}},{"id":"382","type":"Feature","properties":{"id":"B0G0OZUCUS","name":"中国邮政(临平路邮政支局)","address":"临平北路36号","type":"生活服务;邮局;邮局","typecode":"070400","pcode":310000,"pname":"上海市","citycode":21,"cityname":"上海市","adcode":310109,"adname":"虹口区","business_area":"四平路","location":"121.492626,31.263270","tel":"021-65221674;021-65210073","bigType":"生活服务","midType":"邮局","smallType":"邮局","gcj_lng":121.492626,"gcj_lat":31.26327,"wgs84_loc":"121.488165,31.265252","wgs84Lng":121.488165,"wgs84Lat":31.265252,"__source_file__":"13-常用公服设施点/CSV/上海市_邮局.csv"},"geometry":{"type":"Point","coordinates":[121.488165,31.265252]}},{"id":"590","type":"Feature","properties":{"id":"B0GKHL4Y71","name":"上海捷时达邮政专递公司","address":"欧阳路320号","type":"生活服务;邮局;邮政速递","typecode":"070401","pcode":310000,"pname":"上海市","citycode":21,"cityname":"上海市","adcode":310109,"adname":"虹口区","business_area":"曲阳","location":"121.487722,31.269426","tel":"[]","bigType":"生活服务","midType":"邮局","smallType":"邮政速递","gcj_lng":121.487722,"gcj_lat":31.269426,"wgs84_loc":"121.483243,31.271391","wgs84Lng":121.483243,"wgs84Lat":31.271391,"__source_file__":"13-常用公服设施点/CSV/上海市_邮局.csv"},"geometry":{"type":"Point","coordinates":[121.483243,31.271391]}},{"id":"864","type":"Feature","properties":{"id":"B0FFG1ZYW1","name":"上海市邮政速递物流有限公司(广中路揽投部)","address":"中山北一路26号","type":"生活服务;邮局;邮政速递","typecode":"070401","pcode":310000,"pname":"上海市","citycode":21,"cityname":"上海市","adcode":310109,"adname":"虹口区","business_area":"江湾","location":"121.475129,31.268997","tel":"[]","bigType":"生活服务","midType":"邮局","smallType":"邮政速递","gcj_lng":121.475129,"gcj_lat":31.268997,"wgs84_loc":"121.470607,31.270926","wgs84Lng":121.470607,"wgs84Lat":31.270926,"__source_file__":"13-常用公服设施点/CSV/上海市_邮局.csv"},"geometry":{"type":"Point","coordinates":[121.470607,31.270926]}}],"name":"上海市_邮局","crs":{"type":"name","properties":{"name":"urn:ogc:def:crs:OGC:1.3:CRS84"}}}