{"type":"FeatureCollection","features":[{"id":"1002","type":"Feature","properties":{"OBJECTID":826965,"id":"525ea460-a4a3-31b0-bbb2-caec699bd344","name":"南北高架路入口(卢浦大桥方向)","type":"地名地址信息;交通地名;城市快速路入口","typecode":"190309","address":"黄浦区","经度":121.471127,"纬度":31.217533,"tel":null,"pcode":310000,"pname":null,"citycode":21,"cityname":"上海市","adcode":310101,"adname":"黄浦区","gridcode":4621636702.0,"distance":"23","business_a":null,"timestamp":"NaT","biz_ext":"{'rating': [], 'cost': []}","行业大":"地名地址信息","行业中":"交通地名","行业小":"城市快速路入口","typecode_X":0.0,"typecode_Y":0.0,"__source_file__":"19-其它/11-匝道口/上海市_匝道口.shp"},"geometry":{"type":"Point","coordinates":[121.46659674899588,31.219474345328898]}},{"id":"1047","type":"Feature","properties":{"OBJECTID":1068270,"id":"9526df26-31c2-3702-830d-25e41c733ad8","name":"人民路隧道出口(南北高架路北向)","type":"地名地址信息;交通地名;城市快速路出口","typecode":"190308","address":"黄浦区","经度":121.471931,"纬度":31.219216,"tel":null,"pcode":310000,"pname":null,"citycode":21,"cityname":"上海市","adcode":310101,"adname":"黄浦区","gridcode":4621636702.0,"distance":"200","business_a":null,"timestamp":"NaT","biz_ext":"{\"rating\": [], \"cost\": []}","行业大":"地名地址信息","行业中":"交通地名","行业小":"城市快速路出口","typecode_X":0.0,"typecode_Y":0.0,"__source_file__":"19-其它/11-匝道口/上海市_匝道口.shp"},"geometry":{"type":"Point","coordinates":[121.46740317788628,31.221158701584656]}},{"id":"554","type":"Feature","properties":{"OBJECTID":746813,"id":"64014619-aa65-37a1-bb1f-4e67f7b568ef","name":"延安高架路入口(延安高架路方向)","type":"地名地址信息;交通地名;城市快速路入口","typecode":"190309","address":"黄浦区","经度":121.466556,"纬度":31.223641,"tel":"[]","pcode":310000,"pname":"上海市","citycode":21,"cityname":"上海市","adcode":310101,"adname":"黄浦区","gridcode":4621636720.0,"distance":"67","business_a":"淮海路","timestamp":"2022-09-28","biz_ext":"{'rating': [], 'cost': []}","行业大":"地名地址信息","行业中":"交通地名","行业小":"城市快速路入口","typecode_X":0.0,"typecode_Y":0.0,"__source_file__":"19-其它/11-匝道口/上海市_匝道口.shp"},"geometry":{"type":"Point","coordinates":[121.46201094549043,31.2255675267252]}},{"id":"1057","type":"Feature","properties":{"OBJECTID":1068775,"id":"393e07d8-35ce-38e7-88fb-5b6b846d9879","name":"石门一路出口(延安高架路西南向)","type":"地名地址信息;交通地名;城市快速路出口","typecode":"190308","address":"静安区","经度":121.467087,"纬度":31.223942,"tel":null,"pcode":310000,"pname":null,"citycode":21,"cityname":"上海市","adcode":310106,"adname":"静安区","gridcode":4621636721.0,"distance":"31","business_a":null,"timestamp":"NaT","biz_ext":"{'rating': [], 'cost': []}","行业大":"地名地址信息","行业中":"交通地名","行业小":"城市快速路出口","typecode_X":0.0,"typecode_Y":0.0,"__source_file__":"19-其它/11-匝道口/上海市_匝道口.shp"},"geometry":{"type":"Point","coordinates":[121.46254354595071,31.225869746303875]}},{"id":"533","type":"Feature","properties":{"OBJECTID":746719,"id":"9bcd1437-e3e8-38be-82d1-72f77654cf33","name":"南北高架路出口(北向)","type":"地名地址信息;交通地名;城市快速路出口","typecode":"190308","address":"黄浦区","经度":121.474264,"纬度":31.226242,"tel":"[]","pcode":310000,"pname":"上海市","citycode":21,"cityname":"上海市","adcode":310101,"adname":"黄浦区","gridcode":4621637702.0,"distance":"338","business_a":"北京东路","timestamp":"2022-09-28","biz_ext":"{'cost': [], 'rating': []}","行业大":"地名地址信息","行业中":"交通地名","行业小":"城市快速路出口","typecode_X":0.0,"typecode_Y":0.0,"__source_file__":"19-其它/11-匝道口/上海市_匝道口.shp"},"geometry":{"type":"Point","coordinates":[121.46974313990543,31.228187731653183]}},{"id":"527","type":"Feature","properties":{"OBJECTID":746704,"id":"58acc144-4443-3059-8f26-8a86e6a89df0","name":"延安高架路入口(虹桥枢纽方向)","type":"地名地址信息;交通地名;城市快速路入口","typecode":"190309","address":"黄浦区","经度":121.475704,"纬度":31.227229,"tel":"[]","pcode":310000,"pname":"上海市","citycode":21,"cityname":"上海市","adcode":310101,"adname":"黄浦区","gridcode":4621637800.0,"distance":"163","business_a":"北京东路","timestamp":"2023-01-11","biz_ext":"{'cost': [], 'rating': []}","行业大":"地名地址信息","行业中":"交通地名","行业小":"城市快速路入口","typecode_X":0.0,"typecode_Y":0.0,"__source_file__":"19-其它/11-匝道口/上海市_匝道口.shp"},"geometry":{"type":"Point","coordinates":[121.47118779396108,31.229178233310453]}},{"id":"526","type":"Feature","properties":{"OBJECTID":746656,"id":"1cf3c63a-a0f4-3cbe-a215-8e6ab2a19b89","name":"延安东路隧道出口(延安高架路东北向)","type":"地名地址信息;交通地名;城市快速路出口","typecode":"190308","address":"黄浦区","经度":121.480893,"纬度":31.229862,"tel":"[]","pcode":310000,"pname":"上海市","citycode":21,"cityname":"上海市","adcode":310101,"adname":"黄浦区","gridcode":4621637811.0,"distance":"174","business_a":"北京东路","timestamp":"2023-03-10","biz_ext":"{\"rating\": [], \"cost\": []}","行业大":"地名地址信息","行业中":"交通地名","行业小":"城市快速路出口","typecode_X":0.0,"typecode_Y":0.0,"__source_file__":"19-其它/11-匝道口/上海市_匝道口.shp"},"geometry":{"type":"Point","coordinates":[121.47639403575754,31.231824606577174]}},{"id":"1220","type":"Feature","properties":{"OBJECTID":1235747,"id":"d2328479-b2d8-38a0-94fa-c8f9881065d9","name":"延安高架路入口(延安高架路方向)","type":"地名地址信息;交通地名;城市快速路入口","typecode":"190309","address":"黄浦区","经度":121.48059,"纬度":31.22997,"tel":null,"pcode":310000,"pname":null,"citycode":21,"cityname":"上海市","adcode":310101,"adname":"黄浦区","gridcode":4621637811.0,"distance":"172","business_a":null,"timestamp":"NaT","biz_ext":"{\"rating\": [], \"cost\": []}","行业大":"地名地址信息","行业中":"交通地名","行业小":"城市快速路入口","typecode_X":0.0,"typecode_Y":0.0,"__source_file__":"19-其它/11-匝道口/上海市_匝道口.shp"},"geometry":{"type":"Point","coordinates":[121.47608999106633,31.231931691786336]}},{"id":"552","type":"Feature","properties":{"OBJECTID":746810,"id":"937d208e-64c7-3f92-a4e6-7bd4b1284cc2","name":"延安高架路入口(虹桥枢纽方向)","type":"地名地址信息;交通地名;城市快速路入口","typecode":"190309","address":"黄浦区","经度":121.481012,"纬度":31.230173,"tel":"[]","pcode":310000,"pname":"上海市","citycode":21,"cityname":"上海市","adcode":310101,"adname":"黄浦区","gridcode":4621637811.0,"distance":"138","business_a":"北京东路","timestamp":"2022-09-28","biz_ext":"{\"rating\": [], \"cost\": []}","行业大":"地名地址信息","行业中":"交通地名","行业小":"城市快速路入口","typecode_X":0.0,"typecode_Y":0.0,"__source_file__":"19-其它/11-匝道口/上海市_匝道口.shp"},"geometry":{"type":"Point","coordinates":[121.47651341625733,31.232135802789436]}},{"id":"1135","type":"Feature","properties":{"OBJECTID":1071478,"id":"6d0e6733-3dd4-33de-9666-a196fe4c6631","name":"延安高架路出口(东向)","type":"地名地址信息;交通地名;城市快速路出口","typecode":"190308","address":"黄浦区","经度":121.488331,"纬度":31.231657,"tel":null,"pcode":310000,"pname":null,"citycode":21,"cityname":"上海市","adcode":310101,"adname":"黄浦区","gridcode":4621637920.0,"distance":"379","business_a":null,"timestamp":"NaT","biz_ext":"{\"rating\": [], \"cost\": []}","行业大":"地名地址信息","行业中":"交通地名","行业小":"城市快速路出口","typecode_X":0.0,"typecode_Y":0.0,"__source_file__":"19-其它/11-匝道口/上海市_匝道口.shp"},"geometry":{"type":"Point","coordinates":[121.48385779017148,31.233640402972238]}},{"id":"538","type":"Feature","properties":{"OBJECTID":746734,"id":"6f1d9b3b-c24b-3033-b04f-cf548c3d9c3d","name":"延安高架路入口(外滩方向)","type":"地名地址信息;交通地名;城市快速路入口","typecode":"190309","address":"静安区","经度":121.450466,"纬度":31.222021,"tel":"[]","pcode":310000,"pname":"上海市","citycode":21,"cityname":"上海市","adcode":310106,"adname":"静安区","gridcode":4621636610.0,"distance":"163","business_a":"湖南路","timestamp":"2022-10-31","biz_ext":"{'cost': [], 'rating': []}","行业大":"地名地址信息","行业中":"交通地名","行业小":"城市快速路入口","typecode_X":0.0,"typecode_Y":0.0,"__source_file__":"19-其它/11-匝道口/上海市_匝道口.shp"},"geometry":{"type":"Point","coordinates":[121.44587653064059,31.223911006884123]}},{"id":"556","type":"Feature","properties":{"OBJECTID":746815,"id":"f427ca29-52e3-3257-b430-28c6a9a6bea9","name":"华山路出口(延安高架路西向)","type":"地名地址信息;交通地名;城市快速路出口","typecode":"190308","address":"静安区","经度":121.450337,"纬度":31.222258,"tel":"[]","pcode":310000,"pname":"上海市","citycode":21,"cityname":"上海市","adcode":310106,"adname":"静安区","gridcode":4621636620.0,"distance":"137","business_a":"湖南路","timestamp":"2022-09-28","biz_ext":"{'cost': [], 'rating': []}","行业大":"地名地址信息","行业中":"交通地名","行业小":"城市快速路出口","typecode_X":0.0,"typecode_Y":0.0,"__source_file__":"19-其它/11-匝道口/上海市_匝道口.shp"},"geometry":{"type":"Point","coordinates":[121.44574719396249,31.224147631085422]}},{"id":"558","type":"Feature","properties":{"OBJECTID":746830,"id":"415421ac-93ea-3855-afe2-e6d244bfdd01","name":"南北高架路入口(卢浦大桥方向)","type":"地名地址信息;交通地名;城市快速路入口","typecode":"190309","address":"静安区","经度":121.462512,"纬度":31.241981,"tel":"[]","pcode":310000,"pname":"上海市","citycode":21,"cityname":"上海市","adcode":310106,"adname":"静安区","gridcode":4621639700.0,"distance":"304","business_a":"[]","timestamp":"2023-01-11","biz_ext":"{\"rating\": [], \"cost\": []}","行业大":"地名地址信息","行业中":"交通地名","行业小":"城市快速路入口","typecode_X":0.0,"typecode_Y":0.0,"__source_file__":"19-其它/11-匝道口/上海市_匝道口.shp"},"geometry":{"type":"Point","coordinates":[121.45795327667405,31.243888980808308]}},{"id":"561","type":"Feature","properties":{"OBJECTID":746833,"id":"211d36f3-7364-36e8-9dbe-cce27ed29b37","name":"新闸路出口(南北高架路南向)","type":"地名地址信息;交通地名;城市快速路出口","typecode":"190308","address":"静安区","经度":121.462274,"纬度":31.245275,"tel":"[]","pcode":310000,"pname":"上海市","citycode":21,"cityname":"上海市","adcode":310106,"adname":"静安区","gridcode":4621639612.0,"distance":"400","business_a":"宝山路","timestamp":"2023-02-28","biz_ext":"{\"rating\": [], \"cost\": []}","行业大":"地名地址信息","行业中":"交通地名","行业小":"城市快速路出口","typecode_X":0.0,"typecode_Y":0.0,"__source_file__":"19-其它/11-匝道口/上海市_匝道口.shp"},"geometry":{"type":"Point","coordinates":[121.45771429802885,31.247180918160208]}},{"id":"1143","type":"Feature","properties":{"OBJECTID":1071792,"id":"0c88adb2-939d-3c27-9116-32b2f4cfefc8","name":"镇坪路出口(内环高架路东向)","type":"地名地址信息;交通地名;城市快速路出口","typecode":"190308","address":"普陀区","经度":121.426621,"纬度":31.245456,"tel":null,"pcode":310000,"pname":null,"citycode":21,"cityname":"上海市","adcode":310107,"adname":"普陀区","gridcode":4621639410.0,"distance":"157","business_a":null,"timestamp":"NaT","biz_ext":"{'cost': [], 'rating': []}","行业大":"地名地址信息","行业中":"交通地名","行业小":"城市快速路出口","typecode_X":0.0,"typecode_Y":0.0,"__source_file__":"19-其它/11-匝道口/上海市_匝道口.shp"},"geometry":{"type":"Point","coordinates":[121.42198424379899,31.24729744981142]}},{"id":"765","type":"Feature","properties":{"OBJECTID":748949,"id":"5ebe42d3-c0d1-3d52-b864-85e1967f6562","name":"中山北路出口(南北高架路北向)","type":"地名地址信息;交通地名;城市快速路出口","typecode":"190308","address":"静安区","经度":121.462819,"纬度":31.245449,"tel":"[]","pcode":310000,"pname":"上海市","citycode":21,"cityname":"上海市","adcode":310106,"adname":"静安区","gridcode":4621639710.0,"distance":"425","business_a":"宝山路","timestamp":"2023-05-08","biz_ext":"{\"rating\": [], \"cost\": []}","行业大":"地名地址信息","行业中":"交通地名","行业小":"城市快速路出口","typecode_X":0.0,"typecode_Y":0.0,"__source_file__":"19-其它/11-匝道口/上海市_匝道口.shp"},"geometry":{"type":"Point","coordinates":[121.45826087588635,31.247356172594912]}},{"id":"547","type":"Feature","properties":{"OBJECTID":746757,"id":"f607018b-8288-34b5-998a-630cebc191a1","name":"南北高架路入口(共和新路立交方向)","type":"地名地址信息;交通地名;城市快速路入口","typecode":"190309","address":"静安区","经度":121.463054,"纬度":31.246864,"tel":"[]","pcode":310000,"pname":"上海市","citycode":21,"cityname":"上海市","adcode":310106,"adname":"静安区","gridcode":4621639710.0,"distance":"369","business_a":"宝山路","timestamp":"2023-03-11","biz_ext":"{\"rating\": [], \"cost\": []}","行业大":"地名地址信息","行业中":"交通地名","行业小":"城市快速路入口","typecode_X":0.0,"typecode_Y":0.0,"__source_file__":"19-其它/11-匝道口/上海市_匝道口.shp"},"geometry":{"type":"Point","coordinates":[121.45849644376347,31.24877111659346]}},{"id":"549","type":"Feature","properties":{"OBJECTID":746777,"id":"5fd021c1-530a-310c-82fb-75f44c506ec5","name":"北横通道出口(南北高架路南向)","type":"地名地址信息;交通地名;城市快速路出口","typecode":"190308","address":"静安区","经度":121.462679,"纬度":31.247017,"tel":"[]","pcode":310000,"pname":"上海市","citycode":21,"cityname":"上海市","adcode":310106,"adname":"静安区","gridcode":4621639710.0,"distance":"330","business_a":"宝山路","timestamp":"2023-01-13","biz_ext":"{\"rating\": [], \"cost\": []}","行业大":"地名地址信息","行业中":"交通地名","行业小":"城市快速路出口","typecode_X":0.0,"typecode_Y":0.0,"__source_file__":"19-其它/11-匝道口/上海市_匝道口.shp"},"geometry":{"type":"Point","coordinates":[121.4581203303885,31.248923127991116]}},{"id":"550","type":"Feature","properties":{"OBJECTID":746778,"id":"3e502223-20a9-37d9-867b-22e6e590965d","name":"南北高架路入口(卢浦大桥方向)","type":"地名地址信息;交通地名;城市快速路入口","typecode":"190309","address":"静安区","经度":121.462927,"纬度":31.248361,"tel":"[]","pcode":310000,"pname":"上海市","citycode":21,"cityname":"上海市","adcode":310106,"adname":"静安区","gridcode":4621639720.0,"distance":"344","business_a":"宝山路","timestamp":"2023-05-11","biz_ext":"{\"rating\": [], \"cost\": []}","行业大":"地名地址信息","行业中":"交通地名","行业小":"城市快速路入口","typecode_X":0.0,"typecode_Y":0.0,"__source_file__":"19-其它/11-匝道口/上海市_匝道口.shp"},"geometry":{"type":"Point","coordinates":[121.4583689414261,31.250267136700494]}},{"id":"1079","type":"Feature","properties":{"OBJECTID":1069401,"id":"620f2a6a-2973-3fa1-8596-3d93402652cc","name":"光新路出口(内环高架路西南向)","type":"地名地址信息;交通地名;城市快速路出口","typecode":"190308","address":"普陀区","经度":121.435958,"纬度":31.253609,"tel":null,"pcode":310000,"pname":null,"citycode":21,"cityname":"上海市","adcode":310107,"adname":"普陀区","gridcode":4621730412.0,"distance":"138","business_a":null,"timestamp":"NaT","biz_ext":"{\"rating\": [], \"cost\": []}","行业大":"地名地址信息","行业中":"交通地名","行业小":"城市快速路出口","typecode_X":0.0,"typecode_Y":0.0,"__source_file__":"19-其它/11-匝道口/上海市_匝道口.shp"},"geometry":{"type":"Point","coordinates":[121.43133495115916,31.255458848648694]}},{"id":"524","type":"Feature","properties":{"OBJECTID":746375,"id":"5a42696b-9e52-365f-87db-8103516dce09","name":"延安高架路入口(西南向)","type":"地名地址信息;交通地名;城市快速路入口","typecode":"190309","address":"黄浦区","经度":121.488204,"纬度":31.231766,"tel":"[]","pcode":310000,"pname":"上海市","citycode":21,"cityname":"上海市","adcode":310101,"adname":"黄浦区","gridcode":4621637920.0,"distance":"393","business_a":"北京东路","timestamp":"2023-03-09","biz_ext":"{\"rating\": [], \"cost\": []}","行业大":"地名地址信息","行业中":"交通地名","行业小":"城市快速路入口","typecode_X":0.0,"typecode_Y":0.0,"__source_file__":"19-其它/11-匝道口/上海市_匝道口.shp"},"geometry":{"type":"Point","coordinates":[121.48373033168942,31.233748978049867]}},{"id":"548","type":"Feature","properties":{"OBJECTID":746764,"id":"4df0f98a-fa50-3c63-94c9-48c6e12190c1","name":"北横通道出口(南北高架路西北向)","type":"地名地址信息;交通地名;城市快速路出口","typecode":"190308","address":"黄浦区","经度":121.463283,"纬度":31.24103,"tel":"[]","pcode":310000,"pname":"上海市","citycode":21,"cityname":"上海市","adcode":310101,"adname":"黄浦区","gridcode":4621638720.0,"distance":"402","business_a":"北京东路","timestamp":"2022-09-28","biz_ext":"{\"rating\": [], \"cost\": []}","行业大":"地名地址信息","行业中":"交通地名","行业小":"城市快速路出口","typecode_X":0.0,"typecode_Y":0.0,"__source_file__":"19-其它/11-匝道口/上海市_匝道口.shp"},"geometry":{"type":"Point","coordinates":[121.45872662137012,31.242940303246673]}},{"id":"551","type":"Feature","properties":{"OBJECTID":746809,"id":"10f8f56a-9a29-3fd8-be98-e59c5f164102","name":"南北高架路入口(共和新路立交方向)","type":"地名地址信息;交通地名;城市快速路入口","typecode":"190309","address":"静安区","经度":121.463178,"纬度":31.247213,"tel":"[]","pcode":310000,"pname":"上海市","citycode":21,"cityname":"上海市","adcode":310106,"adname":"静安区","gridcode":4621639710.0,"distance":"371","business_a":"宝山路","timestamp":"2023-04-23","biz_ext":"{\"rating\": [], \"cost\": []}","行业大":"地名地址信息","行业中":"交通地名","行业小":"城市快速路入口","typecode_X":0.0,"typecode_Y":0.0,"__source_file__":"19-其它/11-匝道口/上海市_匝道口.shp"},"geometry":{"type":"Point","coordinates":[121.45862077849341,31.249120265900896]}},{"id":"541","type":"Feature","properties":{"OBJECTID":746745,"id":"366227f8-ca0f-355c-9966-013bbd089b5d","name":"南北高架路入口(北向)","type":"地名地址信息;交通地名;城市快速路入口","typecode":"190309","address":"静安区","经度":121.46315,"纬度":31.247416,"tel":"[]","pcode":310000,"pname":"上海市","citycode":21,"cityname":"上海市","adcode":310106,"adname":"静安区","gridcode":4621639720.0,"distance":"168","business_a":"宝山路","timestamp":"2023-06-03","biz_ext":"{'rating': [], 'cost': []}","行业大":"地名地址信息","行业中":"交通地名","行业小":"城市快速路入口","typecode_X":0.0,"typecode_Y":0.0,"__source_file__":"19-其它/11-匝道口/上海市_匝道口.shp"},"geometry":{"type":"Point","coordinates":[121.45859267854253,31.249323106338707]}},{"id":"753","type":"Feature","properties":{"OBJECTID":748911,"id":"98d84d1b-ef76-37c2-83eb-175a29eca9eb","name":"南北高架路入口(北向)","type":"地名地址信息;交通地名;城市快速路入口","typecode":"190309","address":"静安区","经度":121.46318,"纬度":31.248007,"tel":"[]","pcode":310000,"pname":"上海市","citycode":21,"cityname":"上海市","adcode":310106,"adname":"静安区","gridcode":4621639720.0,"distance":"364","business_a":"宝山路","timestamp":"2023-03-25","biz_ext":"{\"rating\": [], \"cost\": []}","行业大":"地名地址信息","行业中":"交通地名","行业小":"城市快速路入口","typecode_X":0.0,"typecode_Y":0.0,"__source_file__":"19-其它/11-匝道口/上海市_匝道口.shp"},"geometry":{"type":"Point","coordinates":[121.45862271585808,31.249913916636242]}},{"id":"522","type":"Feature","properties":{"OBJECTID":746339,"id":"b4a98fbc-b006-34c2-bd4b-42796648260d","name":"中山北路出口(南北高架路北向)","type":"地名地址信息;交通地名;城市快速路出口","typecode":"190308","address":"静安区","经度":121.463266,"纬度":31.248121,"tel":"[]","pcode":310000,"pname":"上海市","citycode":21,"cityname":"上海市","adcode":310106,"adname":"静安区","gridcode":4621639720.0,"distance":"373","business_a":"宝山路","timestamp":"2023-05-06","biz_ext":"{\"rating\": [], \"cost\": []}","行业大":"地名地址信息","行业中":"交通地名","行业小":"城市快速路出口","typecode_X":0.0,"typecode_Y":0.0,"__source_file__":"19-其它/11-匝道口/上海市_匝道口.shp"},"geometry":{"type":"Point","coordinates":[121.45870895937692,31.25002807775113]}},{"id":"772","type":"Feature","properties":{"OBJECTID":748970,"id":"f095544e-6f17-34f0-84d3-d44fe6191d4b","name":"西藏北路出口(内环高架路西南向)","type":"地名地址信息;交通地名;城市快速路出口","typecode":"190308","address":"静安区","经度":121.469368,"纬度":31.264423,"tel":"[]","pcode":310000,"pname":"上海市","citycode":21,"cityname":"上海市","adcode":310106,"adname":"静安区","gridcode":4621731721.0,"distance":"92","business_a":"和田","timestamp":"2023-04-23","biz_ext":"{\"rating\": [], \"cost\": []}","行业大":"地名地址信息","行业中":"交通地名","行业小":"城市快速路出口","typecode_X":0.0,"typecode_Y":0.0,"__source_file__":"19-其它/11-匝道口/上海市_匝道口.shp"},"geometry":{"type":"Point","coordinates":[121.46482814506905,31.26633848889741]}},{"id":"739","type":"Feature","properties":{"OBJECTID":748622,"id":"b661db51-90b6-3356-9b17-dc47e6e8a8a2","name":"内环高架路入口(共和新路立交方向)","type":"地名地址信息;交通地名;城市快速路入口","typecode":"190309","address":"虹口区","经度":121.477038,"纬度":31.27242,"tel":"[]","pcode":310000,"pname":"上海市","citycode":21,"cityname":"上海市","adcode":310109,"adname":"虹口区","gridcode":4621732820.0,"distance":"98","business_a":"江湾","timestamp":"2023-03-17","biz_ext":"{'cost': [], 'rating': []}","行业大":"地名地址信息","行业中":"交通地名","行业小":"城市快速路入口","typecode_X":0.0,"typecode_Y":0.0,"__source_file__":"19-其它/11-匝道口/上海市_匝道口.shp"},"geometry":{"type":"Point","coordinates":[121.47252234787877,31.27435288445724]}},{"id":"1055","type":"Feature","properties":{"OBJECTID":1068619,"id":"ecbf3335-9580-3e9e-84f0-87c5e1dd0368","name":"沪太路出口(内环高架路东向)","type":"地名地址信息;交通地名;城市快速路出口","typecode":"190308","address":"普陀区","经度":121.446173,"纬度":31.257335,"tel":null,"pcode":310000,"pname":null,"citycode":21,"cityname":"上海市","adcode":310107,"adname":"普陀区","gridcode":4621730522.0,"distance":"268","business_a":null,"timestamp":"NaT","biz_ext":"{'rating': [], 'cost': []}","行业大":"地名地址信息","行业中":"交通地名","行业小":"城市快速路出口","typecode_X":0.0,"typecode_Y":0.0,"__source_file__":"19-其它/11-匝道口/上海市_匝道口.shp"},"geometry":{"type":"Point","coordinates":[121.44157033532252,31.259200518464993]}},{"id":"754","type":"Feature","properties":{"OBJECTID":748912,"id":"b8da15e4-69bb-3e6b-ac01-d1aeb1fbfae4","name":"内环高架路入口(延安西路立交方向)","type":"地名地址信息;交通地名;城市快速路入口","typecode":"190309","address":"普陀区","经度":121.445763,"纬度":31.257478,"tel":"[]","pcode":310000,"pname":"上海市","citycode":21,"cityname":"上海市","adcode":310107,"adname":"普陀区","gridcode":4621730521.0,"distance":"125","business_a":"光新","timestamp":"2023-03-03","biz_ext":"{'cost': [], 'rating': []}","行业大":"地名地址信息","行业中":"交通地名","行业小":"城市快速路入口","typecode_X":0.0,"typecode_Y":0.0,"__source_file__":"19-其它/11-匝道口/上海市_匝道口.shp"},"geometry":{"type":"Point","coordinates":[121.44115939765004,31.259342682425373]}},{"id":"738","type":"Feature","properties":{"OBJECTID":748621,"id":"6e2ea8c5-b047-3d22-afd4-83280485b287","name":"内环高架路入口(共和新路立交方向)","type":"地名地址信息;交通地名;城市快速路入口","typecode":"190309","address":"静安区","经度":121.453672,"纬度":31.258885,"tel":"[]","pcode":310000,"pname":"上海市","citycode":21,"cityname":"上海市","adcode":310106,"adname":"静安区","gridcode":4621731600.0,"distance":"134","business_a":"和田","timestamp":"2023-05-09","biz_ext":"{'cost': [], 'rating': []}","行业大":"地名地址信息","行业中":"交通地名","行业小":"城市快速路入口","typecode_X":0.0,"typecode_Y":0.0,"__source_file__":"19-其它/11-匝道口/上海市_匝道口.shp"},"geometry":{"type":"Point","coordinates":[121.4490874224166,31.26076508156685]}},{"id":"1073","type":"Feature","properties":{"OBJECTID":1069296,"id":"4420eee3-cce1-3706-a8e9-c3d58519818e","name":"沪太路出口(内环高架路西向)","type":"地名地址信息;交通地名;城市快速路出口","typecode":"190308","address":"静安区","经度":121.454939,"纬度":31.25937,"tel":null,"pcode":310000,"pname":null,"citycode":21,"cityname":"上海市","adcode":310106,"adname":"静安区","gridcode":4621731601.0,"distance":"138","business_a":null,"timestamp":"NaT","biz_ext":"{'rating': [], 'cost': []}","行业大":"地名地址信息","行业中":"交通地名","行业小":"城市快速路出口","typecode_X":0.0,"typecode_Y":0.0,"__source_file__":"19-其它/11-匝道口/上海市_匝道口.shp"},"geometry":{"type":"Point","coordinates":[121.45035769222757,31.261252640756346]}},{"id":"760","type":"Feature","properties":{"OBJECTID":748936,"id":"56dca517-3ec0-3f5d-bd51-bad9beb9021c","name":"沪太路出口(内环高架路西向)","type":"地名地址信息;交通地名;城市快速路出口","typecode":"190308","address":"静安区","经度":121.456096,"纬度":31.259578,"tel":"[]","pcode":310000,"pname":"上海市","citycode":21,"cityname":"上海市","adcode":310106,"adname":"静安区","gridcode":4621731601.0,"distance":"184","business_a":"和田","timestamp":"2023-04-27","biz_ext":"{'rating': [], 'cost': []}","行业大":"地名地址信息","行业中":"交通地名","行业小":"城市快速路出口","typecode_X":0.0,"typecode_Y":0.0,"__source_file__":"19-其它/11-匝道口/上海市_匝道口.shp"},"geometry":{"type":"Point","coordinates":[121.45151775450445,31.261463126866015]}},{"id":"1215","type":"Feature","properties":{"OBJECTID":1095198,"id":"02e39c95-a479-38a7-b471-4db27b97d920","name":"南北高架路入口(共和新路立交方向)","type":"地名地址信息;交通地名;城市快速路入口","typecode":"190309","address":"静安区","经度":121.458798,"纬度":31.265784,"tel":null,"pcode":310000,"pname":null,"citycode":21,"cityname":"上海市","adcode":310106,"adname":"静安区","gridcode":4621731622.0,"distance":"168","business_a":null,"timestamp":"NaT","biz_ext":"{\"rating\": [], \"cost\": []}","行业大":"地名地址信息","行业中":"交通地名","行业小":"城市快速路入口","typecode_X":0.0,"typecode_Y":0.0,"__source_file__":"19-其它/11-匝道口/上海市_匝道口.shp"},"geometry":{"type":"Point","coordinates":[121.4542266136115,31.267672635648847]}},{"id":"773","type":"Feature","properties":{"OBJECTID":748971,"id":"1f75045a-dc77-380c-8476-caeb9ed2dd2d","name":"延长路出口(南北高架路北向)","type":"地名地址信息;交通地名;城市快速路出口","typecode":"190308","address":"静安区","经度":121.457704,"纬度":31.268593,"tel":"[]","pcode":310000,"pname":"上海市","citycode":21,"cityname":"上海市","adcode":310106,"adname":"静安区","gridcode":4621732601.0,"distance":"209","business_a":"和田","timestamp":"2023-04-27","biz_ext":"{\"rating\": [], \"cost\": []}","行业大":"地名地址信息","行业中":"交通地名","行业小":"城市快速路出口","typecode_X":0.0,"typecode_Y":0.0,"__source_file__":"19-其它/11-匝道口/上海市_匝道口.shp"},"geometry":{"type":"Point","coordinates":[121.45312934235226,31.270477903583693]}},{"id":"756","type":"Feature","properties":{"OBJECTID":748930,"id":"74ba9cef-31d7-311c-a25a-76787cbeceb2","name":"上海马戏城出口(南北高架路北向)","type":"地名地址信息;交通地名;城市快速路出口","typecode":"190308","address":"静安区","经度":121.457713,"纬度":31.268598,"tel":"[]","pcode":310000,"pname":"上海市","citycode":21,"cityname":"上海市","adcode":310106,"adname":"静安区","gridcode":4621732601.0,"distance":"208","business_a":"和田","timestamp":"2023-04-24","biz_ext":"{\"rating\": [], \"cost\": []}","行业大":"地名地址信息","行业中":"交通地名","行业小":"城市快速路出口","typecode_X":0.0,"typecode_Y":0.0,"__source_file__":"19-其它/11-匝道口/上海市_匝道口.shp"},"geometry":{"type":"Point","coordinates":[121.4531383666479,31.27048292213806]}}],"name":"上海市_匝道口","crs":{"type":"name","properties":{"name":"urn:ogc:def:crs:OGC:1.3:CRS84"}}}