{"type":"FeatureCollection","features":[{"id":"289","type":"Feature","properties":{"name":"静安寺(地铁站)","pname":"上海市","cityname":"上海市","adname":"静安区","address":"14号线;2号线;7号线","tel":null,"location":"121.446533,31.223231","id":"BV10025485","tag":null,"pcode":0,"type":"交通设施服务;地铁站;地铁站","photos":"[]","discount_n":0,"gridcode":0.0,"typecode":150500,"shopinfo":2,"poiweight":"[]","citycode":0,"children":null,"alias":null,"event":null,"entr_locat":null,"indoor_map":0,"email":null,"timestamp":"NaT","website":null,"adcode":0,"postcode":null,"match":0,"business_a":null,"indoor_dat":null,"childtype":"[]","exit_locat":null,"shopid":"[]","navi_poiid":null,"groupbuy_n":0,"isin_regio":"yes","查询关":"地铁站","手机号":0,"gcj02_lng":121.446533,"gcj02_lat":31.223231,"wgs84_loca":"121.44193411158318,31.225112647299024","wgs84_lng":121.4419341,"wgs84_lat":31.22511265,"行业大":"交通设施服务","行业子":"地铁站","__source_file__":"04-交通数据/2-交通设施/地铁数据/开源版本/上海市-地铁站.shp"},"geometry":{"type":"Point","coordinates":[121.4419341,31.22511265]}},{"id":"278","type":"Feature","properties":{"name":"昌平路(地铁站)","pname":"上海市","cityname":"上海市","adname":"静安区","address":"7号线","tel":null,"location":"121.442617,31.233749","id":"BV10039863","tag":null,"pcode":0,"type":"交通设施服务;地铁站;地铁站","photos":"[]","discount_n":0,"gridcode":0.0,"typecode":150500,"shopinfo":2,"poiweight":"[]","citycode":0,"children":null,"alias":null,"event":null,"entr_locat":null,"indoor_map":0,"email":null,"timestamp":"NaT","website":null,"adcode":0,"postcode":null,"match":0,"business_a":null,"indoor_dat":null,"childtype":"[]","exit_locat":null,"shopid":"[]","navi_poiid":null,"groupbuy_n":0,"isin_regio":"yes","查询关":"地铁站","手机号":0,"gcj02_lng":121.442617,"gcj02_lat":31.233749,"wgs84_loca":"121.43800861423384,31.235618589661957","wgs84_lng":121.4380086,"wgs84_lat":31.23561859,"行业大":"交通设施服务","行业子":"地铁站","__source_file__":"04-交通数据/2-交通设施/地铁数据/开源版本/上海市-地铁站.shp"},"geometry":{"type":"Point","coordinates":[121.4380086,31.23561859]}},{"id":"44","type":"Feature","properties":{"name":"武宁路(地铁站)","pname":"上海市","cityname":"上海市","adname":"普陀区","address":"13号线;14号线","tel":null,"location":"121.430504,31.234346","id":"BV10039778","tag":"[]","pcode":310000,"type":"交通设施服务;地铁站;地铁站","photos":"[{'title': [], 'url': 'https://aos-comment.amap.com/BV10039778/comment/e46c32094d21cd8c52258da14efd1321_2048_2048_80.jpg'}]","discount_n":0,"gridcode":4621638401.0,"typecode":150500,"shopinfo":2,"poiweight":"[]","citycode":21,"children":"[{'typecode': ' 150501 ', 'address': ' 13号线 ', 'distance': ' 0 ', 'subtype': [], 'sname': ' 1号口 ', 'name': ' 武宁路地铁站1号口 ', 'location': '121.429866,31.234174', 'id': ' BX10016704 '}, {'typecode': ' 150501 ', 'address': ' 13号线 ',","alias":"[]","event":"[]","entr_locat":"[]","indoor_map":0,"email":"[]","timestamp":"2025-02-27","website":"[]","adcode":310107,"postcode":"[]","match":0,"business_a":"[]","indoor_dat":"{'cmsid': [], 'truefloor': [], 'cpid': [], 'floor': []}","childtype":"[]","exit_locat":"[]","shopid":"[]","navi_poiid":"[]","groupbuy_n":0,"isin_regio":"yes","查询关":"地铁站","手机号":0,"gcj02_lng":121.430504,"gcj02_lat":31.234346,"wgs84_loca":"121.42587366381487,31.236197028249915","wgs84_lng":121.4258737,"wgs84_lat":31.23619703,"行业大":"交通设施服务","行业子":"地铁站","__source_file__":"04-交通数据/2-交通设施/地铁数据/开源版本/上海市-地铁站.shp"},"geometry":{"type":"Point","coordinates":[121.4258737,31.23619703]}},{"id":"286","type":"Feature","properties":{"name":"长寿路(地铁站)","pname":"上海市","cityname":"上海市","adname":"普陀区","address":"13号线;7号线","tel":null,"location":"121.438272,31.240860","id":"BV10039779","tag":null,"pcode":0,"type":"交通设施服务;地铁站;地铁站","photos":"[]","discount_n":0,"gridcode":0.0,"typecode":150500,"shopinfo":2,"poiweight":"[]","citycode":0,"children":null,"alias":null,"event":null,"entr_locat":null,"indoor_map":0,"email":null,"timestamp":"NaT","website":null,"adcode":0,"postcode":null,"match":0,"business_a":null,"indoor_dat":null,"childtype":"[]","exit_locat":null,"shopid":"[]","navi_poiid":null,"groupbuy_n":0,"isin_regio":"yes","查询关":"地铁站","手机号":0,"gcj02_lng":121.438272,"gcj02_lat":31.24086,"wgs84_loca":"121.43365431185441,31.24271909088111","wgs84_lng":121.4336543,"wgs84_lat":31.24271909,"行业大":"交通设施服务","行业子":"地铁站","__source_file__":"04-交通数据/2-交通设施/地铁数据/开源版本/上海市-地铁站.shp"},"geometry":{"type":"Point","coordinates":[121.4336543,31.24271909]}},{"id":"300","type":"Feature","properties":{"name":"汉中路(地铁站)","pname":"上海市","cityname":"上海市","adname":"静安区","address":"12号线;13号线;1号线","tel":null,"location":"121.458699,31.241883","id":"BV10030213","tag":null,"pcode":0,"type":"交通设施服务;地铁站;地铁站","photos":"[]","discount_n":0,"gridcode":0.0,"typecode":150500,"shopinfo":2,"poiweight":"[]","citycode":0,"children":null,"alias":null,"event":null,"entr_locat":null,"indoor_map":0,"email":null,"timestamp":"NaT","website":null,"adcode":0,"postcode":null,"match":0,"business_a":null,"indoor_dat":null,"childtype":"[]","exit_locat":null,"shopid":"[]","navi_poiid":null,"groupbuy_n":0,"isin_regio":"yes","查询关":"地铁站","手机号":0,"gcj02_lng":121.458699,"gcj02_lat":31.241883,"wgs84_loca":"121.4541294040466,31.243781922273598","wgs84_lng":121.4541294,"wgs84_lat":31.24378192,"行业大":"交通设施服务","行业子":"地铁站","__source_file__":"04-交通数据/2-交通设施/地铁数据/开源版本/上海市-地铁站.shp"},"geometry":{"type":"Point","coordinates":[121.4541294,31.24378192]}},{"id":"276","type":"Feature","properties":{"name":"江宁路(地铁站)","pname":"上海市","cityname":"上海市","adname":"普陀区","address":"13号线","tel":null,"location":"121.444830,31.244282","id":"BV10039780","tag":null,"pcode":0,"type":"交通设施服务;地铁站;地铁站","photos":"[]","discount_n":0,"gridcode":0.0,"typecode":150500,"shopinfo":2,"poiweight":"[]","citycode":0,"children":null,"alias":null,"event":null,"entr_locat":null,"indoor_map":0,"email":null,"timestamp":"NaT","website":null,"adcode":0,"postcode":null,"match":0,"business_a":null,"indoor_dat":null,"childtype":"[]","exit_locat":null,"shopid":"[]","navi_poiid":null,"groupbuy_n":0,"isin_regio":"yes","查询关":"地铁站","手机号":0,"gcj02_lng":121.44483,"gcj02_lat":31.244282,"wgs84_loca":"121.44022546590188,31.246150790557596","wgs84_lng":121.4402255,"wgs84_lat":31.24615079,"行业大":"交通设施服务","行业子":"地铁站","__source_file__":"04-交通数据/2-交通设施/地铁数据/开源版本/上海市-地铁站.shp"},"geometry":{"type":"Point","coordinates":[121.4402255,31.24615079]}},{"id":"283","type":"Feature","properties":{"name":"镇坪路(地铁站)","pname":"上海市","cityname":"上海市","adname":"普陀区","address":"3号线;4号线;7号线","tel":null,"location":"121.429779,31.246369","id":"BV10039864","tag":null,"pcode":0,"type":"交通设施服务;地铁站;地铁站","photos":"[]","discount_n":0,"gridcode":0.0,"typecode":150500,"shopinfo":2,"poiweight":"[]","citycode":0,"children":null,"alias":null,"event":null,"entr_locat":null,"indoor_map":0,"email":null,"timestamp":"NaT","website":null,"adcode":0,"postcode":null,"match":0,"business_a":null,"indoor_dat":null,"childtype":"[]","exit_locat":null,"shopid":"[]","navi_poiid":null,"groupbuy_n":0,"isin_regio":"yes","查询关":"地铁站","手机号":0,"gcj02_lng":121.429779,"gcj02_lat":31.246369,"wgs84_loca":"121.4251465400403,31.24821368526512","wgs84_lng":121.4251465,"wgs84_lat":31.24821369,"行业大":"交通设施服务","行业子":"地铁站","__source_file__":"04-交通数据/2-交通设施/地铁数据/开源版本/上海市-地铁站.shp"},"geometry":{"type":"Point","coordinates":[121.4251465,31.24821369]}},{"id":"369","type":"Feature","properties":{"name":"上海火车站(地铁站)","pname":"上海市","cityname":"上海市","adname":"静安区","address":"1号线;3号线;4号线","tel":null,"location":"121.457939,31.249632","id":"BV10024601","tag":null,"pcode":0,"type":"交通设施服务;地铁站;地铁站","photos":"[]","discount_n":0,"gridcode":0.0,"typecode":150500,"shopinfo":2,"poiweight":"[]","citycode":0,"children":null,"alias":null,"event":null,"entr_locat":null,"indoor_map":0,"email":null,"timestamp":"NaT","website":null,"adcode":0,"postcode":null,"match":0,"business_a":null,"indoor_dat":null,"childtype":"[]","exit_locat":null,"shopid":"[]","navi_poiid":null,"groupbuy_n":0,"isin_regio":"yes","查询关":"地铁站","手机号":0,"gcj02_lng":121.457939,"gcj02_lat":31.249632,"wgs84_loca":"121.45336662901308,31.251525690839358","wgs84_lng":121.4533666,"wgs84_lat":31.25152569,"行业大":"交通设施服务","行业子":"地铁站","__source_file__":"04-交通数据/2-交通设施/地铁数据/开源版本/上海市-地铁站.shp"},"geometry":{"type":"Point","coordinates":[121.4533666,31.25152569]}},{"id":"339","type":"Feature","properties":{"name":"淮海中路(地铁站)","pname":"上海市","cityname":"上海市","adname":"黄浦区","address":"13号线","tel":null,"location":"121.464363,31.220056","id":"BV10039783","tag":null,"pcode":0,"type":"交通设施服务;地铁站;地铁站","photos":"[]","discount_n":0,"gridcode":0.0,"typecode":150500,"shopinfo":2,"poiweight":"[]","citycode":0,"children":null,"alias":null,"event":null,"entr_locat":null,"indoor_map":0,"email":null,"timestamp":"NaT","website":null,"adcode":0,"postcode":null,"match":0,"business_a":null,"indoor_dat":null,"childtype":"[]","exit_locat":null,"shopid":"[]","navi_poiid":null,"groupbuy_n":0,"isin_regio":"yes","查询关":"地铁站","手机号":0,"gcj02_lng":121.464363,"gcj02_lat":31.220056,"wgs84_loca":"121.45981163294091,31.22197867160518","wgs84_lng":121.4598116,"wgs84_lat":31.22197867,"行业大":"交通设施服务","行业子":"地铁站","__source_file__":"04-交通数据/2-交通设施/地铁数据/开源版本/上海市-地铁站.shp"},"geometry":{"type":"Point","coordinates":[121.4598116,31.22197867]}},{"id":"295","type":"Feature","properties":{"name":"一大会址·黄陂南路(地铁站)","pname":"上海市","cityname":"上海市","adname":"黄浦区","address":"14号线;1号线","tel":null,"location":"121.472339,31.223653","id":"BV10039892","tag":null,"pcode":0,"type":"交通设施服务;地铁站;地铁站","photos":"[]","discount_n":0,"gridcode":0.0,"typecode":150500,"shopinfo":2,"poiweight":"[]","citycode":0,"children":null,"alias":null,"event":null,"entr_locat":null,"indoor_map":0,"email":null,"timestamp":"NaT","website":null,"adcode":0,"postcode":null,"match":0,"business_a":null,"indoor_dat":null,"childtype":"[]","exit_locat":null,"shopid":"[]","navi_poiid":null,"groupbuy_n":0,"isin_regio":"yes","查询关":"地铁站","手机号":0,"gcj02_lng":121.472339,"gcj02_lat":31.223653,"wgs84_loca":"121.46781210932377,31.22559471307485","wgs84_lng":121.4678121,"wgs84_lat":31.22559471,"行业大":"交通设施服务","行业子":"地铁站","__source_file__":"04-交通数据/2-交通设施/地铁数据/开源版本/上海市-地铁站.shp"},"geometry":{"type":"Point","coordinates":[121.4678121,31.22559471]}},{"id":"297","type":"Feature","properties":{"name":"大世界(地铁站)","pname":"上海市","cityname":"上海市","adname":"黄浦区","address":"14号线;8号线","tel":null,"location":"121.479182,31.227392","id":"BV10039915","tag":null,"pcode":0,"type":"交通设施服务;地铁站;地铁站","photos":"[]","discount_n":0,"gridcode":0.0,"typecode":150500,"shopinfo":2,"poiweight":"[]","citycode":0,"children":null,"alias":null,"event":null,"entr_locat":null,"indoor_map":0,"email":null,"timestamp":"NaT","website":null,"adcode":0,"postcode":null,"match":0,"business_a":null,"indoor_dat":null,"childtype":"[]","exit_locat":null,"shopid":"[]","navi_poiid":null,"groupbuy_n":0,"isin_regio":"yes","查询关":"地铁站","手机号":0,"gcj02_lng":121.479182,"gcj02_lat":31.227392,"wgs84_loca":"121.47467742438876,31.22935088790333","wgs84_lng":121.4746774,"wgs84_lat":31.22935089,"行业大":"交通设施服务","行业子":"地铁站","__source_file__":"04-交通数据/2-交通设施/地铁数据/开源版本/上海市-地铁站.shp"},"geometry":{"type":"Point","coordinates":[121.4746774,31.22935089]}},{"id":"365","type":"Feature","properties":{"name":"南京西路(地铁站)","pname":"上海市","cityname":"上海市","adname":"静安区","address":"12号线;13号线;2号线","tel":null,"location":"121.459971,31.229853","id":"BV10039782","tag":null,"pcode":0,"type":"交通设施服务;地铁站;地铁站","photos":"[]","discount_n":0,"gridcode":0.0,"typecode":150500,"shopinfo":2,"poiweight":"[]","citycode":0,"children":null,"alias":null,"event":null,"entr_locat":null,"indoor_map":0,"email":null,"timestamp":"NaT","website":null,"adcode":0,"postcode":null,"match":0,"business_a":null,"indoor_dat":null,"childtype":"[]","exit_locat":null,"shopid":"[]","navi_poiid":null,"groupbuy_n":0,"isin_regio":"yes","查询关":"地铁站","手机号":0,"gcj02_lng":121.459971,"gcj02_lat":31.229853,"wgs84_loca":"121.45540601441341,31.23176040890223","wgs84_lng":121.455406,"wgs84_lat":31.23176041,"行业大":"交通设施服务","行业子":"地铁站","__source_file__":"04-交通数据/2-交通设施/地铁数据/开源版本/上海市-地铁站.shp"},"geometry":{"type":"Point","coordinates":[121.455406,31.23176041]}},{"id":"367","type":"Feature","properties":{"name":"人民广场(地铁站)","pname":"上海市","cityname":"上海市","adname":"黄浦区","address":"1号线;2号线;8号线","tel":null,"location":"121.475108,31.232687","id":"BV10024678","tag":null,"pcode":0,"type":"交通设施服务;地铁站;地铁站","photos":"[]","discount_n":0,"gridcode":0.0,"typecode":150500,"shopinfo":2,"poiweight":"[]","citycode":0,"children":null,"alias":null,"event":null,"entr_locat":null,"indoor_map":0,"email":null,"timestamp":"NaT","website":null,"adcode":0,"postcode":null,"match":0,"business_a":null,"indoor_dat":null,"childtype":"[]","exit_locat":null,"shopid":"[]","navi_poiid":null,"groupbuy_n":0,"isin_regio":"yes","查询关":"地铁站","手机号":0,"gcj02_lng":121.475108,"gcj02_lat":31.232687,"wgs84_loca":"121.47058935781382,31.23463206430082","wgs84_lng":121.4705894,"wgs84_lat":31.23463206,"行业大":"交通设施服务","行业子":"地铁站","__source_file__":"04-交通数据/2-交通设施/地铁数据/开源版本/上海市-地铁站.shp"},"geometry":{"type":"Point","coordinates":[121.4705894,31.23463206]}},{"id":"56","type":"Feature","properties":{"name":"自然博物馆(地铁站)","pname":"上海市","cityname":"上海市","adname":"静安区","address":"13号线","tel":null,"location":"121.462366,31.236451","id":"BV10039781","tag":"[]","pcode":310000,"type":"交通设施服务;地铁站;地铁站","photos":"[{'title': [], 'url': 'https://aos-comment.amap.com/BV10039781/comment/b6df7b6822134b11f4077856c556ebec_2048_2048_80.jpg'}, {'title': [], 'url': 'http://store.is.autonavi.com/showpic/1eced38186fb6d5caf818abbf232b824'}, {'title': [], 'url': 'https://aos-c","discount_n":0,"gridcode":4621638612.0,"typecode":150500,"shopinfo":2,"poiweight":"[]","citycode":21,"children":"[{'typecode': ' 150501 ', 'address': ' 13号线 ', 'distance': ' 0 ', 'subtype': [], 'sname': ' 1号口 ', 'name': ' 自然博物馆地铁站1号口 ', 'location': '121.463004,31.235592', 'id': ' BX10020097 '}, {'typecode': ' 150501 ', 'address': ' 13号","alias":"[]","event":"[]","entr_locat":"[]","indoor_map":0,"email":"[]","timestamp":"2025-02-07","website":"[]","adcode":310106,"postcode":"[]","match":0,"business_a":"淮海路","indoor_dat":"{'cmsid': [], 'truefloor': [], 'cpid': [], 'floor': []}","childtype":"[]","exit_locat":"[]","shopid":"[]","navi_poiid":"[]","groupbuy_n":0,"isin_regio":"yes","查询关":"地铁站","手机号":0,"gcj02_lng":121.462366,"gcj02_lat":31.236451,"wgs84_loca":"121.45780732775418,31.2383611349092","wgs84_lng":121.4578073,"wgs84_lat":31.23836113,"行业大":"交通设施服务","行业子":"地铁站","__source_file__":"04-交通数据/2-交通设施/地铁数据/开源版本/上海市-地铁站.shp"},"geometry":{"type":"Point","coordinates":[121.4578073,31.23836113]}},{"id":"60","type":"Feature","properties":{"name":"新闸路(地铁站)","pname":"上海市","cityname":"上海市","adname":"黄浦区","address":"1号线","tel":null,"location":"121.468151,31.238373","id":"BV10039891","tag":"[]","pcode":310000,"type":"交通设施服务;地铁站;地铁站","photos":"[{'title': [], 'url': 'https://aos-comment.amap.com/BV10039891/comment/content_media_external_images_media_646249_ss__1732250927701_16792167.jpg'}, {'title': [], 'url': 'https://aos-comment.amap.com/BV10039891/comment/content_media_external_images_media_","discount_n":0,"gridcode":4621638711.0,"typecode":150500,"shopinfo":2,"poiweight":"[]","citycode":21,"children":"[{'typecode': ' 150501 ', 'address': ' 1号线 ', 'distance': ' 0 ', 'subtype': [], 'sname': ' 1号口 ', 'name': ' 新闸路地铁站1号口 ', 'location': '121.467410,31.239063', 'id': ' BX10016251 '}, {'typecode': ' 150501 ', 'address': ' 1号线 ', '","alias":"[]","event":"[]","entr_locat":"[]","indoor_map":0,"email":"[]","timestamp":"2025-01-25","website":"[]","adcode":310101,"postcode":"[]","match":0,"business_a":"北京路","indoor_dat":"{'cmsid': [], 'truefloor': [], 'cpid': [], 'floor': []}","childtype":"[]","exit_locat":"[]","shopid":"[]","navi_poiid":"[]","groupbuy_n":0,"isin_regio":"yes","查询关":"地铁站","手机号":0,"gcj02_lng":121.468151,"gcj02_lat":31.238373,"wgs84_loca":"121.46360958861692,31.24029683550525","wgs84_lng":121.4636096,"wgs84_lat":31.24029684,"行业大":"交通设施服务","行业子":"地铁站","__source_file__":"04-交通数据/2-交通设施/地铁数据/开源版本/上海市-地铁站.shp"},"geometry":{"type":"Point","coordinates":[121.4636096,31.24029684]}},{"id":"296","type":"Feature","properties":{"name":"曲阜路(地铁站)","pname":"上海市","cityname":"上海市","adname":"静安区","address":"12号线;8号线","tel":null,"location":"121.471543,31.242307","id":"BV10039914","tag":null,"pcode":0,"type":"交通设施服务;地铁站;地铁站","photos":"[]","discount_n":0,"gridcode":0.0,"typecode":150500,"shopinfo":2,"poiweight":"[]","citycode":0,"children":null,"alias":null,"event":null,"entr_locat":null,"indoor_map":0,"email":null,"timestamp":"NaT","website":null,"adcode":0,"postcode":null,"match":0,"business_a":null,"indoor_dat":null,"childtype":"[]","exit_locat":null,"shopid":"[]","navi_poiid":null,"groupbuy_n":0,"isin_regio":"yes","查询关":"地铁站","手机号":0,"gcj02_lng":121.471543,"gcj02_lat":31.242307,"wgs84_loca":"121.46701194819452,31.244237999046543","wgs84_lng":121.4670119,"wgs84_lat":31.244238,"行业大":"交通设施服务","行业子":"地铁站","__source_file__":"04-交通数据/2-交通设施/地铁数据/开源版本/上海市-地铁站.shp"},"geometry":{"type":"Point","coordinates":[121.4670119,31.244238]}},{"id":"495","type":"Feature","properties":{"name":"宝山路(地铁站)","pname":"上海市","cityname":"上海市","adname":"静安区","address":"3号线;4号线","tel":null,"location":"121.476298,31.251523","id":"BV10039990","tag":null,"pcode":0,"type":"交通设施服务;地铁站;地铁站","photos":"[]","discount_n":0,"gridcode":0.0,"typecode":150500,"shopinfo":2,"poiweight":"[]","citycode":0,"children":null,"alias":null,"event":null,"entr_locat":null,"indoor_map":0,"email":null,"timestamp":"NaT","website":null,"adcode":0,"postcode":null,"match":0,"business_a":null,"indoor_dat":null,"childtype":"[]","exit_locat":null,"shopid":"[]","navi_poiid":null,"groupbuy_n":0,"isin_regio":"yes","查询关":"地铁站","手机号":0,"gcj02_lng":121.476298,"gcj02_lat":31.251523,"wgs84_loca":"121.47178167751035,31.25346285448621","wgs84_lng":121.4717817,"wgs84_lat":31.25346285,"行业大":"交通设施服务","行业子":"地铁站","__source_file__":"04-交通数据/2-交通设施/地铁数据/开源版本/上海市-地铁站.shp"},"geometry":{"type":"Point","coordinates":[121.4717817,31.25346285]}},{"id":"238","type":"Feature","properties":{"name":"中兴路(地铁站)","pname":"上海市","cityname":"上海市","adname":"静安区","address":"8号线","tel":null,"location":"121.469026,31.253228","id":"BV10028891","tag":"[]","pcode":310000,"type":"交通设施服务;地铁站;地铁站","photos":"[{'title': [], 'url': 'https://aos-comment.amap.com/BV10028891/comment/content_media_external_images_media_1000074421_ss__1725579856376_72381142.jpg'}, {'title': [], 'url': 'https://aos-comment.amap.com/BV10028891/comment/content_media_external_images_me","discount_n":0,"gridcode":4621730711.0,"typecode":150500,"shopinfo":2,"poiweight":"[]","citycode":21,"children":"[{'typecode': ' 150501 ', 'address': ' 8号线 ', 'distance': ' 0 ', 'subtype': [], 'sname': ' 1号口 ', 'name': ' 中兴路地铁站1号口 ', 'location': '121.469278,31.253747', 'id': ' BX10016532 '}, {'typecode': ' 150501 ', 'address': ' 8号线 ', '","alias":"[]","event":"[]","entr_locat":"[]","indoor_map":0,"email":"[]","timestamp":"2025-02-07","website":"[]","adcode":310106,"postcode":"[]","match":0,"business_a":"宝山路","indoor_dat":"{'cmsid': [], 'truefloor': [], 'cpid': [], 'floor': []}","childtype":"[]","exit_locat":"[]","shopid":"[]","navi_poiid":"[]","groupbuy_n":0,"isin_regio":"yes","查询关":"地铁站","手机号":0,"gcj02_lng":121.469026,"gcj02_lat":31.253228,"wgs84_loca":"121.46448603702281,31.25514746464294","wgs84_lng":121.464486,"wgs84_lat":31.25514746,"行业大":"交通设施服务","行业子":"地铁站","__source_file__":"04-交通数据/2-交通设施/地铁数据/开源版本/上海市-地铁站.shp"},"geometry":{"type":"Point","coordinates":[121.464486,31.25514746]}},{"id":"353","type":"Feature","properties":{"name":"豫园(地铁站)","pname":"上海市","cityname":"上海市","adname":"黄浦区","address":"10号线;14号线","tel":null,"location":"121.487426,31.228005","id":"BV10030419","tag":null,"pcode":0,"type":"交通设施服务;地铁站;地铁站","photos":"[]","discount_n":0,"gridcode":0.0,"typecode":150500,"shopinfo":2,"poiweight":"[]","citycode":0,"children":null,"alias":null,"event":null,"entr_locat":null,"indoor_map":0,"email":null,"timestamp":"NaT","website":null,"adcode":0,"postcode":null,"match":0,"business_a":null,"indoor_dat":null,"childtype":"[]","exit_locat":null,"shopid":"[]","navi_poiid":null,"groupbuy_n":0,"isin_regio":"yes","查询关":"地铁站","手机号":0,"gcj02_lng":121.487426,"gcj02_lat":31.228005,"wgs84_loca":"121.4829499058215,31.229987426189158","wgs84_lng":121.4829499,"wgs84_lat":31.22998743,"行业大":"交通设施服务","行业子":"地铁站","__source_file__":"04-交通数据/2-交通设施/地铁数据/开源版本/上海市-地铁站.shp"},"geometry":{"type":"Point","coordinates":[121.4829499,31.22998743]}},{"id":"0","type":"Feature","properties":{"name":"南京东路(地铁站)","pname":"上海市","cityname":"上海市","adname":"黄浦区","address":"10号线;2号线","tel":null,"location":"121.484628,31.238101","id":"BV10039900","tag":null,"pcode":0,"type":"交通设施服务;地铁站;地铁站","photos":"[]","discount_n":0,"gridcode":0.0,"typecode":150500,"shopinfo":2,"poiweight":"[]","citycode":0,"children":null,"alias":null,"event":null,"entr_locat":null,"indoor_map":0,"email":null,"timestamp":"NaT","website":null,"adcode":0,"postcode":null,"match":0,"business_a":null,"indoor_dat":null,"childtype":"[]","exit_locat":null,"shopid":"[]","navi_poiid":null,"groupbuy_n":0,"isin_regio":"yes","查询关":"地铁站","手机号":0,"gcj02_lng":121.484628,"gcj02_lat":31.238101,"wgs84_loca":"121.48014123145792,31.24007059757012","wgs84_lng":121.4801412,"wgs84_lat":31.2400706,"行业大":"交通设施服务","行业子":"地铁站","__source_file__":"04-交通数据/2-交通设施/地铁数据/开源版本/上海市-地铁站.shp"},"geometry":{"type":"Point","coordinates":[121.4801412,31.2400706]}},{"id":"336","type":"Feature","properties":{"name":"天潼路(地铁站)","pname":"上海市","cityname":"上海市","adname":"虹口区","address":"10号线;12号线","tel":null,"location":"121.482321,31.243815","id":"BV10039933","tag":null,"pcode":0,"type":"交通设施服务;地铁站;地铁站","photos":"[]","discount_n":0,"gridcode":0.0,"typecode":150500,"shopinfo":2,"poiweight":"[]","citycode":0,"children":null,"alias":null,"event":null,"entr_locat":null,"indoor_map":0,"email":null,"timestamp":"NaT","website":null,"adcode":0,"postcode":null,"match":0,"business_a":null,"indoor_dat":null,"childtype":"[]","exit_locat":null,"shopid":"[]","navi_poiid":null,"groupbuy_n":0,"isin_regio":"yes","查询关":"地铁站","手机号":0,"gcj02_lng":121.482321,"gcj02_lat":31.243815,"wgs84_loca":"121.4778257440476,31.245775335820603","wgs84_lng":121.4778257,"wgs84_lat":31.24577534,"行业大":"交通设施服务","行业子":"地铁站","__source_file__":"04-交通数据/2-交通设施/地铁数据/开源版本/上海市-地铁站.shp"},"geometry":{"type":"Point","coordinates":[121.4778257,31.24577534]}},{"id":"328","type":"Feature","properties":{"name":"国际客运中心(地铁站)","pname":"上海市","cityname":"上海市","adname":"虹口区","address":"12号线","tel":null,"location":"121.498158,31.250160","id":"BV10039932","tag":null,"pcode":0,"type":"交通设施服务;地铁站;地铁站","photos":"[]","discount_n":0,"gridcode":0.0,"typecode":150500,"shopinfo":2,"poiweight":"[]","citycode":0,"children":null,"alias":null,"event":null,"entr_locat":null,"indoor_map":0,"email":null,"timestamp":"NaT","website":null,"adcode":0,"postcode":null,"match":0,"business_a":null,"indoor_dat":null,"childtype":"[]","exit_locat":null,"shopid":"[]","navi_poiid":null,"groupbuy_n":0,"isin_regio":"yes","查询关":"地铁站","手机号":0,"gcj02_lng":121.498158,"gcj02_lat":31.25016,"wgs84_loca":"121.49371842135345,31.252164366390595","wgs84_lng":121.4937184,"wgs84_lat":31.25216437,"行业大":"交通设施服务","行业子":"地铁站","__source_file__":"04-交通数据/2-交通设施/地铁数据/开源版本/上海市-地铁站.shp"},"geometry":{"type":"Point","coordinates":[121.4937184,31.25216437]}},{"id":"493","type":"Feature","properties":{"name":"四川北路(地铁站)","pname":"上海市","cityname":"上海市","adname":"虹口区","address":"10号线","tel":null,"location":"121.484208,31.252035","id":"BV10039974","tag":null,"pcode":0,"type":"交通设施服务;地铁站;地铁站","photos":"[]","discount_n":0,"gridcode":0.0,"typecode":150500,"shopinfo":2,"poiweight":"[]","citycode":0,"children":null,"alias":null,"event":null,"entr_locat":null,"indoor_map":0,"email":null,"timestamp":"NaT","website":null,"adcode":0,"postcode":null,"match":0,"business_a":null,"indoor_dat":null,"childtype":"[]","exit_locat":null,"shopid":"[]","navi_poiid":null,"groupbuy_n":0,"isin_regio":"yes","查询关":"地铁站","手机号":0,"gcj02_lng":121.484208,"gcj02_lat":31.252035,"wgs84_loca":"121.47971857608128,31.25399712722613","wgs84_lng":121.4797186,"wgs84_lat":31.25399713,"行业大":"交通设施服务","行业子":"地铁站","__source_file__":"04-交通数据/2-交通设施/地铁数据/开源版本/上海市-地铁站.shp"},"geometry":{"type":"Point","coordinates":[121.4797186,31.25399713]}},{"id":"329","type":"Feature","properties":{"name":"海伦路(地铁站)","pname":"上海市","cityname":"上海市","adname":"虹口区","address":"(在建)19号线;10号线;4号线","tel":null,"location":"121.488697,31.259303","id":"BV10039975","tag":null,"pcode":0,"type":"交通设施服务;地铁站;地铁站","photos":"[]","discount_n":0,"gridcode":0.0,"typecode":150500,"shopinfo":2,"poiweight":"[]","citycode":0,"children":null,"alias":null,"event":null,"entr_locat":null,"indoor_map":0,"email":null,"timestamp":"NaT","website":null,"adcode":0,"postcode":null,"match":0,"business_a":null,"indoor_dat":null,"childtype":"[]","exit_locat":null,"shopid":"[]","navi_poiid":null,"groupbuy_n":0,"isin_regio":"yes","查询关":"地铁站","手机号":0,"gcj02_lng":121.488697,"gcj02_lat":31.259303,"wgs84_loca":"121.4842227237244,31.261275096449587","wgs84_lng":121.4842227,"wgs84_lat":31.2612751,"行业大":"交通设施服务","行业子":"地铁站","__source_file__":"04-交通数据/2-交通设施/地铁数据/开源版本/上海市-地铁站.shp"},"geometry":{"type":"Point","coordinates":[121.4842227,31.2612751]}},{"id":"262","type":"Feature","properties":{"name":"甜爱路(地铁站)","pname":"上海市","cityname":"上海市","adname":"虹口区","address":"(在建)19号线","tel":null,"location":"121.483602,31.264415","id":"BV11581682","tag":"[]","pcode":310000,"type":"交通设施服务;地铁站;地铁站","photos":"[]","discount_n":0,"gridcode":4621731822.0,"typecode":150500,"shopinfo":2,"poiweight":"[]","citycode":21,"children":"[]","alias":"[]","event":"[]","entr_locat":"[]","indoor_map":0,"email":"[]","timestamp":"2025-03-12","website":"[]","adcode":310109,"postcode":"[]","match":0,"business_a":"宝山路","indoor_dat":"{'cmsid': [], 'truefloor': [], 'cpid': [], 'floor': []}","childtype":"[]","exit_locat":"[]","shopid":"[]","navi_poiid":"[]","groupbuy_n":0,"isin_regio":"yes","查询关":"地铁站","手机号":0,"gcj02_lng":121.483602,"gcj02_lat":31.264415,"wgs84_loca":"121.47910940993381,31.266369974130907","wgs84_lng":121.4791094,"wgs84_lat":31.26636997,"行业大":"交通设施服务","行业子":"地铁站","__source_file__":"04-交通数据/2-交通设施/地铁数据/开源版本/上海市-地铁站.shp"},"geometry":{"type":"Point","coordinates":[121.4791094,31.26636997]}},{"id":"284","type":"Feature","properties":{"name":"中潭路(地铁站)","pname":"上海市","cityname":"上海市","adname":"普陀区","address":"3号线;4号线","tel":null,"location":"121.441001,31.254568","id":"BV10039991","tag":null,"pcode":0,"type":"交通设施服务;地铁站;地铁站","photos":"[]","discount_n":0,"gridcode":0.0,"typecode":150500,"shopinfo":2,"poiweight":"[]","citycode":0,"children":null,"alias":null,"event":null,"entr_locat":null,"indoor_map":0,"email":null,"timestamp":"NaT","website":null,"adcode":0,"postcode":null,"match":0,"business_a":null,"indoor_dat":null,"childtype":"[]","exit_locat":null,"shopid":"[]","navi_poiid":null,"groupbuy_n":0,"isin_regio":"yes","查询关":"地铁站","手机号":0,"gcj02_lng":121.441001,"gcj02_lat":31.254568,"wgs84_loca":"121.43638747074375,31.256425447966176","wgs84_lng":121.4363875,"wgs84_lat":31.25642545,"行业大":"交通设施服务","行业子":"地铁站","__source_file__":"04-交通数据/2-交通设施/地铁数据/开源版本/上海市-地铁站.shp"},"geometry":{"type":"Point","coordinates":[121.4363875,31.25642545]}},{"id":"383","type":"Feature","properties":{"name":"延长路(地铁站)","pname":"上海市","cityname":"上海市","adname":"静安区","address":"1号线","tel":null,"location":"121.455329,31.271675","id":"BV10039890","tag":null,"pcode":0,"type":"交通设施服务;地铁站;地铁站","photos":"[]","discount_n":0,"gridcode":0.0,"typecode":150500,"shopinfo":2,"poiweight":"[]","citycode":0,"children":null,"alias":null,"event":null,"entr_locat":null,"indoor_map":0,"email":null,"timestamp":"NaT","website":null,"adcode":0,"postcode":null,"match":0,"business_a":null,"indoor_dat":null,"childtype":"[]","exit_locat":null,"shopid":"[]","navi_poiid":null,"groupbuy_n":0,"isin_regio":"yes","查询关":"地铁站","手机号":0,"gcj02_lng":121.455329,"gcj02_lat":31.271675,"wgs84_loca":"121.45074765918909,31.273553230469133","wgs84_lng":121.4507477,"wgs84_lat":31.27355323,"行业大":"交通设施服务","行业子":"地铁站","__source_file__":"04-交通数据/2-交通设施/地铁数据/开源版本/上海市-地铁站.shp"},"geometry":{"type":"Point","coordinates":[121.4507477,31.27355323]}},{"id":"429","type":"Feature","properties":{"name":"中山北路(地铁站)","pname":"上海市","cityname":"上海市","adname":"静安区","address":"1号线","tel":null,"location":"121.459204,31.258891","id":"BV10024692","tag":"[]","pcode":310000,"type":"交通设施服务;地铁站;地铁站","photos":"[{'title': [], 'url': 'https://aos-comment.amap.com/BV10024692/comment/content_media_external_images_media_100002767_1737962318380_91227473.jpg'}, {'title': [], 'url': 'https://aos-comment.amap.com/BV10024692/comment/content_media_external_images_media_1","discount_n":0,"gridcode":4621731602.0,"typecode":150500,"shopinfo":2,"poiweight":"[]","citycode":21,"children":"[]","alias":"[]","event":"[]","entr_locat":"[]","indoor_map":0,"email":"[]","timestamp":"2025-01-25","website":"[]","adcode":310106,"postcode":"[]","match":0,"business_a":"和田","indoor_dat":"{'cmsid': [], 'truefloor': [], 'cpid': [], 'floor': []}","childtype":"[]","exit_locat":"[]","shopid":"[]","navi_poiid":"[]","groupbuy_n":0,"isin_regio":"yes","查询关":"地铁站","手机号":0,"gcj02_lng":121.459204,"gcj02_lat":31.258891,"wgs84_loca":"121.45463434484445,31.260783561308642","wgs84_lng":121.4546343,"wgs84_lat":31.26078356,"行业大":"交通设施服务","行业子":"地铁站","__source_file__":"04-交通数据/2-交通设施/地铁数据/开源版本/上海市-地铁站.shp"},"geometry":{"type":"Point","coordinates":[121.4546343,31.26078356]}},{"id":"267","type":"Feature","properties":{"name":"东宝兴路(地铁站)","pname":"上海市","cityname":"上海市","adname":"虹口区","address":"3号线","tel":null,"location":"121.480202,31.259886","id":"BV10039989","tag":"[]","pcode":310000,"type":"交通设施服务;地铁站;地铁站","photos":"[{'title': [], 'url': 'https://aos-comment.amap.com/BV10039989/comment/F129FD2E_D456_441F_967D_7F548AD997CA_L0_001_1440_1360_1738987775295_87531168.jpg'}, {'title': [], 'url': 'https://aos-comment.amap.com/BV10039989/comment/FE0D5537_FF63_4D6E_81BE_94B17","discount_n":0,"gridcode":4621731801.0,"typecode":150500,"shopinfo":2,"poiweight":"[]","citycode":21,"children":"[]","alias":"[]","event":"[]","entr_locat":"[]","indoor_map":0,"email":"[]","timestamp":"2025-03-29","website":"[]","adcode":310109,"postcode":"[]","match":0,"business_a":"宝山路","indoor_dat":"{'cmsid': [], 'truefloor': [], 'cpid': [], 'floor': []}","childtype":"[]","exit_locat":"[]","shopid":"[]","navi_poiid":"[]","groupbuy_n":0,"isin_regio":"yes","查询关":"地铁站","手机号":0,"gcj02_lng":121.480202,"gcj02_lat":31.259886,"wgs84_loca":"121.47569810281524,31.261833167308048","wgs84_lng":121.4756981,"wgs84_lat":31.26183317,"行业大":"交通设施服务","行业子":"地铁站","__source_file__":"04-交通数据/2-交通设施/地铁数据/开源版本/上海市-地铁站.shp"},"geometry":{"type":"Point","coordinates":[121.4756981,31.26183317]}},{"id":"492","type":"Feature","properties":{"name":"西藏北路(地铁站)","pname":"上海市","cityname":"上海市","adname":"静安区","address":"8号线","tel":null,"location":"121.468818,31.263453","id":"BV10039913","tag":null,"pcode":0,"type":"交通设施服务;地铁站;地铁站","photos":"[]","discount_n":0,"gridcode":0.0,"typecode":150500,"shopinfo":2,"poiweight":"[]","citycode":0,"children":null,"alias":null,"event":null,"entr_locat":null,"indoor_map":0,"email":null,"timestamp":"NaT","website":null,"adcode":0,"postcode":null,"match":0,"business_a":null,"indoor_dat":null,"childtype":"[]","exit_locat":null,"shopid":"[]","navi_poiid":null,"groupbuy_n":0,"isin_regio":"yes","查询关":"地铁站","手机号":0,"gcj02_lng":121.468818,"gcj02_lat":31.263453,"wgs84_loca":"121.46427650544332,31.265367465569916","wgs84_lng":121.4642765,"wgs84_lat":31.26536747,"行业大":"交通设施服务","行业子":"地铁站","__source_file__":"04-交通数据/2-交通设施/地铁数据/开源版本/上海市-地铁站.shp"},"geometry":{"type":"Point","coordinates":[121.4642765,31.26536747]}},{"id":"496","type":"Feature","properties":{"name":"虹口足球场(地铁站)","pname":"上海市","cityname":"上海市","adname":"虹口区","address":"3号线;8号线","tel":null,"location":"121.479154,31.271392","id":"BV10024871","tag":null,"pcode":0,"type":"交通设施服务;地铁站;地铁站","photos":"[]","discount_n":0,"gridcode":0.0,"typecode":150500,"shopinfo":2,"poiweight":"[]","citycode":0,"children":null,"alias":null,"event":null,"entr_locat":null,"indoor_map":0,"email":null,"timestamp":"NaT","website":null,"adcode":0,"postcode":null,"match":0,"business_a":null,"indoor_dat":null,"childtype":"[]","exit_locat":null,"shopid":"[]","navi_poiid":null,"groupbuy_n":0,"isin_regio":"yes","查询关":"地铁站","手机号":0,"gcj02_lng":121.479154,"gcj02_lat":31.271392,"wgs84_loca":"121.47464555486243,31.27333126374638","wgs84_lng":121.4746456,"wgs84_lat":31.27333126,"行业大":"交通设施服务","行业子":"地铁站","__source_file__":"04-交通数据/2-交通设施/地铁数据/开源版本/上海市-地铁站.shp"},"geometry":{"type":"Point","coordinates":[121.4746456,31.27333126]}},{"id":"258","type":"Feature","properties":{"name":"上海外国语大学(地铁站)","pname":"上海市","cityname":"上海市","adname":"虹口区","address":"(在建)19号线","tel":null,"location":"121.481101,31.274864","id":"BV11581689","tag":"[]","pcode":310000,"type":"交通设施服务;地铁站;地铁站","photos":"[]","discount_n":0,"gridcode":4621732821.0,"typecode":150500,"shopinfo":2,"poiweight":"[]","citycode":21,"children":"[]","alias":"[]","event":"[]","entr_locat":"[]","indoor_map":0,"email":"[]","timestamp":"2025-03-12","website":"[]","adcode":310109,"postcode":"[]","match":0,"business_a":"曲阳","indoor_dat":"{'cmsid': [], 'truefloor': [], 'cpid': [], 'floor': []}","childtype":"[]","exit_locat":"[]","shopid":"[]","navi_poiid":"[]","groupbuy_n":0,"isin_regio":"yes","查询关":"地铁站","手机号":0,"gcj02_lng":121.481101,"gcj02_lat":31.274864,"wgs84_loca":"121.47659888951425,31.276807339789755","wgs84_lng":121.4765989,"wgs84_lat":31.27680734,"行业大":"交通设施服务","行业子":"地铁站","__source_file__":"04-交通数据/2-交通设施/地铁数据/开源版本/上海市-地铁站.shp"},"geometry":{"type":"Point","coordinates":[121.4765989,31.27680734]}}],"name":"上海市-地铁站","crs":{"type":"name","properties":{"name":"urn:ogc:def:crs:OGC:1.3:CRS84"}}}