{"type":"FeatureCollection","features":[{"id":"74742","type":"Feature","properties":{"OBJECTID_1":74743,"OBJECTID_2":258625,"OBJECTID":17204507,"Id":17204507,"gridcode":249,"Shape_Leng":0.000879764556998,"Shape_Le_1":106.44219999,"ORIG_OID":74742,"STATUS":0,"Shape_Le_2":0.000664733616988,"Shape_Area":7.08074803317e-09,"__source_file__":"10-AI解译数据/2023.12.19/02-浦东新区/浦东新区_AI解译建筑.shp"},"geometry":{"type":"Polygon","coordinates":[[[121.49619009100002,31.240904628000067],[121.49616793900009,31.24092007400003],[121.49633447267941,31.241094660701258],[121.49631375731104,31.241034274485475],[121.49619009100002,31.240904628000067]]]}},{"id":"73848","type":"Feature","properties":{"OBJECTID_1":73849,"OBJECTID_2":255568,"OBJECTID":16987064,"Id":16987064,"gridcode":249,"Shape_Leng":0.000343322753679,"Shape_Le_1":41.054399997,"ORIG_OID":73848,"STATUS":0,"Shape_Le_2":0.000288003391855,"Shape_Area":4.17418264307e-09,"__source_file__":"10-AI解译数据/2023.12.19/02-浦东新区/浦东新区_AI解译建筑.shp"},"geometry":{"type":"Polygon","coordinates":[[[121.49619617200005,31.241569284000036],[121.49617458600005,31.241608617000054],[121.49626659400008,31.24164552800005],[121.49628548100009,31.241611112000044],[121.49624522800002,31.241594963000068],[121.49624792600002,31.241590047000045],[121.49619617200005,31.241569284000036]]]}},{"id":"73269","type":"Feature","properties":{"OBJECTID_1":73270,"OBJECTID_2":253262,"OBJECTID":16826234,"Id":16826234,"gridcode":249,"Shape_Leng":0.000278949737549,"Shape_Le_1":34.2936000079,"ORIG_OID":73269,"STATUS":0,"Shape_Le_2":0.000240913051879,"Shape_Area":2.75977772767e-09,"__source_file__":"10-AI解译数据/2023.12.19/02-浦东新区/浦东新区_AI解译建筑.shp"},"geometry":{"type":"Polygon","coordinates":[[[121.4958605920001,31.242158381000024],[121.49590092000005,31.242078621000076],[121.49587176800003,31.242067845000065],[121.49583143900009,31.24214760600006],[121.4958605920001,31.242158381000024]]]}},{"id":"73137","type":"Feature","properties":{"OBJECTID_1":73138,"OBJECTID_2":252747,"OBJECTID":16792723,"Id":16792723,"gridcode":249,"Shape_Leng":0.000472068786507,"Shape_Le_1":57.4122000039,"ORIG_OID":73137,"STATUS":0,"Shape_Le_2":0.00035989420881,"Shape_Area":5.17459474969e-09,"__source_file__":"10-AI解译数据/2023.12.19/02-浦东新区/浦东新区_AI解译建筑.shp"},"geometry":{"type":"Polygon","coordinates":[[[121.49580417700008,31.24229951600006],[121.49587475700002,31.242209204000062],[121.49586683500002,31.242204678000064],[121.49587389300007,31.242195647000074],[121.49584748500001,31.242180561000055],[121.4957610240001,31.242291193000028],[121.49578215100007,31.242303262000064],[121.49579097300011,31.24229197300008],[121.49580417700008,31.24229951600006]]]}},{"id":"72997","type":"Feature","properties":{"OBJECTID_1":72998,"OBJECTID_2":252251,"OBJECTID":16758963,"Id":16758963,"gridcode":249,"Shape_Leng":0.000321865081673,"Shape_Le_1":38.6658000052,"ORIG_OID":72997,"STATUS":0,"Shape_Le_2":0.000243335555989,"Shape_Area":2.27680464711e-09,"__source_file__":"10-AI解译数据/2023.12.19/02-浦东新区/浦东新区_AI解译建筑.shp"},"geometry":{"type":"Polygon","coordinates":[[[121.49563909000005,31.242347551000023],[121.4956562110001,31.24236360200007],[121.49573365300012,31.242303221000043],[121.49571653200007,31.242287170000054],[121.49563909000005,31.242347551000023]]]}},{"id":"72933","type":"Feature","properties":{"OBJECTID_1":72934,"OBJECTID_2":252026,"OBJECTID":16742895,"Id":16742895,"gridcode":249,"Shape_Leng":0.00242203259896,"Shape_Le_1":293.400739448,"ORIG_OID":72933,"STATUS":0,"Shape_Le_2":0.00212131602324,"Shape_Area":1.68147443343e-07,"__source_file__":"10-AI解译数据/2023.12.19/02-浦东新区/浦东新区_AI解译建筑.shp"},"geometry":{"type":"Polygon","coordinates":[[[121.49675970500004,31.242689297000027],[121.49684160274067,31.242746402779513],[121.4968159971274,31.242630283801056],[121.49675970500004,31.242689297000027]]]}},{"id":"73334","type":"Feature","properties":{"OBJECTID_1":73335,"OBJECTID_2":253481,"OBJECTID":16839963,"Id":16839963,"gridcode":249,"Shape_Leng":0.00278681302499,"Shape_Le_1":335.627521349,"ORIG_OID":73334,"STATUS":0,"Shape_Le_2":0.00248713355283,"Shape_Area":2.25913628073e-07,"__source_file__":"10-AI解译数据/2023.12.19/02-浦东新区/浦东新区_AI解译建筑.shp"},"geometry":{"type":"Polygon","coordinates":[[[121.49570565800002,31.242523575000064],[121.49569399600011,31.242539758000078],[121.49572644300008,31.242556852000064],[121.49571478000007,31.24257303400003],[121.49575804300002,31.24259582600007],[121.49574638000001,31.242612009000027],[121.49578153100003,31.242630527000074],[121.49576986800002,31.24264671000003],[121.4958077230001,31.24266665300007],[121.49582271800011,31.242645846000073],[121.4958335340001,31.24265154400007],[121.49584519700011,31.242635362000044],[121.4958560120001,31.24264106000004],[121.49587600600012,31.242613318000053],[121.49588952500005,31.242620441000042],[121.49590285400006,31.242601946000036],[121.49594611700002,31.242624738000075],[121.49595444700003,31.242613179000045],[121.49596796700007,31.242620301000045],[121.49600295500011,31.24257175400004],[121.49601647500003,31.24257887600004],[121.49603813400006,31.24254882300005],[121.4960462460001,31.24255309600005],[121.49608623300003,31.24249761300007],[121.49609434500007,31.24250188600007],[121.49612100200011,31.242464898000037],[121.49612911400004,31.24246917100004],[121.49625074000005,31.242300409000052],[121.49624262800012,31.24229613600005],[121.49628594700005,31.242236029000026],[121.4962426840001,31.242213237000044],[121.4962493490001,31.242203990000064],[121.49624123700005,31.242199716000073],[121.49627455900008,31.24215348000007],[121.49626104000004,31.24214635800007],[121.49628603100007,31.24211168100004],[121.49624006400006,31.242087464000065],[121.49623340000005,31.242096711000045],[121.49619284100004,31.242075344000057],[121.49618451100002,31.24208690300003],[121.49613854400002,31.242062687000043],[121.49612854700001,31.242076557000075],[121.49608798800011,31.24205519000003],[121.4960813240001,31.242064437000067],[121.49604076500009,31.24204307000008],[121.49603243500007,31.24205462900005],[121.49598917200001,31.24203183700007],[121.49598084100012,31.242043396000042],[121.49594298600005,31.24202345300006],[121.49593132300004,31.242039636000072],[121.49594213900002,31.242045334000068],[121.49592048000011,31.242075387000057],[121.4959312950001,31.242081085000052],[121.49589963900007,31.242125010000052],[121.49590504700006,31.24212785900005],[121.49587505700003,31.242169471000068],[121.49591561600005,31.242190839000045],[121.49583897500008,31.242297182000073],[121.49583086300004,31.242292908000024],[121.49579587500011,31.242341456000077],[121.49574450000011,31.242314391000036],[121.49570951200008,31.24236293900003],[121.49569599300003,31.242355816000043],[121.49567433300001,31.242385870000078],[121.49566081300009,31.242378747000032],[121.49564915100007,31.242394930000046],[121.49564103900002,31.242390656000055],[121.49561604700011,31.24242533300003],[121.49563767900008,31.242436729000076],[121.49563434600009,31.24244135300006],[121.495653274,31.242451324000058],[121.49564161100011,31.24246750700007],[121.49568487400006,31.242490299000053],[121.49567321100005,31.242506481000078],[121.49570565800002,31.242523575000064]]]}},{"id":"71660","type":"Feature","properties":{"OBJECTID_1":71661,"OBJECTID_2":247044,"OBJECTID":16438999,"Id":16438999,"gridcode":249,"Shape_Leng":0.00108899209857,"Shape_Le_1":130.711487059,"ORIG_OID":71660,"STATUS":0,"Shape_Le_2":0.000914449676619,"Shape_Area":3.08574060148e-08,"__source_file__":"10-AI解译数据/2023.12.19/02-浦东新区/浦东新区_AI解译建筑.shp"},"geometry":{"type":"Polygon","coordinates":[[[121.49649817500006,31.243374032000077],[121.49651150400007,31.24335553800006],[121.49648716800004,31.243342717000075],[121.49647717200003,31.24335658800004],[121.49640146200011,31.243316703000062],[121.49640646000012,31.243309767000028],[121.49638482900002,31.243298372000027],[121.496369834,31.243319178000036],[121.49635361000003,31.243310631000043],[121.49634861200002,31.24331756600003],[121.49630534900007,31.24329477400005],[121.49624037100011,31.243384934000062],[121.49631067300004,31.243421970000043],[121.49632400200005,31.243403476000026],[121.49644838200004,31.24346900200004],[121.49643505400002,31.243487496000057],[121.49646479700004,31.24350316500005],[121.49647979200006,31.24348235900004],[121.49649601500005,31.243490906000034],[121.4965459980001,31.243421553000076],[121.49649732800003,31.24339591200004],[121.49650899100004,31.243379730000072],[121.49649817500006,31.243374032000077]]]}},{"id":"71205","type":"Feature","properties":{"OBJECTID_1":71206,"OBJECTID_2":245334,"OBJECTID":16328687,"Id":16328687,"gridcode":249,"Shape_Leng":0.000472068786621,"Shape_Le_1":56.60239999,"ORIG_OID":71205,"STATUS":0,"Shape_Le_2":0.000338398629092,"Shape_Area":6.05417103166e-09,"__source_file__":"10-AI解译数据/2023.12.19/02-浦东新区/浦东新区_AI解译建筑.shp"},"geometry":{"type":"Polygon","coordinates":[[[121.49664093000001,31.243756850000068],[121.49667787100009,31.24371954800006],[121.49658333900004,31.24365111700007],[121.49654639800008,31.24368842000007],[121.49664093000001,31.243756850000068]]]}},{"id":"71182","type":"Feature","properties":{"OBJECTID_1":71183,"OBJECTID_2":245241,"OBJECTID":16321943,"Id":16321943,"gridcode":249,"Shape_Leng":0.00102996826206,"Shape_Le_1":123.569999993,"ORIG_OID":71182,"STATUS":0,"Shape_Le_2":0.000775726672948,"Shape_Area":1.83349991789e-08,"__source_file__":"10-AI解译数据/2023.12.19/02-浦东新区/浦东新区_AI解译建筑.shp"},"geometry":{"type":"Polygon","coordinates":[[[121.495859085,31.243811958000038],[121.49581966500011,31.243776559000025],[121.49593007600004,31.243686684000068],[121.49590598600003,31.24366505200004],[121.49581397700001,31.24373994700005],[121.4958117870001,31.24373798000005],[121.49567147300002,31.243852195000045],[121.49573717300007,31.243911194000077],[121.495859085,31.243811958000038]]]}},{"id":"71024","type":"Feature","properties":{"OBJECTID_1":71025,"OBJECTID_2":244603,"OBJECTID":16278013,"Id":16278013,"gridcode":249,"Shape_Leng":0.00167101407479,"Shape_Le_1":200.074880987,"ORIG_OID":71024,"STATUS":0,"Shape_Le_2":0.00145005523381,"Shape_Area":6.40171175494e-08,"__source_file__":"10-AI解译数据/2023.12.19/02-浦东新区/浦东新区_AI解译建筑.shp"},"geometry":{"type":"Polygon","coordinates":[[[121.49675245000003,31.244089408000036],[121.49674842000002,31.244093606000035],[121.49680979700008,31.244136672000025],[121.49681181200003,31.244134573000053],[121.49682654300011,31.244144909000056],[121.49683460200004,31.244136513000058],[121.49686651900004,31.244158907000042],[121.49687860800009,31.244146313000044],[121.49689579300002,31.244158371000026],[121.49690788200007,31.24414577700003],[121.49692261300004,31.24415611300003],[121.49693268700003,31.24414561800006],[121.49694987300006,31.244157676000043],[121.49695994700005,31.244147181000073],[121.49697467800002,31.244157517000076],[121.4969948260001,31.244136526000034],[121.49700955700007,31.244146862000036],[121.49702970500005,31.24412587200004],[121.4970395260001,31.24413276200005],[121.49710601600009,31.244063494000045],[121.49706918900006,31.244037655000056],[121.4970389670001,31.24406914000008],[121.49676154000008,31.24387448400006],[121.49681997100004,31.243813612000054],[121.49680524000007,31.24380327600005],[121.4967850920001,31.243824266000047],[121.49678018200007,31.243820821000043],[121.4967036170001,31.243900584000073],[121.49671343800003,31.24390747500007],[121.49668926000004,31.243932663000066],[121.49670399000001,31.24394299900007],[121.49668988600001,31.243957692000038],[121.49670461700009,31.24396802800004],[121.49669051300009,31.243982721000066],[121.49670524300006,31.24399305700007],[121.4966891250001,31.244009849000065],[121.49671367600001,31.244027075000076],[121.49670360100004,31.244037570000046],[121.49672324200003,31.244051351000053],[121.49671316800004,31.24406184600008],[121.49675245000003,31.244089408000036]]]}},{"id":"71399","type":"Feature","properties":{"OBJECTID_1":71400,"OBJECTID_2":246077,"OBJECTID":16375739,"Id":16375739,"gridcode":249,"Shape_Leng":0.0022745132444,"Shape_Le_1":273.457599998,"ORIG_OID":71399,"STATUS":0,"Shape_Le_2":0.00174104725163,"Shape_Area":1.52518644663e-07,"__source_file__":"10-AI解译数据/2023.12.19/02-浦东新区/浦东新区_AI解译建筑.shp"},"geometry":{"type":"Polygon","coordinates":[[[121.49692805300003,31.24374698400004],[121.49691808600005,31.24374024900004],[121.49679598800003,31.24387233300007],[121.49691559300004,31.243953151000028],[121.49691362400006,31.24395528100007],[121.497038212,31.24403946600006],[121.49710968822708,31.243962144518655],[121.49703405834839,31.243619170337265],[121.49701313500009,31.24364180500004],[121.49702808600011,31.24365190700007],[121.49696309900003,31.243722210000044],[121.49696808200008,31.243725577000077],[121.49694642000009,31.243749012000023],[121.49693396100008,31.24374059300004],[121.49692805300003,31.24374698400004]]]}},{"id":"70185","type":"Feature","properties":{"OBJECTID_1":70186,"OBJECTID_2":240998,"OBJECTID":16053486,"Id":16053486,"gridcode":249,"Shape_Leng":0.000772476196516,"Shape_Le_1":92.0700000077,"ORIG_OID":70185,"STATUS":0,"Shape_Le_2":0.000567646104764,"Shape_Area":1.53681391766e-08,"__source_file__":"10-AI解译数据/2023.12.19/02-浦东新区/浦东新区_AI解译建筑.shp"},"geometry":{"type":"Polygon","coordinates":[[[121.49718233100009,31.244665816000065],[121.49701318300004,31.244564629000024],[121.49698040900012,31.24460467600005],[121.49697260200003,31.24460000600004],[121.49695621500007,31.24462003000008],[121.49713316900011,31.244725886000026],[121.49718233100009,31.244665816000065]]]}},{"id":"81229","type":"Feature","properties":{"OBJECTID_1":81230,"OBJECTID_2":282131,"OBJECTID":18744408,"Id":18744408,"gridcode":249,"Shape_Leng":0.00105142593418,"Shape_Le_1":126.358599991,"ORIG_OID":81229,"STATUS":0,"Shape_Le_2":0.000792008350229,"Shape_Area":2.30371270424e-08,"__source_file__":"10-AI解译数据/2023.12.19/02-浦东新区/浦东新区_AI解译建筑.shp"},"geometry":{"type":"Polygon","coordinates":[[[121.49407268900006,31.236220726000056],[121.49408033235905,31.236227761176025],[121.49407492369708,31.23621895099807],[121.49407268900006,31.236220726000056]]]}},{"id":"80592","type":"Feature","properties":{"OBJECTID_1":80593,"OBJECTID_2":279835,"OBJECTID":18599875,"Id":18599875,"gridcode":249,"Shape_Leng":0.000643730164029,"Shape_Le_1":77.3295999914,"ORIG_OID":80592,"STATUS":0,"Shape_Le_2":0.000490496180128,"Shape_Area":8.03841114516e-09,"__source_file__":"10-AI解译数据/2023.12.19/02-浦东新区/浦东新区_AI解译建筑.shp"},"geometry":{"type":"Polygon","coordinates":[[[121.49409864100005,31.23652914400003],[121.49394592700003,31.236659719000045],[121.49397961400007,31.236688523000055],[121.4940829200001,31.236600193000072],[121.49407393700005,31.236592512000072],[121.49412334400006,31.23655026700004],[121.49409864100005,31.23652914400003]]]}},{"id":"80483","type":"Feature","properties":{"OBJECTID_1":80484,"OBJECTID_2":279399,"OBJECTID":18574738,"Id":18574738,"gridcode":249,"Shape_Leng":0.000834174622219,"Shape_Le_1":100.637887969,"ORIG_OID":80483,"STATUS":0,"Shape_Le_2":0.00064378173091,"Shape_Area":1.61111173522e-08,"__source_file__":"10-AI解译数据/2023.12.19/02-浦东新区/浦东新区_AI解译建筑.shp"},"geometry":{"type":"Polygon","coordinates":[[[121.49320645800003,31.23667055900006],[121.4932155240001,31.236678169000072],[121.49316434800005,31.236722739000072],[121.49316661500006,31.236724641000023],[121.49312211400002,31.23676339700006],[121.49315157700005,31.236788129000047],[121.49314267700004,31.236795881000035],[121.49315854100007,31.23680919800006],[121.49324976700007,31.236729748000073],[121.49326789800011,31.23674496700005],[121.49333909900008,31.236682957000028],[121.4933028370001,31.236652518000028],[121.49330951200011,31.236646704000066],[121.4932709840001,31.236614363000058],[121.49320645800003,31.23667055900006]]]}},{"id":"80316","type":"Feature","properties":{"OBJECTID_1":80317,"OBJECTID_2":278793,"OBJECTID":18534625,"Id":18534625,"gridcode":249,"Shape_Leng":0.00038623809769,"Shape_Le_1":46.6405999959,"ORIG_OID":80316,"STATUS":0,"Shape_Le_2":0.000282111883896,"Shape_Area":3.51025511966e-09,"__source_file__":"10-AI解译数据/2023.12.19/02-浦东新区/浦东新区_AI解译建筑.shp"},"geometry":{"type":"Polygon","coordinates":[[[121.49319607000007,31.23685266900003],[121.49327364200008,31.23677719400007],[121.4932473990001,31.236757476000037],[121.49316982700009,31.236832951000054],[121.49319607000007,31.23685266900003]]]}},{"id":"80243","type":"Feature","properties":{"OBJECTID_1":80244,"OBJECTID_2":278503,"OBJECTID":18515969,"Id":18515969,"gridcode":249,"Shape_Leng":0.00015020370472,"Shape_Le_1":18.3405999988,"ORIG_OID":80243,"STATUS":0,"Shape_Le_2":0.000129021207961,"Shape_Area":1.00909632161e-09,"__source_file__":"10-AI解译数据/2023.12.19/02-浦东新区/浦东新区_AI解译建筑.shp"},"geometry":{"type":"Polygon","coordinates":[[[121.49311765300001,31.23685793900006],[121.4931423050001,31.23687031000003],[121.4931632040001,31.236839864000046],[121.49313855200012,31.236827493000078],[121.49311765300001,31.23685793900006]]]}},{"id":"80074","type":"Feature","properties":{"OBJECTID_1":80075,"OBJECTID_2":277796,"OBJECTID":18473835,"Id":18473835,"gridcode":249,"Shape_Leng":0.000708103179932,"Shape_Le_1":84.9008000046,"ORIG_OID":80074,"STATUS":0,"Shape_Le_2":0.000531954853126,"Shape_Area":1.69046647257e-08,"__source_file__":"10-AI解译数据/2023.12.19/02-浦东新区/浦东新区_AI解译建筑.shp"},"geometry":{"type":"Polygon","coordinates":[[[121.49311828000009,31.237040774000036],[121.49300853700004,31.23695831400005],[121.49291628900005,31.237048068000036],[121.49302126100008,31.237126943000078],[121.49308835000011,31.237061667000035],[121.49309312200012,31.237065252000036],[121.49311828000009,31.237040774000036]]]}},{"id":"79824","type":"Feature","properties":{"OBJECTID_1":79825,"OBJECTID_2":276977,"OBJECTID":18420097,"Id":18420097,"gridcode":249,"Shape_Leng":0.00126332806421,"Shape_Le_1":150.841087977,"ORIG_OID":79824,"STATUS":0,"Shape_Le_2":0.00106910582427,"Shape_Area":2.17776398483e-08,"__source_file__":"10-AI解译数据/2023.12.19/02-浦东新区/浦东新区_AI解译建筑.shp"},"geometry":{"type":"Polygon","coordinates":[[[121.49277820200007,31.23714212400006],[121.4927622890001,31.237128848000054],[121.49273123700004,31.23715605900003],[121.49274487600007,31.23716743800003],[121.49272491300007,31.23718493100006],[121.49273173300003,31.237190620000035],[121.49270289800006,31.237215887000048],[121.49271199100008,31.23722347300003],[121.49262548600007,31.237299275000055],[121.49261639300005,31.237291689000074],[121.49257868600012,31.237324731000058],[121.49256277400002,31.237311455000054],[121.49252950300001,31.237340609000057],[121.4925454160001,31.23735388500006],[121.49255650600003,31.23734416700006],[121.49256787200011,31.237353649000056],[121.49259005200008,31.237334213000054],[121.49260141800005,31.23734369600004],[121.49263690700002,31.237312598000074],[121.49264600000004,31.237320184000055],[121.4927302860001,31.237246326000047],[121.49278029600009,31.23728804900003],[121.49285571000007,31.23722196500006],[121.49288071500007,31.237242827000046],[121.49290067800007,31.237225334000073],[121.49281657000006,31.237155163000068],[121.4928210060001,31.237151276000077],[121.49279372800004,31.237128518000077],[121.49277820200007,31.23714212400006]]]}},{"id":"79744","type":"Feature","properties":{"OBJECTID_1":79745,"OBJECTID_2":276708,"OBJECTID":18403910,"Id":18403910,"gridcode":249,"Shape_Leng":0.000407695770491,"Shape_Le_1":52.6746000051,"ORIG_OID":79744,"STATUS":0,"Shape_Le_2":0.000416452000081,"Shape_Area":2.48391149363e-09,"__source_file__":"10-AI解译数据/2023.12.19/02-浦东新区/浦东新区_AI解译建筑.shp"},"geometry":{"type":"Polygon","coordinates":[[[121.4938555110001,31.237187376000065],[121.49384280700008,31.237187376000065],[121.49384280700008,31.237382898000078],[121.4938555110001,31.237382898000078],[121.4938555110001,31.237187376000065]]]}},{"id":"79447","type":"Feature","properties":{"OBJECTID_1":79448,"OBJECTID_2":275553,"OBJECTID":18336223,"Id":18336223,"gridcode":249,"Shape_Leng":0.000834164861694,"Shape_Le_1":100.025397895,"ORIG_OID":79447,"STATUS":0,"Shape_Le_2":0.00064206544269,"Shape_Area":1.63008077296e-08,"__source_file__":"10-AI解译数据/2023.12.19/02-浦东新区/浦东新区_AI解译建筑.shp"},"geometry":{"type":"Polygon","coordinates":[[[121.4923040870001,31.237569541000028],[121.49234892300001,31.237604073000057],[121.49242119600001,31.237535472000047],[121.49239759800003,31.237517297000068],[121.49247837300004,31.237440624000044],[121.49245477400007,31.237422449000064],[121.49244839700009,31.237428502000057],[121.4924247990001,31.237410328000067],[121.49233764700011,31.237493053000037],[121.49233056800006,31.237487601000055],[121.49226254700011,31.237552167000047],[121.49229558400009,31.237577612000052],[121.4923040870001,31.237569541000028]]]}},{"id":"79220","type":"Feature","properties":{"OBJECTID_1":79221,"OBJECTID_2":274716,"OBJECTID":18281646,"Id":18281646,"gridcode":249,"Shape_Leng":0.000686645507358,"Shape_Le_1":82.9173999876,"ORIG_OID":79220,"STATUS":0,"Shape_Le_2":0.000528612613747,"Shape_Area":1.02892645105e-08,"__source_file__":"10-AI解译数据/2023.12.19/02-浦东新区/浦东新区_AI解译建筑.shp"},"geometry":{"type":"Polygon","coordinates":[[[121.49182052700007,31.237633962000075],[121.49178963100007,31.237664969000036],[121.49179930200012,31.237672013000065],[121.49172515300006,31.237746429000026],[121.49176141700002,31.237772845000052],[121.49189941600002,31.237634349000075],[121.49184381100008,31.23759384400006],[121.49181085600003,31.237626918000046],[121.49182052700007,31.237633962000075]]]}},{"id":"78576","type":"Feature","properties":{"OBJECTID_1":78577,"OBJECTID_2":272478,"OBJECTID":18132944,"Id":18132944,"gridcode":249,"Shape_Leng":0.000965595245361,"Shape_Le_1":113.565200001,"ORIG_OID":78576,"STATUS":0,"Shape_Le_2":0.000757450555492,"Shape_Area":9.93568085069e-09,"__source_file__":"10-AI解译数据/2023.12.19/02-浦东新区/浦东新区_AI解译建筑.shp"},"geometry":{"type":"Polygon","coordinates":[[[121.49265558700006,31.23813876500003],[121.49266143700004,31.238129124000068],[121.49293489600007,31.238250434000065],[121.4929495230001,31.238226330000032],[121.4926394150001,31.23808876100003],[121.49261893700009,31.23812250700007],[121.49265558700006,31.23813876500003]]]}},{"id":"79745","type":"Feature","properties":{"OBJECTID_1":79746,"OBJECTID_2":276709,"OBJECTID":18403922,"Id":18403922,"gridcode":249,"Shape_Leng":0.000901222228663,"Shape_Le_1":109.63880001,"ORIG_OID":79745,"STATUS":0,"Shape_Le_2":0.000773379832919,"Shape_Area":2.48996088606e-08,"__source_file__":"10-AI解译数据/2023.12.19/02-浦东新区/浦东新区_AI解译建筑.shp"},"geometry":{"type":"Polygon","coordinates":[[[121.49434890300006,31.23722801300005],[121.49433612200005,31.237252872000056],[121.49433030700004,31.237250687000028],[121.49427790300001,31.237352612000052],[121.49428953300003,31.23735698300004],[121.49427803000003,31.237379357000066],[121.49428966000005,31.237383728000054],[121.49427560000004,31.23741107400008],[121.49430176700002,31.237420910000026],[121.49430815800008,31.237408480000056],[121.49436340000011,31.237429244000054],[121.49442091700007,31.237317375000032],[121.49442963900003,31.23732065300004],[121.494475652,31.237231158000043],[121.4944320400001,31.237214765000033],[121.4944435430001,31.237192392000054],[121.49442609800008,31.237185835000048],[121.49441843000011,31.237200750000056],[121.49440680000009,31.237196379000068],[121.49439785300001,31.237213781000037],[121.4943804080001,31.23720722400003],[121.49436634800009,31.237234570000055],[121.49434890300006,31.23722801300005]]]}},{"id":"79840","type":"Feature","properties":{"OBJECTID_1":79841,"OBJECTID_2":277032,"OBJECTID":18423465,"Id":18423465,"gridcode":249,"Shape_Leng":0.00376850700275,"Shape_Le_1":453.77008042,"ORIG_OID":79840,"STATUS":0,"Shape_Le_2":0.00285912569504,"Shape_Area":2.98390417796e-07,"__source_file__":"10-AI解译数据/2023.12.19/02-浦东新区/浦东新区_AI解译建筑.shp"},"geometry":{"type":"Polygon","coordinates":[[[121.49444594300007,31.23788726400005],[121.49442624000005,31.23787845800007],[121.4944203550001,31.237888085000066],[121.49457516200005,31.23795727600003],[121.49463990000004,31.237851385000056],[121.4947130810001,31.237884094000037],[121.4948116600001,31.237722851000058],[121.49480603000006,31.237720335000063],[121.4948714319147,31.237613359406172],[121.49467160045832,31.237190878711193],[121.49464613846592,31.237149403631815],[121.49459269500005,31.237125517000038],[121.49455738400002,31.237183275000064],[121.49449264600003,31.237154341000064],[121.49446174900004,31.237204880000036],[121.49450959800004,31.23722626600005],[121.49436982200007,31.237454894000052],[121.49432197300007,31.237433508000038],[121.49429548900002,31.237476827000023],[121.4945009590001,31.237568662000058],[121.49449948800009,31.23757106900007],[121.49459518700007,31.23761384200003],[121.49457753100012,31.237642721000043],[121.4945916040001,31.23764901100003],[121.49444594300007,31.23788726400005]]]}},{"id":"79406","type":"Feature","properties":{"OBJECTID_1":79407,"OBJECTID_2":275404,"OBJECTID":18326912,"Id":18326912,"gridcode":249,"Shape_Leng":0.00201433682839,"Shape_Le_1":240.312321394,"ORIG_OID":79406,"STATUS":0,"Shape_Le_2":0.00155244455526,"Shape_Area":1.40022730828e-07,"__source_file__":"10-AI解译数据/2023.12.19/02-浦东新区/浦东新区_AI解译建筑.shp"},"geometry":{"type":"Polygon","coordinates":[[[121.49416990600002,31.237442266000073],[121.49415194000005,31.23747100500003],[121.49413513400009,31.237463324000032],[121.49400787500008,31.23766689300004],[121.4940218800001,31.237673294000047],[121.4940054110001,31.237699638000038],[121.49440315400011,31.23788141400007],[121.49442261700005,31.237850280000032],[121.49443942300002,31.237857960000042],[121.49456368800008,31.237659182000073],[121.49454408100007,31.237650221000024],[121.49456204700004,31.237621482000065],[121.49416990600002,31.237442266000073]]]}},{"id":"79001","type":"Feature","properties":{"OBJECTID_1":79002,"OBJECTID_2":273970,"OBJECTID":18230427,"Id":18230427,"gridcode":249,"Shape_Leng":0.00347078394293,"Shape_Le_1":413.867217525,"ORIG_OID":79001,"STATUS":0,"Shape_Le_2":0.00280866023358,"Shape_Area":2.20869923959e-07,"__source_file__":"10-AI解译数据/2023.12.19/02-浦东新区/浦东新区_AI解译建筑.shp"},"geometry":{"type":"MultiPolygon","coordinates":[[[[121.49504711200007,31.23804545400003],[121.49500668900009,31.238110117000076],[121.49513389352013,31.238168251831382],[121.49497781497644,31.237838272894095],[121.49481313600006,31.237763012000073],[121.4947607360001,31.237846834000038],[121.49483076100012,31.23787883700004],[121.4947484160001,31.238010557000052],[121.49476242100002,31.23801695700007],[121.49475044400003,31.238036117000036],[121.4948988970001,31.23810396300007],[121.49496028100009,31.238005771000076],[121.49504711200007,31.23804545400003]]],[[[121.49513978400012,31.238214052000046],[121.49515990662347,31.238223248347836],[121.49514876298227,31.238199688627237],[121.49513978400012,31.238214052000046]]]]}},{"id":"78820","type":"Feature","properties":{"OBJECTID_1":78821,"OBJECTID_2":273324,"OBJECTID":18188455,"Id":18188455,"gridcode":249,"Shape_Leng":0.00848383592782,"Shape_Le_1":1011.85469314,"ORIG_OID":78820,"STATUS":0,"Shape_Le_2":0.00823274421712,"Shape_Area":1.90065382356e-06,"__source_file__":"10-AI解译数据/2023.12.19/02-浦东新区/浦东新区_AI解译建筑.shp"},"geometry":{"type":"Polygon","coordinates":[[[121.49370831600004,31.238632661000054],[121.49370755600012,31.238667957000075],[121.4937329600001,31.23866835700005],[121.49373214100001,31.238706368000067],[121.49377024700004,31.23870696800003],[121.49376907800001,31.238761270000055],[121.49379448200011,31.23876167000003],[121.49379383900009,31.238791536000065],[121.49390180500006,31.23879323500006],[121.49390244800009,31.238763369000026],[121.49404852100008,31.238765668000042],[121.49404887200001,31.23874937800008],[121.4940996790001,31.238750178000032],[121.49410014700004,31.238728457000036],[121.49415730600003,31.238729357000068],[121.49415660400007,31.23876193800004],[121.49418200800005,31.238762338000072],[121.49418136500003,31.23879220300006],[121.49421312000004,31.23879270300006],[121.49421183400011,31.23885243500007],[121.49419278100004,31.23885213500006],[121.49419184600004,31.23889557600006],[121.49416961700001,31.238895227000057],[121.49416891600004,31.238927808000028],[121.49414986300008,31.238927508000074],[121.4941486350001,31.238984524000045],[121.49420261800003,31.238985374000038],[121.49420203400007,31.239012525000078],[121.49425284100005,31.23901332500003],[121.49425254900007,31.239026900000056],[121.49429383000006,31.23902755000006],[121.49429336300011,31.239049270000066],[121.4943505220001,31.23905017000004],[121.49435005400005,31.239071891000037],[121.49439451100011,31.239072590000035],[121.49439404300006,31.23909431100003],[121.49444485100003,31.23909511100004],[121.49444444200003,31.239114116000053],[121.4944888980001,31.23911481600004],[121.49448843100004,31.239136537000036],[121.49455194000006,31.239137536000044],[121.49455223300004,31.239123961000075],[121.49461574200006,31.239124961000073],[121.49461533300007,31.23914396600003],[121.49465661500005,31.239144616000033],[121.49465521100001,31.23920977800003],[121.49471237000012,31.239210677000074],[121.49471190300005,31.23923239800007],[121.49475635900001,31.239233098000057],[121.49475595000001,31.23925210300007],[121.494797231,31.239252753000073],[121.49479676400006,31.23927447400007],[121.49485392300005,31.239275373000055],[121.49485345500011,31.23929709400005],[121.49490743800004,31.239297944000043],[121.49490702900005,31.239316949000056],[121.49494831000004,31.23931759900006],[121.49494784300009,31.239339319000067],[121.49500182600002,31.23934016900006],[121.49500141700003,31.23935917500006],[121.49508715500008,31.239360524000062],[121.49508680400004,31.239376814000025],[121.49512173400001,31.239377364000063],[121.49512138300008,31.23939365500007],[121.49516266500007,31.239394305000076],[121.49516225600007,31.23941331000003],[121.49521623900011,31.239414160000024],[121.49521577100006,31.23943588000003],[121.495260228,31.239436580000074],[121.49525981900001,31.23945558500003],[121.4953106270001,31.23945638500004],[121.49531015900004,31.239478106000035],[121.49536731800004,31.239479005000078],[121.4953668500001,31.239500726000074],[121.49541130700004,31.23950142600006],[121.49541089800005,31.239520431000074],[121.49546170500003,31.239521231000026],[121.49546123800008,31.239542951000033],[121.49554697600001,31.239544301000024],[121.49554738500001,31.239525295000078],[121.49557596400007,31.239525745000037],[121.49557637400005,31.239506740000024],[121.49559860200009,31.239507090000075],[121.4955991280001,31.239482654000028],[121.49557372400011,31.239482254000052],[121.49557454300009,31.239444243000037],[121.49560947300006,31.239444793000075],[121.49561011600008,31.23941492800003],[121.49566092400005,31.23941572700005],[121.49566162500003,31.23938314700007],[121.49570888496791,31.23938389020414],[121.49536072112134,31.23864780737451],[121.49534392500004,31.23864754300007],[121.49534465093161,31.238613832018245],[121.49530247768291,31.23852466996264],[121.49530209900001,31.238524664000067],[121.49530211537544,31.238523903977573],[121.49529212314731,31.238502778557372],[121.49524858300003,31.23850209300008],[121.49524899300002,31.238483088000066],[121.49520771100003,31.238482438000062],[121.49520806200007,31.238466147000054],[121.4951731320001,31.23846559800006],[121.49517348300003,31.238449307000053],[121.49512902600009,31.238448607000066],[121.49512949300004,31.23842688600007],[121.49507868600006,31.23842608700005],[121.49507909500005,31.238407081000048],[121.4950346380001,31.23840638100006],[121.49503510600005,31.238384661000055],[121.49498112200001,31.238383811000062],[121.49498153200011,31.23836480500006],[121.49494025000001,31.238364155000056],[121.49494071800007,31.23834243500005],[121.49488355900007,31.238341535000075],[121.49488402700001,31.23831981400008],[121.49483004400008,31.23831896400003],[121.49483045300008,31.238299959000074],[121.49478917200008,31.23829930900007],[121.49478963900003,31.238277588000074],[121.4947356560001,31.238276738000025],[121.4947360650001,31.23825773300007],[121.49469160800004,31.238257033000025],[121.49469207600009,31.23823531200003],[121.49463809300005,31.238234462000037],[121.4946385610001,31.23821274200003],[121.49459410400004,31.238212042000043],[121.49459451300004,31.23819303600004],[121.49454053000011,31.23819218600005],[121.49454099700006,31.238170466000042],[121.49448701400001,31.23816961600005],[121.49448742300001,31.238150610000048],[121.49444614200002,31.238149960000044],[121.49444661000007,31.238128239000048],[121.49438945100007,31.238127340000062],[121.49438991900001,31.238105619000066],[121.49434863700003,31.238104969000062],[121.49434904700001,31.23808596300006],[121.4942950630001,31.238085114000057],[121.49429553100003,31.23806339300006],[121.49423837200004,31.23806249300003],[121.4942388400001,31.238040772000033],[121.4941975590001,31.23804012200003],[121.4941979680001,31.238021117000073],[121.49414398500005,31.238020267000024],[121.49414445200011,31.23799854600003],[121.49409999500006,31.23799784600004],[121.49410040500004,31.23797884100003],[121.49404959700007,31.237978041000076],[121.49405006500001,31.237956320000023],[121.49400560800007,31.237955620000037],[121.49400601700006,31.237936614000034],[121.49395520900009,31.23793581500007],[121.49395567700003,31.237914094000075],[121.49389216700001,31.237913094000078],[121.49389117300007,31.237959251000063],[121.49387529600006,31.237959001000036],[121.49387465300003,31.23798886700007],[121.49384924900005,31.237988467000037],[121.49384819700003,31.238037339000073],[121.49382596800001,31.23803698900008],[121.49382526700003,31.23806957100004],[121.49380621400007,31.23806927100003],[121.49380522000001,31.238115427000025],[121.49377664100007,31.238114978000056],[121.49377558800006,31.238163849000046],[121.49375336000003,31.23816350000004],[121.49375254100005,31.238201511000057],[121.49372713800005,31.238201111000024],[121.49372620200006,31.238244553000072],[121.4937071490001,31.23824425300006],[121.49370656500002,31.238271404000045],[121.49369068700003,31.238271154000074],[121.49368986900004,31.238309165000032],[121.49373750100006,31.23830991500006],[121.49373703300012,31.238331636000055],[121.49377513900004,31.238332236000076],[121.49377461300003,31.238356671000076],[121.49375873600002,31.23835642100005],[121.49375844300005,31.238369997000063],[121.4937298640001,31.238369547000048],[121.49372910400007,31.23840484300007],[121.49370687600003,31.238404493000075],[121.49370623300001,31.238434359000053],[121.49368718000005,31.23843406000003],[121.49368653700003,31.238463926000065],[121.49367065900003,31.238463676000038],[121.49366785300003,31.238594000000035],[121.49368373000004,31.238594250000062],[121.49368291200005,31.238632261000078],[121.49370831600004,31.238632661000054]]]}},{"id":"76306","type":"Feature","properties":{"OBJECTID_1":76307,"OBJECTID_2":264110,"OBJECTID":17575456,"Id":17575456,"gridcode":249,"Shape_Leng":0.00167369842529,"Shape_Le_1":200.493200034,"ORIG_OID":76306,"STATUS":0,"Shape_Le_2":0.0013230754652,"Shape_Area":7.89144420502e-08,"__source_file__":"10-AI解译数据/2023.12.19/02-浦东新区/浦东新区_AI解译建筑.shp"},"geometry":{"type":"Polygon","coordinates":[[[121.49411987000008,31.23981165300006],[121.49410662800005,31.23983331200003],[121.49406159300008,31.23981318400007],[121.49396007200005,31.239979236000067],[121.49407547300007,31.240030813000033],[121.49406223100004,31.24005247200006],[121.49418044700008,31.240105308000068],[121.4941936890001,31.24008364900004],[121.49430909000012,31.240135226000064],[121.49440914000002,31.239971581000077],[121.49436410600003,31.23995145300006],[121.49437587600005,31.239932201000045],[121.49435617400002,31.239923395000062],[121.49436205900008,31.239913769000054],[121.49433672700002,31.239902447000077],[121.49431907100006,31.239931325000043],[121.49415019100002,31.23985584600007],[121.49416490400006,31.239831781000078],[121.49411987000008,31.23981165300006]]]}},{"id":"78288","type":"Feature","properties":{"OBJECTID_1":78289,"OBJECTID_2":271494,"OBJECTID":18063450,"Id":18063450,"gridcode":249,"Shape_Leng":0.000708103179932,"Shape_Le_1":86.1162,"ORIG_OID":78288,"STATUS":0,"Shape_Le_2":0.000563639867388,"Shape_Area":1.18933326284e-08,"__source_file__":"10-AI解译数据/2023.12.19/02-浦东新区/浦东新区_AI解译建筑.shp"},"geometry":{"type":"Polygon","coordinates":[[[121.493708663,31.238366589000066],[121.49371438000003,31.238368956000045],[121.49372960700009,31.238342072000023],[121.49367243800009,31.238318400000026],[121.49356861600006,31.238501703000054],[121.49360005900007,31.238514722000048],[121.49360698100008,31.238502502000074],[121.49363556500009,31.238514338000073],[121.49365494500012,31.238480122000055],[121.49364637000008,31.238476571000035],[121.493708663,31.238366589000066]]]}},{"id":"78054","type":"Feature","properties":{"OBJECTID_1":78055,"OBJECTID_2":270563,"OBJECTID":17999772,"Id":17999772,"gridcode":249,"Shape_Leng":0.000128746032829,"Shape_Le_1":15.1420000046,"ORIG_OID":78054,"STATUS":0,"Shape_Le_2":0.000132375999897,"Shape_Area":9.65935934066e-10,"__source_file__":"10-AI解译数据/2023.12.19/02-浦东新区/浦东新区_AI解译建筑.shp"},"geometry":{"type":"Polygon","coordinates":[[[121.49364072000003,31.23855127300004],[121.49364072000003,31.238529549000077],[121.49359625600005,31.238529549000077],[121.49359625600005,31.23855127300004],[121.49364072000003,31.23855127300004]]]}},{"id":"77682","type":"Feature","properties":{"OBJECTID_1":77683,"OBJECTID_2":269089,"OBJECTID":17904386,"Id":17904386,"gridcode":249,"Shape_Leng":0.00137061642614,"Shape_Le_1":162.786077708,"ORIG_OID":77682,"STATUS":0,"Shape_Le_2":0.00110997977478,"Shape_Area":5.81126754123e-08,"__source_file__":"10-AI解译数据/2023.12.19/02-浦东新区/浦东新区_AI解译建筑.shp"},"geometry":{"type":"Polygon","coordinates":[[[121.49191717500003,31.238976669000067],[121.49193120300004,31.23898303200008],[121.49193715800004,31.238973437000027],[121.49215038200009,31.239070165000044],[121.49215633600011,31.23906057000005],[121.49218158700012,31.23907202500004],[121.49218902900009,31.239060031000065],[121.49223391900011,31.23908039500003],[121.49231876700003,31.238943663000043],[121.49220654400006,31.238892753000073],[121.49219612400009,31.23890954500007],[121.49201376100007,31.238826816000028],[121.49198994400001,31.238865197000052],[121.49197311000012,31.23885756100003],[121.49196120200008,31.238876751000078],[121.49194717400007,31.238870388000066],[121.49189656200008,31.238951947000032],[121.4919246180001,31.238964674000044],[121.49191717500003,31.238976669000067]]]}},{"id":"77462","type":"Feature","properties":{"OBJECTID_1":77463,"OBJECTID_2":268325,"OBJECTID":17852764,"Id":17852764,"gridcode":249,"Shape_Leng":0.0012445449828,"Shape_Le_1":148.263400003,"ORIG_OID":77462,"STATUS":0,"Shape_Le_2":0.000944848570853,"Shape_Area":3.23767199074e-08,"__source_file__":"10-AI解译数据/2023.12.19/02-浦东新区/浦东新区_AI解译建筑.shp"},"geometry":{"type":"Polygon","coordinates":[[[121.49239823200003,31.239150711000036],[121.49243207300003,31.23909536000008],[121.49266569000008,31.239199773000053],[121.49271277200012,31.23912276300007],[121.49257485400005,31.239061121000077],[121.49257632500007,31.239058715000056],[121.49242714800005,31.238992041000074],[121.4923447540001,31.239126809000027],[121.49239823200003,31.239150711000036]]]}},{"id":"77266","type":"Feature","properties":{"OBJECTID_1":77267,"OBJECTID_2":267659,"OBJECTID":17807255,"Id":17807255,"gridcode":249,"Shape_Leng":0.000450611114161,"Shape_Le_1":53.4019999951,"ORIG_OID":77266,"STATUS":0,"Shape_Le_2":0.000332567159013,"Shape_Area":4.45030022256e-09,"__source_file__":"10-AI解译数据/2023.12.19/02-浦东新区/浦东新区_AI解译建筑.shp"},"geometry":{"type":"Polygon","coordinates":[[[121.49255446900008,31.239186317000076],[121.49243422400002,31.239130958000032],[121.49241615500011,31.239159649000044],[121.49253640000006,31.239215009000077],[121.49255446900008,31.239186317000076]]]}},{"id":"77225","type":"Feature","properties":{"OBJECTID_1":77226,"OBJECTID_2":267541,"OBJECTID":17800008,"Id":17800008,"gridcode":249,"Shape_Leng":0.000335126652653,"Shape_Le_1":40.440630943,"ORIG_OID":77225,"STATUS":0,"Shape_Le_2":0.000271397901487,"Shape_Area":3.10488775257e-09,"__source_file__":"10-AI解译数据/2023.12.19/02-浦东新区/浦东新区_AI解译建筑.shp"},"geometry":{"type":"Polygon","coordinates":[[[121.49165744700008,31.239224026000045],[121.49168031500005,31.239242871000044],[121.49175966100006,31.23917248500004],[121.49173679400008,31.23915363900005],[121.49165744700008,31.239224026000045]]]}},{"id":"76854","type":"Feature","properties":{"OBJECTID_1":76855,"OBJECTID_2":266143,"OBJECTID":17710024,"Id":17710024,"gridcode":249,"Shape_Leng":0.000278949737663,"Shape_Le_1":34.2929999977,"ORIG_OID":76854,"STATUS":0,"Shape_Le_2":0.000227668551332,"Shape_Area":1.75940303553e-09,"__source_file__":"10-AI解译数据/2023.12.19/02-浦东新区/浦东新区_AI解译建筑.shp"},"geometry":{"type":"Polygon","coordinates":[[[121.49271419600007,31.239426067000068],[121.49269687100002,31.23941928200003],[121.49265190300002,31.239503224000032],[121.49266922800007,31.23951000900007],[121.49271419600007,31.239426067000068]]]}},{"id":"76991","type":"Feature","properties":{"OBJECTID_1":76992,"OBJECTID_2":266672,"OBJECTID":17743127,"Id":17743127,"gridcode":249,"Shape_Leng":0.00189830707466,"Shape_Le_1":227.753718971,"ORIG_OID":76991,"STATUS":0,"Shape_Le_2":0.00147586909525,"Shape_Area":7.56806279868e-08,"__source_file__":"10-AI解译数据/2023.12.19/02-浦东新区/浦东新区_AI解译建筑.shp"},"geometry":{"type":"Polygon","coordinates":[[[121.49324857400006,31.239371902000073],[121.49321469000006,31.23935698400004],[121.49319724200006,31.239385954000056],[121.4931661820001,31.239372279000065],[121.49305422200007,31.23955817500007],[121.49319822700011,31.239621578000026],[121.49330437100002,31.23944534000003],[121.49351332000003,31.23953733700006],[121.49358747600002,31.239414211000053],[121.4934434700001,31.23935080700005],[121.49344492400007,31.239348393000057],[121.49338280400002,31.239321043000075],[121.49337844200011,31.239328285000056],[121.4933615000001,31.23932082600004],[121.49334841400002,31.239342554000075],[121.49332017800009,31.23933012200007],[121.49330418300008,31.239356679000025],[121.49326747600003,31.239340517000073],[121.49324857400006,31.239371902000073]]]}},{"id":"76787","type":"Feature","properties":{"OBJECTID_1":76788,"OBJECTID_2":265875,"OBJECTID":17691722,"Id":17691722,"gridcode":249,"Shape_Leng":0.00196874689504,"Shape_Le_1":236.132609365,"ORIG_OID":76787,"STATUS":0,"Shape_Le_2":0.00148770391393,"Shape_Area":1.06797800962e-07,"__source_file__":"10-AI解译数据/2023.12.19/02-浦东新区/浦东新区_AI解译建筑.shp"},"geometry":{"type":"Polygon","coordinates":[[[121.49314761800008,31.239747014000045],[121.49327166100011,31.23980204000003],[121.49328921400001,31.239773115000048],[121.49336815000004,31.239808132000064],[121.493350598,31.239837057000045],[121.49347182200006,31.23989083300006],[121.4935332550001,31.239789596000037],[121.4934994250001,31.239774589000035],[121.49354184300012,31.239704687000028],[121.49357285300005,31.23971844400006],[121.49363574900008,31.23961479700006],[121.49331436400007,31.239472228000068],[121.49314761800008,31.239747014000045]]]}},{"id":"76698","type":"Feature","properties":{"OBJECTID_1":76699,"OBJECTID_2":265539,"OBJECTID":17669700,"Id":17669700,"gridcode":249,"Shape_Leng":0.00171393917925,"Shape_Le_1":209.511677713,"ORIG_OID":76698,"STATUS":0,"Shape_Le_2":0.00139821041795,"Shape_Area":8.8867336478e-08,"__source_file__":"10-AI解译数据/2023.12.19/02-浦东新区/浦东新区_AI解译建筑.shp"},"geometry":{"type":"Polygon","coordinates":[[[121.49408847000007,31.239674470000068],[121.49407152800006,31.23966701100005],[121.49408606800012,31.239642868000033],[121.49407195000003,31.23963665200006],[121.49408794400006,31.239610096000035],[121.49406253200004,31.239598907000072],[121.49407416400004,31.23957959300003],[121.49397251300002,31.239534838000054],[121.4937136960001,31.23996457000004],[121.493798405,31.240001866000057],[121.49381294600005,31.239977724000028],[121.4938920080001,31.240012533000026],[121.49390218600001,31.239995634000024],[121.49391912800002,31.24000309300004],[121.49407325400011,31.239747185000056],[121.49406478300011,31.239743456000042],[121.49408659400001,31.239707242000065],[121.49407247600004,31.239701026000034],[121.49408847000007,31.239674470000068]]]}},{"id":"76461","type":"Feature","properties":{"OBJECTID_1":76462,"OBJECTID_2":264669,"OBJECTID":17612210,"Id":17612210,"gridcode":249,"Shape_Leng":0.00381679104681,"Shape_Le_1":456.968277688,"ORIG_OID":76461,"STATUS":0,"Shape_Le_2":0.0037200480001,"Shape_Area":5.13571956343e-07,"__source_file__":"10-AI解译数据/2023.12.19/02-浦东新区/浦东新区_AI解译建筑.shp"},"geometry":{"type":"Polygon","coordinates":[[[121.49230705000002,31.239950710000073],[121.49226258600004,31.239950710000073],[121.49226258600004,31.23992627100006],[121.49223082600008,31.23992627100006],[121.49223082600008,31.23990726200003],[121.49219271300001,31.23990726200003],[121.49219271300001,31.23988825400005],[121.49213236900005,31.23988825400005],[121.49213236900005,31.23989911600006],[121.49210378500004,31.23989911600006],[121.49210378500004,31.239874676000056],[121.49206249600002,31.239874676000056],[121.49206249600002,31.23985566700003],[121.4920212080001,31.23985566700003],[121.4920212080001,31.239833943000065],[121.49197992000006,31.239833943000065],[121.49197992000006,31.239812219000044],[121.49193545600008,31.239812219000044],[121.49193545600008,31.23979049500008],[121.4918909910001,31.23979049500008],[121.4918909910001,31.239768771000058],[121.49183699900004,31.239768771000058],[121.49183699900004,31.23977963300007],[121.4917830060001,31.23977963300007],[121.4917830060001,31.239757909000048],[121.49173854200001,31.239757909000048],[121.49173854200001,31.239736185000027],[121.49169725400009,31.239736185000027],[121.49169725400009,31.239717176000056],[121.49165914100001,31.239717176000056],[121.49165914100001,31.239747047000037],[121.49163373300007,31.239747047000037],[121.49163373300007,31.23977963300007],[121.49160832500002,31.23977963300007],[121.49160832500002,31.239823081000054],[121.49164326100004,31.239823081000054],[121.49164326100004,31.23983937400004],[121.49167184600003,31.23983937400004],[121.49167184600003,31.239896400000077],[121.4916464370001,31.239896400000077],[121.4916464370001,31.239931702000035],[121.49155750900002,31.239931702000035],[121.49155750900002,31.24041777700006],[121.49173536600006,31.24041777700006],[121.49173536600006,31.240507388000026],[121.49187828700008,31.240507388000026],[121.49187828700008,31.24049381100008],[121.49193545600008,31.24049381100008],[121.49193545600008,31.240466656000024],[121.49209425700008,31.240466656000024],[121.49209425700008,31.240450363000036],[121.49214507300007,31.240450363000036],[121.49214507300007,31.24042320800004],[121.49226893800005,31.24042320800004],[121.49226893800005,31.240401484000074],[121.49231022600009,31.240401484000074],[121.49231022600009,31.240379760000053],[121.49234833900005,31.240379760000053],[121.49234833900005,31.240341743000045],[121.49237057100004,31.240341743000045],[121.49237057100004,31.240303726000036],[121.49240233100011,31.240303726000036],[121.49240233100011,31.240262993000044],[121.49242773900005,31.240262993000044],[121.49242773900005,31.24023040700007],[121.49244997100004,31.24023040700007],[121.49244997100004,31.240197821000038],[121.49247220400002,31.240197821000038],[121.49247220400002,31.240165235000063],[121.49249443600002,31.240165235000063],[121.49249443600002,31.24013264900003],[121.49251984400007,31.24013264900003],[121.49251984400007,31.240094632000023],[121.49254207600006,31.240094632000023],[121.49254207600006,31.240070193000065],[121.4925039640001,31.240070193000065],[121.4925039640001,31.240048469000044],[121.49246267600006,31.240048469000044],[121.49246267600006,31.240032176000057],[121.49243726700001,31.240032176000057],[121.49243726700001,31.24001588300007],[121.4923959790001,31.24001588300007],[121.4923959790001,31.239994159000048],[121.49235151500011,31.239994159000048],[121.49235151500011,31.239972434000038],[121.49230705000002,31.239972434000038],[121.49230705000002,31.239950710000073]]]}},{"id":"75212","type":"Feature","properties":{"OBJECTID_1":75213,"OBJECTID_2":260334,"OBJECTID":17321630,"Id":17321630,"gridcode":249,"Shape_Leng":0.000407695770491,"Shape_Le_1":47.8149999976,"ORIG_OID":75212,"STATUS":0,"Shape_Le_2":0.000354566420659,"Shape_Area":4.1138245109e-09,"__source_file__":"10-AI解译数据/2023.12.19/02-浦东新区/浦东新区_AI解译建筑.shp"},"geometry":{"type":"Polygon","coordinates":[[[121.4920030620001,31.24060349800004],[121.492002049,31.240581792000057],[121.49203061100002,31.24058081700008],[121.49202972400008,31.240561824000054],[121.49189326400005,31.24056648000004],[121.49189415000001,31.240585473000067],[121.49193223200007,31.24058417400005],[121.49193324500004,31.240605880000032],[121.4920030620001,31.24060349800004]]]}},{"id":"75230","type":"Feature","properties":{"OBJECTID_1":75231,"OBJECTID_2":260392,"OBJECTID":17325155,"Id":17325155,"gridcode":249,"Shape_Leng":0.000659819134982,"Shape_Le_1":78.4696788776,"ORIG_OID":75230,"STATUS":0,"Shape_Le_2":0.000601859019618,"Shape_Area":6.02850190912e-09,"__source_file__":"10-AI解译数据/2023.12.19/02-浦东新区/浦东新区_AI解译建筑.shp"},"geometry":{"type":"Polygon","coordinates":[[[121.49208550900005,31.240660508000076],[121.49208475900002,31.24067950500006],[121.49214189500003,31.24068115500006],[121.49214446700012,31.24061602000006],[121.49218573100006,31.24061721100003],[121.49218733900011,31.240576502000067],[121.49220955800001,31.240577143000053],[121.49221073700005,31.240547290000052],[121.49219804000006,31.240546923000068],[121.49219718300003,31.240568635000045],[121.49216544100011,31.24056771900007],[121.49216415500007,31.240600286000074],[121.49213241300004,31.24059937000004],[121.49213134100012,31.240626509000037],[121.4920869020001,31.240625227000066],[121.49208615200007,31.24064422400005],[121.49204171300005,31.240642941000033],[121.49204107000003,31.24065922500006],[121.49208550900005,31.240660508000076]]]}},{"id":"75117","type":"Feature","properties":{"OBJECTID_1":75118,"OBJECTID_2":259985,"OBJECTID":17296860,"Id":17296860,"gridcode":249,"Shape_Leng":0.000665187835352,"Shape_Le_1":78.9096000046,"ORIG_OID":75117,"STATUS":0,"Shape_Le_2":0.000588067048361,"Shape_Area":1.46443680019e-08,"__source_file__":"10-AI解译数据/2023.12.19/02-浦东新区/浦东新区_AI解译建筑.shp"},"geometry":{"type":"Polygon","coordinates":[[[121.49319810400004,31.240659222000033],[121.49316996000005,31.24069208700007],[121.49325452500011,31.24074502600007],[121.4932620300001,31.24073626200004],[121.49331328100004,31.24076834600004],[121.49332453900001,31.240755200000024],[121.49334503900002,31.24076803300005],[121.49337506000006,31.24073297800004],[121.49336737200008,31.240728165000064],[121.49338613500004,31.240706255000077],[121.49334257100008,31.240678984000056],[121.49333131300011,31.24069213000007],[121.49327750000009,31.24065844100005],[121.49328125200009,31.240654060000054],[121.49324537600012,31.240631601000075],[121.49321348000001,31.24066884700005],[121.49319810400004,31.240659222000033]]]}},{"id":"74654","type":"Feature","properties":{"OBJECTID_1":74655,"OBJECTID_2":258346,"OBJECTID":17186476,"Id":17186476,"gridcode":249,"Shape_Leng":0.000300407409782,"Shape_Le_1":35.8720000088,"ORIG_OID":74654,"STATUS":0,"Shape_Le_2":0.000265424438804,"Shape_Area":3.79476310928e-09,"__source_file__":"10-AI解译数据/2023.12.19/02-浦东新区/浦东新区_AI解译建筑.shp"},"geometry":{"type":"Polygon","coordinates":[[[121.49392216800004,31.240998912000066],[121.49398379000002,31.241027074000044],[121.4940182250001,31.240971992000027],[121.49398741400012,31.240957911000066],[121.49397843100007,31.24097228100004],[121.49394762000009,31.24095820000008],[121.49392216800004,31.240998912000066]]]}},{"id":"74773","type":"Feature","properties":{"OBJECTID_1":74774,"OBJECTID_2":258737,"OBJECTID":17211371,"Id":17211371,"gridcode":249,"Shape_Leng":0.00188827514705,"Shape_Le_1":221.140000001,"ORIG_OID":74773,"STATUS":0,"Shape_Le_2":0.00181339432406,"Shape_Area":1.07934642948e-07,"__source_file__":"10-AI解译数据/2023.12.19/02-浦东新区/浦东新区_AI解译建筑.shp"},"geometry":{"type":"Polygon","coordinates":[[[121.49175053700003,31.24089195600004],[121.49175117000004,31.240905523000038],[121.49169087400003,31.240907580000055],[121.49169226700008,31.240937426000073],[121.49165418500002,31.240938726000024],[121.49165570500008,31.240971286000047],[121.49162714300007,31.240972260000035],[121.49162967600012,31.24102652600004],[121.49161380800001,31.24102706800005],[121.49161798700004,31.241116607000038],[121.4916402020001,31.24111584900004],[121.4916419750001,31.241153836000024],[121.49181651700007,31.241147881000074],[121.49181588400006,31.241134314000078],[121.49200946700012,31.241127709000068],[121.49200896100001,31.241116856000076],[121.49210733900009,31.24111350000004],[121.4921068330001,31.24110264600006],[121.49225281400004,31.24109766600003],[121.49225180100007,31.241075959000057],[121.492213719,31.241077259000065],[121.49221270600003,31.241055552000034],[121.49217145000011,31.241056960000037],[121.49217043700003,31.241035253000064],[121.49212600800001,31.24103676900006],[121.49212486800002,31.241012349000073],[121.492080439,31.24101386500007],[121.49207790700007,31.240959598000074],[121.492039825,31.240960898000026],[121.49203868500001,31.240936478000037],[121.49198790900004,31.240938210000024],[121.49198854200006,31.240951777000078],[121.49195998100004,31.240952751000066],[121.49195896700007,31.240931045000025],[121.49192723200008,31.240932127000065],[121.49192596600005,31.24090499400006],[121.4918720170001,31.240906835000033],[121.49187113000005,31.240887842000063],[121.49175053700003,31.24089195600004]]]}},{"id":"74401","type":"Feature","properties":{"OBJECTID_1":74402,"OBJECTID_2":257481,"OBJECTID":17124864,"Id":17124864,"gridcode":249,"Shape_Leng":0.00514449212885,"Shape_Le_1":614.172355433,"ORIG_OID":74401,"STATUS":0,"Shape_Le_2":0.00463634460216,"Shape_Area":7.53364996722e-07,"__source_file__":"10-AI解译数据/2023.12.19/02-浦东新区/浦东新区_AI解译建筑.shp"},"geometry":{"type":"Polygon","coordinates":[[[121.49262640100005,31.242058370000052],[121.49261670500005,31.242072396000026],[121.49264404600001,31.24208621300005],[121.49265697500005,31.242067512000062],[121.49266791100001,31.242073039000047],[121.49267922400009,31.24205667500007],[121.49269289400002,31.24206358400005],[121.4927187510001,31.24202618100003],[121.49272422000001,31.242028945000072],[121.49277754900004,31.241951803000063],[121.49276661300007,31.24194627600008],[121.49278115700008,31.241925237000032],[121.49280029600004,31.241934909000065],[121.49280676100011,31.241925558000048],[121.49282316500012,31.241933849000077],[121.49282963000007,31.24192449800006],[121.49288431200011,31.24195213200005],[121.49287138400007,31.24197083300004],[121.49290145900011,31.241986032000057],[121.49300165500006,31.241841098000066],[121.4930317300001,31.241856297000027],[121.49319172000003,31.241624870000066],[121.49316164400011,31.24160967100005],[121.49321012600001,31.241539541000066],[121.49313083600009,31.241499472000044],[121.4930807390001,31.24157193900004],[121.49256945500008,31.241313559000048],[121.49257107100004,31.241311221000046],[121.49229219000006,31.241170286000056],[121.49230350200003,31.24115392300007],[121.49228436300007,31.241144251000037],[121.49227143500002,31.241162952000025],[121.4922495620001,31.241151898000055],[121.49224148100006,31.241163587000074],[121.49221960800003,31.241152533000047],[121.4922115280001,31.241164221000076],[121.49218965500006,31.24115316800004],[121.49217511100005,31.24117420700003],[121.49215323700003,31.24116315300006],[121.4921451570001,31.24117484100003],[121.4921205500001,31.241162406000058],[121.49211247000005,31.24117409400003],[121.49209059700001,31.24116304000006],[121.49207443600005,31.24118641700005],[121.49204982900005,31.24117398100003],[121.49204174900001,31.24118567000005],[121.4920198750001,31.241174616000023],[121.49201179500005,31.241186304000053],[121.49198445400009,31.24117248700003],[121.49196829300001,31.241195864000076],[121.49194642000009,31.24118481000005],[121.49193834000005,31.24119649800008],[121.49191646700001,31.241185445000042],[121.49190838700008,31.24119713300007],[121.49188651300005,31.241186079000045],[121.49187196900004,31.241207118000034],[121.49185009600001,31.241196065000054],[121.49184363200004,31.241205415000024],[121.49182449300008,31.24119574300005],[121.49181641200005,31.241207431000078],[121.49179180500005,31.241194996000047],[121.49177564500008,31.241218373000038],[121.49175650600012,31.241208701000062],[121.49175004100005,31.241218051000033],[121.49176644600004,31.24122634200006],[121.49175675000004,31.241240368000035],[121.49178135700004,31.241252803000066],[121.49176519700006,31.241276180000057],[121.49178980400006,31.24128861500003],[121.49177525900006,31.241309654000077],[121.49180260100002,31.241323471000044],[121.49178805600002,31.241344510000033],[121.49181266300002,31.241356945000064],[121.49179811900001,31.241377984000053],[121.49181999200005,31.24138903800008],[121.49181191200012,31.24140072600005],[121.49183105100008,31.241410398000028],[121.49182297000004,31.241422087000046],[121.49184210900012,31.24143175900008],[121.49183402900007,31.24144344700005],[121.49185316800003,31.241453119000028],[121.4918450880001,31.241464807000057],[121.49186422700006,31.241474479000033],[121.49185614600003,31.241486167000062],[121.4918752850001,31.241495839000038],[121.49186720500006,31.241507528000056],[121.49188361000006,31.24151581800004],[121.49187552900003,31.241527506000068],[121.49189740200006,31.241538560000038],[121.4918860900001,31.241554923000024],[121.49192983600005,31.241577031000077],[121.49191852400008,31.241593394000063],[121.49193766300004,31.24160306600004],[121.49193281500004,31.241610079000054],[121.49196015600012,31.24162389600008],[121.49194884400004,31.241640260000054],[121.49199259000011,31.24166236700006],[121.49198450900008,31.241674055000033],[121.49202278700011,31.24169339900004],[121.49201470700007,31.24170508800006],[121.49205845300003,31.241727195000067],[121.49204714100006,31.241743558000053],[121.49209908900002,31.24176981100004],[121.49209100900009,31.24178149900007],[121.49212928700001,31.241800843000078],[121.49212282300005,31.24181019400004],[121.49217203700005,31.241835064000043],[121.49216557300008,31.24184441500006],[121.49224759700007,31.241885866000075],[121.4922411330001,31.241895217000035],[121.49226574000011,31.241907652000066],[121.49227866800004,31.241888951000078],[121.4923470220001,31.24192349300006],[121.49234540600003,31.24192583100006],[121.49236727900006,31.24193688500003],[121.49236081400011,31.241946235000057],[121.49238268800002,31.241957289000027],[121.4923891520001,31.241947938000067],[121.49240829100006,31.241957610000043],[121.49240021000003,31.241969298000072],[121.4924357540001,31.241987261000077],[121.49242282600005,31.242005962000064],[121.49254039300001,31.24206537500004],[121.49254847400005,31.242053687000066],[121.49257308100005,31.24206612200004],[121.49258116100009,31.242054434000067],[121.49260303400001,31.242065487000048],[121.49261273100001,31.242051462000063],[121.49262640100005,31.242058370000052]]]}},{"id":"73411","type":"Feature","properties":{"OBJECTID_1":73412,"OBJECTID_2":253749,"OBJECTID":16856813,"Id":16856813,"gridcode":249,"Shape_Leng":0.00060081481945,"Shape_Le_1":68.5029999912,"ORIG_OID":73411,"STATUS":0,"Shape_Le_2":0.000550834746387,"Shape_Area":5.5196105386e-09,"__source_file__":"10-AI解译数据/2023.12.19/02-浦东新区/浦东新区_AI解译建筑.shp"},"geometry":{"type":"Polygon","coordinates":[[[121.49371261300007,31.241997773000037],[121.49346016700008,31.241973167000026],[121.49345728900005,31.24199475100005],[121.49370973500004,31.24201935700006],[121.49371261300007,31.241997773000037]]]}},{"id":"73136","type":"Feature","properties":{"OBJECTID_1":73137,"OBJECTID_2":252745,"OBJECTID":16792670,"Id":16792670,"gridcode":249,"Shape_Leng":0.000922679900668,"Shape_Le_1":110.4102,"ORIG_OID":73136,"STATUS":0,"Shape_Le_2":0.000679830547336,"Shape_Area":1.35228674222e-08,"__source_file__":"10-AI解译数据/2023.12.19/02-浦东新区/浦东新区_AI解译建筑.shp"},"geometry":{"type":"Polygon","coordinates":[[[121.49341097800004,31.24217885400003],[121.49317343500002,31.24235081000006],[121.49320627200007,31.24238396800007],[121.4934438140001,31.24221201200004],[121.49341097800004,31.24217885400003]]]}},{"id":"73121","type":"Feature","properties":{"OBJECTID_1":73122,"OBJECTID_2":252703,"OBJECTID":16789143,"Id":16789143,"gridcode":249,"Shape_Leng":0.00188827514614,"Shape_Le_1":225.597800002,"ORIG_OID":73121,"STATUS":0,"Shape_Le_2":0.0015716298194,"Shape_Area":1.01723630765e-07,"__source_file__":"10-AI解译数据/2023.12.19/02-浦东新区/浦东新区_AI解译建筑.shp"},"geometry":{"type":"Polygon","coordinates":[[[121.4935809970001,31.242214111000067],[121.49356416300009,31.24222652700007],[121.49352059800003,31.242183348000026],[121.49334504000001,31.242312824000066],[121.49334296500001,31.24231076800004],[121.49316019200012,31.24244556600007],[121.4933054060001,31.24258949600005],[121.49349058500002,31.242452925000066],[121.49349265900003,31.242454982000027],[121.49361290500008,31.242366299000025],[121.4936232770001,31.24237658000004],[121.49363530200003,31.242367712000032],[121.49364360000004,31.24237593600003],[121.4936556240001,31.24236706800008],[121.49367636900001,31.242387629000063],[121.4937004190001,31.242369893000046],[121.49368589700009,31.24235550000003],[121.49370032700006,31.242344858000024],[121.49368580500004,31.242330465000066],[121.49370985400003,31.24231272800006],[121.49369740700001,31.24230039100007],[121.49371183700009,31.242289749000065],[121.49369731500008,31.24227535600005],[121.49371174500004,31.242264714000044],[121.4936723290001,31.242225647000055],[121.49366030500005,31.242234516000053],[121.49363956000002,31.24221395400008],[121.49362272600001,31.242226370000026],[121.49361027900011,31.24221403300004],[121.49359344400011,31.242226448000054],[121.4935809970001,31.242214111000067]]]}},{"id":"76283","type":"Feature","properties":{"OBJECTID_1":76284,"OBJECTID_2":264046,"OBJECTID":17571744,"Id":17571744,"gridcode":249,"Shape_Leng":0.0015878677367,"Shape_Le_1":191.749000013,"ORIG_OID":76283,"STATUS":0,"Shape_Le_2":0.00125211074844,"Shape_Area":6.92202135852e-08,"__source_file__":"10-AI解译数据/2023.12.19/02-浦东新区/浦东新区_AI解译建筑.shp"},"geometry":{"type":"Polygon","coordinates":[[[121.49454297200009,31.23985622500004],[121.49452531600002,31.239885104000052],[121.49450842800002,31.239877556000067],[121.49447900200005,31.23992568700004],[121.49446774300009,31.23992065500005],[121.4943264960001,31.24015168300008],[121.49441093600001,31.24018942200007],[121.49445066200008,31.24012444600004],[121.49454636000007,31.240167217000078],[121.49472733300001,31.239871212000025],[121.49466822500005,31.239844795000067],[121.49467116800008,31.239839981000046],[121.49463176300003,31.23982237000007],[121.494618521,31.23984402900004],[121.4945988180001,31.239835223000057],[121.4945870470001,31.239854475000072],[121.49456734500006,31.239845669000033],[121.49455704600007,31.239862515000027],[121.49454297200009,31.23985622500004]]]}},{"id":"75918","type":"Feature","properties":{"OBJECTID_1":75919,"OBJECTID_2":262755,"OBJECTID":17486988,"Id":17486988,"gridcode":249,"Shape_Leng":0.000987052917594,"Shape_Le_1":118.790400028,"ORIG_OID":75918,"STATUS":0,"Shape_Le_2":0.000909967213611,"Shape_Area":3.58175493712e-08,"__source_file__":"10-AI解译数据/2023.12.19/02-浦东新区/浦东新区_AI解译建筑.shp"},"geometry":{"type":"Polygon","coordinates":[[[121.49473454300005,31.240176940000026],[121.49473407500011,31.24020952400008],[121.49471502100005,31.240209324000034],[121.49471463100008,31.240236477000053],[121.49469557600003,31.240236277000065],[121.49469503000012,31.24027429100005],[121.49485382000012,31.24027595700005],[121.49485346900008,31.240300395000077],[121.49492968800007,31.24030119500003],[121.49493226000004,31.24012198500003],[121.49489097500009,31.240121552000062],[121.49489128700009,31.240099830000077],[121.49484047400006,31.24009929600004],[121.49484074700001,31.240080289000048],[121.49479311000005,31.24007978900005],[121.49479248700004,31.240123234000066],[121.49476072900006,31.240122901000063],[121.49475994900001,31.240177207000045],[121.49473454300005,31.240176940000026]]]}},{"id":"75462","type":"Feature","properties":{"OBJECTID_1":75463,"OBJECTID_2":261254,"OBJECTID":17386069,"Id":17386069,"gridcode":249,"Shape_Leng":0.00139474868752,"Shape_Le_1":165.79519999,"ORIG_OID":75462,"STATUS":0,"Shape_Le_2":0.00119806444533,"Shape_Area":5.10310344858e-08,"__source_file__":"10-AI解译数据/2023.12.19/02-浦东新区/浦东新区_AI解译建筑.shp"},"geometry":{"type":"Polygon","coordinates":[[[121.49493463500005,31.24041310100006],[121.49494177500003,31.240400973000078],[121.49491907900006,31.240391206000027],[121.49491193900008,31.240403333000074],[121.49488357000007,31.24039112400004],[121.4948778590001,31.24040082600004],[121.49483530500004,31.240382513000043],[121.49482388100012,31.240401917000042],[121.49480118600002,31.240392150000048],[121.49479547400006,31.240401852000048],[121.49474724700008,31.24038109600008],[121.49474153500012,31.240390798000078],[121.49466493900002,31.240357834000065],[121.49465779900004,31.240369961000056],[121.49463226700004,31.24035897300007],[121.49460941900008,31.24039778200006],[121.49469736300011,31.240435630000036],[121.49461739600008,31.24057146100006],[121.49475924100011,31.240632507000043],[121.49478637300001,31.240586421000046],[121.49480055700008,31.240592526000057],[121.49482768900009,31.24054644000006],[121.49483903600003,31.240551324000023],[121.4948618840001,31.240512515000034],[121.49487323200003,31.240517399000055],[121.4948946510001,31.240481016000047],[121.49490599900003,31.240485900000067],[121.49492741900008,31.24044951600007],[121.49493592900001,31.240453179000042],[121.49495449300002,31.240421647000062],[121.49493463500005,31.24041310100006]]]}},{"id":"74741","type":"Feature","properties":{"OBJECTID_1":74742,"OBJECTID_2":258624,"OBJECTID":17204478,"Id":17204478,"gridcode":249,"Shape_Leng":0.000321865081673,"Shape_Le_1":38.6656000018,"ORIG_OID":74741,"STATUS":0,"Shape_Le_2":0.000255304006589,"Shape_Area":3.50153777967e-09,"__source_file__":"10-AI解译数据/2023.12.19/02-浦东新区/浦东新区_AI解译建筑.shp"},"geometry":{"type":"Polygon","coordinates":[[[121.49516942800005,31.240941733000057],[121.49524008600008,31.240992249000044],[121.49526860900005,31.240963085000033],[121.49519795100002,31.240912569000045],[121.49516942800005,31.240941733000057]]]}},{"id":"74333","type":"Feature","properties":{"OBJECTID_1":74334,"OBJECTID_2":257212,"OBJECTID":17107060,"Id":17107060,"gridcode":249,"Shape_Leng":0.00193119049061,"Shape_Le_1":229.96859999,"ORIG_OID":74333,"STATUS":0,"Shape_Le_2":0.00187551322105,"Shape_Area":8.62784818025e-08,"__source_file__":"10-AI解译数据/2023.12.19/02-浦东新区/浦东新区_AI解译建筑.shp"},"geometry":{"type":"Polygon","coordinates":[[[121.4947520610001,31.241202016000045],[121.49469813400003,31.241199751000067],[121.49469688700003,31.241221448000033],[121.49454779400003,31.241215186000034],[121.49454639100009,31.24123959600007],[121.49449880800012,31.241237597000065],[121.49449740600005,31.241262007000046],[121.49444982300008,31.24126000800004],[121.49444795300008,31.24129255500003],[121.49440988600008,31.241290956000057],[121.49440832800008,31.241318078000063],[121.49437660600006,31.241316745000063],[121.49437520300012,31.241341155000043],[121.4943434810001,31.241339823000033],[121.49434207900003,31.24136423300007],[121.49431035700002,31.24136290000007],[121.49430911000002,31.241384598000025],[121.49429007700007,31.241383798000072],[121.49428789500007,31.241421769000056],[121.49424665700008,31.24142003700007],[121.49424494200002,31.241449871000043],[121.49418784300008,31.24144747300005],[121.49418519400001,31.241493580000053],[121.49428670400005,31.241497844000037],[121.4942824960001,31.241571073000046],[121.49443476200008,31.24157746900005],[121.4944381900001,31.241517800000054],[121.49447942900008,31.24151953200004],[121.49448176600004,31.241478850000078],[121.49450397200008,31.241479782000056],[121.49450615400008,31.241441812000062],[121.49453470300011,31.241443011000058],[121.49453719700011,31.241399616000024],[121.49456574700002,31.241400815000077],[121.49456730500003,31.24137369300007],[121.49458951000008,31.24137462500005],[121.49459122500002,31.241344791000074],[121.49461977400006,31.24134599000007],[121.49462164500005,31.24131344400007],[121.49466288300005,31.241315176000057],[121.49466459700011,31.241285342000026],[121.49468680300004,31.24128627500005],[121.49468836100004,31.241259153000044],[121.49474863300009,31.24126168400005],[121.4947520610001,31.241202016000045]]]}},{"id":"73752","type":"Feature","properties":{"OBJECTID_1":73753,"OBJECTID_2":255144,"OBJECTID":16953165,"Id":16953165,"gridcode":249,"Shape_Leng":0.00100582623978,"Shape_Le_1":119.947139433,"ORIG_OID":73752,"STATUS":0,"Shape_Le_2":0.000914611752533,"Shape_Area":4.3570218849e-08,"__source_file__":"10-AI解译数据/2023.12.19/02-浦东新区/浦东新区_AI解译建筑.shp"},"geometry":{"type":"Polygon","coordinates":[[[121.49418534300003,31.241708901000038],[121.4940937990001,31.24170022100003],[121.49407489500004,31.24184596200007],[121.49434321300009,31.24187140300006],[121.4943624660001,31.24172296300003],[121.49427723600002,31.241714882000053],[121.49428213700003,31.241677097000036],[121.49419059400009,31.241668417000028],[121.49418534300003,31.241708901000038]]]}},{"id":"73678","type":"Feature","properties":{"OBJECTID_1":73679,"OBJECTID_2":254829,"OBJECTID":16932458,"Id":16932458,"gridcode":249,"Shape_Leng":0.00118017196655,"Shape_Le_1":141.504800007,"ORIG_OID":73678,"STATUS":0,"Shape_Le_2":0.00113751964904,"Shape_Area":6.73130158646e-08,"__source_file__":"10-AI解译数据/2023.12.19/02-浦东新区/浦东新区_AI解译建筑.shp"},"geometry":{"type":"Polygon","coordinates":[[[121.49512575500012,31.241780813000048],[121.4951035250001,31.24178057900008],[121.49510313500002,31.24180773200004],[121.49507455300011,31.24180743200003],[121.49507272100004,31.241935049000062],[121.49510447900002,31.241935382000065],[121.49510408900005,31.241962534000038],[121.49512632000005,31.241962768000064],[121.49512600800006,31.24198449000005],[121.49515459000008,31.24198479000006],[121.49515435600006,31.24200108100007],[121.4953036180001,31.24200264700005],[121.49530396900002,31.24197821000007],[121.4953516060001,31.24197871000007],[121.4953522290001,31.24193526600004],[121.49538081100002,31.241935566000052],[121.49538264300008,31.241807949000076],[121.49535088500011,31.241807616000074],[121.49535143100002,31.241769602000034],[121.49531649700009,31.24176923600004],[121.49531688700006,31.241742083000076],[121.49517397700004,31.24174058400007],[121.49517378200005,31.241754160000028],[121.49512614500009,31.24175366000003],[121.49512575500012,31.241780813000048]]]}},{"id":"73287","type":"Feature","properties":{"OBJECTID_1":73288,"OBJECTID_2":253318,"OBJECTID":16829682,"Id":16829682,"gridcode":249,"Shape_Leng":0.000407695770491,"Shape_Le_1":49.841200009,"ORIG_OID":73287,"STATUS":0,"Shape_Le_2":0.000331426410427,"Shape_Area":4.13963984234e-09,"__source_file__":"10-AI解译数据/2023.12.19/02-浦东新区/浦东新区_AI解译建筑.shp"},"geometry":{"type":"Polygon","coordinates":[[[121.49455704000002,31.24205296200006],[121.49452841300001,31.242064722000066],[121.49459443800004,31.242182205000063],[121.49462306500004,31.242170445000056],[121.49455704000002,31.24205296200006]]]}},{"id":"73205","type":"Feature","properties":{"OBJECTID_1":73206,"OBJECTID_2":253025,"OBJECTID":16809544,"Id":16809544,"gridcode":249,"Shape_Leng":0.000592618717433,"Shape_Le_1":71.6048584444,"ORIG_OID":73205,"STATUS":0,"Shape_Le_2":0.000450255314443,"Shape_Area":9.15902519115e-09,"__source_file__":"10-AI解译数据/2023.12.19/02-浦东新区/浦东新区_AI解译建筑.shp"},"geometry":{"type":"Polygon","coordinates":[[[121.49434614100005,31.242118751000078],[121.4943009650001,31.242148704000044],[121.4944157970001,31.242275308000046],[121.49446097300006,31.24224535500008],[121.49434614100005,31.242118751000078]]]}},{"id":"73047","type":"Feature","properties":{"OBJECTID_1":73048,"OBJECTID_2":252451,"OBJECTID":16772011,"Id":16772011,"gridcode":249,"Shape_Leng":0.00111579894974,"Shape_Le_1":134.744200006,"ORIG_OID":73047,"STATUS":0,"Shape_Le_2":0.000806950823962,"Shape_Area":1.59117878594e-08,"__source_file__":"10-AI解译数据/2023.12.19/02-浦东新区/浦东新区_AI解译建筑.shp"},"geometry":{"type":"Polygon","coordinates":[[[121.49444895700003,31.24252357100005],[121.49448541000004,31.24249734700004],[121.49423389700007,31.242241782000065],[121.49419744400006,31.242268006000074],[121.49444895700003,31.24252357100005]]]}},{"id":"72893","type":"Feature","properties":{"OBJECTID_1":72894,"OBJECTID_2":251889,"OBJECTID":16732809,"Id":16732809,"gridcode":249,"Shape_Leng":0.00025749206543,"Shape_Le_1":30.6898000091,"ORIG_OID":72893,"STATUS":0,"Shape_Le_2":0.000189495821512,"Shape_Area":2.17331974348e-09,"__source_file__":"10-AI解译数据/2023.12.19/02-浦东新区/浦东新区_AI解译建筑.shp"},"geometry":{"type":"Polygon","coordinates":[[[121.49314207000009,31.242426958000067],[121.49318692200006,31.242396651000035],[121.49315935200002,31.242366825000033],[121.49311450000005,31.242397132000065],[121.49314207000009,31.242426958000067]]]}},{"id":"72932","type":"Feature","properties":{"OBJECTID_1":72933,"OBJECTID_2":252025,"OBJECTID":16742786,"Id":16742786,"gridcode":249,"Shape_Leng":0.000600814819336,"Shape_Le_1":72.1493999958,"ORIG_OID":72932,"STATUS":0,"Shape_Le_2":0.000445129278277,"Shape_Area":8.14128431684e-09,"__source_file__":"10-AI解译数据/2023.12.19/02-浦东新区/浦东新区_AI解译建筑.shp"},"geometry":{"type":"Polygon","coordinates":[[[121.49146947700001,31.242445753000027],[121.49133063400006,31.242338162000067],[121.49129650800012,31.24237035400006],[121.49143535100006,31.242477945000076],[121.49146947700001,31.242445753000027]]]}},{"id":"72531","type":"Feature","properties":{"OBJECTID_1":72532,"OBJECTID_2":250456,"OBJECTID":16647283,"Id":16647283,"gridcode":249,"Shape_Leng":0.00025749206543,"Shape_Le_1":29.4742000103,"ORIG_OID":72531,"STATUS":0,"Shape_Le_2":0.000259415999949,"Shape_Area":2.34575815227e-09,"__source_file__":"10-AI解译数据/2023.12.19/02-浦东新区/浦东新区_AI解译建筑.shp"},"geometry":{"type":"Polygon","coordinates":[[[121.49383341300006,31.242660417000025],[121.49383341300006,31.24263869400005],[121.49372542800006,31.24263869400005],[121.49372542800006,31.242660417000025],[121.49383341300006,31.242660417000025]]]}},{"id":"72489","type":"Feature","properties":{"OBJECTID_1":72490,"OBJECTID_2":250270,"OBJECTID":16636759,"Id":16636759,"gridcode":249,"Shape_Leng":0.0011801719661,"Shape_Le_1":141.910400003,"ORIG_OID":72489,"STATUS":0,"Shape_Le_2":0.00111216163675,"Shape_Area":6.21291389672e-08,"__source_file__":"10-AI解译数据/2023.12.19/02-浦东新区/浦东新区_AI解译建筑.shp"},"geometry":{"type":"Polygon","coordinates":[[[121.49393333100011,31.242929290000063],[121.49394462700002,31.242772092000052],[121.49388439600011,31.242768928000032],[121.493885954,31.24274724600008],[121.49386376400003,31.242746080000074],[121.49386824300007,31.242683743000043],[121.4936843800001,31.242674085000033],[121.49368204300004,31.242706609000038],[121.49365351300003,31.24270511000003],[121.49364299600006,31.242851467000037],[121.49372858700008,31.242855963000068],[121.49372274500001,31.242937273000052],[121.4939066070001,31.242946930000073],[121.49390797100011,31.242927958000053],[121.49393333100011,31.242929290000063]]]}},{"id":"71462","type":"Feature","properties":{"OBJECTID_1":71463,"OBJECTID_2":246329,"OBJECTID":16392082,"Id":16392082,"gridcode":249,"Shape_Leng":0.000236034393083,"Shape_Le_1":28.7063999921,"ORIG_OID":71462,"STATUS":0,"Shape_Le_2":0.000180602158936,"Shape_Area":1.96630052459e-09,"__source_file__":"10-AI解译数据/2023.12.19/02-浦东新区/浦东新区_AI解译建筑.shp"},"geometry":{"type":"Polygon","coordinates":[[[121.49382668700002,31.243492299000025],[121.49386198700006,31.24350458400005],[121.49388473700003,31.243456798000068],[121.49384943700011,31.243444514000032],[121.49382668700002,31.243492299000025]]]}},{"id":"73064","type":"Feature","properties":{"OBJECTID_1":73065,"OBJECTID_2":252508,"OBJECTID":16775388,"Id":16775388,"gridcode":249,"Shape_Leng":0.00190973281872,"Shape_Le_1":229.201800019,"ORIG_OID":73064,"STATUS":0,"Shape_Le_2":0.00155919440213,"Shape_Area":1.01223469678e-07,"__source_file__":"10-AI解译数据/2023.12.19/02-浦东新区/浦东新区_AI解译建筑.shp"},"geometry":{"type":"Polygon","coordinates":[[[121.49393663100011,31.242334173000074],[121.49392204900005,31.24234466300004],[121.4939363630001,31.24235920800004],[121.49392178200003,31.242369697000072],[121.49393609600008,31.24238424200007],[121.49391908400003,31.242396480000025],[121.49393135300011,31.24240894600007],[121.49396294600001,31.242386218000036],[121.49397521500009,31.24239868500007],[121.49399222600005,31.242386447000058],[121.49426214300001,31.24266071200003],[121.4944322560001,31.242538332000038],[121.4941255330001,31.242226667000068],[121.49407935900001,31.242259885000067],[121.49406504500007,31.242245340000068],[121.49404560400001,31.242259327000056],[121.49403333500004,31.24224686000008],[121.4940163230001,31.242259098000034],[121.49400405500012,31.242246631000057],[121.49398704300006,31.242258869000068],[121.4939747740001,31.242246403000024],[121.49393832100009,31.242272627000034],[121.49394445600001,31.242278860000056],[121.49392258400007,31.242294595000033],[121.49393689800002,31.242309139000042],[121.49392231700006,31.242319629000065],[121.49393663100011,31.242334173000074]]]}},{"id":"72791","type":"Feature","properties":{"OBJECTID_1":72792,"OBJECTID_2":251555,"OBJECTID":16712373,"Id":16712373,"gridcode":249,"Shape_Leng":0.00135183334305,"Shape_Le_1":156.968199998,"ORIG_OID":72791,"STATUS":0,"Shape_Le_2":0.00127776447167,"Shape_Area":3.40573551366e-08,"__source_file__":"10-AI解译数据/2023.12.19/02-浦东新区/浦东新区_AI解译建筑.shp"},"geometry":{"type":"Polygon","coordinates":[[[121.4948489200001,31.242498338000075],[121.49487431700004,31.242499004000024],[121.49487373200009,31.24251528900004],[121.49492769900007,31.24251670500007],[121.49492701700001,31.242535704000034],[121.49498098400011,31.242537120000065],[121.49498176300006,31.24251540700004],[121.49504525400005,31.242517073000045],[121.49504340300007,31.242568642000037],[121.49533863400006,31.242576389000078],[121.49534126500009,31.242503106000072],[121.4951000000001,31.242496776000053],[121.49510039000006,31.242485919000046],[121.4950019800001,31.242483337000067],[121.49500275900004,31.242461624000043],[121.49493609400008,31.242459875000065],[121.49493677600003,31.242440875000057],[121.49487011100007,31.24243912600008],[121.49486913700002,31.242466268000044],[121.49485008900001,31.242465768000045],[121.4948489200001,31.242498338000075]]]}},{"id":"72559","type":"Feature","properties":{"OBJECTID_1":72560,"OBJECTID_2":250578,"OBJECTID":16654081,"Id":16654081,"gridcode":249,"Shape_Leng":0.000300407409895,"Shape_Le_1":35.4669999927,"ORIG_OID":72559,"STATUS":0,"Shape_Le_2":0.000255498710636,"Shape_Area":2.75973612422e-09,"__source_file__":"10-AI解译数据/2023.12.19/02-浦东新区/浦东新区_AI解译建筑.shp"},"geometry":{"type":"Polygon","coordinates":[[[121.49493189500004,31.24264673600004],[121.49483641500001,31.242616961000067],[121.49482553200005,31.242642471000067],[121.49492101200008,31.24267224600004],[121.49493189500004,31.24264673600004]]]}},{"id":"71860","type":"Feature","properties":{"OBJECTID_1":71861,"OBJECTID_2":247774,"OBJECTID":16487340,"Id":16487340,"gridcode":249,"Shape_Leng":0.00100851058949,"Shape_Le_1":121.181200013,"ORIG_OID":71860,"STATUS":0,"Shape_Le_2":0.000825183999234,"Shape_Area":2.57778594814e-08,"__source_file__":"10-AI解译数据/2023.12.19/02-浦东新区/浦东新区_AI解译建筑.shp"},"geometry":{"type":"Polygon","coordinates":[[[121.49443411100003,31.243159956000056],[121.49441002300011,31.243134704000056],[121.49434110800007,31.243182758000046],[121.49444147300005,31.243287974000054],[121.49442670500002,31.24329827100007],[121.49445882200007,31.243331940000076],[121.49450312500005,31.243301049000024],[121.49453323500006,31.243332613000064],[121.49457015400003,31.243306870000026],[121.49455610300004,31.24329214000005],[121.49462009600006,31.24324751900008],[121.49459801500007,31.243224372000043],[121.49458324800003,31.24323466900006],[121.49455313800001,31.24320310400003],[121.49452360300006,31.243223698000065],[121.49445134000007,31.243147943000054],[121.49443411100003,31.243159956000056]]]}},{"id":"71351","type":"Feature","properties":{"OBJECTID_1":71352,"OBJECTID_2":245913,"OBJECTID":16365728,"Id":16365728,"gridcode":249,"Shape_Leng":0.000791259278355,"Shape_Le_1":94.6488777107,"ORIG_OID":71351,"STATUS":0,"Shape_Le_2":0.000618567360774,"Shape_Area":2.09825723145e-08,"__source_file__":"10-AI解译数据/2023.12.19/02-浦东新区/浦东新区_AI解译建筑.shp"},"geometry":{"type":"Polygon","coordinates":[[[121.49522430600007,31.24365526100007],[121.49528862300008,31.243684871000028],[121.49529615200004,31.243672917000026],[121.49534369100002,31.24369480200005],[121.49540090900007,31.24360395000008],[121.49523032900004,31.243525421000072],[121.4951731110001,31.243616272000054],[121.49523183500003,31.24364330700007],[121.49522430600007,31.24365526100007]]]}}],"name":"浦东新区_AI解译建筑","crs":{"type":"name","properties":{"name":"urn:ogc:def:crs:OGC:1.3:CRS84"}}}