{"type":"FeatureCollection","features":[{"id":"241","type":"Feature","properties":{"__source_file__":"19-其它/13-历史版本数据/2017.10/subwaypointutm.shp"},"geometry":{"type":"Point","coordinates":[353281.09271665267,3455228.7212739578]}},{"id":"6","type":"Feature","properties":{"__source_file__":"19-其它/13-历史版本数据/2017.10/subwaypointutm.shp"},"geometry":{"type":"Point","coordinates":[351688.77604920184,3455576.6648023403]}},{"id":"17","type":"Feature","properties":{"__source_file__":"19-其它/13-历史版本数据/2017.10/subwaypointutm.shp"},"geometry":{"type":"Point","coordinates":[352841.6404007992,3456103.4240035973]}},{"id":"251","type":"Feature","properties":{"__source_file__":"19-其它/13-历史版本数据/2017.10/subwaypointutm.shp"},"geometry":{"type":"Point","coordinates":[353129.46223631094,3456162.939543639]}},{"id":"249","type":"Feature","properties":{"__source_file__":"19-其它/13-历史版本数据/2017.10/subwaypointutm.shp"},"geometry":{"type":"Point","coordinates":[352925.4049719643,3456326.207651633]}},{"id":"78","type":"Feature","properties":{"__source_file__":"19-其它/13-历史版本数据/2017.10/subwaypointutm.shp"},"geometry":{"type":"Point","coordinates":[351214.3906342984,3456806.7859191718]}},{"id":"243","type":"Feature","properties":{"__source_file__":"19-其它/13-历史版本数据/2017.10/subwaypointutm.shp"},"geometry":{"type":"Point","coordinates":[353172.124120889,3456968.9756071437]}},{"id":"94","type":"Feature","properties":{"__source_file__":"19-其它/13-历史版本数据/2017.10/subwaypointutm.shp"},"geometry":{"type":"Point","coordinates":[354152.53850384033,3455521.3997177635]}},{"id":"246","type":"Feature","properties":{"__source_file__":"19-其它/13-历史版本数据/2017.10/subwaypointutm.shp"},"geometry":{"type":"Point","coordinates":[354738.3441916187,3456012.069323165]}},{"id":"26","type":"Feature","properties":{"__source_file__":"19-其它/13-历史版本数据/2017.10/subwaypointutm.shp"},"geometry":{"type":"Point","coordinates":[355503.11424754804,3456114.248860196]}},{"id":"2","type":"Feature","properties":{"__source_file__":"19-其它/13-历史版本数据/2017.10/subwaypointutm.shp"},"geometry":{"type":"Point","coordinates":[354284.20532899833,3456635.271041303]}},{"id":"8","type":"Feature","properties":{"__source_file__":"19-其它/13-历史版本数据/2017.10/subwaypointutm.shp"},"geometry":{"type":"Point","coordinates":[355228.0344937907,3457191.231099599]}},{"id":"233","type":"Feature","properties":{"__source_file__":"19-其它/13-历史版本数据/2017.10/subwaypointutm.shp"},"geometry":{"type":"Point","coordinates":[354012.67656800733,3457685.622893029]}},{"id":"125","type":"Feature","properties":{"__source_file__":"19-其它/13-历史版本数据/2017.10/subwaypointutm.shp"},"geometry":{"type":"Point","coordinates":[354033.77412372024,3457751.0115435743]}},{"id":"97","type":"Feature","properties":{"__source_file__":"19-其它/13-历史版本数据/2017.10/subwaypointutm.shp"},"geometry":{"type":"Point","coordinates":[355040.48646042787,3457893.588195707]}},{"id":"232","type":"Feature","properties":{"__source_file__":"19-其它/13-历史版本数据/2017.10/subwaypointutm.shp"},"geometry":{"type":"Point","coordinates":[356582.4429629473,3458530.731407725]}},{"id":"250","type":"Feature","properties":{"__source_file__":"19-其它/13-历史版本数据/2017.10/subwaypointutm.shp"},"geometry":{"type":"Point","coordinates":[353701.78234849154,3457282.785030205]}},{"id":"286","type":"Feature","properties":{"__source_file__":"19-其它/13-历史版本数据/2017.10/subwaypointutm.shp"},"geometry":{"type":"Point","coordinates":[350844.17569385015,3457502.9922763645]}},{"id":"68","type":"Feature","properties":{"__source_file__":"19-其它/13-历史版本数据/2017.10/subwaypointutm.shp"},"geometry":{"type":"Point","coordinates":[352796.24417994847,3457550.366342569]}},{"id":"75","type":"Feature","properties":{"__source_file__":"19-其它/13-历史版本数据/2017.10/subwaypointutm.shp"},"geometry":{"type":"Point","coordinates":[351404.42427950015,3457921.855733389]}},{"id":"287","type":"Feature","properties":{"__source_file__":"19-其它/13-历史版本数据/2017.10/subwaypointutm.shp"},"geometry":{"type":"Point","coordinates":[350097.86840089643,3458209.55289325]}},{"id":"1","type":"Feature","properties":{"__source_file__":"19-其它/13-历史版本数据/2017.10/subwaypointutm.shp"},"geometry":{"type":"Point","coordinates":[352687.29632589465,3458431.882755278]}},{"id":"288","type":"Feature","properties":{"__source_file__":"19-其它/13-历史版本数据/2017.10/subwaypointutm.shp"},"geometry":{"type":"Point","coordinates":[351125.6098187502,3459074.9201289667]}},{"id":"73","type":"Feature","properties":{"__source_file__":"19-其它/13-历史版本数据/2017.10/subwaypointutm.shp"},"geometry":{"type":"Point","coordinates":[352861.39060411684,3459554.5201160563]}},{"id":"104","type":"Feature","properties":{"__source_file__":"19-其它/13-历史版本数据/2017.10/subwaypointutm.shp"},"geometry":{"type":"Point","coordinates":[352829.8724539591,3459622.77386058]}},{"id":"289","type":"Feature","properties":{"__source_file__":"19-其它/13-历史版本数据/2017.10/subwaypointutm.shp"},"geometry":{"type":"Point","coordinates":[352528.1309056671,3460969.2997035263]}},{"id":"228","type":"Feature","properties":{"__source_file__":"19-其它/13-历史版本数据/2017.10/subwaypointutm.shp"},"geometry":{"type":"Point","coordinates":[354493.2261892836,3458698.0994338333]}},{"id":"221","type":"Feature","properties":{"__source_file__":"19-其它/13-历史版本数据/2017.10/subwaypointutm.shp"},"geometry":{"type":"Point","coordinates":[355242.28614704305,3458741.956769687]}},{"id":"223","type":"Feature","properties":{"__source_file__":"19-其它/13-历史版本数据/2017.10/subwaypointutm.shp"},"geometry":{"type":"Point","coordinates":[353782.678621397,3458872.1325102146]}},{"id":"56","type":"Feature","properties":{"__source_file__":"19-其它/13-历史版本数据/2017.10/subwaypointutm.shp"},"geometry":{"type":"Point","coordinates":[355698.46743271913,3459510.291544102]}},{"id":"229","type":"Feature","properties":{"__source_file__":"19-其它/13-历史版本数据/2017.10/subwaypointutm.shp"},"geometry":{"type":"Point","coordinates":[354861.5526196816,3459627.229296532]}},{"id":"224","type":"Feature","properties":{"__source_file__":"19-其它/13-历史版本数据/2017.10/subwaypointutm.shp"},"geometry":{"type":"Point","coordinates":[353784.2540392439,3460020.6843324075]}},{"id":"230","type":"Feature","properties":{"__source_file__":"19-其它/13-历史版本数据/2017.10/subwaypointutm.shp"},"geometry":{"type":"Point","coordinates":[354799.96221884515,3460832.989697766]}}],"crs":{"type":"name","properties":{"name":"urn:ogc:def:crs:OGC:1.3:CRS84"}},"name":"subwaypointutm"}