{"type":"FeatureCollection","features":[{"id":"13","type":"Feature","properties":{"OBJECTID":14,"NAME":"轨道交通13号线","Shape_Leng":0.397396962504,"__source_file__":"19-其它/13-历史版本数据/2017.10/subwayutm.shp"},"geometry":{"type":"MultiLineString","coordinates":[[[353412.05980882794,3455452.830162851],[353438.76350241946,3455392.5889952737],[353448.86456727743,3455369.1691502105],[353466.5050573535,3455337.8913345993],[353475.788383252,3455322.2459938615],[353505.7358690734,3455283.0737351715],[353517.08217433485,3455275.1726804674],[353557.700940318,3455243.6550484085],[353563.3664555307,3455239.155918884],[353567.1270135917,3455235.7908387333],[353610.5770548705,3455203.126495942],[353648.37722190353,3455176.0787214823],[353685.2671369853,3455150.151389979],[353720.2520634545,3455125.358314445],[353762.77373509936,3455094.9326112093],[353784.5567899217,3455080.2714319094],[353802.54502599733,3455068.9756640643],[353851.8045231415,3455039.5944238855],[353889.7018543887,3455016.9865748775],[353948.5611760899,3454989.717568517],[353956.1629877937,3454986.3093153164],[353960.89932710945,3454984.038392409],[353963.76480420475,3454982.9010678055],[353975.1426268309,3454977.2252612836],[353978.95303816715,3454974.967291086],[354011.21576937166,3454959.0835184488],[354029.2506497616,3454951.120310816],[354032.66384518426,3454949.621791716]],[[353412.05980882794,3455452.830162851],[353457.98067729664,3455395.724016561],[353472.9447519538,3455376.686812056],[353492.72560733825,3455358.71006986],[353509.7065122471,3455344.0950727505],[353562.4394484018,3455295.795176402],[353597.28123522934,3455263.230487336],[353606.69177801907,3455254.249014392],[353620.8727571113,3455242.9958904805],[353692.8704114914,3455201.154044621],[353792.36343418254,3455143.4746210556],[353810.36699866795,3455133.296260918],[353838.82235833496,3455117.454826384],[353858.73110997805,3455106.142556786],[353866.3172981682,3455101.616935864],[353891.9072952864,3455086.9130057036],[353961.0913487717,3455047.3273504577],[353968.643352772,3455042.802282303],[353975.28493083885,3455039.4073622157],[353977.1900555025,3455038.2733920617],[353988.5523774898,3455031.490269922],[353991.4179282178,3455030.3528515245],[353999.0042251855,3455025.827330879],[354018.8790443514,3455014.515853841],[354033.10697875917,3455006.595372288],[354042.5985861948,3455000.9458941603],[354083.32765578956,3454977.2018375657],[354107.4846186602,3454963.7166580795]],[[350074.3314216756,3456829.5443470576],[350120.4815773007,3456893.849638921],[350138.9840077162,3456919.120783596],[350145.79669376014,3456927.9045022973],[350153.60112921306,3456938.8893296705],[350166.25071478816,3456955.3630206534],[350182.76946231595,3456976.2221534727],[350191.5023192258,3456984.978551314],[350248.59427401435,3457039.7053540433],[350300.9063891131,3457091.1578241335],[350325.1184869354,3457115.250311245],[350349.3304761264,3457139.342950274],[350379.3315253674,3457167.79362397],[350397.6908961384,3457183.0888532475],[350442.11616224644,3457220.2352521834],[350463.3870421541,3457237.704319524],[350495.27641108213,3457263.9332627957],[350573.03304142214,3457327.4982997193],[350596.3590363937,3457347.2334142146],[350681.8710080337,3457418.482166394],[350698.3971411651,3457432.736125834],[350718.8109460075,3457450.287731958],[350763.57581416244,3457489.7755101337],[350782.05343255977,3457506.2270977115],[350787.8926393361,3457511.7221540376],[350792.75586251216,3457516.103554208],[350805.39440322143,3457527.080060503],[350814.17938524263,3457534.748569196],[350873.32317714905,3457577.4155377457],[350928.9180606785,3457633.4541862486],[350995.18009535706,3457699.360275888],[351017.6100565827,3457721.324169883],[351059.5396474872,3457764.176156262],[351086.7197341209,3457784.9852901264],[351123.3999521056,3457803.464709779],[351163.9544334601,3457821.8994877376],[351187.1183118555,3457832.757367973],[351285.59595779923,3457880.5576238562],[351328.08561252465,3457900.083170661],[351351.15203600447,3457906.502458057],[351356.94356575434,3457908.6557553057],[351400.26461699535,3457921.514293994],[351492.56677796785,3457944.956675507],[351526.2244775485,3457953.471898401],[351663.7007993554,3457987.5335811945],[351761.66476904484,3458006.467960649],[351806.82372247276,3458015.9794419166],[351964.29621846427,3458043.167479547],[352120.74199411005,3458068.137115026],[352130.3578560514,3458069.149427347],[352245.5316314589,3458087.9061520947],[352270.4389956745,3458088.7535847276],[352279.0291512599,3458087.5452878335],[352302.94524713315,3458086.1815403877],[352339.0515928477,3458071.3655566946],[352343.7861895525,3458069.0938305752],[352371.6887772024,3458024.3783882023],[352403.2417002175,3457968.525973995],[352419.0010491273,3457940.5949656903],[352467.46423352335,3457867.911489329],[352476.8401801823,3457856.704106665],[352530.1820426943,3457789.510444146],[352604.259539612,3457704.334900373],[352630.58044076234,3457676.296230553],[352636.1632561366,3457668.464825431],[352645.5240495567,3457656.150173984],[352668.58216448064,3457608.160846682],[352675.0629139128,3457595.876603542],[352675.99185988953,3457593.6483842703],[352676.92089332995,3457591.4202635977],[352692.4761986523,3457551.2792101577],[352724.43541383423,3457465.437480256],[352762.79534690495,3457363.990076408],[352782.8345817618,3457306.0350898663],[352797.4462747888,3457267.0151104676],[352811.1447082942,3457231.3406653027],[352835.8886270105,3457168.8995492556],[352873.4027101366,3457073.012465554],[352912.93400418607,3456981.537632673],[352914.7578599733,3456977.0818267516],[352917.5108077032,3456970.3877583668],[352919.3190440598,3456964.8145505292],[352921.1772537687,3456960.3582657827],[352922.0564316139,3456957.0132501456],[352923.8647587531,3456951.4400421735],[352926.6177750581,3456944.7560465694],[352930.2997216657,3456935.833892554],[352941.21496014943,3456904.6189229023],[352979.629082214,3456804.2794005205],[352996.0818026975,3456761.911320703],[353019.898975075,3456701.698944042],[353036.3054950044,3456655.9988758923],[353041.8117098077,3456642.6208927208],[353071.52453978744,3456537.9331097184],[353076.96873520507,3456520.1057803803],[353101.3962591025,3456442.1239717673],[353105.04757913353,3456430.977161371],[353111.3713312955,3456409.8148317854],[353118.670874781,3456389.7564052674],[353125.02559989394,3456370.8087531403],[353148.68625629426,3456301.7184418757],[353185.7475157528,3456180.2948207166],[353230.9614729766,3456031.028305984],[353239.07900957705,3456003.185516603],[353246.2672782083,3455977.570891207],[353259.8606593959,3455934.115685645],[353283.3000176926,3455853.923121565],[353296.8937958968,3455810.477953084],[353312.21584738314,3455758.128105509],[353335.7212102789,3455680.149992634],[353340.25258894544,3455665.668299112],[353341.18195573636,3455663.4401551457],[353342.06140079536,3455660.0951897795],[353346.60845364095,3455646.7307990403],[353349.34655942896,3455638.92964906],[353351.13986445416,3455632.2491119816],[353352.9795498807,3455628.8907676428],[353353.87783910614,3455624.4379948326],[353364.73421278485,3455588.794195617],[353366.52762374573,3455582.1136611225],[353377.3343134085,3455545.363027708],[353388.15987329115,3455507.4945320156],[353412.05980882794,3455452.830162851]]]}},{"id":"0","type":"Feature","properties":{"OBJECTID":1,"NAME":"地铁10号线","Shape_Leng":0.351878186003,"__source_file__":"19-其它/13-历史版本数据/2017.10/subwayutm.shp"},"geometry":{"type":"LineString","coordinates":[[356157.8221588541,3460473.1581229647],[356136.53152416047,3460451.415903334],[356112.11338304286,3460428.241706121],[356082.7856714878,3460399.547061963],[356054.387164521,3460368.624682905],[356049.49288985855,3460364.2214986337],[356022.023636847,3460331.0712881894],[356006.20190788916,3460302.3015430667],[355984.4306603543,3460264.6828548373],[355978.4547504039,3460251.4039972587],[355962.47668769304,3460213.7459229445],[355935.59768465185,3460156.1812640717],[355910.6533240168,3460099.7175152744],[355908.67262408824,3460095.284505797],[355906.69192123716,3460090.8513969644],[355880.6808060113,3460026.619446882],[355855.6750695171,3459965.7164203394],[355841.81554807926,3459932.5994879417],[355831.0193209299,3459902.8629693575],[355827.1121412822,3459892.958387079],[355806.5363232058,3459840.1168737006],[355783.0088721123,3459779.5728920717],[355762.44762061373,3459727.8289203322],[355759.4851112271,3459716.813823954],[355739.82296527305,3459660.647130369],[355736.92086251604,3459654.0415286077],[355729.9900629841,3459628.6923655285],[355723.95842355373,3459598.9104733784],[355714.82400326536,3459540.42419773],[355705.6623461122,3459487.446091529],[355700.45367551176,3459447.6948246467],[355696.3677585555,3459422.296550619],[355694.3913350155,3459415.688219217],[355676.487958713,3459352.8320947504],[355671.5141288276,3459335.189228763],[355669.5376752472,3459328.5808019536],[355643.09009636106,3459270.242505874],[355615.30646039615,3459209.5078272712],[355589.35406394594,3459149.8158087437],[355563.3708200713,3459087.8990181573],[355542.46909204137,3459041.4784294358],[355520.5730162676,3458995.071542989],[355512.78690764133,3458987.385601005],[355509.81557908584,3458980.7510912605],[355505.86529188446,3458975.237579158],[355503.89973218134,3458971.931907093],[355485.2300828812,3458943.251827967],[355464.73228389584,3458921.262396489],[355444.2341774346,3458899.26303485],[355439.34300999535,3458892.654843515],[355419.8047269657,3458870.6423255187],[355397.48197294585,3458853.1083749793],[355388.7358237259,3458845.435722517],[355346.0252266159,3458811.4490028736],[355303.31440337,3458777.472417947],[355273.2202153352,3458753.3602560363],[355264.47375614004,3458745.677832418],[355223.7280937119,3458715.007185262],[355209.1761116431,3458704.0618928378],[355190.75364627707,3458690.9249381036],[355179.11200623645,3458682.1648488715],[355172.31587938557,3458676.6806828375],[355159.6836051573,3458665.7090078234],[355122.7465819385,3458632.781138999],[355093.50063635584,3458603.1099851457],[355060.35346731846,3458569.0324096065],[355053.54193719703,3458562.4408849855],[355047.6750064811,3458554.7287986754],[355042.74904153874,3458548.111382896],[355033.87614680134,3458533.7753573917],[355010.32821750676,3458499.5954781133],[354995.36657431594,3458466.444743517],[354987.1704877728,3458436.5433767145],[354968.45289345016,3458352.3561595306],[354963.1365755353,3458322.4250556594],[354962.0198552939,3458313.5598835554],[354964.74289900495,3458304.641744335],[354968.41079591203,3458294.613001709],[354972.0290817823,3458283.477303535],[354988.3950454359,3458234.448245019],[355011.0071968058,3458160.926497265],[355035.49373173027,3458084.056257533],[355040.93663979403,3458068.45520392],[355042.5431609979,3458050.6719171186],[355047.6763822037,3458015.08874774],[355051.8151519762,3457979.5094213784],[355056.0037025694,3457945.0469253454],[355059.16743069864,3457908.3734074845],[355064.25120336807,3457871.6835005917],[355066.66112307395,3457845.008487536],[355069.77901929204,3457805.0029211487],[355074.0135190468,3457773.862635482],[355078.5002410801,3457756.04964561],[355081.18943508517,3457747.1419934123],[355090.3502938801,3457722.6190589876],[355101.28624791175,3457692.5239060232],[355108.61897478637,3457674.6816935907],[355114.127148882,3457661.3048553546],[355129.8021970837,3457626.714193613],[355143.57273103704,3457593.267205162],[355145.39733630826,3457588.801843883],[355159.21372969367,3457558.6770697995],[355172.9690724005,3457524.112831448],[355185.6995624825,3457487.3376792385],[355187.4937101239,3457480.657468865],[355192.1221277764,3457470.6156165893],[355197.599900986,3457455.014206149],[355209.3705949815,3457418.252209559],[355222.1204644378,3457380.369214579],[355235.79607284453,3457342.473500171],[355235.7159505418,3457339.141915711],[355242.9880868248,3457316.8604384484],[355250.1037166598,3457285.700471828],[355255.5015719525,3457266.767418645],[355260.03472324903,3457252.2866933914],[355270.8952683981,3457216.6348916716],[355282.7007977851,3457179.872637064],[355289.02839621133,3457158.7117412817],[355291.74833379616,3457152.0188213666],[355295.41701003956,3457141.9902354707],[355306.2779498566,3457106.348552892],[355317.12351542775,3457069.5894901855],[355323.41691543616,3457048.42909581],[355327.93512697064,3457032.840981837],[355337.82084282103,3456996.0951533117],[355345.92759023904,3456967.1368368156],[355347.72194977506,3456960.456765386],[355357.59259230376,3456922.6036359835],[355366.51851225167,3456885.871048131],[355377.2999389064,3456846.8978887354],[355380.8886637145,3456833.5376637625],[355387.17081951187,3456809.044800994],[355397.0570004453,3456772.2990550944],[355399.60554505343,3456755.6105858292],[355403.0228146352,3456732.264655825],[355409.0380790022,3456693.337022235],[355414.21928726335,3456661.0863210605],[355418.40968681,3456626.6141275573],[355419.2592452223,3456621.054598104],[355420.10880472,3456615.4950688016],[355421.8879820904,3456607.707690804],[355429.0047003783,3456576.5379435862],[355436.0720390047,3456544.271317304],[355443.1429859111,3456509.769535988],[355449.17401606566,3456471.95934224],[355455.26600285573,3456438.5885343784],[355456.1156878904,3456433.029009472],[355457.9444075448,3456426.348498244],[355459.78459042404,3456422.9905385273],[355459.6589124487,3456416.3368775006],[355459.5977861658,3456411.8874315983],[355460.44739089103,3456406.3279085895],[355463.10676035006,3456395.195672773],[355465.7699767915,3456381.8483129246],[355469.2940992371,3456366.263885932],[355478.0799919289,3456321.760497518],[355484.22174773866,3456289.496674906],[355489.51390989596,3456262.7923771394],[355492.96202453994,3456241.661159545],[355497.25980312016,3456214.970526636],[355499.93832993094,3456202.730508928],[355501.66804581974,3456193.8262289837],[355502.56716880033,3456189.373568817],[355504.2665626068,3456178.2546348507],[355505.1808947632,3456174.9093018835],[355505.10100994736,3456171.5876923497],[355507.63843909395,3456151.5666560633],[355511.98577623814,3456125.9828914423],[355515.4339996641,3456104.8517882535],[355519.7319131996,3456078.161173792],[355524.0793214033,3456052.577418996],[355528.34674226306,3456023.6620901586],[355530.00036751555,3456009.2110185246],[355539.5299198022,3455951.3766920185],[355543.8279819158,3455924.6860976894],[355547.2610223282,3455902.4376209727],[355556.04775606166,3455857.9343529902],[355563.21130275633,3455830.1067793597],[355573.25543909764,3455802.2397792493],[355591.6901575557,3455760.9667388224],[355614.64039187983,3455706.321036043],[355621.0800021079,3455690.706669484],[355623.7366125466,3455685.0517166876]]}},{"id":"3","type":"Feature","properties":{"OBJECTID":4,"NAME":"地铁1号线","Shape_Leng":0.359426172909,"__source_file__":"19-其它/13-历史版本数据/2017.10/subwayutm.shp"},"geometry":{"type":"LineString","coordinates":[[352977.1360147947,3454964.1152110607],[352995.95954310184,3454973.0927391527],[353000.79182853503,3454975.2504227925],[353116.1275095128,3455030.406608611],[353236.2788160217,3455086.6243424965],[353258.4010576458,3455096.334089907],[353356.428735364,3455142.8334331056],[353441.00668559084,3455181.7280095243],[353472.73970063287,3455196.8722115],[353538.26399604714,3455227.2120142938],[353563.3664555307,3455239.155918884],[353590.3551764218,3455251.0836135074],[353670.5287772145,3455289.1032714583],[353704.28546329716,3455304.299771003],[353819.19018914225,3455358.6111147692],[353848.1484129409,3455371.629701042],[353911.8383270508,3455400.939505568],[353917.6460253928,3455404.2115367088],[353953.3720919824,3455420.489107875],[353958.20409759425,3455422.6571857645],[353962.0759363083,3455424.8385884087],[353970.7300553017,3455428.0811233106],[353980.39413538115,3455432.4172955025],[353984.2658799507,3455434.59870721],[353987.1775448887,3455436.793439456],[353991.97526702355,3455438.9619080494],[354010.32768643566,3455446.540289953],[354060.5305688352,3455470.440203069],[354112.6383209384,3455493.2164684767],[354161.8804904178,3455517.130259401],[354221.76192601654,3455546.4846572946],[354267.1163901963,3455567.100031964],[354328.9022811229,3455595.3210989255],[354358.834864982,3455609.4450523388],[354435.0968276287,3455645.2892752727],[354463.09338007926,3455658.3226791257],[354483.34659655346,3455666.9930753387],[354518.12595956365,3455684.403077886],[354521.96317500004,3455686.5751841627],[354540.4068540066,3455700.8184700278],[354556.89946517255,3455712.8636994716],[354571.53655217413,3455727.1496740836],[354605.69998370996,3455764.5447577327],[354640.0353806617,3455811.9257636555],[354656.0384042659,3455850.6295414134],[354664.12582988007,3455874.964379277],[354667.1480982717,3455882.7056280863],[354669.14521891496,3455888.245856354],[354674.1185270035,3455898.185212161],[354688.34230213275,3455944.666679313],[354698.44583049364,3455973.433869247],[354701.8277856996,3456002.263964222],[354697.57789657323,3456032.2871401245],[354686.40388091106,3456050.172648174],[354661.3015256793,3456092.62718955],[354649.247609218,3456113.8476186423],[354633.4145989127,3456139.5606036014],[354631.574478986,3456142.9087457345],[354630.6449783753,3456145.1366676604],[354624.1457055824,3456156.3122324515],[354621.3607969337,3456160.781070144],[354613.91661240195,3456173.067267596],[354610.18691948144,3456178.6567035113],[354593.48940783297,3456208.811968277],[354560.09477002855,3456269.1225906448],[354547.0811930975,3456290.3564282837],[354515.52700781304,3456347.3090891857],[354484.90275950695,3456402.043793372],[354469.1508327109,3456431.078682186],[354459.8671102625,3456446.7131821704],[354458.95304777357,3456450.0585220144],[354455.2235420362,3456455.6480217655],[354425.54455472494,3456509.252350384],[354406.9622834913,3456539.4340589303],[354400.4137844692,3456549.492861644],[354393.9151121351,3456560.6685922355],[354389.29045445373,3456568.4856931986],[354380.9175855488,3456583.0100002754],[354375.298627863,3456590.8408711064],[354371.6341925985,3456598.6546609914],[354369.7599801313,3456602.003331452],[354355.8827597941,3456627.679681601],[354342.86661111144,3456651.13901806],[354323.3707993821,3456684.6562820007],[354314.1029234201,3456701.408332812],[354301.13642793614,3456725.964617597],[354299.29666346667,3456729.322797135],[354297.4225849869,3456732.6714816387],[354293.7239996089,3456740.4857787592],[354267.7760709991,3456788.501065482],[354265.0068337879,3456794.0773441577],[354247.400942895,3456825.3534137127],[354231.6007563002,3456853.2818672946],[354215.850264009,3456882.31710538],[354199.1705326588,3456913.5805392438],[354189.9030727827,3456930.332620091],[354164.90088561195,3456977.2275688294],[354126.63381899486,3457032.0396045814],[354115.4617762427,3457049.91585115],[354111.73273263266,3457055.5154621066],[354077.7599025379,3457083.62635557],[354061.71067628707,3457096.0124627473],[354055.1355431765,3457101.6316425223],[354040.97212841373,3457113.9915195485],[354000.4248232333,3457147.731842086],[353963.4643617931,3457168.1015783907],[353902.7745041052,3457200.944540919],[353842.9524962105,3457227.110296615],[353797.3519357485,3457247.570799864],[353783.1119060329,3457254.384313258],[353689.1307153312,3457297.5698083146],[353593.29193996463,3457345.212432844],[353565.82207520906,3457359.933644348],[353543.0378929742,3457371.2867810824],[353487.0889163809,3457399.6358687896],[353469.0243135551,3457407.590714747],[353386.4514738261,3457447.327386019],[353325.68750204914,3457474.6170093645],[353319.0478388602,3457478.022385554],[353273.4526603727,3457496.2699998314],[353265.83737323375,3457498.571401933],[353261.06807386864,3457500.8431719434],[353251.58241067105,3457504.268359719],[353245.85313939716,3457506.5535316104],[353231.598335066,3457512.2603864684],[353228.76789479284,3457513.397564951],[353216.38334562327,3457517.9707912714],[353210.6882085158,3457520.2454362754],[353161.2531719869,3457538.53718043],[353144.1337682331,3457545.381833916],[353085.1790472565,3457567.0997223663],[353060.4788888511,3457576.2456782246],[353018.62516907556,3457592.236938224],[352953.8331223745,3457608.469303209],[352944.31338392233,3457611.895255037],[352934.8125646738,3457614.223270403],[352846.231069566,3457638.472278505],[352835.7358414824,3457640.8044288484],[352792.84493321343,3457651.253228266],[352789.02025992546,3457652.404346708],[352786.19003951736,3457653.551616539],[352776.6548864454,3457655.8702883893],[352773.8058244551,3457658.125378294],[352766.1908328426,3457660.4271499678],[352758.5758457,3457662.729026976],[352728.1158394411,3457671.9363932936],[352661.5010392392,3457692.626547215],[352627.21655159036,3457702.9853802207],[352606.4038310718,3457715.4206673647],[352587.4769032503,3457727.829564409],[352565.9255203234,3457753.6062227464],[352534.02230945916,3457789.476533865],[352523.782665596,3457805.126387704],[352506.9973215862,3457830.846418908],[352489.31743981375,3457858.7941395417],[352486.565112705,3457865.4882465047],[352473.7633391252,3457898.935458784],[352465.521833485,3457920.115365621],[352461.0270721797,3457934.5969831683],[352457.5671884011,3457956.8472799803],[352450.7811865368,3458003.5511441096],[352462.1016113281,3458047.845668373],[352465.2495906814,3458064.4652799456],[352468.41628399934,3458079.9770745635],[352479.38762151334,3458104.289866861],[352482.361203518,3458110.9236919163],[352488.3423886087,3458124.1807963834],[352504.27259104466,3458157.324768259],[352520.2306225057,3458194.908661233],[352525.2050676317,3458204.8471682384],[352544.2361328248,3458251.2787428577],[352549.2261146629,3458262.3345674365],[352554.2317007697,3458274.497730244],[352556.2137756827,3458278.9103257023],[352563.17044516327,3458293.2713126563],[352565.1527386519,3458297.693877262],[352570.1426792273,3458308.7497107927],[352574.1413703726,3458317.58429385],[352579.11571297096,3458327.5228238935],[352601.85556207586,3458369.4820370763],[352633.5213074889,3458426.8823708636],[352662.27578980394,3458482.098404777],[352696.1939570438,3458558.3562890016],[352698.19166568096,3458563.886213637],[352699.1982338623,3458567.2048453623],[352715.1737189231,3458603.6712179244],[352739.1120086352,3458657.8274077335],[352759.13245107775,3458706.470531208],[352771.2212431155,3458739.6586782485],[352773.1877278706,3458742.963972008],[352795.2554829419,3458798.254020256],[352799.3471375518,3458813.7528424775],[352800.3693011902,3458818.1888889014],[352801.41015947785,3458821.507048555],[352805.470648331,3458834.781229173],[352826.8299977418,3458905.6273974953],[352828.9239931472,3458915.596383287],[352848.2542091883,3458978.6779317376],[352853.3368048506,3458996.388178744],[352854.48656120757,3459007.4879120192],[352860.36532848247,3459067.385167635],[352867.18512694235,3459128.3768107328],[352867.28175055154,3459132.825818167],[352871.80707462487,3459179.321253036],[352877.12834312324,3459231.243715963],[352878.2706327009,3459246.7140520173],[352881.46535315586,3459276.5343310274],[352880.6536644519,3459292.0320181674],[352880.7740479646,3459303.08633977],[352879.30861097074,3459342.910232604],[352877.1949507886,3459414.8135438133],[352873.42148470983,3459507.74446552],[352872.03005540115,3459555.3005836057],[352872.20922514016,3459572.999618734],[352872.4225959951,3459590.688204704],[352872.4501274398,3459595.108170061],[352873.59241994016,3459610.5785121666],[352874.26907902316,3459673.6019911095],[352874.29675273295,3459678.032025461],[352875.3307454494,3459685.7606676323],[352875.408120914,3459691.28759105],[352875.4699926163,3459695.7070762306],[352875.81270486186,3459729.9877461223],[352876.399757182,3459784.1618149835],[352876.48930621054,3459793.011335725],[352875.96847938816,3459831.724452307],[352875.3701472973,3459864.9007772403],[352874.5926836785,3459880.388031139],[352874.87688404444,3459908.033865223],[352874.9232570166,3459911.346012784],[352875.38660924265,3459956.6810217868],[352874.5506657115,3459965.5435026926],[352871.13144706213,3460005.384826609],[352859.9984209371,3460126.0389115554],[352856.58281266247,3460163.6750624673],[352854.0959538885,3460199.0829985007],[352852.38640317763,3460219.0036732047],[352850.6803221019,3460236.719158042],[352848.1471293861,3460268.8149511027],[352826.7085858148,3460324.325258843],[352778.27839770535,3460447.5774841434],[352768.93713297596,3460470.8880228964],[352737.16078916984,3460551.908399145],[352735.3187746371,3460557.462236679],[352726.9063679124,3460578.5445908997],[352709.13443585683,3460624.055449837],[352701.68525888864,3460642.919181651],[352681.12730345404,3460695.0947750504],[352622.7702780384,3460799.6081264056],[352556.89150111063,3460915.253589444],[352545.6040803551,3460934.171340038],[352493.8037864973,3461022.0394710805],[352425.1573997671,3461145.4480204685],[352411.0656247195,3461172.128559305],[352379.99980568385,3461227.725496144],[352345.25073224236,3461294.4103524215],[352312.4928864264,3461371.025734213],[352298.4418815808,3461405.4391786507],[352294.72427987703,3461416.537463194],[352292.8825367179,3461422.0814307164],[352286.3757854686,3461442.0398549014],[352282.8766824197,3461454.305565062]]}},{"id":"9","type":"Feature","properties":{"OBJECTID":10,"NAME":"地铁7号线","Shape_Leng":0.415117403329,"__source_file__":"19-其它/13-历史版本数据/2017.10/subwayutm.shp"},"geometry":{"type":"LineString","coordinates":[[349707.7926395526,3458602.5608648043],[349752.8469518718,3458596.695339053],[349812.0646046878,3458589.39313679],[349840.72922452114,3458586.858283116],[349904.7441561125,3458581.7232732186],[349962.10789391,3458576.653661814],[349968.7775279244,3458575.470852097],[349973.4956330133,3458572.0906847958],[349993.1351464867,3458547.4431141596],[350015.5914777914,3458518.334894721],[350040.84593414643,3458485.854041636],[350070.8346759994,3458451.110549424],[350102.71179692715,3458414.1150237527],[350117.6813278431,3458396.1898861136],[350121.4237266901,3458391.706162428],[350127.1018713427,3458388.3123864257],[350132.83014728344,3458386.025467754],[350136.5726126615,3458381.5517200097],[350144.04156891804,3458371.4767470174],[350156.0520796421,3458348.0259921136],[350170.8292259013,3458318.9976886753],[350178.26656231174,3458306.698088167],[350205.3946447972,3458270.868192322],[350230.5845040876,3458236.173653418],[350249.15458123013,3458203.7686559996],[350260.35054244904,3458188.102763546],[350270.53907537635,3458169.1183578633],[350289.0277032715,3458133.381833927],[350298.1271933109,3458107.747522614],[350303.629120436,3458094.3679176793],[350308.95449934975,3458070.9925138555],[350313.35140924784,3458049.845565482],[350326.2684958821,3457971.9797554463],[350332.37741587753,3457938.5948085296],[350341.47721001494,3457912.960552224],[350350.6585869586,3457890.647845915],[350357.07064796914,3457876.147764345],[350360.7344135416,3457866.1172604496],[350368.09064872045,3457850.4862150657],[350378.05590047606,3457818.184019881],[350387.348101215,3457803.642985057],[350399.44153262704,3457783.524080127],[350419.08365434327,3457758.8873973684],[350421.8821207944,3457755.5247956654],[350439.8465406747,3457743.1155857164],[350475.7596756976,3457717.189922844],[350483.34258154593,3457712.661720308],[350530.7737826427,3457688.82762316],[350557.32886783115,3457675.2188829347],[350600.7755243666,3457643.6585757383],[350603.6400291404,3457642.5202896465],[350651.83716781007,3457609.7951343325],[350677.40094824816,3457593.9755954086],[350705.7792138242,3457575.900941679],[350731.35895767855,3457561.1889802315],[350766.3132842011,3457535.268023473],[350775.75086401775,3457528.5084734126],[350786.13275834144,3457520.6179007916],[350792.75586251216,3457516.103554208],[350811.66553362773,3457502.5840250803],[350836.1408997545,3457480.104848203],[350866.295483844,3457454.2423567087],[350887.8937361663,3457429.5789139094],[350909.4420463074,3457403.8085671715],[350912.2407645681,3457400.4461072437],[350929.9803697646,3457376.9350523297],[350949.51445806783,3457344.527932769],[350972.82312580326,3457309.852051706],[350994.1962522524,3457274.0960898367],[351012.73624493973,3457241.6931251674],[351015.51935661363,3457237.2233567233],[351036.86105359485,3457199.232781119],[351052.63399535144,3457172.417069239],[351057.2587175371,3457162.373258509],[351068.3440225633,3457141.1519900714],[351084.9987178637,3457108.775876791],[351103.5079564648,3457074.158323373],[351108.0826125604,3457062.9977180525],[351120.0498822955,3457036.2260301504],[351138.51222264813,3456998.276465625],[351156.03019644873,3456961.4378947243],[351175.437184108,3456922.367486245],[351176.3659755979,3456920.139225283],[351192.93976536026,3456884.4217514955],[351209.4981517884,3456847.6068404373],[351213.19437715755,3456839.791470887],[351226.07232290006,3456811.8993999674],[351248.29462207825,3456770.5741295023],[351253.926894387,3456763.848933459],[351264.2470635404,3456751.519463194],[351269.8137816131,3456742.5799847594],[351346.69810297637,3456647.4275492756],[351360.71839552384,3456625.0974181956],[351504.46201033297,3456460.4507298535],[351534.49922692566,3456423.51611168],[351558.9037521882,3456393.296632526],[351575.771163897,3456370.936740209],[351594.446239004,3456343.0034262342],[351611.15726960136,3456309.549895245],[351617.6254158218,3456293.9623508644],[351620.3808521502,3456285.0627382407],[351622.2043985855,3456280.606695155],[351624.81916016375,3456261.7306863694],[351627.27474766667,3456233.9962697285],[351628.7889003488,3456205.16747402],[351632.14211379166,3456172.9801075906],[351637.38448090607,3456138.5607662303],[351642.62689109193,3456104.1415301235],[351648.81392968865,3456068.601326321],[351652.24547257344,3456041.960726311],[351654.0409005082,3456033.0746648363],[351654.96979505604,3456030.84635728],[351660.1967280919,3455995.3197034313],[351664.6352899546,3455971.987785461],[351672.80237510183,3455943.075206588],[351683.8188209381,3455911.9173365985],[351695.7642869585,3455878.5212081103],[351709.5834311127,3455841.785899737],[351710.48114775465,3455837.3428273923],[351718.60159212013,3455805.1082921876],[351727.66972284357,3455769.5275783176],[351738.62399960565,3455733.930275751],[351746.8071138532,3455706.1252139085],[351749.5628446345,3455697.2256524246],[351751.38656159525,3455692.7695416613],[351761.4277986593,3455660.5179724246],[351774.2715265984,3455622.67890134],[351782.5047012945,3455595.9807311203],[351787.0998464529,3455583.7325149616],[351800.9322708978,3455550.3199562677],[351815.7592202375,3455516.8934193263],[351819.363098002,3455502.4440700724],[351822.98248984327,3455489.1019592746],[351833.0084479214,3455455.7330798004],[351834.8976953029,3455453.491374815],[351837.6536653602,3455444.5918436795],[351840.3908754144,3455436.800132059],[351844.04149792815,3455425.6728010545],[351847.74221068184,3455415.6623915853],[351852.3686972112,3455405.6289822496],[351854.180022834,3455397.850308184],[351855.9881717412,3455392.286887461],[351860.633445422,3455381.1456644596],[351862.45718636306,3455376.689579989],[351869.8553695965,3455358.8739638496],[351876.340013142,3455344.384101571],[351886.53785809095,3455323.2063397635],[351890.1419143119,3455308.7569251736],[351894.69058422535,3455293.1866670563],[351897.6995341066,3455281.294241445]]}},{"id":"4","type":"Feature","properties":{"OBJECTID":5,"NAME":"地铁2号线","Shape_Leng":0.608935574719,"__source_file__":"19-其它/13-历史版本数据/2017.10/subwayutm.shp"},"geometry":{"type":"LineString","coordinates":[[351438.6850025618,3455497.0824549575],[351445.0343056887,3455501.384760664],[351473.9669008441,3455522.0904889954],[351487.4510452072,3455529.693284442],[351505.8114858663,3455544.990458784],[351517.40635791386,3455554.8250884],[351567.59516842687,3455591.905056518],[351575.3052568473,3455596.24658467],[351659.96213618526,3455642.8890899788],[351710.96967372333,3455669.9797887118],[351736.9613987907,3455684.0821000407],[351747.54886628373,3455690.6084921816],[351751.38656159525,3455692.7695416613],[351755.2585779736,3455694.9401794947],[351806.30944513273,3455727.5786506976],[351879.56026599056,3455775.471058463],[351912.32904568454,3455798.3590713865],[351948.98513358703,3455824.5153525975],[351964.4201251368,3455834.3063867264],[352020.31732740987,3455870.210391258],[352035.7178328683,3455880.0021081874],[352061.7241499879,3455895.2126236134],[352110.85572350427,3455925.6542842053],[352119.49110711075,3455929.983284135],[352165.6328516414,3455952.704057426],[352193.5280115353,3455965.6731388043],[352227.1311524266,3455979.6796563636],[352250.20961918007,3455991.5989987226],[352267.49895161926,3455999.149309717],[352291.49089606263,3456007.733055924],[352330.93934433744,3456022.805378031],[352357.8653881268,3456030.2904965356],[352361.7373738674,3456032.4713165215],[352419.4611975143,3456049.622417619],[352434.88656434277,3456053.8963205596],[352468.5806192079,3456064.64944329],[352523.4577768418,3456081.831137768],[352552.3660212476,3456093.7292345823],[352559.1341468879,3456096.997034953],[352630.710605868,3456138.431965738],[352685.8888034343,3456172.2639031745],[352726.52418692986,3456196.2616018658],[352781.70167406707,3456230.0940222223],[352820.4161941428,3456254.108967562],[352865.85175744747,3456278.05987204],[352874.55541229865,3456282.4084487422],[352936.322741224,3456311.7391336244],[353047.3184324894,3456361.636204732],[353062.7243015511,3456367.0287842164],[353091.680963867,3456380.0452369926],[353101.34459872777,3456384.380488859],[353106.12664685765,3456385.4413137147],[353118.670874781,3456389.7564052674],[353171.6093003354,3456405.8507878785],[353200.4695022445,3456414.4285099884],[353279.247782356,3456429.135135488],[353289.72562883806,3456427.9213599996],[353314.60568230535,3456426.546675118],[353338.510003192,3456424.068132094],[353346.1415845503,3456422.8841186156],[353431.1633259319,3456413.098121822],[353453.17852534517,3456412.8713236167],[353496.2639510375,3456413.5285000866],[353540.3559943164,3456417.5046500852],[353548.9630848734,3456417.4147522314],[353553.7794121382,3456418.475300124],[353557.6199388029,3456418.4318150324],[353561.4416993665,3456419.496139063],[353566.2425253767,3456419.4492620854],[353571.0741751305,3456421.617150975],[353578.76755882544,3456424.8728032443],[353588.38456157607,3456425.876429093],[353630.5252287222,3456427.654944591],[353671.78640466114,3456432.778568054],[353716.8537326221,3456437.8494309937],[353723.59031462274,3456438.8933275174],[353807.1494953203,3456454.6649728487],[353841.8470235126,3456468.741117675],[353867.891007717,3456479.564874612],[353880.46552602126,3456486.095620877],[353895.9169991471,3456494.821460038],[353901.73958594096,3456499.2008945397],[353918.23178902327,3456511.245117041],[353930.83689855976,3456519.990584788],[353941.52185993065,3456528.7628231295],[353951.2312284877,3456536.4309995268],[353983.2396234433,3456559.415544176],[354033.7832055426,3456603.2967175683],[354038.64553174685,3456607.6895454647],[354040.5812331432,3456608.780304509],[354055.15276669397,3456620.8413030654],[354127.1146874974,3456683.374482509],[354130.02590683056,3456685.569245098],[354137.7993181555,3456692.146909687],[354144.61258475995,3456698.7377915652],[354152.3859772348,3456705.315466339],[354157.232854328,3456708.6009153747],[354188.32626888785,3456734.9214542215],[354223.2446604837,3456760.091501163],[354267.7760709991,3456788.501065482],[354305.57442415634,3456813.64144297],[354310.4211497382,3456816.916989419],[354316.22796230204,3456820.1893124543],[354347.2095814833,3456840.9639506526],[354356.8876991876,3456846.417721667],[354393.50329226616,3456860.469032351],[354440.7107478967,3456876.6289678356],[354468.62367384875,3456886.330700879],[354491.7395828861,3456893.8638321487],[354542.8178979652,3456912.2056936864],[354546.63936582603,3456913.2704653773],[354608.29044245626,3456934.8391263327],[354650.53968470637,3456942.167987486],[354655.35555266903,3456943.2290282245],[354719.69520343933,3456955.880604581],[354723.5357400364,3456955.8475052966],[354812.8495309804,3456971.567321853],[354851.27333371487,3456980.04734374],[354857.04940254195,3456981.1051961896],[354954.353420256,3457016.732127781],[354964.941525017,3457021.0663469695],[355056.48785328737,3457054.528485328],[355064.2297910217,3457058.8920487245],[355121.12421678205,3457083.84190707],[355152.9717088484,3457097.9415017255],[355174.1969881769,3457107.717197354],[355253.3256729386,3457143.5372246415],[355282.2620055587,3457155.4521075045],[355289.02839621133,3457158.7117412817],[355297.6958938768,3457163.0626347917],[355309.2780443678,3457167.3835113305],[355420.0007617506,3457203.987499613],[355451.7826707454,3457215.8736880524],[355524.0669902682,3457242.8892489034],[355565.49516896263,3457258.005866634],[355584.7537550131,3457264.4667111463],[355636.62813854904,3457276.1375074917],[355662.5577773137,3457281.4292056547],[355698.13369386294,3457289.9413399473],[355779.06871573534,3457320.192534444],[355786.7797202619,3457322.3318874147],[355795.43168020993,3457325.575951141],[355802.18260643806,3457327.7284782194],[355807.95822637697,3457328.7767740353],[355855.1268703295,3457344.9433752047],[355871.5050629254,3457351.444203863],[355874.40040766017,3457352.5221341406],[355958.0738503601,3457374.9741164567],[356005.1965447976,3457387.8192936103],[356045.6024173954,3457398.501555959],[356132.6783452735,3457396.491816334],[356195.7416433708,3457391.4087237786],[356272.9400064074,3457371.7343081827],[356355.9332201463,3457352.001271231],[356363.5492260917,3457349.7121055466],[356384.57565098075,3457345.054569665],[356460.07535354624,3457326.5123892697],[356479.1666448519,3457320.763853918],[356517.3795502201,3457311.4917108184],[356537.4308796417,3457305.730187641],[356600.4159487143,3457287.3198644537],[356604.2411024812,3457286.170152856],[356633.8478520635,3457276.9857678753],[356687.28195307066,3457259.7837901833],[356702.54829729465,3457255.1854499737],[356735.0012211043,3457245.9725536336],[356747.436806846,3457242.5204685824],[356751.2277283297,3457241.371178623],[356778.89929814474,3457231.0860990905],[356784.8519585548,3457228.9451427823]]}},{"id":"10","type":"Feature","properties":{"OBJECTID":11,"NAME":"地铁8号线","Shape_Leng":0.373633147164,"__source_file__":"19-其它/13-历史版本数据/2017.10/subwayutm.shp"},"geometry":{"type":"LineString","coordinates":[[354979.81178114907,3455261.891611203],[354976.97305666166,3455268.7865642216],[354974.21839567693,3455275.479910948],[354968.7242069234,3455289.964064914],[354962.3960967354,3455311.135048089],[354955.1724096242,3455334.5235820636],[354945.5192868802,3455385.70482922],[354939.0639507201,3455452.387925152],[354931.61430414906,3455519.0847410467],[354924.08823222294,3455580.234768156],[354920.5454808109,3455596.927181986],[354918.75109962083,3455603.6073150695],[354911.54324128135,3455628.1132943295],[354887.838880735,3455694.9843292134],[354868.69879467343,3455749.589330623],[354848.4725257616,3455797.5438914225],[354835.61448445055,3455827.6557023376],[354831.98005077755,3455837.6840553214],[354827.3665620629,3455848.8433260005],[354803.3801031553,3455900.162719788],[354784.8261554303,3455932.558311159],[354781.09628134465,3455938.147678047],[354766.30303293077,3455967.17876574],[354730.1521597583,3456034.172215821],[354692.99565571395,3456097.8471168997],[354662.4157246363,3456155.9132789085],[354660.5755989484,3456159.2614158085],[354658.7012098497,3456162.6100263805],[354653.162099938,3456173.7723100055],[354650.37718447705,3456178.2411398403],[354632.8304515409,3456213.955939259],[354605.02065140835,3456266.436167758],[354576.300493333,3456320.0267402777],[354561.4776479105,3456346.833445248],[354527.0620855612,3456402.7081229887],[354496.4225057919,3456456.3254034487],[354488.0493098502,3456470.849714996],[354486.2248397506,3456475.315285033],[354483.3905004936,3456478.6772109843],[354480.60565686296,3456483.1459948556],[354467.6540236169,3456508.819439488],[354437.0799895433,3456564.651309131],[354406.45684364194,3456619.386297166],[354372.23102799937,3456686.364602107],[354350.9414116748,3456726.5621728785],[354346.3134037871,3456736.6044026343],[354340.8209558491,3456751.0889746766],[354313.17506834946,3456810.2333924877],[354310.4211497382,3456816.916989419],[354298.4304714529,3456842.5873594773],[354284.8034772712,3456883.8164303605],[354271.3646321015,3456936.1386956125],[354257.9755932052,3456989.577813221],[354254.4036824792,3457004.0458105463],[354246.41113546956,3457038.551431256],[354232.97277919366,3457090.883741338],[354219.47299174307,3457138.766613573],[354206.8067650106,3457179.9825232825],[354204.05316422443,3457186.676226122],[354196.9098077458,3457215.6222465527],[354175.9025015247,3457273.577473107],[354154.91457688133,3457330.4350153026],[354140.3133241198,3457370.560258668],[354119.05684261536,3457412.9730863594],[354117.23257700284,3457417.4287694474],[354100.47365074884,3457445.3707063347],[354077.28195652517,3457486.6929691085],[354075.4577757248,3457491.1586310193],[354063.4531133753,3457515.711941274],[354050.519188144,3457542.493355792],[354044.1944082893,3457563.6551084644],[354042.51237157645,3457575.8917666744],[354037.4474334316,3457613.699681635],[354032.4441592317,3457655.947101185],[354029.17247065617,3457687.0647213813],[354028.4659788403,3457700.395391345],[354023.4936003722,3457744.867558442],[354017.676046964,3457792.674104271],[354015.9752946426,3457806.018680151],[354012.7997049971,3457841.5752391466],[354007.1519500692,3457901.6028385996],[353998.68912958086,3457963.86478639],[353997.8405231927,3457969.4344430366],[353996.1089493535,3457980.5542924684],[353991.1094774644,3458020.576455509],[353986.7052431006,3458041.721681478],[353976.8406924008,3458079.576381004],[353964.2540365933,3458126.349518396],[353956.21724210645,3458157.5233121645],[353955.41482269065,3458166.4150756705],[353953.6370579701,3458174.2028686753],[353952.78844672185,3458179.762562129],[353949.12145232625,3458189.791692171],[353947.4088579129,3458199.803746791],[353936.53843626357,3458234.3397672796],[353923.0075820276,3458282.2336477693],[353908.53555911756,3458329.0131434645],[353905.8134042082,3458337.931590274],[353895.95291632856,3458373.5611887933],[353884.34233510593,3458421.428562563],[353870.9886292876,3458477.09316376],[353862.023259919,3458510.4951764527],[353855.93448847265,3458546.092351845],[353852.50608411024,3458568.3316592462],[353849.8801098717,3458581.6891563456],[353848.1983996603,3458593.9159087352],[353844.785566792,3458617.272524695],[353840.42827714595,3458641.7499222117],[353836.0708714546,3458666.2172546396],[353832.6427032523,3458688.4665440815],[353830.8805913023,3458697.371674924],[353827.4677066853,3458720.718333764],[353818.9916594252,3458781.8830959983],[353808.53401060734,3458838.6151250675],[353799.9465892783,3458894.2236852082],[353799.09828040923,3458899.79337067],[353798.1692340177,3458902.0213904455],[353791.58239946654,3458960.9348621294],[353782.05077381106,3459017.6640397734],[353779.551909343,3459037.685244071],[353774.1886836607,3459058.8340040497],[353769.64299495064,3459072.208177538],[353766.8746954858,3459077.7846375764],[353765.96113370446,3459081.1300667212],[353747.6825516906,3459130.1780895563],[353726.6856248042,3459185.91945626],[353702.5026467026,3459249.218781325],[353681.11877492914,3459309.1465930105],[353671.83968558046,3459334.6804409544],[353670.0242055761,3459344.6540305577],[353669.3343471789,3459368.99066585],[353665.92720644106,3459409.939012691],[353665.98873954435,3459414.358488276],[353666.1665060309,3459432.047512905],[353663.0141993427,3459496.2216741797],[353659.80391928623,3459553.7612160877],[353656.5662670463,3459606.8707425618],[353653.1320224462,3459643.399058055],[353648.5721721768,3459665.564428155],[353638.4070120432,3459698.8438967434],[353619.85806614795,3459755.4295428596],[353617.082878576,3459765.4165221816],[353617.1444413923,3459769.836100036],[353619.1069368196,3459775.346621609],[353623.0043939679,3459781.9379421743],[353633.7406834484,3459799.519796159],[353642.5109675713,3459813.806186557],[353679.5696950845,3459877.5602121376],[353686.3893659713,3459889.648721393],[353711.6628958953,3459926.9848098136],[353743.79028198135,3459976.418988348],[353780.6549136216,3460021.376869047],[353798.07511875906,3460038.8858053056],[353852.1937603232,3460086.9865376363],[353914.90500916174,3460141.6036916706],[353932.29031734646,3460159.1033459147],[353971.8719467336,3460197.3785613687],[353975.73825561965,3460201.755129822],[354006.6729935716,3460234.5928454814],[354016.32183362485,3460245.544653524],[354061.83865334955,3460301.4391759415],[354065.70502612554,3460305.8257440864],[354067.6210599964,3460308.014331357],[354110.2849276804,3460368.3590256083],[354116.0825926694,3460376.0316719185],[354148.9782854842,3460414.3704155385],[354202.0304521702,3460462.4576850845],[354245.4182769795,3460498.4757898017],[354270.4771372549,3460518.104637309],[354329.30213970575,3460567.2300448236],[354341.848683103,3460577.054237937],[354417.0050201196,3460637.0593862687],[354477.7175760715,3460683.954179575],[354482.5432686275,3460688.3177275704],[354488.28289870813,3460689.36571505],[354501.7277028613,3460694.757320944],[354530.49420969584,3460699.9767512195],[354644.50532902183,3460716.4791345308],[354664.6033185892,3460719.583734507],[354675.15701731585,3460721.6828405396],[354730.7667030019,3460734.374272896],[354737.46604077675,3460735.4092224385],[354752.81477209355,3460739.667266131],[354759.52932766813,3460741.8095661188],[354806.4893700629,3460751.2683273903],[354810.34368572757,3460752.3325741817],[354823.77292211284,3460756.617248099],[354831.4319085557,3460757.6389943906],[354840.06609265145,3460759.7647881513],[354846.7653130555,3460760.799707894],[354855.38419120014,3460761.8181788507],[354859.23849719425,3460762.882443261],[354873.612073372,3460766.0465854304],[354910.97805516387,3460773.3932444532],[354956.99707555247,3460781.758114897],[354971.3705886173,3460784.9222891056],[354981.8899479683,3460787.0321414485],[354996.2787310245,3460791.3037837637],[355002.05243880046,3460792.3417049153],[355015.43573471555,3460793.3143852716],[355024.0544253648,3460794.3230241993],[355057.585016011,3460799.508034918],[355086.7075426085,3460818.1546798632],[355105.1808680444,3460830.2528575077],[355129.47802204045,3460844.5457622567],[355138.27301256347,3460853.374971289],[355155.8324953522,3460868.81854032],[355173.40697162255,3460885.3596037496],[355191.01586496615,3460901.9101903704],[355226.6006000458,3460961.6481864117],[355246.32774692075,3460992.6180973784],[355254.51811491814,3461024.7548485585],[355270.6046695239,3461070.173547539],[355282.15582725,3461132.26842545],[355283.22276435024,3461140.036750887],[355293.6421120298,3461192.1491186474],[355294.5436687792,3461196.473204561]]}},{"id":"12","type":"Feature","properties":{"OBJECTID":13,"NAME":"轨道交通12号线","Shape_Leng":0.364931030222,"__source_file__":"19-其它/13-历史版本数据/2017.10/subwayutm.shp"},"geometry":{"type":"LineString","coordinates":[[352566.5438622235,3455062.1314702043],[352583.12101988087,3455086.6013068412],[352610.5075744523,3455131.718667904],[352657.3805535345,3455206.5279577426],[352665.44707289594,3455236.3497888963],[352671.34487359767,3455248.470620012],[352674.3651529021,3455258.4066601195],[352672.98761567986,3455297.2213828727],[352677.54205702606,3455348.1464924966],[352676.7368808305,3455359.233657603],[352672.4367503898,3455461.2516380944],[352666.9112322756,3455475.717661954],[352652.084837743,3455506.9276474686],[352645.6147721277,3455522.524430948],[352634.54844748124,3455550.359055532],[352628.99216219573,3455562.620307726],[352602.1673949113,3455626.1084866514],[352599.4141797418,3455632.792549632],[352598.51606885664,3455637.235529903],[352595.7473497676,3455642.812260834],[352590.2065350994,3455656.170903196],[352587.48116894846,3455667.294952944],[352584.68130170193,3455670.646952306],[352581.8783318368,3455676.224068054],[352580.9646362121,3455679.559718311],[352580.05102550564,3455682.895267798],[352578.2114504264,3455686.2437883774],[352571.7260518542,3455700.7232263647],[352529.1939582662,3455800.9820814775],[352528.29898563534,3455803.199854349],[352521.8293105385,3455818.796734219],[352485.63588382903,3455947.87411716],[352461.3983322317,3456039.185815496],[352455.9889851388,3456057.0030322857],[352444.3193618876,3456100.4324870175],[352437.26084007975,3456132.7114047133],[352420.46575173875,3456211.725448036],[352416.0635538498,3456232.8712707506],[352414.2554279171,3456238.4445647593],[352408.1072737741,3456269.5932255248],[352391.33141783706,3456347.499531446],[352388.7375231863,3456363.0720723975],[352381.3704384458,3456431.9956682217],[352376.4849870193,3456479.7903992413],[352373.2177096987,3456510.918524201],[352371.6308102467,3456529.809776557],[352368.3636596268,3456560.9380048066],[352362.48057274404,3456659.825530069],[352360.2047914476,3456693.1650354518],[352353.39289053524,3456794.2808354087],[352353.4582376584,3456796.4951254656],[352349.8513115137,3456862.043279514],[352349.1126077855,3456875.3845763234],[352346.8211924147,3456907.6067945315],[352345.3310232073,3456930.936996271],[352343.8097759978,3456952.0524277785],[352341.7710220423,3456999.8172453498],[352338.7598191301,3457044.272856359],[352336.03206483676,3457106.4759730166],[352350.8075357418,3457181.8242478385],[352354.98135758046,3457200.6545075346],[352367.1819436243,3457241.613825635],[352388.48436746746,3457308.009800478],[352420.76529293496,3457345.414468838],[352456.9142547385,3457387.2252927925],[352470.5421565907,3457400.405041908],[352566.91856834746,3457489.3172521302],[352618.5208754201,3457537.6272805873],[352669.147000375,3457584.833691844],[352672.98410513834,3457587.015086742],[352676.92089332995,3457591.4202635977],[352679.84770873317,3457594.7219656277],[352681.8144117634,3457598.0271466025],[352702.2242646501,3457615.572496999],[352709.9981128061,3457622.158992141],[352733.38451036543,3457644.1130648707],[352757.7121584272,3457667.1715305136],[352765.48584810377,3457673.758065557],[352787.8622067477,3457694.618737325],[352823.88422359794,3457727.541848389],[352833.60904752184,3457736.326299799],[352841.4136305644,3457745.127659063],[352874.52415034384,3457775.8664950766],[352881.3376808171,3457782.4566706936],[352942.32897212374,3457820.66854113],[352977.936872229,3457831.396236898],[353010.64906166226,3457841.0469022035],[353035.5723278771,3457843.0035015377],[353040.3381157563,3457842.9468698236],[353070.04608303786,3457843.749175293],[353091.11370186,3457844.6321847253],[353127.50747110584,3457845.3611943545],[353132.2732562411,3457845.3046042672],[353136.1134930977,3457845.270913077],[353156.22106556816,3457846.1675599394],[353162.94122720975,3457846.093663947],[353168.6670971468,3457846.0336552127],[353243.40563211404,3457849.6802088325],[353316.17440467305,3457852.24711597],[353378.45125316456,3457854.9208233412],[353454.0843959672,3457856.341193741],[353568.0467223243,3457859.58319761],[353622.6430790363,3457862.335384153],[353668.61808191787,3457864.0703569255],[353728.95923599106,3457865.655546846],[353754.7771059485,3457865.3862998635],[353768.1986523783,3457866.3571548243],[353786.42035653326,3457867.281225272],[353854.4226421624,3457869.888202601],[353905.16333340365,3457871.57791543],[353962.6398067622,3457874.3117863913],[354002.8731919355,3457874.9904923686],[354015.285027383,3457874.8680328415],[354097.6531850949,3457877.3270067605],[354160.98203561147,3457886.6663144846],[354239.7171053575,3457899.164927684],[354351.3007763878,3457931.305328678],[354356.11631981994,3457932.3661171547],[354385.94655247196,3457942.040950953],[354440.936983019,3457965.8958544293],[354449.63857014524,3457970.245666641],[354551.99997349613,3458022.4721096884],[354670.12894824997,3458044.5570581094],[354684.5407890281,3458047.740435622],[354850.3410379214,3458060.4476362597],[354971.0964245665,3458069.1787452106],[355034.36165706743,3458074.073782463],[355042.02277346153,3458075.1056186673],[355108.16797984636,3458079.9713644506],[355157.96248165244,3458082.7876328123],[355361.08297304896,3458094.0010161255],[355370.6640018149,3458095.0167503264],[355427.17832609673,3458097.7617999553],[355583.3800163906,3458108.3574801954],[355637.048449237,3458111.1327667125],[355751.5200290403,3458144.3655457767],[355765.06666345545,3458152.0025687465],[355784.36920922645,3458161.7957766196],[355806.58212135785,3458173.774251238],[355811.4126117801,3458175.9530952596],[355839.4159308649,3458190.0973189827],[355841.35114695795,3458191.188294101],[355844.2462697715,3458192.266208843],[355876.13501081744,3458209.6999090314],[355893.5022197669,3458218.4022281603],[355904.1381458639,3458223.8441994623],[355953.3786210503,3458248.873260286],[356026.66016233596,3458279.210803251],[356033.4255981013,3458282.4708853303],[356061.39790891553,3458294.400924948],[356138.2677036906,3458311.369353088],[356144.0086275652,3458312.428350671],[356171.87044903793,3458318.802367401],[356192.0563927132,3458323.0363588315],[356203.5418202961,3458322.9191542463],[356406.5342840679,3458325.2736598793],[356477.5339895902,3458326.7588014216],[356632.28254019626,3458341.8298636307],[356652.47227145534,3458343.8495092345],[356724.88272806624,3458370.8710898827],[356767.6779163527,3458403.7445924166],[356791.0124542172,3458420.15995634],[356809.46743703296,3458433.2892160886],[356817.2227709421,3458438.761338725],[356832.7675868808,3458449.705234744],[356916.56382786,3458509.6223627725]]}},{"id":"6","type":"Feature","properties":{"OBJECTID":7,"NAME":"地铁4号线","Shape_Leng":0.209660350793,"__source_file__":"19-其它/13-历史版本数据/2017.10/subwayutm.shp"},"geometry":{"type":"MultiLineString","coordinates":[[[356621.94384472683,3459683.42428874],[356553.2305115394,3459669.8782500033],[356517.93484859134,3459663.6648200783],[356492.1838439433,3459658.438671326],[356441.65686779516,3459649.090746741],[356407.3056052234,3459641.757144432],[356338.81805493427,3459627.7658314323],[356333.9537218729,3459625.5673015057],[356290.498925385,3459616.931629962],[356247.00979564176,3459608.2966040326],[356244.13002644735,3459608.3160544564],[356234.46629139176,3459606.153308834],[356217.05840900884,3459601.8114516516],[356137.1942990541,3459585.8218274284],[356115.1446447411,3459580.51600411],[356110.3302856945,3459579.464410217],[356081.59587276087,3459574.230141168],[356048.99180403457,3459566.833875738],[356042.29190119985,3459565.7980689486],[356023.11779848253,3459562.6781926174],[356000.1233329484,3459558.4930872847],[355979.9894184483,3459555.386339822],[355920.56614005857,3459544.93550107],[355882.23695537937,3459537.598290179],[355848.7029225917,3459532.4105227403],[355776.77877504635,3459515.466475767],[355721.042942754,3459493.9303259393],[355717.2073337655,3459491.7578321383],[355705.6623461122,3459487.446091529],[355696.9970743391,3459483.114864286],[355688.34694749466,3459479.880905549],[355653.7806586863,3459466.9649096085],[355617.26030685485,3459454.0658968044],[355612.4305295525,3459451.9070971883],[355603.7993896296,3459447.5655039176],[355600.9045758677,3459446.4876654446],[355584.53374170756,3459437.81209607],[355556.62157102994,3459422.609736472],[355529.60858653794,3459402.9847656186],[355507.410022583,3459384.411181858],[355443.65544563986,3459330.8768667034],[355407.93455165625,3459301.383845156],[355382.8102014618,3459279.518060783],[355364.4468007709,3459263.1171408193],[355356.7107494677,3459256.568179914],[355331.5321459578,3459235.7609433252],[355299.4734611515,3459208.3332331437],[355280.01206031715,3459191.8876414825],[355275.20090791857,3459188.6012482876],[355255.7392964279,3459172.145830131],[355227.5658408457,3459148.0173580195],[355208.1536735316,3459132.6688822364],[355181.9609033327,3459112.9536772245],[355179.05060832395,3459110.768619572],[355154.8423761868,3459093.25119015],[355150.9225920931,3459089.9625376137]],[[355150.9225920931,3459089.9625376137],[355113.27928616747,3459070.36530907],[355093.9433236082,3459060.57383289],[355070.7713618042,3459048.600153435],[355064.0212573147,3459046.448127441],[355047.6757502425,3459042.173353473],[355016.87403150357,3459031.3926060274],[354964.927100657,3459016.3936420144],[354937.0354166401,3459007.7981262486],[354909.0942295742,3458998.095822043],[354873.36624398804,3458980.69803573],[354866.63510224817,3458977.438326848],[354855.99932213227,3458971.9974075337],[354850.19375047024,3458968.724828882],[354838.5828220543,3458962.1898478214],[354821.1201316387,3458949.0402808036],[354811.4633216817,3458942.4882106446],[354807.5929208986,3458940.306540164],[354794.96054371644,3458929.3353965655],[354783.2538132314,3458918.351479587],[354767.7108918051,3458905.1854451373],[354744.3811607634,3458884.334036701],[354689.03603890474,3458839.3888060087],[354662.8107756905,3458817.450004584],[354649.21824565006,3458806.49229713],[354640.4713443514,3458798.810276861],[354623.96812514396,3458785.657717277],[354625.90337323875,3458786.748470253],[354633.61002249416,3458791.112159861],[354766.9412562729,3458861.8906889213],[354820.16310098686,3458894.6423690696],[354824.0335151077,3458896.82404457],[354832.7496124616,3458902.2914457824],[354863.6782687997,3458919.7353306706],[354919.7639636359,3458951.350273804],[354993.1665776849,3458990.559566721],[354999.9319246743,3458993.8189820424],[355009.59235390474,3458998.1558821048],[355045.3812524479,3459019.9935181015],[355074.38930523663,3459037.454504411],[355076.32445911213,3459038.545436869],[355111.172099433,3459059.278648432],[355139.3155901851,3459081.2019311395],[355150.9225920931,3459089.9625376137]]]}},{"id":"5","type":"Feature","properties":{"OBJECTID":6,"NAME":"地铁3号线","Shape_Leng":0.383754408482,"__source_file__":"19-其它/13-历史版本数据/2017.10/subwayutm.shp"},"geometry":{"type":"LineString","coordinates":[[349710.32559813466,3457965.813845751],[349904.36121141247,3458086.48898736],[349967.3460535152,3458129.105975133],[349973.1536447828,3458132.375930823],[350001.24499922525,3458152.0616660262],[350027.4344873684,3458170.6471862975],[350045.9122580006,3458187.107464766],[350074.151022459,3458212.339392261],[350089.7169326517,3458226.6060821996],[350099.45929886727,3458236.4855571208],[350105.3143745308,3458243.087580511],[350124.83365776355,3458262.8660140536],[350159.9343609001,3458298.0186124756],[350170.6525184975,3458309.0017805262],[350178.45912693127,3458317.801338337],[350196.02638518624,3458335.3724292913],[350230.1982523118,3458372.7537102522],[350261.44253713585,3458406.8440108937],[350275.1222175771,3458421.1279430385],[350292.68656573026,3458440.924428024],[350335.70569983486,3458490.4236141453],[350376.75714135065,3458536.61808868],[350384.5474258679,3458544.300378474],[350388.4506283384,3458548.70521512],[350392.3379265924,3458551.9926413405],[350401.0883071389,3458559.6712508984],[350403.999722529,3458561.855029035],[350423.53361863754,3458582.741324215],[350430.3641745236,3458590.4472702327],[350447.8648023967,3458605.804456021],[350488.9309200172,3458653.0968132406],[350529.9968160307,3458700.3992885365],[350573.98964386113,3458751.003046125],[350618.90758125414,3458801.593823285],[350644.31077100843,3458830.190236705],[350692.0448809009,3458876.310820065],[350720.2801800871,3458901.544376291],[350749.4095840185,3458924.550075553],[350785.2713371054,3458950.8129929947],[350810.450213676,3458966.0817831256],[350851.0798080626,3458990.07208337],[350882.95965146937,3459006.383439125],[350911.89657362434,3459018.286323338],[350944.670330463,3459032.3700483795],[350982.2436168832,3459046.395799999],[351018.82547930477,3459058.2206027727],[351053.4401253809,3459066.7305686823],[351100.49947401567,3459075.104236515],[351159.0749234571,3459085.5701485113],[351191.67247432034,3459089.6687948606],[351215.6333815716,3459091.624604528],[351268.43349410105,3459101.0553298513],[351308.7257898592,3459106.1629930604],[351361.44383813697,3459112.2325660847],[351410.2785924731,3459112.8293520366],[351448.52578655595,3459109.1056556418],[351470.4384433193,3459104.4354433836],[351538.0832769818,3459087.0454559084],[351588.4213719792,3459065.409984836],[351674.7962555877,3459026.7320508584],[351791.5175070561,3458971.0728745325],[351962.3225092925,3458889.2982640155],[352127.4173097175,3458810.91979888],[352138.82422864914,3458805.2413007566],[352143.55844606017,3458802.969467954],[352253.6459430607,3458750.7218000176],[352344.79406254477,3458709.7673506574],[352446.3249270972,3458660.94481733],[352546.0643029365,3458618.794075951],[352636.27029921545,3458578.973017581],[352640.06035817356,3458577.8223088454],[352682.7886354916,3458558.4941680813],[352716.97387431306,3458543.696362512],[352771.0911301793,3458519.7986783166],[352808.1409928093,3458503.863484294],[352823.32318835263,3458495.9277760005],[352883.08891453815,3458466.4236287884],[352940.9039744842,3458434.7220468456],[352980.7223190268,3458413.2007336705],[353026.25091960374,3458390.5122438977],[353127.803250378,3458342.803884408],[353170.46797870076,3458321.253639753],[353196.12975162314,3458309.8792167264],[353199.9198745324,3458308.7287173774],[353205.6145166997,3458306.4439780987],[353208.478995049,3458305.3064053585],[353211.34347397566,3458304.1688334295],[353215.13368600945,3458303.018338516],[353225.59716627107,3458298.4618040984],[353229.37192420475,3458296.203978846],[353232.2364062456,3458295.0663131066],[353237.9310635113,3458292.781691603],[353242.6811007452,3458291.6177097694],[353245.54567235755,3458290.4801462623],[353248.37590103847,3458289.343062899],[353255.95946453634,3458284.816785722],[353288.2262873683,3458270.0377333993],[353333.83685874904,3458250.682224377],[353401.251097766,3458221.10440364],[353454.4922181426,3458200.555446993],[353498.2452534456,3458185.656871529],[353534.47966527165,3458177.4987388593],[353577.41545923555,3458170.384973222],[353591.76572341117,3458169.1274534706],[353627.2136920704,3458170.9687791695],[353670.3074317863,3458172.7438000236],[353703.93147420336,3458179.0512301675],[353728.9000825408,3458184.341508912],[353752.92401417467,3458190.7426623246],[353797.2623472235,3458208.046942404],[353870.67789171217,3458245.0234996],[353905.496436246,3458265.763426724],[353913.23798260454,3458270.116065207],[353918.0687283218,3458272.284084194],[353929.64689628006,3458278.828637187],[353934.4931559925,3458282.1139660813],[353962.579520061,3458299.584872504],[353990.6160153309,3458315.939024019],[354018.7484553625,3458336.742143791],[354045.0069351739,3458360.894088549],[354081.19564391347,3458403.8170322576],[354112.45758219616,3458440.133057802],[354137.8054111964,3458465.4053963567],[354161.1527028015,3458487.37293032],[354206.7330818735,3458520.207745815],[354239.6796041938,3458542.062171271],[354303.5875862226,3458583.5938006453],[354405.2371118227,3458649.149417132],[354562.9885854187,3458747.4265194903],[354605.57578070834,3458774.7463987824],[354609.44620023493,3458776.927999454],[354617.1872056093,3458781.291202535],[354623.96812514396,3458785.657717277],[354755.6783664392,3458873.1120691355],[354785.789012369,3458898.3400857146],[354787.7394345729,3458900.5383007214],[354812.0288835978,3458921.376544098],[354818.8404396753,3458927.9678116585],[354820.790987236,3458930.1760012056],[354844.3116665357,3458959.905520838],[354850.19375047024,3458968.724828882],[354855.1350385153,3458976.449586548],[354860.04197850905,3458984.174820512],[354871.8865171323,3459005.145146343],[354888.8289920874,3459042.7186819203],[354896.88346564304,3459064.8488980797],[354905.094673194,3459095.847574477],[354910.2539581383,3459116.890179274],[354914.67140689347,3459151.2639599843],[354915.78826217615,3459160.1391043025],[354915.89908029453,3459165.685463061],[354916.07140058104,3459175.681288431],[354916.40044707037,3459194.5555407014],[354909.46158908366,3459325.2659178656],[354903.4548496519,3459481.2483367166],[354902.59803757526,3459491.2084217877],[354901.8022445475,3459505.5880706026],[354898.56616246863,3459564.2347872234],[354893.70040156064,3459643.898104423],[354884.37176571507,3459757.8982235147],[354881.65261896537,3459774.509560648],[354876.30597646575,3459814.366571851],[354869.23818746425,3459878.5442549316],[354864.10552761797,3459943.812841053],[354863.3365134357,3459962.602476222],[354860.7588060077,3459996.893215168],[354863.28587233333,3460063.1835067566],[354868.76494695095,3460137.186146999],[354872.04924970533,3460181.364234751],[354875.32982420735,3460227.747596714],[354877.6390821501,3460270.8316112743],[354877.7842133921,3460286.3058326878],[354878.9312337511,3460307.2940737447],[354881.0837671614,3460331.591263729],[354881.4581532007,3460373.584392324],[354880.1077368021,3460432.1852219775],[354876.7460933558,3460484.168263792],[354868.8070953463,3460557.1987950676],[354856.37878456805,3460660.1163529055],[354850.9411045929,3460693.3291365895],[354849.07893480203,3460699.980402964],[354847.2778321617,3460711.0511412853],[354841.8555199597,3460745.3713689814],[354840.06609265145,3460759.7647881513],[354834.5979305352,3460790.7628184413],[354824.6866068664,3460854.979965835],[354820.2241357354,3460889.286954401],[354817.60494211543,3460918.050478673],[354816.9509988583,3460950.109584244],[354817.19586076704,3460977.745921937],[354819.31797644874,3460999.828349894],[354824.5639774401,3461049.507327232],[354827.99102910556,3461091.5980072874],[354843.3532066586,3461151.444712526],[354854.6579562668,3461198.0065850485],[354867.586954637,3461225.6771391467],[354886.57323979447,3461269.9676600355],[354904.51938526717,3461310.9397672326],[354908.4999352147,3461318.677790487],[354913.4864079833,3461329.7546724584],[354915.4826363312,3461335.294944507],[354925.440055427,3461356.3212425006],[354931.0396269193,3461369.325092784]]}}],"crs":{"type":"name","properties":{"name":"urn:ogc:def:crs:OGC:1.3:CRS84"}},"name":"subwayutm"}