{"type":"FeatureCollection","features":[{"id":"80","type":"Feature","properties":{"NAME":"黄浦江","__source_file__":"19-其它/13-历史版本数据/2017.10/waterutm.shp"},"geometry":{"type":"Polygon","coordinates":[[[356903.5429891101,3457721.7081484096],[356872.60648977436,3457708.6986461165],[356836.8243501361,3457692.402557931],[356754.77924290695,3457663.2662099665],[356666.89373245614,3457630.857438142],[356566.21613338846,3457580.8029483063],[356480.85305722867,3457527.277539102],[356403.0592720828,3457468.1115846923],[356334.3488976468,3457381.092927547],[356302.7162397068,3457324.789543285],[356301.72595999035,3457322.5879330263],[356281.332745269,3457250.6150954342],[356278.8769020146,3457166.2538275886],[356281.7187520317,3457110.7067977395],[356290.1960025036,3457048.4473426384],[356305.78093913826,3457009.41961212],[356310.3803740529,3456997.1635422325],[356329.8856241498,3456961.424971825],[356339.25527864916,3456946.89860795],[356374.8017573092,3456895.4550666003],[356448.14627221954,3456809.211076091],[356558.86752286035,3456714.307581317],[356498.82720204035,3456604.1535138628],[356330.9090061637,3456357.883695516],[356315.44671863574,3456339.445371729],[356295.3363175531,3456357.7530223555],[356247.27981323056,3456404.8774936893],[356173.9536329949,3456480.026873508],[356090.6293212299,3456586.3654483836],[356073.7878515895,3456608.747232001],[356064.4222081372,3456621.058633267],[356037.2893407128,3456655.7545840265],[356019.970727426,3456705.9021026823],[355991.41603616136,3456769.484337024],[355953.4509188803,3456842.0560933435],[355930.5321244743,3456898.9159444408],[355909.68975353177,3456964.637925579],[355895.70536825736,3457040.2940272945],[355887.12014311063,3457097.007560095],[355879.85668648174,3457172.591589598],[355875.69532842666,3457209.2683293405],[355877.35936813423,3457248.120307749],[355876.1735370201,3457289.2165044066],[355876.68704776844,3457319.183762311],[355879.4823738184,3457368.0183286667],[355879.98071191227,3457396.878225182],[355879.176648158,3457405.769777564],[355885.4963098429,3457439.0201093177],[355898.84815478907,3457489.955117145],[355918.1770585694,3457554.1589889657],[355938.2754128019,3457609.461837318],[355958.221627946,3457653.671122629],[355962.2785675182,3457666.9563147645],[355960.5752842746,3457680.3004452903],[356034.6494063365,3457808.333254527],[356078.93560295645,3457824.540206636],[356130.3331407117,3457861.763753217],[356162.53382252675,3457896.9551303606],[356189.71789946884,3457918.8844324583],[356247.8801499575,3457959.3686503414],[356315.6037830282,3458001.977569563],[356319.6450276571,3458014.155520022],[356335.09609158407,3458020.6596799945],[356346.36158560764,3458009.4400410075],[356370.2778119951,3458008.0756145613],[356403.0392929151,3458016.628428975],[356475.67262298614,3458054.741003427],[356561.8060919762,3458097.1700114906],[356683.71955851244,3458155.875159502],[356764.0006056869,3458191.7001903104],[356835.9323919104,3458246.4781303573],[356866.96225781087,3458263.9364162474],[356886.22217244375,3458268.1743653626],[356895.8672629113,3458271.405704193],[356935.81474548747,3458282.6656737183],[356935.2625039361,3458013.80143162],[356905.6221764837,3457722.6414823183],[356903.5429891101,3457721.7081484096]]]}},{"id":"147","type":"Feature","properties":{"NAME":"赏心湖","__source_file__":"19-其它/13-历史版本数据/2017.10/waterutm.shp"},"geometry":{"type":"Polygon","coordinates":[[[354343.31496380514,3455813.913136369],[354346.14598130865,3455812.7763526705],[354348.98049993603,3455809.41438728],[354347.01404902426,3455806.10889218],[354344.1026188577,3455803.9140765197],[354341.1415685002,3455800.6123704603],[354340.1352810861,3455797.293586707],[354340.0738335437,3455792.854147253],[354341.8831038157,3455787.281236975],[354342.7783264238,3455785.0536903325],[354341.7720383692,3455781.734906458],[354338.73420638754,3455772.8863957697],[354329.969223965,3455764.0872254716],[354315.427730756,3455754.2504707845],[354308.5831961636,3455745.434709576],[354305.62574940186,3455739.9178063846],[354299.8336353196,3455737.7529049874],[354295.0479636276,3455738.9167627944],[354289.4167010068,3455743.4150651083],[354284.646365766,3455745.686293663],[354279.89499092754,3455746.8496837537],[354275.0938530821,3455746.8962087207],[354269.4283110701,3455751.394997106],[354267.6037362978,3455755.860554851],[354266.800812071,3455764.752256423],[354268.8323952036,3455770.2819708614],[354272.7193552997,3455773.5708364067],[354280.3821705448,3455774.602240537],[354286.1091736325,3455774.5428974694],[354290.9562959586,3455777.818474727],[354293.91736872087,3455781.1201673993],[354297.8351183719,3455786.633749856],[354302.66690018476,3455788.8019663384],[354308.39389504184,3455788.7426351067],[354313.1299230007,3455786.4718913655],[354317.931042064,3455786.4253830705],[354322.7474902014,3455787.4862427944],[354328.57022935635,3455791.865887378],[354333.44812408334,3455797.3661913658],[354336.4363354022,3455805.1078095627],[354340.41900037887,3455812.8356638495],[354343.31496380514,3455813.913136369]]]}},{"id":"156","type":"Feature","properties":{"NAME":"苏州河","__source_file__":"19-其它/13-历史版本数据/2017.10/waterutm.shp"},"geometry":{"type":"Polygon","coordinates":[[[349892.1402216145,3457215.8161147167],[349969.4019522627,3457278.0468133115],[350038.8454686656,3457325.9706926346],[350070.68550575053,3457351.0814743508],[350098.65883158793,3457369.5818737503],[350112.3469925665,3457391.5787860528],[350114.56446542044,3457414.826821586],[350113.02601481235,3457439.2260087454],[350088.3787538887,3457519.324781075],[350062.83380281914,3457591.753056696],[350042.8915488522,3457653.0354630793],[350011.24473864335,3457754.4284767616],[349968.30507961666,3457867.048817033],[349956.42362424254,3457897.1536195073],[349953.19596742606,3457930.5076663927],[349955.50138479425,3457952.6867528073],[349962.52771473554,3457969.260452413],[349970.3506400861,3457979.177157286],[349984.909370151,3457990.115355536],[350004.1865888352,3457997.6834061723],[350105.1319259888,3458021.0104202637],[350261.58409125474,3458045.9625889123],[350348.96170200256,3458060.5644046464],[350404.85587644024,3458082.1606237083],[350429.238145658,3458106.330720235],[350435.6881049017,3458145.1248274436],[350437.70648194366,3458205.0563699044],[350431.79603714426,3458300.613860849],[350427.21066427784,3458363.962169027],[350411.6532845909,3458456.2942238846],[350411.3042900118,3458489.6071332],[350416.3437805504,3458503.9841748956],[350428.1663728715,3458522.7350449534],[350449.47532870993,3458535.8229411026],[350475.40520891274,3458541.1019096654],[350499.38342242903,3458544.1735294084],[350514.69298547343,3458542.8981276215],[350539.4389732977,3458534.8529531597],[350562.13612531906,3458520.171385181],[350622.5665914221,3458475.0983028803],[350677.41673188494,3458437.8680455727],[350725.53150985553,3458399.5961842365],[350755.8117372276,3458380.386977787],[350778.6540967646,3458373.4770209063],[350795.9785246298,3458378.848992299],[350807.6401263107,3458388.711793864],[350818.53359723405,3458409.691456526],[350829.5085865638,3458434.0027551055],[350850.52990722377,3458484.85375828],[350868.6081353121,3458531.2961808303],[350886.6862159602,3458577.7386312974],[350908.76144348644,3458635.240348829],[350932.8535110681,3458697.1538906437],[350945.3659195041,3458752.546134011],[350955.55626418657,3458786.8570364295],[350976.0154089044,3458861.025738676],[350988.94095551,3458887.534705186],[351000.76210830885,3458906.2861729255],[351024.0525329956,3458923.8074158123],[351047.1983336139,3458933.547612954],[351064.49017749564,3458936.6952562574],[351090.3241492631,3458935.3014930426],[351126.47323069157,3458923.813253658],[351152.9441951944,3458906.8643046655],[351172.6986136723,3458887.7753583323],[351207.20076569513,3458837.434961562],[351223.74001272686,3458799.512542572],[351236.8723056773,3458731.633391964],[351238.2495302706,3458700.531263174],[351239.6551650556,3458673.859132866],[351244.1193795798,3458654.9368361873],[351249.4935802485,3458634.894067745],[351253.0607254598,3458620.4248466115],[351258.4506322384,3458601.489462764],[351263.1219599446,3458594.777777276],[351268.7532172337,3458588.052514036],[351288.5712686939,3458573.4033115585],[351313.3334810089,3458566.477331587],[351339.055648956,3458559.53783763],[351369.64052381343,3458556.989991793],[351407.90211861645,3458556.5688865413],[351492.2180410534,3458561.2148739877],[351533.5351073345,3458570.7693369505],[351640.884176509,3458579.611456651],[351674.4770931459,3458583.6875885823],[351734.9247157853,3458593.0427918574],[351790.78153811337,3458612.4214443346],[351894.1144223263,3458662.393588318],[351914.3957335184,3458673.283628057],[351946.41835896083,3458697.3693417],[351969.5169039038,3458703.7894240012],[351992.5498142193,3458707.9853102705],[352013.58452169906,3458706.64146217],[352029.8039551162,3458704.247857881],[352043.08104218787,3458697.4453515285],[352058.24680140987,3458688.4010941586],[352067.6528316322,3458679.417950091],[352073.1877812623,3458668.2541378145],[352077.5878938003,3458647.10800726],[352077.654861384,3458598.253148981],[352077.0490391785,3458564.944022655],[352072.68906010536,3458481.7162373527],[352069.51066764694,3458411.792905709],[352062.172528605,3458375.2357719187],[352046.979428574,3458328.7609515986],[352025.89816141245,3458275.6835338497],[351979.62532955204,3458204.001928961],[351936.4225566184,3458143.393133574],[351894.4825009997,3458099.4305268177],[351856.3008900819,3458052.092334509],[351844.46485271095,3458032.232573679],[351838.21082663443,3458004.541005722],[351845.394075763,3457978.925194377],[351864.0976779206,3457953.1870075525],[351897.8526626254,3457915.0732808365],[351947.78169599705,3457871.2338929526],[351993.05769228155,3457832.9982244284],[352050.6178759263,3457787.964334232],[352122.370219406,3457732.7928086044],[352214.96976944443,3457665.17525544],[352260.3099781973,3457631.380290041],[352314.8176957376,3457576.392593764],[352369.1047495608,3457508.08727845],[352413.9070510856,3457443.208215105],[352472.93026377505,3457372.6218792666],[352533.16976272024,3457315.349866296],[352571.88847002934,3457286.069611331],[352605.99679570005,3457267.9399929135],[352643.0819802377,3457254.2191010723],[352677.51122810825,3457251.64137346],[352707.31413607014,3457259.0968466955],[352740.04376585974,3457269.8441714263],[352791.29797729186,3457298.173472735],[352826.23380077106,3457324.456288776],[352877.8820613269,3457376.0897232275],[352926.87359073444,3457438.8663569135],[352947.48834607383,3457468.622685042],[352976.8245653544,3457501.6297816415],[353001.2637803096,3457530.235131385],[353022.63336972945,3457547.7776156235],[353059.3604116463,3457567.370625824],[353098.91786275397,3457585.8365908177],[353161.4974805215,3457605.1586676924],[353188.3877768136,3457610.4209727915],[353216.2072761926,3457613.4651804557],[353245.8968885533,3457615.365799528],[353280.34044282604,3457613.897375105],[353319.51885226707,3457610.1478518425],[353381.57378299336,3457601.7190261493],[353426.3202533944,3457589.031593631],[353466.26993201196,3457574.176062468],[353535.59351219074,3457543.4652518495],[353587.6244415856,3457509.613017042],[353629.2407286426,3457481.4139829027],[353666.02604942804,3457451.0472153975],[353705.64543707337,3457417.318415595],[353735.9645377317,3457400.342845736],[353782.53627350216,3457383.1913018916],[353833.1406377533,3457374.8944866373],[353852.273400901,3457374.6884810757],[353870.44613783894,3457374.4958485807],[353882.90825522674,3457375.4801854473],[353892.5243042619,3457376.4841165305],[353906.9527488415,3457380.773893258],[353932.9945736836,3457391.6077644974],[353957.11615918006,3457402.458382789],[353996.7032051813,3457423.142420947],[354045.0881730204,3457452.6150534474],[354070.3116277923,3457471.2236591103],[354101.3877996872,3457496.4365337742],[354140.19039702165,3457524.8950148183],[354198.28284949466,3457562.046623464],[354273.57158021466,3457597.8925714386],[354334.1977915484,3457615.0234316033],[354398.4570981411,3457622.126127452],[354434.80163833423,3457621.742749122],[354488.33143983653,3457616.7512530265],[354520.75897723564,3457610.8545352183],[354573.01444918977,3457588.099959459],[354648.7741782068,3457544.006716225],[354725.5135267795,3457498.7929434236],[354740.6181730174,3457487.5284844288],[354764.36351755296,3457476.184636882],[354807.1610162221,3457461.2949900846],[354841.6203126425,3457460.93907162],[354882.9531839818,3457471.614091397],[354917.6494547819,3457483.46843818],[354950.5326660003,3457503.1109205275],[354993.2495631537,3457537.086262873],[355040.99973261415,3457585.450760276],[355097.703098559,3457651.4831686215],[355205.0954712956,3457770.2808333565],[355251.8377854881,3457815.327369725],[355301.2230363027,3457848.124457115],[355353.4728007327,3457879.784761986],[355405.51622259774,3457901.4500336736],[355445.00671838014,3457915.475209114],[355489.18657259305,3457923.8982068375],[355524.6500107408,3457926.863351394],[355568.65829147515,3457925.3009048686],[355626.87618805957,3457914.7029042887],[355678.29410284857,3457900.845898556],[355733.44554816186,3457879.174934812],[355774.3379160231,3457865.4328856957],[355791.50400095596,3457861.9246351896],[355802.9746304468,3457860.689700412],[355825.83620109654,3457854.908219553],[355848.69765778806,3457849.116813098],[355906.76023719076,3457829.6419876395],[355930.42583646905,3457814.9592076764],[355940.8567537728,3457810.415952962],[355952.29711182625,3457806.966454346],[355963.76794819103,3457805.741674186],[355988.6104642954,3457804.3736929637],[356002.9765416477,3457804.2268579933],[356034.6494063365,3457808.333254527],[355960.5752842746,3457680.3004452903],[355950.3154356213,3457694.8394150254],[355939.8349423103,3457698.275760241],[355906.40146395273,3457700.849167986],[355833.0917988711,3457723.805792514],[355829.3165001825,3457726.0726942797],[355812.1957300295,3457732.9029686837],[355779.2458488115,3457763.229338399],[355763.24135367386,3457778.934911235],[355747.1608192688,3457789.0937080267],[355646.42677108664,3457830.109187224],[355564.51272950263,3457853.165922633],[355502.36292539723,3457857.1428957],[355427.50387456204,3457844.5915230094],[355378.3670729903,3457827.3364174794],[355340.6396891441,3457804.406655795],[355301.8567840829,3457777.051263081],[355270.73859806475,3457748.5028964113],[355146.0391546885,3457625.4428068106],[355067.9548108347,3457540.756228592],[355030.00770191767,3457504.499693669],[354983.4046741307,3457467.235097837],[354929.2776635481,3457438.935090859],[354888.7939227239,3457422.700303572],[354857.1380127298,3457417.469506453],[354823.57387463213,3457415.6078328243],[354767.21249687776,3457421.744240417],[354723.45472752675,3457436.6373292934],[354689.32469093613,3457455.8678111904],[354626.89036414237,3457496.493693415],[354567.22554561973,3457531.5337992925],[354536.84056372626,3457546.282702553],[354507.3697116175,3457557.69631228],[354461.550852209,3457564.8360582953],[354416.63073426415,3457567.533244196],[354366.84523286927,3457568.052899036],[354328.4845704646,3457564.0141478246],[354285.200542711,3457551.143186057],[354223.3793508316,3457519.5807007793],[354173.90851922904,3457483.456897453],[354133.1703437312,3457453.907575276],[354070.1690005555,3457409.041389452],[354022.7285713985,3457378.447945119],[353961.92747795966,3457351.3330169916],[353917.5705730281,3457332.920528976],[353872.4420266587,3457325.6247052182],[353823.64959043247,3457326.133073966],[353770.31059793907,3457340.0158376815],[353721.76880267437,3457356.077262453],[353681.97577215766,3457379.810207895],[353637.68640836736,3457418.0344154495],[353611.28492958844,3457440.513630401],[353572.5641269953,3457469.7899783757],[353506.18211173295,3457504.919814074],[353453.9779636888,3457528.786650272],[353416.8927232493,3457542.494709398],[353371.217067257,3457557.4202765548],[353316.8854495648,3457571.319272955],[353273.91631647345,3457576.2093135845],[353246.22416124505,3457579.838627957],[353225.17143022595,3457580.0525932456],[353202.15230975614,3457576.9712866507],[353152.0655541728,3457560.847173745],[353120.29716952424,3457550.075229608],[353091.3746072322,3457539.273604031],[353062.3279327449,3457519.593130709],[353039.03832678753,3457502.077395946],[353010.7898959265,3457475.7303956477],[352986.30387566343,3457443.7829545536],[352960.7924359002,3457409.6347236577],[352924.39076642774,3457354.504846206],[352907.7090718398,3457331.359034964],[352889.1072366475,3457308.2401032383],[352850.1572448204,3457272.015011697],[352812.4531055369,3457251.3187721455],[352783.4672464865,3457236.0784904035],[352762.2242089611,3457225.200164252],[352728.51864176174,3457213.3388841082],[352687.163511866,3457203.7900398257],[352655.55219061207,3457201.8978949757],[352619.2993226327,3457208.9515530225],[352576.5344502224,3457226.064916809],[352545.28753171116,3457245.272079099],[352505.6740408989,3457276.7801542864],[352481.22587370314,3457301.4700518125],[352434.20320120436,3457347.4909991277],[352371.27432542987,3457415.8972370536],[352324.570705669,3457479.68561333],[352273.05175569304,3457542.414320309],[352227.02250231616,3457590.6575002503],[352198.70429111295,3457613.1673745457],[352178.883164899,3457627.814724894],[352136.3577729977,3457659.3552911123],[352093.86691908166,3457690.895558138],[352024.9290986944,3457743.822454939],[351952.20172739786,3457797.900808487],[351902.2253821627,3457838.4080556645],[351855.0140063354,3457875.5538253305],[351816.4432319836,3457912.607997862],[351786.4317220796,3457946.238855296],[351773.44160941744,3457968.593820529],[351767.184215185,3457994.1966378544],[351771.5340979904,3458023.022610318],[351784.5397283071,3458052.864106116],[351812.9150774861,3458088.086849736],[351852.00992833346,3458132.089237542],[351890.1100732431,3458176.095789219],[351931.18671102193,3458224.510885876],[351974.517318914,3458291.7833777186],[351998.26951384416,3458334.834797513],[352016.4208568401,3458386.8258522395],[352019.1216963881,3458430.1037788107],[352020.0617777149,3458482.2772284998],[352016.77679360006,3458565.5926633645],[352016.6289126928,3458611.1159093617],[352012.9826469964,3458620.0379753606],[352007.3665419912,3458627.8701986764],[351996.0250887673,3458635.7730477983],[351976.92566413403,3458638.1972701936],[351958.611115181,3458630.612180008],[351914.2399108291,3458611.1008024164],[351821.56029909756,3458567.6837344207],[351786.89778805815,3458555.8391022584],[351720.57780618605,3458541.008473127],[351615.07002239506,3458526.591571323],[351486.6352375077,3458517.9776726323],[351413.88563761365,3458516.530948902],[351367.04970276746,3458519.258501775],[351327.9063341396,3458525.2302120687],[351301.2241583008,3458532.1833068957],[351268.86344552436,3458542.5196437566],[351241.3185178542,3458553.925476237],[351222.4604143545,3458568.5611841925],[351216.8135025691,3458574.179094971],[351203.77518923394,3458595.4080138057],[351198.3697018594,3458613.236051277],[351191.1885410632,3458638.852403939],[351184.75740981655,3458654.4697914645],[351181.1903720042,3458668.9390405],[351182.6303426611,3458695.570904066],[351185.0460389488,3458723.306534778],[351181.7362743068,3458751.1032585655],[351173.57675832615,3458777.8410855737],[351168.68289726105,3458824.52936227],[351166.0444988605,3458836.770276219],[351161.47048744943,3458847.921017948],[351150.2583740236,3458862.4785764427],[351138.9334621083,3458871.489765248],[351119.928826424,3458880.5698163505],[351099.96723665914,3458887.448256971],[351080.88422261213,3458890.9914880097],[351062.66669608955,3458887.8569294373],[351045.29327491275,3458881.3776595416],[351027.7310902702,3458861.579943828],[351014.82131067803,3458836.17831182],[351013.70128935185,3458827.313419519],[351013.55686421006,3458819.5423018085],[351018.114901474,3458807.27413559],[351019.90612523525,3458800.593165903],[351019.84320983605,3458796.1536749923],[351021.2168770024,3458767.2667330154],[351020.06532977964,3458756.1771072694],[351013.0752859453,3458739.59230561],[351008.08394155,3458728.547121149],[350989.33558313805,3458697.6603222196],[350987.27117298497,3458689.9064411977],[350988.90226817364,3458674.346972238],[350981.88073499687,3458655.547432141],[350976.0107784901,3458647.837517545],[350960.39673410956,3458632.4626399246],[350952.59106602985,3458623.6625995142],[350931.6334292815,3458577.250902737],[350911.55689064896,3458525.2787621347],[350883.4639862818,3458454.51129886],[350879.4666089789,3458443.4520684257],[350857.32518591755,3458383.7361354316],[350839.5357708171,3458352.8359608343],[350824.75221973297,3458330.7839107797],[350810.1790172752,3458318.7272421014],[350781.4505308613,3458316.8199310307],[350751.04118746996,3458329.3653152026],[350721.72062056896,3458348.5509230825],[350700.974502378,3458365.4395682686],[350656.5864816149,3458398.1205876768],[350598.0410103308,3458443.166652415],[350547.9911204531,3458480.349059948],[350528.12646977854,3458491.667574249],[350505.3002538149,3458499.6854721094],[350489.0465834342,3458502.0918919896],[350473.64218184294,3458496.7030985276],[350460.04445475305,3458485.7406329243],[350455.9492038721,3458470.242539094],[350454.6522210309,3458451.3818334434],[350467.4748138367,3458366.8519592765],[350470.1721604365,3458305.7557165558],[350475.2204023738,3458214.650916505],[350476.87876564683,3458148.0015181773],[350476.1733173167,3458108.0380591312],[350466.98823466024,3458077.046029684],[350451.1961620275,3458051.676006065],[350426.04885985923,3458036.4074985343],[350363.4499778131,3458015.9842334026],[350268.4419524623,3458002.5785751003],[350115.7793190581,3457976.4846098786],[350038.0168029156,3457962.8950719056],[350006.0849896231,3457943.25394672],[350000.8335505305,3457918.8817099934],[350009.8691271519,3457888.7975962115],[350052.6166510773,3457765.084176108],[350086.08641026716,3457659.234901165],[350105.1505149663,3457601.287917154],[350128.6907537807,3457527.74080696],[350155.2181765763,3457452.015835399],[350162.2144404008,3457408.709643163],[350156.9748314528,3457375.5262482096],[350143.3023838062,3457354.626683506],[350116.2603119764,3457331.6824826133],[350085.45671997,3457314.319998891],[349996.70937670907,3457252.2323318156],[349916.58567376435,3457188.914708125],[349905.3344039206,3457181.3323429124],[349890.84085341793,3457215.0093900054],[349892.1402216145,3457215.8161147167]],[[351004.45537814184,3458791.881483987],[351001.5596826846,3458790.794967738],[350999.60833836696,3458788.5974445697],[350999.5268278683,3458785.2658180865],[350999.47959976434,3458781.933705711],[350999.38239375706,3458777.494700598],[350999.3194702077,3458773.0552096036],[350999.22226430255,3458768.6162045402],[350997.27091568126,3458766.4186816956],[350989.40244444716,3458753.1791263176],[350984.42677702743,3458743.241330821],[350983.3538162968,3458737.6985774343],[350982.3466727887,3458734.380071849],[350981.27371036116,3458728.8373186663],[350980.2822627978,3458726.6261918936],[350980.2193323216,3458722.186701005],[350981.0977290778,3458718.841467873],[350983.9462143311,3458716.5958670187],[350986.82609383005,3458716.565024186],[350993.57440759044,3458720.9297118187],[350995.56004739815,3458723.1267482825],[351001.4299507161,3458730.8366724267],[351003.397140802,3458734.1515511232],[351007.38135303603,3458741.8782258364],[351009.3956223279,3458748.515241296],[351010.3870618815,3458750.7263705656],[351010.6129935408,3458761.8291139374],[351009.0763387586,3458784.0528052906],[351009.1578462224,3458787.3844317254],[351007.2851182573,3458790.7337768255],[351004.45537814184,3458791.881483987]]]}},{"id":"74","type":"Feature","properties":{"NAME":"虹口港","__source_file__":"19-其它/13-历史版本数据/2017.10/waterutm.shp"},"geometry":{"type":"Polygon","coordinates":[[[355660.4359432005,3459110.213938549],[355667.120959942,3459110.1420983826],[355676.46854773886,3459096.722833849],[355676.3427654448,3459090.0591478613],[355685.6903841023,3459076.639893013],[355706.4274474083,3459058.6639252733],[355712.09169125493,3459054.1658463213],[355730.0899142818,3459043.9805562077],[355972.5796916284,3458957.088184641],[355998.11697687313,3458939.05704099],[356008.50113119255,3458931.181730819],[356012.2456793034,3458926.7001423826],[356018.71410149656,3458913.3106760886],[356023.2474804737,3458898.830165867],[356026.5850520121,3458872.1428109985],[356025.96137003234,3458836.6191863953],[356021.6387266598,3458808.9092190303],[356014.440071056,3458779.0035411143],[355988.8860100062,3458688.213222308],[355987.41259507084,3458658.2490895176],[355987.9502730943,3458634.922807108],[355990.68937972083,3458627.1222918145],[355992.51422941464,3458622.667000106],[355997.15798412217,3458613.7328236494],[356003.7027165429,3458605.9001419386],[356020.6508183631,3458589.06439533],[356052.7034496441,3458560.976057973],[356069.58709996566,3458541.926135199],[356078.8253835642,3458522.9509661025],[356090.6775567421,3458489.5216234676],[356103.4098423731,3458452.747557284],[356115.2468945751,3458418.2009099135],[356139.9269089075,3458352.436582149],[356153.8401058896,3458326.7620792915],[356164.09941630205,3458312.213306621],[356217.01824950613,3458272.8142844415],[356253.80765498616,3458242.4567093938],[356270.771896975,3458226.728775528],[356288.47607357264,3458199.9050665204],[356299.3843844619,3458167.586520745],[356306.5630643857,3458140.866793055],[356313.3697564092,3458091.940865868],[356324.0772809041,3458047.4218673552],[356335.09609158407,3458020.6596799945],[356319.6450276571,3458014.155520022],[356309.7266859128,3458048.6756402566],[356299.9337736941,3458089.8594438047],[356294.05682004744,3458136.557533335],[356286.78320664284,3458158.838304946],[356273.0746538936,3458194.507878016],[356258.170761262,3458217.9805950373],[356243.09598235344,3458231.457594226],[356203.4114759556,3458260.737249486],[356162.7824033993,3458291.137560904],[356143.97815971926,3458310.2035976048],[356131.8443336512,3458328.0907797986],[356119.9615090553,3458359.3053266103],[356108.94364457746,3458386.067785382],[356099.84582191624,3458412.81395827],[356088.0239699393,3458448.467989751],[356075.26127584523,3458483.017368951],[356059.6948745798,3458523.152999026],[356051.3214683364,3458537.6760737235],[356042.0071587471,3458551.094488919],[356011.82488925994,3458578.0496682543],[355992.0312083687,3458594.9144287035],[355986.44651931786,3458602.7439445597],[355981.77229170734,3458609.4534177384],[355976.21809598955,3458619.507647861],[355972.59508514224,3458632.8681237022],[355973.09727343847,3458659.5128618665],[355974.52507965977,3458686.1449199026],[355980.7486939508,3458714.946381069],[355998.17071592086,3458780.284073677],[356008.4240913094,3458817.920873991],[356011.6614584531,3458838.990281571],[356011.26449919515,3458870.087614089],[356005.95748413703,3458895.6744228145],[356004.2088022218,3458905.686499262],[355997.71005313226,3458916.861242259],[355993.02080086234,3458922.463351956],[355985.5012413527,3458929.201835474],[355966.6034075015,3458943.8292881325],[355722.193487676,3459030.738159697],[355704.16470840306,3459038.6987518957],[355697.5405924717,3459043.2100119656],[355672.11449192674,3459066.7882589656],[355643.1003893586,3459103.726721371],[355612.07151502697,3459136.2526680883],[355627.44141895825,3459139.4241455733],[355653.8118916418,3459114.7252290007],[355660.4359432005,3459110.213938549]]]}},{"id":"229","type":"Feature","properties":{"NAME":"真如港","__source_file__":"19-其它/13-历史版本数据/2017.10/waterutm.shp"},"geometry":{"type":"Polygon","coordinates":[[[350871.9020051484,3458925.445916893],[350901.02923141734,3458895.1474507973],[350914.27400417114,3458886.1287222705],[350931.43719155027,3458882.612410764],[350945.8019409656,3458882.448633482],[350962.0681859822,3458883.3854751596],[350977.42450988165,3458885.442842437],[350988.94095551,3458887.534705186],[350976.0154089044,3458861.025738676],[350966.5317932357,3458864.4630325492],[350956.0381602429,3458866.797075581],[350935.9793999211,3458869.236824199],[350917.84044447204,3458871.649385015],[350902.6285934276,3458877.363223409],[350892.24808651244,3458885.253693215],[350862.1608184348,3458915.5558250654],[350852.7875506465,3458926.764832694],[350845.23953008745,3458931.2823810233],[350837.6258070389,3458933.5856629033],[350829.94637661625,3458933.674678263],[350818.3983675431,3458929.3582551465],[350784.53529567865,3458908.624799033],[350755.42171440425,3458886.7263899343],[350749.59901179816,3458882.348712591],[350743.8078920125,3458880.1957736067],[350738.0323517057,3458879.1402408206],[350731.3629253659,3458880.3325662715],[350727.58892073296,3458882.5913835154],[350717.2399931973,3458892.6967905154],[350708.7135478937,3458898.335935929],[350703.0197606443,3458900.622027315],[350693.470377056,3458901.8353236653],[350683.905265754,3458901.941249124],[350669.5246554268,3458900.9880292653],[350650.34694673226,3458897.8578404374],[350618.62690077745,3458890.4256044114],[350558.16138224304,3458882.2046612664],[350534.2656160661,3458882.4645654154],[350511.2295461981,3458880.487112096],[350488.2121390859,3458877.4118175996],[350468.96853036655,3458872.0676831333],[350382.2047325424,3458837.469706592],[350341.71830293565,3458821.252327052],[350312.8303187806,3458810.4678355255],[350296.43206463754,3458805.093469619],[350283.9710737102,3458804.1134315683],[350272.5518703836,3458806.461342518],[350258.3002723983,3458812.172426915],[350243.07272332604,3458816.7698723204],[350232.56338778866,3458817.997260782],[350222.9824050625,3458816.996221998],[350217.19098492584,3458814.8335912735],[350213.3037391957,3458811.546204644],[350207.4649764673,3458806.0614368757],[350196.61795111257,3458788.404506663],[350184.81112234935,3458770.771242735],[350172.0759081858,3458755.3664332116],[350158.50987238076,3458746.629092291],[350145.0098091007,3458740.1160173966],[350110.40897204616,3458732.716357416],[350035.4975764335,3458719.096446575],[350011.50376730354,3458714.918512806],[349997.091048932,3458711.7414617846],[349925.8580983709,3458689.1989967003],[349919.10662072146,3458687.050228536],[349913.3811036238,3458687.1120099425],[349906.64557425823,3458686.080607379],[349878.92515046976,3458687.4842325514],[349866.448283911,3458685.4072774495],[349819.4676949428,3458680.3606563676],[349807.9349044169,3458677.1626756294],[349796.30425161397,3458669.5157179325],[349770.06775266543,3458647.5887715155],[349749.540872121,3458624.492632894],[349738.7088565285,3458607.953500476],[349728.82105090364,3458590.303252287],[349726.81913959014,3458586.989086168],[349720.00409085595,3458580.40093894],[349708.4393533841,3458574.9783225385],[349705.379962376,3458574.127382643],[349706.07805009733,3458582.3543700594],[349710.5205663685,3458583.8393702],[349718.2136339088,3458587.082158389],[349719.2554766978,3458590.4000681075],[349730.1509959209,3458611.3786850423],[349741.9589172194,3458629.021447496],[349763.4615549989,3458653.211235598],[349791.63386152877,3458676.2280929685],[349806.16023376776,3458684.9512610603],[349818.6530785103,3458688.1455030856],[349864.68938687607,3458694.3032329064],[349878.11049119703,3458695.269073055],[349905.8307519746,3458693.8554685027],[349913.5105279706,3458693.775761201],[349917.31606188486,3458693.731410875],[349924.0675357662,3458695.8801777586],[349995.30044653587,3458718.4226293187],[350009.72895605507,3458722.7070586868],[350034.6668667927,3458725.763913434],[350105.7542092508,3458740.535967762],[350143.2666190665,3458750.1292753834],[350154.8809875415,3458756.659247235],[350166.51126657473,3458764.306588582],[350177.2291064702,3458775.2997412616],[350187.1159845657,3458792.950379674],[350197.9788023706,3458811.7146813944],[350202.92350282567,3458819.427395195],[350206.8266707001,3458823.8321351875],[350211.6738196442,3458827.1058418797],[350218.3908572919,3458829.2552809506],[350224.1505722584,3458829.1931742225],[350228.9160997181,3458829.14523492],[350238.4655186242,3458827.9315173184],[350252.7830587026,3458824.444654],[350262.316567975,3458822.113601345],[350271.78439595853,3458817.5782610206],[350281.31791484903,3458815.247226007],[350293.76298091793,3458815.1099035144],[350313.02270801965,3458821.5710812802],[350344.79051745014,3458832.324552363],[350381.45566835045,3458847.478744905],[350467.2434532298,3458880.963033956],[350487.428555862,3458887.4113563187],[350511.44026406226,3458890.482486843],[350533.46624468366,3458891.356719088],[350558.3218889985,3458891.0831662607],[350617.8433376796,3458900.4351052428],[350649.5632128697,3458907.857361471],[350668.79091697163,3458912.094440911],[350682.2273461926,3458914.1686736126],[350693.7123795333,3458914.0454549324],[350708.01136348094,3458911.6670787903],[350715.5936269753,3458907.14894351],[350724.0699192753,3458900.392934353],[350732.58050444716,3458893.636445721],[350738.25857747335,3458890.242991272],[350742.0641695349,3458890.208913153],[350745.9354893831,3458892.3891086224],[350750.7667048506,3458894.5556769473],[350779.89585375064,3458917.551475958],[350810.9133691364,3458938.315322695],[350827.30840377836,3458945.9156952496],[350835.9292910369,3458946.930898885],[350848.34274886205,3458944.579468399],[350857.7946932854,3458938.9173283805],[350871.9020051484,3458925.445916893]]]}},{"id":"130","type":"Feature","properties":{"NAME":"彭越浦","__source_file__":"19-其它/13-历史版本数据/2017.10/waterutm.shp"},"geometry":{"type":"Polygon","coordinates":[[[351347.6519142891,3461118.2637947337],[351362.85141302756,3461107.052497054],[351373.2863253111,3461095.878704275],[351380.83923678263,3461086.9609054946],[351400.58064787847,3461050.2704151324],[351418.49355456757,3461022.4466978796],[351426.0808346671,3461013.5284511982],[351437.46970971336,3461006.7716484047],[351485.24491799576,3460998.5224634246],[351500.51976312144,3460995.0435751565],[351521.47499401646,3460985.976341549],[351540.4952000984,3460975.8288978436],[351569.0096245555,3460953.4136044076],[351595.54231531813,3460926.605965599],[351605.91522153583,3460911.0128783844],[351610.5765379076,3460898.803331051],[351617.09813550685,3460879.9518374703],[351620.83090937254,3460869.9606364574],[351625.5204123886,3460862.171126054],[351650.99058037053,3460823.2150051305],[351725.69472491497,3460738.391793262],[351745.54097171495,3460713.854253555],[351756.8429405584,3460696.043009874],[351766.9853980448,3460661.6540988586],[351770.4562327877,3460630.652198699],[351775.04293125577,3460610.7005782174],[351780.66130498506,3460600.6928254636],[351794.7648565313,3460577.324068116],[351807.0579097138,3460561.704133732],[351823.0499664441,3460536.1035626302],[351824.84478827124,3460527.237409872],[351824.7543999184,3460518.397846191],[351813.8346325982,3460483.1186588826],[351811.6592832996,3460457.714469168],[351810.4717403031,3460436.71676649],[351811.2942401081,3460424.5415294655],[351815.909187878,3460409.009961884],[351823.4035611447,3460393.447765904],[351844.02657411946,3460353.423064293],[351872.1754974687,3460300.051014923],[351900.2310680043,3460240.0347846695],[351907.7102327843,3460223.375259739],[351914.30419993395,3460214.451471214],[351937.0719404213,3460197.6264002984],[351976.97951066925,3460168.456157909],[352013.0760098109,3460143.750188491],[352031.14139068284,3460131.3920234703],[352039.68331893574,3460126.8812604826],[352048.2751246779,3460123.4774000635],[352055.90392002877,3460122.2923225523],[352065.5456818702,3460127.7145162886],[352113.64269271295,3460149.3291112636],[352120.35831087455,3460151.46974555],[352130.89773258625,3460152.4689309895],[352144.25429403625,3460149.0080750408],[352151.8706104257,3460144.500451312],[352158.5117140055,3460138.908936247],[352166.9821607925,3460124.4408913115],[352181.8200253878,3460080.048013608],[352196.88500195334,3460056.6663716757],[352240.08304567914,3459981.021677621],[352240.9528261635,3459972.1686340384],[352240.8283955442,3459963.319592391],[352237.89299606567,3459954.5000991267],[352233.9759551574,3459949.017199004],[352221.4297187849,3459936.9801381617],[352206.96072868485,3459927.1853260333],[352200.19826465764,3459921.7225004216],[352192.444982665,3459914.068401033],[352186.61441415886,3459904.1720683333],[352183.5980859891,3459892.040915257],[352183.49245265266,3459882.0939903124],[352184.37763594405,3459874.338342641],[352189.036884105,3459864.33437291],[352194.70267302275,3459857.6390373395],[352199.4553897458,3459854.279336184],[352259.5745007751,3459835.9518873077],[352273.8291829622,3459828.0581891565],[352284.20439284877,3459812.4758513733],[352317.339797453,3459691.591558926],[352362.57583684643,3459536.301778894],[352362.4237234373,3459523.0327345054],[352357.4753201257,3459507.5959217628],[352341.0116018835,3459490.0757652954],[352317.7852939961,3459467.102702677],[352311.95146941,3459459.4215359855],[352289.6569008464,3459432.005056549],[352256.60470155335,3459388.1259079925],[352237.3075124201,3459373.948557967],[352210.396475579,3459362.063554896],[352202.68939169485,3459357.721591436],[352187.1974767437,3459343.5107748285],[352175.622803875,3459334.782861987],[352143.63859265705,3459298.632204499],[352108.80547014147,3459264.7169548646],[352088.5355226467,3459247.2307576304],[352078.802742879,3459232.959000306],[352009.94276280235,3459151.846448569],[351997.23986327637,3459128.765785008],[351987.98191399424,3459092.2257306315],[351983.17039920297,3459037.8616185184],[351987.33271985705,3459002.290086041],[351986.2447173825,3458995.639873172],[351979.3032851777,3458982.38659409],[351955.96789869823,3458961.541170647],[351951.02444632427,3458953.817706766],[351947.8445172949,3458934.9734887327],[351942.61370494025,3458911.7177944086],[351930.58801013214,3458880.754745387],[351918.6091878241,3458853.1238143663],[351914.5787606165,3458842.0647149156],[351912.3399625241,3458824.314844196],[351911.2832413253,3458819.889367357],[351912.1806023354,3458815.436363279],[351932.7563855955,3458735.2699051546],[351940.75541835127,3458701.8695000773],[351942.6440481922,3458699.6277097706],[351946.4183589632,3458697.369341696],[351914.3957335208,3458673.283628056],[351919.370527974,3458683.221830121],[351919.4986803518,3458689.885557003],[351911.60917791334,3458731.057566437],[351892.0247880856,3458813.435276556],[351891.16157688573,3458817.8778232965],[351891.258547507,3458822.3267988],[351894.6322576459,3458850.049000487],[351898.67830501264,3458862.2154695867],[351911.5671837266,3458888.7259638375],[351921.64475047763,3458915.266094601],[351930.1026513755,3458960.708075875],[351935.0617147744,3458969.538907009],[351940.915038561,3458976.1319735697],[351962.283732419,3458993.672294162],[351966.2016643255,3458999.1850338853],[351967.27408450557,3459004.7278686585],[351962.1050258365,3459036.9808239914],[351962.16687109624,3459092.499463202],[351973.37261222035,3459133.432476041],[351993.8111153981,3459165.2948910524],[352075.1746997118,3459252.9068727195],[352130.32753032213,3459305.4051692337],[352145.85992256174,3459327.358530263],[352163.3929620875,3459352.606557596],[352171.1125129799,3459360.271104725],[352191.3851029371,3459375.5322388727],[352201.0120153532,3459379.8571746047],[352226.9663141796,3459389.5404131045],[352241.448414791,3459402.6578841456],[352273.4942418223,3459443.238325056],[352328.6884709494,3459501.2649868443],[352338.41751291003,3459517.7521926863],[352341.3872038922,3459526.5712284953],[352342.45580539084,3459534.299401217],[352299.10869924043,3459687.357521532],[352263.9915955041,3459803.8393571205],[352259.31667857786,3459812.7359120715],[352251.7154995657,3459818.340845588],[352193.5626363586,3459839.963467027],[352184.02632315457,3459844.4880747753],[352172.6791724188,3459856.7713832874],[352164.2083375126,3459871.229433371],[352161.4532813707,3459880.1090079383],[352162.6089515624,3459898.8919549934],[352169.44608132675,3459912.0969048333],[352176.3017550246,3459924.1840227717],[352189.8700232189,3459940.627064349],[352197.59227759356,3459946.076383154],[352211.0548741076,3459952.5725251925],[352219.749345553,3459961.3309747847],[352221.73122832266,3459965.7334880745],[352221.77467658423,3459971.2608802784],[352219.0040307288,3459979.0330628087],[352179.5366431712,3460046.9021263677],[352165.4749544396,3460075.797684249],[352150.6402648924,3460117.9753494402],[352144.9715409438,3460126.885955391],[352133.58112013864,3460133.6319529903],[352124.01718441024,3460133.7366109216],[352116.32294371957,3460132.7073658435],[352072.0808621681,3460112.1660381607],[352062.43894982804,3460106.733861754],[352052.843803048,3460104.623827639],[352044.23962004937,3460104.7150434386],[352032.8027319223,3460108.158970324],[352022.3379995385,3460114.9020337397],[352005.2167817742,3460126.1393165817],[351967.2317419044,3460153.0771342013],[351927.3896244318,3460184.4616854605],[351901.7548132362,3460204.6300256844],[351893.2535733618,3460216.8835453535],[351886.7531452478,3460232.4416426956],[351857.76575647225,3460296.881488039],[351833.42802955105,3460345.7893927856],[351809.9412453685,3460386.9521288085],[351802.46250623255,3460403.621713841],[351796.915885831,3460423.5868494264],[351796.1090233072,3460436.8694672678],[351798.2563458542,3460457.8536310974],[351801.42285794375,3460485.469015803],[351809.4661861033,3460518.5536092846],[351810.5008526003,3460526.2822330976],[351808.62504651584,3460531.836711068],[351794.54005219555,3460554.0975820436],[351779.38312718505,3460570.8455786146],[351765.2795990896,3460594.214357368],[351760.6211140068,3460604.218552797],[351754.1773319533,3460628.616807405],[351749.74667056283,3460659.62228165],[351740.5142322078,3460692.900747388],[351732.991981662,3460704.0330195003],[351713.1613740446,3460729.677962701],[351640.36433623557,3460811.1714846944],[351608.2226710883,3460853.5147394547],[351602.57033236,3460863.523083551],[351598.83757281245,3460873.514291539],[351593.2758553371,3460892.362215203],[351588.5989099863,3460903.4643904697],[351579.17306596716,3460915.721310061],[351552.5779291898,3460938.109444994],[351528.8341133375,3460956.056880543],[351515.52246585663,3460965.0360039123],[351499.35034682765,3460972.9479817855],[351483.1157649023,3460976.4404392866],[351429.6630721559,3460988.0627997154],[351412.5125925806,3460997.086378495],[351399.2480885619,3461009.387798311],[351382.2919664633,3461039.413217572],[351363.4976963303,3461072.7775112335],[351356.8703495875,3461081.692203068],[351347.41359496943,3461091.7345876517],[351338.8541436555,3461097.3538269657],[351313.29037164926,3461108.8789654467],[351337.854886773,3461122.4616496526],[351347.6519142891,3461118.2637947337]]]}},{"id":"145","type":"Feature","properties":{"NAME":"沙泾港","__source_file__":"19-其它/13-历史版本数据/2017.10/waterutm.shp"},"geometry":{"type":"Polygon","coordinates":[[[356169.345047825,3460456.7838815753],[356175.58751734655,3460451.325346529],[356226.2555795469,3460389.0567199257],[356228.90017450263,3460382.070509711],[356229.6283756415,3460367.642110535],[356223.4400015526,3460338.810099773],[356206.92363076925,3460266.7543721553],[356203.8578590826,3460255.670686917],[356204.7418372008,3460250.120713077],[356206.6007264147,3460245.6649723034],[356208.49006330885,3460243.433943717],[356238.9248904118,3460217.732836887],[356249.3468244,3460207.6919187442],[356256.9233686728,3460197.6600037236],[356258.7367062898,3460189.8721947637],[356259.51056218473,3460178.7758823372],[356257.4541518127,3460168.7959291693],[356255.4090454108,3460162.1485241167],[356252.4383144387,3460155.503804463],[356229.95475492626,3460133.4304259913],[356224.0701530513,3460126.8056272916],[356219.1301572592,3460119.0603308934],[356216.06436564855,3460107.976643245],[356215.01340537175,3460101.325619057],[356215.89727107715,3460095.765671758],[356217.7410435192,3460090.202567605],[356224.35390762764,3460082.398969952],[356239.5639231639,3460068.9897680776],[356260.3966856322,3460045.565435967],[356265.10493756016,3460038.8755398737],[356268.83827420336,3460031.0914072185],[356270.63651027007,3460022.196236252],[356270.4807838177,3460013.317814518],[356268.4396453824,3460004.455204203],[356263.49963170034,3459996.7098873463],[356240.90945681196,3459966.864954977],[356199.6594808052,3459913.8167725457],[356185.92455358454,3459897.2414457616],[356178.90892173036,3459880.6340387515],[356178.80255747255,3459872.8625152907],[356179.6409640225,3459863.9804649446],[356187.15298875386,3459851.7242695885],[356195.65540459903,3459841.689632913],[356217.58896273887,3459826.023155071],[356242.32251722727,3459807.0156557243],[356248.02123951266,3459802.5473142867],[356251.8039487835,3459795.860102544],[356254.6077355994,3459790.293857056],[356255.45751689054,3459784.7443623845],[356254.4065626777,3459778.0933369645],[356249.42086275213,3459767.015947718],[356244.4960192136,3459760.3879809002],[356238.6606608791,3459754.870068092],[356231.80078198784,3459747.14104786],[356159.5436880381,3459683.1620989772],[356146.79881467344,3459668.8083646963],[356133.9778368912,3459648.897857065],[356128.9136933496,3459624.5905654198],[356130.53176354244,3459592.518600169],[356133.0835841111,3459556.023513408],[356136.6778681013,3459530.5599692096],[356132.6538162974,3459509.6010756646],[356128.70144879067,3459496.384244442],[356114.0591858426,3459461.162273035],[356101.3134173701,3459429.237075772],[356090.4004949179,3459388.446156337],[356075.31876872806,3459321.1505032517],[356071.35083526187,3459306.8063724823],[356068.4147419296,3459300.2111113686],[356065.49353658035,3459294.703265144],[356032.41404914914,3459255.1638999837],[356003.04687031836,3459218.826646134],[355994.2556879188,3459207.8114734977],[355988.2947259364,3459195.6599330967],[355986.23412494455,3459187.905209305],[355982.06739648967,3459169.073662724],[355980.9362959152,3459159.091054939],[355981.69456008944,3459146.8674106305],[355988.70037768444,3459110.1516163885],[355988.4796885743,3459099.0489609498],[355988.2781088302,3459086.838469413],[355984.2825951653,3459078.0026814947],[355979.3917012646,3459071.3843336026],[355974.53142082656,3459067.000673523],[355971.62121059536,3459064.8054440944],[355964.85623316903,3459061.5454832115],[355955.26097787905,3459059.421907799],[355945.6810310441,3459058.4156839084],[355935.1714351044,3459059.6273812135],[355925.63715680805,3459061.953251906],[355914.29333247454,3459069.841809877],[355905.77965169173,3459076.5840087547],[355873.8547078248,3459111.336570841],[355815.1019679148,3459197.4456030047],[355811.3422762732,3459200.809926575],[355808.4931036398,3459203.0641633184],[355805.6782126279,3459205.317930616],[355801.838533579,3459205.3506501936],[355797.02381065284,3459204.289172567],[355781.452238259,3459188.9069541837],[355746.32846021734,3459150.4142449615],[355730.8023325013,3459138.3541989196],[355709.45593678625,3459121.923809518],[355692.98506659234,3459110.984360381],[355676.46854773886,3459096.722833849],[355667.120959942,3459110.1420983826],[355682.586251718,3459117.7626084015],[355700.0321843831,3459129.7962314165],[355723.2793509168,3459147.318065422],[355738.80533833953,3459159.3681240506],[355773.89872766787,3459195.646073999],[355790.47976368736,3459212.1319852523],[355796.3000492578,3459216.5123689887],[355802.04033661494,3459217.5611481154],[355809.70435765834,3459216.378366689],[355812.54976503685,3459216.3493110356],[355817.31877252273,3459214.078717702],[355821.0631341188,3459209.5970526496],[355825.75216077577,3459203.9948558705],[355884.50508155354,3459117.8958605877],[355913.6302707711,3459086.504433818],[355921.14966787153,3459079.7658915413],[355929.678396226,3459074.1210957617],[355936.33307481906,3459071.834694336],[355944.9226588091,3459070.6293543666],[355954.50273141754,3459071.6455534403],[355962.21239441866,3459073.7849878147],[355969.0078491873,3459079.269656283],[355971.9484029941,3459083.679618111],[355974.9041275334,3459089.196947294],[355977.9094393875,3459095.8311504195],[355977.200625755,3459109.1616910854],[355977.38704660186,3459120.2648165985],[355971.1052488218,3459144.757444852],[355968.5070893037,3459160.329026258],[355970.693168923,3459174.7374539413],[355974.8447426963,3459192.461630073],[355978.8212568681,3459202.415227247],[355983.79189448035,3459212.3552044192],[355993.6381750647,3459227.806167766],[356023.9309297099,3459264.130717484],[356053.1210658157,3459302.5758358827],[356057.03231166874,3459310.2752907793],[356061.9751320944,3459325.7036624565],[356076.0517510779,3459389.700319375],[356088.9298774325,3459433.7870408213],[356100.68552931666,3459463.5106324973],[356115.34285920253,3459499.8299775384],[356120.24004137336,3459511.936273556],[356122.3141569642,3459530.7067094306],[356119.6645653979,3459555.049752483],[356117.16236731637,3459592.6617181366],[356117.4448437545,3459625.8152415343],[356122.45493354485,3459651.180952935],[356135.3558248797,3459674.4230555277],[356151.0413037309,3459693.206735458],[356220.3690134586,3459756.07821821],[356229.1639164168,3459764.9082883736],[356234.08890453447,3459771.54622461],[356236.09980609274,3459778.194094178],[356237.1699011951,3459783.737282262],[356235.3260543946,3459789.3003782677],[356232.5069909551,3459793.7492859606],[356227.7187733257,3459797.1075826804],[356206.7793474317,3459812.770409855],[356183.9504341865,3459830.654333898],[356172.54938485636,3459841.826249223],[356163.1629862834,3459857.4108791742],[356161.39511831984,3459868.5208034175],[356161.5813831546,3459879.6239361605],[356165.58808723255,3459891.8122844384],[356172.51265752607,3459901.7655030787],[356190.14777021704,3459922.747669667],[356230.4226970383,3459974.6916039777],[356250.11813505436,3460003.448584326],[356254.12854077795,3460013.4117831113],[356255.17948130117,3460020.0628098086],[356254.31073476374,3460026.7301195227],[356251.5070192658,3460032.2963692676],[356248.6881574958,3460036.755252576],[356227.8402494916,3460059.0722405026],[356210.7560156592,3460075.81985281],[356205.1030630062,3460083.62030104],[356203.2591592402,3460089.173431269],[356202.3601448056,3460093.626012279],[356201.5255815491,3460100.2828831244],[356202.62228743604,3460110.2759615113],[356205.6576476349,3460119.134934354],[356208.6435717179,3460126.8870095084],[356214.5281837126,3460133.511799931],[356224.2978500625,3460143.4460692685],[356240.9615433301,3460161.118870626],[356243.90184269357,3460165.538875937],[356245.9469559641,3460172.1862790273],[356246.0381314545,3460178.850436882],[356243.2647675228,3460186.6314268108],[356240.4459547519,3460191.090314948],[356225.2512776414,3460205.6068919725],[356195.87137535383,3460235.7438565977],[356192.05842755665,3460240.206387889],[356188.3100737772,3460246.883187136],[356188.46587899525,3460255.7616129625],[356191.5468237782,3460267.9526621345],[356210.93898166425,3460342.214098736],[356215.1963049927,3460367.71987047],[356214.40353738406,3460379.934004616],[356212.63970570895,3460388.828724562],[356203.2499628558,3460406.6385278422],[356194.7328747433,3460415.5658148844],[356158.67650658276,3460451.292280354],[356148.36132027215,3460469.104834069],[356144.6283838049,3460476.8989996156],[356143.92423636577,3460490.2380054076],[356165.3462262185,3460463.91140381],[356169.345047825,3460456.7838815753]]]}},{"id":"214","type":"Feature","properties":{"NAME":"俞泾浦","__source_file__":"19-其它/13-历史版本数据/2017.10/waterutm.shp"},"geometry":{"type":"Polygon","coordinates":[[[353298.4724357587,3461540.758654747],[353299.32741816796,3461530.798331726],[353300.0966847257,3461509.793211925],[353302.85898273136,3461496.493447722],[353308.4782386654,3461486.4865369694],[353319.79745514446,3461469.7943776934],[353329.3052357818,3461460.850743752],[353350.0979237696,3461435.2054987764],[353361.41726462694,3461418.5133901173],[353379.3190347244,3461389.585799227],[353401.8257016839,3461341.8147950014],[353418.63961661764,3461296.3285049433],[353422.32767199795,3461283.025845506],[353426.0774130871,3461274.142716361],[353428.8948897049,3461269.692987594],[353432.7217669652,3461266.336765793],[353437.45522258314,3461264.0754868235],[353443.1980775014,3461262.907717127],[353450.8569046202,3461263.928400732],[353510.490998572,3461299.776742794],[353532.64654428005,3461312.8087438694],[353638.4107346034,3461372.4913430107],[353649.010161026,3461377.901550993],[353659.5445823674,3461381.107471677],[353667.2034339201,3461382.1382854753],[353676.7543043924,3461378.722360886],[353682.46626127855,3461375.339969044],[353690.02082831145,3461366.423893807],[353699.48286907247,3461354.168461103],[353787.2287928919,3461222.819718681],[353817.2806786867,3461162.8210852803],[353826.6814179755,3461146.1362831458],[353849.38363541185,3461117.1627476355],[353871.1687712851,3461093.720016231],[353922.26716106816,3461033.4988156883],[353935.4765795173,3461014.5759206344],[353979.9650515178,3460962.1601653364],[354018.72612663487,3460912.0094584636],[354044.24374186294,3460880.8020630693],[354060.3326999075,3460861.8393414565],[354064.1292943397,3460856.278593137],[354066.93177209236,3460850.721678496],[354074.43268330087,3460832.955945402],[354083.7185336704,3460803.011898002],[354087.43839545286,3460791.924267059],[354091.2006173724,3460786.3540302794],[354096.88606211764,3460778.561865184],[354102.5678606067,3460772.974950759],[354132.05601007066,3460756.0913387774],[354146.29896205186,3460744.8875556975],[354154.8330125157,3460734.8506802497],[354167.05264278094,3460713.7167146257],[354208.52177839447,3460643.6525378907],[354211.3127068144,3460634.783049245],[354213.09781204327,3460622.604760017],[354211.760898188,3460580.6148523646],[354215.377240924,3460559.5803967505],[354218.18356819975,3460551.8182851477],[354223.8231451756,3460540.704080268],[354231.37865929684,3460531.778468141],[354293.13963710266,3460483.60485541],[354304.4732022706,3460470.2264972627],[354323.33901482204,3460441.287402381],[354331.8734923736,3460431.25069056],[354334.7069424813,3460427.9086055146],[354343.2991409097,3460424.506638586],[354377.5838088446,3460409.7724683774],[354395.72801226657,3460402.955313401],[354410.9278909616,3460393.953842156],[354424.2577805128,3460386.0759111387],[354436.58205227554,3460374.8991540843],[354521.99160021596,3460298.849470118],[354536.2202606895,3460286.538889568],[354552.3992674066,3460276.4264776474],[354592.35923694377,3460250.58854146],[354609.46383447724,3460240.4634141587],[354618.02925531985,3460232.6317208526],[354621.79210620816,3460227.0716727613],[354622.6907192325,3460222.638883034],[354622.63320407405,3460216.004155269],[354619.7117201196,3460210.5166377123],[354611.0195432711,3460201.756283633],[354594.6527203375,3460190.876994461],[354568.72206100455,3460180.1001638807],[354546.67264825874,3460174.7976069925],[354541.8619620968,3460171.531472895],[354540.85995981225,3460166.01740252],[354540.8330551211,3460161.597417279],[354542.706740321,3460158.2587051718],[354547.4446803663,3460153.7927158214],[354556.9816094729,3460149.2702781996],[354593.1871429545,3460134.5202681352],[354606.51386713993,3460128.8578059645],[354633.15944941866,3460112.005104663],[354638.872402239,3460108.6232761275],[354645.5300890489,3460104.140755114],[354648.3635914647,3460100.7887868765],[354649.2775481254,3460097.463372405],[354649.2201922507,3460090.838622569],[354647.273647381,3460086.4352161135],[354641.4725430836,3460080.9675704273],[354638.55089832074,3460075.4700713125],[354637.53362200956,3460068.848622632],[354639.4264521084,3460064.412060723],[354644.164337883,3460059.93614236],[354663.08934724703,3460037.632461826],[354673.50990813103,3460027.579958],[354680.1981534092,3460025.3022279963],[354702.1750225893,3460022.862977379],[354709.83836829336,3460021.679366304],[354718.3965970322,3460018.2682225974],[354725.98733302974,3460009.3525047586],[354735.4059329085,3459993.7760062898],[354740.1019044481,3459983.7827581274],[354746.68317693553,3459973.76345175],[354753.3408574426,3459969.27102847],[354759.0693699843,3459967.006617514],[354774.361875556,3459964.639961428],[354786.77475417225,3459962.2931654085],[354794.42284858576,3459960.002247301],[354800.10546919145,3459954.4157468677],[354803.8838233642,3459949.963144225],[354806.70225581713,3459945.513828378],[354808.5797428624,3459939.95995412],[354809.40591670596,3459927.795069793],[354806.35438547394,3459907.9306890634],[354795.5132553437,3459872.6777716964],[354770.01798286266,3459806.6150759505],[354766.98934862664,3459793.3759246026],[354766.9014694941,3459784.5364383585],[354771.6280460886,3459776.747976701],[354798.17931902676,3459755.4667371297],[354859.97030777374,3459713.912015188],[354871.3779511426,3459708.266453287],[354879.98619572545,3459705.9723272785],[354915.3827843652,3459704.505726112],[354927.7807099828,3459701.051740039],[354936.312679042,3459693.2307868283],[354976.90743359516,3459638.6285456377],[354986.3840258863,3459629.68702218],[354997.79554560024,3459621.826391471],[355099.6015223352,3459565.492232191],[355161.4101749493,3459525.056724827],[355296.62711268896,3459457.328089939],[355309.9132431901,3459446.139231645],[355319.3293110853,3459432.768552848],[355373.75878647075,3459329.373857968],[355394.499867894,3459299.3036067244],[355412.47931010125,3459280.3272154187],[355444.838028415,3459262.3005776107],[355459.1451914145,3459255.5182212126],[355468.6642569749,3459252.1045010067],[355479.204081718,3459253.1070640762],[355491.7395873335,3459259.6101080207],[355532.3319572954,3459296.7995194327],[355555.53216529975,3459320.887265403],[355563.25298116927,3459326.3390029143],[355569.98736006196,3459327.373992684],[355573.77750144934,3459326.2342898524],[355580.4814471237,3459325.054550462],[355587.1551006902,3459321.6700558607],[355599.45143207046,3459308.2800360294],[355614.6122513928,3459293.753083224],[355617.4007859591,3459287.0892726164],[355618.25827912614,3459277.1292590117],[355611.2121262732,3459248.40910145],[355610.0806753274,3459238.4265196854],[355615.71738088096,3459179.5178098436],[355619.98322479567,3459150.6023536175],[355620.8822388033,3459146.159698744],[355623.68189899373,3459142.7985137235],[355627.44141895825,3459139.4241455733],[355612.07151502697,3459136.2526680883],[355611.19170954416,3459139.597461554],[355609.3176293187,3459142.9459352936],[355609.4434556646,3459149.6096225255],[355606.1527068396,3459179.6192656616],[355599.57141916174,3459239.6485371543],[355599.7428950438,3459249.6343286615],[355605.7986705642,3459276.1429541623],[355605.88981170306,3459282.7771846866],[355602.11101168115,3459287.2394495844],[355591.6699021896,3459298.408777079],[355578.4175734322,3459309.596787851],[355574.59328250814,3459310.7469360866],[355569.7785788807,3459309.6855633],[355564.96785639005,3459306.418962007],[355541.76366361836,3459284.536426118],[355499.13694296894,3459244.022279865],[355488.47120639135,3459236.356007095],[355480.7806006621,3459233.1090810616],[355469.216034346,3459229.895473277],[355453.0616507538,3459234.4980401215],[355436.9341967391,3459243.5505290725],[355404.6556881295,3459264.918774907],[355385.7165228833,3459283.9183614645],[355361.24232208764,3459321.763114228],[355309.67731331964,3459424.0208413424],[355299.25175357924,3459436.287870514],[355286.00003763824,3459447.48624638],[355155.52138495335,3459510.739347794],[355092.75284328475,3459551.188120797],[355006.193990903,3459601.8339361143],[354983.3746295898,3459615.339977179],[354973.85231922346,3459620.969369452],[354964.3910111881,3459631.0182741103],[354931.36818011955,3459677.792905151],[354924.7866716519,3459687.822054575],[354915.2338820118,3459691.2367638503],[354874.09709969343,3459691.6550937537],[354859.7945758667,3459696.223072694],[354836.9107273255,3459707.515180823],[354787.4908275666,3459741.1959050978],[354755.24152035743,3459766.9563170755],[354749.5894263918,3459774.7575787264],[354748.71751749865,3459783.6103315987],[354747.86091679335,3459793.570455396],[354751.83420736867,3459805.698941527],[354780.28168669983,3459879.463898161],[354788.0982269187,3459899.282381984],[354793.0542092517,3459918.0228383243],[354793.2031435231,3459931.2818323667],[354790.3962039723,3459939.04376159],[354787.5473084393,3459941.288316649],[354783.73848885216,3459943.536159902],[354773.24516275176,3459945.8564290553],[354754.128650038,3459949.37354543],[354743.6315339318,3459953.899084023],[354734.1554469894,3459962.8408490056],[354725.65447077167,3459972.8767250655],[354716.22055352916,3459987.345860605],[354709.6355252871,3459999.570427481],[354703.92249014194,3460002.952213968],[354699.15379007184,3460005.203384548],[354678.1368039696,3460007.6393427327],[354666.7104889157,3460014.3830017434],[354656.2710975361,3460025.5533335865],[354651.54837010766,3460031.126640475],[354641.1393735112,3460044.4917788915],[354625.99629731756,3460060.1276127314],[354623.1436949853,3460064.577455999],[354621.3157915063,3460071.228289686],[354623.28921777155,3460080.051675388],[354625.26627737225,3460086.6598443254],[354629.1630212536,3460093.2514329967],[354629.2089823738,3460096.5735473065],[354628.26075424,3460099.8994379756],[354623.5074349409,3460103.2580169057],[354587.35914968024,3460124.632667462],[354550.1900603693,3460141.6012237095],[354540.6720742009,3460145.015821046],[354534.9896938387,3460150.6024722313],[354531.17738686455,3460155.065630618],[354528.3897918863,3460161.7297716886],[354526.49702781753,3460166.166356608],[354526.54288446717,3460169.478495686],[354528.53532409656,3460177.1940207076],[354532.40157666383,3460181.5808080616],[354536.23716473614,3460183.752853155],[354540.0727511713,3460185.924899584],[354563.09710030194,3460192.311552589],[354587.11183463875,3460200.899715801],[354601.54380012077,3460210.6981838434],[354605.39468590077,3460213.9776249854],[354606.4156049059,3460218.3838544297],[354605.4827209542,3460222.8171200864],[354599.81567692163,3460229.511108843],[354587.4605479069,3460238.482892133],[354550.3377235625,3460258.763605092],[354536.0476832867,3460266.644676317],[354519.88414635137,3460277.8744616043],[354503.76637112524,3460292.4064366757],[354438.3135750391,3460353.880943449],[354419.3473297819,3460370.657717252],[354406.9735861804,3460380.7375738407],[354391.7583437228,3460388.6316775912],[354372.70399541804,3460396.5690386756],[354338.4002270134,3460412.401094691],[354327.91909763205,3460418.0344480993],[354324.1259014057,3460421.3898422504],[354312.74632724375,3460431.4560335306],[354292.9513588384,3460462.6132270847],[354281.5681633206,3460474.8847003058],[354224.6096855713,3460520.7965262397],[354210.36265541706,3460534.2054307144],[354202.849584413,3460548.6584238955],[354199.1448683118,3460560.853375629],[354198.3736140096,3460581.858331493],[354198.73548571893,3460622.7541857087],[354196.9044288831,3460631.620334404],[354196.03663928015,3460638.257941404],[354155.53094730654,3460706.10359883],[354145.1505040226,3460723.899259939],[354135.706248394,3460735.046390093],[354124.3118261952,3460744.0054356684],[354090.0520481046,3460765.365735366],[354083.42591892515,3460772.0733609213],[354076.7961488733,3460780.986238475],[354073.0491763961,3460787.6538780867],[354067.409904274,3460798.768178674],[354057.16424744925,3460828.7155986936],[354050.61132623994,3460843.1553892875],[354048.74967225327,3460849.8068246287],[354044.9719722399,3460854.259728432],[354030.77180154494,3460870.9910304975],[354007.1548577688,3460903.2896095053],[353968.37840604025,3460952.332984973],[353923.9053441461,3461005.856163762],[353909.72084088234,3461023.6850461815],[353861.5016663674,3461083.876227979],[353841.65130672057,3461108.39964621],[353818.9645006885,3461138.4805731727],[353805.7674194827,3461160.7262339885],[353772.84000888886,3461218.549755895],[353684.08827625215,3461346.589865192],[353674.6759468598,3461359.95221025],[353668.00418306515,3461363.3380002277],[353660.3419032884,3461364.522414375],[353652.6831770851,3461363.5015814626],[353644.9935870324,3461360.2660025274],[353541.11791029054,3461298.351795271],[353515.14236050023,3461284.2554819337],[353457.4088601046,3461249.498163113],[353449.7344332428,3461247.36012192],[353442.0910458179,3461247.4468148025],[353436.36700404045,3461247.506730369],[353427.791204265,3461252.0168552585],[353421.16566404514,3461258.7149540954],[353413.5770968611,3461267.6416816977],[353408.91392027575,3461279.8503618203],[353404.25075535354,3461292.059044629],[353387.45584837766,3461336.4474810865],[353365.8591584986,3461383.0982214753],[353349.8767283809,3461411.9990361915],[353339.4709419531,3461425.375579509],[353315.8024951923,3461448.8358457345],[353306.3100418021,3461458.876892172],[353292.1273442871,3461476.716658512],[353283.65647031076,3461491.1738298163],[353280.95579667285,3461508.883154718],[353280.2021779199,3461531.0056306417],[353277.3968393781,3461538.7680392405],[353274.57950445206,3461543.217815448],[353269.8119366659,3461545.479653606],[353252.59054010676,3461544.552811729],[353226.7198859262,3461540.404135271],[353217.15727195726,3461540.5078468216],[353209.52942949964,3461541.6921178387],[353204.90851477557,3461542.8074788535],[353290.31024562597,3461546.643671571],[353296.9343410421,3461546.289851654],[353298.4724357587,3461540.758654747]]]}}],"crs":{"type":"name","properties":{"name":"urn:ogc:def:crs:OGC:1.3:CRS84"}},"name":"waterutm"}