{"type":"FeatureCollection","features":[{"id":"2","type":"Feature","properties":{"Kind":"0246","Name":"轨道交通１２号线","Shape_Leng":0.416699165843,"__source_file__":"19-其它/13-历史版本数据/2017.10/地铁.shp"},"geometry":{"type":"LineString","coordinates":[[121.45409964825684,31.220011689665487],[121.45418498724746,31.220736465915195],[121.45420499716296,31.220916422055268],[121.45424504127573,31.221156388156828],[121.45436521947933,31.221646389169564],[121.45450539770606,31.222366323447147],[121.45455548904465,31.22248636135652],[121.45456550569361,31.22251636633729],[121.45457551874529,31.222566362347777],[121.45467566365107,31.222996353399026],[121.4548760317035,31.223456514006955],[121.45530681146022,31.224506832224566],[121.4553969586028,31.224806863146284],[121.45558728392609,31.225366960916574],[121.45570748821012,31.225727020685497],[121.45573753725763,31.22582703069298],[121.45576758450648,31.22593703666496],[121.45580765469958,31.226047061522706],[121.45586775459321,31.226237086472395],[121.45601791979118,31.22713696160156],[121.4559978163462,31.227426796009865],[121.45576715463051,31.22808608270663],[121.45564680375708,31.22845569867161],[121.4555665815326,31.228645468213813],[121.45475433634363,31.23054314025376],[121.4546039211341,31.23089270943103],[121.45448358015311,31.231212347371983],[121.45430307182939,31.23168180786917],[121.45404234128114,31.232341037009288],[121.45392200659533,31.232630687955922],[121.45367130079,31.233279939117953],[121.45364121576962,31.233359848378374],[121.45335035163748,31.234338879136033],[121.45320993149325,31.234828403508065],[121.4531096229108,31.235218045576403],[121.4530494348836,31.23546782328145],[121.45302937280736,31.23554775142765],[121.4530093107312,31.23562767867446],[121.45290899405484,31.23605730280235],[121.45274849384793,31.236716713605514],[121.45271839893508,31.236846600889976],[121.45267827837996,31.23698646435389],[121.4525880035336,31.23732614728391],[121.45253784834313,31.237525965850693],[121.45249772239208,31.237695816308932],[121.452487688656,31.23774577544725],[121.45244755461101,31.237955607964977],[121.45242749433352,31.238025539247303],[121.45234725232388,31.238315263039],[121.45222688796059,31.238754845359896],[121.45216670622857,31.238974636070626],[121.45215666889521,31.23904458623872],[121.45214660368288,31.23925447451444],[121.45214659199166,31.239314447603704],[121.45213649440372,31.23968426321824],[121.45213647102139,31.239804209396823],[121.4522866982726,31.24039422131631],[121.45230672977188,31.24046422724234],[121.4523267621704,31.240534233168376],[121.45235681301655,31.240624248110635],[121.45247704697817,31.240834374706647],[121.45251712706386,31.240894421540364],[121.45256722469776,31.240984473354786],[121.45261731963366,31.241084521133818],[121.45265739971934,31.241144567967467],[121.45272753874497,31.24125464768389],[121.45302813354158,31.241734986380553],[121.45325861359424,31.24198529828294],[121.45329869907573,31.24201535902165],[121.45336885069196,31.242065465648754],[121.45346906844281,31.242125623099074],[121.45351917776794,31.24215570182423],[121.45355926594743,31.242175766598393],[121.45375970684505,31.242276091368577],[121.45396014684331,31.24237641523945],[121.45460155681646,31.2426974534248],[121.45476190953457,31.242777712521445],[121.4549623495328,31.242878037291632],[121.45513272879246,31.242938323345015],[121.45552360293199,31.243058989880524],[121.45577416304731,31.243139415351777],[121.45598463228498,31.24320977201342],[121.45738783008437,31.243342297009463],[121.45821972546003,31.243423792673926],[121.4583299760476,31.243433991885297],[121.45848031931132,31.243444263941683],[121.45864068372066,31.243464549949067],[121.45919194025589,31.243515543307755],[121.45990356389838,31.243576826709216],[121.46154730966067,31.243729787000124],[121.4616074455273,31.243739893581274],[121.46168762818162,31.243750036135342],[121.46259970711084,31.243831681087272],[121.46299059743818,31.24387238260442],[121.46355187871632,31.243913398884278],[121.46390267726679,31.24395402755636],[121.46548627726999,31.244146861088836],[121.46624800933819,31.244238225014104],[121.46681930906391,31.244299251209558],[121.46695963028277,31.24430950527949],[121.46708992496008,31.244329736428256],[121.46734049496796,31.244360184774735],[121.46759106227775,31.24440062908582],[121.46810222253964,31.24447154062915],[121.46831269807261,31.24451191029647],[121.46839287892827,31.244532049714394],[121.46847306068332,31.244542193167717],[121.46853319654986,31.244552299748875],[121.46869355916044,31.24458258172081],[121.46880380884875,31.24460277689667],[121.46906439730412,31.24465323515875],[121.47001654912445,31.244834911701847],[121.47018693467929,31.244865212559546],[121.47136960522312,31.245097292506102],[121.4716101477901,31.245147714795284],[121.4716903304444,31.245157858248604],[121.47182062781974,31.245168094332147],[121.47261243411663,31.245229527021085],[121.47284296003464,31.245249943430228],[121.47326392099319,31.245280706539408],[121.47402565935681,31.24534208436972],[121.47404570524519,31.24534212124195],[121.47407577407773,31.24534217699994],[121.47462703061306,31.245393171257888],[121.47550904070978,31.24547476314984],[121.47567943076116,31.24548507297777],[121.47572954368354,31.24549516067316],[121.4761404798993,31.245535900861174],[121.47685209634722,31.24562717485429],[121.47695232488991,31.24563735517984],[121.4775336385667,31.245748380083743],[121.47777418113365,31.245798802372857],[121.47781427111181,31.245808872081852],[121.47792452080002,31.245829066358397],[121.4781249724896,31.245869418938582],[121.47912723363503,31.246081178703495],[121.47924750536811,31.246101391865803],[121.47933770916802,31.24612154927013],[121.47965843169129,31.246192111876496],[121.47983883839174,31.246232427584516],[121.48042013408201,31.246433415269962],[121.4812018742672,31.24671473939378],[121.4820437503189,31.24700617099802],[121.48304597279345,31.24740785318994],[121.48329652661346,31.247518269252794],[121.48353705658997,31.247628667329195],[121.48508046229358,31.24833122490617],[121.48529092793397,31.248421576194858],[121.48559159107914,31.24856207368083],[121.48598245262816,31.24874272050022],[121.48601251786351,31.248762767287925],[121.48604258489742,31.248772819010412],[121.48607265193141,31.248782870732953],[121.48610271896541,31.248792921556117],[121.48618289532443,31.24883305290314],[121.48636329393094,31.248913353368607],[121.48670404525558,31.249073916528065],[121.4875759703548,31.2494653653344],[121.4879768530494,31.24965602790343],[121.48820736277958,31.24975641292815],[121.48837773844194,31.24983669450791],[121.48900913716206,31.250097754208014],[121.48909933556592,31.25013790444081],[121.48929978006083,31.250218241778494],[121.49003140372632,31.250509474632622],[121.49065278130092,31.250760521281112],[121.49136435817864,31.25105171726301],[121.4914044454589,31.251071783835812],[121.4932184634614,31.251824832050435],[121.49365944063072,31.252005574197938],[121.49514273025284,31.25259807903819],[121.4952229084106,31.252628215319934],[121.49530308656824,31.252658351601724],[121.49545341993941,31.252718605279483],[121.49557368627666,31.25276880813402],[121.49565386263568,31.252808940380365],[121.49569394901664,31.252839002018394],[121.49571399040839,31.25285903081965],[121.49582423200273,31.252919210753024],[121.49635541027409,31.25313010896741],[121.49646565546573,31.253170296971692],[121.49708820156552,31.25342770043543]]}},{"id":"10","type":"Feature","properties":{"Kind":"0246","Name":"地铁４号线","Shape_Leng":1.95378620879,"__source_file__":"19-其它/13-历史版本数据/2017.10/地铁.shp"},"geometry":{"type":"LineString","coordinates":[[121.4940868038438,31.262554788125936],[121.49312614265739,31.26238037095743],[121.49275530271507,31.262319706289475],[121.49248469041619,31.26226922284638],[121.49195348786328,31.262178271709903],[121.49159267356309,31.26210762906391],[121.49088106430975,31.261976359521437],[121.490830953186,31.26195627406287],[121.49037993328739,31.26187546817835],[121.48992891338867,31.261794662293884],[121.48989884365676,31.26179460653589],[121.48979861781197,31.261774428447154],[121.48961821111162,31.261734109141855],[121.48878633192373,31.261572628673942],[121.48849566834055,31.261552096252274],[121.48822505424289,31.261511609673107],[121.48813484954371,31.261501446434636],[121.48801457511264,31.261491226538908],[121.48789430068155,31.2614810075425],[121.48783416301626,31.261480896026573],[121.4873330176048,31.2614499764353],[121.48689200985848,31.26141916925928],[121.48663141510782,31.261398692595662],[121.48645100930675,31.261358374189683],[121.48621046673976,31.261307947403907],[121.48501778044626,31.261035843129722],[121.4844264537179,31.26087481052412],[121.48440640962816,31.260864776788083],[121.48421598987615,31.26077446057298],[121.48393537351876,31.26063399726121],[121.48329396354562,31.260312938391454],[121.48321378808589,31.260272806145167],[121.48269263995348,31.26002194295836],[121.48244209692531,31.259861544374814],[121.48221160158425,31.259691186698944],[121.481550179897,31.25920016315706],[121.4811793813235,31.258929587730332],[121.48091882254573,31.258729188201528]]}},{"id":"12","type":"Feature","properties":{"Kind":"0246","Name":"地铁８号线","Shape_Leng":0.693695977175,"__source_file__":"19-其它/13-历史版本数据/2017.10/地铁.shp"},"geometry":{"type":"LineString","coordinates":[[121.477450439478,31.222513333931985],[121.47741800193931,31.222577947414376],[121.47738792141547,31.22263786744367],[121.47732775677059,31.222767703466786],[121.47725755749036,31.2229574954921],[121.47717733166861,31.223167260560672],[121.4770669857528,31.223626865387587],[121.47698668169005,31.22422646587876],[121.47689635468306,31.224826047484157],[121.47680603666937,31.225375651065523],[121.47676591521484,31.22552551409126],[121.47674585673599,31.225585452106994],[121.47666562821621,31.22580521314012],[121.47640491025845,31.226404483580097],[121.4761943286054,31.22689389283892],[121.47597373569943,31.227323308324063],[121.47583335872264,31.22759293766399],[121.47579324895935,31.227682825801825],[121.4757431135539,31.227782691917756],[121.4754824234751,31.22824202155209],[121.47535208383171,31.228441698925337],[121.4752819043365,31.228531532204503],[121.47524180266713,31.228581438282784],[121.4750813816005,31.228841034786],[121.47469036356951,31.2294400660063],[121.47428932888941,31.230009091346517],[121.47395846471149,31.230528265467115],[121.47393841252779,31.230558215589213],[121.4739183603441,31.23058816661063],[121.47385820199452,31.23068801384079],[121.47382812506793,31.230727941941044],[121.47363762347766,31.231047457574167],[121.47333683892408,31.2315167067307],[121.47302602872833,31.231995933865335],[121.47286561215834,31.232235538439397],[121.47249466070012,31.232734645987193],[121.47216380461602,31.23321383535028],[121.4720735711385,31.233343614716095],[121.47205351715616,31.23338356080274],[121.47202344202833,31.233413492938382],[121.47199336510174,31.23345342103858],[121.4718529962189,31.23368306562105],[121.47152213653749,31.234182246013916],[121.4711912786546,31.234671430442233],[121.470820306512,31.235270493138785],[121.47053957594073,31.23569979441004],[121.47052954849994,31.235719767453364],[121.47051952195841,31.235739740496683],[121.47001818409196,31.236668422709613],[121.46986776438587,31.237037987413263],[121.46971732489466,31.23750750996368],[121.4695668836049,31.237987027579322],[121.46952676574769,31.23811689777665],[121.46943649629738,31.238426599108326],[121.46928605680614,31.238896120759424],[121.46913562540884,31.23932565945165],[121.46899522864692,31.239695242141753],[121.46896514812317,31.23975516127172],[121.46888491150959,31.240014901666427],[121.46865427767285,31.240534253852786],[121.46842364653412,31.2410436100746],[121.46826320568243,31.24140315992793],[121.46803259972478,31.241782572207963],[121.46801254574245,31.24182251829461],[121.46783208148544,31.242072078363776],[121.46758143143802,31.242441457807107],[121.46756137745568,31.242481402994432],[121.46743103421488,31.242701068699432],[121.46729066353339,31.242940706548442],[121.46722046515244,31.243130494976413],[121.467200396781,31.24324041101619],[121.4671401907673,31.24358015330148],[121.46707997665965,31.24395987764626],[121.46704986106226,31.24418972277755],[121.46703982822555,31.244239682815135],[121.4670297845969,31.244339620876872],[121.46702978099961,31.24435961280596],[121.46696956239542,31.24475932907984],[121.46689931545109,31.245189013462262],[121.46687924528102,31.245308924567272],[121.46683908965235,31.24562871179569],[121.46676882022494,31.246168349090116],[121.46666847746839,31.246727921656312],[121.46665844463156,31.246777881693962],[121.46663837895812,31.246877800869864],[121.46657816844778,31.247237534184933],[121.46652801505591,31.247427359485133],[121.46641769342195,31.247767009140205],[121.46627728766681,31.248186568055704],[121.46618702451168,31.248466280594418],[121.46617698537965,31.248546226727058],[121.46615692510206,31.24861615980797],[121.46614689226533,31.248666119845613],[121.46610678160279,31.248756006184806],[121.46608671772789,31.248845930295484],[121.46596637944494,31.249155574070528],[121.46581594804765,31.24958511006486],[121.46565549550475,31.25000463120881],[121.46562541048432,31.25008454136855],[121.465515093347,31.25040419819527],[121.46538470783811,31.250833771061764],[121.46523426205158,31.25133327610985],[121.46513397145566,31.251632959893247],[121.46506374699436,31.25195269136367],[121.46502361474813,31.252152529715545],[121.46499352163379,31.25227242193478],[121.46497345326237,31.25238233707523],[121.46493331921738,31.252592172290974],[121.46488315953026,31.252811983686176],[121.4648330007425,31.253031795081316],[121.46479286849615,31.253231634332508],[121.46477280641989,31.2533115624787],[121.46473267237502,31.25352139679507],[121.46463233231633,31.254070971598143],[121.46451195356383,31.254580527469443],[121.46441162339771,31.25508012424837],[121.46440159056101,31.25513008338669],[121.46439156312022,31.255150056430008],[121.4643112725472,31.255679677075477],[121.46420091763831,31.256189250933236],[121.46417081283279,31.25636911624179],[121.4641106364967,31.256558921756895],[121.46406049749407,31.256678777103954],[121.46403041786961,31.25672869937006],[121.46402038863003,31.256758667478554],[121.46381984071309,31.257198104109253],[121.46358921047374,31.257697458970597],[121.4633284979119,31.258266726228502],[121.46309786047789,31.258806063149336],[121.46299758427119,31.2590357769796],[121.46297751949703,31.259125700190967],[121.46296745248607,31.25934558533055],[121.46292728696483,31.259715349683688],[121.46292727887091,31.259755331743232],[121.46292724649527,31.259915261779952],[121.46288703870597,31.260494934193904],[121.46284684170848,31.261014632619265],[121.46280665370422,31.261494348085762],[121.46276649537755,31.261824129480033],[121.46271634108632,31.26202394894614],[121.46260602754614,31.262323612944446],[121.4624054643408,31.262833016830314],[121.46237537752177,31.26292292205528],[121.46237536942785,31.262962904114776],[121.46239540542366,31.263012919910352],[121.46243548550935,31.26307296764338],[121.46254570731855,31.26323310362488],[121.46263588863542,31.263363213941204],[121.46301664720056,31.263943669664684],[121.46308678622631,31.264053752079064],[121.463347317125,31.26439408881617],[121.46367798704956,31.26484450886704],[121.46405877978894,31.265255039488526],[121.46423916220759,31.265415305871723],[121.4648003634461,31.265856159833962],[121.46545176039048,31.26635715595802],[121.46563214280923,31.26651742324054],[121.46604301607239,31.266868037430015],[121.46608310065459,31.26690809503259],[121.46640377731251,31.267208563024834],[121.4665039878688,31.267308706131928],[121.46697496822026,31.267819363672743],[121.46701505190322,31.267859421275315],[121.46703509419433,31.267879450076634],[121.46747599671995,31.268430034818323],[121.46753612089537,31.268500117186704],[121.46787683354911,31.26885060187385],[121.46842801274262,31.26929144054759],[121.46887898227932,31.269622140149693],[121.46913954555363,31.269802549548046],[121.46975085971452,31.27025349750096],[121.46988114090198,31.270343702200137],[121.47066282712785,31.2708949263598],[121.47129419167369,31.271325921953803],[121.47134429830079,31.271365998442146],[121.47140443506669,31.271376105922627],[121.47154474729234,31.271426347448028],[121.4718454275245,31.271476887548374],[121.47303813630104,31.271639047903758],[121.47324861363268,31.271669428801147],[121.47335886242159,31.27168962667497],[121.47394017429963,31.27181066193253],[121.47401033311041,31.271820788298783],[121.47417069392247,31.27186107163118],[121.47424085093463,31.271881193961978],[121.47473196171073,31.271972074052027],[121.47477205168889,31.271982144660285],[121.4749123657132,31.2720223902212],[121.4749925483675,31.272032535473155],[121.47508275126803,31.272052695575496],[121.47515291007882,31.272062822841065],[121.47524311567736,31.272072986978802],[121.4752832056555,31.27208305758711],[121.47543354532196,31.272113326069192],[121.47582442935402,31.272184027171193],[121.47630551808528,31.27226489241093],[121.47645585775172,31.27229516089301],[121.47656610744001,31.27231535876683],[121.47671644440847,31.272355623213514],[121.47677658027497,31.272365730693995],[121.47691690149384,31.272375989260528],[121.47700710619301,31.272386153398312],[121.4773579020456,31.27243678882678],[121.47765855889544,31.272607278702992],[121.47784897415092,31.272717588645833],[121.47809952437363,31.2728480020337],[121.47818971558296,31.27292813702394],[121.47837010159903,31.27306841597465],[121.47855048581631,31.273218689990586],[121.47873087093296,31.273368964006522],[121.47909159170365,31.273909412489445],[121.47929199572913,31.274189670017336],[121.4793721217261,31.274479697779896],[121.47953240879373,31.274889825505113],[121.47964254966405,31.27544979647098],[121.47965255911834,31.275519786209205],[121.47975269503092,31.27598977640713],[121.47978607387904,31.276139771388102]]}},{"id":"6","type":"Feature","properties":{"Kind":"0246","Name":"地铁１４号线（在建中）","Shape_Leng":0.455147405544,"__source_file__":"19-其它/13-历史版本数据/2017.10/地铁.shp"},"geometry":{"type":"MultiLineString","coordinates":[[[121.42688931960214,31.2344482326871],[121.42693965174362,31.234420443148963],[121.42707999364688,31.23432074700492],[121.42740077822339,31.2340814482003],[121.42803235321061,31.233462897195007],[121.42806243013708,31.233422970893454],[121.42863387555303,31.23276432721201],[121.42896470915412,31.232395106948672],[121.42901483646563,31.23233522648957],[121.42923538710352,31.23211573345441],[121.42979680058194,31.23149705204736],[121.43026799227415,31.23094817152094],[121.43065897523161,31.230529082950852],[121.43073931102194,31.23043769176241]],[[121.43503732291437,31.22730745091988],[121.43506975326659,31.227308644878125],[121.43528023419547,31.22731902395384],[121.43560097560464,31.227299619282068],[121.43613220783516,31.227240615661916],[121.43640284531513,31.22716114706935],[121.43688397721381,31.22703208446319],[121.43809686677709,31.226514537216193],[121.4382572491728,31.226444862240673],[121.43873839905791,31.22622584045024],[121.43952029122852,31.22574748745666],[121.43979096288274,31.22549809556074],[121.43981101236841,31.225478141403126],[121.43986113967992,31.225418260044705],[121.44005161698863,31.225218699583365],[121.440422557655,31.22477957771537],[121.44055291078827,31.224509938482928],[121.44063312941546,31.224340162668398],[121.44074342227121,31.2241404556176],[121.4408463033142,31.223924139171828]],[[121.44987539700844,31.220939185977393],[121.45005543620948,31.221048814850974],[121.4504062005858,31.22125935783316],[121.45061665813228,31.221389682188146],[121.45113781076145,31.221610531400927],[121.45117789894095,31.221630595275826],[121.45162890355105,31.22179134459492],[121.45171910645172,31.221811499301282],[121.45271134195491,31.22203320646736],[121.45305211126593,31.22210379515406],[121.4531723838985,31.22212400471909],[121.4532024509324,31.222134055542256],[121.45367351042421,31.222244863709538],[121.45458556776977,31.2224364381911],[121.45560786850842,31.222678192144887],[121.4556579823301,31.222688278940954],[121.45572813934221,31.222708397674467],[121.4583239910594,31.223272876042476],[121.45883514142874,31.223393753019366],[121.45906566105147,31.223444151026797],[121.45982737693191,31.223615462883348],[121.46019821237769,31.223696103292585],[121.4611102679246,31.22389767643665],[121.4622728871841,31.224159680424975],[121.46268381350728,31.224250389643828],[121.46305464895293,31.224331030053065],[121.46339541556607,31.224411616502948],[121.46358584521069,31.224451945700764],[121.46388652454357,31.224512467376538],[121.46447785666781,31.22464348870608],[121.46471839743616,31.224703900664508],[121.46507920993771,31.224784523087294],[121.46552020509341,31.22487528806414],[121.46568056590547,31.224915562403343],[121.4658008385379,31.224935772867696],[121.46585095325896,31.22493586459854],[121.4658810220916,31.224935919457153],[121.4659110891255,31.224945969381054],[121.46599126008869,31.22501608502438],[121.46606141889949,31.22502620869261],[121.46612155296738,31.225046309439676],[121.46618168703527,31.22506641108606],[121.46621175406926,31.225076461009905],[121.466261865193,31.22509654377052],[121.46648236007297,31.225156919756103],[121.46744450875713,31.225468539341648],[121.46785542608713,31.22559923241869],[121.46834652517202,31.22575006311496],[121.46873739841226,31.22587072425455],[121.46937883266709,31.22607180726817],[121.46946903376897,31.2261019588384],[121.47054143573872,31.226413781670715],[121.47059154686245,31.226433864431332],[121.47091225949329,31.226554397867236],[121.47138330549522,31.22673518048424],[121.4715536811575,31.22681545666802],[121.47246569443634,31.227226945067514],[121.47252582850423,31.227247046713895],[121.47344786472729,31.22765855399911],[121.47368839920036,31.2277489547505],[121.47375855441386,31.22777907034788],[121.47400911452905,31.227859493121173],[121.47404920001067,31.22788955385988],[121.4741293781683,31.22791968744366],[121.47478082097815,31.228190761994146],[121.47523182109171,31.228371508638247],[121.47529195336097,31.22840160624918],[121.47537212972009,31.228441735797507],[121.47540219495545,31.228461781685954],[121.47593335524017,31.228762624695435],[121.47660481965681,31.229153685893944],[121.4769255205964,31.229334196016392],[121.47720613335638,31.229494640465365],[121.47778740476497,31.2298155680341],[121.47785755817983,31.22985567869665],[121.47846889302502,31.230206649017703],[121.47851900594743,31.23021673581377],[121.47938094407539,31.230428223084065],[121.48025290694613,31.23062973327563],[121.48034311074606,31.230649889780636],[121.48096450810567,31.23080096329386],[121.48137543173085,31.23090167207454],[121.4814856796205,31.230931861416313],[121.48204694111348,31.231072829247754],[121.48238770772662,31.231153419294913],[121.48262825029362,31.23120383798681],[121.48272847703765,31.23122401247827],[121.48291890578298,31.23126434437404],[121.48327972098242,31.231334975328878],[121.4841717342382,31.2315165313629],[121.48469291564561,31.231597451461255],[121.48527423291954,31.231688477241505],[121.48549473139678,31.231728863995954],[121.48650702178169,31.23191064126314],[121.48671749731466,31.231951010031143],[121.48707831431284,31.23201164592075],[121.48727876870032,31.232041999838483],[121.4875894700781,31.232102543997257],[121.48784003558922,31.232152981574867],[121.48973431988303,31.232496307658554],[121.48997484806081,31.232616699001486],[121.4900349821288,31.232636800647867],[121.49007507030832,31.232656866321353],[121.49011516118583,31.232666935131025],[121.49018531819797,31.23268705566312],[121.49022540637749,31.232707120437283],[121.49030558453512,31.23273725492044],[121.4904759539022,31.23284752169582],[121.4911273679337,31.23325854694445],[121.49217965566663,31.233910208289558],[121.49281542933889,31.23429848882923]]]}},{"id":"32","type":"Feature","properties":{"Kind":"0245","Name":"地铁４号线","Shape_Leng":0.316782267363,"__source_file__":"19-其它/13-历史版本数据/2017.10/地铁.shp"},"geometry":{"type":"LineString","coordinates":[[121.47852366623431,31.256995469765176],[121.47813280378591,31.256814821147145],[121.47793236108964,31.25672448784491],[121.47769183111315,31.25661408796981],[121.47762167410099,31.25659396653839],[121.47745129034479,31.256553667018185],[121.47713057321742,31.25645311471953],[121.47658935761287,31.25631217116984],[121.47629870662014,31.256231665658902],[121.47600805652667,31.256141165082738],[121.47563723636938,31.25598054616535],[121.47556708115597,31.255950428769324],[121.47545683776286,31.25590024569982],[121.47539670639298,31.25587014629025],[121.47527644185436,31.255809949269803],[121.47509605134178,31.25568966584547],[121.47499583269153,31.255629505697186],[121.47495574451206,31.255609440023704],[121.47482546512322,31.255509241158624],[121.47470520957779,31.255409060279987],[121.4745448649536,31.255288814627132],[121.47430435026558,31.255098449733737],[121.47373311978775,31.25468756567864],[121.47346253806576,31.254487149962074],[121.47332223573267,31.25438693311054],[121.4732320427247,31.254316795883483],[121.47306167515626,31.25419653134492],[121.473081719246,31.25420656418163],[121.47316189560502,31.25424669552865],[121.47454494319459,31.254898980103917],[121.4750961493679,31.25519987347542],[121.47513623754742,31.255219940048224],[121.47522643505205,31.255270085346243],[121.47554713958893,31.255430611633475],[121.47612841729267,31.25572156569774],[121.47689009450231,31.25608282516231],[121.47696024971582,31.25611294255833],[121.47706047196323,31.256153111676838],[121.47743128402658,31.256353714452416],[121.47773194267508,31.256514204766805],[121.47775198676482,31.256524237603514],[121.47811277768255,31.25671482642815],[121.47840340529297,31.256915280815637],[121.47852366623431,31.256995469765176]]}},{"id":"31","type":"Feature","properties":{"Kind":"0245","Name":"地铁４号线","Shape_Leng":0.316782267363,"__source_file__":"19-其它/13-历史版本数据/2017.10/地铁.shp"},"geometry":{"type":"LineString","coordinates":[[121.47852366623431,31.256995469765176],[121.4785637517158,31.257025532302524],[121.47881429564323,31.257185929087427],[121.47884436087863,31.25720597677446],[121.4791149461979,31.25738640236062],[121.4793153790016,31.2575267154856],[121.47960600301472,31.257747162701435],[121.47980643312043,31.257897470891635],[121.47985654244553,31.257927551415435],[121.48005697255132,31.258077860504894],[121.48038768294532,31.25832836935882],[121.48064824352173,31.258518773822402],[121.48072841538408,31.25857889709846],[121.48091882254573,31.258729188201528]]}},{"id":"33","type":"Feature","properties":{"Kind":"0246","Name":"地铁２号线","Shape_Leng":4.43530978166,"__source_file__":"19-其它/13-历史版本数据/2017.10/地铁.shp"},"geometry":{"type":"LineString","coordinates":[[121.44025960294238,31.224193930899958],[121.44035250226625,31.22424969266922],[121.44060304619371,31.224410075964272],[121.4406531555188,31.224440153790116],[121.44079346324783,31.22451037735209],[121.44098387310737,31.22465065990008],[121.4411041313507,31.22474083761961],[121.44162526059733,31.225081631212394],[121.44170543695647,31.225121758962075],[121.44258737690599,31.22555317004282],[121.44311854708339,31.22580402423637],[121.44338914319452,31.225934458308643],[121.44349938478886,31.22599463194678],[121.44353947206899,31.226014695821622],[121.44357956024864,31.22603476059578],[121.44411072053344,31.22633559191411],[121.4448723824546,31.22677678132345],[121.44521312388669,31.226987307218508],[121.44559395080024,31.227227892952953],[121.44575430082035,31.22731814531619],[121.44633557043028,31.227649056258993],[121.44649592134975,31.227739307722917],[121.44676651476288,31.227879738659055],[121.4472776327566,31.228160544773402],[121.44736783205984,31.22820069140886],[121.44784889561015,31.22841147450998],[121.4481395394083,31.228531951288574],[121.44849031907303,31.22866253284968],[121.44873084994879,31.22877292283215],[121.44891125035394,31.22884322103789],[121.44916180956989,31.228923642012546],[121.4495727260006,31.229064330154756],[121.4498533567471,31.229134810922854],[121.44989344492662,31.229154874797704],[121.45047475050946,31.229305869170563],[121.45051484048757,31.22931593798023],[121.45065515451188,31.22935617634653],[121.45100594047189,31.22945677271196],[121.45157722131182,31.229617744163594],[121.45187788985275,31.229728244762725],[121.45194804506626,31.22975835946079],[121.45268967279026,31.230139545203883],[121.45326092305322,31.230450450727748],[121.45413279059585,31.231131741137002],[121.45449356172855,31.231422271620602],[121.45504479218344,31.231603199927804],[121.4554156195353,31.231723825094495],[121.45545570951346,31.23173389390411],[121.45556595470508,31.23177407741178],[121.45593678295619,31.23189470257853],[121.45616729628374,31.23197508937892],[121.45678868195216,31.23218613328345],[121.4571394661135,31.232296725613423],[121.4571996001814,31.232316827259805],[121.45738000508324,31.232367135335096],[121.45744014094974,31.232377241016934],[121.45775083873025,31.23245777440684],[121.45830207548045,31.232608716619044],[121.45860275031669,31.232689231123175],[121.45942461015773,31.232830673796627],[121.45953486524195,31.23282088017953],[121.4597954662878,31.23281136175501],[121.46004604528879,31.232791828480174],[121.46012623154049,31.232781980004404],[121.46101829695692,31.232703647255562],[121.46124882647223,31.232704069936915],[121.46169986076005,31.232714890579818],[121.46216091259612,31.232755717102695],[121.46225111909393,31.232755881678656],[121.46230123291559,31.232765969374043],[121.46234132469249,31.232766042219115],[121.46238141467065,31.232776111928047],[121.46243153029093,31.232776203658943],[121.4624816414147,31.232796286419557],[121.46256181957233,31.232826420003335],[121.46266204721576,31.232836599429564],[121.46276227755709,31.23283678289124],[121.4631030567607,31.232857397151236],[121.46353403706621,31.232908164780042],[121.46398506326013,31.232958968381748],[121.46401513209275,31.23295902324037],[121.4640752679593,31.232969128922207],[121.46494724162197,31.23312066019037],[121.46530804423092,31.233251264234525],[121.46557864573799,31.233351715809082],[121.46570893322075,31.233411928118016],[121.4658692859389,31.233492187214722],[121.46592941640951,31.23353227989088],[121.46606971604467,31.233642489109627],[121.46626012410547,31.23379277301814],[121.4663904007964,31.233902963351117],[121.46649061764798,31.23397311676598],[121.4666209006341,31.234053321004012],[121.46700174373551,31.234213948914658],[121.46740263092668,31.234384609662072],[121.4674627649947,31.23440471130846],[121.46778347402812,31.23454523847204],[121.46798391852303,31.23462557131313],[121.4682144282533,31.234725950941936],[121.46862533569072,31.234906625640292],[121.468855845421,31.235007005269154],[121.46899615584799,31.23506723646386],[121.46910639924101,31.23511741683535],[121.46944715416294,31.23525798087115],[121.46959748753409,31.235318230951634],[121.46984804135411,31.23542864251789],[121.47011864106254,31.23553909185563],[121.47022888355617,31.235589272227173],[121.47040928216266,31.235669568196045],[121.47047943737618,31.235699684692744],[121.47052954849994,31.235719767453364],[121.47056963667946,31.235739832227527],[121.47059970371345,31.235749883050683],[121.47112085724187,31.235970743954738],[121.47124111998177,31.23604093514109],[121.47137140296799,31.236121139379122],[121.47164199278382,31.23628156764028],[121.47221323675149,31.236622469151655],[121.47244373838782,31.23676283263865],[121.47272433945682,31.236983252874893],[121.47297487259233,31.237193623187242],[121.4732655190885,31.2373041093972],[121.47351607470716,31.237404526797548],[121.4735661858309,31.23742461045748],[121.47363634284306,31.237444730090264],[121.47390695244394,31.23750520140396],[121.47398713060171,31.237535335887117],[121.47446820764173,31.23767615892763],[121.47508959960544,31.23785722303245],[121.47538026139,31.23788774332473],[121.4757811665677,31.237968445787203],[121.47584130243423,31.23797855146904],[121.47622215362956,31.238099200018098],[121.47685356224213,31.238310270003012],[121.47696380743378,31.238350455309327],[121.47791593227451,31.23866207309624],[121.47797606454377,31.238692170707168],[121.47803619861179,31.238712272353556],[121.47858742097276,31.2389331917135],[121.47891815474907,31.239063744496264],[121.47913864333385,31.239154111972766],[121.47937917600825,31.23925451138666],[121.47996046630249,31.239485482469092],[121.48026113484354,31.239595988464142],[121.48033129005705,31.23962610496085],[121.48042148936031,31.239666254294264],[121.48054175749623,31.239706458486292],[121.4816943376236,31.240048433788214],[121.4820250749973,31.240158995541265],[121.48277675174573,31.24041027241617],[121.48320771406486,31.240551006423857],[121.48340816305631,31.240611350033817],[121.48358856885739,31.240651664842517],[121.48394938405693,31.240722298495314],[121.48421999545643,31.240772775643105],[121.4845908318015,31.240853424146284],[121.48543270965196,31.241134855289374],[121.48551289050762,31.241154994707298],[121.4856030916095,31.24118514807617],[121.48567324862154,31.24120526860833],[121.48571333859978,31.24121533831726],[121.4857333844882,31.24121537518948],[121.48591378759124,31.24127568192722],[121.48622448267383,31.241366216677594],[121.48639486283275,31.241426504529613],[121.48642492986664,31.2414365562521],[121.48729689093885,31.241648073200054],[121.48778799541971,31.24176892679458],[121.48820894198911,31.241869659856945],[121.48912103980422,31.241861341128015],[121.48978256761144,31.24182257405261],[121.49059446656145,31.241654137328627],[121.491466504076,31.241485810321937],[121.49154669212624,31.241465965881673],[121.49176720679124,31.241426387617768],[121.4925590580541,31.241267909086787],[121.49275952773007,31.24121829798611],[121.49316046528327,31.241139067713846],[121.49337095880276,31.24108947459962],[121.49403251089177,31.240930755949705],[121.49407260446719,31.240920833729547],[121.49438333462331,31.24084143708268],[121.49494465367287,31.240692530036256],[121.49510503067266,31.240652841155736],[121.49544582966134,31.24057349936754],[121.49557613513059,31.240543750693575],[121.49561622870603,31.24053382847347],[121.49582672042686,31.240494232223114],[121.49592695436547,31.240474423755703],[121.49609735161152,31.240444749725498],[121.49611052858565,31.240441853754714]]}},{"id":"3","type":"Feature","properties":{"Kind":"0246","Name":"轨道交通１３号线","Shape_Leng":0.223423181344,"__source_file__":"19-其它/13-历史版本数据/2017.10/地铁.shp"},"geometry":{"type":"LineString","coordinates":[[121.42574527300434,31.236030575838594],[121.42623759508899,31.236638106563422],[121.42642798696204,31.23686834739635],[121.4264981313837,31.236948438319814],[121.42657829605162,31.23704853736018],[121.42670856554788,31.237198706155425],[121.42687891872718,31.237388928955966],[121.42696910993651,31.237469056751593],[121.42756036831645,31.237969905386873],[121.42810151737113,31.23844067709564],[121.4283520496075,31.238661033479957],[121.42860258094447,31.238881389864275],[121.42891324275205,31.239141838025432],[121.4291036526115,31.239282121472794],[121.4295646432937,31.239622808945512],[121.42978511838851,31.239783138281265],[121.43011582968188,31.240023633184194],[121.43091755550087,31.240604834445605],[121.43115807198751,31.24078519258262],[121.43203996876957,31.241436509487357],[121.43221033364,31.241566762795916],[121.43242078579067,31.24172707504454],[121.4328817728756,31.24208775444635],[121.43302207341002,31.24219796096719],[121.43307218003714,31.242238034757577],[121.4331222875636,31.242278108547907],[121.43331269472515,31.242428388859086],[121.43340288773311,31.24249852248886],[121.43401421448446,31.242889464976887],[121.43458542517725,31.243400279899046],[121.43526687026984,31.24400125545361],[121.43549736021511,31.244201586633945],[121.43592827217208,31.244592199970096],[121.43620887863688,31.24478262871537],[121.43658971993968,31.244953251691243],[121.43701065301923,31.24512394841156],[121.43725118569375,31.245224345127497],[121.43827344596286,31.245666026465983],[121.43871442313217,31.245846756023017],[121.43895496390051,31.24590717157878],[121.43901509796841,31.24592727322511],[121.4394661106726,31.24604804947796],[121.44042827644388,31.24626972246978],[121.44077906690053,31.24635033230203],[121.4422122957609,31.24667282828847],[121.44323460819066,31.246854631635983],[121.44370567217914,31.24694545866606],[121.44534939635766,31.247208372768227],[121.44698310208857,31.2474512769549],[121.447083329732,31.24746145728051],[121.44828605695602,31.24764359517582],[121.44854665350535,31.247654071378353],[121.44863686360041,31.247644242687727],[121.44888744080278,31.247634708974715],[121.44926834146088,31.24750547010143],[121.44931846067847,31.247485571701816],[121.44961923174219,31.24708630688758],[121.44995008962496,31.246597136848436],[121.44997014001001,31.24657718269089],[121.45013055658,31.246337587110023],[121.45065188367757,31.24568883956835],[121.45075213380403,31.245589068780536],[121.45132356662943,31.244990390993795],[121.45211553750211,31.244232189663876],[121.45239623299985,31.24398281845237],[121.45245638505423,31.243912960914486],[121.45266690285528,31.243743424319632],[121.45288744270135,31.24357390571123],[121.45306788717336,31.24342430528753],[121.45308793755828,31.243404351129925],[121.45314808601542,31.2433544837225],[121.45316813550107,31.24333452956495],[121.45390995747857,31.24274615800886],[121.45432095215027,31.24249702601696],[121.45528327890032,31.241919053321684],[121.45542361270964,31.24185933833786],[121.455684231742,31.24175986252766],[121.45597494119068,31.241550489563508],[121.45622555346655,31.241371030748493],[121.45680706049745,31.240512480366704],[121.45740862061145,31.239623978963493],[121.45752893461271,31.239434284065],[121.45770940156775,31.239174730729303],[121.45798013527508,31.238615474724444],[121.45815064493638,31.238026048263578],[121.45818077582226,31.237716239912572],[121.45824101421148,31.237216571187844],[121.45811085713046,31.23650664546534],[121.45799072659077,31.235776747598894],[121.45797071038011,31.235626777553822],[121.45792065951093,31.235306826648813],[121.45790063520623,31.235196838663228],[121.45788061180087,31.23508685067765],[121.4577704961116,31.23439695375646],[121.45766033725488,31.23392695906199],[121.45762027515559,31.233776952144694],[121.45749008030305,31.23325694345323],[121.45741997904885,31.232956947605093],[121.45740996779581,31.232896955630057],[121.45738996147759,31.232697007560883],[121.45738000508324,31.232367135335096],[121.45741010359347,31.232217256121544],[121.457470320399,31.231827539409494],[121.45769094478135,31.231238202880835],[121.45823248054454,31.229779837069884],[121.45851327946434,31.229010690091343],[121.45853335323169,31.228870787956566],[121.4585634688291,31.228640944623923],[121.45862369282918,31.228211244053742],[121.45866383316947,31.227971423642316],[121.45876419301315,31.227321892791167],[121.4587842712772,31.22716199962662],[121.45883447053448,31.226742276135212],[121.4588446238804,31.22609258160742],[121.45884463197422,31.226052598648554],[121.45884464996074,31.22596263856497],[121.45884467334302,31.22584269148706],[121.45884468773227,31.22577272243325],[121.45884469402745,31.225742735438928],[121.4588447255037,31.225582806301528],[121.45885486895713,31.224983088898515],[121.45885489683609,31.224843150790836],[121.45886496204844,31.22463326161579],[121.4589954114092,31.22388382957513],[121.45906566105147,31.223444151026797],[121.45909576225974,31.22328427674802],[121.45913590170063,31.223044455437332],[121.45926623954541,31.222854775827276],[121.45951689319008,31.22246540355559],[121.46077999819842,31.221448149812318],[121.46087022178337,31.22136834847055],[121.46116093572869,31.22113897818133],[121.4615919636982,31.220949845359144],[121.46178241762459,31.220870226579734],[121.46245401244278,31.22061156177421],[121.46285494549943,31.220552316236475],[121.46302534274548,31.22052263950826],[121.46356660241678,31.220443658348184],[121.46467919239092,31.220275754922227],[121.46483956669272,31.22024605930824],[121.46530064191118,31.22016693155871],[121.46543094468244,31.220147177050645],[121.46567150343718,31.220117628026173],[121.46662372090805,31.21996942335028],[121.46670390715963,31.21995957307587],[121.46679411635544,31.219949741687287],[121.4668442337744,31.21993983655426],[121.46687430530507,31.219929896347708],[121.46700460807632,31.219910140940332],[121.4670547236966,31.219910232671168],[121.46708479432787,31.219900291565235],[121.46780647598816,31.219781654799593],[121.46826783894808,31.219705811299242]]}},{"id":"15","type":"Feature","properties":{"Kind":"0246","Name":"地铁１号线","Shape_Leng":4.20914414989,"__source_file__":"19-其它/13-历史版本数据/2017.10/地铁.shp"},"geometry":{"type":"LineString","coordinates":[[121.45647845307451,31.219582766431987],[121.45671100211109,31.219681527880258],[121.45676111323483,31.21970160974155],[121.45796377480838,31.22021357040001],[121.45921654840504,31.220735618753853],[121.45944705993395,31.22082599792151],[121.46046932290095,31.221257668007016],[121.46135127723971,31.22161911453054],[121.46168200921738,31.22175965428465],[121.46236351906124,31.222040772463743],[121.46262409492611,31.222151198419112],[121.46290471847804,31.22226166034739],[121.46373655899505,31.22261302187349],[121.4640873368612,31.22275359939914],[121.46527997728913,31.223255553301215],[121.46558064403155,31.223376048066196],[121.46624210978565,31.22364713610648],[121.46630224205491,31.223677232818094],[121.4666730640107,31.223827843180462],[121.46672317513446,31.223847925041753],[121.46676326331398,31.223867989815915],[121.46685346441586,31.223898141386144],[121.46695368666337,31.22393830600805],[121.46699377484288,31.223958370782213],[121.46702383917885,31.22397841667066],[121.46707395030262,31.223998499431275],[121.4672643745513,31.22406881562341],[121.46778552718034,31.224289670232167],[121.46832672929521,31.224500565748542],[121.46883785898012,31.22472140237085],[121.4694592329573,31.224992418465373],[121.46993027716064,31.225183195248295],[121.47057169882488,31.225444252250497],[121.47088238671279,31.22557476366444],[121.47167413905036,31.225906065812353],[121.47196478284856,31.22602654438958],[121.47217525118698,31.226106893418436],[121.47253604750063,31.226267483557592],[121.47257613568013,31.226287548331754],[121.47276654733832,31.2264178394118],[121.47293691670541,31.226528103489215],[121.47308723568744,31.226658322623567],[121.47343797398332,31.22699881764135],[121.47378869339356,31.227429274541464],[121.47394899215237,31.227779417486204],[121.47397904749516,31.22784944319727],[121.47402913433712,31.227989474834434],[121.47404916853442,31.22804948569524],[121.47407922567585,31.22810951544182],[121.4740992535777,31.228199513296943],[121.4740992391886,31.22826948325013],[121.47407912495167,31.22860930197777],[121.47404899586458,31.228909119760143],[121.47401888926038,31.22909898373115],[121.47397875521541,31.22930882164485],[121.4739085433447,31.229558586759428],[121.47383833237325,31.229808351873995],[121.47380825095014,31.22986827190329],[121.4737581146453,31.229978133084444],[121.47361773586988,31.230257757489596],[121.47357762970387,31.230327654597662],[121.4735675986658,31.2303676186707],[121.473557571225,31.23038759171402],[121.47354753658966,31.230447547716214],[121.47352747811068,31.23050748573195],[121.47351744527396,31.230557446668854],[121.47348736834739,31.230597373869788],[121.47343724103587,31.230657257026852],[121.47337708898158,31.230727117262692],[121.4733169270346,31.230846956421942],[121.4732266899598,31.230996727716843],[121.47286575245255,31.231535837109224],[121.47272539256291,31.23172549963215],[121.47238450723933,31.232234658003108],[121.47205364935645,31.23272384333075],[121.47188320534576,31.23298342004887],[121.47178294712535,31.23312317649345],[121.47177291878529,31.233153145501323],[121.47173281621657,31.23320305068029],[121.47141198307656,31.233682258029827],[121.47121146843459,31.233951774954505],[121.47114128983867,31.23404160823367],[121.47107110854483,31.23414143657811],[121.47102097943468,31.234211314800408],[121.47093074595729,31.23434109416621],[121.47087059390287,31.23441095440205],[121.47083048773686,31.234480850610797],[121.47081043555318,31.23451080073289],[121.47066004462543,31.2347404264296],[121.47051968023914,31.234950079982237],[121.47030913635763,31.235249565015465],[121.4702088763387,31.235399317424598],[121.47011864106254,31.23553909185563],[121.47006850925435,31.235618965143203],[121.47002840578637,31.23567886628672],[121.46967748942461,31.23622798693208],[121.46950704991048,31.236467570821784],[121.46947696848737,31.236527489951758],[121.46931655461538,31.23675709676263],[121.46914611060458,31.237016672581433],[121.46896564005226,31.237296220544184],[121.46886538003332,31.237445972053994],[121.46859467420497,31.23786529444783],[121.46818363186914,31.238354328689358],[121.46806332416315,31.238514039291548],[121.46802322159444,31.238563943571197],[121.46766234254311,31.238813173589165],[121.46749192910931,31.23892281263772],[121.46742175770805,31.238972662958076],[121.46727139016264,31.239082338878916],[121.46684034060934,31.239381417418546],[121.46644940621513,31.23956062172539],[121.46580787483366,31.239849317591965],[121.46517637808745,31.240078057456458],[121.46469523629617,31.2402570953887],[121.46454487954259,31.24031679238612],[121.46355252353021,31.240694803522388],[121.46254011353551,31.24111275894671],[121.46224942027459,31.24124216779188],[121.46200884713062,31.24134168227289],[121.46141743856403,31.241590485112855],[121.46127710655333,31.241640205031498],[121.46123701027989,31.241660122316834],[121.4612069396486,31.241670062523443],[121.46035491384828,31.24200834700764],[121.45971339235926,31.242247061252957],[121.4596432245552,31.242276918744835],[121.45916208726055,31.242435962949397],[121.45908189921035,31.24245580738966],[121.45903177999276,31.242475705789218],[121.45893154425539,31.24250550842254],[121.45887140209358,31.242525388835706],[121.45872104623938,31.242575089868584],[121.45869097560809,31.24258503097445],[121.4585606683403,31.242624772915008],[121.45850052617844,31.242644653328114],[121.45797929620768,31.242803623788234],[121.45779886972207,31.242863265927042],[121.45717740401403,31.243052038121107],[121.45691678947833,31.243131522901532],[121.45647574845714,31.24327064892134],[121.45579415497637,31.24340933247476],[121.45569391833976,31.243439135108076],[121.45559368440105,31.243458940877474],[121.45466150022811,31.243667132132487],[121.45455124334524,31.243686919915493],[121.45410018927237,31.2437760499248],[121.45406009479758,31.24378597124564],[121.4540300241664,31.243795911452192],[121.45392978932843,31.24381571812097],[121.4538997168985,31.24383565339275],[121.45381952884827,31.24385549693369],[121.45373933989868,31.243875340474634],[121.45341858769768,31.243954714638452],[121.45271693933536,31.244133342479817],[121.45235609265956,31.244222637065096],[121.45213556360545,31.244332181684914],[121.45193508133902,31.244441764076214],[121.4517045059582,31.244671235988793],[121.4513636584062,31.244990464738237],[121.45125337724164,31.24513019869977],[121.45107291658188,31.245359763242508],[121.45088242938074,31.245609299929303],[121.4508523479576,31.245669218159946],[121.45071196558479,31.24596882460162],[121.45070193904337,31.245988796745625],[121.45062172041617,31.246158573459468],[121.45057157961482,31.246288422073068],[121.45053144736846,31.246488258626304],[121.4505013461603,31.24664813110644],[121.45047125124734,31.24677801749158],[121.45045117927862,31.24690792186317],[121.45056135252447,31.24730794570519],[121.45059139167951,31.247457933736715],[121.45062143263306,31.247597926703005],[121.4507316418518,31.247818031277173],[121.45076169899323,31.24787805922512],[121.4508218132761,31.247998116919632],[121.45098212102812,31.248298278243],[121.45114242158559,31.248638421625913],[121.45119251832013,31.24872847344034],[121.45138287242175,31.249148636700287],[121.45143296735763,31.24924868447925],[121.45148306049488,31.249358728222774],[121.45150309828944,31.24939874715449],[121.45157323371781,31.249528817900686],[121.45159327151237,31.249568837731715],[121.45164336644825,31.24966888461137],[121.45168344293666,31.249748923374167],[121.45173353967118,31.249838975188595],[121.4519639936434,31.25021923103276],[121.45228462623457,31.250739591359093],[121.45257519359039,31.251239904897716],[121.452915838795,31.251930226298953],[121.45293587479081,31.251980241195216],[121.45294589143975,31.25201024617599],[121.45310619379588,31.252340395392988],[121.45334664822929,31.25283062213555],[121.4535470207785,31.253270796210302],[121.45366723765301,31.25357088468866],[121.4536872772461,31.253600908555146],[121.45390768399248,31.254101094390023],[121.45394774789033,31.254241106242095],[121.45395776274063,31.25428110628809],[121.45396778028885,31.254311112168125],[121.45400784778404,31.2544311320911],[121.45421820370724,31.25507123714794],[121.4542382316091,31.255161234103692],[121.45442855513375,31.25573133323451],[121.45447863837855,31.255891355002063],[121.45448864153764,31.255991329036647],[121.45453864833998,31.256531181269054],[121.4545986762879,31.25708104835178],[121.45459866819407,31.257121030411273],[121.45463867633396,31.25754091757932],[121.45472876142321,31.258150813509303],[121.45478881545148,31.2585707384489],[121.45484885958727,31.25904064051321],[121.45485886454505,31.259130619482562],[121.45486871302082,31.2600002513106],[121.45485866849288,31.26011018353819],[121.45482856368733,31.260290047947418],[121.45479845798252,31.260469911457278],[121.45478842154853,31.260539861625375],[121.45473826006274,31.260769666287107],[121.45468810307352,31.26097947991912],[121.45451761499599,31.2614589498707],[121.45448752817697,31.261548853296972],[121.4544574512504,31.261588779598526],[121.45439729649809,31.26166863220169],[121.45435719033208,31.261738526611797],[121.4543070378396,31.261928349213974],[121.45429700500279,31.2619783083523],[121.45430701715522,31.262028304362786],[121.45432705135238,31.262088315223593],[121.45433706620268,31.26212831616891],[121.45437709682564,31.262438252223603],[121.45443713106887,31.26295813231201],[121.45445714638026,31.263108103256396],[121.45449717880183,31.26340804424592],[121.45456727825741,31.26371803695787],[121.45457728861108,31.263778028932965],[121.45458730436063,31.263818029878223],[121.45458729177017,31.263878002967488],[121.45458727828031,31.263947972021356],[121.45458723601224,31.26415787828353],[121.45458715417385,31.26456769574264],[121.45457711504184,31.264647640975912],[121.45453695041999,31.26500740666654],[121.45440643271083,31.266096678119254],[121.4543662725855,31.266436451880793],[121.45433617947117,31.26655634320071],[121.454336139901,31.26675625349833],[121.4543160580397,31.266936135894014],[121.45429597977568,31.267096027259925],[121.4542658524872,31.26738584188314],[121.45403522314712,31.26788518954993],[121.45351380341936,31.268993722682183],[121.45341353080983,31.269203441885395],[121.4530726023188,31.269932479100703],[121.45305254563857,31.269982419353195],[121.45296230046984,31.27017216641241],[121.45277178089303,31.27058162774],[121.45269156316523,31.27075140175583],[121.4524709621652,31.271220779515435],[121.45184934627036,31.272159197788824],[121.45114752613745,31.273197419225596],[121.45103724137562,31.273357141518947],[121.45101718919204,31.273387090741725],[121.45047579102504,31.274155732301267],[121.44974388856963,31.275263863436578],[121.4495934949439,31.275503473406612],[121.44926263526247,31.27600262861847],[121.44889166311987,31.276601663436058],[121.44854071887916,31.277290695209444],[121.44839031176355,31.277600273333977],[121.44835019930235,31.27770015293976],[121.4483301435214,31.27775009319231],[121.4482599460397,31.277929880259823],[121.44822578678499,31.278029520444772]]}},{"id":"41","type":"Feature","properties":{"Kind":"0246","Name":"地铁１０号线","Shape_Leng":1.21756085541,"__source_file__":"19-其它/13-历史版本数据/2017.10/地铁.shp"},"geometry":{"type":"LineString","coordinates":[[121.48902364418092,31.269722082121607],[121.48864444678385,31.26937915682271],[121.48839391274898,31.26916877571847],[121.48809327388553,31.268908321262074],[121.48780266246297,31.26862789466168],[121.4877525549365,31.268587817274014],[121.4874719700555,31.268287417630294],[121.48731165420952,31.268027225775885],[121.4870912159869,31.26768695468928],[121.48703110170403,31.267566891598847],[121.48687080114668,31.26722673292744],[121.48660028327653,31.266706443647536],[121.48634980949612,31.266196187204343],[121.48632977170166,31.266156166473934],[121.4863097339072,31.26611614574358],[121.48604925157177,31.26553589956217],[121.48579878588532,31.264985660160164],[121.48565852312242,31.264685523118434],[121.48554832379614,31.264415429728327],[121.48548820231872,31.264335351395403],[121.48527777804713,31.264035083952024],[121.48514751484595,31.263854915571926],[121.48513749639837,31.26383490565644],[121.48477678102371,31.26326447017919],[121.484726692383,31.263134430909304],[121.4846665879927,31.26296438979483],[121.48453635446926,31.262634284644548],[121.48444619743418,31.26238422005577],[121.48441615018521,31.262274210486456],[121.48393537351876,31.26063399726121],[121.48379514493001,31.260163932419577],[121.4836749550352,31.259733887409027],[121.4835748047335,31.25933386806361],[121.48355477683151,31.25924386840984],[121.48338452977224,31.25852385139467],[121.48327436821762,31.258063838275575],[121.48321427821647,31.25782382720792],[121.48310407259497,31.257583722610775],[121.48284358666228,31.257023472855053],[121.48263318667227,31.25660325743445],[121.4824127646374,31.256183024027397],[121.48233259457369,31.25611290478679],[121.48230253743226,31.256052874140888],[121.48226245464865,31.25600282057377],[121.48224241505545,31.255972795807907],[121.48205202947759,31.255712551792897],[121.48184158632021,31.25551224489425],[121.4816311422635,31.25531193889492],[121.48158103923369,31.255251870477483],[121.48138061902046,31.255051583363926],[121.4811501209814,31.254891223451242],[121.48105992797333,31.254821085324863],[121.48061897688432,31.25451039833627],[121.48017802579534,31.254199711347667],[121.47986735589383,31.25397922905825],[121.47977716288585,31.25390909093187],[121.47935625138997,31.253628429608394],[121.47920592611263,31.253528192971775],[121.47901551265579,31.253407891560983],[121.47889525261384,31.253327702611447],[121.47882510099771,31.253277593286327],[121.47869482250816,31.253177394421243],[121.47831400728569,31.252876815812442],[121.47801337022086,31.252606373485374],[121.47767264947322,31.252295874455115],[121.47760250055502,31.25223577006477],[121.47754237637956,31.25216568769639],[121.47749227334975,31.25210562017827],[121.477402092033,31.251975508962634],[121.47716160162668,31.25166519519263],[121.47701131591953,31.251365043761837],[121.47693118542588,31.25109500972695],[121.47675092351642,31.25033499716244],[121.47670086275467,31.250065018885554],[121.47669085509894,31.249985034082098],[121.47672094011932,31.249905123922364],[121.47676105078187,31.249815235784585],[121.4768011623438,31.249715352581518],[121.47698166527177,31.24927587188404],[121.47723237287573,31.248616613066304],[121.4775031326635,31.247927404126475],[121.47756329910703,31.247787573937448],[121.47758337737105,31.247627678974258],[121.47764357978748,31.247307925020777],[121.47769375836037,31.246988152181526],[121.47774393603392,31.24667837530683],[121.47778409436059,31.246348588516582],[121.47784429857563,31.24601883859856],[121.47787441147499,31.24579898673392],[121.47787441507228,31.245778995704143],[121.47787441956882,31.245759003775053],[121.47791457969413,31.245419221020313],[121.4779647501731,31.245139432039192],[121.47801489816904,31.24497959103536],[121.47804498318953,31.24489968087562],[121.47814525759759,31.244679957613986],[121.47826558778672,31.24441029320053],[121.47834580371591,31.244250508853955],[121.47840596566289,31.244130669694698],[121.47857641956615,31.24382111405322],[121.4787268248831,31.243521517504064],[121.47874687886542,31.2434815705181],[121.47889727878648,31.243211960963265],[121.47904768590206,31.242902368449624],[121.47918807457006,31.242572765121054],[121.47920813214968,31.24251282800463],[121.47925826575649,31.242422957853254],[121.47931843130063,31.24228312676496],[121.47944879702446,31.241953505449942],[121.4795891874911,31.241613906156886],[121.47973960090191,31.2412743257496],[121.47973960719719,31.24124433875528],[121.47981983122031,31.241044569651194],[121.4799000714312,31.24076483462949],[121.47996024327063,31.24059501654682],[121.48001038497138,31.240465163436564],[121.48013072505296,31.240145518301063],[121.4802610907768,31.2398158969861],[121.48033129005705,31.23962610496085],[121.48036137058081,31.239566185830885],[121.48040148124345,31.239476296793725],[121.48052182132507,31.23915665165822],[121.48064216410465,31.238827011457488],[121.48071236338491,31.23863721943218],[121.48076250598488,31.238497370357383],[121.48087282582037,31.23816771127093],[121.48096308447886,31.237907985265338],[121.48098314295771,31.237848047249656],[121.48109346459181,31.23750839219861],[121.48119376058366,31.237178714226335],[121.48131410696055,31.236829081197186],[121.48135422301903,31.236709205165713],[121.48142442859456,31.236489425246816],[121.48153474753063,31.236159766160313],[121.48156484694016,31.23600988334948],[121.48160498098515,31.23580004543578],[121.48167521174172,31.235450319776476],[121.48173540786284,31.235160551018684],[121.48178558553639,31.234850772345343],[121.48179561837311,31.234800812307693],[121.48180565120994,31.23475085137073],[121.48182571148743,31.23468091739045],[121.48190595169842,31.234401181469423],[121.48198619370794,31.234111449583796],[121.48206644021411,31.23380172576907],[121.48213667007133,31.233461996074308],[121.4822068891367,31.23317224530291],[121.48221692377207,31.23311228930078],[121.48223698225105,31.233052350385723],[121.48225703443461,31.23302240026362],[121.48225704612582,31.232962425375664],[121.48225705421974,31.232922441517534],[121.48226708885511,31.23286248551534],[121.48229717657352,31.23277257759241],[121.48232726968784,31.232652682675223],[121.48236738934361,31.232512814714653],[121.48246769972468,31.232113164990608],[121.48253791878994,31.231823414219264],[121.4825981050186,31.231583624384825],[121.48263823546631,31.231393776601582],[121.48268839875061,31.231153968780685],[121.48271848916706,31.231044069827988],[121.48273855124319,31.230964139883213],[121.48274858228127,31.2309241749108],[121.48276864885418,31.230824253036868],[121.48277868348954,31.23076429613542],[121.48280878919435,31.230584426330267],[121.48285894978073,31.230354613574605],[121.48289908022844,31.23016476669068],[121.48294924351283,31.22992495797047],[121.48299940499862,31.22969514521481],[121.48304957188031,31.229435345464882],[121.48306964384905,31.22930543569737],[121.48318000145593,31.228785854183858],[121.48323016474033,31.2285460454637],[121.48327029608731,31.228346201715908],[121.48337060646838,31.22794655199181],[121.48345084128336,31.227696802165728],[121.48356114403168,31.227447107198316],[121.48376167935804,31.227077627030898],[121.48401235278787,31.22658828791918],[121.48408254217566,31.22644847391797],[121.48411698786751,31.226388441123273]]}},{"id":"9","type":"Feature","properties":{"Kind":"0246","Name":"地铁７号线","Shape_Leng":0.816185710463,"__source_file__":"19-其它/13-历史版本数据/2017.10/地铁.shp"},"geometry":{"type":"LineString","coordinates":[[121.42162692230453,31.25197918929302],[121.42208499802427,31.2519331859678],[121.42270643765197,31.251874363111423],[121.42300713227338,31.251854928761983],[121.42367868302482,31.251816189565545],[121.4242800722676,31.251777320866722],[121.42435023557493,31.251767455303874],[121.42440035659126,31.251737561839036],[121.4246108842849,31.251518056213396],[121.42485148890512,31.25125862428615],[121.42512216865326,31.250969262021897],[121.4254429676189,31.250660001358032],[121.42578381696967,31.25033078743593],[121.4259442173518,31.250171159571437],[121.42598431722251,31.250131253054917],[121.42604446118298,31.250101378475907],[121.42610460334481,31.250081498962057],[121.4261447041149,31.250041591546275],[121.42622490565499,31.24995178254875],[121.42635524709704,31.249742122700862],[121.42651566816359,31.24948254148615],[121.42659587420032,31.24937274235822],[121.42688660613203,31.249053429971866],[121.42715728947735,31.24874407577852],[121.4273578077167,31.24845458311256],[121.42745806233971,31.248334824892314],[121.42758840018462,31.248145155174825],[121.42778892471917,31.24782567551455],[121.42787917348518,31.2476159410229],[121.42788920092597,31.247595969778217],[121.42794936287282,31.24747613691426],[121.42797944969186,31.247386234387253],[121.42800953920892,31.24728633769439],[121.42801956575046,31.247266365550384],[121.42805969619803,31.247076528558978],[121.42813995619407,31.246696856374854],[121.42821018155473,31.24637713659564],[121.42828040331801,31.246077406946824],[121.42838067952484,31.245847700311177],[121.42848094943633,31.245647978871208],[121.42854111138318,31.24552814600719],[121.42859124678863,31.2454282861865],[121.42867145912057,31.245288499164932],[121.4287817708621,31.244998839225104],[121.4288820263845,31.24486908504031],[121.42901236243064,31.244689409488732],[121.4292228901244,31.24446990116508],[121.42925296435293,31.24443997082807],[121.4294434245744,31.244330373148273],[121.42982434501756,31.244101182723455],[121.42990453756443,31.24406134905206],[121.43040573064003,31.24385236999092],[121.43068640005744,31.2437329436205],[121.43114751484599,31.243453923559798],[121.43117758637653,31.24344398335319],[121.43168881858413,31.2431550599581],[121.43193942996083,31.242975605639746],[121.43218001659456,31.24280612750084],[121.43283160329588,31.242357536671026],[121.43292182688084,31.24227773982591],[121.43294187726589,31.242257785668297],[121.43302207341002,31.24219796096719],[121.43306217148209,31.2421680495159],[121.43383407218472,31.2415297664856],[121.43428518291489,31.241160768354803],[121.43439545418687,31.241071013316684],[121.43444557700185,31.241031123887296],[121.43453579249285,31.240991308202354],[121.43473627296068,31.24089172357424],[121.43479641692115,31.240861848095847],[121.43485656717688,31.240801986522513],[121.43510720463382,31.240492590960343],[121.43533779890039,31.240173162561465],[121.43553831713974,31.23988366629823],[121.43556839406621,31.239843739996676],[121.43579899193003,31.23950432056802],[121.43596943144416,31.23926474477219],[121.4360195641516,31.239174879117456],[121.43613987905223,31.238985187816244],[121.43632035140321,31.238695653781463],[121.4365208741391,31.238386165589137],[121.43657100864516,31.23828630307048],[121.43670135638251,31.23804665353026],[121.43690188541372,31.237707179242992],[121.43709238880274,31.23737768113512],[121.43730294257682,31.237028228869686],[121.43731296911822,31.237008256725748],[121.43749344776451,31.236688735696646],[121.43768395295217,31.23634924162423],[121.43771403437528,31.236289325192274],[121.43785440685542,31.23603969767396],[121.43809503305943,31.235670309237438],[121.43815518331508,31.2356104476641],[121.43826545908372,31.235500699797512],[121.43832561293675,31.235420847194405],[121.43914767152785,31.234572745136116],[121.43929805705976,31.234373112729035],[121.44083187419177,31.232906595463078],[121.44115267675467,31.232577333876918],[121.44141332996126,31.232307934763416],[121.44159378432575,31.23210835631562],[121.44179429447114,31.231858837615338],[121.44197476952002,31.23155930491805],[121.44204495890779,31.231419497212073],[121.44207504392818,31.23133958885097],[121.44209509791052,31.231299643663704],[121.4421252009173,31.23112977701766],[121.44215532011197,31.230879946252575],[121.44217541816114,31.230620101536484],[121.44221556839386,31.230330307597683],[121.44227576811227,31.230020559501273],[121.44233596873006,31.229710811404857],[121.44240619409061,31.229391085330352],[121.44244633443088,31.22915126851626],[121.44246639650704,31.229071341269446],[121.44247642304855,31.229051369125443],[121.442536625465,31.228731625064487],[121.44258678245411,31.22852181233185],[121.44267704201195,31.228262096218828],[121.44279737399971,31.227982443934707],[121.44292773342818,31.227682818607263],[121.44307814504043,31.227353244057042],[121.4430881760785,31.227313279983946],[121.44317844103227,31.227023576876604],[121.44327873522548,31.226703906560093],[121.44339907620646,31.2263842713171],[121.4434893330663,31.226134550269308],[121.4435194180868,31.226054641008943],[121.44353947206899,31.226014695821622],[121.44364978381056,31.225725029586503],[121.44379017427717,31.225385440185963],[121.44388042933836,31.225145714203393],[121.44393056654246,31.225035855720193],[121.44408097185942,31.224736266365657],[121.44424140012063,31.224436694997507],[121.44428151887699,31.22430682749814],[121.44432163493559,31.224186955064],[121.44443194847565,31.223887291965013],[121.44445199796144,31.223867337807466],[121.44448208298184,31.22378742944636],[121.44451216620361,31.223717516150483],[121.44452219364437,31.223697543107164],[121.4445522786648,31.223617634746123],[121.44459238842808,31.22352774840692],[121.44464252203488,31.223437880953497],[121.44466258141301,31.223367948771852],[121.44468263809335,31.223318008519357],[121.4447327734988,31.223218145101384],[121.44475282748101,31.22317819991406],[121.44483304341033,31.223018418265436],[121.44490323099933,31.22288860472537],[121.44501352205646,31.222698891840427],[121.44505363991357,31.222569024341055],[121.44510378341296,31.222429178863592],[121.44514513631763,31.22229645734022]]}},{"id":"37","type":"Feature","properties":{"Kind":"0245","Name":"地铁３号线","Shape_Leng":0.645261953676,"__source_file__":"19-其它/13-历史版本数据/2017.10/地铁.shp"},"geometry":{"type":"LineString","coordinates":[[121.42174877781949,31.246242684426292],[121.42376978254947,31.247358478610977],[121.42442120197701,31.24774949574271],[121.42448133334688,31.24777959245427],[121.42477196545396,31.247960043221497],[121.42504255347113,31.248130461151906],[121.42523296063268,31.248280741463077],[121.4255235819478,31.248511169355027],[121.42568392477335,31.248641403777814],[121.42578413712829,31.24873154642376],[121.42584426310236,31.248791628331052],[121.42604468781214,31.248971913622995],[121.42640545264953,31.249292428402892],[121.42649564385898,31.2493725570979],[121.42651568615008,31.24939258410052],[121.42659585441515,31.24947269480907],[121.42677623683393,31.24963295219902],[121.42712697423053,31.249973439122982],[121.4274476490898,31.25028388509327],[121.42758794512758,31.250414083543152],[121.42776832394907,31.25059433196293],[121.42820924715909,31.251044934576097],[121.42863012987664,31.251465515121478],[121.42871029994048,31.251535629865486],[121.4287503845227,31.251575685669426],[121.42879047000429,31.25160574550881],[121.42888066391163,31.251675879138585],[121.4289107282476,31.251695925026976],[121.42911115115874,31.251886206283473],[121.42918129827832,31.251956303041027],[121.42936168519374,31.252096571199843],[121.42978256611264,31.25252714770977],[121.43020344703156,31.252957724219645],[121.43065439138707,31.253418343481826],[121.43111535778758,31.253878980730402],[121.43137590487414,31.25413934165732],[121.4314861383747,31.25423949915364],[121.43186694910047,31.254560054403044],[121.4321575704156,31.254790484992956],[121.43245821917152,31.25500094433818],[121.43282902314093,31.25524151928073],[121.4330895936099,31.255381936727076],[121.43351051679703,31.255602614169337],[121.43384124697604,31.255753157082612],[121.4341419155171,31.255863663077662],[121.43448267223755,31.255994233846874],[121.43487354457852,31.256124898145572],[121.43525439757241,31.25623555252878],[121.43561521007392,31.25631618394476],[121.4360562016325,31.256426950743215],[121.43638694710002,31.25649753133604],[121.43670767591857,31.256538107847458],[121.43706849561465,31.2565887531685],[121.43731906652182,31.256609208248392],[121.43773000543547,31.256639956968513],[121.43828125927281,31.256700950788286],[121.43883251400938,31.256761945507435],[121.43934368596238,31.2567728884581],[121.43974461362312,31.25674364520313],[121.43997515123225,31.256704091220914],[121.44068681534429,31.256555480051418],[121.44121807455453,31.25636655137532],[121.44213023802013,31.256028398192083],[121.44336316807585,31.255540906287823],[121.44516745721239,31.254824576493036],[121.44691160148933,31.254138118579363],[121.44703188761162,31.254088364486506],[121.4470820068292,31.254068466086892],[121.44824476998018,31.253610826278646],[121.4492070526634,31.253252769299934],[121.45027960302127,31.252824947413444],[121.45133209400105,31.252457059945414],[121.45228435194133,31.252108978246785],[121.45232444641613,31.252099056926003],[121.45277551667687,31.251929967294192],[121.45313637144649,31.251800692448057],[121.45370772603077,31.25159184198998],[121.45409865143164,31.251452627836557],[121.45425903472677,31.251382955558995],[121.4548905368688,31.25112423769349],[121.45519125577185,31.250984856266147],[121.45533159048057,31.250925142181643],[121.4555019976192,31.250845492825306],[121.45592300264458,31.25065635460715],[121.45640414803302,31.250457332839687],[121.457476695693,31.25003949972319],[121.45792777045028,31.24985041726302],[121.45819841152752,31.24975096123791],[121.45823850600232,31.24974103991713],[121.45829864816416,31.249721159503967],[121.4583287196947,31.249711219297414],[121.45835879032597,31.249701279990123],[121.45839888480077,31.24969135777002],[121.45850914618019,31.249651578957245],[121.45854924155437,31.24963166257123],[121.4585793130849,31.24962172236462],[121.45863945524673,31.249601841951513],[121.45868957266568,31.249591938617133],[121.45871964329696,31.2495819993099],[121.45874971482749,31.24957205910329],[121.4588299064751,31.249532224532572],[121.45917071535632,31.249402911015583],[121.4596518544496,31.249233874443803],[121.46036354194393,31.24897530316775],[121.46092486728891,31.248796418120268],[121.46138595239984,31.248667326735813],[121.46176684136675,31.248598060052473],[121.46221789004369,31.24853891883606],[121.46236823690468,31.24852920076205],[121.46273908494082,31.24854987707522],[121.46319011743005,31.248570700877167],[121.46354091148395,31.248631321478346],[121.46380149993935,31.248681781539062],[121.46405206365192,31.248742217779185],[121.46451309030692,31.248902999473902],[121.4652747729125,31.249244258016123],[121.46563556383023,31.24943484144484],[121.46571573928996,31.249474971892486],[121.46576585041373,31.24949505645174],[121.46588611495237,31.249555252572915],[121.46593622427736,31.2495853321974],[121.4662268599817,31.249745799129357],[121.46651749748457,31.249896270996146],[121.46680812779289,31.250086725821802],[121.46707870501827,31.2503071307695],[121.46744947931006,31.250697646978896],[121.46777014967279,31.25102809746875],[121.46803070215526,31.25125847949528],[121.46827121504464,31.251458838554584],[121.46874223766416,31.25175957994071],[121.46908297999562,31.251960124260396],[121.46974442416592,31.25234118409844],[121.4707967217913,31.252942872815368],[121.47243029442257,31.253845511561167],[121.47287125810215,31.2540962209639],[121.4729113453824,31.254116286637384],[121.47299152174139,31.254156417984348],[121.47306167515626,31.25419653134492],[121.47442464628045,31.25499871491883],[121.47473531438335,31.25522919227348],[121.47475535667445,31.255249221074735],[121.4750058943066,31.255439604853905],[121.47507604322493,31.255499709244244],[121.47509608551606,31.255519738045507],[121.4753365840162,31.25579006885664],[121.47539670639298,31.25587014629025],[121.4754468067248,31.255940209772916],[121.47549690795597,31.256010273255583],[121.47561714641427,31.256200415117117],[121.47578746991587,31.256540587278327],[121.47586761389937,31.256740650460703],[121.47594774259426,31.257020680460077],[121.47599781954375,31.257210693718605],[121.47603784926741,31.25752063606853],[121.4760478560238,31.257600620871987],[121.47604784613122,31.257650599795397],[121.47604782814483,31.257740561677622],[121.47604779397057,31.257910489477585],[121.47595735095105,31.259089822637236],[121.47587688411103,31.260499075571943],[121.47586684318038,31.2605890185684],[121.47585679415577,31.260718945423037],[121.47584674153391,31.260868863307454],[121.47581659625894,31.261248646108182],[121.4757563138029,31.26196822875079],[121.47564585457258,31.26299758736883],[121.47561575516306,31.2631474674817],[121.47555554465272,31.26350720349467],[121.47547524508649,31.26408680756015],[121.47541498871078,31.264676445361715],[121.47540493159238,31.264846354275903],[121.4753748007065,31.26515616712345],[121.47539472608584,31.265755950177038],[121.47544470680782,31.266425758941693],[121.4754746965001,31.266825645187456],[121.47550468169572,31.26724552336225],[121.47552464934313,31.267635394757686],[121.47552462146416,31.26777533556333],[121.47553460663687,31.267965274178096],[121.47555460845844,31.268185217773635],[121.47555453201606,31.268565056332363],[121.47553438000774,31.269094794789],[121.47547414611506,31.269574478779248],[121.47529359732175,31.27024385766794],[121.47497261849162,31.27145274434872],[121.4749625829569,31.271512700350907],[121.47495254202624,31.271602643347368],[121.4748621988315,31.27228218547452],[121.47476180391415,31.273101649521553],[121.47473167482703,31.273401466404607],[121.47469135642098,31.274530910573105],[121.4748315373456,31.27524087136919],[121.47499174976953,31.27602084078922],[121.4752723058723,31.27646117943993],[121.47564304149319,31.27704162886812],[121.47568311978023,31.277111674364335],[121.4757332210114,31.27718173874632],[121.47575326150388,31.277211763512128],[121.47577330109698,31.277241788277934],[121.47589353775663,31.277441928802038],[121.47598240057083,31.277627724030328]]}}],"name":"地铁","crs":{"type":"name","properties":{"name":"urn:ogc:def:crs:OGC:1.3:CRS84"}}}