{"type":"FeatureCollection","features":[{"id":"25","type":"Feature","properties":{"FID":25,"__source_file__":"19-其它/13-历史版本数据/2017.10/轮渡.shp"},"geometry":{"type":"LineString","coordinates":[[121.48927283600007,31.23461459400002],[121.49217965600008,31.23391020800001],[121.49246297665067,31.233841033446858]]}},{"id":"26","type":"Feature","properties":{"FID":26,"__source_file__":"19-其它/13-历史版本数据/2017.10/轮渡.shp"},"geometry":{"type":"LineString","coordinates":[[121.48865137900009,31.234763393000012],[121.48927283600007,31.23461459400002]]}}],"name":"轮渡","crs":{"type":"name","properties":{"name":"urn:ogc:def:crs:OGC:1.3:CRS84"}}}