{"type":"FeatureCollection","features":[{"id":"37","type":"Feature","properties":{"Kind":"0242","Name":null,"Shape_Leng":0.0359027260721,"__source_file__":"19-其它/13-历史版本数据/2017.10/铁路.shp"},"geometry":{"type":"LineString","coordinates":[[121.4726106930291,31.25392581112732],[121.47238019499004,31.253765453013273],[121.47195927629959,31.253524776447307],[121.47127779433481,31.25310369497959],[121.4706664603889,31.252752713866702],[121.47038584762879,31.252592263122498],[121.47011525781296,31.25243183126406],[121.46984466619847,31.252281395370176],[121.469624183909,31.252161039100713],[121.46947385233648,31.25209079125705],[121.46934356485372,31.25203057535083],[121.4691932332812,31.251960327507167],[121.46886250759871,31.251789789067573],[121.46840151601725,31.25144908360835],[121.46801068054857,31.251138494645886],[121.46748958277807,31.250637747634016],[121.46694844001854,31.250136963749924],[121.46660770488178,31.24989643827007],[121.46596630749912,31.249515418002204],[121.46590617343122,31.2494953154565],[121.46578590709397,31.24944511529986],[121.46573579597033,31.249425030740607],[121.46518458530045,31.24914413469412],[121.46451309840084,31.248863016515035],[121.4639117568222,31.24866199375606],[121.46323021550212,31.248540787627295],[121.46262883974919,31.248509690869582],[121.46216777891992,31.24851883517613],[121.46158642657234,31.24859772730332],[121.46100505983566,31.24875658354955],[121.46041366296026,31.24894540880365],[121.4594112902988,31.249293404167307],[121.45876976880983,31.249532113915965],[121.45870962664799,31.249551993429808],[121.4586895780617,31.249561952522132],[121.45857931668219,31.24960173133491],[121.45848910388906,31.2496315510553],[121.45839888839807,31.249671366740245],[121.45835879392327,31.249681288061026],[121.45832872329198,31.249691228267636],[121.45829865176142,31.24970116847419],[121.45822848665534,31.24972103000158],[121.45771727243427,31.249919997809684],[121.4572060564144,31.250128960683018],[121.45606334274908,31.250566654427587],[121.45536168089689,31.25081524682622],[121.45529151579092,31.250835108353613],[121.4552213488862,31.25086496494623],[121.45506096828909,31.25092464215857],[121.45468006133581,31.251083867126795],[121.45362755956431,31.25150173441756],[121.45246480270852,31.251929392627407],[121.45182327492421,31.25219808487378],[121.45159272742251,31.252287618678736],[121.44907676518064,31.2531925551923],[121.4477736682203,31.2537099090851],[121.44729252463037,31.253898932189994],[121.44702188265387,31.25399838641647],[121.44690159653146,31.25404814140865],[121.44679133515206,31.254087918422726],[121.44380422708345,31.255311828278312],[121.44253120884834,31.25577925540836],[121.44178944442741,31.25607774309344],[121.4407770371306,31.256485679170797],[121.44003528709891,31.256714198701385],[121.43976465141759,31.256783664134847]]}},{"id":"75","type":"Feature","properties":{"Kind":"0242","Name":"沪宁城际高速铁路","Shape_Leng":3.20408221913,"__source_file__":"19-其它/13-历史版本数据/2017.10/铁路.shp"},"geometry":{"type":"LineString","coordinates":[[121.42400414029582,31.260179340647905],[121.42431849490266,31.260113430990092],[121.42463924440563,31.260054055050663],[121.42495999300934,31.25999467911123],[121.42528074161305,31.259935303171744],[121.42559146727251,31.259875909245864],[121.42590219383123,31.259816514420663],[121.42618284796015,31.2597670589027],[121.42630312868653,31.259747291804107],[121.42651362040728,31.259707701849038],[121.42681432312257,31.259648288138067],[121.42710500289365,31.259588856440644],[121.42739568266472,31.25952942474322],[121.4276863624358,31.259469993045798],[121.42797703950885,31.25942055551428],[121.42825769633566,31.259361104931084],[121.42853835136384,31.259311650312444],[121.42880898344788,31.25926217590876],[121.4290796164312,31.259202706439797],[121.42935024851522,31.259153232036056],[121.429610857655,31.259103739645923],[121.42987146589554,31.25905424725573],[121.43012205209108,31.259004735979826],[121.43038265853295,31.258965237755547],[121.43063324203058,31.258925721544873],[121.4308738043826,31.258876192282518],[121.43112439057825,31.258826680107234],[121.43136495113163,31.258787145910105],[121.43159548874088,31.25874759192789],[121.431836051093,31.258698061766214],[121.43206659050077,31.258648513618088],[121.43229712811002,31.258608959635808],[121.43252766841728,31.25855941148768],[121.43274818218289,31.258519838619687],[121.43295867390373,31.258480248664572],[121.43317918856873,31.258440675796578],[121.43338968028958,31.258401085841513],[121.43360017380905,31.258351499022524],[121.43380064438429,31.258301894217084],[121.43401113610513,31.258262303362642],[121.43420158103824,31.258222675636034],[121.43440204981482,31.258183065895818],[121.43459249564718,31.25814343816921],[121.43478293878161,31.258113805507776],[121.43497338461407,31.25807417778111],[121.43516383044653,31.258034549155184],[121.43535427358096,31.25800491649375],[121.43553469646919,31.25796526988137],[121.435715118458,31.257925623268935],[121.43589553864818,31.25789597172178],[121.43607595973778,31.257866320174568],[121.43624635878247,31.257826654676418],[121.43641675872651,31.25778699007759],[121.43649694677674,31.25776714743597],[121.43657713302834,31.2577573007589],[121.43679765129059,31.257697737760452],[121.43687783934092,31.25767789601815],[121.43709836209985,31.257598341989933],[121.4372386923119,31.25755862073379],[121.4375393950271,31.257499206123498],[121.43768974458612,31.25747949388358],[121.43784009774242,31.25743979151321],[121.43798042615583,31.257410065322293],[121.43812075906588,31.257360349000976],[121.4382711122221,31.257320646630603],[121.43854175240007,31.257231190167317],[121.43868208261212,31.25719146801191],[121.43881238987991,31.257151728769312],[121.43894269714781,31.2571119886274],[121.43907300441573,31.257072248485542],[121.43920331348214,31.2570225132784],[121.43933362344809,31.25697277807132],[121.4394639325145,31.256923042864173],[121.43958421683817,31.256883283836547],[121.43983480483244,31.25682377569672],[121.43996511210024,31.256784036454178],[121.44007537527843,31.256734263475547],[121.44018563665782,31.256694486461413],[121.44082716174422,31.25643579467624],[121.44160902063982,31.25612738567037],[121.44250114181432,31.255769203685873],[121.44374409121691,31.255301721697155],[121.44412499637156,31.255152495391428],[121.44426533018088,31.255092782206187],[121.44454599690027,31.25498335269964],[121.44475650301025,31.25487379279133],[121.4448667661884,31.254824019812705],[121.44497702756782,31.2547842418993],[121.44507726780171,31.2547344500349],[121.44562858639019,31.254475589177165],[121.44573884956834,31.254425816198534],[121.44583908980223,31.254376024334135],[121.44616988113512,31.25421670943365],[121.4462701222684,31.25416691756925],[121.44638038544645,31.25411714459062],[121.4466009136013,31.254007602668764],[121.44670115563383,31.25394781483982],[121.44680139586774,31.25389802297542],[121.44686154432488,31.253848157366633],[121.44698183044716,31.253798402374397],[121.44711214221161,31.253738671202772],[121.44721238244551,31.25368887933837],[121.4473126262767,31.253619096444194],[121.4485856813842,31.252971745549644],[121.4491470202189,31.25272289684426],[121.45035990258748,31.252245355938502]]}},{"id":"73","type":"Feature","properties":{"Kind":"0242","Name":"京沪线","Shape_Leng":13.8916186793,"__source_file__":"19-其它/13-历史版本数据/2017.10/铁路.shp"},"geometry":{"type":"LineString","coordinates":[[121.43976465141759,31.256783664134847],[121.43956418084235,31.256833269839607],[121.43750934238234,31.257419187145842],[121.43685780964029,31.25759789592621],[121.43674755005942,31.25762767697574],[121.43665733906506,31.25764750073165],[121.43642679965717,31.257697049779097],[121.43634661160696,31.257716891521394],[121.43628646944511,31.257736771035187],[121.43411138443288,31.258172531237395],[121.42630314487428,31.259667329483705],[121.4261828641479,31.2596870965823],[121.42395336601815,31.260065198678177]]}}],"name":"铁路","crs":{"type":"name","properties":{"name":"urn:ogc:def:crs:OGC:1.3:CRS84"}}}