{"type":"FeatureCollection","features":[{"id":"175","type":"Feature","properties":{"OBJECTID_1":176,"OBJECTID":105606,"GB":430200.0,"RN":"S311","NAME":"延安高架路","RTEG":null,"TYPE":"高架","SHAPE_Leng":0.0618981548398,"Shape_Le_1":0.0618981548398,"Shape_Le_2":0.0618981548725,"__source_file__":"04-交通数据/1-交通路网/2-分类图层/上海市_主要公路线.shp"},"geometry":{"type":"LineString","coordinates":[[121.46470914970757,31.226225270280054],[121.46332912024275,31.2256736603112],[121.46202910525903,31.22552060019558],[121.46017423465332,31.225748384980022],[121.45871157008298,31.22579697984679],[121.45818319499847,31.22581453011651],[121.45612671527579,31.225783234608627],[121.45116861523945,31.22570764479201],[121.45019183458555,31.225673770028493],[121.44258245137115,31.223183621686058]]}},{"id":"190","type":"Feature","properties":{"OBJECTID_1":191,"OBJECTID":105624,"GB":430200.0,"RN":null,"NAME":"南北高架路","RTEG":null,"TYPE":"高架","SHAPE_Leng":0.0388575334091,"Shape_Le_1":0.0388575334092,"Shape_Le_2":0.0388575331698,"__source_file__":"04-交通数据/1-交通路网/2-分类图层/上海市_主要公路线.shp"},"geometry":{"type":"LineString","coordinates":[[121.46470914970757,31.226225270280054],[121.46449643486267,31.22643214492757],[121.46350975986763,31.227471080426085],[121.46291146519206,31.228695385083995],[121.46280685964894,31.229580680404126],[121.46248487537673,31.23230557044576],[121.46206928966603,31.234871644710665],[121.46198815013304,31.235372620150372],[121.46156044515851,31.236594234936035],[121.4611058000927,31.237892759743147],[121.45991048508085,31.239996419699082],[121.45966068039615,31.24043603979146],[121.45956278469487,31.240608334607032],[121.4583041700015,31.243572320206454],[121.45794946029946,31.244407624912014],[121.45765677504016,31.246234344939126],[121.45787256466724,31.247150835043044],[121.45870209032921,31.25082379488225],[121.45901392035626,31.252711989866498],[121.45915850526092,31.253587469985803],[121.45912123465735,31.258507800294808],[121.45872597992013,31.259705924788648],[121.45837331977293,31.260774894945484],[121.45817874964962,31.26136465505482],[121.45707655044248,31.262563995432117],[121.45699521036079,31.262652500412628],[121.45695062467166,31.262701015239713]]}},{"id":"187","type":"Feature","properties":{"OBJECTID_1":188,"OBJECTID":105621,"GB":430200.0,"RN":"S310","NAME":"内环高架路","RTEG":null,"TYPE":"高架","SHAPE_Leng":0.047191272489,"Shape_Le_1":0.047191272489,"Shape_Le_2":0.0471912718725,"__source_file__":"04-交通数据/1-交通路网/2-分类图层/上海市_主要公路线.shp"},"geometry":{"type":"LineString","coordinates":[[121.4216154769148,31.247146343678978],[121.42209336531664,31.247392904658852],[121.42497117967628,31.248895505423263],[121.42830487477022,31.252019105397437],[121.43090249995043,31.25487549520801],[121.43164804961782,31.25548953521394],[121.4331523096314,31.256226630354774],[121.43668366042266,31.257680190188694],[121.43772498541978,31.258108784592764],[121.44037436028862,31.25898402998905],[121.44520507495429,31.25993709462125],[121.45695062467166,31.262701015239713]]}},{"id":"204","type":"Feature","properties":{"OBJECTID_1":205,"OBJECTID":105643,"GB":420201.0,"RN":"S126","NAME":"上海-太仓","RTEG":"一级","TYPE":null,"SHAPE_Leng":0.0492018706408,"Shape_Le_1":0.0492018706409,"Shape_Le_2":0.0492018701145,"__source_file__":"04-交通数据/1-交通路网/2-分类图层/上海市_主要公路线.shp"},"geometry":{"type":"LineString","coordinates":[[121.43256953855011,31.271295965393772],[121.43322870973725,31.271039280138723],[121.43329904481516,31.271014490326536],[121.43516425042992,31.27042383539174],[121.43622547472592,31.270087765038397],[121.4362569096287,31.270077314916193],[121.43747296030892,31.26965362541455],[121.43772896042321,31.269525699551423],[121.43774856024788,31.269512074822444],[121.43834593491704,31.269086455375657],[121.43854493510071,31.26889805010495],[121.43855494995103,31.26888510526345],[121.43890492472258,31.268424280056536],[121.44161775485554,31.26484036479104],[121.4436809498161,31.262044815016225],[121.44520507495429,31.25993709462125],[121.44699705507014,31.25466336042581]]}},{"id":"200","type":"Feature","properties":{"OBJECTID_1":201,"OBJECTID":105639,"GB":430200.0,"RN":"S310","NAME":"内环高架路","RTEG":null,"TYPE":"高架","SHAPE_Leng":0.0350942366517,"Shape_Le_1":0.0350942366517,"Shape_Le_2":0.0350942370186,"__source_file__":"04-交通数据/1-交通路网/2-分类图层/上海市_主要公路线.shp"},"geometry":{"type":"LineString","coordinates":[[121.45695062467166,31.262701015239713],[121.46028007496557,31.263949019731513],[121.46202263463692,31.264698190069453],[121.46251959010704,31.264911840209322],[121.46418167484444,31.265626374957264],[121.46526890033954,31.26639562535786],[121.46528073541765,31.266403999844783],[121.46623260035426,31.267214115439117],[121.4710234948385,31.271598709712748],[121.4717934350191,31.27265458484129],[121.47486415866183,31.277962589009764]]}},{"id":"206","type":"Feature","properties":{"OBJECTID_1":207,"OBJECTID":105646,"GB":430200.0,"RN":null,"NAME":"南北高架路","RTEG":null,"TYPE":"高架","SHAPE_Leng":0.0344250344052,"Shape_Le_1":0.0344250344052,"Shape_Le_2":0.0344250337826,"__source_file__":"04-交通数据/1-交通路网/2-分类图层/上海市_主要公路线.shp"},"geometry":{"type":"LineString","coordinates":[[121.45695062467166,31.262701015239713],[121.45605925533039,31.264079485280092],[121.45559078498684,31.264803960234644],[121.44860332967994,31.27717141992514],[121.4483674995605,31.27773772031958],[121.44824445627097,31.278033190905823]]}},{"id":"770","type":"Feature","properties":{"OBJECTID_1":771,"OBJECTID":109784,"GB":430200.0,"RN":null,"NAME":"南北高架路","RTEG":null,"TYPE":"高架","SHAPE_Leng":0.0295095396031,"Shape_Le_1":0.029509539603,"Shape_Le_2":0.0295095403235,"__source_file__":"04-交通数据/1-交通路网/2-分类图层/上海市_主要公路线.shp"},"geometry":{"type":"LineString","coordinates":[[121.4667351774751,31.219478449938602],[121.4668019503498,31.219709825048426],[121.46725166533213,31.221268065069182],[121.4673347545953,31.222636084987357],[121.46709872482631,31.223412820445333],[121.466861319994,31.22389849032311],[121.46652770029323,31.224580984924557],[121.46470914970757,31.226225270280054]]}},{"id":"580","type":"Feature","properties":{"OBJECTID_1":581,"OBJECTID":107910,"GB":430200.0,"RN":null,"NAME":"中山南路","RTEG":null,"TYPE":null,"SHAPE_Leng":0.0343129939651,"Shape_Le_1":0.034312993965,"Shape_Le_2":0.0343129941398,"__source_file__":"04-交通数据/1-交通路网/2-分类图层/上海市_主要公路线.shp"},"geometry":{"type":"LineString","coordinates":[[121.4908877137785,31.231942223883806],[121.4901624349485,31.23261060969196],[121.48868439017258,31.234139795315343],[121.48828404976916,31.23455397988232],[121.48773307022509,31.23515534034675]]}},{"id":"771","type":"Feature","properties":{"OBJECTID_1":772,"OBJECTID":109785,"GB":430200.0,"RN":"S311","NAME":"延安高架路","RTEG":null,"TYPE":"高架","SHAPE_Leng":0.0251474377779,"Shape_Le_1":0.0251474377779,"Shape_Le_2":0.0251474385869,"__source_file__":"04-交通数据/1-交通路网/2-分类图层/上海市_主要公路线.shp"},"geometry":{"type":"LineString","coordinates":[[121.48773307022509,31.23515534034675],[121.48770354997896,31.235145394744222],[121.48674666502666,31.23482312988358],[121.48610741522509,31.23460783038712],[121.48574055028621,31.234351869842953],[121.48561074034342,31.234261305414975],[121.4855911000493,31.234247599746993],[121.48537081471136,31.234093910105912],[121.48463112502645,31.233759279567153],[121.48388023518476,31.23361745018525],[121.4838721646687,31.233615924935066],[121.48368652031672,31.233580860368477],[121.48301531490495,31.233079089928083],[121.48235519993261,31.232889439995688],[121.48141717466297,31.233029860139993],[121.48081964980702,31.23314520538696],[121.4800488049085,31.233141564931316],[121.47880817485748,31.232875194734504],[121.47840288008888,31.232788170038077],[121.47709023502637,31.2321889400676],[121.47675309537908,31.232035030092618],[121.47385537542527,31.230493905069693],[121.47353433993794,31.230323159786053],[121.47336821986755,31.230234804992335],[121.47225377998802,31.229592199820218],[121.4715466196808,31.229092124601948],[121.471520339692,31.229073540111813],[121.4712076903827,31.228852439988145],[121.46597086526333,31.22672911455703],[121.4659286996498,31.22671227475172],[121.46526614481684,31.226447695105094],[121.46470914970757,31.226225270280054]]}},{"id":"758","type":"Feature","properties":{"OBJECTID_1":759,"OBJECTID":109741,"GB":430200.0,"RN":null,"NAME":null,"RTEG":null,"TYPE":null,"SHAPE_Leng":0.00967967768875,"Shape_Le_1":0.00967967768876,"Shape_Le_2":0.0096796773219,"__source_file__":"04-交通数据/1-交通路网/2-分类图层/上海市_主要公路线.shp"},"geometry":{"type":"LineString","coordinates":[[121.48773307022509,31.23515534034675],[121.49163500015516,31.237630000324316],[121.49238762029256,31.2380336700179],[121.49413899961519,31.238973000203828],[121.49586495284964,31.239725989613436]]}},{"id":"581","type":"Feature","properties":{"OBJECTID_1":582,"OBJECTID":107911,"GB":430200.0,"RN":null,"NAME":"中环路","RTEG":null,"TYPE":null,"SHAPE_Leng":0.0137502977137,"Shape_Le_1":0.0137502977138,"Shape_Le_2":0.0137502973682,"__source_file__":"04-交通数据/1-交通路网/2-分类图层/上海市_主要公路线.shp"},"geometry":{"type":"LineString","coordinates":[[121.48726602980355,31.2475844647513],[121.48614314528993,31.24693420994589],[121.48545577996038,31.24444256537214],[121.48542509958872,31.244331345315402],[121.48566579504052,31.24005985517823],[121.4859244247724,31.237859830167054],[121.48689616472632,31.236289579700383],[121.48747091964731,31.235441455159105],[121.48773307022509,31.23515534034675]]}},{"id":"208","type":"Feature","properties":{"OBJECTID_1":209,"OBJECTID":105653,"GB":430200.0,"RN":null,"NAME":"中环路","RTEG":null,"TYPE":"高架","SHAPE_Leng":0.213322457078,"Shape_Le_1":0.213322457078,"Shape_Le_2":0.213322457058,"__source_file__":"04-交通数据/1-交通路网/2-分类图层/上海市_主要公路线.shp"},"geometry":{"type":"LineString","coordinates":[[121.497367556702,31.251718816246022],[121.49586818007253,31.251147885366663],[121.48831030008034,31.248164325123582],[121.48778659967195,31.24788592019911],[121.48726602980355,31.2475844647513]]}}],"name":"上海市_主要公路线","crs":{"type":"name","properties":{"name":"urn:ogc:def:crs:OGC:1.3:CRS84"}}}