{"type":"FeatureCollection","features":[{"id":"1367","type":"Feature","properties":{"OBJECTID":75546,"osm_id":"681573499","code":5155,"fclass":"steps","name":null,"ref":null,"oneway":"B","maxspeed":0,"layer":0.0,"bridge":"F","tunnel":"F","Shape_Leng":0.000270894913813,"fclass字":"steps","fclass中":"台阶踏步","描述":"入口台阶，登山台阶人行过街天桥台阶，广场台阶、公共建筑人行道路","分类":"自行车道","__source_file__":"04-交通数据/1-交通路网/2-分类图层/上海市_自行车道.shp"},"geometry":{"type":"LineString","coordinates":[[121.44150670027409,31.22391120044159],[121.44160389990009,31.223850599625507],[121.441665499863,31.223899799736046],[121.44171920018096,31.223843899676297]]}},{"id":"1154","type":"Feature","properties":{"OBJECTID":61837,"osm_id":"477138722","code":5155,"fclass":"steps","name":null,"ref":null,"oneway":"B","maxspeed":0,"layer":0.0,"bridge":"F","tunnel":"F","Shape_Leng":0.000351508023559,"fclass字":"steps","fclass中":"台阶踏步","描述":"入口台阶，登山台阶人行过街天桥台阶，广场台阶、公共建筑人行道路","分类":"自行车道","__source_file__":"04-交通数据/1-交通路网/2-分类图层/上海市_自行车道.shp"},"geometry":{"type":"LineString","coordinates":[[121.46736420019772,31.220743399688217],[121.46732200041004,31.220559400196237],[121.46727030018428,31.220405099915467]]}},{"id":"1155","type":"Feature","properties":{"OBJECTID":61838,"osm_id":"477138723","code":5155,"fclass":"steps","name":null,"ref":null,"oneway":"B","maxspeed":0,"layer":0.0,"bridge":"F","tunnel":"F","Shape_Leng":0.000222196376914,"fclass字":"steps","fclass中":"台阶踏步","描述":"入口台阶，登山台阶人行过街天桥台阶，广场台阶、公共建筑人行道路","分类":"自行车道","__source_file__":"04-交通数据/1-交通路网/2-分类图层/上海市_自行车道.shp"},"geometry":{"type":"LineString","coordinates":[[121.46679040035679,31.220707200177173],[121.46678220033834,31.22061619957799],[121.4667794996742,31.220485400380994]]}},{"id":"1134","type":"Feature","properties":{"OBJECTID":61301,"osm_id":"467614292","code":5155,"fclass":"steps","name":null,"ref":null,"oneway":"B","maxspeed":0,"layer":0.0,"bridge":"F","tunnel":"F","Shape_Leng":0.000142645411525,"fclass字":"steps","fclass中":"台阶踏步","描述":"入口台阶，登山台阶人行过街天桥台阶，广场台阶、公共建筑人行道路","分类":"自行车道","__source_file__":"04-交通数据/1-交通路网/2-分类图层/上海市_自行车道.shp"},"geometry":{"type":"LineString","coordinates":[[121.46674259959138,31.2233897995996],[121.46670499983588,31.223527400369278]]}},{"id":"1436","type":"Feature","properties":{"OBJECTID":80409,"osm_id":"761486032","code":5155,"fclass":"steps","name":null,"ref":null,"oneway":"B","maxspeed":0,"layer":0.0,"bridge":"F","tunnel":"F","Shape_Leng":0.00019081509017,"fclass字":"steps","fclass中":"台阶踏步","描述":"入口台阶，登山台阶人行过街天桥台阶，广场台阶、公共建筑人行道路","分类":"自行车道","__source_file__":"04-交通数据/1-交通路网/2-分类图层/上海市_自行车道.shp"},"geometry":{"type":"LineString","coordinates":[[121.46732749976434,31.223575600433662],[121.46726830009209,31.223756999985596]]}},{"id":"1439","type":"Feature","properties":{"OBJECTID":80420,"osm_id":"761643569","code":5155,"fclass":"steps","name":null,"ref":null,"oneway":"B","maxspeed":0,"layer":0.0,"bridge":"F","tunnel":"F","Shape_Leng":0.000128851770478,"fclass字":"steps","fclass中":"台阶踏步","描述":"入口台阶，登山台阶人行过街天桥台阶，广场台阶、公共建筑人行道路","分类":"自行车道","__source_file__":"04-交通数据/1-交通路网/2-分类图层/上海市_自行车道.shp"},"geometry":{"type":"LineString","coordinates":[[121.4615487000126,31.225027500119097],[121.4616117002198,31.224915100151804]]}},{"id":"1440","type":"Feature","properties":{"OBJECTID":80426,"osm_id":"761643575","code":5155,"fclass":"steps","name":null,"ref":null,"oneway":"B","maxspeed":0,"layer":0.0,"bridge":"F","tunnel":"F","Shape_Leng":0.000171962012381,"fclass字":"steps","fclass中":"台阶踏步","描述":"入口台阶，登山台阶人行过街天桥台阶，广场台阶、公共建筑人行道路","分类":"自行车道","__source_file__":"04-交通数据/1-交通路网/2-分类图层/上海市_自行车道.shp"},"geometry":{"type":"LineString","coordinates":[[121.4587926997234,31.225315300260945],[121.45880990015678,31.225486399877525]]}},{"id":"1441","type":"Feature","properties":{"OBJECTID":80427,"osm_id":"761643576","code":5155,"fclass":"steps","name":null,"ref":null,"oneway":"B","maxspeed":0,"layer":0.0,"bridge":"F","tunnel":"F","Shape_Leng":0.000188470444482,"fclass字":"steps","fclass中":"台阶踏步","描述":"入口台阶，登山台阶人行过街天桥台阶，广场台阶、公共建筑人行道路","分类":"自行车道","__source_file__":"04-交通数据/1-交通路网/2-分类图层/上海市_自行车道.shp"},"geometry":{"type":"LineString","coordinates":[[121.4585458996736,31.225401299730265],[121.45853259959983,31.225589300306012]]}},{"id":"1442","type":"Feature","properties":{"OBJECTID":80428,"osm_id":"761643577","code":5155,"fclass":"steps","name":null,"ref":null,"oneway":"B","maxspeed":0,"layer":0.0,"bridge":"F","tunnel":"F","Shape_Leng":0.000137340893053,"fclass字":"steps","fclass中":"台阶踏步","描述":"入口台阶，登山台阶人行过街天桥台阶，广场台阶、公共建筑人行道路","分类":"自行车道","__source_file__":"04-交通数据/1-交通路网/2-分类图层/上海市_自行车道.shp"},"geometry":{"type":"LineString","coordinates":[[121.45896030007782,31.22612500036854],[121.4588648999952,31.226223799888487]]}},{"id":"1206","type":"Feature","properties":{"OBJECTID":64841,"osm_id":"511187813","code":5152,"fclass":"cycleway","name":null,"ref":null,"oneway":"B","maxspeed":0,"layer":0.0,"bridge":"F","tunnel":"F","Shape_Leng":0.00201297403366,"fclass字":"cycleway","fclass中":"自行车道","描述":"滨水绿道，非机动车道，公园自行车道","分类":"自行车道","__source_file__":"04-交通数据/1-交通路网/2-分类图层/上海市_自行车道.shp"},"geometry":{"type":"LineString","coordinates":[[121.46415440020542,31.22699080018532],[121.46464769993145,31.226562999882617],[121.46473430014794,31.226487900196503],[121.46494029975509,31.22630930023405],[121.46503739955642,31.22622510030817],[121.46567519965083,31.225672000162717]]}},{"id":"1207","type":"Feature","properties":{"OBJECTID":64853,"osm_id":"511404876","code":5152,"fclass":"cycleway","name":null,"ref":null,"oneway":"B","maxspeed":0,"layer":0.0,"bridge":"F","tunnel":"F","Shape_Leng":0.00270355501484,"fclass字":"cycleway","fclass中":"自行车道","描述":"滨水绿道，非机动车道，公园自行车道","分类":"自行车道","__source_file__":"04-交通数据/1-交通路网/2-分类图层/上海市_自行车道.shp"},"geometry":{"type":"LineString","coordinates":[[121.46305210027424,31.22758949955579],[121.46340880017601,31.227061899686987],[121.46400689969869,31.226490799610758],[121.46415430038076,31.22636749986026],[121.46423009973932,31.226304100354014],[121.46444609980767,31.226123500299366],[121.46455939999635,31.22602870006449],[121.46496849979644,31.225708599872064]]}},{"id":"492","type":"Feature","properties":{"OBJECTID":24198,"osm_id":"178790262","code":5155,"fclass":"steps","name":null,"ref":null,"oneway":"B","maxspeed":0,"layer":0.0,"bridge":"F","tunnel":"F","Shape_Leng":0.000107243115222,"fclass字":"steps","fclass中":"台阶踏步","描述":"入口台阶，登山台阶人行过街天桥台阶，广场台阶、公共建筑人行道路","分类":"自行车道","__source_file__":"04-交通数据/1-交通路网/2-分类图层/上海市_自行车道.shp"},"geometry":{"type":"LineString","coordinates":[[121.46979229957503,31.22938079978411],[121.46989879998966,31.229368200282295]]}},{"id":"493","type":"Feature","properties":{"OBJECTID":24200,"osm_id":"178790271","code":5155,"fclass":"steps","name":null,"ref":null,"oneway":"B","maxspeed":0,"layer":0.0,"bridge":"F","tunnel":"F","Shape_Leng":0.000142440373443,"fclass字":"steps","fclass中":"台阶踏步","描述":"入口台阶，登山台阶人行过街天桥台阶，广场台阶、公共建筑人行道路","分类":"自行车道","__source_file__":"04-交通数据/1-交通路网/2-分类图层/上海市_自行车道.shp"},"geometry":{"type":"LineString","coordinates":[[121.46946650037876,31.229407300106857],[121.46960849973254,31.229396099950122]]}},{"id":"494","type":"Feature","properties":{"OBJECTID":24201,"osm_id":"178801530","code":5155,"fclass":"steps","name":null,"ref":null,"oneway":"B","maxspeed":0,"layer":0.0,"bridge":"F","tunnel":"F","Shape_Leng":0.000149191647077,"fclass字":"steps","fclass中":"台阶踏步","描述":"入口台阶，登山台阶人行过街天桥台阶，广场台阶、公共建筑人行道路","分类":"自行车道","__source_file__":"04-交通数据/1-交通路网/2-分类图层/上海市_自行车道.shp"},"geometry":{"type":"LineString","coordinates":[[121.46946849957169,31.229444499663998],[121.469617199774,31.229432400185146]]}},{"id":"460","type":"Feature","properties":{"OBJECTID":24111,"osm_id":"178702238","code":5155,"fclass":"steps","name":null,"ref":null,"oneway":"B","maxspeed":0,"layer":0.0,"bridge":"F","tunnel":"F","Shape_Leng":0.000405544539756,"fclass字":"steps","fclass中":"台阶踏步","描述":"入口台阶，登山台阶人行过街天桥台阶，广场台阶、公共建筑人行道路","分类":"自行车道","__source_file__":"04-交通数据/1-交通路网/2-分类图层/上海市_自行车道.shp"},"geometry":{"type":"LineString","coordinates":[[121.4740665002688,31.230127999707463],[121.47391169996502,31.23006300030727],[121.47367769996595,31.230104500422385]]}},{"id":"487","type":"Feature","properties":{"OBJECTID":24172,"osm_id":"178730988","code":5155,"fclass":"steps","name":null,"ref":null,"oneway":"B","maxspeed":0,"layer":0.0,"bridge":"F","tunnel":"F","Shape_Leng":0.000131648029622,"fclass字":"steps","fclass中":"台阶踏步","描述":"入口台阶，登山台阶人行过街天桥台阶，广场台阶、公共建筑人行道路","分类":"自行车道","__source_file__":"04-交通数据/1-交通路网/2-分类图层/上海市_自行车道.shp"},"geometry":{"type":"LineString","coordinates":[[121.47035390011251,31.230527699793583],[121.47037430033379,31.23050459980749],[121.47046019997833,31.230557399904114]]}},{"id":"1137","type":"Feature","properties":{"OBJECTID":61490,"osm_id":"473523871","code":5155,"fclass":"steps","name":null,"ref":null,"oneway":"B","maxspeed":0,"layer":0.0,"bridge":"F","tunnel":"F","Shape_Leng":0.000160361422614,"fclass字":"steps","fclass中":"台阶踏步","描述":"入口台阶，登山台阶人行过街天桥台阶，广场台阶、公共建筑人行道路","分类":"自行车道","__source_file__":"04-交通数据/1-交通路网/2-分类图层/上海市_自行车道.shp"},"geometry":{"type":"LineString","coordinates":[[121.47403079988158,31.230686000258743],[121.47409539998273,31.230723600014187],[121.47416920014848,31.23076700039678]]}},{"id":"462","type":"Feature","properties":{"OBJECTID":24115,"osm_id":"178702245","code":5155,"fclass":"steps","name":null,"ref":null,"oneway":"B","maxspeed":0,"layer":0.0,"bridge":"F","tunnel":"F","Shape_Leng":0.000159360841869,"fclass字":"steps","fclass中":"台阶踏步","描述":"入口台阶，登山台阶人行过街天桥台阶，广场台阶、公共建筑人行道路","分类":"自行车道","__source_file__":"04-交通数据/1-交通路网/2-分类图层/上海市_自行车道.shp"},"geometry":{"type":"LineString","coordinates":[[121.47331070012876,31.230688399649978],[121.47322779972319,31.23082450035048]]}},{"id":"486","type":"Feature","properties":{"OBJECTID":24171,"osm_id":"178730986","code":5155,"fclass":"steps","name":null,"ref":null,"oneway":"B","maxspeed":0,"layer":0.0,"bridge":"F","tunnel":"F","Shape_Leng":0.000161102663541,"fclass字":"steps","fclass中":"台阶踏步","描述":"入口台阶，登山台阶人行过街天桥台阶，广场台阶、公共建筑人行道路","分类":"自行车道","__source_file__":"04-交通数据/1-交通路网/2-分类图层/上海市_自行车道.shp"},"geometry":{"type":"LineString","coordinates":[[121.47073910042923,31.23073620041538],[121.47084550011982,31.230799799571173],[121.47082280033203,31.230829200207495]]}},{"id":"477","type":"Feature","properties":{"OBJECTID":24148,"osm_id":"178722416","code":5155,"fclass":"steps","name":null,"ref":null,"oneway":"B","maxspeed":0,"layer":0.0,"bridge":"F","tunnel":"F","Shape_Leng":2.79409240801e-05,"fclass字":"steps","fclass中":"台阶踏步","描述":"入口台阶，登山台阶人行过街天桥台阶，广场台阶、公共建筑人行道路","分类":"自行车道","__source_file__":"04-交通数据/1-交通路网/2-分类图层/上海市_自行车道.shp"},"geometry":{"type":"LineString","coordinates":[[121.47011279996582,31.230959799755],[121.47013199959213,31.23093950025776]]}},{"id":"479","type":"Feature","properties":{"OBJECTID":24150,"osm_id":"178722418","code":5155,"fclass":"steps","name":null,"ref":null,"oneway":"B","maxspeed":0,"layer":0.0,"bridge":"F","tunnel":"F","Shape_Leng":2.74421437548e-05,"fclass字":"steps","fclass中":"台阶踏步","描述":"入口台阶，登山台阶人行过街天桥台阶，广场台阶、公共建筑人行道路","分类":"自行车道","__source_file__":"04-交通数据/1-交通路网/2-分类图层/上海市_自行车道.shp"},"geometry":{"type":"LineString","coordinates":[[121.47013730019626,31.230975500119314],[121.47015520030232,31.23095469969968]]}},{"id":"1366","type":"Feature","properties":{"OBJECTID":75545,"osm_id":"681573498","code":5155,"fclass":"steps","name":null,"ref":null,"oneway":"B","maxspeed":0,"layer":0.0,"bridge":"F","tunnel":"F","Shape_Leng":0.000485826382958,"fclass字":"steps","fclass中":"台阶踏步","描述":"入口台阶，登山台阶人行过街天桥台阶，广场台阶、公共建筑人行道路","分类":"自行车道","__source_file__":"04-交通数据/1-交通路网/2-分类图层/上海市_自行车道.shp"},"geometry":{"type":"LineString","coordinates":[[121.44170559973372,31.224062999707712],[121.44182809998688,31.224144499868828],[121.44185320006522,31.224121200233242],[121.44201480014294,31.224216799965404],[121.44208670004127,31.22412490004416]]}},{"id":"1171","type":"Feature","properties":{"OBJECTID":63614,"osm_id":"488786529","code":5155,"fclass":"steps","name":null,"ref":null,"oneway":"B","maxspeed":0,"layer":0.0,"bridge":"F","tunnel":"F","Shape_Leng":0.000177534444212,"fclass字":"steps","fclass中":"台阶踏步","描述":"入口台阶，登山台阶人行过街天桥台阶，广场台阶、公共建筑人行道路","分类":"自行车道","__source_file__":"04-交通数据/1-交通路网/2-分类图层/上海市_自行车道.shp"},"geometry":{"type":"LineString","coordinates":[[121.45239700012155,31.225267000371844],[121.4523702003246,31.225442500371173]]}},{"id":"1170","type":"Feature","properties":{"OBJECTID":63613,"osm_id":"488786527","code":5155,"fclass":"steps","name":null,"ref":null,"oneway":"B","maxspeed":0,"layer":0.0,"bridge":"F","tunnel":"F","Shape_Leng":0.000213883940628,"fclass字":"steps","fclass中":"台阶踏步","描述":"入口台阶，登山台阶人行过街天桥台阶，广场台阶、公共建筑人行道路","分类":"自行车道","__source_file__":"04-交通数据/1-交通路网/2-分类图层/上海市_自行车道.shp"},"geometry":{"type":"LineString","coordinates":[[121.45211809967066,31.225327899762817],[121.45205320009518,31.225531699628277]]}},{"id":"1169","type":"Feature","properties":{"OBJECTID":63608,"osm_id":"488786522","code":5155,"fclass":"steps","name":null,"ref":null,"oneway":"B","maxspeed":0,"layer":0.0,"bridge":"F","tunnel":"F","Shape_Leng":0.000168873858669,"fclass字":"steps","fclass中":"台阶踏步","描述":"入口台阶，登山台阶人行过街天桥台阶，广场台阶、公共建筑人行道路","分类":"自行车道","__source_file__":"04-交通数据/1-交通路网/2-分类图层/上海市_自行车道.shp"},"geometry":{"type":"LineString","coordinates":[[121.45218190027458,31.22613950013789],[121.45216040018238,31.22630699976827]]}},{"id":"2058","type":"Feature","properties":{"OBJECTID":105828,"osm_id":"1007196781","code":5152,"fclass":"cycleway","name":null,"ref":null,"oneway":"B","maxspeed":0,"layer":0.0,"bridge":"F","tunnel":"F","Shape_Leng":0.000414278893432,"fclass字":"cycleway","fclass中":"自行车道","描述":"滨水绿道，非机动车道，公园自行车道","分类":"自行车道","__source_file__":"04-交通数据/1-交通路网/2-分类图层/上海市_自行车道.shp"},"geometry":{"type":"LineString","coordinates":[[121.44077979984797,31.227828300135968],[121.44061039995006,31.228106900213334],[121.44056460017623,31.228182300272977]]}},{"id":"2068","type":"Feature","properties":{"OBJECTID":106699,"osm_id":"1012295712","code":5155,"fclass":"steps","name":null,"ref":null,"oneway":"B","maxspeed":0,"layer":0.0,"bridge":"F","tunnel":"F","Shape_Leng":0.000128687536409,"fclass字":"steps","fclass中":"台阶踏步","描述":"入口台阶，登山台阶人行过街天桥台阶，广场台阶、公共建筑人行道路","分类":"自行车道","__source_file__":"04-交通数据/1-交通路网/2-分类图层/上海市_自行车道.shp"},"geometry":{"type":"LineString","coordinates":[[121.45324029980009,31.23701859982856],[121.45312000018794,31.236972899879504]]}},{"id":"474","type":"Feature","properties":{"OBJECTID":24145,"osm_id":"178722206","code":5155,"fclass":"steps","name":null,"ref":null,"oneway":"B","maxspeed":0,"layer":0.0,"bridge":"F","tunnel":"F","Shape_Leng":7.83130659191e-05,"fclass字":"steps","fclass中":"台阶踏步","描述":"入口台阶，登山台阶人行过街天桥台阶，广场台阶、公共建筑人行道路","分类":"自行车道","__source_file__":"04-交通数据/1-交通路网/2-分类图层/上海市_自行车道.shp"},"geometry":{"type":"LineString","coordinates":[[121.46969500012426,31.231497400085004],[121.46974310036387,31.23143559957333]]}},{"id":"464","type":"Feature","properties":{"OBJECTID":24134,"osm_id":"178722054","code":5155,"fclass":"steps","name":null,"ref":null,"oneway":"B","maxspeed":0,"layer":0.0,"bridge":"F","tunnel":"F","Shape_Leng":4.38255946941e-05,"fclass字":"steps","fclass中":"台阶踏步","描述":"入口台阶，登山台阶人行过街天桥台阶，广场台阶、公共建筑人行道路","分类":"自行车道","__source_file__":"04-交通数据/1-交通路网/2-分类图层/上海市_自行车道.shp"},"geometry":{"type":"LineString","coordinates":[[121.47028930001125,31.231471600334146],[121.4703261002694,31.231495399992752]]}},{"id":"468","type":"Feature","properties":{"OBJECTID":24139,"osm_id":"178722199","code":5155,"fclass":"steps","name":null,"ref":null,"oneway":"B","maxspeed":0,"layer":0.0,"bridge":"F","tunnel":"F","Shape_Leng":7.87263913389e-05,"fclass字":"steps","fclass中":"台阶踏步","描述":"入口台阶，登山台阶人行过街天桥台阶，广场台阶、公共建筑人行道路","分类":"自行车道","__source_file__":"04-交通数据/1-交通路网/2-分类图层/上海市_自行车道.shp"},"geometry":{"type":"LineString","coordinates":[[121.46973150000883,31.231521500117196],[121.46977950042367,31.23145909975767]]}},{"id":"339","type":"Feature","properties":{"OBJECTID":18917,"osm_id":"161086368","code":5152,"fclass":"cycleway","name":null,"ref":null,"oneway":"B","maxspeed":0,"layer":0.0,"bridge":"F","tunnel":"F","Shape_Leng":0.00580014288346,"fclass字":"cycleway","fclass中":"自行车道","描述":"滨水绿道，非机动车道，公园自行车道","分类":"自行车道","__source_file__":"04-交通数据/1-交通路网/2-分类图层/上海市_自行车道.shp"},"geometry":{"type":"LineString","coordinates":[[121.46718810035065,31.22992500023861],[121.46738820040514,31.230051800150534],[121.46785389993761,31.230346900089444],[121.4680817998352,31.23049860043011],[121.46925680006132,31.23127689980913],[121.46976229999018,31.23161320038895],[121.4706577999176,31.23220269969488],[121.47142509968864,31.232710900287884],[121.4716998003056,31.232893299885916],[121.47204139969085,31.233100300438593]]}},{"id":"471","type":"Feature","properties":{"OBJECTID":24142,"osm_id":"178722202","code":5155,"fclass":"steps","name":null,"ref":null,"oneway":"B","maxspeed":0,"layer":0.0,"bridge":"F","tunnel":"F","Shape_Leng":8.00047432714e-05,"fclass字":"steps","fclass中":"台阶踏步","描述":"入口台阶，登山台阶人行过街天桥台阶，广场台阶、公共建筑人行道路","分类":"自行车道","__source_file__":"04-交通数据/1-交通路网/2-分类图层/上海市_自行车道.shp"},"geometry":{"type":"LineString","coordinates":[[121.46980249968567,31.231568200112406],[121.46985450028501,31.23150739964683]]}},{"id":"470","type":"Feature","properties":{"OBJECTID":24141,"osm_id":"178722201","code":5155,"fclass":"steps","name":null,"ref":null,"oneway":"B","maxspeed":0,"layer":0.0,"bridge":"F","tunnel":"F","Shape_Leng":8.09448063834e-05,"fclass字":"steps","fclass中":"台阶踏步","描述":"入口台阶，登山台阶人行过街天桥台阶，广场台阶、公共建筑人行道路","分类":"自行车道","__source_file__":"04-交通数据/1-交通路网/2-分类图层/上海市_自行车道.shp"},"geometry":{"type":"LineString","coordinates":[[121.46988280015114,31.231621199858523],[121.46993460020167,31.231559000047866]]}},{"id":"472","type":"Feature","properties":{"OBJECTID":24143,"osm_id":"178722203","code":5155,"fclass":"steps","name":null,"ref":null,"oneway":"B","maxspeed":0,"layer":0.0,"bridge":"F","tunnel":"F","Shape_Leng":8.13186546976e-05,"fclass字":"steps","fclass中":"台阶踏步","描述":"入口台阶，登山台阶人行过街天桥台阶，广场台阶、公共建筑人行道路","分类":"自行车道","__source_file__":"04-交通数据/1-交通路网/2-分类图层/上海市_自行车道.shp"},"geometry":{"type":"LineString","coordinates":[[121.46991379978215,31.23164150025508],[121.46996630040451,31.23157940026914]]}},{"id":"466","type":"Feature","properties":{"OBJECTID":24137,"osm_id":"178722197","code":5155,"fclass":"steps","name":null,"ref":null,"oneway":"B","maxspeed":0,"layer":0.0,"bridge":"F","tunnel":"F","Shape_Leng":8.09368664446e-05,"fclass字":"steps","fclass中":"台阶踏步","描述":"入口台阶，登山台阶人行过街天桥台阶，广场台阶、公共建筑人行道路","分类":"自行车道","__source_file__":"04-交通数据/1-交通路网/2-分类图层/上海市_自行车道.shp"},"geometry":{"type":"LineString","coordinates":[[121.46993930005874,31.231658400314984],[121.46999179978184,31.231596800352122]]}},{"id":"340","type":"Feature","properties":{"OBJECTID":18918,"osm_id":"161086369","code":5152,"fclass":"cycleway","name":null,"ref":null,"oneway":"B","maxspeed":0,"layer":0.0,"bridge":"F","tunnel":"F","Shape_Leng":0.0057907249966,"fclass字":"cycleway","fclass中":"自行车道","描述":"滨水绿道，非机动车道，公园自行车道","分类":"自行车道","__source_file__":"04-交通数据/1-交通路网/2-分类图层/上海市_自行车道.shp"},"geometry":{"type":"LineString","coordinates":[[121.46697449967348,31.23025779975768],[121.46714090033231,31.230364200347594],[121.46842340011983,31.2311842003906],[121.46867959988367,31.231347900385344],[121.46902930036197,31.231571499724964],[121.46934650024082,31.231779399599645],[121.46970990009186,31.232017700156803],[121.47003610038576,31.232231600308182],[121.47037359976184,31.232454499975233],[121.47125669983689,31.233037700429577],[121.47158480039832,31.233254400170495],[121.4718337003651,31.233407099657995]]}},{"id":"488","type":"Feature","properties":{"OBJECTID":24187,"osm_id":"178737612","code":5155,"fclass":"steps","name":null,"ref":null,"oneway":"B","maxspeed":0,"layer":0.0,"bridge":"F","tunnel":"F","Shape_Leng":0.000226224390765,"fclass字":"steps","fclass中":"台阶踏步","描述":"入口台阶，登山台阶人行过街天桥台阶，广场台阶、公共建筑人行道路","分类":"自行车道","__source_file__":"04-交通数据/1-交通路网/2-分类图层/上海市_自行车道.shp"},"geometry":{"type":"LineString","coordinates":[[121.47134799991034,31.23212290015175],[121.47115729956977,31.2320012002952]]}},{"id":"482","type":"Feature","properties":{"OBJECTID":24156,"osm_id":"178723094","code":5155,"fclass":"steps","name":null,"ref":null,"oneway":"B","maxspeed":0,"layer":0.0,"bridge":"F","tunnel":"F","Shape_Leng":0.000127517468145,"fclass字":"steps","fclass中":"台阶踏步","描述":"入口台阶，登山台阶人行过街天桥台阶，广场台阶、公共建筑人行道路","分类":"自行车道","__source_file__":"04-交通数据/1-交通路网/2-分类图层/上海市_自行车道.shp"},"geometry":{"type":"LineString","coordinates":[[121.46877759990639,31.230693100406313],[121.4688621002058,31.230597599599605]]}},{"id":"484","type":"Feature","properties":{"OBJECTID":24161,"osm_id":"178723099","code":5155,"fclass":"steps","name":null,"ref":null,"oneway":"B","maxspeed":0,"layer":0.0,"bridge":"F","tunnel":"F","Shape_Leng":0.000127017184833,"fclass字":"steps","fclass中":"台阶踏步","描述":"入口台阶，登山台阶人行过街天桥台阶，广场台阶、公共建筑人行道路","分类":"自行车道","__source_file__":"04-交通数据/1-交通路网/2-分类图层/上海市_自行车道.shp"},"geometry":{"type":"LineString","coordinates":[[121.46881419961574,31.23071709971441],[121.46890560041322,31.230628899604085]]}},{"id":"483","type":"Feature","properties":{"OBJECTID":24157,"osm_id":"178723095","code":5155,"fclass":"steps","name":null,"ref":null,"oneway":"B","maxspeed":0,"layer":0.0,"bridge":"F","tunnel":"F","Shape_Leng":0.000127524107689,"fclass字":"steps","fclass中":"台阶踏步","描述":"入口台阶，登山台阶人行过街天桥台阶，广场台阶、公共建筑人行道路","分类":"自行车道","__source_file__":"04-交通数据/1-交通路网/2-分类图层/上海市_自行车道.shp"},"geometry":{"type":"LineString","coordinates":[[121.46886970037644,31.230753499774266],[121.46895329955521,31.230657200369535]]}},{"id":"1088","type":"Feature","properties":{"OBJECTID":60589,"osm_id":"450616337","code":5155,"fclass":"steps","name":null,"ref":null,"oneway":"B","maxspeed":0,"layer":0.0,"bridge":"F","tunnel":"F","Shape_Leng":1.04062198787e-05,"fclass字":"steps","fclass中":"台阶踏步","描述":"入口台阶，登山台阶人行过街天桥台阶，广场台阶、公共建筑人行道路","分类":"自行车道","__source_file__":"04-交通数据/1-交通路网/2-分类图层/上海市_自行车道.shp"},"geometry":{"type":"LineString","coordinates":[[121.46012009996275,31.232891500342532],[121.46011659980127,31.232881700430198]]}},{"id":"995","type":"Feature","properties":{"OBJECTID":50950,"osm_id":"407469558","code":5155,"fclass":"steps","name":null,"ref":null,"oneway":"B","maxspeed":0,"layer":0.0,"bridge":"F","tunnel":"F","Shape_Leng":0.000790439045214,"fclass字":"steps","fclass中":"台阶踏步","描述":"入口台阶，登山台阶人行过街天桥台阶，广场台阶、公共建筑人行道路","分类":"自行车道","__source_file__":"04-交通数据/1-交通路网/2-分类图层/上海市_自行车道.shp"},"geometry":{"type":"LineString","coordinates":[[121.4588852003917,31.23670459973755],[121.45897910040526,31.236732100106394],[121.45899250030368,31.236622100429656],[121.45896569960746,31.236521200093364],[121.4589093004239,31.236434000029135],[121.45881279957109,31.2364591999322],[121.45887979996292,31.236557799802654],[121.45890669958453,31.236642700300422],[121.4588852003917,31.23670459973755]]}},{"id":"573","type":"Feature","properties":{"OBJECTID":26948,"osm_id":"208187263","code":5155,"fclass":"steps","name":null,"ref":null,"oneway":"B","maxspeed":0,"layer":0.0,"bridge":"F","tunnel":"F","Shape_Leng":0.000179853158007,"fclass字":"steps","fclass中":"台阶踏步","描述":"入口台阶，登山台阶人行过街天桥台阶，广场台阶、公共建筑人行道路","分类":"自行车道","__source_file__":"04-交通数据/1-交通路网/2-分类图层/上海市_自行车道.shp"},"geometry":{"type":"LineString","coordinates":[[121.45417569994868,31.239784499854863],[121.45434059963907,31.239856299928363]]}},{"id":"574","type":"Feature","properties":{"OBJECTID":26949,"osm_id":"208187266","code":5155,"fclass":"steps","name":null,"ref":null,"oneway":"B","maxspeed":0,"layer":0.0,"bridge":"F","tunnel":"F","Shape_Leng":0.00028093031446,"fclass字":"steps","fclass中":"台阶踏步","描述":"入口台阶，登山台阶人行过街天桥台阶，广场台阶、公共建筑人行道路","分类":"自行车道","__source_file__":"04-交通数据/1-交通路网/2-分类图层/上海市_自行车道.shp"},"geometry":{"type":"LineString","coordinates":[[121.45364910012597,31.240710699938916],[121.45391440012952,31.24080309988318]]}},{"id":"1061","type":"Feature","properties":{"OBJECTID":59998,"osm_id":"441752334","code":5155,"fclass":"steps","name":"南苏州路","ref":null,"oneway":"B","maxspeed":0,"layer":0.0,"bridge":"F","tunnel":"F","Shape_Leng":6.69626199529e-05,"fclass字":"steps","fclass中":"台阶踏步","描述":"入口台阶，登山台阶人行过街天桥台阶，广场台阶、公共建筑人行道路","分类":"自行车道","__source_file__":"04-交通数据/1-交通路网/2-分类图层/上海市_自行车道.shp"},"geometry":{"type":"LineString","coordinates":[[121.4629954996426,31.24143260013443],[121.4630565995825,31.24140519959036]]}},{"id":"839","type":"Feature","properties":{"OBJECTID":36752,"osm_id":"327611138","code":5155,"fclass":"steps","name":null,"ref":null,"oneway":"B","maxspeed":0,"layer":0.0,"bridge":"F","tunnel":"F","Shape_Leng":0.000170070896055,"fclass字":"steps","fclass中":"台阶踏步","描述":"入口台阶，登山台阶人行过街天桥台阶，广场台阶、公共建筑人行道路","分类":"自行车道","__source_file__":"04-交通数据/1-交通路网/2-分类图层/上海市_自行车道.shp"},"geometry":{"type":"LineString","coordinates":[[121.46647840035791,31.246430899866198],[121.46652270006257,31.246266699848377]]}},{"id":"840","type":"Feature","properties":{"OBJECTID":36753,"osm_id":"327611139","code":5155,"fclass":"steps","name":null,"ref":null,"oneway":"B","maxspeed":0,"layer":0.0,"bridge":"F","tunnel":"F","Shape_Leng":0.000128367258557,"fclass字":"steps","fclass中":"台阶踏步","描述":"入口台阶，登山台阶人行过街天桥台阶，广场台阶、公共建筑人行道路","分类":"自行车道","__source_file__":"04-交通数据/1-交通路网/2-分类图层/上海市_自行车道.shp"},"geometry":{"type":"LineString","coordinates":[[121.46684309972932,31.246504299833646],[121.46685799969703,31.24637680024921]]}},{"id":"109","type":"Feature","properties":{"OBJECTID":6134,"osm_id":"74014271","code":5155,"fclass":"steps","name":null,"ref":null,"oneway":"B","maxspeed":0,"layer":0.0,"bridge":"T","tunnel":"F","Shape_Leng":0.000186116829157,"fclass字":"steps","fclass中":"台阶踏步","描述":"入口台阶，登山台阶人行过街天桥台阶，广场台阶、公共建筑人行道路","分类":"自行车道","__source_file__":"04-交通数据/1-交通路网/2-分类图层/上海市_自行车道.shp"},"geometry":{"type":"LineString","coordinates":[[121.42551449969449,31.2401842997657],[121.42563180006755,31.240039800296586]]}},{"id":"201","type":"Feature","properties":{"OBJECTID":14067,"osm_id":"129323959","code":5155,"fclass":"steps","name":null,"ref":null,"oneway":"B","maxspeed":0,"layer":0.0,"bridge":"T","tunnel":"F","Shape_Leng":0.000154781131338,"fclass字":"steps","fclass中":"台阶踏步","描述":"入口台阶，登山台阶人行过街天桥台阶，广场台阶、公共建筑人行道路","分类":"自行车道","__source_file__":"04-交通数据/1-交通路网/2-分类图层/上海市_自行车道.shp"},"geometry":{"type":"LineString","coordinates":[[121.42523700038737,31.24052609969982],[121.4251048000466,31.240445599584802]]}},{"id":"200","type":"Feature","properties":{"OBJECTID":14065,"osm_id":"129323955","code":5155,"fclass":"steps","name":null,"ref":null,"oneway":"B","maxspeed":0,"layer":0.0,"bridge":"T","tunnel":"F","Shape_Leng":0.000159719696512,"fclass字":"steps","fclass中":"台阶踏步","描述":"入口台阶，登山台阶人行过街天桥台阶，广场台阶、公共建筑人行道路","分类":"自行车道","__source_file__":"04-交通数据/1-交通路网/2-分类图层/上海市_自行车道.shp"},"geometry":{"type":"LineString","coordinates":[[121.42523700038737,31.24052609969982],[121.4253733996627,31.24060919975483]]}},{"id":"1045","type":"Feature","properties":{"OBJECTID":56229,"osm_id":"424580477","code":5152,"fclass":"cycleway","name":"海防路","ref":null,"oneway":"B","maxspeed":0,"layer":0.0,"bridge":"F","tunnel":"F","Shape_Leng":0.000186111205819,"fclass字":"cycleway","fclass中":"自行车道","描述":"滨水绿道，非机动车道，公园自行车道","分类":"自行车道","__source_file__":"04-交通数据/1-交通路网/2-分类图层/上海市_自行车道.shp"},"geometry":{"type":"LineString","coordinates":[[121.44515320026005,31.24180729996698],[121.44532660034236,31.24187490020654]]}},{"id":"572","type":"Feature","properties":{"OBJECTID":26939,"osm_id":"207891300","code":5155,"fclass":"steps","name":null,"ref":null,"oneway":"B","maxspeed":0,"layer":0.0,"bridge":"F","tunnel":"F","Shape_Leng":0.000142180163368,"fclass字":"steps","fclass中":"台阶踏步","描述":"入口台阶，登山台阶人行过街天桥台阶，广场台阶、公共建筑人行道路","分类":"自行车道","__source_file__":"04-交通数据/1-交通路网/2-分类图层/上海市_自行车道.shp"},"geometry":{"type":"LineString","coordinates":[[121.4478371001021,31.242776900433682],[121.44788680023566,31.24284299970475],[121.44783929984385,31.242878799916753]]}},{"id":"101","type":"Feature","properties":{"OBJECTID":4123,"osm_id":"50371378","code":5152,"fclass":"cycleway","name":"普济路","ref":null,"oneway":"B","maxspeed":0,"layer":1.0,"bridge":"T","tunnel":"F","Shape_Leng":0.00637615399059,"fclass字":"cycleway","fclass中":"自行车道","描述":"滨水绿道，非机动车道，公园自行车道","分类":"自行车道","__source_file__":"04-交通数据/1-交通路网/2-分类图层/上海市_自行车道.shp"},"geometry":{"type":"LineString","coordinates":[[121.44532660034236,31.24187490020654],[121.44577870032685,31.24204949998449],[121.44686189955712,31.24257850009775],[121.44715240036305,31.24268660040633],[121.44744240024659,31.242750599760427],[121.44761459973404,31.24277190020308],[121.44772839994573,31.242796199884765],[121.44779540033755,31.24283080040118],[121.44783929984385,31.242878799916753],[121.4478996002864,31.242944499888836],[121.44835959991565,31.243586900015487],[121.44860179993316,31.243836300005285],[121.44896019955365,31.244156699671976],[121.45050919993969,31.245326500017995]]}},{"id":"571","type":"Feature","properties":{"OBJECTID":26936,"osm_id":"207891297","code":5155,"fclass":"steps","name":null,"ref":null,"oneway":"B","maxspeed":0,"layer":0.0,"bridge":"F","tunnel":"F","Shape_Leng":6.43210014881e-05,"fclass字":"steps","fclass中":"台阶踏步","描述":"入口台阶，登山台阶人行过街天桥台阶，广场台阶、公共建筑人行道路","分类":"自行车道","__source_file__":"04-交通数据/1-交通路网/2-分类图层/上海市_自行车道.shp"},"geometry":{"type":"LineString","coordinates":[[121.44865569990066,31.24380120036517],[121.44860179993316,31.243836300005285]]}},{"id":"703","type":"Feature","properties":{"OBJECTID":28976,"osm_id":"240666071","code":5152,"fclass":"cycleway","name":"普济路","ref":null,"oneway":"B","maxspeed":0,"layer":0.0,"bridge":"F","tunnel":"F","Shape_Leng":6.89640212822e-05,"fclass字":"cycleway","fclass中":"自行车道","描述":"滨水绿道，非机动车道，公园自行车道","分类":"自行车道","__source_file__":"04-交通数据/1-交通路网/2-分类图层/上海市_自行车道.shp"},"geometry":{"type":"LineString","coordinates":[[121.45050919993969,31.245326500017995],[121.45056119963976,31.245371799768805]]}},{"id":"1202","type":"Feature","properties":{"OBJECTID":64430,"osm_id":"504131351","code":5155,"fclass":"steps","name":null,"ref":null,"oneway":"B","maxspeed":0,"layer":0.0,"bridge":"F","tunnel":"F","Shape_Leng":0.000113355357751,"fclass字":"steps","fclass中":"台阶踏步","描述":"入口台阶，登山台阶人行过街天桥台阶，广场台阶、公共建筑人行道路","分类":"自行车道","__source_file__":"04-交通数据/1-交通路网/2-分类图层/上海市_自行车道.shp"},"geometry":{"type":"LineString","coordinates":[[121.44912329970055,31.247304299853624],[121.44905680023123,31.247396099950095]]}},{"id":"843","type":"Feature","properties":{"OBJECTID":36759,"osm_id":"327611146","code":5155,"fclass":"steps","name":null,"ref":null,"oneway":"B","maxspeed":0,"layer":0.0,"bridge":"F","tunnel":"F","Shape_Leng":0.000142812227821,"fclass字":"steps","fclass中":"台阶踏步","描述":"入口台阶，登山台阶人行过街天桥台阶，广场台阶、公共建筑人行道路","分类":"自行车道","__source_file__":"04-交通数据/1-交通路网/2-分类图层/上海市_自行车道.shp"},"geometry":{"type":"LineString","coordinates":[[121.46629230004964,31.246528999713632],[121.4661511001932,31.246507600345524]]}},{"id":"845","type":"Feature","properties":{"OBJECTID":36763,"osm_id":"327611150","code":5155,"fclass":"steps","name":null,"ref":null,"oneway":"B","maxspeed":0,"layer":0.0,"bridge":"F","tunnel":"F","Shape_Leng":0.000149030891513,"fclass字":"steps","fclass中":"台阶踏步","描述":"入口台阶，登山台阶人行过街天桥台阶，广场台阶、公共建筑人行道路","分类":"自行车道","__source_file__":"04-交通数据/1-交通路网/2-分类图层/上海市_自行车道.shp"},"geometry":{"type":"LineString","coordinates":[[121.46698259986715,31.24667860013733],[121.46712889977891,31.246706999828234]]}},{"id":"842","type":"Feature","properties":{"OBJECTID":36757,"osm_id":"327611143","code":5155,"fclass":"steps","name":null,"ref":null,"oneway":"B","maxspeed":0,"layer":0.0,"bridge":"F","tunnel":"F","Shape_Leng":0.000158123187524,"fclass字":"steps","fclass中":"台阶踏步","描述":"入口台阶，登山台阶人行过街天桥台阶，广场台阶、公共建筑人行道路","分类":"自行车道","__source_file__":"04-交通数据/1-交通路网/2-分类图层/上海市_自行车道.shp"},"geometry":{"type":"LineString","coordinates":[[121.4662004001284,31.246922300224014],[121.46604650004599,31.246885999988933]]}},{"id":"841","type":"Feature","properties":{"OBJECTID":36755,"osm_id":"327611141","code":5155,"fclass":"steps","name":null,"ref":null,"oneway":"B","maxspeed":0,"layer":0.0,"bridge":"F","tunnel":"F","Shape_Leng":0.000179524855316,"fclass字":"steps","fclass中":"台阶踏步","描述":"入口台阶，登山台阶人行过街天桥台阶，广场台阶、公共建筑人行道路","分类":"自行车道","__source_file__":"04-交通数据/1-交通路网/2-分类图层/上海市_自行车道.shp"},"geometry":{"type":"LineString","coordinates":[[121.46689000027334,31.247065599997484],[121.46706719999133,31.24709439988669]]}},{"id":"844","type":"Feature","properties":{"OBJECTID":36761,"osm_id":"327611148","code":5155,"fclass":"steps","name":null,"ref":null,"oneway":"B","maxspeed":0,"layer":0.0,"bridge":"F","tunnel":"F","Shape_Leng":0.000127736804831,"fclass字":"steps","fclass中":"台阶踏步","描述":"入口台阶，登山台阶人行过街天桥台阶，广场台阶、公共建筑人行道路","分类":"自行车道","__source_file__":"04-交通数据/1-交通路网/2-分类图层/上海市_自行车道.shp"},"geometry":{"type":"LineString","coordinates":[[121.46636029958825,31.24705460038956],[121.46634569999412,31.247181500126203]]}},{"id":"838","type":"Feature","properties":{"OBJECTID":36751,"osm_id":"327611137","code":5155,"fclass":"steps","name":null,"ref":null,"oneway":"B","maxspeed":0,"layer":0.0,"bridge":"F","tunnel":"F","Shape_Leng":0.000103136828418,"fclass字":"steps","fclass中":"台阶踏步","描述":"入口台阶，登山台阶人行过街天桥台阶，广场台阶、公共建筑人行道路","分类":"自行车道","__source_file__":"04-交通数据/1-交通路网/2-分类图层/上海市_自行车道.shp"},"geometry":{"type":"LineString","coordinates":[[121.46674809984495,31.247131100320075],[121.46671169978515,31.24722760027356]]}},{"id":"91","type":"Feature","properties":{"OBJECTID":2296,"osm_id":"39825582","code":5152,"fclass":"cycleway","name":"大统路","ref":null,"oneway":"B","maxspeed":0,"layer":0.0,"bridge":"F","tunnel":"F","Shape_Leng":0.00229577314411,"fclass字":"cycleway","fclass中":"自行车道","描述":"滨水绿道，非机动车道，公园自行车道","分类":"自行车道","__source_file__":"04-交通数据/1-交通路网/2-分类图层/上海市_自行车道.shp"},"geometry":{"type":"LineString","coordinates":[[121.45555579956056,31.247648400253524],[121.45556849978652,31.247909299874323],[121.45553669975891,31.248095800380952],[121.45551190005426,31.248164799965593],[121.455444700013,31.24828820044013],[121.4554185998885,31.248347099738908],[121.45540529981474,31.248397299895544],[121.45536579979193,31.248942600220857],[121.45533230004571,31.249231500233577],[121.45529060028105,31.249526199974184],[121.4552337001752,31.24990189985283]]}},{"id":"102","type":"Feature","properties":{"OBJECTID":4237,"osm_id":"50832843","code":5152,"fclass":"cycleway","name":"大统路地道","ref":null,"oneway":"B","maxspeed":0,"layer":-1.0,"bridge":"F","tunnel":"T","Shape_Leng":0.00134732000491,"fclass字":"cycleway","fclass中":"自行车道","描述":"滨水绿道，非机动车道，公园自行车道","分类":"自行车道","__source_file__":"04-交通数据/1-交通路网/2-分类图层/上海市_自行车道.shp"},"geometry":{"type":"LineString","coordinates":[[121.4552337001752,31.24990189985283],[121.45514280030011,31.250584899873274],[121.45505789980234,31.25123769976011]]}},{"id":"1115","type":"Feature","properties":{"OBJECTID":61150,"osm_id":"461901357","code":5152,"fclass":"cycleway","name":"大统路地道","ref":null,"oneway":"B","maxspeed":0,"layer":-1.0,"bridge":"F","tunnel":"F","Shape_Leng":0.000585487315838,"fclass字":"cycleway","fclass中":"自行车道","描述":"滨水绿道，非机动车道，公园自行车道","分类":"自行车道","__source_file__":"04-交通数据/1-交通路网/2-分类图层/上海市_自行车道.shp"},"geometry":{"type":"LineString","coordinates":[[121.45505789980234,31.25123769976011],[121.45500680032364,31.2514168995703],[121.45492759972899,31.25158690021533],[121.4548200003428,31.25176910016387]]}},{"id":"1114","type":"Feature","properties":{"OBJECTID":61149,"osm_id":"461901353","code":5152,"fclass":"cycleway","name":"大统路地道","ref":null,"oneway":"B","maxspeed":0,"layer":-1.0,"bridge":"F","tunnel":"T","Shape_Leng":0.000699285998431,"fclass字":"cycleway","fclass中":"自行车道","描述":"滨水绿道，非机动车道，公园自行车道","分类":"自行车道","__source_file__":"04-交通数据/1-交通路网/2-分类图层/上海市_自行车道.shp"},"geometry":{"type":"LineString","coordinates":[[121.4548200003428,31.25176910016387],[121.45468520006204,31.251975900167736],[121.45457380014079,31.25217829978874],[121.45452689959677,31.252282300088154],[121.45448719992442,31.25238199982948]]}},{"id":"1200","type":"Feature","properties":{"OBJECTID":64428,"osm_id":"504131347","code":5155,"fclass":"steps","name":null,"ref":null,"oneway":"B","maxspeed":0,"layer":0.0,"bridge":"F","tunnel":"F","Shape_Leng":0.000118149600917,"fclass字":"steps","fclass中":"台阶踏步","描述":"入口台阶，登山台阶人行过街天桥台阶，广场台阶、公共建筑人行道路","分类":"自行车道","__source_file__":"04-交通数据/1-交通路网/2-分类图层/上海市_自行车道.shp"},"geometry":{"type":"LineString","coordinates":[[121.44948809979599,31.247435000125222],[121.44945639959326,31.247474099949784],[121.44943259993465,31.24753760018018]]}},{"id":"1201","type":"Feature","properties":{"OBJECTID":64429,"osm_id":"504131349","code":5155,"fclass":"steps","name":null,"ref":null,"oneway":"B","maxspeed":0,"layer":0.0,"bridge":"F","tunnel":"F","Shape_Leng":0.000216703637411,"fclass字":"steps","fclass中":"台阶踏步","描述":"入口台阶，登山台阶人行过街天桥台阶，广场台阶、公共建筑人行道路","分类":"自行车道","__source_file__":"04-交通数据/1-交通路网/2-分类图层/上海市_自行车道.shp"},"geometry":{"type":"LineString","coordinates":[[121.44972939959223,31.247580600364472],[121.44951269985131,31.247581899884835]]}},{"id":"1199","type":"Feature","properties":{"OBJECTID":64427,"osm_id":"504131344","code":5155,"fclass":"steps","name":null,"ref":null,"oneway":"B","maxspeed":0,"layer":0.0,"bridge":"F","tunnel":"F","Shape_Leng":0.000172496170909,"fclass字":"steps","fclass中":"台阶踏步","描述":"入口台阶，登山台阶人行过街天桥台阶，广场台阶、公共建筑人行道路","分类":"自行车道","__source_file__":"04-交通数据/1-交通路网/2-分类图层/上海市_自行车道.shp"},"geometry":{"type":"LineString","coordinates":[[121.4485170999842,31.248118299619875],[121.44860210030674,31.24796820007242]]}},{"id":"1203","type":"Feature","properties":{"OBJECTID":64432,"osm_id":"504131353","code":5155,"fclass":"steps","name":null,"ref":null,"oneway":"B","maxspeed":0,"layer":0.0,"bridge":"F","tunnel":"F","Shape_Leng":0.000102037754723,"fclass字":"steps","fclass中":"台阶踏步","描述":"入口台阶，登山台阶人行过街天桥台阶，广场台阶、公共建筑人行道路","分类":"自行车道","__source_file__":"04-交通数据/1-交通路网/2-分类图层/上海市_自行车道.shp"},"geometry":{"type":"LineString","coordinates":[[121.44901060025904,31.248251300357254],[121.44906750036489,31.248166600408354]]}},{"id":"325","type":"Feature","properties":{"OBJECTID":18305,"osm_id":"157306447","code":5155,"fclass":"steps","name":null,"ref":null,"oneway":"B","maxspeed":0,"layer":0.0,"bridge":"F","tunnel":"F","Shape_Leng":7.72139314277e-05,"fclass字":"steps","fclass中":"台阶踏步","描述":"入口台阶，登山台阶人行过街天桥台阶，广场台阶、公共建筑人行道路","分类":"自行车道","__source_file__":"04-交通数据/1-交通路网/2-分类图层/上海市_自行车道.shp"},"geometry":{"type":"LineString","coordinates":[[121.42675240030314,31.248625500166725],[121.42679529976328,31.248561300263873]]}},{"id":"706","type":"Feature","properties":{"OBJECTID":29412,"osm_id":"247368012","code":5152,"fclass":"cycleway","name":null,"ref":null,"oneway":"B","maxspeed":0,"layer":0.0,"bridge":"F","tunnel":"F","Shape_Leng":0.000364674071313,"fclass字":"cycleway","fclass中":"自行车道","描述":"滨水绿道，非机动车道，公园自行车道","分类":"自行车道","__source_file__":"04-交通数据/1-交通路网/2-分类图层/上海市_自行车道.shp"},"geometry":{"type":"LineString","coordinates":[[121.42649490011956,31.249481099872924],[121.42668299962077,31.249514499794373],[121.42681439956493,31.249627999632537]]}},{"id":"704","type":"Feature","properties":{"OBJECTID":29410,"osm_id":"247367756","code":5152,"fclass":"cycleway","name":null,"ref":null,"oneway":"B","maxspeed":0,"layer":0.0,"bridge":"F","tunnel":"F","Shape_Leng":0.00237690370286,"fclass字":"cycleway","fclass中":"自行车道","描述":"滨水绿道，非机动车道，公园自行车道","分类":"自行车道","__source_file__":"04-交通数据/1-交通路网/2-分类图层/上海市_自行车道.shp"},"geometry":{"type":"LineString","coordinates":[[121.42681439956493,31.249627999632537],[121.42749839963153,31.250312499722156],[121.42756139983874,31.250372099592767],[121.42807109960165,31.250892600213376],[121.42848680042562,31.25131690035471]]}},{"id":"705","type":"Feature","properties":{"OBJECTID":29411,"osm_id":"247367757","code":5152,"fclass":"cycleway","name":null,"ref":null,"oneway":"B","maxspeed":0,"layer":0.0,"bridge":"F","tunnel":"F","Shape_Leng":0.000325736195872,"fclass字":"cycleway","fclass中":"自行车道","描述":"滨水绿道，非机动车道，公园自行车道","分类":"自行车道","__source_file__":"04-交通数据/1-交通路网/2-分类图层/上海市_自行车道.shp"},"geometry":{"type":"LineString","coordinates":[[121.42848680042562,31.25131690035471],[121.42861759962261,31.251447400077495],[121.42868200007433,31.251572799744963]]}},{"id":"290","type":"Feature","properties":{"OBJECTID":17298,"osm_id":"151233313","code":5152,"fclass":"cycleway","name":"大统路地道","ref":null,"oneway":"B","maxspeed":0,"layer":-1.0,"bridge":"F","tunnel":"F","Shape_Leng":0.000797158679153,"fclass字":"cycleway","fclass中":"自行车道","描述":"滨水绿道，非机动车道，公园自行车道","分类":"自行车道","__source_file__":"04-交通数据/1-交通路网/2-分类图层/上海市_自行车道.shp"},"geometry":{"type":"LineString","coordinates":[[121.45448719992442,31.25238199982948],[121.45445360035342,31.252488400419395],[121.45442309984628,31.2526000998148],[121.45440440024299,31.252698800409348],[121.45438740035831,31.25282939995691],[121.4543636996251,31.253166199660427]]}},{"id":"286","type":"Feature","properties":{"OBJECTID":17294,"osm_id":"151233309","code":5152,"fclass":"cycleway","name":"大统路地道","ref":null,"oneway":"B","maxspeed":0,"layer":-1.0,"bridge":"F","tunnel":"T","Shape_Leng":0.000789538984469,"fclass字":"cycleway","fclass中":"自行车道","描述":"滨水绿道，非机动车道，公园自行车道","分类":"自行车道","__source_file__":"04-交通数据/1-交通路网/2-分类图层/上海市_自行车道.shp"},"geometry":{"type":"LineString","coordinates":[[121.4543636996251,31.253166199660427],[121.45435320004026,31.25348400028645],[121.45435250036769,31.25367579959851],[121.45436199990638,31.253846800289637],[121.45437670022454,31.253954299851102]]}},{"id":"289","type":"Feature","properties":{"OBJECTID":17297,"osm_id":"151233312","code":5152,"fclass":"cycleway","name":"大统路地道","ref":null,"oneway":"F","maxspeed":0,"layer":-1.0,"bridge":"F","tunnel":"T","Shape_Leng":0.000636304618023,"fclass字":"cycleway","fclass中":"自行车道","描述":"滨水绿道，非机动车道，公园自行车道","分类":"自行车道","__source_file__":"04-交通数据/1-交通路网/2-分类图层/上海市_自行车道.shp"},"geometry":{"type":"LineString","coordinates":[[121.45437670022454,31.253954299851102],[121.4544281999016,31.25412219967984],[121.45447730018736,31.254241299596345],[121.45452169971668,31.254334199563687],[121.45455990021924,31.254429399996866],[121.45458949960573,31.254552199724287]]}},{"id":"287","type":"Feature","properties":{"OBJECTID":17295,"osm_id":"151233310","code":5152,"fclass":"cycleway","name":"大统路地道","ref":null,"oneway":"F","maxspeed":0,"layer":-1.0,"bridge":"F","tunnel":"T","Shape_Leng":0.00062034291603,"fclass字":"cycleway","fclass中":"自行车道","描述":"滨水绿道，非机动车道，公园自行车道","分类":"自行车道","__source_file__":"04-交通数据/1-交通路网/2-分类图层/上海市_自行车道.shp"},"geometry":{"type":"LineString","coordinates":[[121.45438280032602,31.25457259994556],[121.45436580044145,31.254454300425664],[121.45436099986034,31.254357699748084],[121.45436409982347,31.25425039983611],[121.45437680004932,31.254129200002637],[121.45437670022454,31.253954299851102]]}},{"id":"288","type":"Feature","properties":{"OBJECTID":17296,"osm_id":"151233311","code":5152,"fclass":"cycleway","name":"大统路地道","ref":null,"oneway":"F","maxspeed":0,"layer":-1.0,"bridge":"F","tunnel":"F","Shape_Leng":0.000851141100536,"fclass字":"cycleway","fclass中":"自行车道","描述":"滨水绿道，非机动车道，公园自行车道","分类":"自行车道","__source_file__":"04-交通数据/1-交通路网/2-分类图层/上海市_自行车道.shp"},"geometry":{"type":"LineString","coordinates":[[121.45458949960573,31.254552199724287],[121.45467449992827,31.255007399671797],[121.45469559982212,31.255105399694514],[121.45471609986816,31.25521109971254],[121.45472839989577,31.255258500279638],[121.45476789991869,31.25538359957352]]}},{"id":"285","type":"Feature","properties":{"OBJECTID":17293,"osm_id":"151233308","code":5152,"fclass":"cycleway","name":"大统路地道","ref":null,"oneway":"F","maxspeed":0,"layer":-1.0,"bridge":"F","tunnel":"F","Shape_Leng":0.000898895076867,"fclass字":"cycleway","fclass中":"自行车道","描述":"滨水绿道，非机动车道，公园自行车道","分类":"自行车道","__source_file__":"04-交通数据/1-交通路网/2-分类图层/上海市_自行车道.shp"},"geometry":{"type":"LineString","coordinates":[[121.45457969969345,31.255447800375748],[121.45453299969824,31.255315699859693],[121.45449740003505,31.255190900040077],[121.4544660002058,31.255055200437198],[121.45438280032602,31.25457259994556]]}},{"id":"284","type":"Feature","properties":{"OBJECTID":17292,"osm_id":"151233307","code":5152,"fclass":"cycleway","name":"大统路","ref":null,"oneway":"F","maxspeed":0,"layer":0.0,"bridge":"F","tunnel":"F","Shape_Leng":0.000250393658844,"fclass字":"cycleway","fclass中":"自行车道","描述":"滨水绿道，非机动车道，公园自行车道","分类":"自行车道","__source_file__":"04-交通数据/1-交通路网/2-分类图层/上海市_自行车道.shp"},"geometry":{"type":"LineString","coordinates":[[121.45476789991869,31.25538359957352],[121.45479879972493,31.25552530035236],[121.45475960007559,31.255623099826266]]}},{"id":"283","type":"Feature","properties":{"OBJECTID":17291,"osm_id":"151233306","code":5152,"fclass":"cycleway","name":"大统路","ref":null,"oneway":"F","maxspeed":0,"layer":0.0,"bridge":"F","tunnel":"F","Shape_Leng":0.000258099482464,"fclass字":"cycleway","fclass中":"自行车道","描述":"滨水绿道，非机动车道，公园自行车道","分类":"自行车道","__source_file__":"04-交通数据/1-交通路网/2-分类图层/上海市_自行车道.shp"},"geometry":{"type":"LineString","coordinates":[[121.45475960007559,31.255623099826266],[121.45461590010382,31.255521499817405],[121.45457969969345,31.255447800375748]]}},{"id":"461","type":"Feature","properties":{"OBJECTID":24114,"osm_id":"178702244","code":5155,"fclass":"steps","name":null,"ref":null,"oneway":"B","maxspeed":0,"layer":0.0,"bridge":"F","tunnel":"F","Shape_Leng":0.000627947974323,"fclass字":"steps","fclass中":"台阶踏步","描述":"入口台阶，登山台阶人行过街天桥台阶，广场台阶、公共建筑人行道路","分类":"自行车道","__source_file__":"04-交通数据/1-交通路网/2-分类图层/上海市_自行车道.shp"},"geometry":{"type":"LineString","coordinates":[[121.47402450013067,31.230444900112104],[121.47430599962229,31.230597399950113],[121.47449159990742,31.23070190027255],[121.47443259988461,31.230776099737284]]}},{"id":"463","type":"Feature","properties":{"OBJECTID":24126,"osm_id":"178702263","code":5155,"fclass":"steps","name":null,"ref":null,"oneway":"B","maxspeed":0,"layer":0.0,"bridge":"F","tunnel":"F","Shape_Leng":0.000214408274916,"fclass字":"steps","fclass中":"台阶踏步","描述":"入口台阶，登山台阶人行过街天桥台阶，广场台阶、公共建筑人行道路","分类":"自行车道","__source_file__":"04-交通数据/1-交通路网/2-分类图层/上海市_自行车道.shp"},"geometry":{"type":"LineString","coordinates":[[121.47417249976115,31.231048200414193],[121.47423159960874,31.23108139978683],[121.47432010009265,31.230964499612014]]}},{"id":"458","type":"Feature","properties":{"OBJECTID":24084,"osm_id":"178583163","code":5155,"fclass":"steps","name":null,"ref":null,"oneway":"B","maxspeed":0,"layer":0.0,"bridge":"F","tunnel":"F","Shape_Leng":0.000206560426058,"fclass字":"steps","fclass中":"台阶踏步","描述":"入口台阶，登山台阶人行过街天桥台阶，广场台阶、公共建筑人行道路","分类":"自行车道","__source_file__":"04-交通数据/1-交通路网/2-分类图层/上海市_自行车道.shp"},"geometry":{"type":"LineString","coordinates":[[121.4788636000751,31.232568800210004],[121.47894140042536,31.23245409977693],[121.47900389971028,31.23248079974917]]}},{"id":"876","type":"Feature","properties":{"OBJECTID":36893,"osm_id":"328764514","code":5155,"fclass":"steps","name":null,"ref":null,"oneway":"B","maxspeed":0,"layer":0.0,"bridge":"F","tunnel":"F","Shape_Leng":0.000202763986642,"fclass字":"steps","fclass中":"台阶踏步","描述":"入口台阶，登山台阶人行过街天桥台阶，广场台阶、公共建筑人行道路","分类":"自行车道","__source_file__":"04-交通数据/1-交通路网/2-分类图层/上海市_自行车道.shp"},"geometry":{"type":"LineString","coordinates":[[121.4789307002917,31.232678899711516],[121.47901540024054,31.23254560039919],[121.47897709991332,31.232522299864286]]}},{"id":"457","type":"Feature","properties":{"OBJECTID":24078,"osm_id":"178583156","code":5155,"fclass":"steps","name":null,"ref":null,"oneway":"B","maxspeed":0,"layer":0.0,"bridge":"F","tunnel":"F","Shape_Leng":0.000208856067147,"fclass字":"steps","fclass中":"台阶踏步","描述":"入口台阶，登山台阶人行过街天桥台阶，广场台阶、公共建筑人行道路","分类":"自行车道","__source_file__":"04-交通数据/1-交通路网/2-分类图层/上海市_自行车道.shp"},"geometry":{"type":"LineString","coordinates":[[121.47869999990519,31.232674299679218],[121.4785285000903,31.232623899873147],[121.47851560021479,31.232651099868406]]}},{"id":"877","type":"Feature","properties":{"OBJECTID":36894,"osm_id":"328764515","code":5155,"fclass":"steps","name":null,"ref":null,"oneway":"B","maxspeed":0,"layer":0.0,"bridge":"F","tunnel":"F","Shape_Leng":0.000183233315342,"fclass字":"steps","fclass中":"台阶踏步","描述":"入口台阶，登山台阶人行过街天桥台阶，广场台阶、公共建筑人行道路","分类":"自行车道","__source_file__":"04-交通数据/1-交通路网/2-分类图层/上海市_自行车道.shp"},"geometry":{"type":"LineString","coordinates":[[121.47898160012085,31.232779899872526],[121.47914410041994,31.232830000204387],[121.4791391001894,31.232842200407276]]}},{"id":"2060","type":"Feature","properties":{"OBJECTID":105834,"osm_id":"1007200355","code":5155,"fclass":"steps","name":null,"ref":"16","oneway":"B","maxspeed":0,"layer":0.0,"bridge":"F","tunnel":"F","Shape_Leng":0.000166084107475,"fclass字":"steps","fclass中":"台阶踏步","描述":"入口台阶，登山台阶人行过街天桥台阶，广场台阶、公共建筑人行道路","分类":"自行车道","__source_file__":"04-交通数据/1-交通路网/2-分类图层/上海市_自行车道.shp"},"geometry":{"type":"LineString","coordinates":[[121.49110159965915,31.232207399551896],[121.49103469999147,31.232262299565548],[121.49105260009753,31.232278300303392],[121.49109410021265,31.232315200386267]]}},{"id":"475","type":"Feature","properties":{"OBJECTID":24146,"osm_id":"178722414","code":5155,"fclass":"steps","name":null,"ref":null,"oneway":"B","maxspeed":0,"layer":0.0,"bridge":"F","tunnel":"F","Shape_Leng":2.69815007975e-05,"fclass字":"steps","fclass中":"台阶踏步","描述":"入口台阶，登山台阶人行过街天桥台阶，广场台阶、公共建筑人行道路","分类":"自行车道","__source_file__":"04-交通数据/1-交通路网/2-分类图层/上海市_自行车道.shp"},"geometry":{"type":"LineString","coordinates":[[121.4701784999379,31.231001899717967],[121.47019649986862,31.23098179987022]]}},{"id":"485","type":"Feature","properties":{"OBJECTID":24169,"osm_id":"178725445","code":5155,"fclass":"steps","name":null,"ref":null,"oneway":"B","maxspeed":0,"layer":0.0,"bridge":"F","tunnel":"F","Shape_Leng":0.000208929405173,"fclass字":"steps","fclass中":"台阶踏步","描述":"入口台阶，登山台阶人行过街天桥台阶，广场台阶、公共建筑人行道路","分类":"自行车道","__source_file__":"04-交通数据/1-交通路网/2-分类图层/上海市_自行车道.shp"},"geometry":{"type":"LineString","coordinates":[[121.47405709965551,31.230990900109987],[121.47402309988627,31.230996400363665],[121.47399410034757,31.23100249956576],[121.4739645000617,31.231015500165256],[121.47386240002982,31.230968200322252]]}},{"id":"478","type":"Feature","properties":{"OBJECTID":24149,"osm_id":"178722417","code":5155,"fclass":"steps","name":null,"ref":null,"oneway":"B","maxspeed":0,"layer":0.0,"bridge":"F","tunnel":"F","Shape_Leng":2.58263042079e-05,"fclass字":"steps","fclass中":"台阶踏步","描述":"入口台阶，登山台阶人行过街天桥台阶，广场台阶、公共建筑人行道路","分类":"自行车道","__source_file__":"04-交通数据/1-交通路网/2-分类图层/上海市_自行车道.shp"},"geometry":{"type":"LineString","coordinates":[[121.47025359962402,31.23105009978235],[121.47027120025575,31.231031199630195]]}},{"id":"467","type":"Feature","properties":{"OBJECTID":24138,"osm_id":"178722198","code":5155,"fclass":"steps","name":null,"ref":null,"oneway":"B","maxspeed":0,"layer":0.0,"bridge":"F","tunnel":"F","Shape_Leng":2.18575810429e-05,"fclass字":"steps","fclass中":"台阶踏步","描述":"入口台阶，登山台阶人行过街天桥台阶，广场台阶、公共建筑人行道路","分类":"自行车道","__source_file__":"04-交通数据/1-交通路网/2-分类图层/上海市_自行车道.shp"},"geometry":{"type":"LineString","coordinates":[[121.46978399973182,31.231074500188072],[121.46980199966265,31.231086900040452]]}},{"id":"480","type":"Feature","properties":{"OBJECTID":24151,"osm_id":"178722419","code":5155,"fclass":"steps","name":null,"ref":null,"oneway":"B","maxspeed":0,"layer":0.0,"bridge":"F","tunnel":"F","Shape_Leng":2.80108840242e-05,"fclass字":"steps","fclass中":"台阶踏步","描述":"入口台阶，登山台阶人行过街天桥台阶，广场台阶、公共建筑人行道路","分类":"自行车道","__source_file__":"04-交通数据/1-交通路网/2-分类图层/上海市_自行车道.shp"},"geometry":{"type":"LineString","coordinates":[[121.47033249984509,31.231100799962007],[121.47035180019543,31.23108049956545]]}},{"id":"481","type":"Feature","properties":{"OBJECTID":24152,"osm_id":"178722420","code":5155,"fclass":"steps","name":null,"ref":null,"oneway":"B","maxspeed":0,"layer":0.0,"bridge":"F","tunnel":"F","Shape_Leng":2.62010833278e-05,"fclass字":"steps","fclass中":"台阶踏步","描述":"入口台阶，登山台阶人行过街天桥台阶，广场台阶、公共建筑人行道路","分类":"自行车道","__source_file__":"04-交通数据/1-交通路网/2-分类图层/上海市_自行车道.shp"},"geometry":{"type":"LineString","coordinates":[[121.47036679998791,31.23112280007723],[121.47038429989561,31.23110330007728]]}},{"id":"469","type":"Feature","properties":{"OBJECTID":24140,"osm_id":"178722200","code":5155,"fclass":"steps","name":null,"ref":null,"oneway":"B","maxspeed":0,"layer":0.0,"bridge":"F","tunnel":"F","Shape_Leng":2.30841136591e-05,"fclass字":"steps","fclass中":"台阶踏步","描述":"入口台阶，登山台阶人行过街天桥台阶，广场台阶、公共建筑人行道路","分类":"自行车道","__source_file__":"04-交通数据/1-交通路网/2-分类图层/上海市_自行车道.shp"},"geometry":{"type":"LineString","coordinates":[[121.46974360038689,31.231118100220215],[121.46976349968577,31.231129800400026]]}},{"id":"476","type":"Feature","properties":{"OBJECTID":24147,"osm_id":"178722415","code":5155,"fclass":"steps","name":null,"ref":null,"oneway":"B","maxspeed":0,"layer":0.0,"bridge":"F","tunnel":"F","Shape_Leng":2.790416949e-05,"fclass字":"steps","fclass中":"台阶踏步","描述":"入口台阶，登山台阶人行过街天桥台阶，广场台阶、公共建筑人行道路","分类":"自行车道","__source_file__":"04-交通数据/1-交通路网/2-分类图层/上海市_自行车道.shp"},"geometry":{"type":"LineString","coordinates":[[121.47038849972955,31.231136699998785],[121.47040710040744,31.23111589957915]]}},{"id":"465","type":"Feature","properties":{"OBJECTID":24135,"osm_id":"178722055","code":5155,"fclass":"steps","name":null,"ref":null,"oneway":"B","maxspeed":0,"layer":0.0,"bridge":"F","tunnel":"F","Shape_Leng":4.58064082982e-05,"fclass字":"steps","fclass中":"台阶踏步","描述":"入口台阶，登山台阶人行过街天桥台阶，广场台阶、公共建筑人行道路","分类":"自行车道","__source_file__":"04-交通数据/1-交通路网/2-分类图层/上海市_自行车道.shp"},"geometry":{"type":"LineString","coordinates":[[121.47032360015407,31.23143170011292],[121.47036410022315,31.23145310038035]]}},{"id":"473","type":"Feature","properties":{"OBJECTID":24144,"osm_id":"178722205","code":5155,"fclass":"steps","name":null,"ref":null,"oneway":"B","maxspeed":0,"layer":0.0,"bridge":"F","tunnel":"F","Shape_Leng":7.83768919442e-05,"fclass字":"steps","fclass中":"台阶踏步","描述":"入口台阶，登山台阶人行过街天桥台阶，广场台阶、公共建筑人行道路","分类":"自行车道","__source_file__":"04-交通数据/1-交通路网/2-分类图层/上海市_自行车道.shp"},"geometry":{"type":"LineString","coordinates":[[121.46966780012895,31.231479499979002],[121.4697186999581,31.231419900108335]]}},{"id":"334","type":"Feature","properties":{"OBJECTID":18724,"osm_id":"160074091","code":5152,"fclass":"cycleway","name":null,"ref":null,"oneway":"B","maxspeed":0,"layer":0.0,"bridge":"F","tunnel":"F","Shape_Leng":0.00331624866939,"fclass字":"cycleway","fclass中":"自行车道","描述":"滨水绿道，非机动车道，公园自行车道","分类":"自行车道","__source_file__":"04-交通数据/1-交通路网/2-分类图层/上海市_自行车道.shp"},"geometry":{"type":"LineString","coordinates":[[121.49233480041073,31.237736300190136],[121.49251190030407,31.23784269988073],[121.49277659956044,31.237574399738833],[121.49306730001592,31.237279699998226],[121.49325510004292,31.237112300192564],[121.49332669956755,31.23704939981002],[121.4938069995934,31.236623200300528],[121.49390479996657,31.236535500213222],[121.49414520960134,31.23633343981787]]}},{"id":"1083","type":"Feature","properties":{"OBJECTID":60304,"osm_id":"448072320","code":5155,"fclass":"steps","name":null,"ref":null,"oneway":"B","maxspeed":0,"layer":1.0,"bridge":"F","tunnel":"F","Shape_Leng":0.0002631947255,"fclass字":"steps","fclass中":"台阶踏步","描述":"入口台阶，登山台阶人行过街天桥台阶，广场台阶、公共建筑人行道路","分类":"自行车道","__source_file__":"04-交通数据/1-交通路网/2-分类图层/上海市_自行车道.shp"},"geometry":{"type":"LineString","coordinates":[[121.49368779985218,31.237019099851636],[121.49381650003147,31.23690099998123],[121.49374560017941,31.236848000235057]]}},{"id":"1084","type":"Feature","properties":{"OBJECTID":60305,"osm_id":"448072321","code":5155,"fclass":"steps","name":null,"ref":null,"oneway":"B","maxspeed":0,"layer":0.0,"bridge":"F","tunnel":"F","Shape_Leng":0.00033017003822,"fclass字":"steps","fclass中":"台阶踏步","描述":"入口台阶，登山台阶人行过街天桥台阶，广场台阶、公共建筑人行道路","分类":"自行车道","__source_file__":"04-交通数据/1-交通路网/2-分类图层/上海市_自行车道.shp"},"geometry":{"type":"LineString","coordinates":[[121.49334580026857,31.23855849997483],[121.49320770037514,31.238500599822885],[121.4931969004167,31.238320499791257]]}},{"id":"360","type":"Feature","properties":{"OBJECTID":20241,"osm_id":"165367173","code":5152,"fclass":"cycleway","name":null,"ref":null,"oneway":"B","maxspeed":0,"layer":0.0,"bridge":"F","tunnel":"F","Shape_Leng":0.000340280040819,"fclass字":"cycleway","fclass中":"自行车道","描述":"滨水绿道，非机动车道，公园自行车道","分类":"自行车道","__source_file__":"04-交通数据/1-交通路网/2-分类图层/上海市_自行车道.shp"},"geometry":{"type":"LineString","coordinates":[[121.4931760001723,31.23904979960861],[121.49324029989998,31.238953500203934],[121.49328959983518,31.238861700107407],[121.49331929994582,31.2388200003428],[121.49335589965506,31.238761399618966]]}},{"id":"104","type":"Feature","properties":{"OBJECTID":4645,"osm_id":"63127625","code":5155,"fclass":"steps","name":null,"ref":null,"oneway":"B","maxspeed":0,"layer":1.0,"bridge":"F","tunnel":"F","Shape_Leng":0.000255479611847,"fclass字":"steps","fclass中":"台阶踏步","描述":"入口台阶，登山台阶人行过街天桥台阶，广场台阶、公共建筑人行道路","分类":"自行车道","__source_file__":"04-交通数据/1-交通路网/2-分类图层/上海市_自行车道.shp"},"geometry":{"type":"LineString","coordinates":[[121.49571179965994,31.23972499980897],[121.49569460012572,31.2396663999844],[121.49575539969203,31.23962110023365],[121.49567760024115,31.23953159970364]]}},{"id":"364","type":"Feature","properties":{"OBJECTID":20303,"osm_id":"166125934","code":5155,"fclass":"steps","name":null,"ref":null,"oneway":"B","maxspeed":0,"layer":1.0,"bridge":"F","tunnel":"F","Shape_Leng":0.000330112886526,"fclass字":"steps","fclass中":"台阶踏步","描述":"入口台阶，登山台阶人行过街天桥台阶，广场台阶、公共建筑人行道路","分类":"自行车道","__source_file__":"04-交通数据/1-交通路网/2-分类图层/上海市_自行车道.shp"},"geometry":{"type":"LineString","coordinates":[[121.4956599996093,31.239760800020974],[121.49548179984527,31.239637100072173],[121.49542939994694,31.23971610011796],[121.4954191998363,31.239731400283972]]}},{"id":"152","type":"Feature","properties":{"OBJECTID":9524,"osm_id":"104441053","code":5155,"fclass":"steps","name":null,"ref":null,"oneway":"B","maxspeed":0,"layer":1.0,"bridge":"T","tunnel":"F","Shape_Leng":0.00027689020802,"fclass字":"steps","fclass中":"台阶踏步","描述":"入口台阶，登山台阶人行过街天桥台阶，广场台阶、公共建筑人行道路","分类":"自行车道","__source_file__":"04-交通数据/1-交通路网/2-分类图层/上海市_自行车道.shp"},"geometry":{"type":"LineString","coordinates":[[121.4954575999883,31.2401263996137],[121.4952538001229,31.24003420021819],[121.49525309955095,31.23998099992326]]}},{"id":"365","type":"Feature","properties":{"OBJECTID":20305,"osm_id":"166125936","code":5155,"fclass":"steps","name":null,"ref":null,"oneway":"B","maxspeed":0,"layer":1.0,"bridge":"T","tunnel":"F","Shape_Leng":0.000204781391921,"fclass字":"steps","fclass中":"台阶踏步","描述":"入口台阶，登山台阶人行过街天桥台阶，广场台阶、公共建筑人行道路","分类":"自行车道","__source_file__":"04-交通数据/1-交通路网/2-分类图层/上海市_自行车道.shp"},"geometry":{"type":"LineString","coordinates":[[121.49566940022271,31.240549500059444],[121.49549559994205,31.240657800017516]]}},{"id":"1188","type":"Feature","properties":{"OBJECTID":64154,"osm_id":"495006340","code":5152,"fclass":"cycleway","name":null,"ref":null,"oneway":"B","maxspeed":0,"layer":0.0,"bridge":"F","tunnel":"F","Shape_Leng":0.00820222448956,"fclass字":"cycleway","fclass中":"自行车道","描述":"滨水绿道，非机动车道，公园自行车道","分类":"自行车道","__source_file__":"04-交通数据/1-交通路网/2-分类图层/上海市_自行车道.shp"},"geometry":{"type":"LineString","coordinates":[[121.49233480041073,31.237736300190136],[121.49223399989921,31.237759099802645],[121.49220949966877,31.237764600056323],[121.49211559965522,31.237860900360317],[121.49188230022799,31.23790679995892],[121.49176690012246,31.23795259973275],[121.491739200104,31.238007499746345],[121.49172330009026,31.23803910012441],[121.49154630002181,31.238414800003056],[121.49154160016474,31.23844440028887],[121.49153779962978,31.238468699970554],[121.49153990044613,31.238522599938108],[121.49154560034924,31.238801899687985],[121.49153569971281,31.238880600259563],[121.49140150017911,31.239189500295254],[121.49131730025329,31.239374400008614],[121.49126819996752,31.239483399639255],[121.49106809991292,31.239908199803608],[121.4910317996779,31.240035700287365],[121.49101579983937,31.240114599609115],[121.49100809984395,31.240194400051564],[121.49100449985781,31.240281100092773],[121.4910237003835,31.240454500175076],[121.49106630036954,31.240606099791705],[121.49111920029088,31.24081499971254],[121.49115160016629,31.240968600320684],[121.49121830018441,31.24134430019933],[121.49122969999075,31.24138659981179],[121.49124919999065,31.241429000148287],[121.4912840001565,31.241485800429416],[121.49134159993491,31.241554399815755],[121.49145280020662,31.241646299737],[121.49242959974629,31.242413499683323],[121.49252149966753,31.242484699909028],[121.49277720030761,31.242680799779123],[121.49291309955993,31.24278780021683],[121.49313529955452,31.24294280017017],[121.4934326001345,31.243119400040314],[121.49351160018023,31.24316359992025],[121.4935718997234,31.243241900293526],[121.49373299977822,31.243302900408594],[121.49388050028494,31.2433327003439],[121.49408969967999,31.243417500117573],[121.49424259971624,31.2434793995547],[121.49433110020016,31.243582600356774],[121.4943765996004,31.243675000301096]]}},{"id":"1213","type":"Feature","properties":{"OBJECTID":65169,"osm_id":"519819881","code":5155,"fclass":"steps","name":null,"ref":null,"oneway":"B","maxspeed":0,"layer":-1.0,"bridge":"F","tunnel":"T","Shape_Leng":0.000122602045339,"fclass字":"steps","fclass中":"台阶踏步","描述":"入口台阶，登山台阶人行过街天桥台阶，广场台阶、公共建筑人行道路","分类":"自行车道","__source_file__":"04-交通数据/1-交通路网/2-分类图层/上海市_自行车道.shp"},"geometry":{"type":"LineString","coordinates":[[121.48609219959542,31.241553299944883],[121.48610859963219,31.24167480015194]]}},{"id":"361","type":"Feature","properties":{"OBJECTID":20248,"osm_id":"165367186","code":5152,"fclass":"cycleway","name":null,"ref":null,"oneway":"B","maxspeed":0,"layer":0.0,"bridge":"F","tunnel":"F","Shape_Leng":0.000530491780678,"fclass字":"cycleway","fclass中":"自行车道","描述":"滨水绿道，非机动车道，公园自行车道","分类":"自行车道","__source_file__":"04-交通数据/1-交通路网/2-分类图层/上海市_自行车道.shp"},"geometry":{"type":"LineString","coordinates":[[121.49364810017971,31.241480700374098],[121.49356939960819,31.24154159976507],[121.49342809992697,31.241673300082766],[121.49351560036473,31.241802100086886],[121.49357249957131,31.24186129975925]]}},{"id":"459","type":"Feature","properties":{"OBJECTID":24085,"osm_id":"178583164","code":5155,"fclass":"steps","name":null,"ref":null,"oneway":"B","maxspeed":0,"layer":0.0,"bridge":"F","tunnel":"F","Shape_Leng":0.000225385027158,"fclass字":"steps","fclass中":"台阶踏步","描述":"入口台阶，登山台阶人行过街天桥台阶，广场台阶、公共建筑人行道路","分类":"自行车道","__source_file__":"04-交通数据/1-交通路网/2-分类图层/上海市_自行车道.shp"},"geometry":{"type":"LineString","coordinates":[[121.47857410021459,31.233277500156532],[121.4785055997537,31.23342999999454],[121.47844990024271,31.233413099934694]]}},{"id":"1430","type":"Feature","properties":{"OBJECTID":79346,"osm_id":"744515528","code":5155,"fclass":"steps","name":null,"ref":null,"oneway":"B","maxspeed":0,"layer":0.0,"bridge":"F","tunnel":"F","Shape_Leng":0.000125083190176,"fclass字":"steps","fclass中":"台阶踏步","描述":"入口台阶，登山台阶人行过街天桥台阶，广场台阶、公共建筑人行道路","分类":"自行车道","__source_file__":"04-交通数据/1-交通路网/2-分类图层/上海市_自行车道.shp"},"geometry":{"type":"LineString","coordinates":[[121.47749629961459,31.247294599766008],[121.47747149990983,31.247417199843937]]}},{"id":"1431","type":"Feature","properties":{"OBJECTID":79347,"osm_id":"744515529","code":5155,"fclass":"steps","name":null,"ref":null,"oneway":"B","maxspeed":0,"layer":0.0,"bridge":"F","tunnel":"F","Shape_Leng":0.00014024628888,"fclass字":"steps","fclass中":"台阶踏步","描述":"入口台阶，登山台阶人行过街天桥台阶，广场台阶、公共建筑人行道路","分类":"自行车道","__source_file__":"04-交通数据/1-交通路网/2-分类图层/上海市_自行车道.shp"},"geometry":{"type":"LineString","coordinates":[[121.47778120034218,31.247321799761323],[121.47775460019466,31.247459500355717]]}},{"id":"1432","type":"Feature","properties":{"OBJECTID":79348,"osm_id":"744515530","code":5155,"fclass":"steps","name":null,"ref":null,"oneway":"B","maxspeed":0,"layer":0.0,"bridge":"F","tunnel":"F","Shape_Leng":0.000127927220084,"fclass字":"steps","fclass中":"台阶踏步","描述":"入口台阶，登山台阶人行过街天桥台阶，广场台阶、公共建筑人行道路","分类":"自行车道","__source_file__":"04-交通数据/1-交通路网/2-分类图层/上海市_自行车道.shp"},"geometry":{"type":"LineString","coordinates":[[121.47744670020506,31.2475427002355],[121.47747149990983,31.247417199843937]]}},{"id":"1433","type":"Feature","properties":{"OBJECTID":79349,"osm_id":"744515531","code":5155,"fclass":"steps","name":null,"ref":null,"oneway":"B","maxspeed":0,"layer":0.0,"bridge":"F","tunnel":"F","Shape_Leng":0.000131301511817,"fclass字":"steps","fclass中":"台阶踏步","描述":"入口台阶，登山台阶人行过街天桥台阶，广场台阶、公共建筑人行道路","分类":"自行车道","__source_file__":"04-交通数据/1-交通路网/2-分类图层/上海市_自行车道.shp"},"geometry":{"type":"LineString","coordinates":[[121.47772809987202,31.247588099811026],[121.47775460019466,31.247459500355717]]}},{"id":"1428","type":"Feature","properties":{"OBJECTID":79306,"osm_id":"744264415","code":5155,"fclass":"steps","name":null,"ref":null,"oneway":"B","maxspeed":0,"layer":0.0,"bridge":"F","tunnel":"F","Shape_Leng":0.000151142922048,"fclass字":"steps","fclass中":"台阶踏步","描述":"入口台阶，登山台阶人行过街天桥台阶，广场台阶、公共建筑人行道路","分类":"自行车道","__source_file__":"04-交通数据/1-交通路网/2-分类图层/上海市_自行车道.shp"},"geometry":{"type":"LineString","coordinates":[[121.48181709957953,31.248140199910324],[121.48194400021555,31.248058099901414]]}},{"id":"1429","type":"Feature","properties":{"OBJECTID":79323,"osm_id":"744268771","code":5155,"fclass":"steps","name":null,"ref":null,"oneway":"B","maxspeed":0,"layer":0.0,"bridge":"F","tunnel":"F","Shape_Leng":0.00013877982354,"fclass字":"steps","fclass中":"台阶踏步","描述":"入口台阶，登山台阶人行过街天桥台阶，广场台阶、公共建筑人行道路","分类":"自行车道","__source_file__":"04-交通数据/1-交通路网/2-分类图层/上海市_自行车道.shp"},"geometry":{"type":"LineString","coordinates":[[121.48227579968852,31.24819939958269],[121.48219290018221,31.248088100385587]]}},{"id":"1446","type":"Feature","properties":{"OBJECTID":80452,"osm_id":"761949588","code":5155,"fclass":"steps","name":null,"ref":null,"oneway":"B","maxspeed":0,"layer":0.0,"bridge":"F","tunnel":"F","Shape_Leng":0.00015919954567,"fclass字":"steps","fclass中":"台阶踏步","描述":"入口台阶，登山台阶人行过街天桥台阶，广场台阶、公共建筑人行道路","分类":"自行车道","__source_file__":"04-交通数据/1-交通路网/2-分类图层/上海市_自行车道.shp"},"geometry":{"type":"LineString","coordinates":[[121.47687750039643,31.249303900154928],[121.47679169967728,31.249437999863858]]}},{"id":"1452","type":"Feature","properties":{"OBJECTID":80458,"osm_id":"761949594","code":5155,"fclass":"steps","name":null,"ref":null,"oneway":"B","maxspeed":0,"layer":0.0,"bridge":"F","tunnel":"F","Shape_Leng":0.0001584057462,"fclass字":"steps","fclass中":"台阶踏步","描述":"入口台阶，登山台阶人行过街天桥台阶，广场台阶、公共建筑人行道路","分类":"自行车道","__source_file__":"04-交通数据/1-交通路网/2-分类图层/上海市_自行车道.shp"},"geometry":{"type":"LineString","coordinates":[[121.47635980026462,31.24938640036214],[121.47650190034244,31.249456399992937]]}},{"id":"1447","type":"Feature","properties":{"OBJECTID":80453,"osm_id":"761949589","code":5155,"fclass":"steps","name":null,"ref":null,"oneway":"B","maxspeed":0,"layer":0.0,"bridge":"F","tunnel":"F","Shape_Leng":0.000181518636217,"fclass字":"steps","fclass中":"台阶踏步","描述":"入口台阶，登山台阶人行过街天桥台阶，广场台阶、公共建筑人行道路","分类":"自行车道","__source_file__":"04-交通数据/1-交通路网/2-分类图层/上海市_自行车道.shp"},"geometry":{"type":"LineString","coordinates":[[121.47715639994794,31.249345099896516],[121.4770785995978,31.249509100264845]]}},{"id":"368","type":"Feature","properties":{"OBJECTID":20312,"osm_id":"166129492","code":5152,"fclass":"cycleway","name":null,"ref":null,"oneway":"B","maxspeed":0,"layer":0.0,"bridge":"F","tunnel":"F","Shape_Leng":9.74010376382e-05,"fclass字":"cycleway","fclass中":"自行车道","描述":"滨水绿道，非机动车道，公园自行车道","分类":"自行车道","__source_file__":"04-交通数据/1-交通路网/2-分类图层/上海市_自行车道.shp"},"geometry":{"type":"LineString","coordinates":[[121.49288100005822,31.242349799803492],[121.49282960020594,31.24229880014957],[121.49281360036741,31.242279599623885]]}},{"id":"367","type":"Feature","properties":{"OBJECTID":20310,"osm_id":"166129486","code":5155,"fclass":"steps","name":null,"ref":null,"oneway":"B","maxspeed":0,"layer":0.0,"bridge":"F","tunnel":"F","Shape_Leng":6.13291469399e-05,"fclass字":"steps","fclass中":"台阶踏步","描述":"入口台阶，登山台阶人行过街天桥台阶，广场台阶、公共建筑人行道路","分类":"自行车道","__source_file__":"04-交通数据/1-交通路网/2-分类图层/上海市_自行车道.shp"},"geometry":{"type":"LineString","coordinates":[[121.49352309981123,31.24335180014549],[121.49348829964538,31.243402299776392]]}},{"id":"1185","type":"Feature","properties":{"OBJECTID":64146,"osm_id":"495006332","code":5152,"fclass":"cycleway","name":null,"ref":null,"oneway":"B","maxspeed":0,"layer":0.0,"bridge":"F","tunnel":"F","Shape_Leng":0.00215052301016,"fclass字":"cycleway","fclass中":"自行车道","描述":"滨水绿道，非机动车道，公园自行车道","分类":"自行车道","__source_file__":"04-交通数据/1-交通路网/2-分类图层/上海市_自行车道.shp"},"geometry":{"type":"LineString","coordinates":[[121.4943765996004,31.243675000301096],[121.49445049959093,31.243747000024086],[121.49462210012985,31.24381799970098],[121.49495889983348,31.24392240019864],[121.49517070006777,31.244013800096866],[121.49541740029281,31.244132099616763],[121.49583579998227,31.2442545000452],[121.49637679974956,31.244430199694023]]}},{"id":"92","type":"Feature","properties":{"OBJECTID":2525,"osm_id":"40779516","code":5152,"fclass":"cycleway","name":"滨江大道","ref":null,"oneway":"B","maxspeed":0,"layer":0.0,"bridge":"F","tunnel":"F","Shape_Leng":0.000500449004758,"fclass字":"cycleway","fclass中":"自行车道","描述":"滨水绿道，非机动车道，公园自行车道","分类":"自行车道","__source_file__":"04-交通数据/1-交通路网/2-分类图层/上海市_自行车道.shp"},"geometry":{"type":"LineString","coordinates":[[121.49641250013678,31.244219299680992],[121.49640620038588,31.244254000022124],[121.49637679974956,31.244430199694023],[121.49648969973987,31.244514699993488],[121.4966194997902,31.24458049979029]]}},{"id":"1183","type":"Feature","properties":{"OBJECTID":64144,"osm_id":"495006329","code":5152,"fclass":"cycleway","name":null,"ref":null,"oneway":"B","maxspeed":0,"layer":0.0,"bridge":"F","tunnel":"F","Shape_Leng":0.00197352371564,"fclass字":"cycleway","fclass中":"自行车道","描述":"滨水绿道，非机动车道，公园自行车道","分类":"自行车道","__source_file__":"04-交通数据/1-交通路网/2-分类图层/上海市_自行车道.shp"},"geometry":{"type":"LineString","coordinates":[[121.49637679974956,31.244430199694023],[121.49674779977124,31.24457100025154],[121.49708310030485,31.244839300393437],[121.49732090461563,31.244939975465673]]}},{"id":"456","type":"Feature","properties":{"OBJECTID":24000,"osm_id":"177931046","code":5155,"fclass":"steps","name":null,"ref":null,"oneway":"B","maxspeed":0,"layer":0.0,"bridge":"F","tunnel":"F","Shape_Leng":9.41414480267e-05,"fclass字":"steps","fclass中":"台阶踏步","描述":"入口台阶，登山台阶人行过街天桥台阶，广场台阶、公共建筑人行道路","分类":"自行车道","__source_file__":"04-交通数据/1-交通路网/2-分类图层/上海市_自行车道.shp"},"geometry":{"type":"LineString","coordinates":[[121.48577320017307,31.24475820043068],[121.48586169975772,31.24472610002954]]}},{"id":"1444","type":"Feature","properties":{"OBJECTID":80436,"osm_id":"761660744","code":5155,"fclass":"steps","name":null,"ref":null,"oneway":"B","maxspeed":0,"layer":0.0,"bridge":"F","tunnel":"F","Shape_Leng":0.000436394742916,"fclass字":"steps","fclass中":"台阶踏步","描述":"入口台阶，登山台阶人行过街天桥台阶，广场台阶、公共建筑人行道路","分类":"自行车道","__source_file__":"04-交通数据/1-交通路网/2-分类图层/上海市_自行车道.shp"},"geometry":{"type":"LineString","coordinates":[[121.49297289997946,31.248589399581192],[121.49315979978496,31.248754700369204],[121.49331000005657,31.24886589974153]]}},{"id":"1443","type":"Feature","properties":{"OBJECTID":80435,"osm_id":"761660743","code":5155,"fclass":"steps","name":null,"ref":null,"oneway":"B","maxspeed":0,"layer":0.0,"bridge":"F","tunnel":"F","Shape_Leng":0.000309751259862,"fclass字":"steps","fclass中":"台阶踏步","描述":"入口台阶，登山台阶人行过街天桥台阶，广场台阶、公共建筑人行道路","分类":"自行车道","__source_file__":"04-交通数据/1-交通路网/2-分类图层/上海市_自行车道.shp"},"geometry":{"type":"LineString","coordinates":[[121.49384920028047,31.248980500349887],[121.49372179962143,31.24899540031754],[121.49358359990333,31.248981700045476],[121.49354199996344,31.248972499980937]]}},{"id":"1448","type":"Feature","properties":{"OBJECTID":80454,"osm_id":"761949590","code":5155,"fclass":"steps","name":null,"ref":null,"oneway":"B","maxspeed":0,"layer":0.0,"bridge":"F","tunnel":"F","Shape_Leng":0.000202361781339,"fclass字":"steps","fclass中":"台阶踏步","描述":"入口台阶，登山台阶人行过街天桥台阶，广场台阶、公共建筑人行道路","分类":"自行车道","__source_file__":"04-交通数据/1-交通路网/2-分类图层/上海市_自行车道.shp"},"geometry":{"type":"LineString","coordinates":[[121.4773749999564,31.249713199604514],[121.47717520027538,31.249681100102748]]}},{"id":"1451","type":"Feature","properties":{"OBJECTID":80457,"osm_id":"761949593","code":5155,"fclass":"steps","name":null,"ref":null,"oneway":"B","maxspeed":0,"layer":0.0,"bridge":"F","tunnel":"F","Shape_Leng":0.000143833915668,"fclass字":"steps","fclass中":"台阶踏步","描述":"入口台阶，登山台阶人行过街天桥台阶，广场台阶、公共建筑人行道路","分类":"自行车道","__source_file__":"04-交通数据/1-交通路网/2-分类图层/上海市_自行车道.shp"},"geometry":{"type":"LineString","coordinates":[[121.47621500042203,31.24976129984418],[121.4763464003662,31.24981979984392]]}},{"id":"1450","type":"Feature","properties":{"OBJECTID":80456,"osm_id":"761949592","code":5155,"fclass":"steps","name":null,"ref":null,"oneway":"B","maxspeed":0,"layer":0.0,"bridge":"F","tunnel":"F","Shape_Leng":0.000161835839236,"fclass字":"steps","fclass中":"台阶踏步","描述":"入口台阶，登山台阶人行过街天桥台阶，广场台阶、公共建筑人行道路","分类":"自行车道","__source_file__":"04-交通数据/1-交通路网/2-分类图层/上海市_自行车道.shp"},"geometry":{"type":"LineString","coordinates":[[121.47640810015378,31.250075499584682],[121.47647380012586,31.24992759977897]]}},{"id":"1449","type":"Feature","properties":{"OBJECTID":80455,"osm_id":"761949591","code":5155,"fclass":"steps","name":null,"ref":null,"oneway":"B","maxspeed":0,"layer":0.0,"bridge":"F","tunnel":"F","Shape_Leng":0.000198611911594,"fclass字":"steps","fclass中":"台阶踏步","描述":"入口台阶，登山台阶人行过街天桥台阶，广场台阶、公共建筑人行道路","分类":"自行车道","__source_file__":"04-交通数据/1-交通路网/2-分类图层/上海市_自行车道.shp"},"geometry":{"type":"LineString","coordinates":[[121.47725029996138,31.250023900082965],[121.47705449956561,31.249990599986234]]}},{"id":"1705","type":"Feature","properties":{"OBJECTID":91650,"osm_id":"897198912","code":5155,"fclass":"steps","name":null,"ref":null,"oneway":"B","maxspeed":0,"layer":0.0,"bridge":"F","tunnel":"F","Shape_Leng":0.000114132121284,"fclass字":"steps","fclass中":"台阶踏步","描述":"入口台阶，登山台阶人行过街天桥台阶，广场台阶、公共建筑人行道路","分类":"自行车道","__source_file__":"04-交通数据/1-交通路网/2-分类图层/上海市_自行车道.shp"},"geometry":{"type":"LineString","coordinates":[[121.47686809978302,31.249983200364454],[121.47680410042892,31.250077700225745]]}},{"id":"447","type":"Feature","properties":{"OBJECTID":23841,"osm_id":"177597192","code":5155,"fclass":"steps","name":null,"ref":null,"oneway":"B","maxspeed":0,"layer":0.0,"bridge":"F","tunnel":"F","Shape_Leng":0.000302377997002,"fclass字":"steps","fclass中":"台阶踏步","描述":"入口台阶，登山台阶人行过街天桥台阶，广场台阶、公共建筑人行道路","分类":"自行车道","__source_file__":"04-交通数据/1-交通路网/2-分类图层/上海市_自行车道.shp"},"geometry":{"type":"LineString","coordinates":[[121.48401069983402,31.253475999917498],[121.4840562999583,31.253459900254256],[121.48408390015197,31.25344689965476],[121.48410580044242,31.25342650033275],[121.48412869987965,31.253395700351348],[121.48414480044221,31.253363599950205],[121.48425749988382,31.253402699774824]]}},{"id":"453","type":"Feature","properties":{"OBJECTID":23849,"osm_id":"177597200","code":5155,"fclass":"steps","name":null,"ref":null,"oneway":"B","maxspeed":0,"layer":0.0,"bridge":"F","tunnel":"F","Shape_Leng":0.000283366799003,"fclass字":"steps","fclass中":"台阶踏步","描述":"入口台阶，登山台阶人行过街天桥台阶，广场台阶、公共建筑人行道路","分类":"自行车道","__source_file__":"04-交通数据/1-交通路网/2-分类图层/上海市_自行车道.shp"},"geometry":{"type":"LineString","coordinates":[[121.48401069983402,31.253475999917498],[121.48396630030459,31.253483799737637],[121.48392759977901,31.253485199982038],[121.48389810021717,31.253478300383335],[121.48385900039261,31.253463100042097],[121.48383760012518,31.253451700235814],[121.48377960014852,31.25353690020785]]}},{"id":"450","type":"Feature","properties":{"OBJECTID":23844,"osm_id":"177597195","code":5155,"fclass":"steps","name":null,"ref":null,"oneway":"B","maxspeed":0,"layer":0.0,"bridge":"F","tunnel":"F","Shape_Leng":0.000220927144955,"fclass字":"steps","fclass中":"台阶踏步","描述":"入口台阶，登山台阶人行过街天桥台阶，广场台阶、公共建筑人行道路","分类":"自行车道","__source_file__":"04-交通数据/1-交通路网/2-分类图层/上海市_自行车道.shp"},"geometry":{"type":"LineString","coordinates":[[121.4845181000303,31.253775699888706],[121.48450959963839,31.25374199959367],[121.48451080023335,31.25371080031323],[121.48451500006729,31.253673199658465],[121.48452150036701,31.25365350000908],[121.48453640033472,31.25362270002762],[121.48447700011354,31.253604399723315]]}},{"id":"451","type":"Feature","properties":{"OBJECTID":23846,"osm_id":"177597197","code":5155,"fclass":"steps","name":null,"ref":null,"oneway":"B","maxspeed":0,"layer":0.0,"bridge":"F","tunnel":"F","Shape_Leng":0.000235365068913,"fclass字":"steps","fclass中":"台阶踏步","描述":"入口台阶，登山台阶人行过街天桥台阶，广场台阶、公共建筑人行道路","分类":"自行车道","__source_file__":"04-交通数据/1-交通路网/2-分类图层/上海市_自行车道.shp"},"geometry":{"type":"LineString","coordinates":[[121.48458770036211,31.253956100293863],[121.48462489991925,31.25392080010488],[121.48458589991935,31.253889599925174],[121.48455369969349,31.253850699750046],[121.48453230032544,31.253816299782443],[121.48452420013177,31.25379789965342],[121.4845181000303,31.253775699888706]]}},{"id":"448","type":"Feature","properties":{"OBJECTID":23842,"osm_id":"177597193","code":5155,"fclass":"steps","name":null,"ref":null,"oneway":"B","maxspeed":0,"layer":0.0,"bridge":"F","tunnel":"F","Shape_Leng":0.000216654848856,"fclass字":"steps","fclass中":"台阶踏步","描述":"入口台阶，登山台阶人行过街天桥台阶，广场台阶、公共建筑人行道路","分类":"自行车道","__source_file__":"04-交通数据/1-交通路网/2-分类图层/上海市_自行车道.shp"},"geometry":{"type":"LineString","coordinates":[[121.48380780018988,31.253962900067847],[121.4837920000009,31.253914899652955],[121.4837759003376,31.25388049968535],[121.48375860007934,31.25385889976849],[121.48374100034698,31.253843800151287],[121.4837248997843,31.253827699588726],[121.48376520020383,31.25379100005466]]}},{"id":"490","type":"Feature","properties":{"OBJECTID":24195,"osm_id":"178737630","code":5155,"fclass":"steps","name":null,"ref":null,"oneway":"B","maxspeed":0,"layer":0.0,"bridge":"F","tunnel":"F","Shape_Leng":0.000241963289862,"fclass字":"steps","fclass中":"台阶踏步","描述":"入口台阶，登山台阶人行过街天桥台阶，广场台阶、公共建筑人行道路","分类":"自行车道","__source_file__":"04-交通数据/1-交通路网/2-分类图层/上海市_自行车道.shp"},"geometry":{"type":"LineString","coordinates":[[121.47111919979125,31.232021200318172],[121.47132120011338,31.23215439980578]]}},{"id":"489","type":"Feature","properties":{"OBJECTID":24189,"osm_id":"178737618","code":5155,"fclass":"steps","name":null,"ref":null,"oneway":"B","maxspeed":0,"layer":0.0,"bridge":"F","tunnel":"F","Shape_Leng":0.000239094346776,"fclass字":"steps","fclass中":"台阶踏步","描述":"入口台阶，登山台阶人行过街天桥台阶，广场台阶、公共建筑人行道路","分类":"自行车道","__source_file__":"04-交通数据/1-交通路网/2-分类图层/上海市_自行车道.shp"},"geometry":{"type":"LineString","coordinates":[[121.47130010021954,31.232179200409803],[121.47109859992054,31.232050500230457]]}},{"id":"491","type":"Feature","properties":{"OBJECTID":24196,"osm_id":"178738418","code":5155,"fclass":"steps","name":null,"ref":null,"oneway":"B","maxspeed":0,"layer":0.0,"bridge":"F","tunnel":"F","Shape_Leng":0.000117606076621,"fclass字":"steps","fclass中":"台阶踏步","描述":"入口台阶，登山台阶人行过街天桥台阶，广场台阶、公共建筑人行道路","分类":"自行车道","__source_file__":"04-交通数据/1-交通路网/2-分类图层/上海市_自行车道.shp"},"geometry":{"type":"LineString","coordinates":[[121.4718626999038,31.23286349995061],[121.47191909998651,31.232760300047858]]}},{"id":"1289","type":"Feature","properties":{"OBJECTID":67498,"osm_id":"564255320","code":5155,"fclass":"steps","name":null,"ref":null,"oneway":"B","maxspeed":0,"layer":0.0,"bridge":"F","tunnel":"F","Shape_Leng":0.000204739939849,"fclass字":"steps","fclass中":"台阶踏步","描述":"入口台阶，登山台阶人行过街天桥台阶，广场台阶、公共建筑人行道路","分类":"自行车道","__source_file__":"04-交通数据/1-交通路网/2-分类图层/上海市_自行车道.shp"},"geometry":{"type":"LineString","coordinates":[[121.46960970032751,31.236367499660446],[121.46962189963108,31.23632739978973],[121.4697585003546,31.23632899968362],[121.4697593996766,31.23630279973446]]}},{"id":"1438","type":"Feature","properties":{"OBJECTID":80415,"osm_id":"761632796","code":5155,"fclass":"steps","name":null,"ref":null,"oneway":"B","maxspeed":0,"layer":0.0,"bridge":"F","tunnel":"F","Shape_Leng":9.52688149867e-05,"fclass字":"steps","fclass中":"台阶踏步","描述":"入口台阶，登山台阶人行过街天桥台阶，广场台阶、公共建筑人行道路","分类":"自行车道","__source_file__":"04-交通数据/1-交通路网/2-分类图层/上海市_自行车道.shp"},"geometry":{"type":"LineString","coordinates":[[121.47031059955464,31.236569499982465],[121.47040300039816,31.236592699793334]]}},{"id":"1762","type":"Feature","properties":{"OBJECTID":94789,"osm_id":"949623768","code":5155,"fclass":"steps","name":null,"ref":null,"oneway":"B","maxspeed":0,"layer":0.0,"bridge":"F","tunnel":"F","Shape_Leng":0.000192893461215,"fclass字":"steps","fclass中":"台阶踏步","描述":"入口台阶，登山台阶人行过街天桥台阶，广场台阶、公共建筑人行道路","分类":"自行车道","__source_file__":"04-交通数据/1-交通路网/2-分类图层/上海市_自行车道.shp"},"geometry":{"type":"LineString","coordinates":[[121.47427030013432,31.25203199987692],[121.47417220028683,31.25200019984942],[121.47408569989523,31.251976199641945]]}},{"id":"1761","type":"Feature","properties":{"OBJECTID":94788,"osm_id":"949623767","code":5155,"fclass":"steps","name":null,"ref":null,"oneway":"B","maxspeed":0,"layer":0.0,"bridge":"F","tunnel":"F","Shape_Leng":0.000131201073674,"fclass字":"steps","fclass中":"台阶踏步","描述":"入口台阶，登山台阶人行过街天桥台阶，广场台阶、公共建筑人行道路","分类":"自行车道","__source_file__":"04-交通数据/1-交通路网/2-分类图层/上海市_自行车道.shp"},"geometry":{"type":"LineString","coordinates":[[121.47408350015348,31.25224239986693],[121.47396419968811,31.252187800226864]]}},{"id":"1208","type":"Feature","properties":{"OBJECTID":65024,"osm_id":"513885059","code":5155,"fclass":"steps","name":null,"ref":null,"oneway":"B","maxspeed":0,"layer":-1.0,"bridge":"F","tunnel":"T","Shape_Leng":0.000447603369628,"fclass字":"steps","fclass中":"台阶踏步","描述":"入口台阶，登山台阶人行过街天桥台阶，广场台阶、公共建筑人行道路","分类":"自行车道","__source_file__":"04-交通数据/1-交通路网/2-分类图层/上海市_自行车道.shp"},"geometry":{"type":"LineString","coordinates":[[121.47405799987689,31.2724312004396],[121.47396159974812,31.272868299732295]]}},{"id":"452","type":"Feature","properties":{"OBJECTID":23848,"osm_id":"177597199","code":5155,"fclass":"steps","name":null,"ref":null,"oneway":"B","maxspeed":0,"layer":0.0,"bridge":"F","tunnel":"F","Shape_Leng":0.000248788773711,"fclass字":"steps","fclass中":"台阶踏步","描述":"入口台阶，登山台阶人行过街天桥台阶，广场台阶、公共建筑人行道路","分类":"自行车道","__source_file__":"04-交通数据/1-交通路网/2-分类图层/上海市_自行车道.shp"},"geometry":{"type":"LineString","coordinates":[[121.48388389992215,31.254142799550607],[121.4838068999685,31.254131799942684],[121.48381760010227,31.25408130031184],[121.48381879979786,31.254052399698537],[121.48381760010227,31.25401939997539],[121.48381490033739,31.253994200072327],[121.48380780018988,31.253962900067847]]}},{"id":"449","type":"Feature","properties":{"OBJECTID":23843,"osm_id":"177597194","code":5155,"fclass":"steps","name":null,"ref":null,"oneway":"B","maxspeed":0,"layer":0.0,"bridge":"F","tunnel":"F","Shape_Leng":0.000340128198443,"fclass字":"steps","fclass中":"台阶踏步","描述":"入口台阶，登山台阶人行过街天桥台阶，广场台阶、公共建筑人行道路","分类":"自行车道","__source_file__":"04-交通数据/1-交通路网/2-分类图层/上海市_自行车道.shp"},"geometry":{"type":"LineString","coordinates":[[121.48432539959754,31.25419769956426],[121.48452029977204,31.254296900181828],[121.48458510042212,31.254194200302152]]}},{"id":"446","type":"Feature","properties":{"OBJECTID":23840,"osm_id":"177597191","code":5155,"fclass":"steps","name":null,"ref":null,"oneway":"B","maxspeed":0,"layer":0.0,"bridge":"F","tunnel":"F","Shape_Leng":0.000301590103929,"fclass字":"steps","fclass中":"台阶踏步","描述":"入口台阶，登山台阶人行过街天桥台阶，广场台阶、公共建筑人行道路","分类":"自行车道","__source_file__":"04-交通数据/1-交通路网/2-分类图层/上海市_自行车道.shp"},"geometry":{"type":"LineString","coordinates":[[121.48399219988016,31.2543159001587],[121.48409920031793,31.25437249989102],[121.4841835998933,31.25421289990544]]}},{"id":"218","type":"Feature","properties":{"OBJECTID":16045,"osm_id":"144554240","code":5155,"fclass":"steps","name":null,"ref":null,"oneway":"B","maxspeed":0,"layer":0.0,"bridge":"F","tunnel":"F","Shape_Leng":0.00016270795509,"fclass字":"steps","fclass中":"台阶踏步","描述":"入口台阶，登山台阶人行过街天桥台阶，广场台阶、公共建筑人行道路","分类":"自行车道","__source_file__":"04-交通数据/1-交通路网/2-分类图层/上海市_自行车道.shp"},"geometry":{"type":"LineString","coordinates":[[121.47629589983592,31.2613710995966],[121.47635699977582,31.261521899715945]]}},{"id":"1209","type":"Feature","properties":{"OBJECTID":65026,"osm_id":"513885066","code":5155,"fclass":"steps","name":null,"ref":null,"oneway":"B","maxspeed":0,"layer":-1.0,"bridge":"F","tunnel":"T","Shape_Leng":0.000169835281411,"fclass字":"steps","fclass中":"台阶踏步","描述":"入口台阶，登山台阶人行过街天桥台阶，广场台阶、公共建筑人行道路","分类":"自行车道","__source_file__":"04-交通数据/1-交通路网/2-分类图层/上海市_自行车道.shp"},"geometry":{"type":"LineString","coordinates":[[121.4742666003234,31.27227060040792],[121.47409959981678,31.272239699702425]]}},{"id":"1124","type":"Feature","properties":{"OBJECTID":61199,"osm_id":"464632122","code":5155,"fclass":"steps","name":null,"ref":null,"oneway":"B","maxspeed":0,"layer":2.0,"bridge":"F","tunnel":"F","Shape_Leng":0.000360460813106,"fclass字":"steps","fclass中":"台阶踏步","描述":"入口台阶，登山台阶人行过街天桥台阶，广场台阶、公共建筑人行道路","分类":"自行车道","__source_file__":"04-交通数据/1-交通路网/2-分类图层/上海市_自行车道.shp"},"geometry":{"type":"LineString","coordinates":[[121.47644829984927,31.27227020020962],[121.47661580037891,31.27228079961924],[121.4766089997056,31.27232210008492],[121.47647990022733,31.272317900250926],[121.47645830031036,31.272317699702114]]}},{"id":"1210","type":"Feature","properties":{"OBJECTID":65040,"osm_id":"513885114","code":5155,"fclass":"steps","name":null,"ref":null,"oneway":"B","maxspeed":0,"layer":2.0,"bridge":"F","tunnel":"F","Shape_Leng":0.000287202509214,"fclass字":"steps","fclass中":"台阶踏步","描述":"入口台阶，登山台阶人行过街天桥台阶，广场台阶、公共建筑人行道路","分类":"自行车道","__source_file__":"04-交通数据/1-交通路网/2-分类图层/上海市_自行车道.shp"},"geometry":{"type":"LineString","coordinates":[[121.47543620012061,31.272673000258806],[121.47523400014904,31.272673199908297],[121.4751489998265,31.272672600060503]]}},{"id":"1211","type":"Feature","properties":{"OBJECTID":65043,"osm_id":"513885122","code":5155,"fclass":"steps","name":null,"ref":null,"oneway":"B","maxspeed":0,"layer":2.0,"bridge":"F","tunnel":"F","Shape_Leng":0.000163741419802,"fclass字":"steps","fclass中":"台阶踏步","描述":"入口台阶，登山台阶人行过街天桥台阶，广场台阶、公共建筑人行道路","分类":"自行车道","__source_file__":"04-交通数据/1-交通路网/2-分类图层/上海市_自行车道.shp"},"geometry":{"type":"LineString","coordinates":[[121.47536299980266,31.273898099917403],[121.47519939963263,31.27389130014342]]}}],"name":"上海市_自行车道","crs":{"type":"name","properties":{"name":"urn:ogc:def:crs:OGC:1.3:CRS84"}}}