{
"type": "FeatureCollection",
"name": "site_blocks_4",
"crs": { "type": "name", "properties": { "name": "urn:ogc:def:crs:OGC:1.3:CRS84" } },
"features": [
{ "type": "Feature", "properties": { "site_block_id": "block_ne", "unit_count": 11, "block_area_m2": 58758.22, "P_walk_total": 0.55021847259635093, "P_walk_life_service": 0.24451741393377199, "P_walk_public_activity": 0.20156719340109472, "P_walk_community_living": 0.078130846798562553, "P_walk_productive_mix": 0.026003018462921579, "P_slow_total": 0.38404734208167429, "P_slow_life_service": 0.12412643759424376, "P_slow_public_activity": 0.12743241902410693, "P_slow_community_living": 0.091316262753819016, "P_slow_productive_mix": 0.041172222709504602, "P_fast_total": 0.065734185321974795, "P_fast_life_service": 0.01554920852173754, "P_fast_public_activity": 0.025912903085697058, "P_fast_community_living": 0.0065338798576205078, "P_fast_productive_mix": 0.017738193856919684, "gap_life_service": 0.12352922066027011, "gap_public_activity": 0.13421914371946655, "gap_community_living": 0.095301022227298818, "gap_productive_mix": 0.091681644508913487 }, "geometry": { "type": "Polygon", "coordinates": [ [ [ 121.455825037133565, 31.248009530647767 ], [ 121.45580486730762, 31.248042210145414 ], [ 121.455791187896835, 31.248077283096261 ], [ 121.455784367053923, 31.248113805604067 ], [ 121.45577661876807, 31.248200106982285 ], [ 121.455674048042269, 31.249342561097055 ], [ 121.455645864967678, 31.249656470453257 ], [ 121.455622094750339, 31.249921211615224 ], [ 121.455557753024991, 31.250637846065391 ], [ 121.455534487963931, 31.250896959293708 ], [ 121.4557187741337, 31.250812034349678 ], [ 121.455905479580892, 31.250731103803744 ], [ 121.455893950835119, 31.250710847686541 ], [ 121.456095467699939, 31.250629040202487 ], [ 121.456250774391876, 31.250568151022225 ], [ 121.456356898969545, 31.250524467979414 ], [ 121.456461049851413, 31.250477409298259 ], [ 121.456563081624765, 31.250427040682137 ], [ 121.456634908440279, 31.250390033955952 ], [ 121.457079455497947, 31.250160982360413 ], [ 121.457171623868973, 31.250115481955227 ], [ 121.457265706353724, 31.250072971389606 ], [ 121.457361571609624, 31.250033510008844 ], [ 121.458107579463444, 31.249741020764844 ], [ 121.458088185627631, 31.249650756167465 ], [ 121.458003749103725, 31.249257756977329 ], [ 121.458000780505586, 31.249244493265131 ], [ 121.457981833398335, 31.249176832638391 ], [ 121.457956870546937, 31.249110628492122 ], [ 121.45792604058191, 31.249046274977427 ], [ 121.457893073622046, 31.248984361839671 ], [ 121.457849409181335, 31.248902358756872 ], [ 121.457818775676373, 31.248838463425702 ], [ 121.457793926221981, 31.248772740644426 ], [ 121.457775006684315, 31.248705576237512 ], [ 121.457584329886998, 31.247893797211582 ], [ 121.457569748451007, 31.247847704212511 ], [ 121.457548207172152, 31.247803670208842 ], [ 121.45752008366965, 31.247762467098699 ], [ 121.457485870944524, 31.247724817154893 ], [ 121.457446168737206, 31.247691380363911 ], [ 121.457401673014004, 31.247662742856974 ], [ 121.457353163767081, 31.247639406635582 ], [ 121.457300202392545, 31.247620308381304 ], [ 121.457245395269126, 31.247605546310862 ], [ 121.457189222178286, 31.247595249651162 ], [ 121.457132174858515, 31.247589508539033 ], [ 121.457074274195804, 31.247589468241316 ], [ 121.457016917509534, 31.247596271217883 ], [ 121.456961195314506, 31.247609788124652 ], [ 121.45612122710817, 31.247868464586034 ], [ 121.455957480488905, 31.247918890734351 ], [ 121.455918279474361, 31.247934185978714 ], [ 121.455882516674848, 31.247954781856297 ], [ 121.455851154551098, 31.247980124085135 ], [ 121.455825037133565, 31.248009530647767 ] ] ] } },
{ "type": "Feature", "properties": { "site_block_id": "block_nw", "unit_count": 10, "block_area_m2": 178184.65, "P_walk_total": 0.70217028277098159, "P_walk_life_service": 0.35650534018356261, "P_walk_public_activity": 0.22125051747070934, "P_walk_community_living": 0.090756901993322814, "P_walk_productive_mix": 0.033657523123386997, "P_slow_total": 0.18462785409266433, "P_slow_life_service": 0.064672260787620284, "P_slow_public_activity": 0.05402259245653452, "P_slow_community_living": 0.045560394832944259, "P_slow_productive_mix": 0.020372606015565248, "P_fast_total": 0.11320186313635383, "P_fast_life_service": 0.031737611550215386, "P_fast_public_activity": 0.038671589055403945, "P_fast_community_living": 0.010555520996655078, "P_fast_productive_mix": 0.032237141534079437, "gap_life_service": 0.1168788788613722, "gap_public_activity": 0.12129970191424683, "gap_community_living": 0.08768989835482123, "gap_productive_mix": 0.082405415929733591 }, "geometry": { "type": "MultiPolygon", "coordinates": [ [ [ [ 121.459531096498438, 31.246823550261542 ], [ 121.459312444084262, 31.246883383832085 ], [ 121.45909541624701, 31.246947435019766 ], [ 121.45907080477167, 31.246954996906062 ], [ 121.45896259988568, 31.246988376121795 ], [ 121.458935608348725, 31.246998593636203 ], [ 121.458910549756226, 31.247011960081121 ], [ 121.45888791866183, 31.247028211658339 ], [ 121.458868161710981, 31.247047027628938 ], [ 121.458851668826256, 31.247068036643277 ], [ 121.458669744290788, 31.247339079766107 ], [ 121.458643234934428, 31.247384255881229 ], [ 121.458622782309916, 31.247431698828954 ], [ 121.458608643852116, 31.247480811471714 ], [ 121.458600997523945, 31.247530975655614 ], [ 121.458599939576018, 31.247581559990515 ], [ 121.458605483334679, 31.247631927797123 ], [ 121.458617559033783, 31.247681445120474 ], [ 121.458636014692203, 31.24772948870924 ], [ 121.458672458239249, 31.247818768547216 ], [ 121.458700990012218, 31.247910148736569 ], [ 121.458721448652341, 31.248003112558933 ], [ 121.458733718449977, 31.248097134339528 ], [ 121.458737729999612, 31.248191682419737 ], [ 121.45874134011774, 31.248299559330523 ], [ 121.45876687682258, 31.248673100958168 ], [ 121.458772324655229, 31.24872606336865 ], [ 121.458781395578171, 31.248778657952339 ], [ 121.458880294899473, 31.249254807460705 ], [ 121.458886053685902, 31.24927414889585 ], [ 121.458895062927567, 31.249292551616424 ], [ 121.458907126433445, 31.249309614869443 ], [ 121.458921981500026, 31.249324967071068 ], [ 121.458942498678297, 31.249340329716585 ], [ 121.458965788407127, 31.249352427793827 ], [ 121.458991154991054, 31.249360899916507 ], [ 121.459017840695296, 31.249365493010558 ], [ 121.459045048380702, 31.24936606987383 ], [ 121.459071965315559, 31.249362613274592 ], [ 121.459097787453402, 31.249355226466303 ], [ 121.459326806263959, 31.249272462044605 ], [ 121.459557663575211, 31.249193558113785 ], [ 121.459790271236741, 31.249118544801107 ], [ 121.460024540430553, 31.249047450748247 ], [ 121.460323402179142, 31.248959565786496 ], [ 121.460507273893995, 31.248908722972786 ], [ 121.460693198338845, 31.248863726591328 ], [ 121.460880923762815, 31.248824637568887 ], [ 121.46128023150311, 31.248748144556746 ], [ 121.461441399366151, 31.248718409631625 ], [ 121.461603090712657, 31.248690852329712 ], [ 121.461833991059748, 31.248653115276902 ], [ 121.461884050727761, 31.248645256274589 ], [ 121.462046830114701, 31.24862410466762 ], [ 121.462210583282797, 31.248609520964116 ], [ 121.462374951412471, 31.248601537120297 ], [ 121.462539574337001, 31.2486001706305 ], [ 121.462704091331489, 31.248605424489 ], [ 121.462868141903115, 31.248617287183464 ], [ 121.463031366580807, 31.248635732720075 ], [ 121.46319340770269, 31.248660720680515 ], [ 121.463353910199586, 31.248692196310568 ], [ 121.463512522372795, 31.248730090639956 ], [ 121.463668896664672, 31.248774320633519 ], [ 121.463822690419903, 31.248824789373078 ], [ 121.463973566636156, 31.248881386269701 ], [ 121.465474410857539, 31.249480687282066 ], [ 121.465542548453229, 31.24926980605041 ], [ 121.465649629754708, 31.248938394757797 ], [ 121.465743865552426, 31.248646739456266 ], [ 121.465535354123929, 31.248525877355725 ], [ 121.465478998146992, 31.24847592340106 ], [ 121.465289451693238, 31.248307908331501 ], [ 121.465084019892615, 31.248171506511504 ], [ 121.463084505591951, 31.246843835093014 ], [ 121.462987659008135, 31.246783239233338 ], [ 121.462886947179456, 31.246727488039042 ], [ 121.462782698038808, 31.246676763040941 ], [ 121.462675251035193, 31.246631229403825 ], [ 121.462564956028515, 31.246591035388761 ], [ 121.46245217215052, 31.246556311870425 ], [ 121.462337266635672, 31.246527171911026 ], [ 121.462220613625433, 31.246503710392211 ], [ 121.462102592950316, 31.246486003706174 ], [ 121.461983588893318, 31.246474109506966 ], [ 121.461861047271242, 31.246467991987203 ], [ 121.461738298970332, 31.24646803745976 ], [ 121.461615763534155, 31.2464742457692 ], [ 121.461339070311993, 31.246498528542659 ], [ 121.461063252060342, 31.246529294249974 ], [ 121.460788514501985, 31.246566519944171 ], [ 121.460515062554464, 31.246610177859903 ], [ 121.460243100177081, 31.24666023543422 ], [ 121.459972830219144, 31.246716655330907 ], [ 121.459751262471897, 31.246767964687123 ], [ 121.459531096498438, 31.246823550261542 ] ] ], [ [ [ 121.46164585772506, 31.248852850117427 ], [ 121.461637160901546, 31.248870013628544 ], [ 121.461632036554889, 31.24888820788194 ], [ 121.461630637982282, 31.24890688859546 ], [ 121.461633007024261, 31.248925496934209 ], [ 121.461639072812972, 31.248943476228028 ], [ 121.461648653891672, 31.248960288624389 ], [ 121.461661463642969, 31.24897543117839 ], [ 121.461840966328467, 31.249153023146619 ], [ 121.461934768591149, 31.249241643849651 ], [ 121.462033195446963, 31.24932648182028 ], [ 121.462136040460223, 31.249407359113171 ], [ 121.462243087926623, 31.249484106090044 ], [ 121.462354113325702, 31.249556561775396 ], [ 121.462443914355973, 31.249610339575884 ], [ 121.462535907758905, 31.249661308994135 ], [ 121.462629974598997, 31.249709404131529 ], [ 121.46309069455944, 31.24993542746779 ], [ 121.463251474900815, 31.249712042646063 ], [ 121.463372526737928, 31.249679045327152 ], [ 121.463442731623786, 31.249720836497442 ], [ 121.463628548787881, 31.249830362530371 ], [ 121.463723566536032, 31.249886520757368 ], [ 121.463822049728833, 31.249944728144278 ], [ 121.46386529553395, 31.249970286696648 ], [ 121.463884755366493, 31.249981788356077 ], [ 121.463884877141354, 31.249981860512037 ], [ 121.463922529411022, 31.249951531100184 ], [ 121.463958361321403, 31.249920459359647 ], [ 121.46401552566887, 31.249875659241958 ], [ 121.464035093456403, 31.249860322721911 ], [ 121.464110267759878, 31.249794761007713 ], [ 121.464282632180471, 31.249638802918913 ], [ 121.46406418907695, 31.249558225685689 ], [ 121.463965000999593, 31.24952163726639 ], [ 121.463849062617371, 31.249478871156171 ], [ 121.463772692831753, 31.249450699801013 ], [ 121.463720562616231, 31.249431470590309 ], [ 121.463647292919134, 31.249404442865657 ], [ 121.463556412098157, 31.249370919048367 ], [ 121.463455832400825, 31.249333817009155 ], [ 121.463447495020688, 31.249330949595748 ], [ 121.463397646064237, 31.249313802831335 ], [ 121.463355108862174, 31.249299171692044 ], [ 121.463313746379754, 31.24928494462964 ], [ 121.463278392903476, 31.249271774773732 ], [ 121.463247343576072, 31.249259268844693 ], [ 121.463214072981046, 31.249244496338353 ], [ 121.463175962925007, 31.249227574420861 ], [ 121.463122855776689, 31.249203994118954 ], [ 121.463049535223433, 31.249171438239223 ], [ 121.463003179241809, 31.249150856053749 ], [ 121.462943356771248, 31.249124293744046 ], [ 121.46287477502041, 31.249093842076761 ], [ 121.462837219365753, 31.249077167200422 ], [ 121.462820418855244, 31.249068304461357 ], [ 121.462785725037534, 31.249049929563817 ], [ 121.462711971467556, 31.249010645220757 ], [ 121.462671592156639, 31.248989135956155 ], [ 121.462583662635609, 31.248942298444312 ], [ 121.462539220789139, 31.248918624407867 ], [ 121.462478529649431, 31.248886296835195 ], [ 121.462459024010855, 31.248875004202645 ], [ 121.462372984609473, 31.248822513436803 ], [ 121.462348157796839, 31.248807366724698 ], [ 121.462293918849483, 31.248774277189561 ], [ 121.462222534847101, 31.248739402997789 ], [ 121.462099103281858, 31.248747773840034 ], [ 121.461976214963485, 31.248760767761432 ], [ 121.461854104366196, 31.248778359969283 ], [ 121.461733040254742, 31.248798146474869 ], [ 121.46171661919638, 31.248801829914157 ], [ 121.461700923447651, 31.248807376241277 ], [ 121.461686237883541, 31.248814684791412 ], [ 121.461672829044531, 31.248823622915793 ], [ 121.46165786685772, 31.248837230795715 ], [ 121.46164585772506, 31.248852850117427 ] ] ], [ [ [ 121.461661565759414, 31.249419897232308 ], [ 121.461674525910809, 31.249391756100593 ], [ 121.461681827436934, 31.249362149532086 ], [ 121.461683264813615, 31.249331910917697 ], [ 121.46167879758589, 31.249301891438812 ], [ 121.461668551506406, 31.249272936107705 ], [ 121.461652814994821, 31.249245859981404 ], [ 121.461632031018638, 31.249221425218959 ], [ 121.461477015701604, 31.249068059367559 ], [ 121.461438106542843, 31.249034330464326 ], [ 121.461394377970208, 31.249005284366039 ], [ 121.461346587648904, 31.248981424338638 ], [ 121.461295563617739, 31.248963163791512 ], [ 121.461242189942524, 31.248950819114764 ], [ 121.46118739139871, 31.248944604197472 ], [ 121.461132117448827, 31.248944626721919 ], [ 121.461077325792118, 31.248950886297813 ], [ 121.461023965771773, 31.248963274469119 ], [ 121.460573832519074, 31.249095645597251 ], [ 121.460194961815418, 31.249207058603211 ], [ 121.459910415826997, 31.24929337912776 ], [ 121.459627863258447, 31.249384405183442 ], [ 121.459347409516866, 31.249480102814413 ], [ 121.459069159227326, 31.249580436322056 ], [ 121.45903256061753, 31.249597045566261 ], [ 121.458999456591158, 31.249618391628669 ], [ 121.458970670515967, 31.249643943588737 ], [ 121.458946918365143, 31.249673065916209 ], [ 121.458928790909255, 31.249705034277749 ], [ 121.458916739022456, 31.249739053552407 ], [ 121.458911062467621, 31.249774277607852 ], [ 121.458900036041612, 31.249935623331652 ], [ 121.458898790784971, 31.249993604950554 ], [ 121.458902969496989, 31.250051485209095 ], [ 121.458912545193783, 31.250108890210161 ], [ 121.458934452134997, 31.25021084901184 ], [ 121.458943202448893, 31.250238789451778 ], [ 121.458957040091803, 31.250265168474957 ], [ 121.458975609030105, 31.250289307358422 ], [ 121.458998431494621, 31.250310585016816 ], [ 121.459024920273151, 31.250328453982704 ], [ 121.459054393819216, 31.250342454492976 ], [ 121.459086093788073, 31.250352226318494 ], [ 121.459119204548827, 31.250357518032992 ], [ 121.459152874170726, 31.250358193482015 ], [ 121.459277198282081, 31.25035210602675 ], [ 121.459423431064664, 31.250341902247076 ], [ 121.459568921802344, 31.250325657628874 ], [ 121.459713332586745, 31.250303409900937 ], [ 121.459856328018304, 31.250275210734536 ], [ 121.460561553466235, 31.250120677450941 ], [ 121.460667114062389, 31.25009389179527 ], [ 121.460770045271886, 31.25006039416602 ], [ 121.460869769778199, 31.250020372444251 ], [ 121.460965728252646, 31.24997405110301 ], [ 121.46105738249156, 31.249921689948167 ], [ 121.461144218435223, 31.249863582661099 ], [ 121.461225749051167, 31.249800055151297 ], [ 121.461385160242898, 31.249666161090655 ], [ 121.461620277832566, 31.24946867816832 ], [ 121.461643311791661, 31.249445780786075 ], [ 121.461661565759414, 31.249419897232308 ] ] ] ] } },
{ "type": "Feature", "properties": { "site_block_id": "block_se", "unit_count": 6, "block_area_m2": 151368.73, "P_walk_total": 0.50962149667746104, "P_walk_life_service": 0.1986578404910081, "P_walk_public_activity": 0.19964588879234912, "P_walk_community_living": 0.076081952248109666, "P_walk_productive_mix": 0.035235815145994193, "P_slow_total": 0.41230968851802452, "P_slow_life_service": 0.12029758915496581, "P_slow_public_activity": 0.1402412368825019, "P_slow_community_living": 0.095954343204989634, "P_slow_productive_mix": 0.055816519275567099, "P_fast_total": 0.078068814804514303, "P_fast_life_service": 0.015251990393008933, "P_fast_public_activity": 0.02938196711964498, "P_fast_community_living": 0.0071278708850706909, "P_fast_productive_mix": 0.026306986406789693, "gap_life_service": 0.10795316988027184, "gap_public_activity": 0.1255215797153407, "gap_community_living": 0.083866050191762562, "gap_productive_mix": 0.091197458941086273 }, "geometry": { "type": "Polygon", "coordinates": [ [ [ 121.45500735527061, 31.249670656592947 ], [ 121.455007355277075, 31.249670606085949 ], [ 121.455007286583864, 31.249665960336859 ], [ 121.455007275068908, 31.249665703291203 ], [ 121.455007270878454, 31.249665634745575 ], [ 121.455006847331774, 31.24966115130696 ], [ 121.455006800139827, 31.249660767088507 ], [ 121.455006785455865, 31.249660663367376 ], [ 121.455005933629934, 31.249655870532962 ], [ 121.455005901103277, 31.249655736145183 ], [ 121.45500467763604, 31.249651036172491 ], [ 121.455004634611029, 31.249650904489435 ], [ 121.455003037404182, 31.249646287457274 ], [ 121.455002992276917, 31.249646176517988 ], [ 121.455001022379733, 31.24964164693597 ], [ 121.455000976200367, 31.249641554034802 ], [ 121.45499864200832, 31.249637135353389 ], [ 121.454998588480009, 31.249637045157264 ], [ 121.454995907834885, 31.249632775258387 ], [ 121.454995857453454, 31.249632704904581 ], [ 121.454992830354968, 31.249628586493959 ], [ 121.454992615179492, 31.249628323115676 ], [ 121.454989426362829, 31.249624588903711 ], [ 121.454989285708805, 31.249624438271312 ], [ 121.454985711603101, 31.249620801429216 ], [ 121.454985660168973, 31.249620753623077 ], [ 121.454981755354638, 31.249617286308855 ], [ 121.454981701820586, 31.24961724120827 ], [ 121.454977588060402, 31.249614053466509 ], [ 121.454977416958982, 31.249613928084731 ], [ 121.45497735712577, 31.249613885689254 ], [ 121.454973177181287, 31.249611065920714 ], [ 121.454972878012768, 31.249610873785429 ], [ 121.454972803482832, 31.249610827780913 ], [ 121.454968105976008, 31.249608093644792 ], [ 121.454967991555378, 31.249608034107855 ], [ 121.454963122892593, 31.249605602095475 ], [ 121.454962994824228, 31.249605545262966 ], [ 121.454957952906554, 31.249603409962639 ], [ 121.454957805941575, 31.249603354932173 ], [ 121.454952620162004, 31.249601527169595 ], [ 121.454952485792745, 31.249601486570874 ], [ 121.454947150902584, 31.249599963639827 ], [ 121.454947027029846, 31.249599934766948 ], [ 121.454941568222964, 31.249598726590779 ], [ 121.45494143700094, 31.249598703128655 ], [ 121.454935899417308, 31.249597820534586 ], [ 121.454935454308668, 31.249597768181541 ], [ 121.454930171779679, 31.249597250885319 ], [ 121.454929873638577, 31.249597233720706 ], [ 121.454924412604484, 31.249597020351249 ], [ 121.454924263532831, 31.24959702033707 ], [ 121.454918649186439, 31.24959712893499 ], [ 121.454172814612122, 31.249633356917077 ], [ 121.45408537087259, 31.24963760418898 ], [ 121.454041116244213, 31.249639595618429 ], [ 121.454040224958334, 31.24963963160409 ], [ 121.453996843811083, 31.249641271362051 ], [ 121.453995060191076, 31.249641331607808 ], [ 121.453952556722868, 31.249642632322036 ], [ 121.453949880770594, 31.249642703298619 ], [ 121.453908258129502, 31.249643678498746 ], [ 121.453904689846624, 31.249643747578752 ], [ 121.453863951180864, 31.249644408990481 ], [ 121.453859490569201, 31.249644463546577 ], [ 121.453819639026577, 31.249644825601489 ], [ 121.453814285038277, 31.249644852104236 ], [ 121.453775323767104, 31.249644925626182 ], [ 121.453769077453572, 31.249644912350266 ], [ 121.45373100960164, 31.249644711770756 ], [ 121.453723870964936, 31.249644645186855 ], [ 121.453686698630634, 31.249644181329696 ], [ 121.453678669772088, 31.2496440497126 ], [ 121.453642394003737, 31.249643336107141 ], [ 121.453633474925326, 31.249643125927559 ], [ 121.453598098870316, 31.249642178809175 ], [ 121.453598098783544, 31.249642179708413 ], [ 121.453588290623813, 31.249641877439863 ], [ 121.453561766482167, 31.2496409889661 ], [ 121.453552442199623, 31.249640648862968 ], [ 121.453543120017784, 31.249640301544073 ], [ 121.453539971682403, 31.249640180355183 ], [ 121.453534280744393, 31.249639954275619 ], [ 121.453525443572488, 31.249639594380003 ], [ 121.453497967306788, 31.249638399142636 ], [ 121.453496393665731, 31.249638326822861 ], [ 121.453489132242566, 31.249637985130096 ], [ 121.453452833540595, 31.249636173843275 ], [ 121.453280690639275, 31.24962702987597 ], [ 121.452814724585323, 31.249602279994509 ], [ 121.45280705063054, 31.249601708230028 ], [ 121.452806900511106, 31.249601694684632 ], [ 121.452806837524037, 31.249601688364251 ], [ 121.452799418716339, 31.249600815389517 ], [ 121.452799119529374, 31.24960077477018 ], [ 121.452799009302765, 31.249600758523492 ], [ 121.45279184563951, 31.249599602376779 ], [ 121.452791403685538, 31.249599522959333 ], [ 121.452791260916641, 31.249599496787987 ], [ 121.452784352395426, 31.249598073703716 ], [ 121.452783768726221, 31.249597942861509 ], [ 121.452783566121823, 31.24959789593953 ], [ 121.452776232497342, 31.249596038988273 ], [ 121.45277604249182, 31.249595983950485 ], [ 121.452768818094214, 31.249593814047962 ], [ 121.452768593448425, 31.249593738262348 ], [ 121.452761542312771, 31.249591274355826 ], [ 121.452761299823237, 31.249591179628087 ], [ 121.452754422998808, 31.249588425325381 ], [ 121.452754212003185, 31.249588331503066 ], [ 121.452747477997804, 31.249585275075827 ], [ 121.452747272252395, 31.249585173136882 ], [ 121.452740724105325, 31.249581831726282 ], [ 121.452740520461333, 31.249581718062718 ], [ 121.452734179166981, 31.249578102494045 ], [ 121.452734029059528, 31.249578010482335 ], [ 121.452727857878344, 31.249574098203738 ], [ 121.452727720368614, 31.249574005291507 ], [ 121.452721777034824, 31.249569827876371 ], [ 121.452721322523303, 31.249569486001199 ], [ 121.452715950282112, 31.249565303238359 ], [ 121.452715625935014, 31.249565032628727 ], [ 121.452710395465417, 31.249560533310841 ], [ 121.452710189733423, 31.249560343886497 ], [ 121.452705124130389, 31.24955553252574 ], [ 121.452705026514082, 31.249555433304575 ], [ 121.452700147823109, 31.249550311707281 ], [ 121.452394651343326, 31.249675339608263 ], [ 121.451815007044672, 31.249901061607126 ], [ 121.45179433433907, 31.249861914410591 ], [ 121.451222856736067, 31.250089579226181 ], [ 121.449723416642925, 31.250675085720349 ], [ 121.449385175127688, 31.250800666603435 ], [ 121.449146513837519, 31.250893746687044 ], [ 121.44917844621142, 31.250953927529832 ], [ 121.448949746884153, 31.251037129107939 ], [ 121.448421203878311, 31.251241418084867 ], [ 121.448375079643469, 31.251259658817705 ], [ 121.44803586194115, 31.251448753046557 ], [ 121.448168030558321, 31.251698995063737 ], [ 121.448172320534979, 31.251707513339468 ], [ 121.44817253566103, 31.251707952601624 ], [ 121.448176576754761, 31.251716848740983 ], [ 121.448176661751745, 31.251717042664289 ], [ 121.448180309146792, 31.251726016309771 ], [ 121.448180403583365, 31.251726254428078 ], [ 121.448183675119438, 31.251735341658765 ], [ 121.448183756958699, 31.251735577069478 ], [ 121.448186646339963, 31.251744761650073 ], [ 121.448186715581173, 31.251744997960827 ], [ 121.448186913859615, 31.251745690657323 ], [ 121.448189259524241, 31.251754416085269 ], [ 121.448189280503613, 31.251754501769863 ], [ 121.44818933819748, 31.251754734471273 ], [ 121.448191395083796, 31.251763845874294 ], [ 121.448191444378722, 31.25176408037829 ], [ 121.448193082421184, 31.251773013141293 ], [ 121.448193201959995, 31.251773720256768 ], [ 121.448194530192197, 31.251783215766228 ], [ 121.448194554300002, 31.251783406974813 ], [ 121.448195476258434, 31.251792861838421 ], [ 121.448195500350749, 31.251793130611322 ], [ 121.448196027557643, 31.251802673804011 ], [ 121.44819603696557, 31.251802876735251 ], [ 121.44819616521734, 31.251812529000322 ], [ 121.448196164146822, 31.251812632719879 ], [ 121.448196157752832, 31.251813108927685 ], [ 121.448195885046204, 31.251822386840807 ], [ 121.448195341726802, 31.251830451644427 ], [ 121.448194518107385, 31.251838499270459 ], [ 121.448230460286183, 31.251820860485473 ], [ 121.448333215971743, 31.252012263664682 ], [ 121.448969397436315, 31.253197264255316 ], [ 121.448970496227034, 31.253199311746979 ], [ 121.448947096706434, 31.253208345579971 ], [ 121.448946074560155, 31.253206268335944 ], [ 121.44885674723983, 31.253242128247305 ], [ 121.448858212289451, 31.253244869360998 ], [ 121.448816950369533, 31.253261338683867 ], [ 121.448814712922214, 31.253257125542028 ], [ 121.448617160683355, 31.253335177416535 ], [ 121.448426261555525, 31.253410269885219 ], [ 121.448330596739169, 31.253447419140908 ], [ 121.448178737771443, 31.253506388985731 ], [ 121.448130905275676, 31.253524963981018 ], [ 121.448083072761321, 31.253543538056565 ], [ 121.448035219240111, 31.253562068819434 ], [ 121.447939497447635, 31.253599111349214 ], [ 121.447748055738003, 31.253673197096457 ], [ 121.447508752655892, 31.253765803201674 ], [ 121.447365170372478, 31.253821366830593 ], [ 121.447221587920964, 31.253876930298578 ], [ 121.447093749926481, 31.25392728752966 ], [ 121.447115664840496, 31.254059823940942 ], [ 121.450073263907171, 31.252908693249697 ], [ 121.450074075154035, 31.252910234722151 ], [ 121.450749481130046, 31.252650982759747 ], [ 121.45143456767515, 31.252388009843301 ], [ 121.454935059445503, 31.251044254365027 ], [ 121.454953367335236, 31.250871405829916 ], [ 121.45504929608974, 31.249965758538409 ], [ 121.454975817292151, 31.249972660247185 ], [ 121.4549825387315, 31.249910659928275 ], [ 121.455007039698287, 31.249675601740186 ], [ 121.455007350005232, 31.24967078466381 ], [ 121.45500735527061, 31.249670656592947 ] ], [ [ 121.453264428667993, 31.249630850420708 ], [ 121.453264024475729, 31.249630980252249 ], [ 121.45326442866812, 31.249630849518798 ], [ 121.453269470032481, 31.249629335754285 ], [ 121.453264428667993, 31.249630850420708 ] ], [ [ 121.453258826631412, 31.249632900761441 ], [ 121.45325872164527, 31.249632942238019 ], [ 121.453253709572479, 31.249635156789957 ], [ 121.453253588837484, 31.249635210891569 ], [ 121.453253709572607, 31.24963515588804 ], [ 121.453258721645398, 31.249632941336088 ], [ 121.45325882663154, 31.24963289985952 ], [ 121.453264024475729, 31.249630980252249 ], [ 121.453258826631412, 31.249632900761441 ] ], [ [ 121.453248651248572, 31.249637779000381 ], [ 121.45324407371308, 31.249640538353031 ], [ 121.4532486512487, 31.249637778098478 ], [ 121.453248787733756, 31.249637703254614 ], [ 121.453248651248572, 31.249637779000381 ] ], [ [ 121.453235331068058, 31.249647047400444 ], [ 121.453235223975398, 31.249647135776129 ], [ 121.453235331068186, 31.249647046498534 ], [ 121.453239445720072, 31.249643754066891 ], [ 121.453235331068058, 31.249647047400444 ] ], [ [ 121.453231001103703, 31.24965104239719 ], [ 121.453227690567701, 31.249654546864562 ], [ 121.453227638068924, 31.249654606385004 ], [ 121.453227465872473, 31.249654804786747 ], [ 121.453224358955822, 31.249658594279893 ], [ 121.453227465872629, 31.249654803884841 ], [ 121.453227638069052, 31.249654605483101 ], [ 121.453227690567829, 31.24965454596266 ], [ 121.453231001103831, 31.24965104149528 ], [ 121.453231283541669, 31.249650759227745 ], [ 121.453231001103703, 31.24965104239719 ] ], [ [ 121.45322423190531, 31.249658762021564 ], [ 121.453221313902091, 31.249662896064976 ], [ 121.453224231905438, 31.249658761119633 ], [ 121.453224310655713, 31.249658657408425 ], [ 121.45322423190531, 31.249658762021564 ] ], [ [ 121.453216484586463, 31.249671626038946 ], [ 121.453216375373543, 31.249671855112467 ], [ 121.453216484586591, 31.249671625137029 ], [ 121.453218665657531, 31.249667302514588 ], [ 121.453216484586463, 31.249671626038946 ] ], [ [ 121.45321459007728, 31.249676178679611 ], [ 121.453214454601067, 31.249676532213982 ], [ 121.453212945352107, 31.249681198537107 ], [ 121.453214454601195, 31.24967653131208 ], [ 121.453214590077437, 31.249676177777701 ], [ 121.453216375373543, 31.249671855112467 ], [ 121.45321459007728, 31.249676178679611 ] ], [ [ 121.453211756247683, 31.249686169740727 ], [ 121.453211010188966, 31.249690938964285 ], [ 121.453210990221322, 31.249691085071678 ], [ 121.453210627336873, 31.249695875982592 ], [ 121.45321099022145, 31.249691084169775 ], [ 121.453211010189094, 31.249690938062383 ], [ 121.453211756247839, 31.249686168838824 ], [ 121.453211783561841, 31.249686038064702 ], [ 121.453211756247683, 31.249686169740727 ] ], [ [ 121.453210619965247, 31.249696032914283 ], [ 121.453210641304395, 31.249700849120291 ], [ 121.453210618915435, 31.249696032914159 ], [ 121.453210627336873, 31.249695875982592 ], [ 121.453210619965247, 31.249696032914283 ] ], [ [ 121.453393895178223, 31.250030764350864 ], [ 121.453250213285131, 31.250107340768167 ], [ 121.453250212887866, 31.250107340078017 ], [ 121.453393894760197, 31.250030763671813 ], [ 121.453393895178223, 31.250030764350864 ] ], [ [ 121.453669671252868, 31.250070540735255 ], [ 121.45367083656113, 31.250070371298069 ], [ 121.453676674650538, 31.250069522309364 ], [ 121.45367900946637, 31.25006918253337 ], [ 121.453681343231466, 31.25006884907063 ], [ 121.453688351875485, 31.250067847780922 ], [ 121.453660336185081, 31.250071923288381 ], [ 121.453669671252868, 31.250070540735255 ] ], [ [ 121.453652388912772, 31.250029303564261 ], [ 121.453641008686546, 31.249957852999465 ], [ 121.453631111273651, 31.24992734031887 ], [ 121.453572241495252, 31.249816583085842 ], [ 121.45357224183698, 31.249816582826625 ], [ 121.453631111273779, 31.249927339416953 ], [ 121.453641008686674, 31.249957852097562 ], [ 121.4536523889129, 31.250029302662355 ], [ 121.453660336185081, 31.250071923288381 ], [ 121.453652388912772, 31.250029303564261 ] ] ] } },
{ "type": "Feature", "properties": { "site_block_id": "block_sw", "unit_count": 11, "block_area_m2": 102209.92, "P_walk_total": 0.50050244892799767, "P_walk_life_service": 0.2162747682542159, "P_walk_public_activity": 0.17389289020965909, "P_walk_community_living": 0.082947509788677251, "P_walk_productive_mix": 0.027387280675445436, "P_slow_total": 0.40822172808357798, "P_slow_life_service": 0.1311509973860559, "P_slow_public_activity": 0.12266813140464759, "P_slow_community_living": 0.10812057965608937, "P_slow_productive_mix": 0.046282019636785139, "P_fast_total": 0.091275822988424432, "P_fast_life_service": 0.020719186620052968, "P_fast_public_activity": 0.032481143980087245, "P_fast_community_living": 0.010146556569353217, "P_fast_productive_mix": 0.027928935818930984, "gap_life_service": 0.11215014917534082, "gap_public_activity": 0.11637730149598473, "gap_community_living": 0.082894618268458314, "gap_productive_mix": 0.076645072544331505 }, "geometry": { "type": "MultiPolygon", "coordinates": [ [ [ [ 121.463628548787881, 31.249830362530371 ], [ 121.463442731623786, 31.249720836497442 ], [ 121.463372526737928, 31.249679045327152 ], [ 121.463251474900815, 31.249712042646063 ], [ 121.46309069455944, 31.24993542746779 ], [ 121.463673375818558, 31.25022127893088 ], [ 121.46369811198845, 31.250233413901331 ], [ 121.463852438384137, 31.250305396845214 ], [ 121.464010215885267, 31.250371628068383 ], [ 121.464171154223493, 31.250431985720422 ], [ 121.464334957313611, 31.250486358756763 ], [ 121.464501323798189, 31.250534647142977 ], [ 121.464669947602189, 31.250576762038914 ], [ 121.464837934310722, 31.250615381355971 ], [ 121.46488271992979, 31.250622172962565 ], [ 121.464928197870748, 31.250622220508472 ], [ 121.464973002597418, 31.250615522565997 ], [ 121.465015788788179, 31.250602280249861 ], [ 121.465055271731828, 31.250582891178173 ], [ 121.465090265903513, 31.250557937533209 ], [ 121.46511972056183, 31.250528168580402 ], [ 121.465142751298927, 31.250494478170211 ], [ 121.46515866659557, 31.25045787789885 ], [ 121.465334675451217, 31.249913154347091 ], [ 121.465344088604724, 31.249871694131347 ], [ 121.465345875932329, 31.249829480482184 ], [ 121.4653399938815, 31.249787542276444 ], [ 121.465326585825693, 31.249746901676264 ], [ 121.465305978569205, 31.249708549215892 ], [ 121.465278674380826, 31.249673419659594 ], [ 121.465245338751544, 31.24964236921878 ], [ 121.4652067841741, 31.249616154683999 ], [ 121.465163950339857, 31.249595414979968 ], [ 121.463578540345765, 31.248962342302466 ], [ 121.463450675275297, 31.248914532851412 ], [ 121.463320228084882, 31.248872184077054 ], [ 121.463187514499126, 31.24883539847627 ], [ 121.463052855726971, 31.248804265081287 ], [ 121.462916577684155, 31.248778859244194 ], [ 121.46277901020467, 31.248759242454607 ], [ 121.462640486242577, 31.24874546219095 ], [ 121.462501341066442, 31.248737551805501 ], [ 121.462361911447942, 31.248735530443685 ], [ 121.462222534847101, 31.248739402997789 ], [ 121.462293918849483, 31.248774277189561 ], [ 121.462348157796839, 31.248807366724698 ], [ 121.462372984609473, 31.248822513436803 ], [ 121.462459024010855, 31.248875004202645 ], [ 121.462478529649431, 31.248886296835195 ], [ 121.462539220789139, 31.248918624407867 ], [ 121.462583662635609, 31.248942298444312 ], [ 121.462671592156639, 31.248989135956155 ], [ 121.462711971467556, 31.249010645220757 ], [ 121.462785725037534, 31.249049929563817 ], [ 121.462820418855244, 31.249068304461357 ], [ 121.462837219365753, 31.249077167200422 ], [ 121.46287477502041, 31.249093842076761 ], [ 121.462943356771248, 31.249124293744046 ], [ 121.463003179241809, 31.249150856053749 ], [ 121.463049535223433, 31.249171438239223 ], [ 121.463122855776689, 31.249203994118954 ], [ 121.463175962925007, 31.249227574420861 ], [ 121.463214072981046, 31.249244496338353 ], [ 121.463247343576072, 31.249259268844693 ], [ 121.463278392903476, 31.249271774773732 ], [ 121.463313746379754, 31.24928494462964 ], [ 121.463355108862174, 31.249299171692044 ], [ 121.463397646064237, 31.249313802831335 ], [ 121.463447495020688, 31.249330949595748 ], [ 121.463455832400825, 31.249333817009155 ], [ 121.463556412098157, 31.249370919048367 ], [ 121.463647292919134, 31.249404442865657 ], [ 121.463720562616231, 31.249431470590309 ], [ 121.463772692831753, 31.249450699801013 ], [ 121.463849062617371, 31.249478871156171 ], [ 121.463965000999593, 31.24952163726639 ], [ 121.46406418907695, 31.249558225685689 ], [ 121.464282632180471, 31.249638802918913 ], [ 121.464110267759878, 31.249794761007713 ], [ 121.464035093456403, 31.249860322721911 ], [ 121.46401552566887, 31.249875659241958 ], [ 121.463958361321403, 31.249920459359647 ], [ 121.463922529411022, 31.249951531100184 ], [ 121.463884877141354, 31.249981860512037 ], [ 121.463884251440518, 31.249982364664337 ], [ 121.463884755366493, 31.249981788356077 ], [ 121.46386529553395, 31.249970286696648 ], [ 121.463822049728833, 31.249944728144278 ], [ 121.463723566536032, 31.249886520757368 ], [ 121.463628548787881, 31.249830362530371 ] ] ], [ [ [ 121.462231645514535, 31.249723519273299 ], [ 121.462159150280229, 31.249703135749424 ], [ 121.46208458617933, 31.249689318231756 ], [ 121.462008756590933, 31.249682215594834 ], [ 121.461932478528169, 31.249681904364842 ], [ 121.461856573835817, 31.249688387895102 ], [ 121.461781860336146, 31.249701596329846 ], [ 121.461709143017828, 31.249721387357045 ], [ 121.461639205363326, 31.249747547741364 ], [ 121.461572800907589, 31.249779795621752 ], [ 121.461510645119844, 31.249817783548007 ], [ 121.461453407694762, 31.249861102224159 ], [ 121.461372525674122, 31.249929036859417 ], [ 121.461306502157598, 31.249981594056635 ], [ 121.461237296362569, 31.250031037299379 ], [ 121.461165107016484, 31.250077224605818 ], [ 121.46109014141534, 31.250120023343783 ], [ 121.461000240397581, 31.250165145313964 ], [ 121.460907257969325, 31.25020539523377 ], [ 121.460811551412689, 31.250240618442614 ], [ 121.460713488478646, 31.250270679594927 ], [ 121.460613445973593, 31.250295463180276 ], [ 121.459908218261162, 31.250449996744099 ], [ 121.45975536095861, 31.250480140605642 ], [ 121.459600990690063, 31.250503922587306 ], [ 121.459445465987443, 31.250521287454291 ], [ 121.459289148064684, 31.250532194875806 ], [ 121.459184787001973, 31.250537305907056 ], [ 121.459158373339548, 31.250540544613575 ], [ 121.459132975265604, 31.25054756791339 ], [ 121.459109321917524, 31.250558174179083 ], [ 121.459088092344999, 31.250572058922053 ], [ 121.459069896015905, 31.250588823533789 ], [ 121.459055255319285, 31.250607986729214 ], [ 121.459044590568539, 31.25062899836346 ], [ 121.459038207934597, 31.250651255225538 ], [ 121.459036290656016, 31.250674118355484 ], [ 121.459038893778143, 31.250696931387864 ], [ 121.459103537820724, 31.250997790288267 ], [ 121.459170622251989, 31.251323159521654 ], [ 121.459232226687391, 31.251649327647247 ], [ 121.459238172314855, 31.251670675640153 ], [ 121.459248058213035, 31.251690916588029 ], [ 121.459261624129255, 31.251709517629898 ], [ 121.459278512930467, 31.251725989076494 ], [ 121.459298280005072, 31.251739897301785 ], [ 121.459320404967443, 31.251750876158798 ], [ 121.459344305357774, 31.251758636618739 ], [ 121.459369351975937, 31.251762974380139 ], [ 121.459394885445789, 31.251763775247273 ], [ 121.459420233574235, 31.251761018136566 ], [ 121.461414453272241, 31.251400932612516 ], [ 121.461494245419161, 31.251387579046039 ], [ 121.461574462035358, 31.251376257043955 ], [ 121.461705793551701, 31.251362194240514 ], [ 121.4618377604111, 31.251353574985295 ], [ 121.461970057098014, 31.251350419232669 ], [ 121.462102377333565, 31.251352734288481 ], [ 121.462234414784305, 31.251360514793205 ], [ 121.462365863771339, 31.251373742734224 ], [ 121.46248507454402, 31.251390546392553 ], [ 121.462603311535759, 31.251411830777229 ], [ 121.462720346681621, 31.251437554833259 ], [ 121.462835954234507, 31.251467668942169 ], [ 121.462969227375936, 31.251505148613923 ], [ 121.462995231024237, 31.251510412942196 ], [ 121.463021896284019, 31.251511825115504 ], [ 121.463048455664733, 31.251509344488127 ], [ 121.46307414472345, 31.251503042458449 ], [ 121.463098224067465, 31.251493100414084 ], [ 121.463120000636053, 31.251479804510893 ], [ 121.463138847648622, 31.251463537436713 ], [ 121.463154222645016, 31.251444767396606 ], [ 121.463165683098694, 31.251424034636582 ], [ 121.463172899153591, 31.251401935894048 ], [ 121.463367758577306, 31.250524690246802 ], [ 121.463373799033704, 31.250481525112004 ], [ 121.463372878754924, 31.250438056337927 ], [ 121.463365015206762, 31.250395108466158 ], [ 121.463350357558838, 31.250353496156396 ], [ 121.463329183854029, 31.25031400873365 ], [ 121.463301895734062, 31.250277395215964 ], [ 121.463269010820355, 31.25024435010679 ], [ 121.463231152895048, 31.250215500221625 ], [ 121.463189040068855, 31.250191392798346 ], [ 121.462525859215845, 31.249866046115017 ], [ 121.462445908331247, 31.249825513158108 ], [ 121.462367335729013, 31.24978303748517 ], [ 121.462301290792453, 31.249750249184356 ], [ 121.462231645514535, 31.249723519273299 ] ] ], [ [ [ 121.463770510913278, 31.250474238986943 ], [ 121.46374468761266, 31.250469421627006 ], [ 121.463718290261028, 31.250468381841113 ], [ 121.463692062198035, 31.25047114890927 ], [ 121.463666741996207, 31.250477644911829 ], [ 121.463643042663406, 31.250487686923758 ], [ 121.463621631564976, 31.250500992165581 ], [ 121.463603111631002, 31.250517185966331 ], [ 121.463588004378238, 31.250535812313977 ], [ 121.463576735224166, 31.250556346696534 ], [ 121.463569621507318, 31.250578210872028 ], [ 121.463375155493026, 31.251453693594371 ], [ 121.463371517310449, 31.251482414526244 ], [ 121.463373263009672, 31.251511266077785 ], [ 121.463380347814649, 31.251539508145271 ], [ 121.463392589989539, 31.251566416258807 ], [ 121.463409675500117, 31.251591300166805 ], [ 121.4634311660691, 31.251613521542346 ], [ 121.463456510418695, 31.251632510357975 ], [ 121.46348505841182, 31.251647779508197 ], [ 121.463516077729722, 31.251658937305063 ], [ 121.4638885188741, 31.251763675292171 ], [ 121.464366949306097, 31.251898218155773 ], [ 121.464578090780932, 31.251957593490332 ], [ 121.464578556900378, 31.251957724276629 ], [ 121.464595591198048, 31.251961117390938 ], [ 121.464613044773657, 31.251962034386104 ], [ 121.464630433409624, 31.251960449821755 ], [ 121.464647274689952, 31.251956407658767 ], [ 121.46466310138419, 31.251950020039551 ], [ 121.46467747440991, 31.251941464176888 ], [ 121.464689995014368, 31.251930977437475 ], [ 121.464700315837177, 31.251918850756514 ], [ 121.464708150547168, 31.251905420566274 ], [ 121.46471328178599, 31.251891059462313 ], [ 121.464766624215329, 31.251691330565638 ], [ 121.464811228742633, 31.251538171506002 ], [ 121.464858871138432, 31.251385689172107 ], [ 121.4649620936177, 31.251066237828113 ], [ 121.46496988593988, 31.251032074838669 ], [ 121.464971464102376, 31.250997288523649 ], [ 121.464966790491829, 31.250962708118003 ], [ 121.464955976524223, 31.250929157947329 ], [ 121.464939279988286, 31.250897437777716 ], [ 121.464917098899861, 31.250868303751076 ], [ 121.464888308306911, 31.250841112543924 ], [ 121.464854757755361, 31.250818301511334 ], [ 121.464817338898953, 31.250800476886997 ], [ 121.464777046195067, 31.250788112383837 ], [ 121.464615671938105, 31.250751013739304 ], [ 121.464447486362843, 31.250709181380863 ], [ 121.464281420457354, 31.250661506875073 ], [ 121.464117749052861, 31.250608069121828 ], [ 121.463954889283031, 31.25054823673193 ], [ 121.463795032988145, 31.250482698265852 ], [ 121.463770510913278, 31.250474238986943 ] ] ] ] } }
]
}
