{"type":"FeatureCollection","features":[{"id":"10","type":"Feature","properties":{"id":"B0KK2UAQBT","name":"蔚来能源汽车充电站(上海虹口法兰桥创意园)","address":"欧阳路196号","type":"汽车服务;换电站;换电站","typecode":11101,"pcode":310000,"pname":"上海市","citycode":21,"cityname":"上海市","adcode":310109,"adname":"虹口区","business_a":"曲阳","location":"121.487280,31.267170","tel":"4009996699","bigType":"汽车服务","midType":"换电站","smallType":"换电站","gcj_lng":121.48728,"gcj_lat":31.26717,"wgs84_loc":"121.4828,31.269135","wgs84Lng":"121.4828","wgs84Lat":"31.269135","__source_file__":"04-交通数据/2-交通设施/充换电站/上海市_换电站.shp"},"geometry":{"type":"Point","coordinates":[121.4828,31.269135]}}],"name":"上海市_换电站","crs":{"type":"name","properties":{"name":"urn:ogc:def:crs:OGC:1.3:CRS84"}}}