{"type":"FeatureCollection","features":[{"id":"36","type":"Feature","properties":{"id":"B0FFLE1NAT","name":"卿馨摩配","address":"人民路中国人寿大厦东侧","type":"摩托车服务;摩托车服务相关;摩托车服务相关","typecode":"040000","pcode":310000,"pname":"上海市","citycode":21,"cityname":"上海市","adcode":310101,"adname":"黄浦区","business_a":"淮海路","location":"121.483205,31.226186","tel":"[]","bigType":"摩托车服务","midType":"摩托车服务相关","smallType":"摩托车服务相关","gcj_lng":121.483205,"gcj_lat":31.226186,"wgs84_loc":"121.478714,31.228157","wgs84Lng":"121.478714","wgs84Lat":"31.228157","__source_file__":"02-POI&AOI/1-POI/25.05/SHP/分类/按类别/上海市2025-1343026.csv-摩托车服务.shp"},"geometry":{"type":"Point","coordinates":[121.478714,31.228157]}},{"id":"192","type":"Feature","properties":{"id":"B0FFLBV42I","name":"YAMAHA雅马哈发电机服务中心","address":"西安路93号","type":"摩托车服务;摩托车服务相关;摩托车服务相关","typecode":"040000","pcode":310000,"pname":"上海市","citycode":21,"cityname":"上海市","adcode":310109,"adname":"虹口区","business_a":"提篮桥","location":"121.494006,31.249793","tel":"18809888190","bigType":"摩托车服务","midType":"摩托车服务相关","smallType":"摩托车服务相关","gcj_lng":121.494006,"gcj_lat":31.249793,"wgs84_loc":"121.489551,31.251785","wgs84Lng":"121.489551","wgs84Lat":"31.251785","__source_file__":"02-POI&AOI/1-POI/25.05/SHP/分类/按类别/上海市2025-1343026.csv-摩托车服务.shp"},"geometry":{"type":"Point","coordinates":[121.489551,31.251785]}},{"id":"731","type":"Feature","properties":{"id":"B00156NZZP","name":"立扬车行","address":"通州路166-168附近","type":"摩托车服务;摩托车维修;摩托车维修","typecode":"040200","pcode":310000,"pname":"上海市","citycode":21,"cityname":"上海市","adcode":310109,"adname":"虹口区","business_a":"四平路","location":"121.497986,31.256351","tel":"[]","bigType":"摩托车服务","midType":"摩托车维修","smallType":"摩托车维修","gcj_lng":121.497986,"gcj_lat":31.256351,"wgs84_loc":"121.493545,31.258352","wgs84Lng":"121.493545","wgs84Lat":"31.258352","__source_file__":"02-POI&AOI/1-POI/25.05/SHP/分类/按类别/上海市2025-1343026.csv-摩托车服务.shp"},"geometry":{"type":"Point","coordinates":[121.493545,31.258352]}},{"id":"54","type":"Feature","properties":{"id":"B0FFFP35N4","name":"残疾车定点维修部","address":"宝源路227号","type":"摩托车服务;摩托车维修;摩托车维修","typecode":"040200","pcode":310000,"pname":"上海市","citycode":21,"cityname":"上海市","adcode":310106,"adname":"静安区","business_a":"宝山路","location":"121.480258,31.256642","tel":"13918368164","bigType":"摩托车服务","midType":"摩托车维修","smallType":"摩托车维修","gcj_lng":121.480258,"gcj_lat":31.256642,"wgs84_loc":"121.475755,31.258591","wgs84Lng":"121.475755","wgs84Lat":"31.258591","__source_file__":"02-POI&AOI/1-POI/25.05/SHP/分类/按类别/上海市2025-1343026.csv-摩托车服务.shp"},"geometry":{"type":"Point","coordinates":[121.475755,31.258591]}},{"id":"688","type":"Feature","properties":{"id":"B001559UEV","name":"洪发汽车服务部","address":"岳州路123","type":"摩托车服务;摩托车维修;摩托车维修","typecode":"040200","pcode":310000,"pname":"上海市","citycode":21,"cityname":"上海市","adcode":310109,"adname":"虹口区","business_a":"提篮桥","location":"121.499046,31.258127","tel":"[]","bigType":"摩托车服务","midType":"摩托车维修","smallType":"摩托车维修","gcj_lng":121.499046,"gcj_lat":31.258127,"wgs84_loc":"121.494609,31.260131","wgs84Lng":"121.494609","wgs84Lat":"31.260131","__source_file__":"02-POI&AOI/1-POI/25.05/SHP/分类/按类别/上海市2025-1343026.csv-摩托车服务.shp"},"geometry":{"type":"Point","coordinates":[121.494609,31.260131]}},{"id":"918","type":"Feature","properties":{"id":"B0KRKXC24E","name":"电动车修理","address":"虹叶花苑西南门旁(海伦路地铁站7号口步行340米)","type":"摩托车服务;摩托车维修;摩托车维修|生活服务;维修站点;维修站点","typecode":"040200|071200","pcode":310000,"pname":"上海市","citycode":21,"cityname":"上海市","adcode":310109,"adname":"虹口区","business_a":"宝山路","location":"121.486166,31.260804","tel":"[]","bigType":"摩托车服务","midType":"摩托车维修","smallType":"摩托车维修|生活服务","gcj_lng":121.486166,"gcj_lat":31.260804,"wgs84_loc":"121.481683,31.262768","wgs84Lng":"121.481683","wgs84Lat":"31.262768","__source_file__":"02-POI&AOI/1-POI/25.05/SHP/分类/按类别/上海市2025-1343026.csv-摩托车服务.shp"},"geometry":{"type":"Point","coordinates":[121.481683,31.262768]}},{"id":"191","type":"Feature","properties":{"id":"B0FFHGFLB7","name":"新大洲依莱达特约维修店","address":"宝安路溧阳华府","type":"摩托车服务;摩托车服务相关;摩托车服务相关","typecode":"040000","pcode":310000,"pname":"上海市","citycode":21,"cityname":"上海市","adcode":310109,"adname":"虹口区","business_a":"[]","location":"121.488278,31.262839","tel":"[]","bigType":"摩托车服务","midType":"摩托车服务相关","smallType":"摩托车服务相关","gcj_lng":121.488278,"gcj_lat":31.262839,"wgs84_loc":"121.483802,31.264808","wgs84Lng":"121.483802","wgs84Lat":"31.264808","__source_file__":"02-POI&AOI/1-POI/25.05/SHP/分类/按类别/上海市2025-1343026.csv-摩托车服务.shp"},"geometry":{"type":"Point","coordinates":[121.483802,31.264808]}},{"id":"994","type":"Feature","properties":{"id":"B0K39LCBLB","name":"摩擦LOVETOYS","address":"石门一路与威海路交叉口南100米","type":"摩托车服务;摩托车服务相关;摩托车服务相关","typecode":"040000","pcode":310000,"pname":"上海市","citycode":21,"cityname":"上海市","adcode":310106,"adname":"静安区","business_a":"淮海路","location":"121.463266,31.226134","tel":"[]","bigType":"摩托车服务","midType":"摩托车服务相关","smallType":"摩托车服务相关","gcj_lng":121.463266,"gcj_lat":31.226134,"wgs84_loc":"121.458711,31.228051","wgs84Lng":"121.458711","wgs84Lat":"31.228051","__source_file__":"02-POI&AOI/1-POI/25.05/SHP/分类/按类别/上海市2025-1343026.csv-摩托车服务.shp"},"geometry":{"type":"Point","coordinates":[121.458711,31.228051]}},{"id":"965","type":"Feature","properties":{"id":"B0FFLID51C","name":"雅马哈贸易(上海)有限公司","address":"新闸路1818号云和大厦2楼","type":"摩托车服务;摩托车销售;摩托车销售","typecode":"040100","pcode":310000,"pname":"上海市","citycode":21,"cityname":"上海市","adcode":310106,"adname":"静安区","business_a":"曹家渡","location":"121.442812,31.227777","tel":"[]","bigType":"摩托车服务","midType":"摩托车销售","smallType":"摩托车销售","gcj_lng":121.442812,"gcj_lat":31.227777,"wgs84_loc":"121.438205,31.22965","wgs84Lng":"121.438205","wgs84Lat":"31.22965","__source_file__":"02-POI&AOI/1-POI/25.05/SHP/分类/按类别/上海市2025-1343026.csv-摩托车服务.shp"},"geometry":{"type":"Point","coordinates":[121.438205,31.22965]}},{"id":"858","type":"Feature","properties":{"id":"B0LBLLIDIT","name":"AsahiHuiliPutuoDistriCT","address":"常德路与新会路交叉口北80米(长寿路地铁站出入口旁)","type":"摩托车服务;摩托车服务相关;摩托车服务相关","typecode":"040000","pcode":310000,"pname":"上海市","citycode":21,"cityname":"上海市","adcode":310107,"adname":"普陀区","business_a":"长寿路","location":"121.438775,31.240075","tel":"[]","bigType":"摩托车服务","midType":"摩托车服务相关","smallType":"摩托车服务相关","gcj_lng":121.438775,"gcj_lat":31.240075,"wgs84_loc":"121.434158,31.241935","wgs84Lng":"121.434158","wgs84Lat":"31.241935","__source_file__":"02-POI&AOI/1-POI/25.05/SHP/分类/按类别/上海市2025-1343026.csv-摩托车服务.shp"},"geometry":{"type":"Point","coordinates":[121.434158,31.241935]}},{"id":"59","type":"Feature","properties":{"id":"B0FFK6VUB7","name":"修车·配件","address":"天目中路与大统路交叉口东南约60米","type":"摩托车服务;摩托车维修;摩托车维修","typecode":"040200","pcode":310000,"pname":"上海市","citycode":21,"cityname":"上海市","adcode":310106,"adname":"静安区","business_a":"宝山路","location":"121.460749,31.245406","tel":"[]","bigType":"摩托车服务","midType":"摩托车维修","smallType":"摩托车维修","gcj_lng":121.460749,"gcj_lat":31.245406,"wgs84_loc":"121.456185,31.247308","wgs84Lng":"121.456185","wgs84Lat":"31.247308","__source_file__":"02-POI&AOI/1-POI/25.05/SHP/分类/按类别/上海市2025-1343026.csv-摩托车服务.shp"},"geometry":{"type":"Point","coordinates":[121.456185,31.247308]}},{"id":"857","type":"Feature","properties":{"id":"B0LBUUMVBK","name":"香港维修佬","address":"民立路与秣陵路交叉口南20米(上海火车站地铁站5号口旁)","type":"摩托车服务;摩托车服务相关;摩托车服务相关","typecode":"040000","pcode":310000,"pname":"上海市","citycode":21,"cityname":"上海市","adcode":310106,"adname":"静安区","business_a":"不夜城","location":"121.455865,31.246737","tel":"[]","bigType":"摩托车服务","midType":"摩托车服务相关","smallType":"摩托车服务相关","gcj_lng":121.455865,"gcj_lat":31.246737,"wgs84_loc":"121.451287,31.248627","wgs84Lng":"121.451287","wgs84Lat":"31.248627","__source_file__":"02-POI&AOI/1-POI/25.05/SHP/分类/按类别/上海市2025-1343026.csv-摩托车服务.shp"},"geometry":{"type":"Point","coordinates":[121.451287,31.248627]}},{"id":"172","type":"Feature","properties":{"id":"B0HGKRJQIG","name":"上海摩托之家俱乐部豪爵-铃木维修中心","address":"交通路2251号","type":"摩托车服务;摩托车维修;摩托车维修","typecode":"040200","pcode":310000,"pname":"上海市","citycode":21,"cityname":"上海市","adcode":310107,"adname":"普陀区","business_a":"大宁路","location":"121.433349,31.257477","tel":"13524968976","bigType":"摩托车服务","midType":"摩托车维修","smallType":"摩托车维修","gcj_lng":121.433349,"gcj_lat":31.257477,"wgs84_loc":"121.428721,31.259321","wgs84Lng":"121.428721","wgs84Lat":"31.259321","__source_file__":"02-POI&AOI/1-POI/25.05/SHP/分类/按类别/上海市2025-1343026.csv-摩托车服务.shp"},"geometry":{"type":"Point","coordinates":[121.428721,31.259321]}},{"id":"175","type":"Feature","properties":{"id":"B0IGYRJWN1","name":"摩托车修配行","address":"[]","type":"摩托车服务;摩托车维修;摩托车维修","typecode":"040200","pcode":310000,"pname":"上海市","citycode":21,"cityname":"上海市","adcode":310107,"adname":"普陀区","business_a":"大宁路","location":"121.433305,31.257737","tel":"[]","bigType":"摩托车服务","midType":"摩托车维修","smallType":"摩托车维修","gcj_lng":121.433305,"gcj_lat":31.257737,"wgs84_loc":"121.428677,31.259581","wgs84Lng":"121.428677","wgs84Lat":"31.259581","__source_file__":"02-POI&AOI/1-POI/25.05/SHP/分类/按类别/上海市2025-1343026.csv-摩托车服务.shp"},"geometry":{"type":"Point","coordinates":[121.428677,31.259581]}},{"id":"61","type":"Feature","properties":{"id":"B00151AAC6","name":"晓魏车行","address":"中山北路普善路400号","type":"摩托车服务;摩托车维修;摩托车维修","typecode":"040200","pcode":310000,"pname":"上海市","citycode":21,"cityname":"上海市","adcode":310106,"adname":"静安区","business_a":"和田","location":"121.454358,31.260250","tel":"021-56700582;13701926630","bigType":"摩托车服务","midType":"摩托车维修","smallType":"摩托车维修","gcj_lng":121.454358,"gcj_lat":31.26025,"wgs84_loc":"121.449775,31.262131","wgs84Lng":"121.449775","wgs84Lat":"31.262131","__source_file__":"02-POI&AOI/1-POI/25.05/SHP/分类/按类别/上海市2025-1343026.csv-摩托车服务.shp"},"geometry":{"type":"Point","coordinates":[121.449775,31.262131]}},{"id":"39","type":"Feature","properties":{"id":"B00155LY3H","name":"小沈车行(长乐路店)","address":"长乐路111号","type":"摩托车服务;摩托车维修;摩托车维修|购物服务;购物相关场所;购物相关场所","typecode":"040200|060000","pcode":310000,"pname":"上海市","citycode":21,"cityname":"上海市","adcode":310101,"adname":"黄浦区","business_a":"淮海路","location":"121.467456,31.221810","tel":"13585618089","bigType":"摩托车服务","midType":"摩托车维修","smallType":"摩托车维修|购物服务","gcj_lng":121.467456,"gcj_lat":31.22181,"wgs84_loc":"121.462914,31.22374","wgs84Lng":"121.462914","wgs84Lat":"31.22374","__source_file__":"02-POI&AOI/1-POI/25.05/SHP/分类/按类别/上海市2025-1343026.csv-摩托车服务.shp"},"geometry":{"type":"Point","coordinates":[121.462914,31.22374]}},{"id":"495","type":"Feature","properties":{"id":"B0HB19HVKY","name":"雅马哈(金陵中路店)","address":"金陵中路与柳林路交叉路口西南侧(金钟广场)","type":"摩托车服务;摩托车销售;摩托车销售","typecode":"040100","pcode":310000,"pname":"上海市","citycode":21,"cityname":"上海市","adcode":310101,"adname":"黄浦区","business_a":"北京东路","location":"121.478839,31.225934","tel":"[]","bigType":"摩托车服务","midType":"摩托车销售","smallType":"摩托车销售","gcj_lng":121.478839,"gcj_lat":31.225934,"wgs84_loc":"121.474333,31.227893","wgs84Lng":"121.474333","wgs84Lat":"31.227893","__source_file__":"02-POI&AOI/1-POI/25.05/SHP/分类/按类别/上海市2025-1343026.csv-摩托车服务.shp"},"geometry":{"type":"Point","coordinates":[121.474333,31.227893]}},{"id":"852","type":"Feature","properties":{"id":"B0KKUHGRUY","name":"摩多摩多","address":"宁波路与云南北路交叉口南20米","type":"摩托车服务;摩托车服务相关;摩托车服务相关","typecode":"040000","pcode":310000,"pname":"上海市","citycode":21,"cityname":"上海市","adcode":310101,"adname":"黄浦区","business_a":"北京路","location":"121.475326,31.236311","tel":"[]","bigType":"摩托车服务","midType":"摩托车服务相关","smallType":"摩托车服务相关","gcj_lng":121.475326,"gcj_lat":31.236311,"wgs84_loc":"121.470808,31.238255","wgs84Lng":"121.470808","wgs84Lat":"31.238255","__source_file__":"02-POI&AOI/1-POI/25.05/SHP/分类/按类别/上海市2025-1343026.csv-摩托车服务.shp"},"geometry":{"type":"Point","coordinates":[121.470808,31.238255]}},{"id":"58","type":"Feature","properties":{"id":"B0FFKSVVAP","name":"K1摩托租赁","address":"共和新路359号","type":"摩托车服务;摩托车服务相关;摩托车服务相关","typecode":"040000","pcode":310000,"pname":"上海市","citycode":21,"cityname":"上海市","adcode":310106,"adname":"静安区","business_a":"宝山路","location":"121.463700,31.248847","tel":"021-65727666","bigType":"摩托车服务","midType":"摩托车服务相关","smallType":"摩托车服务相关","gcj_lng":121.4637,"gcj_lat":31.248847,"wgs84_loc":"121.459144,31.250755","wgs84Lng":"121.459144","wgs84Lat":"31.250755","__source_file__":"02-POI&AOI/1-POI/25.05/SHP/分类/按类别/上海市2025-1343026.csv-摩托车服务.shp"},"geometry":{"type":"Point","coordinates":[121.459144,31.250755]}},{"id":"186","type":"Feature","properties":{"id":"B0FFF9ZNBA","name":"雅马哈车友会","address":"宝山路地铁站1号口步行460米","type":"摩托车服务;摩托车服务相关;摩托车服务相关","typecode":"040000","pcode":310000,"pname":"上海市","citycode":21,"cityname":"上海市","adcode":310106,"adname":"静安区","business_a":"宝山路","location":"121.473740,31.255080","tel":"[]","bigType":"摩托车服务","midType":"摩托车服务相关","smallType":"摩托车服务相关","gcj_lng":121.47374,"gcj_lat":31.25508,"wgs84_loc":"121.469215,31.257011","wgs84Lng":"121.469215","wgs84Lat":"31.257011","__source_file__":"02-POI&AOI/1-POI/25.05/SHP/分类/按类别/上海市2025-1343026.csv-摩托车服务.shp"},"geometry":{"type":"Point","coordinates":[121.469215,31.257011]}},{"id":"995","type":"Feature","properties":{"id":"B0KBLKYBLT","name":"黑骑士部落","address":"和颐苑西南2门西北50米","type":"摩托车服务;摩托车服务相关;摩托车服务相关","typecode":"040000","pcode":310000,"pname":"上海市","citycode":21,"cityname":"上海市","adcode":310106,"adname":"静安区","business_a":"和田","location":"121.471648,31.262021","tel":"[]","bigType":"摩托车服务","midType":"摩托车服务相关","smallType":"摩托车服务相关","gcj_lng":121.471648,"gcj_lat":31.262021,"wgs84_loc":"121.467116,31.263944","wgs84Lng":"121.467116","wgs84Lat":"31.263944","__source_file__":"02-POI&AOI/1-POI/25.05/SHP/分类/按类别/上海市2025-1343026.csv-摩托车服务.shp"},"geometry":{"type":"Point","coordinates":[121.467116,31.263944]}},{"id":"774","type":"Feature","properties":{"id":"B0I2DHSDGF","name":"KYMCO光阳摩托上海廊捷","address":"东宝兴路936-942号","type":"摩托车服务;摩托车销售;摩托车销售","typecode":"040100","pcode":310000,"pname":"上海市","citycode":21,"cityname":"上海市","adcode":310106,"adname":"静安区","business_a":"宝山路","location":"121.472602,31.264609","tel":"[]","bigType":"摩托车服务","midType":"摩托车销售","smallType":"摩托车销售","gcj_lng":121.472602,"gcj_lat":31.264609,"wgs84_loc":"121.468072,31.266533","wgs84Lng":"121.468072","wgs84Lat":"31.266533","__source_file__":"02-POI&AOI/1-POI/25.05/SHP/分类/按类别/上海市2025-1343026.csv-摩托车服务.shp"},"geometry":{"type":"Point","coordinates":[121.468072,31.266533]}},{"id":"474","type":"Feature","properties":{"id":"B0FFGSGCYH","name":"朗姐摩托","address":"东宝兴路936、938、940、942号","type":"摩托车服务;摩托车销售;摩托车销售","typecode":"040100","pcode":310000,"pname":"上海市","citycode":21,"cityname":"上海市","adcode":310109,"adname":"虹口区","business_a":"宝山路","location":"121.472879,31.264935","tel":"021-56960936","bigType":"摩托车服务","midType":"摩托车销售","smallType":"摩托车销售","gcj_lng":121.472879,"gcj_lat":31.264935,"wgs84_loc":"121.46835,31.26686","wgs84Lng":"121.46835","wgs84Lat":"31.26686","__source_file__":"02-POI&AOI/1-POI/25.05/SHP/分类/按类别/上海市2025-1343026.csv-摩托车服务.shp"},"geometry":{"type":"Point","coordinates":[121.46835,31.26686]}},{"id":"775","type":"Feature","properties":{"id":"B0FFGSGD6J","name":"上海倪氏摩托(中山北路店)","address":"东宝兴路1016-1020","type":"摩托车服务;摩托车销售;摩托车销售","typecode":"040100","pcode":310000,"pname":"上海市","citycode":21,"cityname":"上海市","adcode":310106,"adname":"静安区","business_a":"和田","location":"121.471210,31.265392","tel":"[]","bigType":"摩托车服务","midType":"摩托车销售","smallType":"摩托车销售","gcj_lng":121.47121,"gcj_lat":31.265392,"wgs84_loc":"121.466676,31.267312","wgs84Lng":"121.466676","wgs84Lat":"31.267312","__source_file__":"02-POI&AOI/1-POI/25.05/SHP/分类/按类别/上海市2025-1343026.csv-摩托车服务.shp"},"geometry":{"type":"Point","coordinates":[121.466676,31.267312]}},{"id":"501","type":"Feature","properties":{"id":"B00156EL3N","name":"上海倪氏摩托(中山北路店)","address":"中山北路158","type":"摩托车服务;摩托车销售;摩托车销售","typecode":"040100","pcode":310000,"pname":"上海市","citycode":21,"cityname":"上海市","adcode":310106,"adname":"静安区","business_a":"和田","location":"121.471197,31.265393","tel":"021-56639808","bigType":"摩托车服务","midType":"摩托车销售","smallType":"摩托车销售","gcj_lng":121.471197,"gcj_lat":31.265393,"wgs84_loc":"121.466663,31.267313","wgs84Lng":"121.466663","wgs84Lat":"31.267313","__source_file__":"02-POI&AOI/1-POI/25.05/SHP/分类/按类别/上海市2025-1343026.csv-摩托车服务.shp"},"geometry":{"type":"Point","coordinates":[121.466663,31.267313]}},{"id":"746","type":"Feature","properties":{"id":"B0FFGFJ0M0","name":"上海卓德实业有限公司","address":"共和新路1162号易捷便利店内","type":"摩托车服务;摩托车服务相关;摩托车服务相关","typecode":"040000","pcode":310000,"pname":"上海市","citycode":21,"cityname":"上海市","adcode":310106,"adname":"静安区","business_a":"和田","location":"121.460274,31.261706","tel":"[]","bigType":"摩托车服务","midType":"摩托车服务相关","smallType":"摩托车服务相关","gcj_lng":121.460274,"gcj_lat":31.261706,"wgs84_loc":"121.455707,31.2636","wgs84Lng":"121.455707","wgs84Lat":"31.2636","__source_file__":"02-POI&AOI/1-POI/25.05/SHP/分类/按类别/上海市2025-1343026.csv-摩托车服务.shp"},"geometry":{"type":"Point","coordinates":[121.455707,31.2636]}},{"id":"166","type":"Feature","properties":{"id":"B0FFGM96ZX","name":"铃木","address":"延长西路与骊山路交汇处西100米路南","type":"摩托车服务;摩托车销售;摩托车销售","typecode":"040100","pcode":310000,"pname":"上海市","citycode":21,"cityname":"上海市","adcode":310107,"adname":"普陀区","business_a":"大宁路","location":"121.441284,31.263407","tel":"[]","bigType":"摩托车服务","midType":"摩托车销售","smallType":"摩托车销售","gcj_lng":121.441284,"gcj_lat":31.263407,"wgs84_loc":"121.43667,31.265261","wgs84Lng":"121.43667","wgs84Lat":"31.265261","__source_file__":"02-POI&AOI/1-POI/25.05/SHP/分类/按类别/上海市2025-1343026.csv-摩托车服务.shp"},"geometry":{"type":"Point","coordinates":[121.43667,31.265261]}},{"id":"914","type":"Feature","properties":{"id":"B0KB7CI6T8","name":"鑫摩机车","address":"延长西路与合阳路交叉口西60米","type":"摩托车服务;摩托车销售;摩托车销售","typecode":"040100","pcode":310000,"pname":"上海市","citycode":21,"cityname":"上海市","adcode":310107,"adname":"普陀区","business_a":"大宁路","location":"121.441004,31.263648","tel":"[]","bigType":"摩托车服务","midType":"摩托车销售","smallType":"摩托车销售","gcj_lng":121.441004,"gcj_lat":31.263648,"wgs84_loc":"121.43639,31.265502","wgs84Lng":"121.43639","wgs84Lat":"31.265502","__source_file__":"02-POI&AOI/1-POI/25.05/SHP/分类/按类别/上海市2025-1343026.csv-摩托车服务.shp"},"geometry":{"type":"Point","coordinates":[121.43639,31.265502]}},{"id":"161","type":"Feature","properties":{"id":"B0FFK2UGBO","name":"上海荣誉摩托车有限公司","address":"延长西路106号","type":"摩托车服务;摩托车维修;摩托车维修","typecode":"040200","pcode":310000,"pname":"上海市","citycode":21,"cityname":"上海市","adcode":310107,"adname":"普陀区","business_a":"大宁路","location":"121.440960,31.263670","tel":"021-36050709","bigType":"摩托车服务","midType":"摩托车维修","smallType":"摩托车维修","gcj_lng":121.44096,"gcj_lat":31.26367,"wgs84_loc":"121.436346,31.265523","wgs84Lng":"121.436346","wgs84Lat":"31.265523","__source_file__":"02-POI&AOI/1-POI/25.05/SHP/分类/按类别/上海市2025-1343026.csv-摩托车服务.shp"},"geometry":{"type":"Point","coordinates":[121.436346,31.265523]}},{"id":"905","type":"Feature","properties":{"id":"B0JR1OW8A8","name":"五羊-本田电动静安延长中路店","address":"延长中路与沪太路交叉口东北140米","type":"摩托车服务;摩托车销售;摩托车销售","typecode":"040100","pcode":310000,"pname":"上海市","citycode":21,"cityname":"上海市","adcode":310106,"adname":"静安区","business_a":"大宁路","location":"121.445591,31.266252","tel":"[]","bigType":"摩托车服务","midType":"摩托车销售","smallType":"摩托车销售","gcj_lng":121.445591,"gcj_lat":31.266252,"wgs84_loc":"121.440986,31.268113","wgs84Lng":"121.440986","wgs84Lat":"31.268113","__source_file__":"02-POI&AOI/1-POI/25.05/SHP/分类/按类别/上海市2025-1343026.csv-摩托车服务.shp"},"geometry":{"type":"Point","coordinates":[121.440986,31.268113]}},{"id":"56","type":"Feature","properties":{"id":"B0FFM9RTMY","name":"贝纳利(Benelli)专卖店旗舰店上海倪氏","address":"东宝兴路1018号中山北路路口","type":"摩托车服务;摩托车维修;摩托车维修","typecode":"040200","pcode":310000,"pname":"上海市","citycode":21,"cityname":"上海市","adcode":310106,"adname":"静安区","business_a":"和田","location":"121.471826,31.265427","tel":"13585872838;13917508608;021-56335319","bigType":"摩托车服务","midType":"摩托车维修","smallType":"摩托车维修","gcj_lng":121.471826,"gcj_lat":31.265427,"wgs84_loc":"121.467294,31.267349","wgs84Lng":"121.467294","wgs84Lat":"31.267349","__source_file__":"02-POI&AOI/1-POI/25.05/SHP/分类/按类别/上海市2025-1343026.csv-摩托车服务.shp"},"geometry":{"type":"Point","coordinates":[121.467294,31.267349]}},{"id":"616","type":"Feature","properties":{"id":"B0FFLGUWOH","name":"Benelli(上海浦西店)","address":"东宝兴路上海君叶酒店东侧","type":"摩托车服务;摩托车销售;摩托车销售","typecode":"040100","pcode":310000,"pname":"上海市","citycode":21,"cityname":"上海市","adcode":310106,"adname":"静安区","business_a":"宝山路","location":"121.471806,31.265435","tel":"[]","bigType":"摩托车服务","midType":"摩托车销售","smallType":"摩托车销售","gcj_lng":121.471806,"gcj_lat":31.265435,"wgs84_loc":"121.467274,31.267357","wgs84Lng":"121.467274","wgs84Lat":"31.267357","__source_file__":"02-POI&AOI/1-POI/25.05/SHP/分类/按类别/上海市2025-1343026.csv-摩托车服务.shp"},"geometry":{"type":"Point","coordinates":[121.467274,31.267357]}},{"id":"470","type":"Feature","properties":{"id":"B0FFMAUNNL","name":"贝纳利摩托专卖店旗舰店","address":"东宝兴路1018-1020号中山北路口","type":"摩托车服务;摩托车销售;摩托车销售","typecode":"040100","pcode":310000,"pname":"上海市","citycode":21,"cityname":"上海市","adcode":310106,"adname":"静安区","business_a":"和田","location":"121.471796,31.265474","tel":"021-56335319;13917508608","bigType":"摩托车服务","midType":"摩托车销售","smallType":"摩托车销售","gcj_lng":121.471796,"gcj_lat":31.265474,"wgs84_loc":"121.467264,31.267395","wgs84Lng":"121.467264","wgs84Lat":"31.267395","__source_file__":"02-POI&AOI/1-POI/25.05/SHP/分类/按类别/上海市2025-1343026.csv-摩托车服务.shp"},"geometry":{"type":"Point","coordinates":[121.467264,31.267395]}},{"id":"863","type":"Feature","properties":{"id":"B0KUPDBDSZ","name":"西江专卖店","address":"林肯坊东南门旁(虹口足球场地铁站出入口步行190米)","type":"摩托车服务;摩托车销售;摩托车销售","typecode":"040100","pcode":310000,"pname":"上海市","citycode":21,"cityname":"上海市","adcode":310109,"adname":"虹口区","business_a":"宝山路","location":"121.478959,31.268608","tel":"[]","bigType":"摩托车服务","midType":"摩托车销售","smallType":"摩托车销售","gcj_lng":121.478959,"gcj_lat":31.268608,"wgs84_loc":"121.47445,31.270548","wgs84Lng":"121.47445","wgs84Lat":"31.270548","__source_file__":"02-POI&AOI/1-POI/25.05/SHP/分类/按类别/上海市2025-1343026.csv-摩托车服务.shp"},"geometry":{"type":"Point","coordinates":[121.47445,31.270548]}},{"id":"734","type":"Feature","properties":{"id":"B0G0O1VSWW","name":"小朱车行","address":"北宝兴路嘉利明珠城东南侧约120米","type":"摩托车服务;摩托车销售;摩托车销售","typecode":"040100","pcode":310000,"pname":"上海市","citycode":21,"cityname":"上海市","adcode":310109,"adname":"虹口区","business_a":"和田","location":"121.465330,31.276012","tel":"[]","bigType":"摩托车服务","midType":"摩托车销售","smallType":"摩托车销售","gcj_lng":121.46533,"gcj_lat":31.276012,"wgs84_loc":"121.460777,31.277912","wgs84Lng":"121.460777","wgs84Lat":"31.277912","__source_file__":"02-POI&AOI/1-POI/25.05/SHP/分类/按类别/上海市2025-1343026.csv-摩托车服务.shp"},"geometry":{"type":"Point","coordinates":[121.460777,31.277912]}}],"name":"上海市2025-1343026.csv-摩托车服务","crs":{"type":"name","properties":{"name":"urn:ogc:def:crs:OGC:1.3:CRS84"}}}