{"type":"FeatureCollection","features":[{"id":"529","type":"Feature","properties":{"id":"01c8be3b-68dd-369f-b895-3d036134706d","name":"雅马哈(金陵中路店)","type":"摩托车服务;摩托车销售;摩托车销售","typecode":"040100","address":"淮海中路98号金钟广场F1层","location":"121.478839,31.225934","tel":"[]","pcode":310000,"pname":"上海市","citycode":21,"cityname":"上海市","adcode":310101,"adname":"黄浦区","gridcode":4621637800,"distance":1017,"business_area":"淮海路","timestamp":"2022-12-30 20:59:17","biz_ext":"{\"rating\": \"3.0\", \"cost\": []}","行业大类":"摩托车服务","行业中类":"摩托车销售","行业小类":"摩托车销售","wgs84_loc":"121.474333,31.227893","wgs84Lng":121.474333,"wgs84Lat":31.227893,"__source_file__":"02-POI&AOI/1-POI/其它/23/Excel/分类/上海市-POI-2023.csv-摩托车服务.csv"},"geometry":{"type":"Point","coordinates":[121.474333,31.227893]}},{"id":"400","type":"Feature","properties":{"id":"9802d0ac-5b0c-3ac5-9518-3ff54321d895","name":"卿馨摩配","type":"摩托车服务;摩托车服务相关;摩托车服务相关","typecode":"040000","address":"淮海中华大厦西南门北110米","location":"121.483147,31.226133","tel":"[]","pcode":310000,"pname":"上海市","citycode":21,"cityname":"上海市","adcode":310101,"adname":"黄浦区","gridcode":4621637801,"distance":1376,"business_area":"淮海路","timestamp":"2023-04-22 07:41:15","biz_ext":"{\"rating\": \"3.6\", \"cost\": []}","行业大类":"摩托车服务","行业中类":"摩托车服务相关","行业小类":"摩托车服务相关","wgs84_loc":"121.478656,31.228104","wgs84Lng":121.478656,"wgs84Lat":31.228104,"__source_file__":"02-POI&AOI/1-POI/其它/23/Excel/分类/上海市-POI-2023.csv-摩托车服务.csv"},"geometry":{"type":"Point","coordinates":[121.478656,31.228104]}},{"id":"644","type":"Feature","properties":{"id":"5c69b97d-e74e-33ec-8087-906b86870226","name":"SUNDIRO HONDA","type":"摩托车服务;摩托车销售;摩托车销售","typecode":"040100","address":"塘沽路与福建北路交叉口东北40米","location":"121.478358,31.246177","tel":"[]","pcode":310000,"pname":"上海市","citycode":21,"cityname":"上海市","adcode":310106,"adname":"静安区","gridcode":4621639810,"distance":1341,"business_area":"七浦路","timestamp":"2023-05-10 15:31:32","biz_ext":"{\"rating\": \"0.5\", \"cost\": []}","行业大类":"摩托车服务","行业中类":"摩托车销售","行业小类":"摩托车销售","wgs84_loc":"121.473849,31.248125","wgs84Lng":121.473849,"wgs84Lat":31.248125,"__source_file__":"02-POI&AOI/1-POI/其它/23/Excel/分类/上海市-POI-2023.csv-摩托车服务.csv"},"geometry":{"type":"Point","coordinates":[121.473849,31.248125]}},{"id":"396","type":"Feature","properties":{"id":"4431b04e-998d-31a1-b047-ba56e5826f2a","name":"YAMAHA雅马哈发电机服务中心","type":"摩托车服务;摩托车服务相关;摩托车服务相关","typecode":"040000","address":"西安路93号(国际客运中心地铁站3号口步行430米)","location":"121.494006,31.249793","tel":"18809888190","pcode":310000,"pname":"上海市","citycode":21,"cityname":"上海市","adcode":310109,"adname":"虹口区","gridcode":4621639921,"distance":969,"business_area":"提篮桥","timestamp":"2022-11-21 12:26:35","biz_ext":"{\"rating\": \"4.2\", \"cost\": []}","行业大类":"摩托车服务","行业中类":"摩托车服务相关","行业小类":"摩托车服务相关","wgs84_loc":"121.489551,31.251785","wgs84Lng":121.489551,"wgs84Lat":31.251785,"__source_file__":"02-POI&AOI/1-POI/其它/23/Excel/分类/上海市-POI-2023.csv-摩托车服务.csv"},"geometry":{"type":"Point","coordinates":[121.489551,31.251785]}},{"id":"97","type":"Feature","properties":{"id":"d3ef29e4-0663-3cec-8930-3e21028f1d4d","name":"雅马哈车友会","type":"摩托车服务;摩托车服务相关;摩托车服务相关","typecode":"040000","address":"宝山路地铁站1号口步行460米","location":"121.473740,31.255080","tel":"[]","pcode":310000,"pname":"上海市","citycode":21,"cityname":"上海市","adcode":310106,"adname":"静安区","gridcode":4621730712,"distance":1080,"business_area":"宝山路","timestamp":"2022-11-12 15:33:59","biz_ext":"{\"rating\": \"3.5\", \"cost\": []}","行业大类":"摩托车服务","行业中类":"摩托车服务相关","行业小类":"摩托车服务相关","wgs84_loc":"121.469215,31.257011","wgs84Lng":121.469215,"wgs84Lat":31.257011,"__source_file__":"02-POI&AOI/1-POI/其它/23/Excel/分类/上海市-POI-2023.csv-摩托车服务.csv"},"geometry":{"type":"Point","coordinates":[121.469215,31.257011]}},{"id":"111","type":"Feature","properties":{"id":"d7de8fb0-daed-35d9-a13b-3c2bbb72b230","name":"残疾车定点维修部","type":"摩托车服务;摩托车维修;摩托车维修","typecode":"040200","address":"宝源路227号(东宝兴路地铁站2号口步行290米)","location":"121.480267,31.256608","tel":"13918368164","pcode":310000,"pname":"上海市","citycode":21,"cityname":"上海市","adcode":310106,"adname":"静安区","gridcode":4621730821,"distance":1278,"business_area":"宝山路","timestamp":"2023-05-12 01:10:30","biz_ext":"{\"rating\": \"4.1\", \"cost\": []}","行业大类":"摩托车服务","行业中类":"摩托车维修","行业小类":"摩托车维修","wgs84_loc":"121.475764,31.258557","wgs84Lng":121.475764,"wgs84Lat":31.258557,"__source_file__":"02-POI&AOI/1-POI/其它/23/Excel/分类/上海市-POI-2023.csv-摩托车服务.csv"},"geometry":{"type":"Point","coordinates":[121.475764,31.258557]}},{"id":"585","type":"Feature","properties":{"id":"e3f9ea44-4293-3276-b8ac-af76468b8eab","name":"KYMCO光阳摩托上海廊捷","type":"摩托车服务;摩托车销售;摩托车销售","typecode":"040100","address":"东宝兴路936-942号","location":"121.472660,31.264521","tel":"[]","pcode":310000,"pname":"上海市","citycode":21,"cityname":"上海市","adcode":310106,"adname":"静安区","gridcode":4621731722,"distance":221,"business_area":"和田","timestamp":"2023-05-10 12:44:57","biz_ext":"{\"rating\": \"4.1\", \"cost\": []}","行业大类":"摩托车服务","行业中类":"摩托车销售","行业小类":"摩托车销售","wgs84_loc":"121.468131,31.266445","wgs84Lng":121.468131,"wgs84Lat":31.266445,"__source_file__":"02-POI&AOI/1-POI/其它/23/Excel/分类/上海市-POI-2023.csv-摩托车服务.csv"},"geometry":{"type":"Point","coordinates":[121.468131,31.266445]}},{"id":"225","type":"Feature","properties":{"id":"a4d96bd5-b1bd-3ffe-95b9-0ffdf41ff84d","name":"朗姐摩托","type":"摩托车服务;摩托车销售;摩托车销售","typecode":"040100","address":"东宝兴路936、938、940、942号","location":"121.472607,31.264577","tel":"021-56960936","pcode":310000,"pname":"上海市","citycode":21,"cityname":"上海市","adcode":310106,"adname":"静安区","gridcode":4621731722,"distance":217,"business_area":"宝山路","timestamp":"2023-05-11 05:39:36","biz_ext":"{\"rating\": \"4.6\", \"cost\": []}","行业大类":"摩托车服务","行业中类":"摩托车销售","行业小类":"摩托车销售","wgs84_loc":"121.468077,31.266501","wgs84Lng":121.468077,"wgs84Lat":31.266501,"__source_file__":"02-POI&AOI/1-POI/其它/23/Excel/分类/上海市-POI-2023.csv-摩托车服务.csv"},"geometry":{"type":"Point","coordinates":[121.468077,31.266501]}},{"id":"425","type":"Feature","properties":{"id":"359fc20e-e72a-3f1d-a494-b6be199bd42f","name":"贝纳利(Benelli)专卖店旗舰店上海倪氏","type":"摩托车服务;摩托车维修;摩托车维修","typecode":"040200","address":"东宝兴路1018号中山北路路口","location":"121.471826,31.265427","tel":"021-56335319;13585872838;13917508608","pcode":310000,"pname":"上海市","citycode":21,"cityname":"上海市","adcode":310106,"adname":"静安区","gridcode":4621731722,"distance":186,"business_area":"宝山路","timestamp":"2022-11-12 14:50:16","biz_ext":"{\"rating\": \"4.4\", \"cost\": []}","行业大类":"摩托车服务","行业中类":"摩托车维修","行业小类":"摩托车维修","wgs84_loc":"121.467294,31.267349","wgs84Lng":121.467294,"wgs84Lat":31.267349,"__source_file__":"02-POI&AOI/1-POI/其它/23/Excel/分类/上海市-POI-2023.csv-摩托车服务.csv"},"geometry":{"type":"Point","coordinates":[121.467294,31.267349]}},{"id":"39","type":"Feature","properties":{"id":"6c848659-ee69-3eb3-8bbc-a4fbe742cebc","name":"小沈车行(长乐路店)","type":"摩托车服务;摩托车维修;摩托车维修|购物服务;购物相关场所;购物相关场所","typecode":"040200|060000","address":"长乐路111号(淮海中路地铁站3号口步行460米)","location":"121.467526,31.221813","tel":"13585618089","pcode":310000,"pname":"上海市","citycode":21,"cityname":"上海市","adcode":310101,"adname":"黄浦区","gridcode":4621636711,"distance":310,"business_area":"淮海路","timestamp":"2023-04-23 17:52:38","biz_ext":"{\"rating\": \"4.2\", \"cost\": []}","行业大类":"摩托车服务","行业中类":"摩托车维修","行业小类":"摩托车维修|购物服务","wgs84_loc":"121.462984,31.223743","wgs84Lng":121.462984,"wgs84Lat":31.223743,"__source_file__":"02-POI&AOI/1-POI/其它/23/Excel/分类/上海市-POI-2023.csv-摩托车服务.csv"},"geometry":{"type":"Point","coordinates":[121.462984,31.223743]}},{"id":"370","type":"Feature","properties":{"id":"e46a8148-28ab-34a4-8ee4-76886ac7059c","name":"K1摩托租赁","type":"摩托车服务;摩托车服务相关;摩托车服务相关","typecode":"040000","address":"共和新路359号","location":"121.463700,31.248847","tel":"021-65727666","pcode":310000,"pname":"上海市","citycode":21,"cityname":"上海市","adcode":310106,"adname":"静安区","gridcode":4621639720,"distance":1837,"business_area":"宝山路","timestamp":"2023-04-22 10:12:59","biz_ext":"{\"rating\": \"4.7\", \"cost\": []}","行业大类":"摩托车服务","行业中类":"摩托车服务相关","行业小类":"摩托车服务相关","wgs84_loc":"121.459144,31.250755","wgs84Lng":121.459144,"wgs84Lat":31.250755,"__source_file__":"02-POI&AOI/1-POI/其它/23/Excel/分类/上海市-POI-2023.csv-摩托车服务.csv"},"geometry":{"type":"Point","coordinates":[121.459144,31.250755]}},{"id":"549","type":"Feature","properties":{"id":"63fe4094-8ca4-35cc-b6cf-0cde06dd3b5d","name":"上海摩托之家CLUB豪爵-铃木维修服务中心","type":"摩托车服务;摩托车维修;摩托车维修","typecode":"040200","address":"交通路2255号","location":"121.433272,31.257771","tel":"13524968976","pcode":310000,"pname":"上海市","citycode":21,"cityname":"上海市","adcode":310107,"adname":"普陀区","gridcode":4621730421,"distance":1850,"business_area":"大宁路","timestamp":"2023-04-18 16:58:29","biz_ext":"{\"rating\": \"4.4\", \"cost\": []}","行业大类":"摩托车服务","行业中类":"摩托车维修","行业小类":"摩托车维修","wgs84_loc":"121.428644,31.259615","wgs84Lng":121.428644,"wgs84Lat":31.259615,"__source_file__":"02-POI&AOI/1-POI/其它/23/Excel/分类/上海市-POI-2023.csv-摩托车服务.csv"},"geometry":{"type":"Point","coordinates":[121.428644,31.259615]}},{"id":"0","type":"Feature","properties":{"id":"3fd95521-a865-3619-a707-0682607eff50","name":"晓魏车行","type":"摩托车服务;摩托车维修;摩托车维修","typecode":"040200","address":"中山北路普善路400号","location":"121.454329,31.260216","tel":"021-56700582;13701926630","pcode":310000,"pname":"上海市","citycode":21,"cityname":"上海市","adcode":310106,"adname":"静安区","gridcode":4621731601,"distance":1591,"business_area":"和田","timestamp":"2023-05-02 01:42:24","biz_ext":"{\"rating\": \"3.9\", \"cost\": []}","行业大类":"摩托车服务","行业中类":"摩托车维修","行业小类":"摩托车维修","wgs84_loc":"121.449746,31.262097","wgs84Lng":121.449746,"wgs84Lat":31.262097,"__source_file__":"02-POI&AOI/1-POI/其它/23/Excel/分类/上海市-POI-2023.csv-摩托车服务.csv"},"geometry":{"type":"Point","coordinates":[121.449746,31.262097]}},{"id":"215","type":"Feature","properties":{"id":"01dd985c-6742-3df3-91f2-d683236dc829","name":"铃木","type":"摩托车服务;摩托车销售;摩托车销售","typecode":"040100","address":"延长西路与骊山路交汇处西100米路南","location":"121.441284,31.263407","tel":"[]","pcode":310000,"pname":"上海市","citycode":21,"cityname":"上海市","adcode":310107,"adname":"普陀区","gridcode":4621731510,"distance":806,"business_area":"大宁路","timestamp":"2023-03-13 13:27:14","biz_ext":"{\"rating\": \"3.8\", \"cost\": []}","行业大类":"摩托车服务","行业中类":"摩托车销售","行业小类":"摩托车销售","wgs84_loc":"121.43667,31.265261","wgs84Lng":121.43667,"wgs84Lat":31.265261,"__source_file__":"02-POI&AOI/1-POI/其它/23/Excel/分类/上海市-POI-2023.csv-摩托车服务.csv"},"geometry":{"type":"Point","coordinates":[121.43667,31.265261]}},{"id":"354","type":"Feature","properties":{"id":"5729c996-e84e-36ba-8113-9932bdf38660","name":"上海荣誉摩托车有限公司","type":"摩托车服务;摩托车销售;摩托车销售","typecode":"040100","address":"延长西路106-108号","location":"121.441027,31.263635","tel":"021-36050709","pcode":310000,"pname":"上海市","citycode":21,"cityname":"上海市","adcode":310107,"adname":"普陀区","gridcode":4621731510,"distance":772,"business_area":"大宁路","timestamp":"2023-04-05 23:30:04","biz_ext":"{\"rating\": \"4.2\", \"cost\": []}","行业大类":"摩托车服务","行业中类":"摩托车销售","行业小类":"摩托车销售","wgs84_loc":"121.436413,31.265489","wgs84Lng":121.436413,"wgs84Lat":31.265489,"__source_file__":"02-POI&AOI/1-POI/其它/23/Excel/分类/上海市-POI-2023.csv-摩托车服务.csv"},"geometry":{"type":"Point","coordinates":[121.436413,31.265489]}},{"id":"58","type":"Feature","properties":{"id":"13c1ddf6-b3ff-33b0-a1a8-4d44534b5e74","name":"上海倪氏三阳摩托(中山北路店)","type":"摩托车服务;摩托车销售;摩托车销售","typecode":"040100","address":"中山北路158(西藏北路地铁站2号口步行290米)","location":"121.471150,31.265363","tel":"021-56639808","pcode":310000,"pname":"上海市","citycode":21,"cityname":"上海市","adcode":310106,"adname":"静安区","gridcode":4621731722,"distance":137,"business_area":"和田","timestamp":"2023-05-11 15:12:27","biz_ext":"{\"rating\": \"4.6\", \"cost\": []}","行业大类":"摩托车服务","行业中类":"摩托车销售","行业小类":"摩托车销售","wgs84_loc":"121.466616,31.267283","wgs84Lng":121.466616,"wgs84Lat":31.267283,"__source_file__":"02-POI&AOI/1-POI/其它/23/Excel/分类/上海市-POI-2023.csv-摩托车服务.csv"},"geometry":{"type":"Point","coordinates":[121.466616,31.267283]}},{"id":"226","type":"Feature","properties":{"id":"5041919a-2f6f-3c5e-895a-96dd35f7bddf","name":"上海倪氏摩托(中山北路店)","type":"摩托车服务;摩托车销售;摩托车销售","typecode":"040100","address":"东宝兴路1016-1020","location":"121.471229,31.265436","tel":"[]","pcode":310000,"pname":"上海市","citycode":21,"cityname":"上海市","adcode":310106,"adname":"静安区","gridcode":4621731722,"distance":148,"business_area":"和田","timestamp":"2023-05-12 16:18:03","biz_ext":"{\"rating\": \"4.1\", \"cost\": []}","行业大类":"摩托车服务","行业中类":"摩托车销售","行业小类":"摩托车销售","wgs84_loc":"121.466695,31.267356","wgs84Lng":121.466695,"wgs84Lat":31.267356,"__source_file__":"02-POI&AOI/1-POI/其它/23/Excel/分类/上海市-POI-2023.csv-摩托车服务.csv"},"geometry":{"type":"Point","coordinates":[121.466695,31.267356]}},{"id":"430","type":"Feature","properties":{"id":"8a7986c8-10ad-321f-ba6f-5bf125622db1","name":"贝纳利摩托专卖店旗舰店","type":"摩托车服务;摩托车销售;摩托车销售","typecode":"040100","address":"东宝兴路1018-1020号中山北路口","location":"121.471796,31.265474","tel":"021-56335319;13917508608","pcode":310000,"pname":"上海市","citycode":21,"cityname":"上海市","adcode":310106,"adname":"静安区","gridcode":4621731722,"distance":187,"business_area":"和田","timestamp":"2023-05-10 20:45:00","biz_ext":"{\"rating\": \"4.3\", \"cost\": []}","行业大类":"摩托车服务","行业中类":"摩托车销售","行业小类":"摩托车销售","wgs84_loc":"121.467264,31.267395","wgs84Lng":121.467264,"wgs84Lat":31.267395,"__source_file__":"02-POI&AOI/1-POI/其它/23/Excel/分类/上海市-POI-2023.csv-摩托车服务.csv"},"geometry":{"type":"Point","coordinates":[121.467264,31.267395]}}],"name":"上海市-POI-2023.csv-摩托车服务","crs":{"type":"name","properties":{"name":"urn:ogc:def:crs:OGC:1.3:CRS84"}}}