{"type":"FeatureCollection","features":[{"id":"3125","type":"Feature","properties":{"id":"bef87bdc-ddf4-3327-85e0-a2837182aa53","name":"自游家汽车零售中心(上海新天地华府天地店)","type":"汽车销售;汽车销售;汽车销售","typecode":"020000","address":"马当路222弄1-6号华府天地U单位","location":"121.474264,31.218733","tel":"[]","pcode":310000,"pname":"上海市","citycode":21,"cityname":"上海市","adcode":310101,"adname":"黄浦区","gridcode":4621636702,"distance":795,"business_area":"淮海路","timestamp":"2023-05-12 02:07:03","biz_ext":"{\"rating\": \"3.8\", \"cost\": []}","行业大类":"汽车销售","行业中类":"汽车销售","行业小类":"汽车销售","wgs84_loc":"121.469744,31.220682","wgs84Lng":121.469744,"wgs84Lat":31.220682,"__source_file__":"02-POI&AOI/1-POI/其它/23/Excel/分类/上海市-POI-2023.csv-汽车销售.csv"},"geometry":{"type":"Point","coordinates":[121.469744,31.220682]}},{"id":"1993","type":"Feature","properties":{"id":"34850e2b-339a-39e8-9e38-8a70204a9856","name":"极氪空间上海华府天地","type":"汽车销售;汽车销售;汽车销售","typecode":"020000","address":"马当路230号华府天地公寓S单元","location":"121.474266,31.218761","tel":"13818601820","pcode":310000,"pname":"上海市","citycode":21,"cityname":"上海市","adcode":310101,"adname":"黄浦区","gridcode":4621636702,"distance":797,"business_area":"新天地(自忠路)","timestamp":"2023-05-12 23:55:00","biz_ext":"{\"rating\": \"4.4\", \"cost\": []}","行业大类":"汽车销售","行业中类":"汽车销售","行业小类":"汽车销售","wgs84_loc":"121.469746,31.22071","wgs84Lng":121.469746,"wgs84Lat":31.22071,"__source_file__":"02-POI&AOI/1-POI/其它/23/Excel/分类/上海市-POI-2023.csv-汽车销售.csv"},"geometry":{"type":"Point","coordinates":[121.469746,31.22071]}},{"id":"2946","type":"Feature","properties":{"id":"afd161e8-08cf-3027-b005-014fb52241f3","name":"迈凯伦上海销售服务中心","type":"汽车销售;汽车销售;汽车销售","typecode":"020000","address":"湖滨路222号企业天地F1层","location":"121.476159,31.220727","tel":"[]","pcode":310000,"pname":"上海市","citycode":21,"cityname":"上海市","adcode":310101,"adname":"黄浦区","gridcode":4621636810,"distance":813,"business_area":"淮海路","timestamp":"2023-02-13 13:33:48","biz_ext":"{\"rating\": \"3.7\", \"cost\": []}","行业大类":"汽车销售","行业中类":"汽车销售","行业小类":"汽车销售","wgs84_loc":"121.471645,31.222681","wgs84Lng":121.471645,"wgs84Lat":31.222681,"__source_file__":"02-POI&AOI/1-POI/其它/23/Excel/分类/上海市-POI-2023.csv-汽车销售.csv"},"geometry":{"type":"Point","coordinates":[121.471645,31.222681]}},{"id":"314","type":"Feature","properties":{"id":"273b2b93-66d9-3818-a1f8-e6c521e84d5e","name":"迈凯伦上海浦西","type":"汽车销售;汽车销售;汽车销售|汽车维修;汽车维修;汽车维修","typecode":"020000|030000","address":"湖滨路208号(一大会址·黄陂南路地铁站2号口步行440米)","location":"121.476346,31.220746","tel":"021-63869599","pcode":310000,"pname":"上海市","citycode":21,"cityname":"上海市","adcode":310101,"adname":"黄浦区","gridcode":4621636810,"distance":804,"business_area":"淮海路","timestamp":"2023-05-12 23:49:34","biz_ext":"{\"rating\": \"4.3\", \"cost\": []}","行业大类":"汽车销售","行业中类":"汽车销售","行业小类":"汽车销售|汽车维修","wgs84_loc":"121.471832,31.2227","wgs84Lng":121.471832,"wgs84Lat":31.2227,"__source_file__":"02-POI&AOI/1-POI/其它/23/Excel/分类/上海市-POI-2023.csv-汽车销售.csv"},"geometry":{"type":"Point","coordinates":[121.471832,31.2227]}},{"id":"2075","type":"Feature","properties":{"id":"9c27368d-5219-391c-aa3b-b873958cac51","name":"桃子汽车","type":"汽车销售;汽车销售;汽车销售","typecode":"020000","address":"长乐路庆福里(淮海中路地铁站3号口步行310米)","location":"121.465730,31.221654","tel":"[]","pcode":310000,"pname":"上海市","citycode":21,"cityname":"上海市","adcode":310101,"adname":"黄浦区","gridcode":4621636710,"distance":1663,"business_area":"淮海路","timestamp":"2022-12-30 20:50:19","biz_ext":"{\"rating\": \"3.4\", \"cost\": []}","行业大类":"汽车销售","行业中类":"汽车销售","行业小类":"汽车销售","wgs84_loc":"121.461183,31.223579","wgs84Lng":121.461183,"wgs84Lat":31.223579,"__source_file__":"02-POI&AOI/1-POI/其它/23/Excel/分类/上海市-POI-2023.csv-汽车销售.csv"},"geometry":{"type":"Point","coordinates":[121.461183,31.223579]}},{"id":"2319","type":"Feature","properties":{"id":"060f3f0b-ae3d-3c7e-9ddb-975680d2fdbb","name":"上海捷尼赛思之家(香港广场店)","type":"汽车销售;汽车销售;汽车销售|汽车维修;汽车维修;汽车维修","typecode":"020000|030000","address":"淮海中路282号香港广场北座1楼","location":"121.474327,31.223802","tel":"021-53951234","pcode":310000,"pname":"上海市","citycode":21,"cityname":"上海市","adcode":310101,"adname":"黄浦区","gridcode":4621636722,"distance":1193,"business_area":"北京东路","timestamp":"2023-05-13 11:38:06","biz_ext":"{\"rating\": \"4.3\", \"cost\": []}","行业大类":"汽车销售","行业中类":"汽车销售","行业小类":"汽车销售|汽车维修","wgs84_loc":"121.469807,31.225749","wgs84Lng":121.469807,"wgs84Lat":31.225749,"__source_file__":"02-POI&AOI/1-POI/其它/23/Excel/分类/上海市-POI-2023.csv-汽车销售.csv"},"geometry":{"type":"Point","coordinates":[121.469807,31.225749]}},{"id":"2402","type":"Feature","properties":{"id":"5bac85a8-52d1-3e07-a9a9-2858ca2195e6","name":"捷尼赛思汽车销售有限公司","type":"汽车销售;汽车销售;汽车销售","typecode":"020000","address":"香港广场(一大会址·黄陂南路地铁站5号口步行110米)","location":"121.474267,31.223968","tel":"[]","pcode":310000,"pname":"上海市","citycode":21,"cityname":"上海市","adcode":310101,"adname":"黄浦区","gridcode":4621636722,"distance":1212,"business_area":"北京东路","timestamp":"2022-11-14 23:28:24","biz_ext":"{\"rating\": \"4.1\", \"cost\": []}","行业大类":"汽车销售","行业中类":"汽车销售","行业小类":"汽车销售","wgs84_loc":"121.469746,31.225915","wgs84Lng":121.469746,"wgs84Lat":31.225915,"__source_file__":"02-POI&AOI/1-POI/其它/23/Excel/分类/上海市-POI-2023.csv-汽车销售.csv"},"geometry":{"type":"Point","coordinates":[121.469746,31.225915]}},{"id":"1064","type":"Feature","properties":{"id":"9c8f8033-8f54-3f80-80cd-b1bc29fb7b17","name":"理想汽车上海南丰荟零售中心","type":"汽车销售;汽车销售;汽车销售|汽车维修;汽车维修;汽车维修","typecode":"020000|030000","address":"淮海中路188号淮海南丰荟103商铺","location":"121.477198,31.224488","tel":"021-60664277","pcode":310000,"pname":"上海市","citycode":21,"cityname":"上海市","adcode":310101,"adname":"黄浦区","gridcode":4621636820,"distance":1136,"business_area":"淮海路","timestamp":"2023-05-12 23:53:09","biz_ext":"{\"rating\": \"4.5\", \"cost\": []}","行业大类":"汽车销售","行业中类":"汽车销售","行业小类":"汽车销售|汽车维修","wgs84_loc":"121.472687,31.226443","wgs84Lng":121.472687,"wgs84Lat":31.226443,"__source_file__":"02-POI&AOI/1-POI/其它/23/Excel/分类/上海市-POI-2023.csv-汽车销售.csv"},"geometry":{"type":"Point","coordinates":[121.472687,31.226443]}},{"id":"1270","type":"Feature","properties":{"id":"bb50e266-8908-3a92-8e83-2a1c9893f97d","name":"Jim&Bill名车展示厅","type":"汽车销售;汽车销售;汽车销售","typecode":"020000","address":"南京西路389号B2层(人民广场地铁站11号口步行280米)","location":"121.469554,31.230271","tel":"13524455338","pcode":310000,"pname":"上海市","citycode":21,"cityname":"上海市","adcode":310101,"adname":"黄浦区","gridcode":4621637711,"distance":144,"business_area":"北京东路","timestamp":"2023-05-05 15:23:18","biz_ext":"{\"rating\": \"3.6\", \"cost\": []}","行业大类":"汽车销售","行业中类":"汽车销售","行业小类":"汽车销售","wgs84_loc":"121.465018,31.232202","wgs84Lng":121.465018,"wgs84Lat":31.232202,"__source_file__":"02-POI&AOI/1-POI/其它/23/Excel/分类/上海市-POI-2023.csv-汽车销售.csv"},"geometry":{"type":"Point","coordinates":[121.465018,31.232202]}},{"id":"1599","type":"Feature","properties":{"id":"d5b7dd9d-3c6a-38fd-aa58-bc6d65cc04e4","name":"上海尼英姆汽车销售服务有限公司","type":"汽车销售;汽车销售;汽车销售","typecode":"020000","address":"南京西路388号仙乐斯广场F1层","location":"121.469030,31.231188","tel":"[]","pcode":310000,"pname":"上海市","citycode":21,"cityname":"上海市","adcode":310101,"adname":"黄浦区","gridcode":4621637721,"distance":126,"business_area":"淮海路","timestamp":"2022-12-30 22:29:23","biz_ext":"{\"rating\": \"3.4\", \"cost\": []}","行业大类":"汽车销售","行业中类":"汽车销售","行业小类":"汽车销售","wgs84_loc":"121.464492,31.233117","wgs84Lng":121.464492,"wgs84Lat":31.233117,"__source_file__":"02-POI&AOI/1-POI/其它/23/Excel/分类/上海市-POI-2023.csv-汽车销售.csv"},"geometry":{"type":"Point","coordinates":[121.464492,31.233117]}},{"id":"2292","type":"Feature","properties":{"id":"b7ad7730-dc90-30fc-b868-fdb7623140be","name":"高合体验店HiPhi Hub(上海湖滨道)","type":"汽车销售;汽车销售;汽车销售","typecode":"020000","address":"湖滨路150号一层E07单元","location":"121.478813,31.220581","tel":"18512111053","pcode":310000,"pname":"上海市","citycode":21,"cityname":"上海市","adcode":310101,"adname":"黄浦区","gridcode":4621636810,"distance":675,"business_area":"淮海路","timestamp":"2023-05-12 23:55:38","biz_ext":"{\"rating\": \"4.6\", \"cost\": []}","行业大类":"汽车销售","行业中类":"汽车销售","行业小类":"汽车销售","wgs84_loc":"121.474308,31.222542","wgs84Lng":121.474308,"wgs84Lat":31.222542,"__source_file__":"02-POI&AOI/1-POI/其它/23/Excel/分类/上海市-POI-2023.csv-汽车销售.csv"},"geometry":{"type":"Point","coordinates":[121.474308,31.222542]}},{"id":"3772","type":"Feature","properties":{"id":"c505bf3c-eaaa-34b6-bd13-e41282fbb7cd","name":"AION","type":"汽车销售;汽车销售;汽车销售","typecode":"020000","address":"龙门路与淮海中路交叉口西北40米","location":"121.478183,31.225239","tel":"[]","pcode":310000,"pname":"上海市","citycode":21,"cityname":"上海市","adcode":310101,"adname":"黄浦区","gridcode":4621637800,"distance":1188,"business_area":"北京东路","timestamp":"2023-04-26 03:26:26","biz_ext":"{\"rating\": \"4.2\", \"cost\": []}","行业大类":"汽车销售","行业中类":"汽车销售","行业小类":"汽车销售","wgs84_loc":"121.473675,31.227196","wgs84Lng":121.473675,"wgs84Lat":31.227196,"__source_file__":"02-POI&AOI/1-POI/其它/23/Excel/分类/上海市-POI-2023.csv-汽车销售.csv"},"geometry":{"type":"Point","coordinates":[121.473675,31.227196]}},{"id":"3558","type":"Feature","properties":{"id":"84630113-648c-3e39-9508-a53f78d08783","name":"极氪空间上海外滩soho","type":"汽车销售;汽车销售;汽车销售","typecode":"020000","address":"人民路292号","location":"121.494341,31.229922","tel":"18616106215","pcode":310000,"pname":"上海市","citycode":21,"cityname":"上海市","adcode":310101,"adname":"黄浦区","gridcode":4621637911,"distance":1905,"business_area":"北京东路","timestamp":"2023-05-12 23:50:11","biz_ext":"{\"rating\": \"4.4\", \"cost\": []}","行业大类":"汽车销售","行业中类":"汽车销售","行业小类":"汽车销售","wgs84_loc":"121.489889,31.231924","wgs84Lng":121.489889,"wgs84Lat":31.231924,"__source_file__":"02-POI&AOI/1-POI/其它/23/Excel/分类/上海市-POI-2023.csv-汽车销售.csv"},"geometry":{"type":"Point","coordinates":[121.489889,31.231924]}},{"id":"2371","type":"Feature","properties":{"id":"e84b5fee-ec23-3116-9c64-9148eb597801","name":"捷成汽车销售有限公司","type":"汽车销售;汽车销售;汽车销售","typecode":"020000","address":"延安东路600东海商业中心西楼F19层","location":"121.479948,31.230005","tel":"[]","pcode":310000,"pname":"上海市","citycode":21,"cityname":"上海市","adcode":310101,"adname":"黄浦区","gridcode":4621637811,"distance":1686,"business_area":"北京东路","timestamp":"2023-04-21 04:13:12","biz_ext":"{\"rating\": \"3.2\", \"cost\": []}","行业大类":"汽车销售","行业中类":"汽车销售","行业小类":"汽车销售","wgs84_loc":"121.475446,31.231965","wgs84Lng":121.475446,"wgs84Lat":31.231965,"__source_file__":"02-POI&AOI/1-POI/其它/23/Excel/分类/上海市-POI-2023.csv-汽车销售.csv"},"geometry":{"type":"Point","coordinates":[121.475446,31.231965]}},{"id":"1878","type":"Feature","properties":{"id":"4b2b299e-7d18-31bd-90e8-5a4203871d21","name":"上海威耀汽车集团","type":"汽车销售;汽车销售;汽车销售","typecode":"020000","address":"陆家嘴街道滨江大道","location":"121.495983,31.236700","tel":"[]","pcode":310000,"pname":"上海市","citycode":21,"cityname":"上海市","adcode":310115,"adname":"浦东新区","gridcode":4621638912,"distance":1852,"business_area":"陆家嘴","timestamp":"2022-09-26 13:25:22","biz_ext":"{\"rating\": \"3.8\", \"cost\": []}","行业大类":"汽车销售","行业中类":"汽车销售","行业小类":"汽车销售","wgs84_loc":"121.491537,31.238704","wgs84Lng":121.491537,"wgs84Lat":31.238704,"__source_file__":"02-POI&AOI/1-POI/其它/23/Excel/分类/上海市-POI-2023.csv-汽车销售.csv"},"geometry":{"type":"Point","coordinates":[121.491537,31.238704]}},{"id":"3328","type":"Feature","properties":{"id":"2dff6826-a136-3a49-9c59-a7ea723dd5d8","name":"东风日产新能源体验中心(正大广场店)","type":"汽车销售;汽车销售;汽车销售","typecode":"020000","address":"陆家嘴西路168号商场一楼","location":"121.498986,31.236903","tel":"021-58999533;17612188575","pcode":310000,"pname":"上海市","citycode":21,"cityname":"上海市","adcode":310115,"adname":"浦东新区","gridcode":4621638912,"distance":1578,"business_area":"陆家嘴","timestamp":"2023-04-19 08:46:24","biz_ext":"{\"rating\": \"4.4\", \"cost\": []}","行业大类":"汽车销售","行业中类":"汽车销售","行业小类":"汽车销售","wgs84_loc":"121.494551,31.238916","wgs84Lng":121.494551,"wgs84Lat":31.238916,"__source_file__":"02-POI&AOI/1-POI/其它/23/Excel/分类/上海市-POI-2023.csv-汽车销售.csv"},"geometry":{"type":"Point","coordinates":[121.494551,31.238916]}},{"id":"3755","type":"Feature","properties":{"id":"f1cc56f1-77be-3c42-8c8a-9ec4f31065cb","name":"瑞虹迪正大广场王朝店","type":"汽车销售;汽车销售;汽车销售","typecode":"020000","address":"陆家嘴西路168号","location":"121.499370,31.236909","tel":"021-68360681;15601714998;15821513227","pcode":310000,"pname":"上海市","citycode":21,"cityname":"上海市","adcode":310115,"adname":"浦东新区","gridcode":4621638912,"distance":1544,"business_area":"陆家嘴","timestamp":"2023-05-13 02:46:09","biz_ext":"{\"rating\": \"4.2\", \"cost\": []}","行业大类":"汽车销售","行业中类":"汽车销售","行业小类":"汽车销售","wgs84_loc":"121.494936,31.238923","wgs84Lng":121.494936,"wgs84Lat":31.238923,"__source_file__":"02-POI&AOI/1-POI/其它/23/Excel/分类/上海市-POI-2023.csv-汽车销售.csv"},"geometry":{"type":"Point","coordinates":[121.494936,31.238923]}},{"id":"3391","type":"Feature","properties":{"id":"6dd1429d-def7-34a2-99d4-418f661f8625","name":"NISSAN","type":"汽车销售;汽车销售;汽车销售","typecode":"020000","address":"陆家嘴西路168号正大广场L1层","location":"121.499425,31.237325","tel":"[]","pcode":310000,"pname":"上海市","citycode":21,"cityname":"上海市","adcode":310115,"adname":"浦东新区","gridcode":4621638912,"distance":1521,"business_area":"陆家嘴","timestamp":"2023-05-11 23:11:52","biz_ext":"{\"rating\": \"4.3\", \"cost\": []}","行业大类":"汽车销售","行业中类":"汽车销售","行业小类":"汽车销售","wgs84_loc":"121.494991,31.239339","wgs84Lng":121.494991,"wgs84Lat":31.239339,"__source_file__":"02-POI&AOI/1-POI/其它/23/Excel/分类/上海市-POI-2023.csv-汽车销售.csv"},"geometry":{"type":"Point","coordinates":[121.494991,31.239339]}},{"id":"1519","type":"Feature","properties":{"id":"39db2218-7822-38f5-a20e-bf2086da0fa3","name":"上海金斯威汽车销售服务有限公司","type":"汽车销售;汽车销售;汽车销售","typecode":"020000","address":"河南北路17,23号1层(天潼路地铁站5号口步行230米)","location":"121.481652,31.242499","tel":"021-56623008","pcode":310000,"pname":"上海市","citycode":21,"cityname":"上海市","adcode":310106,"adname":"静安区","gridcode":4621639801,"distance":1640,"business_area":"北京东路","timestamp":"2023-04-27 12:39:12","biz_ext":"{\"rating\": \"4.1\", \"cost\": []}","行业大类":"汽车销售","行业中类":"汽车销售","行业小类":"汽车销售","wgs84_loc":"121.477155,31.244458","wgs84Lng":121.477155,"wgs84Lat":31.244458,"__source_file__":"02-POI&AOI/1-POI/其它/23/Excel/分类/上海市-POI-2023.csv-汽车销售.csv"},"geometry":{"type":"Point","coordinates":[121.477155,31.244458]}},{"id":"2958","type":"Feature","properties":{"id":"8925972e-26e4-3ce2-a10e-19404b154132","name":"汽车之家能源空间站","type":"汽车销售;汽车销售;汽车销售","typecode":"020000","address":"四川北路88号星荟中心L104","location":"121.486589,31.245939","tel":"4008662126","pcode":310000,"pname":"上海市","citycode":21,"cityname":"上海市","adcode":310109,"adname":"虹口区","gridcode":4621639812,"distance":1597,"business_area":"北外滩","timestamp":"2023-04-24 02:32:41","biz_ext":"{\"rating\": \"4.7\", \"cost\": []}","行业大类":"汽车销售","行业中类":"汽车销售","行业小类":"汽车销售","wgs84_loc":"121.482108,31.247911","wgs84Lng":121.482108,"wgs84Lat":31.247911,"__source_file__":"02-POI&AOI/1-POI/其它/23/Excel/分类/上海市-POI-2023.csv-汽车销售.csv"},"geometry":{"type":"Point","coordinates":[121.482108,31.247911]}},{"id":"1921","type":"Feature","properties":{"id":"518d1b81-d295-3a6e-b9a8-a85ec4df4e4b","name":"合创上海直营旗舰店","type":"汽车销售;汽车销售;汽车销售","typecode":"020000","address":"天潼路328号1层(天潼路地铁站3号口步行410米)","location":"121.485743,31.246093","tel":"[]","pcode":310000,"pname":"上海市","citycode":21,"cityname":"上海市","adcode":310109,"adname":"虹口区","gridcode":4621639812,"distance":1523,"business_area":"上海北外滩中心","timestamp":"2023-05-12 23:48:36","biz_ext":"{\"rating\": \"4.2\", \"cost\": []}","行业大类":"汽车销售","行业中类":"汽车销售","行业小类":"汽车销售","wgs84_loc":"121.481259,31.248062","wgs84Lng":121.481259,"wgs84Lat":31.248062,"__source_file__":"02-POI&AOI/1-POI/其它/23/Excel/分类/上海市-POI-2023.csv-汽车销售.csv"},"geometry":{"type":"Point","coordinates":[121.481259,31.248062]}},{"id":"2377","type":"Feature","properties":{"id":"26e9c3f6-794c-39c4-a823-d2d719aae2fb","name":"比亚迪汽车上海卓景(星荟中心店)","type":"汽车销售;汽车销售;汽车销售|汽车维修;汽车维修;汽车维修","typecode":"020000|030000","address":"天潼路328号1层L101-102室","location":"121.485712,31.246416","tel":"021-56060686;16621720783","pcode":310000,"pname":"上海市","citycode":21,"cityname":"上海市","adcode":310109,"adname":"虹口区","gridcode":4621639812,"distance":1531,"business_area":"上海北外滩中心","timestamp":"2023-05-12 23:53:38","biz_ext":"{\"rating\": \"4.8\", \"cost\": []}","行业大类":"汽车销售","行业中类":"汽车销售","行业小类":"汽车销售|汽车维修","wgs84_loc":"121.481228,31.248385","wgs84Lng":121.481228,"wgs84Lat":31.248385,"__source_file__":"02-POI&AOI/1-POI/其它/23/Excel/分类/上海市-POI-2023.csv-汽车销售.csv"},"geometry":{"type":"Point","coordinates":[121.481228,31.248385]}},{"id":"1976","type":"Feature","properties":{"id":"4d780d44-8697-33e8-8c2c-0e616c9224cc","name":"一汽大众ID.HUB新能源体验中心(外滩星荟中心店)","type":"汽车销售;汽车销售;汽车销售","typecode":"020000","address":"天潼路328号1F-102","location":"121.486392,31.246645","tel":"17891911156","pcode":310000,"pname":"上海市","citycode":21,"cityname":"上海市","adcode":310109,"adname":"虹口区","gridcode":4621639812,"distance":1600,"business_area":"上海北外滩中心","timestamp":"2023-05-12 23:48:11","biz_ext":"{\"rating\": \"4.3\", \"cost\": []}","行业大类":"汽车销售","行业中类":"汽车销售","行业小类":"汽车销售","wgs84_loc":"121.481911,31.248616","wgs84Lng":121.481911,"wgs84Lat":31.248616,"__source_file__":"02-POI&AOI/1-POI/其它/23/Excel/分类/上海市-POI-2023.csv-汽车销售.csv"},"geometry":{"type":"Point","coordinates":[121.481911,31.248616]}},{"id":"2835","type":"Feature","properties":{"id":"b39e0ab5-7840-3476-b95a-9f250d777ac2","name":"上汽奥迪上海白玉兰广场都市店","type":"汽车销售;奥迪特约销售;上汽-大众奥迪销售","typecode":"020300","address":"东长治路588号1层L1-3A商铺","location":"121.499179,31.249073","tel":"13662038336","pcode":310000,"pname":"上海市","citycode":21,"cityname":"上海市","adcode":310109,"adname":"虹口区","gridcode":4621639922,"distance":1619,"business_area":"上海北外滩中心","timestamp":"2023-05-12 23:50:19","biz_ext":"{\"rating\": \"4.4\", \"cost\": []}","行业大类":"汽车销售","行业中类":"奥迪特约销售","行业小类":"上汽-大众奥迪销售","wgs84_loc":"121.494743,31.251081","wgs84Lng":121.494743,"wgs84Lat":31.251081,"__source_file__":"02-POI&AOI/1-POI/其它/23/Excel/分类/上海市-POI-2023.csv-汽车销售.csv"},"geometry":{"type":"Point","coordinates":[121.494743,31.251081]}},{"id":"919","type":"Feature","properties":{"id":"5893eaa2-1bfe-3343-9903-a322c01a2a9c","name":"沃尔沃汽车集团亚太区销售公司","type":"汽车销售;汽车销售;汽车销售","typecode":"020000","address":"东大名路555号上海白玉兰广场26楼","location":"121.497859,31.249377","tel":"[]","pcode":310000,"pname":"上海市","citycode":21,"cityname":"上海市","adcode":310109,"adname":"虹口区","gridcode":4621639922,"distance":1746,"business_area":"提篮桥","timestamp":"2023-04-25 14:37:05","biz_ext":"{\"rating\": \"4.3\", \"cost\": []}","行业大类":"汽车销售","行业中类":"汽车销售","行业小类":"汽车销售","wgs84_loc":"121.493418,31.251381","wgs84Lng":121.493418,"wgs84Lat":31.251381,"__source_file__":"02-POI&AOI/1-POI/其它/23/Excel/分类/上海市-POI-2023.csv-汽车销售.csv"},"geometry":{"type":"Point","coordinates":[121.493418,31.251381]}},{"id":"5","type":"Feature","properties":{"id":"848c4859-cbf8-3a53-9c7a-8692b68342de","name":"夏宇汽贸","type":"汽车销售;汽车销售;汽车销售","typecode":"020000","address":"东宝兴路415号-419(东宝兴路地铁站2号口步行130米)","location":"121.479770,31.259090","tel":"021-66545111;021-66601528","pcode":310000,"pname":"上海市","citycode":21,"cityname":"上海市","adcode":310109,"adname":"虹口区","gridcode":4621731801,"distance":1205,"business_area":"宝山路","timestamp":"2023-03-20 18:48:12","biz_ext":"{\"rating\": \"3.8\", \"cost\": []}","行业大类":"汽车销售","行业中类":"汽车销售","行业小类":"汽车销售","wgs84_loc":"121.475265,31.261036","wgs84Lng":121.475265,"wgs84Lat":31.261036,"__source_file__":"02-POI&AOI/1-POI/其它/23/Excel/分类/上海市-POI-2023.csv-汽车销售.csv"},"geometry":{"type":"Point","coordinates":[121.475265,31.261036]}},{"id":"2969","type":"Feature","properties":{"id":"c7b73cc7-e51f-39d3-8318-021d129ea361","name":"上海骏誉玛莎拉蒂黄浦店","type":"汽车销售;法拉利特约销售;玛莎拉蒂销售|汽车维修;法拉利特约维修;玛莎拉蒂维修","typecode":"021501|031601","address":"南京西路388号仙乐斯广场一层103-105单元","location":"121.469249,31.231189","tel":"021-63023188","pcode":310000,"pname":"上海市","citycode":21,"cityname":"上海市","adcode":310101,"adname":"黄浦区","gridcode":4621637721,"distance":942,"business_area":"淮海路","timestamp":"2023-05-12 23:55:53","biz_ext":"{\"rating\": \"4.5\", \"cost\": []}","行业大类":"汽车销售","行业中类":"法拉利特约销售","行业小类":"玛莎拉蒂销售|汽车维修","wgs84_loc":"121.464712,31.233119","wgs84Lng":121.464712,"wgs84Lat":31.233119,"__source_file__":"02-POI&AOI/1-POI/其它/23/Excel/分类/上海市-POI-2023.csv-汽车销售.csv"},"geometry":{"type":"Point","coordinates":[121.464712,31.233119]}},{"id":"2495","type":"Feature","properties":{"id":"c5881024-b1f3-37cf-9430-ebe9a18cb012","name":"porsche(新昌路店)","type":"汽车销售;保时捷特约销售;保时捷销售","typecode":"020000","address":"南京西路288号创兴金融中心F1层","location":"121.470410,31.232041","tel":"[]","pcode":310000,"pname":"上海市","citycode":21,"cityname":"上海市","adcode":310101,"adname":"黄浦区","gridcode":4621637721,"distance":73,"business_area":"北京东路","timestamp":"2023-04-14 10:26:28","biz_ext":"{\"rating\": \"3.8\", \"cost\": []}","行业大类":"汽车销售","行业中类":"保时捷特约销售","行业小类":"保时捷销售","wgs84_loc":"121.465876,31.233974","wgs84Lng":121.465876,"wgs84Lat":31.233974,"__source_file__":"02-POI&AOI/1-POI/其它/23/Excel/分类/上海市-POI-2023.csv-汽车销售.csv"},"geometry":{"type":"Point","coordinates":[121.465876,31.233974]}},{"id":"79","type":"Feature","properties":{"id":"1bcb5329-b700-382e-adfe-7611be59f174","name":"上海浦西保时捷中心","type":"汽车销售;保时捷特约销售;保时捷销售|汽车维修;汽车维修;汽车维修","typecode":"022100|030000","address":"南京西路288号创兴金融中心首层","location":"121.470331,31.232160","tel":"021-23214911","pcode":310000,"pname":"上海市","citycode":21,"cityname":"上海市","adcode":310101,"adname":"黄浦区","gridcode":4621637721,"distance":1048,"business_area":"淮海路","timestamp":"2023-05-12 23:49:15","biz_ext":"{\"rating\": \"4.6\", \"cost\": []}","行业大类":"汽车销售","行业中类":"保时捷特约销售","行业小类":"保时捷销售|汽车维修","wgs84_loc":"121.465797,31.234092","wgs84Lng":121.465797,"wgs84Lat":31.234092,"__source_file__":"02-POI&AOI/1-POI/其它/23/Excel/分类/上海市-POI-2023.csv-汽车销售.csv"},"geometry":{"type":"Point","coordinates":[121.465797,31.234092]}},{"id":"3034","type":"Feature","properties":{"id":"75236203-1f50-3255-a296-e56a82b85d54","name":"法拉利上海浦西展厅","type":"汽车销售;汽车销售;汽车销售","typecode":"020000","address":"恒通东路69号首层(新闸路地铁站1号口步行390米)","location":"121.466898,31.241798","tel":"021-52868178","pcode":310000,"pname":"上海市","citycode":21,"cityname":"上海市","adcode":310106,"adname":"静安区","gridcode":4621639701,"distance":1204,"business_area":"北京东路","timestamp":"2023-05-10 23:11:43","biz_ext":"{\"rating\": \"4.4\", \"cost\": []}","行业大类":"汽车销售","行业中类":"汽车销售","行业小类":"汽车销售","wgs84_loc":"121.462352,31.243717","wgs84Lng":121.462352,"wgs84Lat":31.243717,"__source_file__":"02-POI&AOI/1-POI/其它/23/Excel/分类/上海市-POI-2023.csv-汽车销售.csv"},"geometry":{"type":"Point","coordinates":[121.462352,31.243717]}},{"id":"3876","type":"Feature","properties":{"id":"a31a8722-70c1-303f-b9fa-698a36b7c4ff","name":"Ferrari上海意特","type":"汽车销售;法拉利特约销售;法拉利销售","typecode":"021500","address":"恒通东路69号福新汇(新闸路地铁站1号口步行400米)","location":"121.466851,31.241865","tel":"[]","pcode":310000,"pname":"上海市","citycode":21,"cityname":"上海市","adcode":310106,"adname":"静安区","gridcode":4621639701,"distance":1213,"business_area":"七浦路","timestamp":"2023-04-14 05:57:24","biz_ext":"{\"rating\": \"3.7\", \"cost\": []}","行业大类":"汽车销售","行业中类":"法拉利特约销售","行业小类":"法拉利销售","wgs84_loc":"121.462305,31.243784","wgs84Lng":121.462305,"wgs84Lat":31.243784,"__source_file__":"02-POI&AOI/1-POI/其它/23/Excel/分类/上海市-POI-2023.csv-汽车销售.csv"},"geometry":{"type":"Point","coordinates":[121.462305,31.243784]}},{"id":"2999","type":"Feature","properties":{"id":"32d47ba5-1331-3153-b598-b32c8caaf5ec","name":"阿维塔体验中心上海静安大悦城店","type":"汽车销售;汽车销售;汽车销售","typecode":"020000","address":"西藏北路198号静安大悦城购物中心(N108)","location":"121.471667,31.244370","tel":"18621913830","pcode":310000,"pname":"上海市","citycode":21,"cityname":"上海市","adcode":310106,"adname":"静安区","gridcode":4621639702,"distance":1451,"business_area":"七浦路","timestamp":"2023-05-07 14:01:14","biz_ext":"{\"rating\": \"4.6\", \"cost\": []}","行业大类":"汽车销售","行业中类":"汽车销售","行业小类":"汽车销售","wgs84_loc":"121.467136,31.2463","wgs84Lng":121.467136,"wgs84Lat":31.2463,"__source_file__":"02-POI&AOI/1-POI/其它/23/Excel/分类/上海市-POI-2023.csv-汽车销售.csv"},"geometry":{"type":"Point","coordinates":[121.467136,31.2463]}},{"id":"2247","type":"Feature","properties":{"id":"b2aec254-5b9a-33c8-840c-677d6706b0fc","name":"上汽大众(大悦城店)","type":"汽车销售;大众特约销售;上海大众销售","typecode":"020101","address":"西藏北路166号上海静安大悦城北座L1层N109","location":"121.471873,31.244462","tel":"[]","pcode":310000,"pname":"上海市","citycode":21,"cityname":"上海市","adcode":310106,"adname":"静安区","gridcode":4621639712,"distance":1463,"business_area":"七浦路","timestamp":"2023-05-12 23:53:37","biz_ext":"{\"rating\": \"4.1\", \"cost\": []}","行业大类":"汽车销售","行业中类":"大众特约销售","行业小类":"上海大众销售","wgs84_loc":"121.467343,31.246393","wgs84Lng":121.467343,"wgs84Lat":31.246393,"__source_file__":"02-POI&AOI/1-POI/其它/23/Excel/分类/上海市-POI-2023.csv-汽车销售.csv"},"geometry":{"type":"Point","coordinates":[121.467343,31.246393]}},{"id":"3412","type":"Feature","properties":{"id":"f279cdf3-9f78-3f75-a152-4b6cf1fa8754","name":"中国荣威","type":"汽车销售;汽车销售;汽车销售","typecode":"020000","address":"花园路与西江湾路交叉口西北120米","location":"121.477932,31.270329","tel":"[]","pcode":310000,"pname":"上海市","citycode":21,"cityname":"上海市","adcode":310109,"adname":"虹口区","gridcode":4621732810,"distance":1889,"business_area":"和田","timestamp":"2023-04-25 11:30:57","biz_ext":"{\"rating\": \"3.7\", \"cost\": []}","行业大类":"汽车销售","行业中类":"汽车销售","行业小类":"汽车销售","wgs84_loc":"121.47342,31.272265","wgs84Lng":121.47342,"wgs84Lat":31.272265,"__source_file__":"02-POI&AOI/1-POI/其它/23/Excel/分类/上海市-POI-2023.csv-汽车销售.csv"},"geometry":{"type":"Point","coordinates":[121.47342,31.272265]}},{"id":"3541","type":"Feature","properties":{"id":"5ba36dea-1e35-39e1-b8db-cf8b3ddb7099","name":"飞凡汽车","type":"汽车销售;汽车销售;汽车销售","typecode":"020000","address":"西江湾路388号凯德龙之梦购物中心A座F1层","location":"121.477670,31.270627","tel":"[]","pcode":310000,"pname":"上海市","citycode":21,"cityname":"上海市","adcode":310109,"adname":"虹口区","gridcode":4621732810,"distance":1878,"business_area":"江湾","timestamp":"2023-05-11 12:01:43","biz_ext":"{\"rating\": \"4.1\", \"cost\": []}","行业大类":"汽车销售","行业中类":"汽车销售","行业小类":"汽车销售","wgs84_loc":"121.473157,31.272562","wgs84Lng":121.473157,"wgs84Lat":31.272562,"__source_file__":"02-POI&AOI/1-POI/其它/23/Excel/分类/上海市-POI-2023.csv-汽车销售.csv"},"geometry":{"type":"Point","coordinates":[121.473157,31.272562]}},{"id":"2432","type":"Feature","properties":{"id":"f786bf42-8067-3664-b09e-9b819d22e28d","name":"上汽大众","type":"汽车销售;汽车销售;汽车销售","typecode":"020000","address":"西江湾路388号凯德龙之梦虹口店B座F1层","location":"121.476968,31.270701","tel":"[]","pcode":310000,"pname":"上海市","citycode":21,"cityname":"上海市","adcode":310109,"adname":"虹口区","gridcode":4621732810,"distance":1819,"business_area":"江湾","timestamp":"2023-05-08 06:27:02","biz_ext":"{\"rating\": \"3.4\", \"cost\": []}","行业大类":"汽车销售","行业中类":"汽车销售","行业小类":"汽车销售","wgs84_loc":"121.472452,31.272634","wgs84Lng":121.472452,"wgs84Lat":31.272634,"__source_file__":"02-POI&AOI/1-POI/其它/23/Excel/分类/上海市-POI-2023.csv-汽车销售.csv"},"geometry":{"type":"Point","coordinates":[121.472452,31.272634]}},{"id":"3092","type":"Feature","properties":{"id":"1a244cd5-91ec-339f-94d6-748dabbef122","name":"ARCFOX极狐空间上海瑞虹天地星星堂","type":"汽车销售;汽车销售;汽车销售","typecode":"020000","address":"天宝路280弄35号1层a室39b","location":"121.495858,31.264756","tel":"021-55272668;13585611176","pcode":310000,"pname":"上海市","citycode":21,"cityname":"上海市","adcode":310109,"adname":"虹口区","gridcode":4621731922,"distance":1872,"business_area":"鞍山新村","timestamp":"2023-05-12 23:55:15","biz_ext":"{\"rating\": \"4.0\", \"cost\": []}","行业大类":"汽车销售","行业中类":"汽车销售","行业小类":"汽车销售","wgs84_loc":"121.491409,31.266747","wgs84Lng":121.491409,"wgs84Lat":31.266747,"__source_file__":"02-POI&AOI/1-POI/其它/23/Excel/分类/上海市-POI-2023.csv-汽车销售.csv"},"geometry":{"type":"Point","coordinates":[121.491409,31.266747]}},{"id":"3073","type":"Feature","properties":{"id":"0e605706-6c2c-33f6-a64d-b60a8c8df7d3","name":"smart汽车(上海虹口瑞虹天地星星堂展厅)","type":"汽车销售;汽车销售;汽车销售","typecode":"020000","address":"天宝路280号","location":"121.495852,31.264777","tel":"021-55225062","pcode":310000,"pname":"上海市","citycode":21,"cityname":"上海市","adcode":310109,"adname":"虹口区","gridcode":4621731922,"distance":1873,"business_area":"鞍山新村","timestamp":"2023-04-23 15:24:28","biz_ext":"{\"rating\": \"4.3\", \"cost\": []}","行业大类":"汽车销售","行业中类":"汽车销售","行业小类":"汽车销售","wgs84_loc":"121.491403,31.266768","wgs84Lng":121.491403,"wgs84Lat":31.266768,"__source_file__":"02-POI&AOI/1-POI/其它/23/Excel/分类/上海市-POI-2023.csv-汽车销售.csv"},"geometry":{"type":"Point","coordinates":[121.491403,31.266768]}},{"id":"2284","type":"Feature","properties":{"id":"46c72bea-36a9-3752-b51e-b58cdfcf6262","name":"飞凡汽车上海虹口凯德广场体验空间","type":"汽车销售;汽车销售;汽车销售","typecode":"020000","address":"西江湾路388号A幢01-38/39","location":"121.478393,31.270672","tel":"18601600100","pcode":310000,"pname":"上海市","citycode":21,"cityname":"上海市","adcode":310109,"adname":"虹口区","gridcode":4621732810,"distance":1944,"business_area":"江湾","timestamp":"2023-05-11 12:51:07","biz_ext":"{\"rating\": \"4.5\", \"cost\": []}","行业大类":"汽车销售","行业中类":"汽车销售","行业小类":"汽车销售","wgs84_loc":"121.473882,31.272609","wgs84Lng":121.473882,"wgs84Lat":31.272609,"__source_file__":"02-POI&AOI/1-POI/其它/23/Excel/分类/上海市-POI-2023.csv-汽车销售.csv"},"geometry":{"type":"Point","coordinates":[121.473882,31.272609]}},{"id":"2941","type":"Feature","properties":{"id":"5353a7d8-eee5-3456-93ad-7f5792ebe570","name":"BRIDGE+SPARK","type":"汽车销售;汽车销售;汽车销售","typecode":"020000","address":"西江湾路388号凯德龙之梦购物中心A座F1层","location":"121.477760,31.270819","tel":"[]","pcode":310000,"pname":"上海市","citycode":21,"cityname":"上海市","adcode":310109,"adname":"虹口区","gridcode":4621732810,"distance":1894,"business_area":"江湾","timestamp":"2023-05-05 12:35:19","biz_ext":"{\"rating\": \"3.8\", \"cost\": []}","行业大类":"汽车销售","行业中类":"汽车销售","行业小类":"汽车销售","wgs84_loc":"121.473247,31.272755","wgs84Lng":121.473247,"wgs84Lat":31.272755,"__source_file__":"02-POI&AOI/1-POI/其它/23/Excel/分类/上海市-POI-2023.csv-汽车销售.csv"},"geometry":{"type":"Point","coordinates":[121.473247,31.272755]}},{"id":"3099","type":"Feature","properties":{"id":"ce486ac8-fb90-3d00-97b4-b091d5256eb7","name":"华为AITO汽车体验店(虹口龙之梦店)","type":"汽车销售;汽车销售;汽车销售","typecode":"020000","address":"凯德龙之梦A座一楼","location":"121.477933,31.270963","tel":"[]","pcode":310000,"pname":"上海市","citycode":21,"cityname":"上海市","adcode":310109,"adname":"虹口区","gridcode":4621732810,"distance":1915,"business_area":"江湾","timestamp":"2023-04-26 14:13:02","biz_ext":"{\"rating\": \"3.8\", \"cost\": []}","行业大类":"汽车销售","行业中类":"汽车销售","行业小类":"汽车销售","wgs84_loc":"121.47342,31.272899","wgs84Lng":121.47342,"wgs84Lat":31.272899,"__source_file__":"02-POI&AOI/1-POI/其它/23/Excel/分类/上海市-POI-2023.csv-汽车销售.csv"},"geometry":{"type":"Point","coordinates":[121.47342,31.272899]}},{"id":"3474","type":"Feature","properties":{"id":"4941a030-436b-3960-be6e-44a5cadde20d","name":"福特电马(上海凯德虹口城市店)","type":"汽车销售;汽车销售;汽车销售","typecode":"020000","address":"西江湾路388号(虹口龙之梦商场)B座a24-30-31","location":"121.477200,31.271051","tel":"021-36178598","pcode":310000,"pname":"上海市","citycode":21,"cityname":"上海市","adcode":310109,"adname":"虹口区","gridcode":4621732810,"distance":1855,"business_area":"和田","timestamp":"2023-05-10 17:03:44","biz_ext":"{\"rating\": \"4.4\", \"cost\": []}","行业大类":"汽车销售","行业中类":"汽车销售","行业小类":"汽车销售","wgs84_loc":"121.472685,31.272985","wgs84Lng":121.472685,"wgs84Lat":31.272985,"__source_file__":"02-POI&AOI/1-POI/其它/23/Excel/分类/上海市-POI-2023.csv-汽车销售.csv"},"geometry":{"type":"Point","coordinates":[121.472685,31.272985]}},{"id":"3100","type":"Feature","properties":{"id":"9b45997d-6188-3d80-b486-bed93b653f4e","name":"华为AITO体验店","type":"汽车销售;汽车销售;汽车销售","typecode":"020000","address":"花园路(虹口足球场地铁站出入口步行120米)","location":"121.477216,31.271073","tel":"[]","pcode":310000,"pname":"上海市","citycode":21,"cityname":"上海市","adcode":310109,"adname":"虹口区","gridcode":4621732810,"distance":1857,"business_area":"和田","timestamp":"2023-04-25 10:06:16","biz_ext":"{\"rating\": \"3.8\", \"cost\": []}","行业大类":"汽车销售","行业中类":"汽车销售","行业小类":"汽车销售","wgs84_loc":"121.472701,31.273007","wgs84Lng":121.472701,"wgs84Lat":31.273007,"__source_file__":"02-POI&AOI/1-POI/其它/23/Excel/分类/上海市-POI-2023.csv-汽车销售.csv"},"geometry":{"type":"Point","coordinates":[121.472701,31.273007]}},{"id":"2581","type":"Feature","properties":{"id":"379ec54a-9cbc-3d2e-a67c-f85492fd2bfa","name":"埃安","type":"汽车销售;汽车销售;汽车销售","typecode":"020000","address":"西江湾路388号凯德虹口商业中心F1层","location":"121.477584,31.271269","tel":"[]","pcode":310000,"pname":"上海市","citycode":21,"cityname":"上海市","adcode":310109,"adname":"虹口区","gridcode":4621732810,"distance":1898,"business_area":"江湾","timestamp":"2023-04-10 18:13:41","biz_ext":"{\"rating\": \"3.8\", \"cost\": []}","行业大类":"汽车销售","行业中类":"汽车销售","行业小类":"汽车销售","wgs84_loc":"121.47307,31.273204","wgs84Lng":121.47307,"wgs84Lat":31.273204,"__source_file__":"02-POI&AOI/1-POI/其它/23/Excel/分类/上海市-POI-2023.csv-汽车销售.csv"},"geometry":{"type":"Point","coordinates":[121.47307,31.273204]}},{"id":"2927","type":"Feature","properties":{"id":"e0b53266-c88a-3428-8969-fc04d4154c89","name":"比亚迪汽车王朝网(虹口龙之梦商超店)","type":"汽车销售;汽车销售;汽车销售","typecode":"020000","address":"西江湾路388号凯德龙之梦购物中心1楼","location":"121.477017,31.271302","tel":"18930053386","pcode":310000,"pname":"上海市","citycode":21,"cityname":"上海市","adcode":310109,"adname":"虹口区","gridcode":4621732810,"distance":1850,"business_area":"江湾","timestamp":"2023-05-12 23:54:01","biz_ext":"{\"rating\": \"4.6\", \"cost\": []}","行业大类":"汽车销售","行业中类":"汽车销售","行业小类":"汽车销售","wgs84_loc":"121.472501,31.273235","wgs84Lng":121.472501,"wgs84Lat":31.273235,"__source_file__":"02-POI&AOI/1-POI/其它/23/Excel/分类/上海市-POI-2023.csv-汽车销售.csv"},"geometry":{"type":"Point","coordinates":[121.472501,31.273235]}},{"id":"3318","type":"Feature","properties":{"id":"6c3e054e-c0f6-3024-819c-9100119ecb38","name":"小鹏汽车上海凯德龙之梦体验中心","type":"汽车销售;汽车销售;汽车销售","typecode":"020000","address":"西江湾路388号凯德龙之梦B栋1楼02-04室","location":"121.477467,31.271435","tel":"021-56982957","pcode":310000,"pname":"上海市","citycode":21,"cityname":"上海市","adcode":310109,"adname":"虹口区","gridcode":4621732810,"distance":1896,"business_area":"江湾","timestamp":"2023-05-12 23:52:23","biz_ext":"{\"rating\": \"4.2\", \"cost\": []}","行业大类":"汽车销售","行业中类":"汽车销售","行业小类":"汽车销售","wgs84_loc":"121.472953,31.273369","wgs84Lng":121.472953,"wgs84Lat":31.273369,"__source_file__":"02-POI&AOI/1-POI/其它/23/Excel/分类/上海市-POI-2023.csv-汽车销售.csv"},"geometry":{"type":"Point","coordinates":[121.472953,31.273369]}},{"id":"3676","type":"Feature","properties":{"id":"8c2fe6b1-4ad8-3a11-a381-7146e8e0e03f","name":"上汽·花园坊","type":"汽车销售;汽车销售;汽车销售","typecode":"020000","address":"花园路与景祥路交叉口东北40米","location":"121.474563,31.272615","tel":"[]","pcode":310000,"pname":"上海市","citycode":21,"cityname":"上海市","adcode":310109,"adname":"虹口区","gridcode":4621732722,"distance":1715,"business_area":"江湾","timestamp":"2023-05-03 04:06:27","biz_ext":"{\"rating\": \"4.3\", \"cost\": []}","行业大类":"汽车销售","行业中类":"汽车销售","行业小类":"汽车销售","wgs84_loc":"121.470039,31.274541","wgs84Lng":121.470039,"wgs84Lat":31.274541,"__source_file__":"02-POI&AOI/1-POI/其它/23/Excel/分类/上海市-POI-2023.csv-汽车销售.csv"},"geometry":{"type":"Point","coordinates":[121.470039,31.274541]}},{"id":"915","type":"Feature","properties":{"id":"05fd57cf-5ffc-3b38-8ab0-ee7aad0cfe9a","name":"上海商泰汽车","type":"汽车销售;汽车销售;汽车销售","typecode":"020000","address":"淮海中路775号新华联大厦西楼17楼","location":"121.463690,31.218394","tel":"[]","pcode":310000,"pname":"上海市","citycode":21,"cityname":"上海市","adcode":310101,"adname":"黄浦区","gridcode":4621636700,"distance":1723,"business_area":"淮海路","timestamp":"2023-04-20 11:41:28","biz_ext":"{\"rating\": \"3.6\", \"cost\": []}","行业大类":"汽车销售","行业中类":"汽车销售","行业小类":"汽车销售","wgs84_loc":"121.459137,31.220316","wgs84Lng":121.459137,"wgs84Lat":31.220316,"__source_file__":"02-POI&AOI/1-POI/其它/23/Excel/分类/上海市-POI-2023.csv-汽车销售.csv"},"geometry":{"type":"Point","coordinates":[121.459137,31.220316]}},{"id":"1981","type":"Feature","properties":{"id":"5d8af191-f13c-35dd-8eb4-ccc1d3184b52","name":"LING HOUSE","type":"汽车销售;汽车销售;汽车销售","typecode":"020000","address":"铜仁路(静安寺地铁站6号口步行370米)","location":"121.450916,31.224310","tel":"15800815867","pcode":310000,"pname":"上海市","citycode":21,"cityname":"上海市","adcode":310106,"adname":"静安区","gridcode":4621636620,"distance":1360,"business_area":"淮海路","timestamp":"2023-04-02 09:19:17","biz_ext":"{\"rating\": \"4.7\", \"cost\": []}","行业大类":"汽车销售","行业中类":"汽车销售","行业小类":"汽车销售","wgs84_loc":"121.446327,31.2262","wgs84Lng":121.446327,"wgs84Lat":31.2262,"__source_file__":"02-POI&AOI/1-POI/其它/23/Excel/分类/上海市-POI-2023.csv-汽车销售.csv"},"geometry":{"type":"Point","coordinates":[121.446327,31.2262]}},{"id":"2023","type":"Feature","properties":{"id":"cbec79cb-9323-36e7-97d4-69544568d45a","name":"五菱品牌中心上海店","type":"汽车销售;汽车销售;汽车销售","typecode":"020000","address":"铜仁路96号(静安寺地铁站6号口步行370米)","location":"121.450864,31.224336","tel":"[]","pcode":310000,"pname":"上海市","citycode":21,"cityname":"上海市","adcode":310106,"adname":"静安区","gridcode":4621636620,"distance":1356,"business_area":"淮海路","timestamp":"2023-05-11 02:08:05","biz_ext":"{\"rating\": \"4.3\", \"cost\": []}","行业大类":"汽车销售","行业中类":"汽车销售","行业小类":"汽车销售","wgs84_loc":"121.446275,31.226226","wgs84Lng":121.446275,"wgs84Lat":31.226226,"__source_file__":"02-POI&AOI/1-POI/其它/23/Excel/分类/上海市-POI-2023.csv-汽车销售.csv"},"geometry":{"type":"Point","coordinates":[121.446275,31.226226]}},{"id":"3217","type":"Feature","properties":{"id":"9c09b302-2034-34f6-a4be-2fa1c945bb84","name":"上汽奥迪进取汇","type":"汽车销售;奥迪特约销售;上汽-大众奥迪销售","typecode":"020300","address":"威海路459号(南京西路地铁站8号口步行100米)","location":"121.462691,31.226629","tel":"[]","pcode":310000,"pname":"上海市","citycode":21,"cityname":"上海市","adcode":310106,"adname":"静安区","gridcode":4621637700,"distance":1530,"business_area":"淮海路","timestamp":"2023-05-12 23:49:54","biz_ext":"{\"rating\": \"4.5\", \"cost\": []}","行业大类":"汽车销售","行业中类":"奥迪特约销售","行业小类":"上汽-大众奥迪销售","wgs84_loc":"121.458134,31.228544","wgs84Lng":121.458134,"wgs84Lat":31.228544,"__source_file__":"02-POI&AOI/1-POI/其它/23/Excel/分类/上海市-POI-2023.csv-汽车销售.csv"},"geometry":{"type":"Point","coordinates":[121.458134,31.228544]}},{"id":"934","type":"Feature","properties":{"id":"7752f209-9b19-3e0e-a621-f9dda9bdea99","name":"蔚来中心(上海兴业太古汇)","type":"汽车销售;汽车销售;汽车销售","typecode":"020000","address":"石门一路180号兴业太古汇S101蔚来中心","location":"121.463050,31.227584","tel":"021-52905563","pcode":310000,"pname":"上海市","citycode":21,"cityname":"上海市","adcode":310106,"adname":"静安区","gridcode":4621637700,"distance":1610,"business_area":"淮海路","timestamp":"2023-05-12 23:54:13","biz_ext":"{\"rating\": \"4.7\", \"cost\": []}","行业大类":"汽车销售","行业中类":"汽车销售","行业小类":"汽车销售","wgs84_loc":"121.458494,31.2295","wgs84Lng":121.458494,"wgs84Lat":31.2295,"__source_file__":"02-POI&AOI/1-POI/其它/23/Excel/分类/上海市-POI-2023.csv-汽车销售.csv"},"geometry":{"type":"Point","coordinates":[121.458494,31.2295]}},{"id":"2673","type":"Feature","properties":{"id":"034356d5-a5ea-3637-9caa-ba5584d67059","name":"捷尼赛思汽车销售(上海)有限公司","type":"汽车销售;汽车销售;汽车销售","typecode":"020000","address":"石门一路288号兴业太古汇香港兴业中心1座F24层","location":"121.463535,31.228064","tel":"021-60772895","pcode":310000,"pname":"上海市","citycode":21,"cityname":"上海市","adcode":310106,"adname":"静安区","gridcode":4621637710,"distance":1677,"business_area":"淮海路","timestamp":"2023-04-26 08:07:14","biz_ext":"{\"rating\": \"3.8\", \"cost\": []}","行业大类":"汽车销售","行业中类":"汽车销售","行业小类":"汽车销售","wgs84_loc":"121.45898,31.229981","wgs84Lng":121.45898,"wgs84Lat":31.229981,"__source_file__":"02-POI&AOI/1-POI/其它/23/Excel/分类/上海市-POI-2023.csv-汽车销售.csv"},"geometry":{"type":"Point","coordinates":[121.45898,31.229981]}},{"id":"2643","type":"Feature","properties":{"id":"be136d85-fcb1-3a0a-ae57-1d7ca6771734","name":"智己汽车体验中心(中信泰富)","type":"汽车销售;汽车销售;汽车销售","typecode":"020000","address":"南京西路1168号中信泰富广场F1层","location":"121.455681,31.228621","tel":"021-60193039","pcode":310000,"pname":"上海市","citycode":21,"cityname":"上海市","adcode":310106,"adname":"静安区","gridcode":4621637611,"distance":1968,"business_area":"淮海路","timestamp":"2023-05-12 23:50:17","biz_ext":"{\"rating\": \"4.2\", \"cost\": []}","行业大类":"汽车销售","行业中类":"汽车销售","行业小类":"汽车销售","wgs84_loc":"121.451104,31.230519","wgs84Lng":121.451104,"wgs84Lat":31.230519,"__source_file__":"02-POI&AOI/1-POI/其它/23/Excel/分类/上海市-POI-2023.csv-汽车销售.csv"},"geometry":{"type":"Point","coordinates":[121.451104,31.230519]}},{"id":"716","type":"Feature","properties":{"id":"24ce7a50-9f35-37ce-8dc2-777e9684a855","name":"特斯拉上海太古汇体验店","type":"汽车销售;汽车销售;汽车销售","typecode":"020000","address":"石门一路288号兴业太古汇L109单元","location":"121.462557,31.228927","tel":"021-80234090","pcode":310000,"pname":"上海市","citycode":21,"cityname":"上海市","adcode":310106,"adname":"静安区","gridcode":4621637710,"distance":1651,"business_area":"淮海路","timestamp":"2023-04-18 15:16:33","biz_ext":"{\"rating\": \"4.6\", \"cost\": []}","行业大类":"汽车销售","行业中类":"汽车销售","行业小类":"汽车销售","wgs84_loc":"121.458,31.230841","wgs84Lng":121.458,"wgs84Lat":31.230841,"__source_file__":"02-POI&AOI/1-POI/其它/23/Excel/分类/上海市-POI-2023.csv-汽车销售.csv"},"geometry":{"type":"Point","coordinates":[121.458,31.230841]}},{"id":"1436","type":"Feature","properties":{"id":"d1d99265-c2c8-3fb4-983c-4661aa163c41","name":"SERES","type":"汽车销售;汽车销售;汽车销售|汽车维修;汽车维修;汽车维修","typecode":"020000|030000","address":"吴江路与南京西路交叉口西南100米","location":"121.463256,31.230465","tel":"[]","pcode":310000,"pname":"上海市","citycode":21,"cityname":"上海市","adcode":310106,"adname":"静安区","gridcode":4621637710,"distance":1972,"business_area":"淮海路","timestamp":"2023-03-20 21:08:24","biz_ext":"{\"rating\": \"3.9\", \"cost\": []}","行业大类":"汽车销售","行业中类":"汽车销售","行业小类":"汽车销售|汽车维修","wgs84_loc":"121.4587,31.23238","wgs84Lng":121.4587,"wgs84Lat":31.23238,"__source_file__":"02-POI&AOI/1-POI/其它/23/Excel/分类/上海市-POI-2023.csv-汽车销售.csv"},"geometry":{"type":"Point","coordinates":[121.4587,31.23238]}},{"id":"3068","type":"Feature","properties":{"id":"517bdca1-2398-30d2-8ab1-50ee44955f79","name":"阿维塔体验中心(上海南京西路店)","type":"汽车销售;汽车销售;汽车销售","typecode":"020000","address":"南京西路699号102-103室","location":"121.463120,31.230476","tel":"17717021277","pcode":310000,"pname":"上海市","citycode":21,"cityname":"上海市","adcode":310106,"adname":"静安区","gridcode":4621637710,"distance":1797,"business_area":"淮海路","timestamp":"2023-04-27 18:13:19","biz_ext":"{\"rating\": \"4.6\", \"cost\": []}","行业大类":"汽车销售","行业中类":"汽车销售","行业小类":"汽车销售","wgs84_loc":"121.458564,31.232391","wgs84Lng":121.458564,"wgs84Lat":31.232391,"__source_file__":"02-POI&AOI/1-POI/其它/23/Excel/分类/上海市-POI-2023.csv-汽车销售.csv"},"geometry":{"type":"Point","coordinates":[121.458564,31.232391]}},{"id":"2388","type":"Feature","properties":{"id":"f65f574f-fc27-3ba9-9f3b-192310974dce","name":"上海静安嘉里中心极星空间","type":"汽车销售;汽车销售;汽车销售","typecode":"020000","address":"南京西路1515号静安嘉里中心南区L1层S1-01A","location":"121.449206,31.223053","tel":"17521696674","pcode":310000,"pname":"上海市","citycode":21,"cityname":"上海市","adcode":310106,"adname":"静安区","gridcode":4621636522,"distance":1164,"business_area":"淮海路","timestamp":"2023-05-12 23:55:35","biz_ext":"{\"rating\": \"4.5\", \"cost\": []}","行业大类":"汽车销售","行业中类":"汽车销售","行业小类":"汽车销售","wgs84_loc":"121.444613,31.22494","wgs84Lng":121.444613,"wgs84Lat":31.22494,"__source_file__":"02-POI&AOI/1-POI/其它/23/Excel/分类/上海市-POI-2023.csv-汽车销售.csv"},"geometry":{"type":"Point","coordinates":[121.444613,31.22494]}},{"id":"537","type":"Feature","properties":{"id":"a4923b9f-13cc-374d-af56-aa536ce26fd6","name":"北极星动力车辆贸易(上海)有限公司","type":"汽车销售;汽车销售;汽车销售|汽车维修;汽车维修;汽车维修","typecode":"020000|030000","address":"南京西路1515号静安嘉里中心一座908室","location":"121.450197,31.224541","tel":"[]","pcode":310000,"pname":"上海市","citycode":21,"cityname":"上海市","adcode":310106,"adname":"静安区","gridcode":4621636620,"distance":1157,"business_area":"淮海路","timestamp":"2023-04-25 20:07:11","biz_ext":"{\"rating\": \"3.8\", \"cost\": []}","行业大类":"汽车销售","行业中类":"汽车销售","行业小类":"汽车销售|汽车维修","wgs84_loc":"121.445607,31.226429","wgs84Lng":121.445607,"wgs84Lat":31.226429,"__source_file__":"02-POI&AOI/1-POI/其它/23/Excel/分类/上海市-POI-2023.csv-汽车销售.csv"},"geometry":{"type":"Point","coordinates":[121.445607,31.226429]}},{"id":"3523","type":"Feature","properties":{"id":"90cd47dc-d9f5-34fb-9b6a-7a92615a89ef","name":"岚图上海旗舰店","type":"汽车销售;汽车销售;汽车销售","typecode":"020000","address":"愚园路68号晶品大厦L1层(静安寺地铁站6号口步行280米)","location":"121.446934,31.226010","tel":"17621883474;18321358593","pcode":310000,"pname":"上海市","citycode":21,"cityname":"上海市","adcode":310106,"adname":"静安区","gridcode":4621637502,"distance":1103,"business_area":"曹家渡","timestamp":"2023-04-12 15:05:28","biz_ext":"{\"rating\": \"4.3\", \"cost\": []}","行业大类":"汽车销售","行业中类":"汽车销售","行业小类":"汽车销售","wgs84_loc":"121.442336,31.227891","wgs84Lng":121.442336,"wgs84Lat":31.227891,"__source_file__":"02-POI&AOI/1-POI/其它/23/Excel/分类/上海市-POI-2023.csv-汽车销售.csv"},"geometry":{"type":"Point","coordinates":[121.442336,31.227891]}},{"id":"3603","type":"Feature","properties":{"id":"aeea1e34-9dcf-3305-8267-ebf3c93b917a","name":"COYAH(晶品Crystal galleria)","type":"汽车销售;汽车销售;汽车销售","typecode":"020000","address":"愚园路68号晶品大厦L1层(静安寺地铁站6号口步行310米)","location":"121.446842,31.226033","tel":"[]","pcode":310000,"pname":"上海市","citycode":21,"cityname":"上海市","adcode":310106,"adname":"静安区","gridcode":4621637502,"distance":1097,"business_area":"曹家渡","timestamp":"2023-03-15 05:34:13","biz_ext":"{\"rating\": \"3.6\", \"cost\": []}","行业大类":"汽车销售","行业中类":"汽车销售","行业小类":"汽车销售","wgs84_loc":"121.442244,31.227914","wgs84Lng":121.442244,"wgs84Lat":31.227914,"__source_file__":"02-POI&AOI/1-POI/其它/23/Excel/分类/上海市-POI-2023.csv-汽车销售.csv"},"geometry":{"type":"Point","coordinates":[121.442244,31.227914]}},{"id":"658","type":"Feature","properties":{"id":"ea926466-a477-3d72-a3de-d41ce0940b42","name":"上海名流汽车销售服务有限公司","type":"汽车销售;汽车销售;汽车销售|汽车维修;通用特约维修;别克维修","typecode":"020000|030502","address":"康定路1171号(武宁路地铁站5A口步行240米)","location":"121.434502,31.230176","tel":"021-62302733;021-62303030","pcode":310000,"pname":"上海市","citycode":21,"cityname":"上海市","adcode":310106,"adname":"静安区","gridcode":4621637412,"distance":1822,"business_area":"曹家渡","timestamp":"2023-05-12 23:53:03","biz_ext":"{\"rating\": \"4.6\", \"cost\": []}","行业大类":"汽车销售","行业中类":"汽车销售","行业小类":"汽车销售|汽车维修","wgs84_loc":"121.429878,31.232034","wgs84Lng":121.429878,"wgs84Lat":31.232034,"__source_file__":"02-POI&AOI/1-POI/其它/23/Excel/分类/上海市-POI-2023.csv-汽车销售.csv"},"geometry":{"type":"Point","coordinates":[121.429878,31.232034]}},{"id":"3584","type":"Feature","properties":{"id":"09c1e7ed-0622-3a4d-9e17-906bb584740d","name":"上海静众汽车销售服务有限公司","type":"汽车销售;大众特约销售;进口大众销售","typecode":"020104","address":"康定路1155号(武宁路地铁站5A口步行310米)","location":"121.434832,31.230459","tel":"021-69502394","pcode":310000,"pname":"上海市","citycode":21,"cityname":"上海市","adcode":310106,"adname":"静安区","gridcode":4621637412,"distance":1550,"business_area":"曹家渡","timestamp":"2023-03-15 03:51:32","biz_ext":"{\"rating\": \"4.2\", \"cost\": []}","行业大类":"汽车销售","行业中类":"大众特约销售","行业小类":"进口大众销售","wgs84_loc":"121.430209,31.232318","wgs84Lng":121.430209,"wgs84Lat":31.232318,"__source_file__":"02-POI&AOI/1-POI/其它/23/Excel/分类/上海市-POI-2023.csv-汽车销售.csv"},"geometry":{"type":"Point","coordinates":[121.430209,31.232318]}},{"id":"612","type":"Feature","properties":{"id":"7b6edbb9-ae54-3415-97ee-dd29e4a519a6","name":"上海名流别克(康定店)","type":"汽车销售;汽车销售;汽车销售|购物服务;购物相关场所;购物相关场所|汽车维修;汽车维修;汽车维修","typecode":"020000|060000|030000","address":"康定路1171号(武宁路地铁站5A口步行230米)","location":"121.434028,31.230505","tel":"[]","pcode":310000,"pname":"上海市","citycode":21,"cityname":"上海市","adcode":310106,"adname":"静安区","gridcode":4621637412,"distance":1775,"business_area":"曹家渡","timestamp":"2023-05-12 23:56:12","biz_ext":"{\"rating\": \"4.5\", \"cost\": []}","行业大类":"汽车销售","行业中类":"汽车销售","行业小类":"汽车销售|购物服务","wgs84_loc":"121.429404,31.232362","wgs84Lng":121.429404,"wgs84Lat":31.232362,"__source_file__":"02-POI&AOI/1-POI/其它/23/Excel/分类/上海市-POI-2023.csv-汽车销售.csv"},"geometry":{"type":"Point","coordinates":[121.429404,31.232362]}},{"id":"1333","type":"Feature","properties":{"id":"bad1b3f3-8e20-3d1f-a25d-e9fbc487e2b0","name":"上海安吉名世汽车服务有限公司","type":"汽车销售;通用特约销售;凯迪拉克销售|汽车维修;通用特约维修;凯迪拉克维修","typecode":"020401|030501","address":"康定路1155号上海静众汽车销售服务有限公司","location":"121.434586,31.230638","tel":"021-52816688;021-52836299","pcode":310000,"pname":"上海市","citycode":21,"cityname":"上海市","adcode":310106,"adname":"静安区","gridcode":4621637422,"distance":1827,"business_area":"曹家渡","timestamp":"2023-05-12 23:52:37","biz_ext":"{\"rating\": \"4.5\", \"cost\": []}","行业大类":"汽车销售","行业中类":"通用特约销售","行业小类":"凯迪拉克销售|汽车维修","wgs84_loc":"121.429963,31.232496","wgs84Lng":121.429963,"wgs84Lat":31.232496,"__source_file__":"02-POI&AOI/1-POI/其它/23/Excel/分类/上海市-POI-2023.csv-汽车销售.csv"},"geometry":{"type":"Point","coordinates":[121.429963,31.232496]}},{"id":"1717","type":"Feature","properties":{"id":"62a6fa65-9400-3f69-8f82-45e8f97727f5","name":"小鹏汽车上海南京西路旗舰体验中心","type":"汽车销售;汽车销售;汽车销售|汽车维修;汽车维修;汽车维修","typecode":"020000|030000","address":"南京西路762号汇银大厦1层C单元","location":"121.462891,31.231085","tel":"021-60387738","pcode":310000,"pname":"上海市","citycode":21,"cityname":"上海市","adcode":310106,"adname":"静安区","gridcode":4621637720,"distance":1898,"business_area":"淮海路","timestamp":"2023-05-12 23:54:54","biz_ext":"{\"rating\": \"4.6\", \"cost\": []}","行业大类":"汽车销售","行业中类":"汽车销售","行业小类":"汽车销售|汽车维修","wgs84_loc":"121.458334,31.232999","wgs84Lng":121.458334,"wgs84Lat":31.232999,"__source_file__":"02-POI&AOI/1-POI/其它/23/Excel/分类/上海市-POI-2023.csv-汽车销售.csv"},"geometry":{"type":"Point","coordinates":[121.458334,31.232999]}},{"id":"3450","type":"Feature","properties":{"id":"dd88cce1-57b8-38d5-b901-a95776458d6d","name":"宾利上海-静安(销售展厅)","type":"汽车销售;汽车销售;汽车销售","typecode":"020000","address":"北京西路833号京泰楼(南京西路地铁站1号口步行190米)","location":"121.458618,31.231345","tel":"[]","pcode":310000,"pname":"上海市","citycode":21,"cityname":"上海市","adcode":310106,"adname":"静安区","gridcode":4621637622,"distance":1561,"business_area":"淮海路","timestamp":"2023-05-07 09:53:06","biz_ext":"{\"rating\": \"4.0\", \"cost\": []}","行业大类":"汽车销售","行业中类":"汽车销售","行业小类":"汽车销售","wgs84_loc":"121.454049,31.233249","wgs84Lng":121.454049,"wgs84Lat":31.233249,"__source_file__":"02-POI&AOI/1-POI/其它/23/Excel/分类/上海市-POI-2023.csv-汽车销售.csv"},"geometry":{"type":"Point","coordinates":[121.454049,31.233249]}},{"id":"101","type":"Feature","properties":{"id":"2e8cde4e-4d8e-3ae6-8215-50d19b5e4d96","name":"宾利上海-静安","type":"汽车销售;大众特约销售;宾利销售","typecode":"020105","address":"北京西路833-839号(南京西路地铁站1口步行20米)","location":"121.458850,31.231405","tel":"021-60651133;021-62539728","pcode":310000,"pname":"上海市","citycode":21,"cityname":"上海市","adcode":310106,"adname":"静安区","gridcode":4621637622,"distance":1580,"business_area":"淮海路","timestamp":"2023-05-12 23:51:02","biz_ext":"{\"rating\": \"4.3\", \"cost\": []}","行业大类":"汽车销售","行业中类":"大众特约销售","行业小类":"宾利销售","wgs84_loc":"121.454282,31.233309","wgs84Lng":121.454282,"wgs84Lat":31.233309,"__source_file__":"02-POI&AOI/1-POI/其它/23/Excel/分类/上海市-POI-2023.csv-汽车销售.csv"},"geometry":{"type":"Point","coordinates":[121.454282,31.233309]}},{"id":"3838","type":"Feature","properties":{"id":"7c4986e8-9149-3664-a033-0cf70d32f322","name":"上海智行联隆汽车销售服务有限公司","type":"汽车销售;长城汽车销售;魏派汽车销售","typecode":"023301","address":"恒通路318号(凯德星贸)01层19号","location":"121.458562,31.241023","tel":"[]","pcode":310000,"pname":"上海市","citycode":21,"cityname":"上海市","adcode":310106,"adname":"静安区","gridcode":4621638622,"distance":1551,"business_area":"[]","timestamp":"2023-03-16 15:10:08","biz_ext":"{\"rating\": \"4.0\", \"cost\": []}","行业大类":"汽车销售","行业中类":"长城汽车销售","行业小类":"魏派汽车销售","wgs84_loc":"121.453992,31.242922","wgs84Lng":121.453992,"wgs84Lat":31.242922,"__source_file__":"02-POI&AOI/1-POI/其它/23/Excel/分类/上海市-POI-2023.csv-汽车销售.csv"},"geometry":{"type":"Point","coordinates":[121.453992,31.242922]}},{"id":"3562","type":"Feature","properties":{"id":"e37b9fed-5f13-3a92-b74c-12119edc956b","name":"坦克汽车上海凯德星贸体验中心","type":"汽车销售;汽车销售;汽车销售","typecode":"020000","address":"恒通路318号01层19号(汉中路地铁站5号口步行90米)","location":"121.458143,31.241130","tel":"13816738171","pcode":310000,"pname":"上海市","citycode":21,"cityname":"上海市","adcode":310106,"adname":"静安区","gridcode":4621638621,"distance":1588,"business_area":"[]","timestamp":"2023-05-12 23:46:52","biz_ext":"{\"rating\": \"4.2\", \"cost\": []}","行业大类":"汽车销售","行业中类":"汽车销售","行业小类":"汽车销售","wgs84_loc":"121.453572,31.243028","wgs84Lng":121.453572,"wgs84Lat":31.243028,"__source_file__":"02-POI&AOI/1-POI/其它/23/Excel/分类/上海市-POI-2023.csv-汽车销售.csv"},"geometry":{"type":"Point","coordinates":[121.453572,31.243028]}},{"id":"2165","type":"Feature","properties":{"id":"695a60e7-d017-324d-b0d8-69596f00552a","name":"广汽埃安(上海静安国际中心店)","type":"汽车销售;汽车销售;汽车销售","typecode":"020000","address":"裕通路89号L112","location":"121.453740,31.243453","tel":"[]","pcode":310000,"pname":"上海市","citycode":21,"cityname":"上海市","adcode":310106,"adname":"静安区","gridcode":4621639600,"distance":1584,"business_area":"[]","timestamp":"2023-05-08 20:36:39","biz_ext":"{\"rating\": \"4.1\", \"cost\": []}","行业大类":"汽车销售","行业中类":"汽车销售","行业小类":"汽车销售","wgs84_loc":"121.449157,31.24534","wgs84Lng":121.449157,"wgs84Lat":31.24534,"__source_file__":"02-POI&AOI/1-POI/其它/23/Excel/分类/上海市-POI-2023.csv-汽车销售.csv"},"geometry":{"type":"Point","coordinates":[121.449157,31.24534]}},{"id":"385","type":"Feature","properties":{"id":"75d02e1d-695a-3219-b7fe-5bf95d371e35","name":"南京依维柯","type":"汽车销售;汽车销售;汽车销售","typecode":"020000","address":"上海火车站地铁站2号口步行130米","location":"121.454628,31.247985","tel":"[]","pcode":310000,"pname":"上海市","citycode":21,"cityname":"上海市","adcode":310106,"adname":"静安区","gridcode":4621639621,"distance":1875,"business_area":"[]","timestamp":"2023-04-20 22:25:42","biz_ext":"{\"rating\": \"3.8\", \"cost\": []}","行业大类":"汽车销售","行业中类":"汽车销售","行业小类":"汽车销售","wgs84_loc":"121.450047,31.249872","wgs84Lng":121.450047,"wgs84Lat":31.249872,"__source_file__":"02-POI&AOI/1-POI/其它/23/Excel/分类/上海市-POI-2023.csv-汽车销售.csv"},"geometry":{"type":"Point","coordinates":[121.450047,31.249872]}},{"id":"204","type":"Feature","properties":{"id":"5086fb17-af9c-3e93-9420-30bdbe93546e","name":"中智汽车贸易(共和新路店)","type":"汽车销售;汽车销售;汽车销售","typecode":"020000","address":"共和新路435号(近永兴路)","location":"121.464011,31.250437","tel":"021-66281313","pcode":310000,"pname":"上海市","citycode":21,"cityname":"上海市","adcode":310106,"adname":"静安区","gridcode":4621730700,"distance":1610,"business_area":"宝山路","timestamp":"2023-04-07 13:41:47","biz_ext":"{\"rating\": \"3.7\", \"cost\": []}","行业大类":"汽车销售","行业中类":"汽车销售","行业小类":"汽车销售","wgs84_loc":"121.459456,31.252345","wgs84Lng":121.459456,"wgs84Lat":31.252345,"__source_file__":"02-POI&AOI/1-POI/其它/23/Excel/分类/上海市-POI-2023.csv-汽车销售.csv"},"geometry":{"type":"Point","coordinates":[121.459456,31.252345]}},{"id":"2532","type":"Feature","properties":{"id":"9c052c43-6f21-3391-adc7-5b00c0082e95","name":"泰国突突车UrbanTukTuk(静安镇店)","type":"汽车销售;汽车销售;汽车销售","typecode":"020000","address":"大统路988号B幢205、206、207室","location":"121.459068,31.255579","tel":"15921798151","pcode":310000,"pname":"上海市","citycode":21,"cityname":"上海市","adcode":310106,"adname":"静安区","gridcode":4621730622,"distance":976,"business_area":"宝山路","timestamp":"2023-05-11 12:30:08","biz_ext":"{\"rating\": \"4.0\", \"cost\": []}","行业大类":"汽车销售","行业中类":"汽车销售","行业小类":"汽车销售","wgs84_loc":"121.454498,31.257473","wgs84Lng":121.454498,"wgs84Lat":31.257473,"__source_file__":"02-POI&AOI/1-POI/其它/23/Excel/分类/上海市-POI-2023.csv-汽车销售.csv"},"geometry":{"type":"Point","coordinates":[121.454498,31.257473]}},{"id":"1315","type":"Feature","properties":{"id":"884b14e2-9b25-379e-b32b-884afee83575","name":"上海交运隆嘉汽车销售服务有限公司","type":"汽车销售;荣威销售;荣威销售|汽车维修;荣威维修;荣威维修","typecode":"022600|032700","address":"芷江西路街道中山北路558号","location":"121.465517,31.261855","tel":"021-36538698","pcode":310000,"pname":"上海市","citycode":21,"cityname":"上海市","adcode":310106,"adname":"静安区","gridcode":4621731710,"distance":1664,"business_area":"宝山路","timestamp":"2023-05-12 23:54:12","biz_ext":"{\"rating\": \"4.6\", \"cost\": []}","行业大类":"汽车销售","行业中类":"荣威销售","行业小类":"荣威销售|汽车维修","wgs84_loc":"121.460965,31.263762","wgs84Lng":121.460965,"wgs84Lat":31.263762,"__source_file__":"02-POI&AOI/1-POI/其它/23/Excel/分类/上海市-POI-2023.csv-汽车销售.csv"},"geometry":{"type":"Point","coordinates":[121.460965,31.263762]}},{"id":"2","type":"Feature","properties":{"id":"e33fb006-f100-3a2d-9c07-01ba66941a85","name":"上海弘兆汽车销售服务有限公司","type":"汽车销售;汽车销售;汽车销售","typecode":"020000","address":"中山北路2020中星经贸大厦9层","location":"121.431509,31.248343","tel":"021-32030313;021-52910538","pcode":310000,"pname":"上海市","citycode":21,"cityname":"上海市","adcode":310107,"adname":"普陀区","gridcode":4621639421,"distance":824,"business_area":"光新","timestamp":"2022-11-18 16:58:19","biz_ext":"{\"rating\": \"3.5\", \"cost\": []}","行业大类":"汽车销售","行业中类":"汽车销售","行业小类":"汽车销售","wgs84_loc":"121.426879,31.250189","wgs84Lng":121.426879,"wgs84Lat":31.250189,"__source_file__":"02-POI&AOI/1-POI/其它/23/Excel/分类/上海市-POI-2023.csv-汽车销售.csv"},"geometry":{"type":"Point","coordinates":[121.426879,31.250189]}},{"id":"1243","type":"Feature","properties":{"id":"3f6d7922-8fef-34b8-8291-d8e71377f11e","name":"管家式汽车服务","type":"汽车销售;汽车销售;汽车销售","typecode":"020000","address":"莫干山路89号","location":"121.447554,31.248395","tel":"13127833333","pcode":310000,"pname":"上海市","citycode":21,"cityname":"上海市","adcode":310107,"adname":"普陀区","gridcode":4621639522,"distance":1124,"business_area":"光新","timestamp":"2023-04-19 20:51:13","biz_ext":"{\"rating\": \"4.0\", \"cost\": []}","行业大类":"汽车销售","行业中类":"汽车销售","行业小类":"汽车销售","wgs84_loc":"121.442955,31.250267","wgs84Lng":121.442955,"wgs84Lat":31.250267,"__source_file__":"02-POI&AOI/1-POI/其它/23/Excel/分类/上海市-POI-2023.csv-汽车销售.csv"},"geometry":{"type":"Point","coordinates":[121.442955,31.250267]}},{"id":"2997","type":"Feature","properties":{"id":"d7ce631c-757c-3782-96f0-e29fc0dabeee","name":"上海天安千树戴森直营店","type":"汽车销售;汽车销售;汽车销售","typecode":"020000","address":"昌化路与莫干山路交叉口西20米","location":"121.443955,31.248444","tel":"[]","pcode":310000,"pname":"上海市","citycode":21,"cityname":"上海市","adcode":310107,"adname":"普陀区","gridcode":4621639521,"distance":1803,"business_area":"光新","timestamp":"2023-05-10 18:54:57","biz_ext":"{\"rating\": \"4.2\", \"cost\": []}","行业大类":"汽车销售","行业中类":"汽车销售","行业小类":"汽车销售","wgs84_loc":"121.439348,31.250309","wgs84Lng":121.439348,"wgs84Lat":31.250309,"__source_file__":"02-POI&AOI/1-POI/其它/23/Excel/分类/上海市-POI-2023.csv-汽车销售.csv"},"geometry":{"type":"Point","coordinates":[121.439348,31.250309]}},{"id":"2621","type":"Feature","properties":{"id":"83ea8a9a-acfd-3299-912e-2e436612c016","name":"蔚来空间(上海天安千树)","type":"汽车销售;汽车销售;汽车销售","typecode":"020000","address":"莫干山路600号天安千树W-L13店铺","location":"121.446283,31.248996","tel":"16601818192","pcode":310000,"pname":"上海市","citycode":21,"cityname":"上海市","adcode":310107,"adname":"普陀区","gridcode":4621639522,"distance":1907,"business_area":"光新","timestamp":"2023-05-12 23:52:25","biz_ext":"{\"rating\": \"4.5\", \"cost\": []}","行业大类":"汽车销售","行业中类":"汽车销售","行业小类":"汽车销售","wgs84_loc":"121.441681,31.250865","wgs84Lng":121.441681,"wgs84Lat":31.250865,"__source_file__":"02-POI&AOI/1-POI/其它/23/Excel/分类/上海市-POI-2023.csv-汽车销售.csv"},"geometry":{"type":"Point","coordinates":[121.441681,31.250865]}},{"id":"2578","type":"Feature","properties":{"id":"445c2341-4bf2-303f-a494-912718ad4acb","name":"智己汽车体验中心(天安千树)","type":"汽车销售;汽车销售;汽车销售","typecode":"020000","address":"莫干山路600号","location":"121.446708,31.249152","tel":"[]","pcode":310000,"pname":"上海市","citycode":21,"cityname":"上海市","adcode":310107,"adname":"普陀区","gridcode":4621639522,"distance":1910,"business_area":"光新","timestamp":"2023-05-10 23:57:20","biz_ext":"{\"rating\": \"4.3\", \"cost\": []}","行业大类":"汽车销售","行业中类":"汽车销售","行业小类":"汽车销售","wgs84_loc":"121.442107,31.251022","wgs84Lng":121.442107,"wgs84Lat":31.251022,"__source_file__":"02-POI&AOI/1-POI/其它/23/Excel/分类/上海市-POI-2023.csv-汽车销售.csv"},"geometry":{"type":"Point","coordinates":[121.442107,31.251022]}},{"id":"2511","type":"Feature","properties":{"id":"6b580fbb-e2f9-38f5-9a9a-cc5e1590c438","name":"上海金康汽车销售有限公司","type":"汽车销售;汽车销售;汽车销售","typecode":"020000","address":"交通路2231号","location":"121.433633,31.257644","tel":"[]","pcode":310000,"pname":"上海市","citycode":21,"cityname":"上海市","adcode":310107,"adname":"普陀区","gridcode":4621730422,"distance":1403,"business_area":"光新","timestamp":"2023-04-09 14:43:05","biz_ext":"{\"rating\": [], \"cost\": []}","行业大类":"汽车销售","行业中类":"汽车销售","行业小类":"汽车销售","wgs84_loc":"121.429006,31.259489","wgs84Lng":121.429006,"wgs84Lat":31.259489,"__source_file__":"02-POI&AOI/1-POI/其它/23/Excel/分类/上海市-POI-2023.csv-汽车销售.csv"},"geometry":{"type":"Point","coordinates":[121.429006,31.259489]}},{"id":"1053","type":"Feature","properties":{"id":"5eb52b7a-3a9c-3c60-af5a-5f42784c2239","name":"上海电宙汽车服务有限公司","type":"汽车销售;汽车销售;汽车销售","typecode":"020000","address":"志丹路176-178号附近","location":"121.431256,31.261506","tel":"021-56302300","pcode":310000,"pname":"上海市","citycode":21,"cityname":"上海市","adcode":310107,"adname":"普陀区","gridcode":4621731411,"distance":1095,"business_area":"光新","timestamp":"2023-05-05 18:05:19","biz_ext":"{\"rating\": \"3.8\", \"cost\": []}","行业大类":"汽车销售","行业中类":"汽车销售","行业小类":"汽车销售","wgs84_loc":"121.426624,31.263346","wgs84Lng":121.426624,"wgs84Lat":31.263346,"__source_file__":"02-POI&AOI/1-POI/其它/23/Excel/分类/上海市-POI-2023.csv-汽车销售.csv"},"geometry":{"type":"Point","coordinates":[121.426624,31.263346]}},{"id":"1470","type":"Feature","properties":{"id":"e55def3b-9108-3e04-9243-d253dbd4a3d4","name":"上海协通崇明汽车销售服务有限公司","type":"汽车销售;通用特约销售;别克销售|汽车维修;汽车维修;汽车维修","typecode":"020402|030000","address":"沪太路790号","location":"121.443456,31.265789","tel":"021-65878872","pcode":310000,"pname":"上海市","citycode":21,"cityname":"上海市","adcode":310107,"adname":"普陀区","gridcode":4621731521,"distance":733,"business_area":"光新","timestamp":"2023-05-12 23:52:29","biz_ext":"{\"rating\": \"4.4\", \"cost\": []}","行业大类":"汽车销售","行业中类":"通用特约销售","行业小类":"别克销售|汽车维修","wgs84_loc":"121.438847,31.267646","wgs84Lng":121.438847,"wgs84Lat":31.267646,"__source_file__":"02-POI&AOI/1-POI/其它/23/Excel/分类/上海市-POI-2023.csv-汽车销售.csv"},"geometry":{"type":"Point","coordinates":[121.438847,31.267646]}},{"id":"363","type":"Feature","properties":{"id":"c46aa2b5-9373-3b44-9aec-97e4b429aaa6","name":"雪佛兰(沪太路店)","type":"汽车销售;汽车销售;汽车销售","typecode":"020000","address":"沪太路800号","location":"121.443742,31.265846","tel":"[]","pcode":310000,"pname":"上海市","citycode":21,"cityname":"上海市","adcode":310107,"adname":"普陀区","gridcode":4621731521,"distance":751,"business_area":"大宁路","timestamp":"2023-03-27 19:47:46","biz_ext":"{\"rating\": \"3.8\", \"cost\": []}","行业大类":"汽车销售","行业中类":"汽车销售","行业小类":"汽车销售","wgs84_loc":"121.439133,31.267703","wgs84Lng":121.439133,"wgs84Lat":31.267703,"__source_file__":"02-POI&AOI/1-POI/其它/23/Excel/分类/上海市-POI-2023.csv-汽车销售.csv"},"geometry":{"type":"Point","coordinates":[121.439133,31.267703]}},{"id":"1745","type":"Feature","properties":{"id":"a5c5f01f-c81c-3db6-8f45-f8402614aebe","name":"别克展厅","type":"汽车销售;汽车销售;汽车销售","typecode":"020000","address":"共和新路1301号现代交通商务区F1层","location":"121.460013,31.265010","tel":"[]","pcode":310000,"pname":"上海市","citycode":21,"cityname":"上海市","adcode":310106,"adname":"静安区","gridcode":4621731622,"distance":97,"business_area":"和田","timestamp":"2023-04-10 17:50:08","biz_ext":"{\"rating\": \"3.4\", \"cost\": []}","行业大类":"汽车销售","行业中类":"汽车销售","行业小类":"汽车销售","wgs84_loc":"121.455445,31.266902","wgs84Lng":121.455445,"wgs84Lat":31.266902,"__source_file__":"02-POI&AOI/1-POI/其它/23/Excel/分类/上海市-POI-2023.csv-汽车销售.csv"},"geometry":{"type":"Point","coordinates":[121.455445,31.266902]}},{"id":"3475","type":"Feature","properties":{"id":"c2ba7ae2-7f03-3b83-975a-c0ccfcd7d404","name":"极氪空间上海大宁国际","type":"汽车销售;汽车销售;汽车销售","typecode":"020000","address":"共和新路1868号大宁国际商业广场103","location":"121.453349,31.273503","tel":"13801756875","pcode":310000,"pname":"上海市","citycode":21,"cityname":"上海市","adcode":310106,"adname":"静安区","gridcode":4621732620,"distance":1573,"business_area":"大宁路","timestamp":"2023-05-12 23:50:39","biz_ext":"{\"rating\": \"4.6\", \"cost\": []}","行业大类":"汽车销售","行业中类":"汽车销售","行业小类":"汽车销售","wgs84_loc":"121.448762,31.275376","wgs84Lng":121.448762,"wgs84Lat":31.275376,"__source_file__":"02-POI&AOI/1-POI/其它/23/Excel/分类/上海市-POI-2023.csv-汽车销售.csv"},"geometry":{"type":"Point","coordinates":[121.448762,31.275376]}},{"id":"3754","type":"Feature","properties":{"id":"b3c62934-d5b5-352e-bcd4-5a05e309bd31","name":"阿维塔体验中心(上海大宁国际店)","type":"汽车销售;汽车销售;汽车销售","typecode":"020000","address":"共和新路1878-2008号5座1F102号","location":"121.453270,31.273742","tel":"15821882280","pcode":310000,"pname":"上海市","citycode":21,"cityname":"上海市","adcode":310106,"adname":"静安区","gridcode":4621732620,"distance":1573,"business_area":"大宁路","timestamp":"2023-05-13 02:59:18","biz_ext":"{\"rating\": \"4.2\", \"cost\": []}","行业大类":"汽车销售","行业中类":"汽车销售","行业小类":"汽车销售","wgs84_loc":"121.448683,31.275615","wgs84Lng":121.448683,"wgs84Lat":31.275615,"__source_file__":"02-POI&AOI/1-POI/其它/23/Excel/分类/上海市-POI-2023.csv-汽车销售.csv"},"geometry":{"type":"Point","coordinates":[121.448683,31.275615]}},{"id":"3733","type":"Feature","properties":{"id":"5dda3b49-2160-36e4-a75a-b50a5f5e8d47","name":"上海静安大宁国际店","type":"汽车销售;汽车销售;汽车销售","typecode":"020000","address":"商场南路与商场西路交叉口东北140米","location":"121.452384,31.273763","tel":"[]","pcode":310000,"pname":"上海市","citycode":21,"cityname":"上海市","adcode":310106,"adname":"静安区","gridcode":4621732620,"distance":1493,"business_area":"大宁路","timestamp":"2023-03-17 23:50:30","biz_ext":"{\"rating\": \"3.5\", \"cost\": []}","行业大类":"汽车销售","行业中类":"汽车销售","行业小类":"汽车销售","wgs84_loc":"121.447795,31.275634","wgs84Lng":121.447795,"wgs84Lat":31.275634,"__source_file__":"02-POI&AOI/1-POI/其它/23/Excel/分类/上海市-POI-2023.csv-汽车销售.csv"},"geometry":{"type":"Point","coordinates":[121.447795,31.275634]}},{"id":"2657","type":"Feature","properties":{"id":"1829106d-6201-35a8-99f3-a1399c014264","name":"理想汽车上海大宁国际零售中心","type":"汽车销售;汽车销售;汽车销售","typecode":"020000","address":"大宁国际商业广场共和新路1978号102D103D106D号商铺","location":"121.452360,31.274392","tel":"021-60220671","pcode":310000,"pname":"上海市","citycode":21,"cityname":"上海市","adcode":310106,"adname":"静安区","gridcode":4621732620,"distance":1513,"business_area":"大宁路","timestamp":"2023-05-12 23:47:45","biz_ext":"{\"rating\": \"4.4\", \"cost\": []}","行业大类":"汽车销售","行业中类":"汽车销售","行业小类":"汽车销售","wgs84_loc":"121.447771,31.276263","wgs84Lng":121.447771,"wgs84Lat":31.276263,"__source_file__":"02-POI&AOI/1-POI/其它/23/Excel/分类/上海市-POI-2023.csv-汽车销售.csv"},"geometry":{"type":"Point","coordinates":[121.447771,31.276263]}},{"id":"3627","type":"Feature","properties":{"id":"d621e938-5198-32c9-80d4-a1587b588330","name":"大宁国际别克新能源商超店(纯电空间)","type":"汽车销售;汽车销售;汽车销售","typecode":"020000","address":"共和新路1928号107B-1108室","location":"121.452141,31.274516","tel":"021-66310086","pcode":310000,"pname":"上海市","citycode":21,"cityname":"上海市","adcode":310106,"adname":"静安区","gridcode":4621732620,"distance":1498,"business_area":"大宁路","timestamp":"2023-05-05 22:32:00","biz_ext":"{\"rating\": \"4.7\", \"cost\": []}","行业大类":"汽车销售","行业中类":"汽车销售","行业小类":"汽车销售","wgs84_loc":"121.447551,31.276386","wgs84Lng":121.447551,"wgs84Lat":31.276386,"__source_file__":"02-POI&AOI/1-POI/其它/23/Excel/分类/上海市-POI-2023.csv-汽车销售.csv"},"geometry":{"type":"Point","coordinates":[121.447551,31.276386]}},{"id":"2034","type":"Feature","properties":{"id":"eaa85971-2e17-33fb-92b3-1926769960e9","name":"蔚来空间(上海大宁国际商业广场)","type":"汽车销售;汽车销售;汽车销售","typecode":"020000","address":"共和新路1988号10座蔚来汽车","location":"121.452400,31.275022","tel":"021-56521030","pcode":310000,"pname":"上海市","citycode":21,"cityname":"上海市","adcode":310106,"adname":"静安区","gridcode":4621733600,"distance":1541,"business_area":"大宁路","timestamp":"2023-05-12 23:47:42","biz_ext":"{\"rating\": \"4.4\", \"cost\": []}","行业大类":"汽车销售","行业中类":"汽车销售","行业小类":"汽车销售","wgs84_loc":"121.447811,31.276892","wgs84Lng":121.447811,"wgs84Lat":31.276892,"__source_file__":"02-POI&AOI/1-POI/其它/23/Excel/分类/上海市-POI-2023.csv-汽车销售.csv"},"geometry":{"type":"Point","coordinates":[121.447811,31.276892]}},{"id":"3530","type":"Feature","properties":{"id":"b84e336d-fad3-313e-9954-3524e43f9685","name":"协通别克","type":"汽车销售;通用特约销售;别克销售","typecode":"020402","address":"沪太路与延长西路交叉口西北60米","location":"121.443615,31.265967","tel":"[]","pcode":310000,"pname":"上海市","citycode":21,"cityname":"上海市","adcode":310107,"adname":"普陀区","gridcode":4621731521,"distance":733,"business_area":"大宁路","timestamp":"2023-05-07 11:08:43","biz_ext":"{\"rating\": \"3.1\", \"cost\": []}","行业大类":"汽车销售","行业中类":"通用特约销售","行业小类":"别克销售","wgs84_loc":"121.439006,31.267824","wgs84Lng":121.439006,"wgs84Lat":31.267824,"__source_file__":"02-POI&AOI/1-POI/其它/23/Excel/分类/上海市-POI-2023.csv-汽车销售.csv"},"geometry":{"type":"Point","coordinates":[121.439006,31.267824]}},{"id":"2576","type":"Feature","properties":{"id":"8da5f11d-419d-3e92-a06a-64b9a3089ebc","name":"通用授权五星级4s店","type":"汽车销售;汽车销售;汽车销售","typecode":"020000","address":"沪太路沪太路788弄16号","location":"121.443542,31.266019","tel":"[]","pcode":310000,"pname":"上海市","citycode":21,"cityname":"上海市","adcode":310107,"adname":"普陀区","gridcode":4621731521,"distance":724,"business_area":"大宁路","timestamp":"2022-11-21 23:36:25","biz_ext":"{\"rating\": \"3.7\", \"cost\": []}","行业大类":"汽车销售","行业中类":"汽车销售","行业小类":"汽车销售","wgs84_loc":"121.438933,31.267876","wgs84Lng":121.438933,"wgs84Lat":31.267876,"__source_file__":"02-POI&AOI/1-POI/其它/23/Excel/分类/上海市-POI-2023.csv-汽车销售.csv"},"geometry":{"type":"Point","coordinates":[121.438933,31.267876]}},{"id":"2206","type":"Feature","properties":{"id":"fee07703-9c08-3e0f-aa49-7351be9d07aa","name":"BUICK(沪太路店)","type":"汽车销售;通用特约销售;别克销售","typecode":"020402","address":"沪太路沪太路788弄16号","location":"121.442717,31.266437","tel":"[]","pcode":310000,"pname":"上海市","citycode":21,"cityname":"上海市","adcode":310107,"adname":"普陀区","gridcode":4621731521,"distance":633,"business_area":"大宁路","timestamp":"2023-04-14 03:28:35","biz_ext":"{\"rating\": [], \"cost\": []}","行业大类":"汽车销售","行业中类":"通用特约销售","行业小类":"别克销售","wgs84_loc":"121.438106,31.268292","wgs84Lng":121.438106,"wgs84Lat":31.268292,"__source_file__":"02-POI&AOI/1-POI/其它/23/Excel/分类/上海市-POI-2023.csv-汽车销售.csv"},"geometry":{"type":"Point","coordinates":[121.438106,31.268292]}},{"id":"49","type":"Feature","properties":{"id":"38e932a0-e773-3bee-8121-3473e0b2772e","name":"上海强生汽车贸易有限公司","type":"汽车销售;大众特约销售;上海大众销售|汽车维修;大众特约维修;上海大众维修","typecode":"020101|030201","address":"沪太路800号","location":"121.442812,31.266474","tel":"021-56066575;021-56076575;4008201111","pcode":310000,"pname":"上海市","citycode":21,"cityname":"上海市","adcode":310107,"adname":"普陀区","gridcode":4621732501,"distance":638,"business_area":"光新","timestamp":"2023-05-12 23:45:52","biz_ext":"{\"rating\": \"4.4\", \"cost\": []}","行业大类":"汽车销售","行业中类":"大众特约销售","行业小类":"上海大众销售|汽车维修","wgs84_loc":"121.438201,31.268329","wgs84Lng":121.438201,"wgs84Lat":31.268329,"__source_file__":"02-POI&AOI/1-POI/其它/23/Excel/分类/上海市-POI-2023.csv-汽车销售.csv"},"geometry":{"type":"Point","coordinates":[121.438201,31.268329]}},{"id":"1249","type":"Feature","properties":{"id":"e3bc166c-4993-3a70-851e-ccf4d6c3f56b","name":"上海宝诚悦鑫宝马4S店","type":"汽车销售;宝马特约销售;宝马销售|汽车维修;汽车维修;汽车维修","typecode":"020600|030000","address":"沪太路800号1幢","location":"121.443179,31.266529","tel":"021-61226789","pcode":310000,"pname":"上海市","citycode":21,"cityname":"上海市","adcode":310107,"adname":"普陀区","gridcode":4621731521,"distance":663,"business_area":"大宁路","timestamp":"2023-05-12 23:46:35","biz_ext":"{\"rating\": \"4.1\", \"cost\": []}","行业大类":"汽车销售","行业中类":"宝马特约销售","行业小类":"宝马销售|汽车维修","wgs84_loc":"121.438569,31.268385","wgs84Lng":121.438569,"wgs84Lat":31.268385,"__source_file__":"02-POI&AOI/1-POI/其它/23/Excel/分类/上海市-POI-2023.csv-汽车销售.csv"},"geometry":{"type":"Point","coordinates":[121.438569,31.268385]}}],"name":"上海市-POI-2023.csv-汽车销售","crs":{"type":"name","properties":{"name":"urn:ogc:def:crs:OGC:1.3:CRS84"}}}