{"type":"FeatureCollection","features":[{"id":"0","type":"Feature","properties":{"Id":0,"__source_file__":"16-城市环路/内环.shp"},"geometry":{"type":"Polygon","coordinates":[[[121.42497117967635,31.248895505423302],[121.42830487477026,31.25201910539756],[121.43164804961788,31.255489535213936],[121.4366836604228,31.257680190188747],[121.44080270018455,31.259034900140573],[121.44520507495432,31.259937094621367],[121.45408844728912,31.262027505386055],[121.46202263463707,31.264698190069556],[121.46623260035432,31.26721411543914],[121.47102349483853,31.271598709712684],[121.47362040134355,31.275812712907992],[121.47474699663023,31.277992813718964],[121.47548842248383,31.27780154543424],[121.47831610058658,31.276806539804294],[121.48101819033857,31.275580892975483],[121.48356926145082,31.274136141448007],[121.48594530819267,31.27248588371089],[121.48812397558218,31.27064565198753],[121.49008476988105,31.268632765764472],[121.49180925140566,31.266466168495256],[121.49328120783882,31.264166249029824],[121.49448680641774,31.26175464946417],[121.4954147235775,31.259254061231182],[121.49655543230132,31.255571333216174],[121.49720895509832,31.252941840516893],[121.49755548948157,31.25026961052951],[121.49759164003945,31.24758102599288],[121.49731707620205,31.24490262891695],[121.49673453446849,31.24226085852577],[121.49584979036605,31.239681790302594],[121.49467160045832,31.237190878711193],[121.49321161501332,31.234812706127755],[121.49148426222861,31.232570740453905],[121.48950660518585,31.230487103791795],[121.48729817297192,31.228582354451937],[121.48488076764959,31.226875284429966],[121.48121403475672,31.224538060522995],[121.478665785768,31.223073321904213],[121.47596394886362,31.221828412381864],[121.47313411878733,31.220815121884005],[121.47020309954797,31.220043046248612],[121.4671986510073,31.21951949657703],[121.4641492265292,31.21924943018647],[121.46108370414828,31.219235403806874],[121.45999741410716,31.2192759025309],[121.45658308634171,31.21956389996637],[121.45322544632577,31.22016931735996],[121.44987632194113,31.220938936436088],[121.44729699990332,31.22163482208588],[121.44530175929886,31.222255121711427],[121.4448249527962,31.222380959544715],[121.44201488607233,31.223386771246194],[121.43933089239154,31.22462099458779],[121.43679803887224,31.22607210410547],[121.43465443577679,31.227576090732896],[121.43247887854997,31.22902447931829],[121.43023229027573,31.23084959185621],[121.42820470240456,31.232855166664738],[121.42641565907029,31.235021885085512],[121.42488241023125,31.237328875049442],[121.4236197451339,31.239753911837933],[121.42263984931566,31.242273631908752],[121.4219521865427,31.244863757739896],[121.42162334762862,31.24709298737654],[121.42497117967635,31.248895505423302]]]}}],"name":"内环","crs":{"type":"name","properties":{"name":"urn:ogc:def:crs:OGC:1.3:CRS84"}}}