{"type":"FeatureCollection","features":[{"id":"18","type":"Feature","properties":{"id":"BV10596713","name":"金陵东路渡口(轮渡站)","address":"东金线","type":"交通设施服务;轮渡站;轮渡站","typecode":"151200","pcode":310000,"pname":"上海市","citycode":21,"cityname":"上海市","adcode":310101,"adname":"黄浦区","business_a":"[]","location":"121.493308,31.232381","tel":"[]","bigType":"交通设施服务","midType":"轮渡站","smallType":"轮渡站","gcj_lng":121.493308,"gcj_lat":31.232381,"wgs84_loc":"121.488852,31.234379","wgs84Lng":"121.488852","wgs84Lat":"31.234379","__source_file__":"04-交通数据/2-交通设施/轮渡站/上海_轮渡站.shp"},"geometry":{"type":"Point","coordinates":[121.488852,31.234379]}},{"id":"17","type":"Feature","properties":{"id":"BV11312877","name":"金陵东路游船码头(轮渡站)","address":"(停运)浦江游览班轮航线","type":"交通设施服务;轮渡站;轮渡站","typecode":"151200","pcode":310000,"pname":"上海市","citycode":21,"cityname":"上海市","adcode":310101,"adname":"黄浦区","business_a":"[]","location":"121.493260,31.232467","tel":"[]","bigType":"交通设施服务","midType":"轮渡站","smallType":"轮渡站","gcj_lng":121.49326,"gcj_lat":31.232467,"wgs84_loc":"121.488804,31.234465","wgs84Lng":"121.488804","wgs84Lat":"31.234465","__source_file__":"04-交通数据/2-交通设施/轮渡站/上海_轮渡站.shp"},"geometry":{"type":"Point","coordinates":[121.488804,31.234465]}},{"id":"15","type":"Feature","properties":{"id":"B0G2Z1HZ2Y","name":"上海轮渡(金陵东路渡口)","address":"中山东二路与金陵东路交叉口北60米","type":"交通设施服务;轮渡站;轮渡站","typecode":"151200","pcode":310000,"pname":"上海市","citycode":21,"cityname":"上海市","adcode":310101,"adname":"黄浦区","business_a":"北京路","location":"121.493058,31.232589","tel":"[]","bigType":"交通设施服务","midType":"轮渡站","smallType":"轮渡站","gcj_lng":121.493058,"gcj_lat":31.232589,"wgs84_loc":"121.488602,31.234586","wgs84Lng":"121.488602","wgs84Lat":"31.234586","__source_file__":"04-交通数据/2-交通设施/轮渡站/上海_轮渡站.shp"},"geometry":{"type":"Point","coordinates":[121.488602,31.234586]}},{"id":"36","type":"Feature","properties":{"id":"BV11313059","name":"浦东东方明珠码头(轮渡站)","address":"浦江游览班轮航线","type":"交通设施服务;轮渡站;轮渡站","typecode":"151200","pcode":310000,"pname":"上海市","citycode":21,"cityname":"上海市","adcode":310115,"adname":"浦东新区","business_a":"陆家嘴","location":"121.496477,31.240628","tel":"[]","bigType":"交通设施服务","midType":"轮渡站","smallType":"轮渡站","gcj_lng":121.496477,"gcj_lat":31.240628,"wgs84_loc":"121.492032,31.242632","wgs84Lng":"121.492032","wgs84Lat":"31.242632","__source_file__":"04-交通数据/2-交通设施/轮渡站/上海_轮渡站.shp"},"geometry":{"type":"Point","coordinates":[121.492032,31.242632]}}],"name":"上海_轮渡站","crs":{"type":"name","properties":{"name":"urn:ogc:def:crs:OGC:1.3:CRS84"}}}