{"type":"FeatureCollection","features":[{"id":"10","type":"Feature","properties":{"OBJECTID":725171,"id":"037071f9-152e-3689-a6d1-778e2080e2a3","name":"金陵东路渡口(轮渡站)","type":"交通设施服务;轮渡站;轮渡站","typecode":"151200","address":"东金线","经度":121.493308,"纬度":31.232381,"tel":"[]","pcode":310000,"pname":"上海市","citycode":21,"cityname":"上海市","adcode":310101,"adname":"黄浦区","gridcode":4621637921.0,"distance":"146","business_a":"北京东路","timestamp":"2023-02-15","biz_ext":"{\"rating\": [], \"cost\": []}","行业大":"交通设施服务","行业中":"轮渡站","行业小":"轮渡站","typecode_X":0.0,"typecode_Y":0.0,"__source_file__":"04-交通数据/2-交通设施/轮渡站/上海市_轮渡站.shp"},"geometry":{"type":"Point","coordinates":[121.48885246747717,31.23437885868035]}},{"id":"40","type":"Feature","properties":{"OBJECTID":729360,"id":"e51acabc-218e-3cce-bd9f-7ca34e282d23","name":"金陵东路游船码头(轮渡站)","type":"交通设施服务;轮渡站;轮渡站","typecode":"151200","address":"浦江游览班轮航线","经度":121.49326,"纬度":31.232467,"tel":"[]","pcode":310000,"pname":"上海市","citycode":21,"cityname":"上海市","adcode":310101,"adname":"黄浦区","gridcode":4621637921.0,"distance":"499","business_a":"北京东路","timestamp":"2023-05-08","biz_ext":"{\"rating\": [], \"cost\": []}","行业大":"交通设施服务","行业中":"轮渡站","行业小":"轮渡站","typecode_X":0.0,"typecode_Y":0.0,"__source_file__":"04-交通数据/2-交通设施/轮渡站/上海市_轮渡站.shp"},"geometry":{"type":"Point","coordinates":[121.48880428798509,31.234464675637422]}},{"id":"0","type":"Feature","properties":{"OBJECTID":12551,"id":"02915a0c-7120-3acc-81c7-0476f408f741","name":"上海轮渡(金陵东路渡口)","type":"交通设施服务;轮渡站;轮渡站","typecode":"151200","address":"中山东二路与金陵东路交叉口北60米","经度":121.493058,"纬度":31.232589,"tel":"[]","pcode":310000,"pname":"上海市","citycode":21,"cityname":"上海市","adcode":310101,"adname":"黄浦区","gridcode":4621637921.0,"distance":"482","business_a":"北京东路","timestamp":"2022-09-19","biz_ext":"{\"rating\": [], \"cost\": []}","行业大":"交通设施服务","行业中":"轮渡站","行业小":"轮渡站","typecode_X":0.0,"typecode_Y":0.0,"__source_file__":"04-交通数据/2-交通设施/轮渡站/上海市_轮渡站.shp"},"geometry":{"type":"Point","coordinates":[121.48860155326112,31.23458601592316]}},{"id":"41","type":"Feature","properties":{"OBJECTID":729361,"id":"0b1bc692-e6ab-32b5-8c07-541da923d6a8","name":"浦东东方明珠码头(轮渡站)","type":"交通设施服务;轮渡站;轮渡站","typecode":"151200","address":"浦江游览班轮航线","经度":121.496494,"纬度":31.240621,"tel":"[]","pcode":310000,"pname":"上海市","citycode":21,"cityname":"上海市","adcode":310115,"adname":"浦东新区","gridcode":4621638922.0,"distance":"576","business_a":"陆家嘴","timestamp":"2023-05-08","biz_ext":"{\"rating\": [], \"cost\": []}","行业大":"交通设施服务","行业中":"轮渡站","行业小":"轮渡站","typecode_X":0.0,"typecode_Y":0.0,"__source_file__":"04-交通数据/2-交通设施/轮渡站/上海市_轮渡站.shp"},"geometry":{"type":"Point","coordinates":[121.49204922684864,31.242624642772853]}}],"name":"上海市_轮渡站","crs":{"type":"name","properties":{"name":"urn:ogc:def:crs:OGC:1.3:CRS84"}}}