{"type":"FeatureCollection","features":[{"id":"7","type":"Feature","properties":{"OBJECTID":761518,"id":"e2a1f211-2d38-3096-872e-97da117730ff","name":"上海轮渡(金陵东路站)","type":"交通设施服务;港口码头;人渡口","typecode":"150303","address":"中山东二路外滩141","经度":121.493153,"纬度":31.23236,"tel":null,"pcode":310000,"pname":null,"citycode":21,"cityname":"上海市","adcode":310101,"adname":"黄浦区","gridcode":4621637921.0,"distance":"509","business_a":null,"timestamp":"NaT","biz_ext":"{\"rating\": \"4.5\", \"cost\": []}","行业大":"交通设施服务","行业中":"港口码头","行业小":"人渡口","typecode_X":0.0,"typecode_Y":0.0,"__source_file__":"04-交通数据/2-交通设施/轮渡站/上海市_人渡口.shp"},"geometry":{"type":"Point","coordinates":[121.48869691338903,31.234357405151403]}}],"name":"上海市_人渡口","crs":{"type":"name","properties":{"name":"urn:ogc:def:crs:OGC:1.3:CRS84"}}}