{"type":"FeatureCollection","features":[{"id":"29566","type":"Feature","properties":{"id":"B0G3UM1EOP","name":"Hummingbird蜂鸟排练房‖","address":"四川北路1808号B1层地下室(洛桑俱乐部侧)","type":"体育休闲服务;娱乐场所;娱乐场所","typecode":"080300","pcode":310000,"pname":"上海市","citycode":21,"cityname":"上海市","adcode":310110,"adname":"杨浦区","business_a":"延吉","location":"121.484657,31.259888","tel":"13681622853;13817195472","bigType":"体育休闲服务","midType":"娱乐场所","smallType":"娱乐场所","gcj_lng":121.484657,"gcj_lat":31.259888,"wgs84_loc":"121.480168,31.261848","wgs84Lng":"121.480168","wgs84Lat":"31.261848","__source_file__":"02-POI&AOI/1-POI/25.05/SHP/分类/按区县/上海市2025-1343026.csv-杨浦区.shp"},"geometry":{"type":"Point","coordinates":[121.480168,31.261848]}}],"name":"上海市2025-1343026.csv-杨浦区","crs":{"type":"name","properties":{"name":"urn:ogc:def:crs:OGC:1.3:CRS84"}}}