{"type":"FeatureCollection","features":[{"id":"9","type":"Feature","properties":{"OBJECTID":421432,"id":"1d08b8eb-2547-3e8e-8465-96e4915ac25e","name":"上海机场城市航站楼(装修中)","type":"交通设施服务;机场相关;机场相关","typecode":"150100","address":"南京西路1598-1600号","经度":121.447218,"纬度":31.223954,"tel":"[]","pcode":310000,"pname":"上海市","citycode":21,"cityname":"上海市","adcode":310106,"adname":"静安区","gridcode":4621636522.0,"distance":"410","business_a":"曹家渡","timestamp":"2023-04-11","biz_ext":"{\"rating\": [], \"cost\": []}","行业大":"交通设施服务","行业中":"机场相关","行业小":"机场相关","typecode_X":0.0,"typecode_Y":0.0,"__source_file__":"04-交通数据/2-交通设施/机场/上海市_机场相关.shp"},"geometry":{"type":"Point","coordinates":[121.4426206221942,31.225836624744318]}}],"name":"上海市_机场相关","crs":{"type":"name","properties":{"name":"urn:ogc:def:crs:OGC:1.3:CRS84"}}}