{
  "type": "FeatureCollection",
  "name": "SITE",
  "features": [
    {
      "type": "Feature",
      "geometry": {
        "type": "Polygon",
        "coordinates": [
          [
            [
              121.46610033363355,
              31.248643262683238
            ],
            [
              121.4649681509907,
              31.252216132688805
            ],
            [
              121.46486764357086,
              31.252183057189683
            ],
            [
              121.46370662172455,
              31.251856842975116
            ],
            [
              121.46315273389749,
              31.251701681163606
            ],
            [
              121.46268467171086,
              31.251588112064276
            ],
            [
              121.46221262680582,
              31.251536654620175
            ],
            [
              121.46171881356724,
              31.251554593914832
            ],
            [
              121.45934763091759,
              31.25197469449751
            ],
            [
              121.45921732538193,
              31.25195221496498
            ],
            [
              121.45915304679406,
              31.25187830627721
            ],
            [
              121.45867816470547,
              31.249610527964514
            ],
            [
              121.45765277846743,
              31.249960536316795
            ],
            [
              121.45527641617088,
              31.25087518091305
            ],
            [
              121.45545995181652,
              31.24808084279474
            ],
            [
              121.4554817849615,
              31.248004341373246
            ],
            [
              121.45556465743289,
              31.2479108873701
            ],
            [
              121.45677621781041,
              31.247527099143152
            ],
            [
              121.45881204157915,
              31.24689440954562
            ],
            [
              121.45946142396609,
              31.24669984644029
            ],
            [
              121.46007757382196,
              31.246555111297305
            ],
            [
              121.4608044983088,
              31.246424383972787
            ],
            [
              121.46168817259311,
              31.246325230337984
            ],
            [
              121.46221342003231,
              31.246331347556573
            ],
            [
              121.46245901418968,
              31.24638127079647
            ],
            [
              121.46293501532567,
              31.246540770635598
            ],
            [
              121.46330217939108,
              31.246748602328225
            ],
            [
              121.46610033363355,
              31.248643262683238
            ]
          ]
        ]
      },
      "properties": {
        "layer": "SITE",
        "dxftype": "POLYLINE",
        "handle": "60",
        "color": 256
      }
    }
  ]
}