{"type":"FeatureCollection","features":[{"id":"0","type":"Feature","properties":{"Id":0,"__source_file__":"内环边界/内环边界.shp"},"geometry":{"type":"Polygon","coordinates":[[[13516835.670288086,3665028.1251220703],[13517800.857299805,3666048.2393188477],[13518682.113708496,3666433.6392822266],[13519212.746704102,3666576.5546875],[13520284.170288086,3666836.1251220703],[13520512.670288086,3666918.6251220703],[13521150.670288086,3667209.1251220703],[13521302.789489746,3667300.68951416],[13521387.425720215,3667364.7072753906],[13521469.083496094,3667435.0380859375],[13521549.670288086,3667508.6251220703],[13521682.170288086,3667682.1251220703],[13522081.373474121,3668065.1875],[13522263.670288086,3668402.6251220703],[13522425.402569076,3668929.295684746],[13522589.5150551,3668879.7591984835],[13522904.290741624,3668750.1603757977],[13523205.085996894,3668590.5225693164],[13523489.069934087,3668402.3495208886],[13523753.57024749,3668187.4136451324],[13523996.098391898,3667947.7392652654],[13524214.373014798,3667685.5834728233],[13524406.34142,3667403.414795018],[13524570.19886061,3667103.889874252],[13524704.405480515,3666789.8283830164],[13524807.700746238,3666464.1864136816],[13524934.683860518,3665984.614644592],[13525007.433685502,3665642.208607554],[13525046.009716587,3665294.2471968387],[13525050.033978283,3664944.1661352944],[13525019.469671713,3664595.4214955275],[13524954.621422568,3664251.455575899],[13524856.132159602,3663915.662935412],[13524724.976659015,3663591.356922095],[13524562.451822713,3663281.737023766],[13524370.163790299,3662989.8573611737],[13524150.012015335,3662718.596631413],[13523904.170465829,3662470.6297947424],[13523635.066136304,3662248.401780134],[13523226.887297796,3661944.1462378353],[13522943.217517959,3661753.4730729777],[13522642.450409556,3661591.41860594],[13522327.435166432,3661459.5164177227],[13522001.1555972,3661359.0146324164],[13521666.701915538,3661290.864164122],[13521327.241535425,3661255.709765733],[13520985.989144964,3661253.883962107],[13520865.063890735,3661259.155652286],[13520484.982662482,3661296.6441393043],[13520111.21188564,3661375.4514012923],[13519738.38906454,3661475.6335465726],[13519451.260248698,3661566.218434392],[13519229.151080599,3661646.964693793],[13519176.073223516,3661663.3454459556],[13518863.258026721,3661794.276267006],[13518564.477216883,3661954.942314264],[13518282.521252861,3662143.844382905],[13518043.896447811,3662339.6329318597],[13517801.71452513,3662528.186688864],[13517551.625462418,3662765.787143625],[13517325.915413063,3663026.8861914575],[13517126.760020085,3663308.970213071],[13516956.079540063,3663609.323230139],[13516815.520304384,3663925.0529775945],[13516706.438800868,3664253.118683068],[13516629.888531143,3664590.3602894307],[13516591.50591424,3664894.706062838],[13516835.670288086,3665028.1251220703]]]}}],"crs":{"type":"name","properties":{"name":"urn:ogc:def:crs:OGC:1.3:CRS84"}},"name":"内环边界"}