{"type":"FeatureCollection","features":[{"id":"121","type":"Feature","properties":{"OBJECTID_1":140,"OBJECTID":32915,"CLASS":"AH","NAME":"曹家渡街道","PINYIN":null,"GNID":"310106014000","XZNAME":null,"__source_file__":"03-行政区/其他/驻地/上海市_乡镇驻地.shp"},"geometry":{"type":"Point","coordinates":[121.43524150039502,31.231460599826846]}},{"id":"118","type":"Feature","properties":{"OBJECTID_1":137,"OBJECTID":32911,"CLASS":"AH","NAME":"北外滩街道","PINYIN":null,"GNID":"310109018000","XZNAME":null,"__source_file__":"03-行政区/其他/驻地/上海市_乡镇驻地.shp"},"geometry":{"type":"Point","coordinates":[121.49497754008144,31.253949289727984]}}],"name":"上海市_乡镇驻地","crs":{"type":"name","properties":{"name":"urn:ogc:def:crs:OGC:1.3:CRS84"}}}