{"type":"FeatureCollection","features":[{"id":"4","type":"Feature","properties":{"gml_id":"layer_commercial_pg.5","Name":"中环广场","fclass":"commercial","__source_file__":"19-其它/13-历史版本数据/2021.08/上海市_商业区.shp"},"geometry":{"type":"Polygon","coordinates":[[[121.467897,31.224248],[121.468814,31.22464],[121.469025,31.223981],[121.46901,31.223893],[121.468076,31.223563],[121.467993,31.223544],[121.467956,31.223599],[121.467851,31.224192],[121.467897,31.224248]]]}},{"id":"3","type":"Feature","properties":{"gml_id":"layer_commercial_pg.4","Name":"瑞安广场","fclass":"commercial","__source_file__":"19-其它/13-历史版本数据/2021.08/上海市_商业区.shp"},"geometry":{"type":"Polygon","coordinates":[[[121.469845,31.225008],[121.470195,31.224288],[121.469251,31.223953],[121.468901,31.224673],[121.469845,31.225008]]]}},{"id":"20","type":"Feature","properties":{"gml_id":"layer_commercial_pg.63","Name":"香港新世界广场","fclass":"commercial","__source_file__":"19-其它/13-历史版本数据/2021.08/上海市_商业区.shp"},"geometry":{"type":"Polygon","coordinates":[[[121.468865,31.225977],[121.469138,31.226014],[121.469241,31.225979],[121.469599,31.225208],[121.468852,31.224927],[121.468444,31.225776],[121.468865,31.225977]]]}},{"id":"19","type":"Feature","properties":{"gml_id":"layer_commercial_pg.62","Name":"香港广场","fclass":"commercial","__source_file__":"19-其它/13-历史版本数据/2021.08/上海市_商业区.shp"},"geometry":{"type":"Polygon","coordinates":[[[121.469913,31.226135],[121.47033,31.226224],[121.470629,31.225573],[121.469954,31.225321],[121.469595,31.226049],[121.469913,31.226135]]]}},{"id":"18","type":"Feature","properties":{"gml_id":"layer_commercial_pg.61","Name":"金陵大厦","fclass":"commercial","__source_file__":"19-其它/13-历史版本数据/2021.08/上海市_商业区.shp"},"geometry":{"type":"Polygon","coordinates":[[[121.468865,31.226762],[121.468976,31.226747],[121.469166,31.226288],[121.469117,31.226232],[121.468949,31.226191],[121.468801,31.226187],[121.46851,31.22661],[121.468865,31.226762]]]}},{"id":"90","type":"Feature","properties":{"gml_id":"layer_commercial_pg.375","Name":"迪美购物中心","fclass":"commercial","__source_file__":"19-其它/13-历史版本数据/2021.08/上海市_商业区.shp"},"geometry":{"type":"Polygon","coordinates":[[[121.469444,31.229508],[121.469977,31.229441],[121.469954,31.229303],[121.46942,31.22937],[121.469444,31.229508]]]}},{"id":"37","type":"Feature","properties":{"gml_id":"layer_commercial_pg.97","Name":"迪美购物中心","fclass":"commercial","__source_file__":"19-其它/13-历史版本数据/2021.08/上海市_商业区.shp"},"geometry":{"type":"Polygon","coordinates":[[[121.468946,31.230986],[121.469012,31.230896],[121.46921,31.230683],[121.468761,31.230397],[121.468496,31.2307],[121.468946,31.230986]]]}},{"id":"89","type":"Feature","properties":{"gml_id":"layer_commercial_pg.374","Name":"香港名店街","fclass":"commercial","__source_file__":"19-其它/13-历史版本数据/2021.08/上海市_商业区.shp"},"geometry":{"type":"Polygon","coordinates":[[[121.471217,31.232215],[121.471334,31.232083],[121.470922,31.231816],[121.470805,31.231948],[121.471217,31.232215]]]}},{"id":"17","type":"Feature","properties":{"gml_id":"layer_commercial_pg.60","Name":"明天广场","fclass":"commercial","__source_file__":"19-其它/13-历史版本数据/2021.08/上海市_商业区.shp"},"geometry":{"type":"Polygon","coordinates":[[[121.465309,31.232909],[121.465541,31.232953],[121.465905,31.2321],[121.465263,31.23173],[121.465098,31.231676],[121.465004,31.231697],[121.464916,31.231741],[121.464135,31.232872],[121.465309,31.232909]]]}},{"id":"247","type":"Feature","properties":{"gml_id":"layer_commercial_pg.3678","Name":"春兰","fclass":"commercial","__source_file__":"19-其它/13-历史版本数据/2021.08/上海市_商业区.shp"},"geometry":{"type":"Polygon","coordinates":[[[121.459088,31.233584],[121.459225,31.233224],[121.459033,31.233178],[121.459041,31.232975],[121.458664,31.232963],[121.458595,31.232959],[121.458518,31.233314],[121.459088,31.233584]]]}},{"id":"11","type":"Feature","properties":{"gml_id":"layer_commercial_pg.12","Name":null,"fclass":"commercial","__source_file__":"19-其它/13-历史版本数据/2021.08/上海市_商业区.shp"},"geometry":{"type":"Polygon","coordinates":[[[121.447585,31.222733],[121.447651,31.222538],[121.447444,31.222488],[121.447379,31.222683],[121.447585,31.222733]]]}},{"id":"163","type":"Feature","properties":{"gml_id":"layer_commercial_pg.1967","Name":null,"fclass":"commercial","__source_file__":"19-其它/13-历史版本数据/2021.08/上海市_商业区.shp"},"geometry":{"type":"Polygon","coordinates":[[[121.440533,31.230034],[121.440599,31.229992],[121.441197,31.230283],[121.44112,31.230419],[121.441685,31.230677],[121.441603,31.230846],[121.441811,31.230907],[121.442168,31.229354],[121.441718,31.229167],[121.441915,31.228881],[121.440599,31.228266],[121.439771,31.22965],[121.440533,31.230034]]]}},{"id":"5","type":"Feature","properties":{"gml_id":"layer_commercial_pg.6","Name":null,"fclass":"commercial","__source_file__":"19-其它/13-历史版本数据/2021.08/上海市_商业区.shp"},"geometry":{"type":"Polygon","coordinates":[[[121.448056,31.232554],[121.448249,31.232198],[121.44802,31.232097],[121.44782,31.232434],[121.448056,31.232554]]]}},{"id":"142","type":"Feature","properties":{"gml_id":"layer_commercial_pg.1523","Name":"德安大厦","fclass":"commercial","__source_file__":"19-其它/13-历史版本数据/2021.08/上海市_商业区.shp"},"geometry":{"type":"Polygon","coordinates":[[[121.438418,31.236495],[121.438492,31.236519],[121.438632,31.236251],[121.438827,31.235785],[121.438095,31.235533],[121.437682,31.236265],[121.438418,31.236495]]]}},{"id":"144","type":"Feature","properties":{"gml_id":"layer_commercial_pg.1525","Name":"华通大厦","fclass":"commercial","__source_file__":"19-其它/13-历史版本数据/2021.08/上海市_商业区.shp"},"geometry":{"type":"Polygon","coordinates":[[[121.442455,31.237795],[121.443779,31.236542],[121.443006,31.235973],[121.441483,31.237423],[121.442455,31.237795]]]}},{"id":"123","type":"Feature","properties":{"gml_id":"layer_commercial_pg.1469","Name":"胶州大厦","fclass":"commercial","__source_file__":"19-其它/13-历史版本数据/2021.08/上海市_商业区.shp"},"geometry":{"type":"Polygon","coordinates":[[[121.434522,31.237536],[121.435056,31.236853],[121.43438,31.236581],[121.433831,31.237246],[121.434522,31.237536]]]}},{"id":"122","type":"Feature","properties":{"gml_id":"layer_commercial_pg.1468","Name":"西部大厦","fclass":"commercial","__source_file__":"19-其它/13-历史版本数据/2021.08/上海市_商业区.shp"},"geometry":{"type":"Polygon","coordinates":[[[121.427021,31.237779],[121.427394,31.238323],[121.427935,31.238803],[121.428368,31.238398],[121.428456,31.237848],[121.428416,31.23731],[121.428382,31.236986],[121.426805,31.237183],[121.427021,31.237779]]]}},{"id":"33","type":"Feature","properties":{"gml_id":"layer_commercial_pg.93","Name":"七宝大厦","fclass":"commercial","__source_file__":"19-其它/13-历史版本数据/2021.08/上海市_商业区.shp"},"geometry":{"type":"Polygon","coordinates":[[[121.470672,31.226379],[121.471472,31.226714],[121.471539,31.226695],[121.471823,31.22612],[121.471803,31.22608],[121.470953,31.225742],[121.470879,31.225755],[121.47063,31.226303],[121.470672,31.226379]]]}},{"id":"34","type":"Feature","properties":{"gml_id":"layer_commercial_pg.94","Name":"淮海大厦","fclass":"commercial","__source_file__":"19-其它/13-历史版本数据/2021.08/上海市_商业区.shp"},"geometry":{"type":"Polygon","coordinates":[[[121.47168,31.226827],[121.472423,31.227127],[121.472479,31.227111],[121.472732,31.226855],[121.472781,31.2266],[121.472728,31.226463],[121.472029,31.226179],[121.471968,31.226186],[121.471654,31.226783],[121.47168,31.226827]]]}},{"id":"32","type":"Feature","properties":{"gml_id":"layer_commercial_pg.89","Name":"豫园商城 Yuyuan Tourist Mart","fclass":"commercial","__source_file__":"19-其它/13-历史版本数据/2021.08/上海市_商业区.shp"},"geometry":{"type":"Polygon","coordinates":[[[121.486176,31.229754],[121.487016,31.229759],[121.487022,31.229508],[121.487067,31.2294],[121.487121,31.229273],[121.487221,31.229006],[121.487242,31.228952],[121.487344,31.22898],[121.487545,31.229031],[121.487594,31.229006],[121.487622,31.228952],[121.487115,31.228887],[121.48718319468999,31.2285011616224],[121.48647684307407,31.228002365803032],[121.486142,31.229678],[121.486176,31.229754]]]}},{"id":"23","type":"Feature","properties":{"gml_id":"layer_commercial_pg.66","Name":"来福士广场","fclass":"commercial","__source_file__":"19-其它/13-历史版本数据/2021.08/上海市_商业区.shp"},"geometry":{"type":"Polygon","coordinates":[[[121.472303,31.235269],[121.473067,31.234053],[121.472072,31.233675],[121.472025,31.233658],[121.471968,31.233651],[121.471922,31.23366],[121.471883,31.23368],[121.471558,31.234179],[121.471147,31.234822],[121.472303,31.235269]]]}},{"id":"88","type":"Feature","properties":{"gml_id":"layer_commercial_pg.362","Name":null,"fclass":"commercial","__source_file__":"19-其它/13-历史版本数据/2021.08/上海市_商业区.shp"},"geometry":{"type":"Polygon","coordinates":[[[121.486551,31.236307],[121.486634,31.236293],[121.486771,31.236058],[121.486001,31.235881],[121.485914,31.23611],[121.486551,31.236307]]]}},{"id":"86","type":"Feature","properties":{"gml_id":"layer_commercial_pg.360","Name":null,"fclass":"commercial","__source_file__":"19-其它/13-历史版本数据/2021.08/上海市_商业区.shp"},"geometry":{"type":"Polygon","coordinates":[[[121.485955,31.236461],[121.486371,31.236584],[121.486492,31.236424],[121.486497,31.236408],[121.486497,31.236392],[121.486487,31.236376],[121.486462,31.23636],[121.485883,31.236186],[121.485792,31.236408],[121.485955,31.236461]]]}},{"id":"87","type":"Feature","properties":{"gml_id":"layer_commercial_pg.361","Name":null,"fclass":"commercial","__source_file__":"19-其它/13-历史版本数据/2021.08/上海市_商业区.shp"},"geometry":{"type":"Polygon","coordinates":[[[121.486175,31.236909],[121.486371,31.236584],[121.485955,31.236461],[121.48587,31.236665],[121.485888,31.236679],[121.485835,31.236773],[121.486175,31.236909]]]}},{"id":"27","type":"Feature","properties":{"gml_id":"layer_commercial_pg.70","Name":"永安百货","fclass":"commercial","__source_file__":"19-其它/13-历史版本数据/2021.08/上海市_商业区.shp"},"geometry":{"type":"Polygon","coordinates":[[[121.473905,31.237368],[121.474173,31.236716],[121.473798,31.236569],[121.473594,31.236524],[121.473369,31.237267],[121.473905,31.237368]]]}},{"id":"29","type":"Feature","properties":{"gml_id":"layer_commercial_pg.72","Name":null,"fclass":"commercial","__source_file__":"19-其它/13-历史版本数据/2021.08/上海市_商业区.shp"},"geometry":{"type":"Polygon","coordinates":[[[121.472976,31.23775],[121.47304,31.237567],[121.473555,31.237677],[121.473706,31.237512],[121.473565,31.237483],[121.47259,31.237283],[121.472493,31.237631],[121.472976,31.23775]]]}},{"id":"28","type":"Feature","properties":{"gml_id":"layer_commercial_pg.71","Name":null,"fclass":"commercial","__source_file__":"19-其它/13-历史版本数据/2021.08/上海市_商业区.shp"},"geometry":{"type":"Polygon","coordinates":[[[121.475551,31.238392],[121.475766,31.237915],[121.47392,31.237558],[121.473684,31.237897],[121.475551,31.238392]]]}},{"id":"70","type":"Feature","properties":{"gml_id":"layer_commercial_pg.282","Name":"东银大厦","fclass":"commercial","__source_file__":"19-其它/13-历史版本数据/2021.08/上海市_商业区.shp"},"geometry":{"type":"Polygon","coordinates":[[[121.473058,31.240652],[121.473356,31.239766],[121.472556,31.239645],[121.472244,31.240417],[121.473058,31.240652]]]}},{"id":"85","type":"Feature","properties":{"gml_id":"layer_commercial_pg.347","Name":null,"fclass":"commercial","__source_file__":"19-其它/13-历史版本数据/2021.08/上海市_商业区.shp"},"geometry":{"type":"Polygon","coordinates":[[[121.485348,31.240566],[121.48538,31.240252],[121.485285,31.240249],[121.484826,31.240135],[121.484701,31.240438],[121.485348,31.240566]]]}},{"id":"84","type":"Feature","properties":{"gml_id":"layer_commercial_pg.346","Name":"上海友谊商店","fclass":"commercial","__source_file__":"19-其它/13-历史版本数据/2021.08/上海市_商业区.shp"},"geometry":{"type":"Polygon","coordinates":[[[121.484408,31.243095],[121.484408,31.242775],[121.48403,31.242774],[121.483992,31.242788],[121.483968,31.242802],[121.483952,31.242827],[121.483922,31.243088],[121.484408,31.243095]]]}},{"id":"69","type":"Feature","properties":{"gml_id":"layer_commercial_pg.276","Name":"上海国际客运中心","fclass":"commercial","__source_file__":"19-其它/13-历史版本数据/2021.08/上海市_商业区.shp"},"geometry":{"type":"Polygon","coordinates":[[[121.492152,31.247848],[121.492035,31.248059],[121.491726,31.248591],[121.492183,31.248789],[121.492134,31.248874],[121.492514,31.249014],[121.492927,31.249171],[121.492799,31.249356],[121.492696,31.24952],[121.4936,31.249933],[121.494328,31.250306],[121.494378,31.250256],[121.49444,31.250186],[121.494512,31.250086],[121.49466,31.249965],[121.49484,31.249857],[121.495005,31.249804],[121.495184,31.249773],[121.495444,31.249728],[121.49568,31.249749],[121.495822,31.249779],[121.495947,31.249837],[121.496065,31.249907],[121.496378,31.249296],[121.491624,31.247392],[121.491537,31.247599],[121.492152,31.247848]]]}},{"id":"25","type":"Feature","properties":{"gml_id":"layer_commercial_pg.68","Name":"市第一百货商店","fclass":"commercial","__source_file__":"19-其它/13-历史版本数据/2021.08/上海市_商业区.shp"},"geometry":{"type":"Polygon","coordinates":[[[121.470496,31.237387],[121.470647,31.236894],[121.470134,31.236779],[121.469984,31.237272],[121.470496,31.237387]]]}},{"id":"24","type":"Feature","properties":{"gml_id":"layer_commercial_pg.67","Name":"新世界城","fclass":"commercial","__source_file__":"19-其它/13-历史版本数据/2021.08/上海市_商业区.shp"},"geometry":{"type":"Polygon","coordinates":[[[121.469221,31.23786],[121.469318,31.237879],[121.469446,31.237824],[121.4695,31.23775],[121.469795,31.2367],[121.469696,31.236632],[121.468753,31.236377],[121.468666,31.236501],[121.468341,31.237009],[121.469221,31.23786]]]}},{"id":"26","type":"Feature","properties":{"gml_id":"layer_commercial_pg.69","Name":"东方商厦","fclass":"commercial","__source_file__":"19-其它/13-历史版本数据/2021.08/上海市_商业区.shp"},"geometry":{"type":"Polygon","coordinates":[[[121.470777,31.238273],[121.471163,31.236998],[121.470766,31.236897],[121.470401,31.238191],[121.470777,31.238273]]]}},{"id":"30","type":"Feature","properties":{"gml_id":"layer_commercial_pg.73","Name":null,"fclass":"commercial","__source_file__":"19-其它/13-历史版本数据/2021.08/上海市_商业区.shp"},"geometry":{"type":"Polygon","coordinates":[[[121.45807,31.251342],[121.458466,31.251259],[121.458319,31.250569],[121.457961,31.25057],[121.45807,31.251342]]]}},{"id":"31","type":"Feature","properties":{"gml_id":"layer_commercial_pg.74","Name":null,"fclass":"commercial","__source_file__":"19-其它/13-历史版本数据/2021.08/上海市_商业区.shp"},"geometry":{"type":"Polygon","coordinates":[[[121.454542,31.253804],[121.454585,31.253969],[121.454681,31.254024],[121.455851,31.253979],[121.455958,31.253951],[121.456012,31.253465],[121.454617,31.253483],[121.454542,31.253529],[121.45452,31.253621],[121.454542,31.253804]]]}},{"id":"121","type":"Feature","properties":{"gml_id":"layer_commercial_pg.1467","Name":"长久大厦","fclass":"commercial","__source_file__":"19-其它/13-历史版本数据/2021.08/上海市_商业区.shp"},"geometry":{"type":"Polygon","coordinates":[[[121.431239,31.239064],[121.431212,31.239359],[121.431699,31.239608],[121.432518,31.239174],[121.433175,31.238821],[121.43262,31.238311],[121.432085,31.237976],[121.431076,31.238543],[121.431239,31.239064]]]}},{"id":"120","type":"Feature","properties":{"gml_id":"layer_commercial_pg.1466","Name":"国鑫大厦","fclass":"commercial","__source_file__":"19-其它/13-历史版本数据/2021.08/上海市_商业区.shp"},"geometry":{"type":"Polygon","coordinates":[[[121.428883,31.239272],[121.429357,31.239353],[121.42981,31.239446],[121.43002,31.239069],[121.43,31.238566],[121.428565,31.238548],[121.42803,31.238977],[121.428883,31.239272]]]}},{"id":"143","type":"Feature","properties":{"gml_id":"layer_commercial_pg.1524","Name":"康海大厦","fclass":"commercial","__source_file__":"19-其它/13-历史版本数据/2021.08/上海市_商业区.shp"},"geometry":{"type":"Polygon","coordinates":[[[121.439852,31.240505],[121.440367,31.239808],[121.439647,31.239387],[121.439144,31.240156],[121.439852,31.240505]]]}},{"id":"9","type":"Feature","properties":{"gml_id":"layer_commercial_pg.10","Name":null,"fclass":"commercial","__source_file__":"19-其它/13-历史版本数据/2021.08/上海市_商业区.shp"},"geometry":{"type":"Polygon","coordinates":[[[121.452584,31.247718],[121.452625,31.246332],[121.451786,31.246314],[121.451745,31.2477],[121.452584,31.247718]]]}},{"id":"22","type":"Feature","properties":{"gml_id":"layer_commercial_pg.65","Name":null,"fclass":"commercial","__source_file__":"19-其它/13-历史版本数据/2021.08/上海市_商业区.shp"},"geometry":{"type":"Polygon","coordinates":[[[121.44941,31.275189],[121.450654,31.2733],[121.448273,31.272475],[121.447221,31.274354],[121.44941,31.275189]]]}}],"name":"上海市_商业区","crs":{"type":"name","properties":{"name":"urn:ogc:def:crs:OGC:1.3:CRS84"}}}