{"type":"FeatureCollection","features":[{"id":"2253","type":"Feature","properties":{"gml_id":"layer_functional_pg.51286","Name":null,"pyname":null,"kind":"0144","__source_file__":"19-其它/13-历史版本数据/2021.08/上海市_功能区.shp"},"geometry":{"type":"Polygon","coordinates":[[[121.45648086,31.22008443],[121.45651092,31.22000451],[121.45654098,31.21989462],[121.4565309,31.21984458],[121.45650084,31.21980458],[121.45613155639833,31.219645315508284],[121.45559334795644,31.219742360084403],[121.45648086,31.22008443]]]}},{"id":"1306","type":"Feature","properties":{"gml_id":"layer_functional_pg.50331","Name":null,"pyname":null,"kind":"0144","__source_file__":"19-其它/13-历史版本数据/2021.08/上海市_功能区.shp"},"geometry":{"type":"Polygon","coordinates":[[[121.466259,31.22089475],[121.46628906,31.22090487],[121.46632938,31.22090501],[121.46639958,31.22090519],[121.46665068,31.22088588],[121.46669082,31.22087598],[121.46672088,31.22085605],[121.46673078,31.22082603],[121.46674068,31.22079602],[121.46663808,31.22033499],[121.46661792,31.22031492],[121.46657778,31.22030475],[121.46652756,31.22030462],[121.46627646,31.22034395],[121.46620626,31.22037378],[121.4661663,31.22040375],[121.46614632,31.22043372],[121.4661465,31.22046378],[121.46615676,31.22051387],[121.46623884,31.22088471],[121.466259,31.22089475]]]}},{"id":"5226","type":"Feature","properties":{"gml_id":"layer_functional_pg.54317","Name":"新天地","pyname":"xtd","kind":"017a","__source_file__":"19-其它/13-历史版本数据/2021.08/上海市_功能区.shp"},"geometry":{"type":"Polygon","coordinates":[[[121.47001794,31.22332947],[121.47022944,31.22343023],[121.47062202,31.22359164],[121.47069222,31.22359182],[121.47073236,31.2235619],[121.47086052,31.22301141],[121.47105744,31.22214066],[121.47124518,31.22147016],[121.4714628,31.2207296],[121.47145254,31.22065949],[121.47141222,31.2206193],[121.47125112,31.22057876],[121.4705169,31.2204164],[121.4702253,31.22035542],[121.47014502,31.22036523],[121.47011496,31.22041523],[121.46994846,31.22132616],[121.4698014,31.22214701],[121.46962482,31.22304791],[121.46963508,31.22311802],[121.46968566,31.22317827],[121.46987682,31.22325896],[121.47001794,31.22332947]]]}},{"id":"4373","type":"Feature","properties":{"gml_id":"layer_functional_pg.53450","Name":null,"pyname":null,"kind":"0144","__source_file__":"19-其它/13-历史版本数据/2021.08/上海市_功能区.shp"},"geometry":{"type":"Polygon","coordinates":[[[121.46726772,31.22397248],[121.4676603,31.22412386],[121.4677206,31.22412404],[121.46775048,31.22407404],[121.46785866,31.22355357],[121.46785848,31.22350349],[121.467798,31.22347325],[121.46747616,31.2233922],[121.46741586,31.22340201],[121.4673858,31.22343198],[121.46721714,31.22388221],[121.46721732,31.22393229],[121.46726772,31.22397248]]]}},{"id":"267","type":"Feature","properties":{"gml_id":"layer_functional_pg.49273","Name":null,"pyname":null,"kind":"0144","__source_file__":"19-其它/13-历史版本数据/2021.08/上海市_功能区.shp"},"geometry":{"type":"Polygon","coordinates":[[[121.46283144,31.22502125],[121.46294736,31.22398998],[121.46291676,31.22390975],[121.4628363,31.22387946],[121.46238378,31.22378802],[121.46227326,31.22378771],[121.46220306,31.22382758],[121.46217336,31.22390759],[121.4621847,31.22419806],[121.46221512,31.22425827],[121.46226534,31.22427843],[121.46229594,31.22434863],[121.46220792,31.22489925],[121.4622081,31.2249393],[121.46222844,31.22497944],[121.46225868,31.22498952],[121.462641,31.22510081],[121.46281164,31.22509131],[121.46283144,31.22502125]]]}},{"id":"2251","type":"Feature","properties":{"gml_id":"layer_functional_pg.51284","Name":null,"pyname":null,"kind":"0144","__source_file__":"19-其它/13-历史版本数据/2021.08/上海市_功能区.shp"},"geometry":{"type":"Polygon","coordinates":[[[121.46643864,31.22504177],[121.46641884,31.2251018],[121.46640912,31.22515184],[121.46642946,31.225212],[121.46646978,31.22526218],[121.46654052,31.22531249],[121.4667117,31.22540312],[121.46689278,31.22544371],[121.46713398,31.22548448],[121.4672346,31.22549478],[121.4672949,31.22549496],[121.46733486,31.225455],[121.46737482,31.22541504],[121.4674146,31.22532504],[121.4674938,31.22505482],[121.46749362,31.22501477],[121.46749344,31.22498471],[121.46747328,31.2249546],[121.4667792,31.22478234],[121.46673888,31.22478221],[121.46669874,31.22479211],[121.46666868,31.22481204],[121.46643864,31.22504177]]]}},{"id":"2255","type":"Feature","properties":{"gml_id":"layer_functional_pg.51288","Name":null,"pyname":null,"kind":"0144","__source_file__":"19-其它/13-历史版本数据/2021.08/上海市_功能区.shp"},"geometry":{"type":"Polygon","coordinates":[[[121.46553054,31.2263712],[121.46554044,31.22634119],[121.46549976,31.22626091],[121.46544882,31.22610053],[121.46543838,31.22602038],[121.4654382,31.2259703],[121.46542794,31.2259302],[121.4653878,31.22595009],[121.46532786,31.226],[121.46516766,31.2261498],[121.46509764,31.22621969],[121.46509782,31.22623971],[121.46512806,31.22625983],[121.46538978,31.22635073],[121.4655003,31.22637111],[121.46553054,31.2263712]]]}},{"id":"5188","type":"Feature","properties":{"gml_id":"layer_functional_pg.54279","Name":"上海市中医医院门诊部","pyname":"shszyyymzb","kind":"0163","__source_file__":"19-其它/13-历史版本数据/2021.08/上海市_功能区.shp"},"geometry":{"type":"Polygon","coordinates":[[[121.45759578,31.22702915],[121.45761612,31.22707932],[121.45767642,31.22708949],[121.45770666,31.22710961],[121.45770684,31.22715969],[121.45774734,31.22719988],[121.45790808,31.22722035],[121.45793814,31.22720042],[121.45794804,31.22715038],[121.45801572,31.22655966],[121.45801518,31.2264495],[121.45796478,31.22640927],[121.45781394,31.2263888],[121.45775364,31.22640864],[121.45772394,31.22647866],[121.4576352,31.22683898],[121.45759578,31.22702915]]]}},{"id":"2972","type":"Feature","properties":{"gml_id":"layer_functional_pg.52021","Name":null,"pyname":null,"kind":"0144","__source_file__":"19-其它/13-历史版本数据/2021.08/上海市_功能区.shp"},"geometry":{"type":"Polygon","coordinates":[[[121.4657874,31.22979728],[121.4658378,31.22983746],[121.46630148,31.23017937],[121.46640228,31.23024975],[121.46653314,31.23031023],[121.46666382,31.23032063],[121.46680404,31.23021087],[121.46689386,31.23009095],[121.46699358,31.22991095],[121.46703354,31.22985096],[121.46700294,31.22977077],[121.4669124,31.22972042],[121.4667414,31.22968986],[121.46652036,31.22968923],[121.46601798,31.22969778],[121.46583708,31.22968725],[121.46576706,31.22974715],[121.4657874,31.22979728]]]}},{"id":"5224","type":"Feature","properties":{"gml_id":"layer_functional_pg.54315","Name":"上海博物馆","pyname":"shbwg","kind":"0175","__source_file__":"19-其它/13-历史版本数据/2021.08/上海市_功能区.shp"},"geometry":{"type":"Polygon","coordinates":[[[121.47196212,31.23317048],[121.47202242,31.23318065],[121.47209262,31.2331608],[121.47214266,31.23312089],[121.47222276,31.23304101],[121.4724024,31.23278114],[121.47260202,31.23249125],[121.4728515,31.23214142],[121.47310098,31.23175154],[121.4733204,31.23140166],[121.47350004,31.23112172],[121.4736696,31.2308618],[121.4736894,31.23079178],[121.47366906,31.23073161],[121.47358842,31.23067127],[121.47337692,31.23058055],[121.47304464,31.23040928],[121.4724501,31.23005702],[121.4718354,31.22963456],[121.4714925,31.22938319],[121.47135156,31.22931267],[121.47109992,31.22920175],[121.47093882,31.22914122],[121.47086844,31.229141],[121.47082848,31.22917092],[121.4707185,31.2292908],[121.4706483,31.2293507],[121.4705781,31.2293705],[121.4704575,31.22936015],[121.47019614,31.22934939],[121.46979438,31.22935821],[121.46943276,31.22936717],[121.46898078,31.22941595],[121.4682579,31.22952404],[121.46802678,31.22955338],[121.46777586,31.22961278],[121.46757534,31.22970233],[121.46745528,31.2297921],[121.4673552,31.22990199],[121.46728554,31.23002196],[121.4672859,31.23010211],[121.4673363,31.23016232],[121.46759838,31.23032333],[121.46931162,31.23144005],[121.47040008,31.23215433],[121.47117606,31.23266738],[121.471821,31.23308993],[121.47196212,31.23317048]]]}},{"id":"2252","type":"Feature","properties":{"gml_id":"layer_functional_pg.51285","Name":null,"pyname":null,"kind":"0144","__source_file__":"19-其它/13-历史版本数据/2021.08/上海市_功能区.shp"},"geometry":{"type":"Polygon","coordinates":[[[121.45559334795644,31.219742360084403],[121.45537756878117,31.21978126731247],[121.45527828,31.22000226],[121.45507776,31.22091158],[121.4550378,31.22110143],[121.4550378,31.22112141],[121.45505778,31.22114148],[121.45537854,31.22128202],[121.4556291,31.22135244],[121.45576932,31.22137269],[121.45596984,31.22138304],[121.45598982,31.2213731],[121.45600998,31.22136311],[121.45602996,31.2213132],[121.45648086,31.22008443],[121.45559334795644,31.219742360084403]]]}},{"id":"5182","type":"Feature","properties":{"gml_id":"layer_functional_pg.54273","Name":"上海市第一妇婴保健院","pyname":"shsdyfybjy","kind":"0163","__source_file__":"19-其它/13-历史版本数据/2021.08/上海市_功能区.shp"},"geometry":{"type":"Polygon","coordinates":[[[121.45172058,31.22259489],[121.45192092,31.22263521],[121.45197114,31.2226353],[121.4520012,31.22261537],[121.45202118,31.22258544],[121.45205124,31.22254548],[121.4520813,31.22251556],[121.45210146,31.22243564],[121.45212144,31.22231571],[121.45213152,31.22223575],[121.4521515,31.2221858],[121.45218156,31.22205588],[121.45220154,31.22198595],[121.45220154,31.22195598],[121.45218156,31.22193596],[121.45213134,31.22192583],[121.45205124,31.22190572],[121.45165038,31.22180501],[121.45158018,31.22180487],[121.45147002,31.22183466],[121.4514099,31.22187453],[121.45135968,31.22193443],[121.45132962,31.22197439],[121.45128948,31.22203428],[121.4512695,31.22207424],[121.45124952,31.22218413],[121.45120938,31.22230406],[121.4511894,31.22242394],[121.4511894,31.22246394],[121.45123944,31.22249405],[121.45130964,31.22250417],[121.45152006,31.22254454],[121.45172058,31.22259489]]]}},{"id":"5175","type":"Feature","properties":{"gml_id":"layer_functional_pg.54266","Name":"上海市儿童医院","pyname":"shsetyy","kind":"0163","__source_file__":"19-其它/13-历史版本数据/2021.08/上海市_功能区.shp"},"geometry":{"type":"Polygon","coordinates":[[[121.44329262,31.23210623],[121.44334284,31.23204633],[121.44343302,31.23194652],[121.44347298,31.23193662],[121.44351312,31.23194666],[121.44357324,31.23198675],[121.44371364,31.23208701],[121.44384396,31.23216725],[121.44390426,31.23216743],[121.4439444,31.2321375],[121.4439741,31.23207747],[121.44421458,31.2315881],[121.44435498,31.23112851],[121.44446514,31.23085878],[121.444425,31.23081873],[121.44422466,31.23077837],[121.44387384,31.23065777],[121.4433927,31.23048695],[121.44335274,31.2304869],[121.44333258,31.23049685],[121.44327246,31.23065669],[121.4432325,31.23072657],[121.44318228,31.23082647],[121.44318228,31.23088641],[121.44319236,31.23096642],[121.44321234,31.23109643],[121.4432325,31.23124641],[121.44327264,31.23136643],[121.4433027,31.23146646],[121.44328254,31.23158639],[121.44324258,31.23173624],[121.44320244,31.23182615],[121.44321252,31.23190616],[121.44326256,31.23198621],[121.44326256,31.23208616],[121.44329262,31.23210623]]]}},{"id":"5148","type":"Feature","properties":{"gml_id":"layer_functional_pg.54238","Name":"上海市静安区中心医院","pyname":"shsjaqzxyy","kind":"0163","__source_file__":"19-其它/13-历史版本数据/2021.08/上海市_功能区.shp"},"geometry":{"type":"Polygon","coordinates":[[[121.44518442,31.23306252],[121.4452548,31.23308277],[121.44533526,31.23309303],[121.44540564,31.23308322],[121.44545568,31.2330533],[121.44549564,31.23300335],[121.4455554,31.23288333],[121.44578436,31.2324233],[121.44579426,31.23238325],[121.44579408,31.23235319],[121.44577374,31.23230306],[121.4457435,31.23227291],[121.4456931,31.23224271],[121.44560256,31.23221243],[121.4455221,31.2322122],[121.44547206,31.23223209],[121.44541212,31.23230202],[121.44525174,31.23241173],[121.44517146,31.23243153],[121.44494016,31.23237074],[121.4447391,31.23234009],[121.44460842,31.2323297],[121.44455838,31.23236961],[121.4445384,31.23241965],[121.444479,31.23260978],[121.4444592,31.23267984],[121.44446946,31.23271994],[121.4444898,31.23276003],[121.44485214,31.23292136],[121.44518442,31.23306252]]]}},{"id":"5219","type":"Feature","properties":{"gml_id":"layer_functional_pg.54310","Name":"上海市眼病防治中心","pyname":"shsybfzzx","kind":"0163","__source_file__":"19-其它/13-历史版本数据/2021.08/上海市_功能区.shp"},"geometry":{"type":"Polygon","coordinates":[[[121.44432996,31.23734675],[121.44440016,31.23730688],[121.44458016,31.23711711],[121.44459996,31.23705708],[121.44457962,31.23701694],[121.44428748,31.23683582],[121.44423708,31.23682565],[121.44419694,31.23682551],[121.4440569,31.23697536],[121.44402702,31.23703535],[121.4440173,31.2370754],[121.44402738,31.23711549],[121.44407796,31.23718574],[121.44426966,31.23734657],[121.44432996,31.23734675]]]}},{"id":"4690","type":"Feature","properties":{"gml_id":"layer_functional_pg.53779","Name":null,"pyname":null,"kind":"0144","__source_file__":"19-其它/13-历史版本数据/2021.08/上海市_功能区.shp"},"geometry":{"type":"Polygon","coordinates":[[[121.4723799,31.23228029],[121.4725293,31.23197024],[121.47250716,31.23154953],[121.47242526,31.23121878],[121.4722125,31.23080748],[121.47211116,31.23063693],[121.47193926,31.23038606],[121.47173748,31.23019517],[121.47147522,31.22999411],[121.47116274,31.22977284],[121.47079032,31.22961152],[121.47036786,31.22951013],[121.46957406,31.22950784],[121.46928264,31.22951697],[121.46897124,31.22952611],[121.46876046,31.22957556],[121.46862006,31.22962524],[121.46853978,31.22966507],[121.46841936,31.22969477],[121.4678169,31.22978315],[121.46768658,31.22983283],[121.4675964,31.2299127],[121.46755662,31.22997269],[121.46756688,31.23005283],[121.46761746,31.23011309],[121.46889744,31.23094811],[121.47170922,31.23281916],[121.47187014,31.23285971],[121.47196032,31.23280989],[121.47209046,31.23268007],[121.4723799,31.23228029]]]}},{"id":"4691","type":"Feature","properties":{"gml_id":"layer_functional_pg.53780","Name":null,"pyname":null,"kind":"0144","__source_file__":"19-其它/13-历史版本数据/2021.08/上海市_功能区.shp"},"geometry":{"type":"Polygon","coordinates":[[[121.46042484,31.2304527],[121.46039514,31.23052272],[121.46019714,31.23118319],[121.45968162,31.23268403],[121.45970196,31.23275423],[121.45980258,31.23278456],[121.45993308,31.23276489],[121.45998294,31.23267489],[121.46045868,31.23125406],[121.46047866,31.23123408],[121.46053878,31.23119421],[121.46061906,31.2311844],[121.4608806,31.23121523],[121.46095098,31.23122544],[121.46098104,31.23120551],[121.46101092,31.23117554],[121.46116896,31.23057506],[121.4611587,31.23052497],[121.4611083,31.23050477],[121.4605251,31.2303929],[121.46047488,31.2304028],[121.46042484,31.2304527]]]}},{"id":"3219","type":"Feature","properties":{"gml_id":"layer_functional_pg.52272","Name":null,"pyname":null,"kind":"0144","__source_file__":"19-其它/13-历史版本数据/2021.08/上海市_功能区.shp"},"geometry":{"type":"Polygon","coordinates":[[[121.46548014,31.23293126],[121.46551038,31.23292131],[121.46553036,31.23290138],[121.4655498,31.23279126],[121.4655498,31.2327612],[121.46552964,31.23274109],[121.46518746,31.23263997],[121.46510718,31.23263975],[121.46506704,31.23267966],[121.46499756,31.23283973],[121.46500764,31.23286979],[121.46504796,31.23288995],[121.46548014,31.23293126]]]}},{"id":"5223","type":"Feature","properties":{"gml_id":"layer_functional_pg.54314","Name":"人民公园","pyname":"rmgy","kind":"0172","__source_file__":"19-其它/13-历史版本数据/2021.08/上海市_功能区.shp"},"geometry":{"type":"Polygon","coordinates":[[[121.46734962,31.23525029],[121.46746032,31.23526064],[121.4680734,31.23531252],[121.46844528,31.23534362],[121.46975244,31.23553775],[121.47040602,31.2356498],[121.47051654,31.23564012],[121.4713944,31.23426051],[121.47142392,31.23415044],[121.47141348,31.23407025],[121.47135282,31.23397994],[121.47125202,31.23388953],[121.47081858,31.23358781],[121.47062706,31.23347706],[121.47052662,31.23345672],[121.47043626,31.23349655],[121.47034644,31.23360644],[121.4702361,31.23365621],[121.47013548,31.23361584],[121.46989338,31.23342486],[121.46984298,31.23337464],[121.46973246,31.23338432],[121.46966244,31.23344421],[121.46959224,31.23347405],[121.46951178,31.2334538],[121.46927976,31.23327281],[121.46920938,31.23324257],[121.46913918,31.2332724],[121.46905908,31.23336231],[121.46897898,31.23339215],[121.46885838,31.23340182],[121.46880798,31.23338162],[121.4686467,31.23326097],[121.46819328,31.2329592],[121.46813262,31.23290894],[121.46813244,31.23284882],[121.46815224,31.23278879],[121.46826204,31.23262886],[121.46829174,31.23254885],[121.46825142,31.23248864],[121.4681607,31.23243828],[121.4679996,31.23237771],[121.46780862,31.23233708],[121.46755734,31.23234639],[121.46742684,31.23237605],[121.46731632,31.23235571],[121.46719536,31.23226521],[121.46689296,31.23205398],[121.46675184,31.23196344],[121.46654016,31.23182259],[121.46643972,31.23181229],[121.46635926,31.2318221],[121.46628924,31.23187196],[121.46612022,31.23225207],[121.4658513,31.23280215],[121.46579172,31.23294219],[121.46579208,31.23300227],[121.46582232,31.23304241],[121.46595318,31.23308286],[121.46604372,31.23313322],[121.46626566,31.23329409],[121.46635638,31.23336447],[121.46639688,31.23342468],[121.46644818,31.23367524],[121.46648886,31.23379553],[121.46664114,31.2341265],[121.46702598,31.23479867],[121.46726916,31.23521001],[121.46734962,31.23525029]]]}},{"id":"5181","type":"Feature","properties":{"gml_id":"layer_functional_pg.54272","Name":"上海长征医院","pyname":"shczyy","kind":"0163","__source_file__":"19-其它/13-历史版本数据/2021.08/上海市_功能区.shp"},"geometry":{"type":"Polygon","coordinates":[[[121.46280714,31.23503676],[121.46293782,31.23504716],[121.4630181,31.23504743],[121.46306832,31.23503753],[121.4632494,31.23505809],[121.4636211,31.23504918],[121.46367114,31.23502929],[121.46369112,31.23498929],[121.46370102,31.23494924],[121.46369076,31.23491918],[121.46365044,31.23488898],[121.4633286,31.234838],[121.46335794,31.23462776],[121.4632872,31.23455742],[121.46320638,31.23446706],[121.46304546,31.23440649],[121.4630451,31.23436644],[121.46309442,31.23415625],[121.46328018,31.23304506],[121.46326992,31.23296492],[121.4632296,31.23293472],[121.46305878,31.23293423],[121.46281758,31.23295358],[121.4627679,31.2330636],[121.4626896,31.23350406],[121.46265072,31.2337944],[121.46266098,31.23385452],[121.46271156,31.23390474],[121.46279202,31.23395505],[121.46292288,31.23399551],[121.46297328,31.2340257],[121.46297346,31.23407579],[121.4629344,31.23429602],[121.4629146,31.23436604],[121.46286438,31.23437594],[121.46269338,31.23434538],[121.46262318,31.23435519],[121.46254308,31.23443507],[121.46252328,31.23448511],[121.46244462,31.23488547],[121.4624448,31.23491553],[121.46246514,31.23494564],[121.4625456,31.23496593],[121.46270652,31.23500643],[121.46280714,31.23503676]]]}},{"id":"4689","type":"Feature","properties":{"gml_id":"layer_functional_pg.53778","Name":null,"pyname":null,"kind":"0144","__source_file__":"19-其它/13-历史版本数据/2021.08/上海市_功能区.shp"},"geometry":{"type":"Polygon","coordinates":[[[121.47004818,31.23650007],[121.47017778,31.23627012],[121.47032718,31.23600012],[121.47036696,31.23589005],[121.47032646,31.23581985],[121.47021576,31.23579947],[121.46780268,31.23542187],[121.46771214,31.23543164],[121.46769234,31.23547164],[121.46771268,31.23552177],[121.4679951,31.23576297],[121.46823702,31.23594396],[121.46868018,31.23617562],[121.46921352,31.23635742],[121.46962608,31.23647883],[121.46986764,31.23654966],[121.46993784,31.23654984],[121.47000822,31.23654003],[121.47004818,31.23650007]]]}},{"id":"4688","type":"Feature","properties":{"gml_id":"layer_functional_pg.53777","Name":null,"pyname":null,"kind":"0144","__source_file__":"19-其它/13-历史版本数据/2021.08/上海市_功能区.shp"},"geometry":{"type":"Polygon","coordinates":[[[121.4677512,31.23953816],[121.4677827,31.23983871],[121.46779278,31.23986877],[121.4678232,31.23989892],[121.46786334,31.23990905],[121.46791356,31.23989919],[121.46838552,31.23982044],[121.46862636,31.23977108],[121.4686764,31.23974115],[121.46867622,31.23969107],[121.46865606,31.23966096],[121.46861556,31.23962078],[121.46769918,31.23914738],[121.46757822,31.23908694],[121.46748768,31.23905666],[121.46741748,31.23908649],[121.46737752,31.23914648],[121.46711814,31.23954635],[121.46716854,31.23958653],[121.4674497,31.23952727],[121.46770062,31.2394779],[121.46774076,31.23947804],[121.4677512,31.23953816]]]}},{"id":"3656","type":"Feature","properties":{"gml_id":"layer_functional_pg.52713","Name":null,"pyname":null,"kind":"0144","__source_file__":"19-其它/13-历史版本数据/2021.08/上海市_功能区.shp"},"geometry":{"type":"Polygon","coordinates":[[[121.45847112,31.24480941],[121.45855176,31.24485972],[121.4586324,31.24490004],[121.4587026,31.2448802],[121.45881276,31.2448104],[121.4588628,31.24475046],[121.4588925,31.24466042],[121.45888188,31.24455021],[121.45891176,31.24450022],[121.4590221,31.24444046],[121.45912236,31.24438065],[121.45916214,31.24432067],[121.4591418,31.2442605],[121.45910112,31.24416024],[121.45909068,31.24407006],[121.45913046,31.24398006],[121.45914018,31.24390995],[121.45909968,31.24381968],[121.4590491,31.24375947],[121.45900878,31.24372928],[121.45885812,31.24372887],[121.45879782,31.24374872],[121.4587377,31.2437786],[121.45868766,31.24380848],[121.45866786,31.24386851],[121.4584101,31.24465902],[121.45840038,31.2447191],[121.45847112,31.24480941]]]}},{"id":"249","type":"Feature","properties":{"gml_id":"layer_functional_pg.49255","Name":null,"pyname":null,"kind":"0144","__source_file__":"19-其它/13-历史版本数据/2021.08/上海市_功能区.shp"},"geometry":{"type":"Polygon","coordinates":[[[121.45832028,31.24697234],[121.45856112,31.24689291],[121.45860126,31.24687302],[121.45860108,31.24683297],[121.45858074,31.24680287],[121.4585505,31.24677272],[121.45849002,31.24672245],[121.4584497,31.24668227],[121.4583993,31.24665207],[121.45833882,31.24663187],[121.45826844,31.24662165],[121.45818816,31.24662143],[121.4581581,31.24664136],[121.45813812,31.24668137],[121.45817934,31.24690182],[121.45819968,31.24695195],[121.45824,31.24698215],[121.45832028,31.24697234]]]}},{"id":"248","type":"Feature","properties":{"gml_id":"layer_functional_pg.49254","Name":null,"pyname":null,"kind":"0144","__source_file__":"19-其它/13-历史版本数据/2021.08/上海市_功能区.shp"},"geometry":{"type":"Polygon","coordinates":[[[121.45776822,31.24709096],[121.45771656,31.24678032],[121.45769622,31.24674018],[121.457646,31.24673001],[121.4575659,31.24676984],[121.45750578,31.24681974],[121.45746582,31.24686969],[121.45741596,31.24693967],[121.457376,31.24700969],[121.45736628,31.24706972],[121.45734648,31.24713978],[121.45735692,31.24720994],[121.45737708,31.24724004],[121.45741722,31.24725017],[121.45771836,31.24716089],[121.45775832,31.24713096],[121.45776822,31.24709096]]]}},{"id":"953","type":"Feature","properties":{"gml_id":"layer_functional_pg.49973","Name":null,"pyname":null,"kind":"0144","__source_file__":"19-其它/13-历史版本数据/2021.08/上海市_功能区.shp"},"geometry":{"type":"Polygon","coordinates":[[[121.4556291,31.24950849],[121.45569912,31.24942857],[121.45576554,31.24858743],[121.45572486,31.24847718],[121.45560408,31.24843673],[121.45547376,31.24848645],[121.45542408,31.24859648],[121.45533732,31.24940747],[121.4553879,31.24949778],[121.45548852,31.24953815],[121.4556291,31.24950849]]]}},{"id":"5153","type":"Feature","properties":{"gml_id":"layer_functional_pg.54244","Name":"上海火车站","pyname":"shhcz","kind":"0174","__source_file__":"19-其它/13-历史版本数据/2021.08/上海市_功能区.shp"},"geometry":{"type":"Polygon","coordinates":[[[121.45328928,31.25196554],[121.4542017,31.25155752],[121.45430196,31.25151779],[121.45573584,31.25085089],[121.45574214,31.25004966],[121.45582008,31.24949904],[121.45591386,31.24804703],[121.45574304,31.24805657],[121.45510044,31.24814481],[121.4533422,31.24817978],[121.45216662,31.24816637],[121.45097052,31.24809275],[121.44954348,31.24803852],[121.44924306,31.248248],[121.44850434,31.24931751],[121.44778632,31.25049728],[121.4472978,31.25132712],[121.44708918,31.25184732],[121.44706956,31.25194745],[121.45328928,31.25196554]]]}},{"id":"5154","type":"Feature","properties":{"gml_id":"layer_functional_pg.54245","Name":"上海火车站","pyname":"shhcz","kind":"0174","__source_file__":"19-其它/13-历史版本数据/2021.08/上海市_功能区.shp"},"geometry":{"type":"Polygon","coordinates":[[[121.44703068,31.25222775],[121.44706218,31.25251832],[121.44708432,31.25296908],[121.4470044,31.25307902],[121.4471799,31.25408108],[121.44725082,31.25419146],[121.44793266,31.25392304],[121.44909618,31.2534657],[121.4495676,31.25329677],[121.45031982,31.25297849],[121.45039038,31.25303879],[121.45058316,31.25342997],[121.45077432,31.25350062],[121.45116672,31.25361191],[121.45127814,31.25380253],[121.45122972,31.25421306],[121.45129056,31.2543234],[121.45158216,31.25439437],[121.45188366,31.25438523],[121.4527977,31.25434779],[121.45390272,31.25428092],[121.45426416,31.25420186],[121.4543241,31.25416194],[121.45435398,31.25410196],[121.454343,31.25387156],[121.45431186,31.25368116],[121.45429152,31.253621],[121.45423104,31.25358077],[121.45412052,31.25357046],[121.4533971,31.25357834],[121.45319586,31.25351768],[121.45307436,31.25332701],[121.45283082,31.25277545],[121.45277952,31.25255495],[121.45278852,31.25232464],[121.45289832,31.25216471],[121.45302846,31.25208497],[121.45328928,31.25196554],[121.44706956,31.25194745],[121.44703068,31.25222775]]]}},{"id":"3279","type":"Feature","properties":{"gml_id":"layer_functional_pg.52332","Name":null,"pyname":null,"kind":"0144","__source_file__":"19-其它/13-历史版本数据/2021.08/上海市_功能区.shp"},"geometry":{"type":"Polygon","coordinates":[[[121.45202226,31.25393492],[121.45206222,31.25389496],[121.45207212,31.25384492],[121.45198104,31.25370443],[121.45193064,31.25367423],[121.45187034,31.25368409],[121.45181022,31.25371397],[121.45178016,31.25374394],[121.45178034,31.25378399],[121.45187142,31.25393447],[121.45191174,31.25395463],[121.45198212,31.25395485],[121.45202226,31.25393492]]]}},{"id":"3278","type":"Feature","properties":{"gml_id":"layer_functional_pg.52331","Name":null,"pyname":null,"kind":"0144","__source_file__":"19-其它/13-历史版本数据/2021.08/上海市_功能区.shp"},"geometry":{"type":"Polygon","coordinates":[[[121.45394214,31.25411078],[121.45398264,31.25416095],[121.45403286,31.25418116],[121.4541333,31.25417144],[121.45422366,31.25415164],[121.45428378,31.25412176],[121.45431366,31.25407176],[121.45432338,31.25399171],[121.4542818,31.25367108],[121.45425138,31.25364093],[121.454181,31.25362068],[121.45381938,31.25363967],[121.45377924,31.25364957],[121.45374936,31.25368953],[121.45375962,31.25373966],[121.45389138,31.25401047],[121.45394214,31.25411078]]]}},{"id":"1155","type":"Feature","properties":{"gml_id":"layer_functional_pg.50177","Name":null,"pyname":null,"kind":"0144","__source_file__":"19-其它/13-历史版本数据/2021.08/上海市_功能区.shp"},"geometry":{"type":"Polygon","coordinates":[[[121.44139182,31.25393406],[121.44103002,31.25393298],[121.44066876,31.25404211],[121.44057966,31.25432228],[121.44055086,31.25460263],[121.44064194,31.25477318],[121.4406927,31.25486345],[121.44099438,31.25491443],[121.44126564,31.25492523],[121.44151656,31.25487587],[121.44210894,31.25475743],[121.44238002,31.25472813],[121.4435142,31.25446101],[121.44359304,31.25412072],[121.44347136,31.25385995],[121.4432298,31.25378916],[121.44285792,31.25376806],[121.4424864,31.25381706],[121.44197412,31.25384559],[121.44139182,31.25393406]]]}},{"id":"4811","type":"Feature","properties":{"gml_id":"layer_functional_pg.53900","Name":null,"pyname":null,"kind":"0144","__source_file__":"19-其它/13-历史版本数据/2021.08/上海市_功能区.shp"},"geometry":{"type":"Polygon","coordinates":[[[121.45455936,31.2629535],[121.45459968,31.26295364],[121.45461984,31.2629238],[121.4546706,31.2627843],[121.45467078,31.26275438],[121.45465062,31.26274434],[121.45428936,31.26262352],[121.45425912,31.26263342],[121.45423896,31.26265331],[121.4541882,31.26279281],[121.45418802,31.26282269],[121.45421808,31.2628527],[121.45436874,31.26289307],[121.45455936,31.2629535]]]}},{"id":"4809","type":"Feature","properties":{"gml_id":"layer_functional_pg.53898","Name":null,"pyname":null,"kind":"0144","__source_file__":"19-其它/13-历史版本数据/2021.08/上海市_功能区.shp"},"geometry":{"type":"Polygon","coordinates":[[[121.4544789,31.26297321],[121.45444884,31.26297312],[121.45442868,31.26299301],[121.45431708,31.26327197],[121.45429674,31.26332178],[121.45431672,31.26334176],[121.454397,31.26337196],[121.45443732,31.2633621],[121.45445748,31.26333222],[121.45447782,31.26326247],[121.45446792,31.26322256],[121.45445802,31.26318264],[121.45446828,31.26314277],[121.45449852,31.26311294],[121.45454892,31.26309314],[121.454559,31.2630732],[121.45457916,31.26303338],[121.45455918,31.26300341],[121.45450914,31.26298329],[121.4544789,31.26297321]]]}},{"id":"4807","type":"Feature","properties":{"gml_id":"layer_functional_pg.53896","Name":null,"pyname":null,"kind":"0144","__source_file__":"19-其它/13-历史版本数据/2021.08/上海市_功能区.shp"},"geometry":{"type":"Polygon","coordinates":[[[121.45560444,31.26303653],[121.45560462,31.2630066],[121.45557456,31.26298658],[121.45532364,31.26288605],[121.4552934,31.26287597],[121.45526316,31.26289581],[121.455243,31.26292569],[121.45508064,31.26332417],[121.45508064,31.26336408],[121.45509054,31.26338406],[121.4551107,31.2633941],[121.45537152,31.26349463],[121.45540176,31.26350471],[121.45542192,31.26349481],[121.455432,31.26347487],[121.45551318,31.26325568],[121.45560444,31.26303653]]]}},{"id":"4808","type":"Feature","properties":{"gml_id":"layer_functional_pg.53897","Name":null,"pyname":null,"kind":"0144","__source_file__":"19-其它/13-历史版本数据/2021.08/上海市_功能区.shp"},"geometry":{"type":"Polygon","coordinates":[[[121.45481964,31.26324357],[121.45486032,31.26314394],[121.45485042,31.26311402],[121.45482018,31.26309395],[121.4546697,31.26304364],[121.45461948,31.26304346],[121.45459914,31.26307334],[121.45458906,31.26310322],[121.45459896,31.26313319],[121.4546391,31.26316325],[121.45465908,31.26319322],[121.4546589,31.26323313],[121.45465872,31.263273],[121.45462848,31.26329285],[121.45458834,31.26329276],[121.4545482,31.26328263],[121.45450788,31.26330248],[121.45448754,31.26335229],[121.45449744,31.26339221],[121.45452768,31.26340229],[121.45467816,31.26344265],[121.45472856,31.26344279],[121.45474872,31.2634229],[121.45478922,31.26331332],[121.45481964,31.26324357]]]}},{"id":"1014","type":"Feature","properties":{"gml_id":"layer_functional_pg.50034","Name":null,"pyname":null,"kind":"0144","__source_file__":"19-其它/13-历史版本数据/2021.08/上海市_功能区.shp"},"geometry":{"type":"Polygon","coordinates":[[[121.4584236,31.24757358],[121.45849362,31.24752372],[121.4585937,31.24743386],[121.45868352,31.24729391],[121.45869306,31.24718375],[121.4586927,31.24709361],[121.45866228,31.24705347],[121.45859208,31.24706328],[121.45833108,31.24714266],[121.45828104,31.24716255],[121.45826106,31.24719252],[121.45826124,31.24722258],[121.45831272,31.24750316],[121.45833306,31.24755329],[121.45837338,31.24758348],[121.4584236,31.24757358]]]}},{"id":"1013","type":"Feature","properties":{"gml_id":"layer_functional_pg.50033","Name":null,"pyname":null,"kind":"0144","__source_file__":"19-其它/13-历史版本数据/2021.08/上海市_功能区.shp"},"geometry":{"type":"Polygon","coordinates":[[[121.45789152,31.24766219],[121.45790124,31.24761215],[121.45782978,31.24737153],[121.45780962,31.24735146],[121.45777938,31.24734134],[121.45772916,31.24735124],[121.45749876,31.24747076],[121.45747878,31.24750073],[121.45748886,31.24753083],[121.45751928,31.24757097],[121.45758984,31.24762124],[121.4576703,31.24766156],[121.45774086,31.2476918],[121.45782132,31.24770206],[121.45787154,31.24769216],[121.45789152,31.24766219]]]}},{"id":"3602","type":"Feature","properties":{"gml_id":"layer_functional_pg.52659","Name":null,"pyname":null,"kind":"0144","__source_file__":"19-其它/13-历史版本数据/2021.08/上海市_功能区.shp"},"geometry":{"type":"Polygon","coordinates":[[[121.46469642,31.25699649],[121.46507892,31.25716785],[121.46604588,31.25766146],[121.4661564,31.25766177],[121.46618628,31.25760174],[121.46621544,31.25741153],[121.46624532,31.25734151],[121.46638518,31.25718167],[121.46643486,31.25705162],[121.46662278,31.25638112],[121.46474988,31.25553435],[121.46460264,31.25628513],[121.46449446,31.25679561],[121.46469642,31.25699649]]]}},{"id":"2831","type":"Feature","properties":{"gml_id":"layer_functional_pg.51879","Name":null,"pyname":null,"kind":"0144","__source_file__":"19-其它/13-历史版本数据/2021.08/上海市_功能区.shp"},"geometry":{"type":"Polygon","coordinates":[[[121.45853952,31.25761938],[121.4585091,31.25767914],[121.45849812,31.25792844],[121.45849758,31.25808806],[121.4585073,31.25816789],[121.45857768,31.25819799],[121.45871826,31.25820843],[121.45883886,31.25821878],[121.4589393,31.25821905],[121.45897962,31.25820924],[121.45899978,31.25816937],[121.45900068,31.25794995],[121.45901148,31.25774052],[121.45901166,31.25768067],[121.45900176,31.25764076],[121.45893174,31.25759067],[121.45882122,31.25758032],[121.4586603,31.25757983],[121.45857984,31.2575796],[121.45853952,31.25761938]]]}},{"id":"5133","type":"Feature","properties":{"gml_id":"layer_functional_pg.54223","Name":"上海市中医医院","pyname":"shszyyy","kind":"0163","__source_file__":"19-其它/13-历史版本数据/2021.08/上海市_功能区.shp"},"geometry":{"type":"Polygon","coordinates":[[[121.46719806,31.26185523],[121.4673084,31.26188552],[121.46738886,31.26186581],[121.46750982,31.26177639],[121.4676612,31.2616472],[121.467762,31.2615378],[121.46791356,31.26133877],[121.46798448,31.2612093],[121.4680959,31.26096027],[121.46810616,31.2609204],[121.46810634,31.26088053],[121.4680059,31.26082037],[121.46753448,31.26058952],[121.4673237,31.26048912],[121.46724342,31.26046892],[121.4672031,31.2605087],[121.46715252,31.26058835],[121.46711202,31.260668],[121.46706162,31.26069779],[121.46699124,31.26070751],[121.46692086,31.26070733],[121.46680044,31.26066705],[121.46673006,31.26066683],[121.46669964,31.26072659],[121.46663844,31.26097575],[121.4665164,31.26137436],[121.46648562,31.2615239],[121.46671638,31.26164427],[121.46696712,31.26176474],[121.46719806,31.26185523]]]}},{"id":"5129","type":"Feature","properties":{"gml_id":"layer_functional_pg.54219","Name":"复旦大学附属公共卫生临床中心","pyname":"fddxfsggwslczx","kind":"0163","__source_file__":"19-其它/13-历史版本数据/2021.08/上海市_功能区.shp"},"geometry":{"type":"Polygon","coordinates":[[[121.4653554,31.27685612],[121.46547564,31.27691628],[121.46554584,31.27694639],[121.46564628,31.27695665],[121.46583708,31.27698711],[121.46613822,31.27700795],[121.46622894,31.27695836],[121.4662797,31.27687875],[121.46662458,31.27626167],[121.46675634,31.27603275],[121.46677686,31.27597299],[121.46681754,31.27588335],[121.4668881,31.27581378],[121.46693868,31.2757641],[121.46702994,31.27559486],[121.46705046,31.2755351],[121.46703066,31.27548519],[121.46668002,31.27529475],[121.46666004,31.27526478],[121.46665068,31.27514513],[121.46661072,31.27509513],[121.46604984,31.27475453],[121.46602986,31.27473455],[121.4660403,31.27467474],[121.4660808,31.27460508],[121.46609106,31.2745752],[121.46608116,31.27454523],[121.4660511,31.27451526],[121.46588082,31.27441505],[121.46583078,31.27440492],[121.46579046,31.27440483],[121.46575032,31.27441469],[121.46550786,31.27466318],[121.46503302,31.27516029],[121.46465934,31.27551809],[121.46428422,31.27612514],[121.46429376,31.27623485],[121.46438376,31.27632485],[121.46525532,31.276796],[121.4653554,31.27685612]]]}},{"id":"2023","type":"Feature","properties":{"gml_id":"layer_functional_pg.51052","Name":null,"pyname":null,"kind":"0144","__source_file__":"19-其它/13-历史版本数据/2021.08/上海市_功能区.shp"},"geometry":{"type":"Polygon","coordinates":[[[121.46645574,31.27589226],[121.46645556,31.27592219],[121.46673618,31.27604265],[121.4667063,31.2759927],[121.46665626,31.27596264],[121.46632578,31.27577225],[121.46626566,31.27575213],[121.46622534,31.27577198],[121.46608368,31.27596098],[121.4662041,31.27599122],[121.4662851,31.27586189],[121.46631552,31.27582206],[121.46635566,31.2758222],[121.4664057,31.27585226],[121.46645574,31.27589226]]]}},{"id":"2022","type":"Feature","properties":{"gml_id":"layer_functional_pg.51051","Name":null,"pyname":null,"kind":"0144","__source_file__":"19-其它/13-历史版本数据/2021.08/上海市_功能区.shp"},"geometry":{"type":"Polygon","coordinates":[[[121.46573934,31.27644846],[121.46583024,31.27637894],[121.4659917,31.27624983],[121.46613318,31.2761007],[121.4662041,31.27599122],[121.46608368,31.27596098],[121.46591178,31.27614989],[121.46569938,31.27640846],[121.4655984,31.27650786],[121.46549724,31.27663719],[121.4654769,31.27669695],[121.46547618,31.27683654],[121.465476,31.27686642],[121.4654859,31.27689639],[121.46550588,31.27691637],[121.46553594,31.27692641],[121.46564646,31.27693671],[121.46574672,31.27694697],[121.4661285,31.27697802],[121.46617872,31.27695822],[121.46621904,31.27692843],[121.46624946,31.27689864],[121.46632056,31.27674929],[121.46665518,31.27618197],[121.46673618,31.27604265],[121.46645556,31.27592219],[121.46643522,31.27596201],[121.46631372,31.27614111],[121.46625306,31.27622067],[121.46617188,31.27635005],[121.46608098,31.2764495],[121.46605038,31.27652915],[121.46604012,31.27656902],[121.46602968,31.27663877],[121.46600952,31.2766686],[121.46596902,31.27670838],[121.46590872,31.27673808],[121.46584824,31.27674789],[121.46577804,31.27672773],[121.46570802,31.27669763],[121.46566788,31.27665762],[121.46564808,31.27660772],[121.46565852,31.27654796],[121.46573934,31.27644846]]]}},{"id":"2830","type":"Feature","properties":{"gml_id":"layer_functional_pg.51878","Name":null,"pyname":null,"kind":"0144","__source_file__":"19-其它/13-历史版本数据/2021.08/上海市_功能区.shp"},"geometry":{"type":"Polygon","coordinates":[[[121.46581962,31.27647861],[121.46575932,31.27649837],[121.4657388,31.27655813],[121.46576868,31.27662801],[121.46581854,31.27667801],[121.46587884,31.27668818],[121.46592924,31.27665839],[121.46595948,31.27661861],[121.46595984,31.27657874],[121.46596002,31.27653887],[121.46590008,31.27647884],[121.46581962,31.27647861]]]}},{"id":"4810","type":"Feature","properties":{"gml_id":"layer_functional_pg.53899","Name":null,"pyname":null,"kind":"0144","__source_file__":"19-其它/13-历史版本数据/2021.08/上海市_功能区.shp"},"geometry":{"type":"Polygon","coordinates":[[[121.45469688,31.26382173],[121.4546967,31.26386165],[121.45471668,31.26389162],[121.45484736,31.26392195],[121.45489758,31.26393207],[121.45492782,31.26391223],[121.45508028,31.26345386],[121.4550603,31.26342384],[121.45498992,31.26339374],[121.45498002,31.26337376],[121.4549901,31.26335382],[121.45516254,31.26296534],[121.45516254,31.26293541],[121.45515264,31.26291543],[121.45513248,31.2629054],[121.4547912,31.26279465],[121.45474098,31.26279447],[121.45472082,31.26282435],[121.45467006,31.26295386],[121.45466988,31.26298379],[121.45471002,31.26300386],[121.45487058,31.26305421],[121.4549208,31.26307433],[121.45494078,31.2631043],[121.4549406,31.2631542],[121.45480884,31.26346299],[121.45469688,31.26382173]]]}},{"id":"5158","type":"Feature","properties":{"gml_id":"layer_functional_pg.54249","Name":"同济大学沪北校区","pyname":"tjdxhbxq","kind":"0161","__source_file__":"19-其它/13-历史版本数据/2021.08/上海市_功能区.shp"},"geometry":{"type":"Polygon","coordinates":[[[121.45506408,31.2650996],[121.4551746,31.26511989],[121.45528512,31.26512025],[121.4553456,31.26506058],[121.45539636,31.26495101],[121.45566006,31.26429351],[121.45566042,31.26422367],[121.45561038,31.26416369],[121.4555301,31.26412355],[121.4550783,31.26399246],[121.455018,31.26395237],[121.45498812,31.26391241],[121.4549883,31.26385256],[121.45506966,31.26359345],[121.45510008,31.26354368],[121.45517046,31.26353391],[121.45529088,31.26357419],[121.45537116,31.2635844],[121.45543164,31.26355466],[121.45546206,31.2634949],[121.45560408,31.2631263],[121.45565502,31.26296687],[121.45566546,31.26283722],[121.45554558,31.26267725],[121.45541526,31.26256713],[121.45523472,31.26245688],[121.45503402,31.26236648],[121.454532,31.26223526],[121.45438116,31.26222482],[121.45426056,31.26223445],[121.45419,31.26227409],[121.45411944,31.26234371],[121.4533278,31.264416],[121.45330728,31.26451568],[121.45334724,31.26457566],[121.45347756,31.26465585],[121.45433094,31.26493778],[121.45506408,31.2650996]]]}},{"id":"5134","type":"Feature","properties":{"gml_id":"layer_functional_pg.54224","Name":"同济大学附属口腔医院","pyname":"tjdxfskqyy","kind":"0163","__source_file__":"19-其它/13-历史版本数据/2021.08/上海市_功能区.shp"},"geometry":{"type":"Polygon","coordinates":[[[121.447881,31.27358435],[121.4481519,31.27362503],[121.44826278,31.27358547],[121.44837366,31.27351604],[121.44843414,31.27345641],[121.44853602,31.27321742],[121.4486478,31.27294854],[121.44878028,31.2726299],[121.44842928,31.27249926],[121.44836898,31.27250907],[121.44829824,31.27257864],[121.44822732,31.27266815],[121.4478729,31.27321548],[121.44777156,31.27335476],[121.44772098,31.27344431],[121.44769038,31.27351401],[121.447881,31.27358435]]]}},{"id":"5135","type":"Feature","properties":{"gml_id":"layer_functional_pg.54225","Name":"上海市第十人民医院","pyname":"shsdsrmyy","kind":"0163","__source_file__":"19-其它/13-历史版本数据/2021.08/上海市_功能区.shp"},"geometry":{"type":"Polygon","coordinates":[[[121.4486478,31.27294854],[121.44853602,31.27321742],[121.44843414,31.27345641],[121.44837366,31.27351604],[121.44826278,31.27358547],[121.4481519,31.27362503],[121.447881,31.27358435],[121.44769038,31.27351401],[121.44753756,31.27390241],[121.4474562,31.27409159],[121.44747582,31.27419135],[121.44755574,31.27427132],[121.44833802,31.2745428],[121.44836808,31.27456283],[121.4483778,31.2745928],[121.4483778,31.27461273],[121.44831696,31.27472222],[121.44824586,31.27486158],[121.4482455,31.27491144],[121.44828564,31.27494146],[121.44873672,31.27511228],[121.44909798,31.27522302],[121.44925836,31.27527333],[121.44935862,31.27530353],[121.4494191,31.27529372],[121.44947958,31.27525403],[121.44952008,31.27519436],[121.449591,31.27506494],[121.4497026,31.27488579],[121.4500572,31.27431857],[121.4503308,31.27390065],[121.45060404,31.27350267],[121.45067514,31.27338324],[121.45066524,31.27334333],[121.45052502,31.27326314],[121.44945204,31.27288113],[121.44878028,31.2726299],[121.4486478,31.27294854]]]}},{"id":"3436","type":"Feature","properties":{"gml_id":"layer_functional_pg.52491","Name":null,"pyname":null,"kind":"0144","__source_file__":"19-其它/13-历史版本数据/2021.08/上海市_功能区.shp"},"geometry":{"type":"Polygon","coordinates":[[[121.45472676,31.27665528],[121.45477698,31.27665546],[121.45480722,31.27662563],[121.455072,31.2759684],[121.45507236,31.27589861],[121.45503222,31.27586859],[121.4542098,31.27560696],[121.45415958,31.27559684],[121.4540991,31.27563653],[121.45394736,31.27584546],[121.45390668,31.27591512],[121.45380408,31.27634352],[121.45380372,31.27638339],[121.45383378,31.27642335],[121.45472676,31.27665528]]]}},{"id":"268","type":"Feature","properties":{"gml_id":"layer_functional_pg.49274","Name":null,"pyname":null,"kind":"0144","__source_file__":"19-其它/13-历史版本数据/2021.08/上海市_功能区.shp"},"geometry":{"type":"Polygon","coordinates":[[[121.47439158,31.2217898],[121.474332,31.22193983],[121.4742924,31.22207996],[121.474323,31.22215016],[121.47443388,31.22224061],[121.47471594,31.22239167],[121.4749575,31.22250255],[121.47514884,31.22259323],[121.47525936,31.22259354],[121.47533964,31.22254368],[121.47540966,31.22248383],[121.47557886,31.22212374],[121.47554844,31.22207357],[121.47549786,31.22200332],[121.47538698,31.22194289],[121.47490404,31.22178125],[121.47465258,31.22171042],[121.47448158,31.2216899],[121.47439158,31.2217898]]]}},{"id":"270","type":"Feature","properties":{"gml_id":"layer_functional_pg.49276","Name":null,"pyname":null,"kind":"0144","__source_file__":"19-其它/13-历史版本数据/2021.08/上海市_功能区.shp"},"geometry":{"type":"Polygon","coordinates":[[[121.47948396,31.22356734],[121.47951438,31.22361752],[121.47958476,31.22363772],[121.47961397694613,31.22361834409111],[121.47948381741395,31.22354352813152],[121.47948396,31.22356734]]]}},{"id":"4037","type":"Feature","properties":{"gml_id":"layer_functional_pg.53112","Name":null,"pyname":null,"kind":"0144","__source_file__":"19-其它/13-历史版本数据/2021.08/上海市_功能区.shp"},"geometry":{"type":"Polygon","coordinates":[[[121.4795052,31.2238278],[121.47944472,31.22379756],[121.4793945,31.22378744],[121.47936444,31.22381736],[121.47905736,31.22475795],[121.47905754,31.224798],[121.47909768,31.22480813],[121.47921846,31.22483855],[121.47927876,31.22483873],[121.47928866,31.2248187],[121.47950574,31.223948],[121.47951546,31.22388792],[121.4795052,31.2238278]]]}},{"id":"5176","type":"Feature","properties":{"gml_id":"layer_functional_pg.54267","Name":"上海中医药大学附属曙光医院","pyname":"shzyydxfssgyy","kind":"0163","__source_file__":"19-其它/13-历史版本数据/2021.08/上海市_功能区.shp"},"geometry":{"type":"Polygon","coordinates":[[[121.47392502,31.22522379],[121.4739756,31.22526398],[121.47418674,31.22531469],[121.47469974,31.22544636],[121.47507198,31.22554761],[121.47520284,31.22557803],[121.47526296,31.22554815],[121.47531282,31.22548821],[121.47557202,31.22502827],[121.4757513,31.22468825],[121.47580116,31.22461827],[121.4757909,31.22455815],[121.47576048,31.22449799],[121.47566976,31.2244376],[121.4755389,31.22438715],[121.47544836,31.22436686],[121.47538824,31.2243867],[121.47530796,31.22442653],[121.47515784,31.22452625],[121.47506748,31.22454605],[121.47498684,31.22451576],[121.47484608,31.22446527],[121.47476562,31.22447504],[121.47471558,31.22450496],[121.47465582,31.22462498],[121.47459606,31.22473496],[121.47456618,31.22480498],[121.47453612,31.22482491],[121.47449598,31.22482482],[121.47440544,31.22480453],[121.4740935,31.22471345],[121.47401322,31.22472326],[121.47393312,31.22477307],[121.47388326,31.22487311],[121.47386364,31.22495316],[121.473864,31.2250433],[121.47388452,31.22514351],[121.47392502,31.22522379]]]}},{"id":"272","type":"Feature","properties":{"gml_id":"layer_functional_pg.49278","Name":null,"pyname":null,"kind":"0144","__source_file__":"19-其它/13-历史版本数据/2021.08/上海市_功能区.shp"},"geometry":{"type":"Polygon","coordinates":[[[121.47916896,31.22500865],[121.4790282,31.22498822],[121.47898806,31.22499812],[121.47894828,31.22509815],[121.47881004,31.22558852],[121.47879996,31.22561853],[121.47883038,31.22564868],[121.47895098,31.22566907],[121.4790012,31.2256692],[121.47902118,31.2256292],[121.47917958,31.22513888],[121.47919938,31.22504883],[121.47916896,31.22500865]]]}},{"id":"271","type":"Feature","properties":{"gml_id":"layer_functional_pg.49277","Name":null,"pyname":null,"kind":"0144","__source_file__":"19-其它/13-历史版本数据/2021.08/上海市_功能区.shp"},"geometry":{"type":"Polygon","coordinates":[[[121.47891156,31.22584925],[121.47880104,31.22582886],[121.47875082,31.22583876],[121.47873084,31.22586873],[121.4786817,31.22609895],[121.47866208,31.2262191],[121.47868242,31.2262592],[121.47873264,31.22626937],[121.47879294,31.22626955],[121.478823,31.2262596],[121.47883308,31.22623962],[121.47893226,31.22594946],[121.4789319,31.22587935],[121.47891156,31.22584925]]]}},{"id":"125","type":"Feature","properties":{"gml_id":"layer_functional_pg.49125","Name":null,"pyname":null,"kind":"0144","__source_file__":"19-其它/13-历史版本数据/2021.08/上海市_功能区.shp"},"geometry":{"type":"Polygon","coordinates":[[[121.4784855,31.22715002],[121.47904872,31.22726184],[121.47907896,31.22726193],[121.47909894,31.22725194],[121.47918768,31.22690166],[121.47916752,31.22688159],[121.47914736,31.22687151],[121.47902676,31.22686112],[121.47878556,31.22685041],[121.4787051,31.22683016],[121.47868476,31.22678003],[121.47872328,31.22639955],[121.47871302,31.22637948],[121.47869304,31.2263694],[121.47859242,31.2263591],[121.47856236,31.22637903],[121.47854238,31.22640905],[121.47851412,31.22679956],[121.47845526,31.22710988],[121.47846534,31.22712995],[121.4784855,31.22715002]]]}},{"id":"3167","type":"Feature","properties":{"gml_id":"layer_functional_pg.52219","Name":null,"pyname":null,"kind":"0144","__source_file__":"19-其它/13-历史版本数据/2021.08/上海市_功能区.shp"},"geometry":{"type":"Polygon","coordinates":[[[121.47193296,31.22901392],[121.473747,31.23019098],[121.47384762,31.23022136],[121.47395796,31.23019161],[121.47491592,31.22875215],[121.47491556,31.22867201],[121.47478452,31.22860154],[121.47344568,31.22804678],[121.47272082,31.22771414],[121.4726202,31.22770383],[121.4725401,31.22774366],[121.47216174,31.22851379],[121.47191208,31.22886362],[121.47191262,31.22895375],[121.47193296,31.22901392]]]}},{"id":"4692","type":"Feature","properties":{"gml_id":"layer_functional_pg.53781","Name":null,"pyname":null,"kind":"0144","__source_file__":"19-其它/13-历史版本数据/2021.08/上海市_功能区.shp"},"geometry":{"type":"Polygon","coordinates":[[[121.47898284,31.23259997],[121.47938172,31.23196011],[121.47938154,31.23193005],[121.47935148,31.23190994],[121.47802218,31.23126509],[121.47797196,31.23126495],[121.4779419,31.23130491],[121.47744294,31.23203459],[121.47744312,31.23207468],[121.47746328,31.23211478],[121.4788221,31.23262953],[121.47891264,31.2326298],[121.47898284,31.23259997]]]}},{"id":"5146","type":"Feature","properties":{"gml_id":"layer_functional_pg.54236","Name":"上海交通大学医学院附属仁济医院","pyname":"shjtdxyxyfsrjyy","kind":"0163","__source_file__":"19-其它/13-历史版本数据/2021.08/上海市_功能区.shp"},"geometry":{"type":"Polygon","coordinates":[[[121.47968142,31.23595724],[121.47982218,31.23598766],[121.47994296,31.23600804],[121.48002324,31.23600827],[121.48007346,31.23598842],[121.48009344,31.23594842],[121.48012296,31.2358383],[121.48018236,31.23564818],[121.48025184,31.23544806],[121.48026138,31.23535797],[121.4802612,31.23530789],[121.48024104,31.23526775],[121.48018056,31.23524754],[121.4800398,31.23521712],[121.47949674,31.23510534],[121.47944634,31.23509517],[121.4794062,31.23510507],[121.47938622,31.23513509],[121.47921756,31.23557528],[121.47918786,31.23567536],[121.47917814,31.23575546],[121.47919848,31.23579555],[121.4792388,31.23582575],[121.47933942,31.23585608],[121.47942996,31.23588636],[121.47968142,31.23595724]]]}},{"id":"5220","type":"Feature","properties":{"gml_id":"layer_functional_pg.54311","Name":"上海城隍庙","pyname":"shchm","kind":"017a","__source_file__":"19-其它/13-历史版本数据/2021.08/上海市_功能区.shp"},"geometry":{"type":"Polygon","coordinates":[[[121.48663662,31.22986793],[121.4867169,31.2298281],[121.48675686,31.22977815],[121.4867862,31.22960796],[121.48684416,31.2290973],[121.48689186,31.2285366],[121.48693164,31.22846658],[121.48699176,31.22842671],[121.487054004772,31.22840993313287],[121.48655692882603,31.228058918994627],[121.48653834,31.22815496],[121.48636176,31.22907588],[121.4862138,31.22969643],[121.48620426,31.22977653],[121.48624476,31.2298668],[121.4863353,31.2298871],[121.48656642,31.22987774],[121.48663662,31.22986793]]]}},{"id":"5221","type":"Feature","properties":{"gml_id":"layer_functional_pg.54312","Name":"豫园","pyname":"yy","kind":"0172","__source_file__":"19-其它/13-历史版本数据/2021.08/上海市_功能区.shp"},"geometry":{"type":"Polygon","coordinates":[[[121.48779852,31.22905001],[121.48775874,31.22917011],[121.48771878,31.22921003],[121.48766856,31.22921993],[121.48761834,31.22920976],[121.4874675,31.22918928],[121.48739712,31.22916903],[121.48735698,31.22917893],[121.48731684,31.22920886],[121.48725726,31.2293489],[121.48722756,31.22945901],[121.4871786,31.22973932],[121.48719894,31.22979944],[121.48724952,31.22984966],[121.48733988,31.22985996],[121.48755084,31.22985056],[121.48789248,31.22984151],[121.48809336,31.22983211],[121.48829424,31.22982266],[121.48831422,31.22979269],[121.48832412,31.22975264],[121.48835328,31.22952237],[121.48835791300363,31.229496368979117],[121.4878057731434,31.229020154211174],[121.48779852,31.22905001]]]}},{"id":"1532","type":"Feature","properties":{"gml_id":"layer_functional_pg.50557","Name":null,"pyname":null,"kind":"0144","__source_file__":"19-其它/13-历史版本数据/2021.08/上海市_功能区.shp"},"geometry":{"type":"Polygon","coordinates":[[[121.4821782,31.23044586],[121.48226856,31.23046616],[121.48232904,31.23047637],[121.48237908,31.23045648],[121.48240896,31.23040649],[121.4824779,31.23008618],[121.48253676,31.22975583],[121.48253658,31.22972582],[121.48252632,31.22970575],[121.48250616,31.22968563],[121.482486,31.22967555],[121.48245594,31.22966547],[121.48237548,31.22965521],[121.48234524,31.22965512],[121.48232526,31.2296751],[121.48231536,31.22969513],[121.48231536,31.22971515],[121.48229592,31.22982527],[121.48228602,31.22986527],[121.48224588,31.22987517],[121.48218558,31.22987499],[121.48203474,31.22983449],[121.48191396,31.22981411],[121.48186374,31.22981397],[121.4818236,31.22982387],[121.48177338,31.22983373],[121.48176348,31.22985375],[121.48175358,31.22988377],[121.48173468,31.2301341],[121.48173486,31.23020421],[121.48174512,31.23025434],[121.48176546,31.23029444],[121.48180578,31.23032459],[121.48186626,31.23034479],[121.48196688,31.23037517],[121.4821782,31.23044586]]]}},{"id":"130","type":"Feature","properties":{"gml_id":"layer_functional_pg.49130","Name":null,"pyname":null,"kind":"0144","__source_file__":"19-其它/13-历史版本数据/2021.08/上海市_功能区.shp"},"geometry":{"type":"Polygon","coordinates":[[[121.48329456,31.2306795],[121.4842698,31.23084258],[121.48428996,31.23083259],[121.48429986,31.23081261],[121.48426908,31.2306723],[121.484259,31.23065223],[121.48423884,31.23064215],[121.48326342,31.23047907],[121.48324326,31.23047903],[121.48323336,31.23049901],[121.48326414,31.23064935],[121.4832744,31.23066942],[121.48329456,31.2306795]]]}},{"id":"129","type":"Feature","properties":{"gml_id":"layer_functional_pg.49129","Name":null,"pyname":null,"kind":"0144","__source_file__":"19-其它/13-历史版本数据/2021.08/上海市_功能区.shp"},"geometry":{"type":"Polygon","coordinates":[[[121.4845011,31.23087327],[121.48483284,31.23090432],[121.484853,31.23090437],[121.48487298,31.23089442],[121.48493292,31.23080442],[121.48493274,31.2307844],[121.48493274,31.23076437],[121.4849025,31.23075425],[121.48451046,31.23072306],[121.48449048,31.23073305],[121.4844804,31.23075303],[121.48447086,31.23084317],[121.48448094,31.23086319],[121.4845011,31.23087327]]]}},{"id":"4372","type":"Feature","properties":{"gml_id":"layer_functional_pg.53449","Name":null,"pyname":null,"kind":"0144","__source_file__":"19-其它/13-历史版本数据/2021.08/上海市_功能区.shp"},"geometry":{"type":"Polygon","coordinates":[[[121.48526412,31.23074529],[121.48527438,31.23079542],[121.48531506,31.23087566],[121.4853453,31.23089577],[121.48584768,31.23091728],[121.48587774,31.23090734],[121.48587756,31.23085725],[121.48587738,31.23080717],[121.48582698,31.23076698],[121.4857665,31.23073674],[121.48568604,31.23072648],[121.48535448,31.2307155],[121.48529418,31.23071537],[121.48526412,31.23074529]]]}},{"id":"3217","type":"Feature","properties":{"gml_id":"layer_functional_pg.52270","Name":null,"pyname":null,"kind":"0144","__source_file__":"19-其它/13-历史版本数据/2021.08/上海市_功能区.shp"},"geometry":{"type":"Polygon","coordinates":[[[121.48323966,31.23405459],[121.4833887,31.23369446],[121.48338852,31.2336644],[121.48336836,31.23364433],[121.48330788,31.2336041],[121.48322742,31.23356378],[121.4831871,31.23356369],[121.48315704,31.23357359],[121.4829981,31.23397377],[121.48299828,31.2339938],[121.48301844,31.23401387],[121.48319952,31.23405446],[121.48323966,31.23405459]]]}},{"id":"3216","type":"Feature","properties":{"gml_id":"layer_functional_pg.52269","Name":null,"pyname":null,"kind":"0144","__source_file__":"19-其它/13-历史版本数据/2021.08/上海市_功能区.shp"},"geometry":{"type":"Polygon","coordinates":[[[121.48345098,31.2341153],[121.48369254,31.23420615],[121.4837226,31.23421623],[121.48374276,31.23420629],[121.48377264,31.23413627],[121.48378218,31.23405617],[121.48376184,31.23398601],[121.48372134,31.2339258],[121.48369092,31.23386559],[121.48365042,31.23381542],[121.4836101,31.23378522],[121.48357986,31.23376511],[121.4835399,31.23378504],[121.48343064,31.23407516],[121.48343082,31.23410522],[121.48345098,31.2341153]]]}},{"id":"4687","type":"Feature","properties":{"gml_id":"layer_functional_pg.53776","Name":null,"pyname":null,"kind":"0144","__source_file__":"19-其它/13-历史版本数据/2021.08/上海市_功能区.shp"},"geometry":{"type":"Polygon","coordinates":[[[121.49146836,31.24044846],[121.49165016,31.24054913],[121.49212482,31.24082093],[121.49222562,31.24084127],[121.49233632,31.24083159],[121.49242668,31.24077174],[121.49278704,31.24024196],[121.49281692,31.24017194],[121.4927964,31.24009175],[121.49271558,31.24004144],[121.49250354,31.23994068],[121.49203932,31.23973899],[121.49169642,31.23962784],[121.4915958,31.23963756],[121.49155548,31.23965745],[121.49149572,31.23979749],[121.49139618,31.24005764],[121.49135676,31.24026783],[121.49137728,31.24035806],[121.49146836,31.24044846]]]}},{"id":"4686","type":"Feature","properties":{"gml_id":"layer_functional_pg.53775","Name":null,"pyname":null,"kind":"0144","__source_file__":"19-其它/13-历史版本数据/2021.08/上海市_功能区.shp"},"geometry":{"type":"Polygon","coordinates":[[[121.49277012,31.2409931],[121.49278056,31.24107324],[121.49283114,31.24111347],[121.4936388,31.24153647],[121.4937297,31.2415668],[121.49382024,31.241547],[121.4943624,31.24116801],[121.4944929,31.24106825],[121.49450262,31.24098815],[121.49445204,31.24093793],[121.49336178,31.24037385],[121.49331138,31.24036368],[121.493241,31.24039352],[121.49320086,31.24044351],[121.49292042,31.24080324],[121.49277012,31.2409931]]]}},{"id":"798","type":"Feature","properties":{"gml_id":"layer_functional_pg.49817","Name":null,"pyname":null,"kind":"0144","__source_file__":"19-其它/13-历史版本数据/2021.08/上海市_功能区.shp"},"geometry":{"type":"Polygon","coordinates":[[[121.4937819,31.2419876],[121.49384256,31.24204785],[121.49389296,31.24205802],[121.49411472,31.24207872],[121.49415486,31.24206882],[121.49417484,31.24202882],[121.49418402,31.24182852],[121.49417358,31.24174838],[121.49415324,31.24170824],[121.49410284,31.24169807],[121.49378154,31.24190745],[121.49377164,31.2419475],[121.4937819,31.2419876]]]}},{"id":"5163","type":"Feature","properties":{"gml_id":"layer_functional_pg.54254","Name":"东方明珠","pyname":"dfmz","kind":"0172","__source_file__":"19-其它/13-历史版本数据/2021.08/上海市_功能区.shp"},"geometry":{"type":"Polygon","coordinates":[[[121.49545842,31.24074056],[121.49488584,31.24109943],[121.49463492,31.24129901],[121.49375112,31.24185732],[121.49298792,31.24239593],[121.49282754,31.24255568],[121.4928684,31.24267601],[121.49317116,31.24282712],[121.49445348,31.24352196],[121.49574552,31.24412667],[121.49572986,31.24062117],[121.49545842,31.24074056]]]}},{"id":"5164","type":"Feature","properties":{"gml_id":"layer_functional_pg.54255","Name":"东方明珠","pyname":"dfmz","kind":"0172","__source_file__":"19-其它/13-历史版本数据/2021.08/上海市_功能区.shp"},"geometry":{"type":"Polygon","coordinates":[[[121.49642142,31.24437903],[121.49691552,31.24448064],[121.49722211526256,31.244471990245387],[121.49673453446849,31.24226085852577],[121.49616919082352,31.240612856774877],[121.49611254,31.24059224],[121.49595126,31.24056173],[121.49586072,31.24058148],[121.49572986,31.24062117],[121.49574552,31.24412667],[121.49642142,31.24437903]]]}},{"id":"3209","type":"Feature","properties":{"gml_id":"layer_functional_pg.52262","Name":null,"pyname":null,"kind":"0144","__source_file__":"19-其它/13-历史版本数据/2021.08/上海市_功能区.shp"},"geometry":{"type":"Polygon","coordinates":[[[121.484457,31.24535571],[121.48436682,31.24540553],[121.48433694,31.24547555],[121.48435728,31.24552572],[121.4843877,31.24555583],[121.48443792,31.24557603],[121.4845083,31.24558625],[121.48469892,31.24551668],[121.48517034,31.24534779],[121.48526052,31.24528794],[121.48539066,31.24518818],[121.48541064,31.24514817],[121.48542054,31.24511816],[121.4854605,31.2450782],[121.48550064,31.24504827],[121.4855406,31.24501835],[121.48562088,31.24499855],[121.48566084,31.2449486],[121.48566048,31.24486845],[121.48564014,31.24481832],[121.4856099,31.24477818],[121.48557948,31.24473804],[121.48552926,31.24471784],[121.48546878,31.24469763],[121.48539858,31.24469745],[121.48530822,31.24472724],[121.48520814,31.2448271],[121.48494822,31.24511681],[121.48489836,31.24516671],[121.48475796,31.24522638],[121.48456734,31.24530599],[121.484457,31.24535571]]]}},{"id":"1531","type":"Feature","properties":{"gml_id":"layer_functional_pg.50556","Name":null,"pyname":null,"kind":"0144","__source_file__":"19-其它/13-历史版本数据/2021.08/上海市_功能区.shp"},"geometry":{"type":"Polygon","coordinates":[[[121.48686018,31.24791671],[121.48700094,31.24795716],[121.4870715,31.24797741],[121.48715178,31.24796765],[121.48725186,31.24788777],[121.48733196,31.2478079],[121.48735176,31.2477579],[121.4873415,31.24770777],[121.48727094,31.24765751],[121.4869788,31.24749641],[121.48670682,31.24734539],[121.48664652,31.24732514],[121.4866062,31.24733504],[121.4865864,31.24737504],[121.48659666,31.2474452],[121.4866782,31.24768581],[121.48676946,31.24785636],[121.48686018,31.24791671]]]}},{"id":"4375","type":"Feature","properties":{"gml_id":"layer_functional_pg.53452","Name":null,"pyname":null,"kind":"0144","__source_file__":"19-其它/13-历史版本数据/2021.08/上海市_功能区.shp"},"geometry":{"type":"Polygon","coordinates":[[[121.48834788,31.24805121],[121.48840836,31.24809149],[121.4885088,31.24810179],[121.48898148,31.24817325],[121.4890416,31.24816344],[121.48907166,31.24813347],[121.48911162,31.24807349],[121.4891415,31.24802349],[121.48914132,31.24797341],[121.48912098,31.24795334],[121.48786332,31.24755905],[121.487823,31.24755896],[121.48778286,31.24756886],[121.487733,31.24763879],[121.48773318,31.24767888],[121.48775352,31.24770899],[121.48791462,31.24779957],[121.48834788,31.24805121]]]}},{"id":"4374","type":"Feature","properties":{"gml_id":"layer_functional_pg.53451","Name":null,"pyname":null,"kind":"0144","__source_file__":"19-其它/13-历史版本数据/2021.08/上海市_功能区.shp"},"geometry":{"type":"Polygon","coordinates":[[[121.48986618,31.24830605],[121.4899164,31.24830618],[121.48994646,31.24828625],[121.49012592,31.24796625],[121.49013582,31.24792625],[121.4900955,31.24789605],[121.48961238,31.2477444],[121.48956216,31.24774427],[121.4895321,31.24777424],[121.4893629,31.24809423],[121.489353,31.24814427],[121.48937334,31.24817442],[121.48944372,31.24820466],[121.48986618,31.24830605]]]}},{"id":"3214","type":"Feature","properties":{"gml_id":"layer_functional_pg.52267","Name":null,"pyname":null,"kind":"0144","__source_file__":"19-其它/13-历史版本数据/2021.08/上海市_功能区.shp"},"geometry":{"type":"Polygon","coordinates":[[[121.49271108,31.24809396],[121.4925093,31.24801328],[121.4924085,31.24800297],[121.49229798,31.2480527],[121.49199756,31.24844244],[121.49197812,31.24858262],[121.4920188,31.24868288],[121.49207964,31.2487632],[121.49219052,31.2488136],[121.49264484,31.2490553],[121.49324046,31.24932746],[121.49329104,31.24936764],[121.49329122,31.24942776],[121.49314128,31.24967769],[121.49313138,31.24972773],[121.4931618,31.24976792],[121.49467596,31.25049345],[121.49472636,31.25049359],[121.49478666,31.25048378],[121.4952282,31.25010447],[121.49531856,31.25003463],[121.4955198,31.24998513],[121.49564058,31.24996547],[121.49577126,31.24989572],[121.49576892,31.24937489],[121.49271108,31.24809396]]]}},{"id":"95","type":"Feature","properties":{"gml_id":"layer_functional_pg.49092","Name":null,"pyname":null,"kind":"0144","__source_file__":"19-其它/13-历史版本数据/2021.08/上海市_功能区.shp"},"geometry":{"type":"Polygon","coordinates":[[[121.49577126,31.24989572],[121.49588214,31.24991606],[121.49617464,31.25001708],[121.49668944,31.25026899],[121.49674974,31.25024915],[121.49689968,31.24998918],[121.49688942,31.24993905],[121.49681868,31.24989878],[121.49597124,31.24956578],[121.49586972,31.24941525],[121.49576892,31.24937489],[121.49577126,31.24989572]]]}},{"id":"3218","type":"Feature","properties":{"gml_id":"layer_functional_pg.52271","Name":null,"pyname":null,"kind":"0144","__source_file__":"19-其它/13-历史版本数据/2021.08/上海市_功能区.shp"},"geometry":{"type":"Polygon","coordinates":[[[121.4758818,31.23779904],[121.47593202,31.23777915],[121.47595182,31.23773915],[121.47618096,31.23728915],[121.47619068,31.23723906],[121.47614028,31.23720887],[121.47584868,31.23713795],[121.4755974,31.23714722],[121.47524622,31.23721629],[121.47516576,31.23721607],[121.47506514,31.23719573],[121.47494436,31.23715532],[121.47484392,31.23714501],[121.47425262,31.23747383],[121.47421248,31.23750375],[121.47423282,31.23754385],[121.4758818,31.23779904]]]}},{"id":"3027","type":"Feature","properties":{"gml_id":"layer_functional_pg.52076","Name":null,"pyname":null,"kind":"0144","__source_file__":"19-其它/13-历史版本数据/2021.08/上海市_功能区.shp"},"geometry":{"type":"Polygon","coordinates":[[[121.48053138,31.25258559],[121.48053156,31.25261565],[121.48054164,31.25263572],[121.48057188,31.2526458],[121.4806221,31.25265597],[121.4806824,31.25265615],[121.48076286,31.25265638],[121.48085322,31.25263662],[121.48101378,31.25260701],[121.48109406,31.25258726],[121.48114428,31.25256737],[121.48118424,31.25251737],[121.48117398,31.25247728],[121.48114374,31.25243714],[121.48103286,31.25237675],[121.4808012,31.2522759],[121.48073082,31.25223563],[121.48068042,31.25221547],[121.4806302,31.25222532],[121.48060032,31.25227532],[121.48057044,31.25234534],[121.48056072,31.25240541],[121.4805312,31.25254554],[121.48053138,31.25258559]]]}},{"id":"3028","type":"Feature","properties":{"gml_id":"layer_functional_pg.52077","Name":null,"pyname":null,"kind":"0144","__source_file__":"19-其它/13-历史版本数据/2021.08/上海市_功能区.shp"},"geometry":{"type":"Polygon","coordinates":[[[121.47870564,31.25320124],[121.47886656,31.25326181],[121.47892704,31.25328201],[121.4789571,31.2532821],[121.47898734,31.25328219],[121.47899706,31.25324219],[121.47900696,31.25321213],[121.47900696,31.25318211],[121.4789967,31.25316204],[121.47896664,31.25315192],[121.4789364,31.25314184],[121.47862446,31.25304077],[121.47859422,31.25303069],[121.47857406,31.25301057],[121.47854382,31.25300049],[121.47850368,31.25299032],[121.47847362,31.25300027],[121.47844338,31.25301021],[121.47841332,31.25303015],[121.47840342,31.25306016],[121.47842376,31.25309027],[121.47848406,31.25311047],[121.47854454,31.25314071],[121.47870564,31.25320124]]]}},{"id":"3024","type":"Feature","properties":{"gml_id":"layer_functional_pg.52073","Name":null,"pyname":null,"kind":"0144","__source_file__":"19-其它/13-历史版本数据/2021.08/上海市_功能区.shp"},"geometry":{"type":"Polygon","coordinates":[[[121.47601482,31.25581754],[121.4762868,31.25597855],[121.47651846,31.25610945],[121.47664932,31.2561599],[121.47702156,31.25627114],[121.47736374,31.2563723],[121.47765552,31.25647332],[121.4777259,31.25649353],[121.47776604,31.25648363],[121.47779628,31.25647373],[121.47782616,31.25643372],[121.47782598,31.25640371],[121.47779574,31.25638359],[121.4776044,31.25629287],[121.47711102,31.25605109],[121.4769096,31.2559403],[121.47651684,31.25573888],[121.47615432,31.25557755],[121.47589242,31.2554466],[121.47570126,31.25536592],[121.47560082,31.25537564],[121.47557076,31.2554156],[121.47557112,31.25547572],[121.47560154,31.25554592],[121.47570234,31.2556163],[121.47581322,31.25568672],[121.47601482,31.25581754]]]}},{"id":"5151","type":"Feature","properties":{"gml_id":"layer_functional_pg.54241","Name":"上海市第一人民医院分院","pyname":"shsdyrmyyfy","kind":"0163","__source_file__":"19-其它/13-历史版本数据/2021.08/上海市_功能区.shp"},"geometry":{"type":"Polygon","coordinates":[[[121.47972498,31.26326972],[121.47973398,31.26346916],[121.47975396,31.26351906],[121.47978384,31.26353909],[121.47987402,31.26359916],[121.4800749,31.26359975],[121.48032636,31.26357059],[121.48070814,31.26357171],[121.48094934,31.26354251],[121.48106004,31.26351294],[121.4811108,31.2634134],[121.48109118,31.26332358],[121.48102116,31.26325361],[121.48030728,31.26336116],[121.48025706,31.26335103],[121.48023726,31.26330113],[121.4802378,31.26319146],[121.48024824,31.2631317],[121.48026858,31.26308189],[121.48026876,31.26304202],[121.48025904,31.26299216],[121.48022898,31.26298208],[121.48019874,31.26298199],[121.48013844,31.26300174],[121.48007796,31.26302154],[121.47998724,31.26309102],[121.47989652,31.26313067],[121.47983622,31.26314043],[121.47976584,31.2631502],[121.4797356,31.26317004],[121.47972498,31.26326972]]]}},{"id":"5152","type":"Feature","properties":{"gml_id":"layer_functional_pg.54243","Name":"中国人民解放军第四一一医院","pyname":"zgrmjfjdsyyyy","kind":"0163","__source_file__":"19-其它/13-历史版本数据/2021.08/上海市_功能区.shp"},"geometry":{"type":"Polygon","coordinates":[[[121.47659784,31.26749769],[121.47691014,31.26736899],[121.47695028,31.26734919],[121.47695046,31.26731927],[121.4769213,31.26714971],[121.47686208,31.26696008],[121.4767818,31.26693992],[121.47654006,31.26702893],[121.47652008,31.26703883],[121.47649992,31.26702879],[121.47638976,31.26696867],[121.47627924,31.26695837],[121.47605802,31.26698762],[121.47598818,31.26692759],[121.47589962,31.26655845],[121.47579936,31.26653825],[121.47569856,31.26656786],[121.47564762,31.2667272],[121.4757441,31.26747524],[121.47578316,31.26767472],[121.47587334,31.26772485],[121.4759637,31.26774506],[121.47659784,31.26749769]]]}},{"id":"3026","type":"Feature","properties":{"gml_id":"layer_functional_pg.52075","Name":null,"pyname":null,"kind":"0144","__source_file__":"19-其它/13-历史版本数据/2021.08/上海市_功能区.shp"},"geometry":{"type":"Polygon","coordinates":[[[121.47712902,31.27720842],[121.4770581,31.27714785],[121.4769771,31.2771573],[121.47646176,31.27738406],[121.47640128,31.27743369],[121.47638837823378,31.277484868285935],[121.4771384442855,31.277220934444397],[121.47712902,31.27720842]]]}},{"id":"94","type":"Feature","properties":{"gml_id":"layer_functional_pg.49091","Name":null,"pyname":null,"kind":"0144","__source_file__":"19-其它/13-历史版本数据/2021.08/上海市_功能区.shp"},"geometry":{"type":"Polygon","coordinates":[[[121.49749692,31.25062188],[121.4975093785493,31.250625185681468],[121.49755548948157,31.25026961052951],[121.4975573943284,31.25012794351215],[121.4972424,31.25002023],[121.49719182,31.25000003],[121.4971416,31.25000988],[121.4969517,31.25034986],[121.49695188,31.25038995],[121.4969823,31.25043009],[121.49749692,31.25062188]]]}},{"id":"1530","type":"Feature","properties":{"gml_id":"layer_functional_pg.50555","Name":null,"pyname":null,"kind":"0144","__source_file__":"19-其它/13-历史版本数据/2021.08/上海市_功能区.shp"},"geometry":{"type":"Polygon","coordinates":[[[121.49044614,31.25207358],[121.49040582,31.25204343],[121.49037558,31.25203331],[121.49033544,31.25203322],[121.4902953,31.25203308],[121.49025498,31.25203299],[121.49022492,31.2520329],[121.49019486,31.2520428],[121.49015472,31.25207273],[121.49044614,31.25207358]]]}},{"id":"3025","type":"Feature","properties":{"gml_id":"layer_functional_pg.52074","Name":null,"pyname":null,"kind":"0144","__source_file__":"19-其它/13-历史版本数据/2021.08/上海市_功能区.shp"},"geometry":{"type":"Polygon","coordinates":[[[121.49015472,31.25207273],[121.49006472,31.2521526],[121.4899947,31.2522125],[121.48997472,31.2522525],[121.48996482,31.25228252],[121.48995492,31.25231253],[121.489965,31.2523326],[121.48997526,31.2523727],[121.4899956,31.2524028],[121.49001576,31.25243291],[121.49003592,31.25245298],[121.49007624,31.25247314],[121.49014662,31.25248335],[121.49022708,31.25249361],[121.49030754,31.25250387],[121.49035776,31.25250401],[121.49041788,31.25248416],[121.49043786,31.25245415],[121.49045784,31.25241414],[121.49046756,31.25235411],[121.49046738,31.25230403],[121.490487,31.25221394],[121.49048664,31.25213379],[121.49047638,31.25210373],[121.49044614,31.25207358],[121.49015472,31.25207273]]]}},{"id":"5130","type":"Feature","properties":{"gml_id":"layer_functional_pg.54220","Name":"上海市第一人民医院","pyname":"shsdyrmyy","kind":"0163","__source_file__":"19-其它/13-历史版本数据/2021.08/上海市_功能区.shp"},"geometry":{"type":"Polygon","coordinates":[[[121.48386822,31.25496902],[121.48381836,31.25507904],[121.4838288,31.25516922],[121.48385922,31.25522939],[121.4839197,31.25526962],[121.48400034,31.25530994],[121.48492644,31.25570324],[121.48582248,31.25607642],[121.48589286,31.25609663],[121.48596324,31.25609685],[121.4861238,31.25605725],[121.48642476,31.25593796],[121.48656516,31.25587824],[121.48661502,31.25580827],[121.48660458,31.25573816],[121.48657416,31.25567795],[121.48651368,31.25562773],[121.48638282,31.25555721],[121.4863119,31.25544683],[121.48634106,31.25521656],[121.48632054,31.25512638],[121.4861895,31.25502585],[121.48574652,31.25483424],[121.48509186,31.25452185],[121.48478982,31.25439077],[121.48458858,31.25433011],[121.48448814,31.2543198],[121.48442784,31.25432961],[121.48435764,31.25435949],[121.4842977,31.2544094],[121.48420752,31.25448923],[121.48410762,31.25459912],[121.48400772,31.25472903],[121.48386822,31.25496902]]]}},{"id":"5149","type":"Feature","properties":{"gml_id":"layer_functional_pg.54239","Name":"上海外国语大学","pyname":"shwgydx","kind":"0161","__source_file__":"19-其它/13-历史版本数据/2021.08/上海市_功能区.shp"},"geometry":{"type":"Polygon","coordinates":[[[121.47733098,31.27706964],[121.47682536,31.27712621],[121.4765829,31.27717463],[121.47624918,31.27725243],[121.47619878,31.27729212],[121.4761887,31.27735211],[121.4762598,31.27748279],[121.47628177932823,31.277522378393986],[121.47760745856624,31.277055897324573],[121.47733098,31.27706964]]]}}],"name":"上海市_功能区","crs":{"type":"name","properties":{"name":"urn:ogc:def:crs:OGC:1.3:CRS84"}}}