{"type":"FeatureCollection","features":[{"id":"68","type":"Feature","properties":{"省":"上海市","市":"上海市","县":"徐汇区","乡":"湖南路街道","Shape_Leng":0.0655813571163,"Shape_Area":0.000162548058812,"__source_file__":"19-其它/13-历史版本数据/2021.08/上海市_乡镇.shp"},"geometry":{"type":"Polygon","coordinates":[[[121.45039421352226,31.221086222151598],[121.45066380149342,31.22125296904943],[121.45100246369293,31.22146578911503],[121.45107967049057,31.22151465467772],[121.45114866198139,31.221558320360373],[121.45121734050804,31.221598703517543],[121.45125877497264,31.22162060380799],[121.45130041268408,31.221636971469195],[121.45133385307508,31.22164969237957],[121.45136866043549,31.221659490493266],[121.45141144927914,31.22166843155304],[121.45157522841419,31.221705444051167],[121.45165994095373,31.221724901782977],[121.45223589736895,31.22185719385459],[121.4529733666277,31.22203485312616],[121.45298277173765,31.22203837397194],[121.45310497161734,31.222084118887153],[121.45329635814062,31.22154254625167],[121.45341526470293,31.22118897509131],[121.45348888950082,31.220970053125598],[121.4535635737002,31.220756563964414],[121.45362305575964,31.220580631391215],[121.4536661197958,31.220428160331494],[121.45372094696427,31.220285356084503],[121.45382889720665,31.22006050889398],[121.45322544632577,31.22016931735996],[121.45008861483073,31.22089015214539],[121.45039421352226,31.221086222151598]]]}},{"id":"161","type":"Feature","properties":{"省":"上海市","市":"上海市","县":"静安区","乡":"静安寺街道","Shape_Leng":0.0511426154557,"Shape_Area":0.000148924635928,"__source_file__":"19-其它/13-历史版本数据/2021.08/上海市_乡镇.shp"},"geometry":{"type":"Polygon","coordinates":[[[121.43508743933398,31.22732924654764],[121.43525332288277,31.227395067028908],[121.435556228937,31.2276769901012],[121.43610617965669,31.227970348952624],[121.43699154962053,31.22835346913746],[121.43786177769903,31.229100210406557],[121.43865810938439,31.229746471322755],[121.43878615305869,31.22977519297092],[121.43888425920136,31.229797030308873],[121.44201086291116,31.231283779622913],[121.44237577362321,31.229094107607125],[121.44237505686351,31.229036353145375],[121.44250607099855,31.228347860965187],[121.4429769434314,31.227424910131674],[121.4430130314264,31.227298402499457],[121.44304081867904,31.227200757708943],[121.44320718336496,31.226617044641046],[121.4434186319645,31.226190121177297],[121.44346878805425,31.226088288244057],[121.44379140724777,31.225100768785637],[121.44448388792125,31.223534059849158],[121.44506727363591,31.223756880375902],[121.44599214447432,31.222040488115425],[121.44530175929886,31.222255121711427],[121.4448249527962,31.222380959544715],[121.44201488607233,31.223386771246194],[121.43933089239154,31.22462099458779],[121.43679803887224,31.22607210410547],[121.43500473360749,31.22733031610508],[121.43508743933398,31.22732924654764]]]}},{"id":"36","type":"Feature","properties":{"省":"上海市","市":"上海市","县":"静安区","乡":"南京西路街道","Shape_Leng":0.0624384738199,"Shape_Area":0.000153646677359,"__source_file__":"19-其它/13-历史版本数据/2021.08/上海市_乡镇.shp"},"geometry":{"type":"Polygon","coordinates":[[[121.45008861483073,31.22089015214539],[121.44987632194113,31.220938936436088],[121.44729699990332,31.22163482208588],[121.44599214447432,31.222040488115425],[121.44506727363591,31.223756880375902],[121.44448388792125,31.223534059849158],[121.44379140724777,31.225100768785637],[121.44346878805425,31.226088288244057],[121.4434186319645,31.226190121177297],[121.44320718336496,31.226617044641046],[121.44304081867904,31.227200757708943],[121.4430130314264,31.227298402499457],[121.4429769434314,31.227424910131674],[121.44250607099855,31.228347860965187],[121.44237505686351,31.229036353145375],[121.44237577362321,31.229094107607125],[121.44459300446374,31.230019971344745],[121.44675417606459,31.230910925199225],[121.44862436752067,31.231533578911694],[121.44863302799206,31.23153602506767],[121.45060983857331,31.232112428445987],[121.45130933935468,31.231088709476523],[121.45206876106465,31.230176502843506],[121.45268625896381,31.230501842486206],[121.45311104294046,31.230751395360755],[121.45383538929195,31.231252408571947],[121.4546589938177,31.232015526495502],[121.45468317568816,31.232036989715482],[121.45685431447521,31.232764748994157],[121.45760298748803,31.2328857428829],[121.45947190100765,31.232882529605206],[121.4596350802949,31.232882104225894],[121.4611485214873,31.232747440642015],[121.46241542073528,31.232864847135147],[121.46242084004996,31.232819070743687],[121.46255457463405,31.231159212727675],[121.46267206296545,31.229474848185873],[121.46294222560346,31.22842758676387],[121.4633593752352,31.22763020826767],[121.46335069497877,31.22760416659918],[121.46310097123296,31.227548673033027],[121.46307479106895,31.227577843442873],[121.4630533943988,31.227369732227544],[121.46295415241241,31.226404452103964],[121.46293284297644,31.22617344504863],[121.46292968905414,31.226129292832752],[121.46292968905414,31.22607883367141],[121.46293052182625,31.226012881889176],[121.46293079971679,31.22599093933053],[121.462931582127,31.225928972444308],[121.46293402828292,31.225785589933196],[121.46181453061627,31.225709358899962],[121.45876276039326,31.22587104441334],[121.45870969319799,31.225870380713673],[121.45630623074817,31.225844813887193],[121.45628746009834,31.22584450092313],[121.45217013894091,31.22578993096073],[121.45217627771319,31.225761539363702],[121.45218475022625,31.22574659712791],[121.45220334191083,31.22569145789464],[121.45219693603997,31.225665998986813],[121.45221779761346,31.225648587212675],[121.45222910478958,31.225615050594286],[121.45223724365405,31.2255111123481],[121.452244657665,31.22541645330682],[121.4522404839114,31.22519314804549],[121.45223874911915,31.225086259123714],[121.45223519319973,31.224783956514557],[121.45225064445185,31.224389021036643],[121.45227162473589,31.22415668118606],[121.45228797620928,31.224016372557685],[121.45231145840728,31.223811290258993],[121.45236755092196,31.223628664031764],[121.45258571385978,31.223195090980823],[121.45275732249263,31.222967301699782],[121.45303937686595,31.222252631154163],[121.45310497161734,31.222084118887153],[121.45298277173765,31.22203837397194],[121.4529733666277,31.22203485312616],[121.45223589736895,31.22185719385459],[121.45165994095373,31.221724901782977],[121.45157522841419,31.221705444051167],[121.45141144927914,31.22166843155304],[121.45136866043549,31.221659490493266],[121.45133385307508,31.22164969237957],[121.45130041268408,31.221636971469195],[121.45125877497264,31.22162060380799],[121.45121734050804,31.221598703517543],[121.45114866198139,31.221558320360373],[121.45107967049057,31.22151465467772],[121.45100246369293,31.22146578911503],[121.45066380149342,31.22125296904943],[121.45039421352226,31.221086222151598],[121.45008861483073,31.22089015214539]]]}},{"id":"179","type":"Feature","properties":{"省":"上海市","市":"上海市","县":"静安区","乡":"曹家渡街道","Shape_Leng":0.0486334800241,"Shape_Area":0.00014047589042,"__source_file__":"19-其它/13-历史版本数据/2021.08/上海市_乡镇.shp"},"geometry":{"type":"Polygon","coordinates":[[[121.42639819961744,31.237002852699675],[121.42648280693618,31.237028897066125],[121.42670276042418,31.23699937412198],[121.42744881461124,31.236926431010147],[121.42750857995713,31.236920779670413],[121.42753754442231,31.236917954899866],[121.42792908046283,31.236883152036],[121.42822141228851,31.23686230035503],[121.42837719645058,31.23684660089009],[121.42853673258435,31.236844607093133],[121.42872219347464,31.236852584079656],[121.42885879689618,31.23686454866015],[121.4290088496789,31.23687965816987],[121.4292335048226,31.23690622504239],[121.4292407254793,31.23690707939835],[121.4296067351629,31.236953650790497],[121.42985087501802,31.23698471607196],[121.42995660561303,31.236998169030414],[121.43039764933224,31.237076253566386],[121.43053487418524,31.237101212451137],[121.43065146589265,31.237129765926113],[121.43074555116641,31.23715621588684],[121.43087337450686,31.23719572580228],[121.43100894550662,31.23724374060629],[121.43105594497604,31.237260387057404],[121.43124521629386,31.237344290206977],[121.43140912223339,31.237430145784742],[121.43156334787034,31.237511236754358],[121.43172372127287,31.23762301529007],[121.43214112361409,31.237863412166917],[121.43235738538522,31.23798975432385],[121.43254892119592,31.23810094020638],[121.43261698998231,31.238147847045695],[121.43265293768309,31.23817275736701],[121.43276507774635,31.238268557647984],[121.43288893507645,31.238374473503313],[121.43303804177242,31.238516750747635],[121.43311738445993,31.238605660423048],[121.43315386905601,31.238647986115836],[121.43326884827889,31.2387813726624],[121.4333347389072,31.238865134618436],[121.43394728154203,31.23847403564838],[121.43445868911738,31.237771098557516],[121.43453154049837,31.237690689274075],[121.43546925190458,31.236698538307053],[121.43576825580055,31.236279590031245],[121.43603229585392,31.235700466203696],[121.4360348211502,31.235692913697164],[121.43729586221446,31.23349479345012],[121.43731570215812,31.2334541629794],[121.43787957168502,31.231848468432247],[121.43788570416211,31.231836064083268],[121.43844595931375,31.23050097464045],[121.43888425920136,31.229797030308873],[121.43878615305869,31.22977519297092],[121.43865810938439,31.229746471322755],[121.43786177769903,31.229100210406557],[121.43699154962053,31.22835346913746],[121.43610617965669,31.227970348952624],[121.435556228937,31.2276769901012],[121.43525332288277,31.227395067028908],[121.43508743933398,31.22732924654764],[121.43500473360749,31.22733031610508],[121.43465443577679,31.227576090732896],[121.43247887854997,31.22902447931829],[121.43023229027573,31.23084959185621],[121.42820470240456,31.232855166664738],[121.42641565907029,31.235021885085512],[121.42571625297748,31.236074240577814],[121.42639819961744,31.237002852699675]]]}},{"id":"37","type":"Feature","properties":{"省":"上海市","市":"上海市","县":"静安区","乡":"石门二路街道","Shape_Leng":0.0467203997417,"Shape_Area":0.000101332692529,"__source_file__":"19-其它/13-历史版本数据/2021.08/上海市_乡镇.shp"},"geometry":{"type":"Polygon","coordinates":[[[121.45268625896381,31.230501842486206],[121.45206876106465,31.230176502843506],[121.45130933935468,31.231088709476523],[121.45060983857331,31.232112428445987],[121.45060550743835,31.23211970576],[121.44913508261811,31.234570611944378],[121.44912136795699,31.23459307431108],[121.44801230782195,31.236308008607864],[121.44954341169921,31.2365751774027],[121.44992376107291,31.236716913255123],[121.44995551793295,31.236728672790207],[121.45226084096521,31.237638804687265],[121.45152342566575,31.23856698058188],[121.45108163460998,31.239154393460637],[121.45080224402852,31.239838224454672],[121.45075925643471,31.240317259134372],[121.45073144040384,31.24062873033182],[121.45088552934385,31.240760299348494],[121.45193869391574,31.24010390487149],[121.45278361327325,31.239899868484315],[121.45337732860105,31.239990651447556],[121.45418543870721,31.24028495098986],[121.45419373944969,31.240289557317396],[121.45476399865981,31.240708397674553],[121.45581644737138,31.241907822588132],[121.4563611010841,31.24247408071443],[121.45705233979379,31.24287263776216],[121.45787031546286,31.24314861721507],[121.4584193830483,31.24327133150689],[121.45947699476767,31.240767624326566],[121.45966439999222,31.240328524941617],[121.45968498277591,31.240280355454217],[121.45976297827895,31.240099451428705],[121.4605425573933,31.23863460690177],[121.46054797400996,31.238626523795176],[121.4612925326245,31.237409543216017],[121.46166448053157,31.236549803031153],[121.46204444589466,31.23487991847361],[121.46205781161893,31.23480726404415],[121.46241542073528,31.232864847135147],[121.4611485214873,31.232747440642015],[121.4596350802949,31.232882104225894],[121.45947190100765,31.232882529605206],[121.45760298748803,31.2328857428829],[121.45685431447521,31.232764748994157],[121.45468317568816,31.232036989715482],[121.4546589938177,31.232015526495502],[121.45383538929195,31.231252408571947],[121.45311104294046,31.230751395360755],[121.45268625896381,31.230501842486206]]]}},{"id":"180","type":"Feature","properties":{"省":"上海市","市":"上海市","县":"静安区","乡":"江宁路街道","Shape_Leng":0.0591755516184,"Shape_Area":0.000174652617996,"__source_file__":"19-其它/13-历史版本数据/2021.08/上海市_乡镇.shp"},"geometry":{"type":"Polygon","coordinates":[[[121.43888425920136,31.229797030308873],[121.43844595931375,31.23050097464045],[121.43788570416211,31.231836064083268],[121.43787957168502,31.231848468432247],[121.43731570215812,31.2334541629794],[121.43729586221446,31.23349479345012],[121.4360348211502,31.235692913697164],[121.43603229585392,31.235700466203696],[121.43576825580055,31.236279590031245],[121.43546925190458,31.236698538307053],[121.43453154049837,31.237690689274075],[121.43445868911738,31.237771098557516],[121.43394728154203,31.23847403564838],[121.4333347389072,31.238865134618436],[121.43350139857091,31.238939205480108],[121.43376064793574,31.239071145017476],[121.43396814221614,31.239174921385654],[121.43452558968443,31.23944749600531],[121.43489604291824,31.239622735201237],[121.43491398349374,31.239631222103355],[121.43507888768067,31.239699067857885],[121.43520515699254,31.23974241428118],[121.43536201764323,31.23981383394147],[121.4355452688992,31.23984179386389],[121.43564890317452,31.239874887116514],[121.43571204097805,31.239900142777515],[121.43580609567493,31.239950217928367],[121.43592672623765,31.24004682939784],[121.43655657182853,31.24044942440156],[121.43694570308196,31.240696979881875],[121.43731931473474,31.240934662604786],[121.43745503412265,31.24101326694887],[121.43766500693471,31.24113922329667],[121.43796471230178,31.241313654901433],[121.43799818326977,31.24132904140231],[121.4380832618333,31.241361727262074],[121.4383829869854,31.241494928548263],[121.43856715285199,31.241579053830435],[121.4387422229754,31.241669999571002],[121.43884020411235,31.241722180034742],[121.43900971102948,31.241840730465526],[121.43904460382555,31.241865840436333],[121.43914318840757,31.24193678255665],[121.4391944308785,31.241973657458516],[121.43925227886973,31.242015285277375],[121.4392690629171,31.24202736317244],[121.4394836429559,31.2421817776671],[121.4397145025224,31.242341870481084],[121.43991019050304,31.242465618093945],[121.44003316379963,31.24253884269359],[121.4406178175584,31.2428869774522],[121.44116140287667,31.24321184225289],[121.44133242695011,31.2433026036324],[121.44159120237225,31.243408188537217],[121.44175822895932,31.243476339161873],[121.44190907944062,31.243537673824733],[121.44219446580212,31.243658105637223],[121.44262336417705,31.243837094106766],[121.44273792071863,31.243852535466317],[121.44280062145174,31.24386100797932],[121.4428649814339,31.243875680418455],[121.44294403274114,31.243893923166183],[121.443172947074,31.243956218305016],[121.44327178256685,31.24398311432941],[121.4444973085042,31.244312968568806],[121.44452511014595,31.244320660470294],[121.44458116848637,31.24433934658373],[121.4446171026973,31.244355157564655],[121.44464493671467,31.244367158117996],[121.44467851200386,31.24439553442653],[121.44472349879061,31.244441675043447],[121.44515059402488,31.244887629060997],[121.44539062487763,31.24516493051732],[121.44818598489542,31.243361872552555],[121.44851870977084,31.243149685609694],[121.4497121946622,31.241944371935404],[121.45024634249489,31.24139481781674],[121.45088552934385,31.240760299348494],[121.45073144040384,31.24062873033182],[121.45075925643471,31.240317259134372],[121.45080224402852,31.239838224454672],[121.45108163460998,31.239154393460637],[121.45152342566575,31.23856698058188],[121.45226084096521,31.237638804687265],[121.44995551793295,31.236728672790207],[121.44992376107291,31.236716913255123],[121.44954341169921,31.2365751774027],[121.44801230782195,31.236308008607864],[121.44912136795699,31.23459307431108],[121.44913508261811,31.234570611944378],[121.45060550743835,31.23211970576],[121.45060983857331,31.232112428445987],[121.44863302799206,31.23153602506767],[121.44862436752067,31.231533578911694],[121.44675417606459,31.230910925199225],[121.44459300446374,31.230019971344745],[121.44237577362321,31.229094107607125],[121.44201086291116,31.231283779622913],[121.43888425920136,31.229797030308873]]]}},{"id":"137","type":"Feature","properties":{"省":"上海市","市":"上海市","县":"普陀区","乡":"长寿路街道","Shape_Leng":0.100083823626,"Shape_Area":0.000380601972739,"__source_file__":"19-其它/13-历史版本数据/2021.08/上海市_乡镇.shp"},"geometry":{"type":"Polygon","coordinates":[[[121.42206816451437,31.247469793096627],[121.42297884409857,31.247831984258823],[121.42376846774073,31.248188247989447],[121.42456460067592,31.248679757165235],[121.4252201893604,31.249214600173843],[121.42595003326755,31.250002239012304],[121.42596769325462,31.25002312846476],[121.42679416212104,31.250923976660374],[121.42739863963573,31.251447943268147],[121.4282641246898,31.252120841204032],[121.42827854711743,31.252096478569797],[121.42865857453376,31.251458294464896],[121.42873285044084,31.251333966789275],[121.42926354847418,31.25109872212846],[121.42963631206635,31.251300053354953],[121.43029176765117,31.25121818716974],[121.43088200530053,31.250915764051456],[121.43247903757765,31.24985928727648],[121.4328198005935,31.249723096643777],[121.43303254331738,31.249765666952158],[121.43327916710007,31.249999451113922],[121.4335744478027,31.250554911979748],[121.43434526392298,31.25239684853591],[121.43494626106133,31.25416228156422],[121.4352058719536,31.254630452433616],[121.43552861705223,31.25486572137612],[121.43605695166718,31.254892231591384],[121.43651463284425,31.254673864507424],[121.43693194525326,31.254289737081876],[121.43721546732013,31.253824356808764],[121.43766140245191,31.252118139640572],[121.43794889052901,31.25177395110711],[121.43832185197209,31.25157743664954],[121.43886253068138,31.251514877110083],[121.43930799187046,31.251523962960675],[121.44283195203309,31.25190327271804],[121.4433456726648,31.25203759635815],[121.44533317888329,31.25287173554233],[121.4457304310148,31.25283892287814],[121.44605409791848,31.252638561120875],[121.44615662243041,31.25202900423534],[121.44609072370815,31.250531312869953],[121.44577256605123,31.249602324887576],[121.44491936753491,31.24841308299756],[121.44390383779205,31.24737030199799],[121.44368089225952,31.2471904303942],[121.44360912096431,31.24692887786557],[121.44360731872291,31.246908273498207],[121.44372569288657,31.24645050148962],[121.44460463359712,31.24566225201147],[121.44539062487763,31.24516493051732],[121.44515059402488,31.244887629060997],[121.44472349879061,31.244441675043447],[121.44467851200386,31.24439553442653],[121.44464493671467,31.244367158117996],[121.4446171026973,31.244355157564655],[121.44458116848637,31.24433934658373],[121.44452511014595,31.244320660470294],[121.4444973085042,31.244312968568806],[121.44327178256685,31.24398311432941],[121.443172947074,31.243956218305016],[121.44294403274114,31.243893923166183],[121.4428649814339,31.243875680418455],[121.44280062145174,31.24386100797932],[121.44273792071863,31.243852535466317],[121.44262336417705,31.243837094106766],[121.44219446580212,31.243658105637223],[121.44190907944062,31.243537673824733],[121.44175822895932,31.243476339161873],[121.44159120237225,31.243408188537217],[121.44133242695011,31.2433026036324],[121.44116140287667,31.24321184225289],[121.4406178175584,31.2428869774522],[121.44003316379963,31.24253884269359],[121.43991019050304,31.242465618093945],[121.4397145025224,31.242341870481084],[121.4394836429559,31.2421817776671],[121.4392690629171,31.24202736317244],[121.43925227886973,31.242015285277375],[121.4391944308785,31.241973657458516],[121.43914318840757,31.24193678255665],[121.43904460382555,31.241865840436333],[121.43900971102948,31.241840730465526],[121.43884020411235,31.241722180034742],[121.4387422229754,31.241669999571002],[121.43856715285199,31.241579053830435],[121.4383829869854,31.241494928548263],[121.4380832618333,31.241361727262074],[121.43799818326977,31.24132904140231],[121.43796471230178,31.241313654901433],[121.43766500693471,31.24113922329667],[121.43745503412265,31.24101326694887],[121.43731931473474,31.240934662604786],[121.43694570308196,31.240696979881875],[121.43655657182853,31.24044942440156],[121.43592672623765,31.24004682939784],[121.43580609567493,31.239950217928367],[121.43571204097805,31.239900142777515],[121.43564890317452,31.239874887116514],[121.4355452688992,31.23984179386389],[121.43536201764323,31.23981383394147],[121.43520515699254,31.23974241428118],[121.43507888768067,31.239699067857885],[121.43491398349374,31.239631222103355],[121.43489604291824,31.239622735201237],[121.43452558968443,31.23944749600531],[121.43396814221614,31.239174921385654],[121.43376064793574,31.239071145017476],[121.43350139857091,31.238939205480108],[121.4333347389072,31.238865134618436],[121.43326884827889,31.2387813726624],[121.43315386905601,31.238647986115836],[121.43311738445993,31.238605660423048],[121.43303804177242,31.238516750747635],[121.43288893507645,31.238374473503313],[121.43276507774635,31.238268557647984],[121.43265293768309,31.23817275736701],[121.43261698998231,31.238147847045695],[121.43254892119592,31.23810094020638],[121.43235738538522,31.23798975432385],[121.43214112361409,31.237863412166917],[121.43172372127287,31.23762301529007],[121.43156334787034,31.237511236754358],[121.43140912223339,31.237430145784742],[121.43124521629386,31.237344290206977],[121.43105594497604,31.237260387057404],[121.43100894550662,31.23724374060629],[121.43087337450686,31.23719572580228],[121.43074555116641,31.23715621588684],[121.43065146589265,31.237129765926113],[121.43053487418524,31.237101212451137],[121.43039764933224,31.237076253566386],[121.42995660561303,31.236998169030414],[121.42985087501802,31.23698471607196],[121.4296067351629,31.236953650790497],[121.4292407254793,31.23690707939835],[121.4292335048226,31.23690622504239],[121.4290088496789,31.23687965816987],[121.42885879689618,31.23686454866015],[121.42872219347464,31.236852584079656],[121.42853673258435,31.236844607093133],[121.42837719645058,31.23684660089009],[121.42822141228851,31.23686230035503],[121.42792908046283,31.236883152036],[121.42753754442231,31.236917954899866],[121.42750857995713,31.236920779670413],[121.42744881461124,31.236926431010147],[121.42670276042418,31.23699937412198],[121.42648280693618,31.237028897066125],[121.42639819961744,31.237002852699675],[121.42571625297748,31.236074240577814],[121.42488241023125,31.237328875049442],[121.4236197451339,31.239753911837933],[121.42263984931566,31.242273631908752],[121.4219521865427,31.244863757739896],[121.42159943927065,31.247255064362815],[121.42206816451437,31.247469793096627]]]}},{"id":"25","type":"Feature","properties":{"省":"上海市","市":"上海市","县":"闸北区","乡":"天目西路街道","Shape_Leng":0.0636991562467,"Shape_Area":0.000183917845436,"__source_file__":"19-其它/13-历史版本数据/2021.08/上海市_乡镇.shp"},"geometry":{"type":"Polygon","coordinates":[[[121.44475933587478,31.25484818279756],[121.44481740779736,31.25503702693743],[121.444945815697,31.255450452476566],[121.44532570461774,31.25584464511445],[121.44532132671804,31.256396095003936],[121.44549157287793,31.257018220814416],[121.4457982201119,31.257487850384166],[121.44646387221007,31.25812090475614],[121.44643392118871,31.258156112314907],[121.44515034850997,31.260061499638653],[121.44514710105807,31.2600660816845],[121.44733398427616,31.26052876129347],[121.44817040414102,31.26070527932535],[121.44909454387823,31.26089963181272],[121.44910031752579,31.260900722690337],[121.4502280269021,31.261134024815533],[121.4502013629027,31.26066356427225],[121.45009745343486,31.260381054841957],[121.45033607325138,31.259502174386],[121.45060063760957,31.259097353560207],[121.45127267399494,31.258491957837748],[121.45132320240407,31.258461656980046],[121.45223277492278,31.25744026185879],[121.45236849071341,31.25729823192802],[121.4538253213816,31.25576743741749],[121.45480601588508,31.255654072477626],[121.45480457337248,31.25563697636551],[121.45469818986976,31.254520691976495],[121.45458271601967,31.254182906615995],[121.4544026699474,31.253414340599477],[121.45434602255102,31.25317312264167],[121.45440887257155,31.252652389995944],[121.45473450449401,31.25198604901709],[121.4549529111481,31.251630557804162],[121.45510780947802,31.25106586000163],[121.45498547739805,31.25070116152955],[121.45503384743427,31.25068390623744],[121.45698674594178,31.249980300050993],[121.45842462069982,31.249475778584497],[121.45792701052335,31.24709932637296],[121.45780396618022,31.24646815518139],[121.45784702032392,31.245361389216896],[121.45793336693157,31.24456688495394],[121.4584193830483,31.24327133150689],[121.45787031546286,31.24314861721507],[121.45705233979379,31.24287263776216],[121.4563611010841,31.24247408071443],[121.45581644737138,31.241907822588132],[121.45476399865981,31.240708397674553],[121.45419373944969,31.240289557317396],[121.45418543870721,31.24028495098986],[121.45337732860105,31.239990651447556],[121.45278361327325,31.239899868484315],[121.45193869391574,31.24010390487149],[121.45088552934385,31.240760299348494],[121.45024634249489,31.24139481781674],[121.4497121946622,31.241944371935404],[121.44851870977084,31.243149685609694],[121.44818598489542,31.243361872552555],[121.44539062487763,31.24516493051732],[121.44460463359712,31.24566225201147],[121.44372569288657,31.24645050148962],[121.44360731872291,31.246908273498207],[121.44360912096431,31.24692887786557],[121.44368089225952,31.2471904303942],[121.44390383779205,31.24737030199799],[121.44491936753491,31.24841308299756],[121.44577256605123,31.249602324887576],[121.44609072370815,31.250531312869953],[121.44615662243041,31.25202900423534],[121.44605409791848,31.252638561120875],[121.44657043198004,31.25263846309474],[121.44665192404727,31.253262313804896],[121.44678932696604,31.254092551730025],[121.44475933587478,31.25484818279756]]]}},{"id":"53","type":"Feature","properties":{"省":"上海市","市":"上海市","县":"黄浦区","乡":"瑞金二路街道","Shape_Leng":0.0567908520526,"Shape_Area":0.000183577619017,"__source_file__":"19-其它/13-历史版本数据/2021.08/上海市_乡镇.shp"},"geometry":{"type":"Polygon","coordinates":[[[121.45372094696427,31.220285356084503],[121.4536661197958,31.220428160331494],[121.45362305575964,31.220580631391215],[121.4535635737002,31.220756563964414],[121.45348888950082,31.220970053125598],[121.45341526470293,31.22118897509131],[121.45329635814062,31.22154254625167],[121.45310497161734,31.222084118887153],[121.45303937686595,31.222252631154163],[121.45275732249263,31.222967301699782],[121.45258571385978,31.223195090980823],[121.45236755092196,31.223628664031764],[121.45231145840728,31.223811290258993],[121.45228797620928,31.224016372557685],[121.45227162473589,31.22415668118606],[121.45225064445185,31.224389021036643],[121.45223519319973,31.224783956514557],[121.45223874911915,31.225086259123714],[121.4522404839114,31.22519314804549],[121.452244657665,31.22541645330682],[121.45223724365405,31.2255111123481],[121.45222910478958,31.225615050594286],[121.45221779761346,31.225648587212675],[121.45219693603997,31.225665998986813],[121.45220334191083,31.22569145789464],[121.45218475022625,31.22574659712791],[121.45217627771319,31.225761539363702],[121.45217013894091,31.22578993096073],[121.45628746009834,31.22584450092313],[121.45630623074817,31.225844813887193],[121.45870969319799,31.225870380713673],[121.45876276039326,31.22587104441334],[121.46181453061627,31.225709358899962],[121.46293402828292,31.225785589933196],[121.46383643680224,31.225977354171732],[121.46465533247783,31.22626186369422],[121.46518436406734,31.225771121640093],[121.46521289236125,31.22574510515267],[121.46595824687574,31.22504504769097],[121.46638004600254,31.224625027423258],[121.46639557549554,31.224604197326016],[121.4668802381326,31.2239001657602],[121.4668834891819,31.223893428039446],[121.46718291036325,31.22317291369916],[121.46718941515951,31.223119585700488],[121.46727905328589,31.222158347130176],[121.46712243005629,31.221018630005915],[121.4670978893563,31.22083874131505],[121.46677010805422,31.219633279252605],[121.46672939950183,31.21947793822356],[121.4641492265292,31.21924943018647],[121.46108370414828,31.219235403806874],[121.45999741410716,31.2192759025309],[121.45658308634171,31.21956389996637],[121.45382889720665,31.22006050889398],[121.45372094696427,31.220285356084503]]]}},{"id":"1","type":"Feature","properties":{"省":"上海市","市":"上海市","县":"黄浦区","乡":"小东门街道","Shape_Leng":0.0708263932528,"Shape_Area":0.000248711689068,"__source_file__":"19-其它/13-历史版本数据/2021.08/上海市_乡镇.shp"},"geometry":{"type":"Polygon","coordinates":[[[121.49007800119898,31.231224083524808],[121.48961049043191,31.231326060349545],[121.48979871134168,31.231420713994908],[121.49080448883626,31.231926116797013],[121.49094810746315,31.23200585397374],[121.49016159135398,31.231177189667946],[121.49007800119898,31.231224083524808]]]}},{"id":"173","type":"Feature","properties":{"省":"上海市","市":"上海市","县":"黄浦区","乡":"淮海中路街道","Shape_Leng":0.0487176650123,"Shape_Area":0.00013314261022,"__source_file__":"19-其它/13-历史版本数据/2021.08/上海市_乡镇.shp"},"geometry":{"type":"Polygon","coordinates":[[[121.46677010805422,31.219633279252605],[121.4670978893563,31.22083874131505],[121.46712243005629,31.221018630005915],[121.46727905328589,31.222158347130176],[121.46718941515951,31.223119585700488],[121.46718291036325,31.22317291369916],[121.4668834891819,31.223893428039446],[121.4668802381326,31.2239001657602],[121.46639557549554,31.224604197326016],[121.46638004600254,31.224625027423258],[121.46595824687574,31.22504504769097],[121.46647891836756,31.225434632202678],[121.46731956144879,31.225600330491034],[121.46824075410768,31.225794683877723],[121.46875461053708,31.22607660065478],[121.46934541475923,31.22615218327678],[121.46936527628668,31.22615520409954],[121.46937394395252,31.226156575565653],[121.47049562517316,31.226387310126427],[121.47149597615851,31.226821323845172],[121.4724512090562,31.227250471332354],[121.47250538151832,31.22727688532018],[121.47343173988304,31.227789096889467],[121.4739864893852,31.228004258789667],[121.4746571812841,31.228291621861047],[121.47534413922085,31.22856626402205],[121.47588709321496,31.22765918622264],[121.4761067760071,31.22678378164636],[121.47664254441804,31.225543398908883],[121.47679181748856,31.2244229380683],[121.47680123968564,31.224067810181452],[121.47689770546492,31.223782552423017],[121.4771411960096,31.223348285095426],[121.47724308919737,31.2229755143087],[121.47734534301333,31.222604904592856],[121.47741235286072,31.222495784985025],[121.47596394886362,31.221828412381864],[121.47313411878733,31.220815121884005],[121.47020309954797,31.220043046248612],[121.4671986510073,31.21951949657703],[121.46672939950183,31.21947793822356],[121.46677010805422,31.219633279252605]]]}},{"id":"47","type":"Feature","properties":{"省":"上海市","市":"上海市","县":"黄浦区","乡":"豫园街道","Shape_Leng":0.0458844754365,"Shape_Area":0.000113285425847,"__source_file__":"19-其它/13-历史版本数据/2021.08/上海市_乡镇.shp"},"geometry":{"type":"Polygon","coordinates":[[[121.47734534301333,31.222604904592856],[121.47724308919737,31.2229755143087],[121.4771411960096,31.223348285095426],[121.47689770546492,31.223782552423017],[121.47680123968564,31.224067810181452],[121.47679181748856,31.2244229380683],[121.47664254441804,31.225543398908883],[121.4761067760071,31.22678378164636],[121.47588709321496,31.22765918622264],[121.47722819192768,31.2281853930416],[121.4772368604929,31.228190094697254],[121.47803763932575,31.228504942848986],[121.47804558573534,31.22850820379074],[121.4786748053981,31.228746924331233],[121.47931812193394,31.228971118122786],[121.47945429637889,31.229059572741278],[121.47979344960822,31.229504748845272],[121.4800863839796,31.229762591670408],[121.48060581170898,31.230041681878276],[121.48117654306316,31.23028736946668],[121.48147925396461,31.230363621184324],[121.48163024923679,31.230399856668214],[121.48164686601024,31.230404222876757],[121.48188997344369,31.23050090539266],[121.48231368362974,31.23083344051105],[121.48262434723597,31.23093355933645],[121.48330782119922,31.231044022164042],[121.48472355554782,31.231358304642185],[121.4855374734758,31.231433094062197],[121.48613897783173,31.231468226977256],[121.48623543641645,31.23147390619596],[121.48685140277018,31.23145187280585],[121.48778421467,31.231402528803812],[121.48804433547787,31.231388902276194],[121.48961049043191,31.231326060349545],[121.49007800119898,31.231224083524808],[121.49016159135398,31.231177189667946],[121.48950660518585,31.230487103791795],[121.48729817297192,31.228582354451937],[121.48488076764959,31.226875284429966],[121.48121403475672,31.224538060522995],[121.478665785768,31.223073321904213],[121.47741235286072,31.222495784985025],[121.47734534301333,31.222604904592856]]]}},{"id":"52","type":"Feature","properties":{"省":"上海市","市":"上海市","县":"黄浦区","乡":"南京东路街道","Shape_Leng":0.0695484962842,"Shape_Area":0.000226848923774,"__source_file__":"19-其它/13-历史版本数据/2021.08/上海市_乡镇.shp"},"geometry":{"type":"Polygon","coordinates":[[[121.46934541475923,31.22615218327678],[121.46875461053708,31.22607660065478],[121.46824075410768,31.225794683877723],[121.46731956144879,31.225600330491034],[121.46647891836756,31.225434632202678],[121.46595824687574,31.22504504769097],[121.46521289236125,31.22574510515267],[121.46518436406734,31.225771121640093],[121.46465533247783,31.22626186369422],[121.46383643680224,31.225977354171732],[121.46293402828292,31.225785589933196],[121.462931582127,31.225928972444308],[121.46293079971679,31.22599093933053],[121.46293052182625,31.226012881889176],[121.46292968905414,31.22607883367141],[121.46292968905414,31.226129292832752],[121.46293284297644,31.22617344504863],[121.46295415241241,31.226404452103964],[121.4630533943988,31.227369732227544],[121.46307479106895,31.227577843442873],[121.46310097123296,31.227548673033027],[121.46335069497877,31.22760416659918],[121.4633593752352,31.22763020826767],[121.46294222560346,31.22842758676387],[121.46267206296545,31.229474848185873],[121.46255457463405,31.231159212727675],[121.46242084004996,31.232819070743687],[121.46241542073528,31.232864847135147],[121.46205781161893,31.23480726404415],[121.46204444589466,31.23487991847361],[121.46166448053157,31.236549803031153],[121.4612925326245,31.237409543216017],[121.46054797400996,31.238626523795176],[121.4605425573933,31.23863460690177],[121.45976297827895,31.240099451428705],[121.45968498277591,31.240280355454217],[121.45966439999222,31.240328524941617],[121.45947699476767,31.240767624326566],[121.4584193830483,31.24327133150689],[121.45925042047065,31.243281996567077],[121.4600327551077,31.243182187108403],[121.46141626944541,31.242741905114997],[121.46165745322901,31.242652977453133],[121.4629367217525,31.241967096004828],[121.46294719255911,31.24196118476101],[121.46397808811844,31.24139077986075],[121.46492918863134,31.241171676232057],[121.4657885780806,31.24122071356527],[121.46622043792308,31.24136412575399],[121.46768900024733,31.24210331091922],[121.46875822401296,31.24277736448397],[121.46961335067579,31.243191530165177],[121.47032767048574,31.243375584515775],[121.4712363185015,31.24342064144963],[121.47201028584618,31.24333428405015],[121.4720164264171,31.243332951254843],[121.47275322298299,31.243091956328897],[121.47436991893676,31.24226638858312],[121.47428182584576,31.241856472198606],[121.4745498912647,31.24107653965075],[121.47455458752438,31.24106521718619],[121.47495956573152,31.240047630693766],[121.47496281768008,31.240038913565172],[121.47510696461495,31.239662470846497],[121.47512791791928,31.23960855289255],[121.47535985397428,31.239019419610713],[121.47536274439528,31.239011600904803],[121.47560696878679,31.238339830718758],[121.47582373327884,31.237789701034046],[121.47618570680515,31.237168186762574],[121.47619690606257,31.237148697554517],[121.47664629369172,31.236536335683525],[121.47581519871267,31.23622870908781],[121.4763989783304,31.235277033008856],[121.47642534555348,31.23528061500855],[121.47726186973966,31.23558421803739],[121.47792949674908,31.234316048946653],[121.47796381847559,31.234250474879673],[121.47818997548711,31.233820297668785],[121.47862856585584,31.232983117876756],[121.47771906258481,31.232548130192242],[121.47719027291294,31.232295306483365],[121.4770598829075,31.23222846347295],[121.47704435161575,31.232220323709157],[121.47620314645826,31.231789871305693],[121.47563067491592,31.231496550225756],[121.47560719811383,31.23148425109747],[121.47494624677199,31.231145984599664],[121.47491735335336,31.23113124201336],[121.47387466138673,31.230596912517683],[121.47423046286576,31.230154569278113],[121.47469319103811,31.229561211880593],[121.47502264867649,31.22892926007745],[121.4753195760378,31.22859876192348],[121.47534413922085,31.22856626402205],[121.4746571812841,31.228291621861047],[121.4739864893852,31.228004258789667],[121.47343173988304,31.227789096889467],[121.47250538151832,31.22727688532018],[121.4724512090562,31.227250471332354],[121.47149597615851,31.226821323845172],[121.47049562517316,31.226387310126427],[121.46937394395252,31.226156575565653],[121.46936527628668,31.22615520409954],[121.46934541475923,31.22615218327678]]]}},{"id":"46","type":"Feature","properties":{"省":"上海市","市":"上海市","县":"黄浦区","乡":"外滩街道","Shape_Leng":0.0709304946082,"Shape_Area":0.000207115841503,"__source_file__":"19-其它/13-历史版本数据/2021.08/上海市_乡镇.shp"},"geometry":{"type":"Polygon","coordinates":[[[121.4763989783304,31.235277033008856],[121.47581519871267,31.23622870908781],[121.47664629369172,31.236536335683525],[121.47619690606257,31.237148697554517],[121.47618570680515,31.237168186762574],[121.47582373327884,31.237789701034046],[121.47560696878679,31.238339830718758],[121.47536274439528,31.239011600904803],[121.47535985397428,31.239019419610713],[121.47512791791928,31.23960855289255],[121.47510696461495,31.239662470846497],[121.47496281768008,31.240038913565172],[121.47495956573152,31.240047630693766],[121.47455458752438,31.24106521718619],[121.4745498912647,31.24107653965075],[121.47428182584576,31.241856472198606],[121.47436991893676,31.24226638858312],[121.47487848195658,31.242111073867136],[121.47545639169925,31.242058150563366],[121.47634672861875,31.2422194835425],[121.47644677729716,31.242263750871587],[121.47646014212205,31.242263788643072],[121.47688309148168,31.24248995374853],[121.47732264952083,31.242849669077145],[121.47849144442478,31.243926975050044],[121.47850553050603,31.243939968454924],[121.47911846884244,31.244557471750113],[121.47992791713989,31.245249305811],[121.47994308780346,31.245259964575894],[121.47995067358488,31.24526511319459],[121.4805571466951,31.24565564469242],[121.48125611148055,31.2459716907411],[121.4812673098387,31.24597388148959],[121.48229719096275,31.24620317533646],[121.48328304127949,31.246165896638956],[121.484720880964,31.245679876025633],[121.48573280712355,31.24534493791873],[121.48719706978909,31.244909775765677],[121.49044033085681,31.24434856283608],[121.49003861808797,31.24391133673896],[121.48937574399554,31.242955802568417],[121.48891628216086,31.241915681763487],[121.4887418433616,31.241222389901566],[121.48863607049839,31.24026706976963],[121.48865526562815,31.239710458670913],[121.48886201257199,31.2386121283472],[121.48907015976022,31.238031158211527],[121.48957820566989,31.237064162181525],[121.48991821505376,31.236589826459465],[121.49053281533736,31.235976420475595],[121.49174973746062,31.234811383838462],[121.49269586832523,31.23414330820201],[121.49148426222861,31.232570740453905],[121.49094810746315,31.23200585397374],[121.49080448883626,31.231926116797013],[121.48979871134168,31.231420713994908],[121.48961049043191,31.231326060349545],[121.48804433547787,31.231388902276194],[121.48778421467,31.231402528803812],[121.48685140277018,31.23145187280585],[121.48623543641645,31.23147390619596],[121.48613897783173,31.231468226977256],[121.4855374734758,31.231433094062197],[121.48472355554782,31.231358304642185],[121.48330782119922,31.231044022164042],[121.48262434723597,31.23093355933645],[121.48231368362974,31.23083344051105],[121.48188997344369,31.23050090539266],[121.48164686601024,31.230404222876757],[121.48163024923679,31.230399856668214],[121.48147925396461,31.230363621184324],[121.48117654306316,31.23028736946668],[121.48060581170898,31.230041681878276],[121.4800863839796,31.229762591670408],[121.47979344960822,31.229504748845272],[121.47945429637889,31.229059572741278],[121.47931812193394,31.228971118122786],[121.4786748053981,31.228746924331233],[121.47804558573534,31.22850820379074],[121.47803763932575,31.228504942848986],[121.4772368604929,31.228190094697254],[121.47722819192768,31.2281853930416],[121.47588709321496,31.22765918622264],[121.47534413922085,31.22856626402205],[121.4753195760378,31.22859876192348],[121.47502264867649,31.22892926007745],[121.47469319103811,31.229561211880593],[121.47423046286576,31.230154569278113],[121.47387466138673,31.230596912517683],[121.47491735335336,31.23113124201336],[121.47494624677199,31.231145984599664],[121.47560719811383,31.23148425109747],[121.47563067491592,31.231496550225756],[121.47620314645826,31.231789871305693],[121.47704435161575,31.232220323709157],[121.4770598829075,31.23222846347295],[121.47719027291294,31.232295306483365],[121.47771906258481,31.232548130192242],[121.47862856585584,31.232983117876756],[121.47818997548711,31.233820297668785],[121.47796381847559,31.234250474879673],[121.47792949674908,31.234316048946653],[121.47726186973966,31.23558421803739],[121.47642534555348,31.23528061500855],[121.4763989783304,31.235277033008856]]]}},{"id":"189","type":"Feature","properties":{"省":"上海市","市":"上海市","县":"浦东新区","乡":"陆家嘴街道","Shape_Leng":0.102656381275,"Shape_Area":0.000653015795771,"__source_file__":"19-其它/13-历史版本数据/2021.08/上海市_乡镇.shp"},"geometry":{"type":"Polygon","coordinates":[[[121.49174973746062,31.234811383838462],[121.49053281533736,31.235976420475595],[121.48991821505376,31.236589826459465],[121.48957820566989,31.237064162181525],[121.48907015976022,31.238031158211527],[121.48886201257199,31.2386121283472],[121.48865526562815,31.239710458670913],[121.48863607049839,31.24026706976963],[121.4887418433616,31.241222389901566],[121.48891628216086,31.241915681763487],[121.48937574399554,31.242955802568417],[121.49003861808797,31.24391133673896],[121.49044033085681,31.24434856283608],[121.49233196035186,31.2453603891708],[121.49332403307778,31.245859297968366],[121.49455781838878,31.246407154167002],[121.49563156214708,31.24688409972157],[121.49759151612996,31.24759024137279],[121.49759164003945,31.24758102599288],[121.49731707620205,31.24490262891695],[121.49673453446849,31.24226085852577],[121.49584979036605,31.239681790302594],[121.49467160045832,31.237190878711193],[121.49321161501332,31.234812706127755],[121.49269586832523,31.23414330820201],[121.49174973746062,31.234811383838462]]]}},{"id":"160","type":"Feature","properties":{"省":"上海市","市":"上海市","县":"闸北区","乡":"北站街道","Shape_Leng":0.0621127055464,"Shape_Area":0.00016631729911,"__source_file__":"19-其它/13-历史版本数据/2021.08/上海市_乡镇.shp"},"geometry":{"type":"Polygon","coordinates":[[[121.46622043792308,31.24136412575399],[121.4657885780806,31.24122071356527],[121.46492918863134,31.241171676232057],[121.46397808811844,31.24139077986075],[121.46294719255911,31.24196118476101],[121.4629367217525,31.241967096004828],[121.46165745322901,31.242652977453133],[121.46141626944541,31.242741905114997],[121.4600327551077,31.243182187108403],[121.45925042047065,31.243281996567077],[121.4584193830483,31.24327133150689],[121.45793336693157,31.24456688495394],[121.45784702032392,31.245361389216896],[121.45780396618022,31.24646815518139],[121.45792701052335,31.24709932637296],[121.45842462069982,31.249475778584497],[121.45846000002916,31.249462007266004],[121.45950299147,31.24905827551919],[121.45955569443993,31.24911345522196],[121.46027595697001,31.24884456062813],[121.46080379965576,31.24864754794612],[121.461722661272,31.248457784699156],[121.46311019018333,31.248474215312967],[121.46366911343898,31.248549091967163],[121.46393016324657,31.248601556616734],[121.46387815904995,31.24872179417565],[121.46585899949343,31.24947514186448],[121.4668758035757,31.250149645989552],[121.46758713673717,31.25079406059757],[121.46767849166918,31.250879129268583],[121.46869172634229,31.251721268821655],[121.4694580107788,31.252144109363314],[121.470331926977,31.2526349890137],[121.47065982519098,31.252897553279638],[121.4718959964033,31.2535930988426],[121.47290612661664,31.25416140292657],[121.47353931858481,31.253517835479897],[121.47432483951991,31.254034551753307],[121.47469972281408,31.254350980913216],[121.47533653185565,31.254989078683195],[121.47535143542063,31.254945155794474],[121.4753581380678,31.254931262168157],[121.47537278892321,31.25490094332406],[121.47539411994285,31.25487079445179],[121.47540085226774,31.254861244550966],[121.47541911659914,31.254837300101485],[121.47544290456653,31.25480621503499],[121.47546148366075,31.25478191085665],[121.47552569525476,31.25470995969704],[121.47560406667446,31.254627293115277],[121.47560973150405,31.25462158691687],[121.4756144709313,31.254616865476123],[121.47562383377306,31.25460943078076],[121.47563255449893,31.254604815460027],[121.4756410476964,31.254602902602016],[121.47564897342158,31.25460372278377],[121.47565701785732,31.25460598547801],[121.47566695086925,31.254609705074017],[121.47568286257422,31.254616663128672],[121.47569171550049,31.254619880003645],[121.47570104236934,31.254620983471796],[121.47571008055593,31.254619888097523],[121.47572011699003,31.254625203090825],[121.47582649599622,31.254490927114773],[121.47591932042053,31.2543839374689],[121.47618946327327,31.254075738005042],[121.47624080287096,31.254018357661266],[121.47641135749836,31.25382773915902],[121.47656662365091,31.25364299682701],[121.47661956404181,31.253580006512266],[121.47676745485433,31.253384533469614],[121.47683432664303,31.253290655939168],[121.4768468470046,31.25326607387035],[121.47685200371723,31.25324415829141],[121.47685458207343,31.253219019542257],[121.47685587080196,31.253190658522215],[121.47685490313143,31.25315562543193],[121.47699909593166,31.25296351225643],[121.47716029491187,31.252715529598163],[121.47716594265432,31.252698586370855],[121.47716770712418,31.252684466115397],[121.47716770712418,31.25266540498461],[121.47715480185275,31.252637349734073],[121.47669149091973,31.252454088585466],[121.47618763854882,31.252260933995046],[121.47580494104534,31.252114224891727],[121.47529014212648,31.251912342380876],[121.47507093957233,31.251810380844574],[121.47506944489919,31.25174696155318],[121.47581248365941,31.25097117937662],[121.4764323584667,31.250308902434085],[121.47677410264293,31.24977432022888],[121.4767831354335,31.2497477173834],[121.47712673131377,31.248711796412465],[121.47724234365944,31.248412282600952],[121.47749849845707,31.247744327338978],[121.47766147899426,31.24688359789991],[121.4778613317352,31.245696059325837],[121.47786819626037,31.245676557527247],[121.47850553050603,31.243939968454924],[121.47849144442478,31.243926975050044],[121.47732264952083,31.242849669077145],[121.47688309148168,31.24248995374853],[121.47646014212205,31.242263788643072],[121.47644677729716,31.242263750871587],[121.47634672861875,31.2422194835425],[121.47545639169925,31.242058150563366],[121.47487848195658,31.242111073867136],[121.47436991893676,31.24226638858312],[121.47275322298299,31.243091956328897],[121.4720164264171,31.243332951254843],[121.47201028584618,31.24333428405015],[121.4712363185015,31.24342064144963],[121.47032767048574,31.243375584515775],[121.46961335067579,31.243191530165177],[121.46875822401296,31.24277736448397],[121.46768900024733,31.24210331091922],[121.46622043792308,31.24136412575399]]]}},{"id":"15","type":"Feature","properties":{"省":"上海市","市":"上海市","县":"虹口区","乡":"提篮桥街道","Shape_Leng":0.080497144337,"Shape_Area":0.00032478698925,"__source_file__":"19-其它/13-历史版本数据/2021.08/上海市_乡镇.shp"},"geometry":{"type":"Polygon","coordinates":[[[121.49044033085681,31.24434856283608],[121.48719706978909,31.244909775765677],[121.48573280712355,31.24534493791873],[121.484720880964,31.245679876025633],[121.48480861792359,31.24625551408087],[121.48495809603946,31.247239119689766],[121.48503536219243,31.24774743809394],[121.48520939180014,31.24889547394713],[121.48530182322077,31.249500904743115],[121.4852819086334,31.250024413595952],[121.48528082405096,31.25003934414059],[121.48516768034438,31.250835431210362],[121.48492122833215,31.251665225769727],[121.48475319360523,31.252231125965864],[121.48450385836657,31.252995063171795],[121.48418876290123,31.25391219359301],[121.48494809377974,31.254326060699327],[121.48755309969602,31.255497146176538],[121.48898159632381,31.255463395519428],[121.48899749274028,31.255463172487566],[121.49009940596295,31.255483527742797],[121.49095130226101,31.255714917009982],[121.49119479730223,31.255873431513805],[121.49155389839382,31.256125849628404],[121.49214637175783,31.256655863277615],[121.49248486938143,31.25706466450282],[121.49288804444791,31.257407808024084],[121.49364383919203,31.25783980816078],[121.49367924550097,31.25785295894707],[121.49536066836038,31.25860196830638],[121.49537511956635,31.25860857832339],[121.4955676018963,31.25876050029334],[121.49655543230132,31.255571333216174],[121.49720895509832,31.252941840516893],[121.49755548948157,31.25026961052951],[121.49759151612996,31.24759024137279],[121.49563156214708,31.24688409972157],[121.49455781838878,31.246407154167002],[121.49332403307778,31.245859297968366],[121.49233196035186,31.2453603891708],[121.49044033085681,31.24434856283608]]]}},{"id":"143","type":"Feature","properties":{"省":"上海市","市":"上海市","县":"虹口区","乡":"四川北路街道","Shape_Leng":0.0782577901257,"Shape_Area":0.000216272375469,"__source_file__":"19-其它/13-历史版本数据/2021.08/上海市_乡镇.shp"},"geometry":{"type":"Polygon","coordinates":[[[121.47850553050603,31.243939968454924],[121.47786819626037,31.245676557527247],[121.4778613317352,31.245696059325837],[121.47766147899426,31.24688359789991],[121.47749849845707,31.247744327338978],[121.47724234365944,31.248412282600952],[121.47712673131377,31.248711796412465],[121.4767831354335,31.2497477173834],[121.47677410264293,31.24977432022888],[121.4764323584667,31.250308902434085],[121.47581248365941,31.25097117937662],[121.47506944489919,31.25174696155318],[121.47507093957233,31.251810380844574],[121.47529014212648,31.251912342380876],[121.47580494104534,31.252114224891727],[121.47618763854882,31.252260933995046],[121.47669149091973,31.252454088585466],[121.47715480185275,31.252637349734073],[121.47716770712418,31.25266540498461],[121.47716770712418,31.252684466115397],[121.47716594265432,31.252698586370855],[121.47716029491187,31.252715529598163],[121.47699909593166,31.25296351225643],[121.47685490313143,31.25315562543193],[121.47685587080196,31.253190658522215],[121.47685458207343,31.253219019542257],[121.47685200371723,31.25324415829141],[121.4768468470046,31.25326607387035],[121.47683432664303,31.253290655939168],[121.47676745485433,31.253384533469614],[121.47661956404181,31.253580006512266],[121.47656662365091,31.25364299682701],[121.47641135749836,31.25382773915902],[121.47624080287096,31.254018357661266],[121.47618946327327,31.254075738005042],[121.47591932042053,31.2543839374689],[121.47582649599622,31.254490927114773],[121.47572011699003,31.254625203090825],[121.47571008055593,31.254619888097523],[121.47570104236934,31.254620983471796],[121.47569171550049,31.254619880003645],[121.47568286257422,31.254616663128672],[121.47566695086925,31.254609705074017],[121.47565701785732,31.25460598547801],[121.47564897342158,31.25460372278377],[121.4756410476964,31.254602902602016],[121.47563255449893,31.254604815460027],[121.47562383377306,31.25460943078076],[121.4756144709313,31.254616865476123],[121.47560973150405,31.25462158691687],[121.47560406667446,31.254627293115277],[121.47552569525476,31.25470995969704],[121.47546148366075,31.25478191085665],[121.47544290456653,31.25480621503499],[121.47541911659914,31.254837300101485],[121.47540085226774,31.254861244550966],[121.47539411994285,31.25487079445179],[121.47537278892321,31.25490094332406],[121.4753581380678,31.254931262168157],[121.47535143542063,31.254945155794474],[121.47533653185565,31.254989078683195],[121.47533312162648,31.255002625171187],[121.47533074112096,31.255023256518257],[121.47532534518871,31.255050395359603],[121.47530407892032,31.255073725572117],[121.47528687039289,31.255091219184578],[121.47528105447725,31.255097000926014],[121.47527772248907,31.255100332914196],[121.47527462612322,31.25510343827324],[121.47526738388285,31.255110656231977],[121.47526398534478,31.255113936059445],[121.47525728719427,31.255120403983597],[121.4752356719888,31.255141285342233],[121.47510512640065,31.25532402758199],[121.47538008152571,31.255765232279828],[121.47564985835447,31.25617952566472],[121.47589903351377,31.256753354284058],[121.47604236026689,31.257557730405097],[121.47604233238792,31.257882308322053],[121.47598230174196,31.258707802323386],[121.4759439726364,31.259199512047985],[121.47597662252326,31.26050484382364],[121.47570029053611,31.26193698090708],[121.47564606681271,31.262444122098714],[121.4755752164233,31.2631011829734],[121.4755202696449,31.26362001715023],[121.47542517713043,31.264772699800403],[121.47542517443242,31.26479734841905],[121.475640915496,31.267735907486326],[121.47564307926484,31.267769469285724],[121.47561808080991,31.26864823552779],[121.47537984680264,31.27105945463029],[121.47529493911031,31.2713754368271],[121.4752570012098,31.27151684262833],[121.47556799666586,31.271423600019318],[121.47720539861041,31.270547960719966],[121.47787185200457,31.270329958760726],[121.47952084531096,31.270051498977637],[121.47964150105463,31.26998895742463],[121.48049798209638,31.26994695099114],[121.48047885081849,31.269774979032206],[121.48047524363778,31.269719372151485],[121.48201122543787,31.269772616513194],[121.4836071902198,31.270152720371925],[121.483682365449,31.26975620568453],[121.48393132477099,31.26911594954163],[121.48456036726736,31.268035086750047],[121.48534479552609,31.2665373522172],[121.48555687275166,31.266359307136497],[121.48631013140766,31.266156217735443],[121.48630218499807,31.266138832041634],[121.48564842013866,31.264647248871597],[121.48528289249168,31.263812329975224],[121.48508640321506,31.26336491995528],[121.48482273458171,31.26276141190982],[121.48459121221481,31.262230327168027],[121.48457640397805,31.262195648410625],[121.48427264446718,31.261500626253053],[121.48417803219058,31.261077085139505],[121.48413982539284,31.26006662217702],[121.48413766252327,31.26001021040304],[121.48412829158758,31.25976045158376],[121.4839227812115,31.259241680359423],[121.48328456113381,31.25790175526197],[121.48332576986854,31.257597627029043],[121.48381458467554,31.257144290476788],[121.48430737808326,31.25668647080414],[121.48447645242652,31.256620751046967],[121.48455376444485,31.25659065973133],[121.48596886746941,31.256179077802358],[121.48717193014068,31.25579271556154],[121.4873666648399,31.2557018876322],[121.48755309969602,31.255497146176538],[121.48494809377974,31.254326060699327],[121.48418876290123,31.25391219359301],[121.48450385836657,31.252995063171795],[121.48475319360523,31.252231125965864],[121.48492122833215,31.251665225769727],[121.48516768034438,31.250835431210362],[121.48528082405096,31.25003934414059],[121.4852819086334,31.250024413595952],[121.48530182322077,31.249500904743115],[121.48520939180014,31.24889547394713],[121.48503536219243,31.24774743809394],[121.48495809603946,31.247239119689766],[121.48480861792359,31.24625551408087],[121.484720880964,31.245679876025633],[121.48328304127949,31.246165896638956],[121.48229719096275,31.24620317533646],[121.4812673098387,31.24597388148959],[121.48125611148055,31.2459716907411],[121.4805571466951,31.24565564469242],[121.47995067358488,31.24526511319459],[121.47994308780346,31.245259964575894],[121.47992791713989,31.245249305811],[121.47911846884244,31.244557471750113],[121.47850553050603,31.243939968454924]]]}},{"id":"8","type":"Feature","properties":{"省":"上海市","市":"上海市","县":"闸北区","乡":"宝山路街道","Shape_Leng":0.0517467659378,"Shape_Area":0.000153619327476,"__source_file__":"19-其它/13-历史版本数据/2021.08/上海市_乡镇.shp"},"geometry":{"type":"Polygon","coordinates":[[[121.4668758035757,31.250149645989552],[121.46585899949343,31.24947514186448],[121.46531182318222,31.25087992426927],[121.46490007847603,31.25210603566518],[121.46487804418655,31.25219845989119],[121.46487659897605,31.25220502314346],[121.46469235756638,31.253243062917193],[121.4644484982997,31.254741283083888],[121.46432173166272,31.255067703711745],[121.46431775665928,31.255100259169808],[121.46419959563502,31.256128393810513],[121.46396412974093,31.25665011930772],[121.4639543792913,31.256671236288696],[121.46315698370802,31.25848674087058],[121.46302950300935,31.2587770905904],[121.46293162979111,31.259070482716766],[121.46287886117068,31.25969836958427],[121.46278735155522,31.26156015867457],[121.46270319119947,31.26195227297916],[121.46261541916647,31.262362280195248],[121.46228066182323,31.26305047559913],[121.46153316512368,31.2645213284967],[121.4615454408696,31.264526486108593],[121.46244586368584,31.26489985404521],[121.46252745917502,31.264933698231744],[121.46313329556529,31.265185187346674],[121.46410163248447,31.26576540564912],[121.46542167357154,31.266660232883623],[121.46578490974593,31.26693256648491],[121.46674479213857,31.26804687506342],[121.46778290205941,31.267032591780833],[121.46898734968659,31.265891773886437],[121.46900143486846,31.265878496295727],[121.47065204515593,31.264494177064762],[121.47091173878584,31.264339539538298],[121.47125049721285,31.264139067164365],[121.47137403438433,31.2640781030222],[121.47149670371005,31.263986101477542],[121.47170881870716,31.263822542676394],[121.47200526762913,31.26358998339117],[121.47246527625168,31.263211754618965],[121.47296764294254,31.262790629084407],[121.47323962311032,31.262562632059996],[121.47357454862674,31.262279348313427],[121.4740171409785,31.261884294125025],[121.47411795048322,31.261799095052368],[121.47429942827614,31.261642474520727],[121.47457165845549,31.26140545190026],[121.4749096398682,31.261098372092363],[121.47507580850197,31.260947395705898],[121.47519968561721,31.260852327473117],[121.47530339723414,31.26077166278219],[121.475404226524,31.260708283960298],[121.47541239686484,31.26070419923957],[121.47552522311071,31.260647785666947],[121.47568662353899,31.260586146133903],[121.47582504988634,31.260542121621768],[121.47597662252326,31.26050484382364],[121.4759439726364,31.259199512047985],[121.47598230174196,31.258707802323386],[121.47604233238792,31.257882308322053],[121.47604236026689,31.257557730405097],[121.47589903351377,31.256753354284058],[121.47564985835447,31.25617952566472],[121.47538008152571,31.255765232279828],[121.47510512640065,31.25532402758199],[121.4752356719888,31.255141285342233],[121.47525728719427,31.255120403983597],[121.47526398534478,31.255113936059445],[121.47526738388285,31.255110656231977],[121.47527462612322,31.25510343827324],[121.47527772248907,31.255100332914196],[121.47528105447725,31.255097000926014],[121.47528687039289,31.255091219184578],[121.47530407892032,31.255073725572117],[121.47532534518871,31.255050395359603],[121.47533074112096,31.255023256518257],[121.47533312162648,31.255002625171187],[121.47533653185565,31.254989078683195],[121.47469972281408,31.254350980913216],[121.47432483951991,31.254034551753307],[121.47353931858481,31.253517835479897],[121.47290612661664,31.25416140292657],[121.4718959964033,31.2535930988426],[121.47065982519098,31.252897553279638],[121.470331926977,31.2526349890137],[121.4694580107788,31.252144109363314],[121.46869172634229,31.251721268821655],[121.46767849166918,31.250879129268583],[121.46758713673717,31.25079406059757],[121.4668758035757,31.250149645989552]]]}},{"id":"166","type":"Feature","properties":{"省":"上海市","市":"上海市","县":"虹口区","乡":"嘉兴路街道","Shape_Leng":0.0638469317169,"Shape_Area":0.000247386318667,"__source_file__":"19-其它/13-历史版本数据/2021.08/上海市_乡镇.shp"},"geometry":{"type":"Polygon","coordinates":[[[121.49119479730223,31.255873431513805],[121.49095130226101,31.255714917009982],[121.49009940596295,31.255483527742797],[121.48899749274028,31.255463172487566],[121.48898159632381,31.255463395519428],[121.48755309969602,31.255497146176538],[121.4873666648399,31.2557018876322],[121.48717193014068,31.25579271556154],[121.48596886746941,31.256179077802358],[121.48455376444485,31.25659065973133],[121.48447645242652,31.256620751046967],[121.48430737808326,31.25668647080414],[121.48381458467554,31.257144290476788],[121.48332576986854,31.257597627029043],[121.48328456113381,31.25790175526197],[121.4839227812115,31.259241680359423],[121.48412829158758,31.25976045158376],[121.48413766252327,31.26001021040304],[121.48413982539284,31.26006662217702],[121.48417803219058,31.261077085139505],[121.48427264446718,31.261500626253053],[121.48457640397805,31.262195648410625],[121.48459121221481,31.262230327168027],[121.48482273458171,31.26276141190982],[121.48508640321506,31.26336491995528],[121.48528289249168,31.263812329975224],[121.48564842013866,31.264647248871597],[121.48630218499807,31.266138832041634],[121.48631013140766,31.266156217735443],[121.4863263857543,31.266193689787144],[121.48683460073642,31.267268421001006],[121.48701375917778,31.26764714529969],[121.48774453568194,31.268597850110837],[121.48870654766927,31.269427974721395],[121.4887701288385,31.26948096997097],[121.48903325484402,31.269712216134465],[121.49008476988105,31.268632765764472],[121.49180925140566,31.266466168495256],[121.49328120783882,31.264166249029824],[121.49448680641774,31.26175464946417],[121.4954147235775,31.259254061231182],[121.4955676018963,31.25876050029334],[121.49537511956635,31.25860857832339],[121.49536066836038,31.25860196830638],[121.49367924550097,31.25785295894707],[121.49364383919203,31.25783980816078],[121.49288804444791,31.257407808024084],[121.49248486938143,31.25706466450282],[121.49214637175783,31.256655863277615],[121.49155389839382,31.256125849628404],[121.49119479730223,31.255873431513805]]]}},{"id":"20","type":"Feature","properties":{"省":"上海市","市":"上海市","县":"虹口区","乡":"欧阳路街道","Shape_Leng":0.0571840601357,"Shape_Area":0.000158144215675,"__source_file__":"19-其它/13-历史版本数据/2021.08/上海市_乡镇.shp"},"geometry":{"type":"Polygon","coordinates":[[[121.4887701288385,31.26948096997097],[121.48870654766927,31.269427974721395],[121.48774453568194,31.268597850110837],[121.48701375917778,31.26764714529969],[121.48683460073642,31.267268421001006],[121.4863263857543,31.266193689787144],[121.48631013140766,31.266156217735443],[121.48555687275166,31.266359307136497],[121.48534479552609,31.2665373522172],[121.48456036726736,31.268035086750047],[121.48393132477099,31.26911594954163],[121.483682365449,31.26975620568453],[121.4836071902198,31.270152720371925],[121.48201122543787,31.269772616513194],[121.48047524363778,31.269719372151485],[121.48047885081849,31.269774979032206],[121.48049798209638,31.26994695099114],[121.47964150105463,31.26998895742463],[121.47952084531096,31.270051498977637],[121.47787185200457,31.270329958760726],[121.47720539861041,31.270547960719966],[121.47556799666586,31.271423600019318],[121.4752570012098,31.27151684262833],[121.47522014789172,31.271658790720778],[121.47478367362783,31.273477882698273],[121.47477242400839,31.27408743598653],[121.47496301553088,31.275430917003405],[121.47509624829343,31.275969528171345],[121.47549854562158,31.276796311800524],[121.47564444173781,31.27709557020455],[121.47566249832585,31.277133314750813],[121.47670168923173,31.276914079821097],[121.47784636521772,31.27686770897776],[121.4780626233349,31.276895733582126],[121.47831610058658,31.276806539804294],[121.48101819033857,31.275580892975483],[121.48356926145082,31.274136141448007],[121.48594530819267,31.27248588371089],[121.48812397558218,31.27064565198753],[121.48903325484402,31.269712216134465],[121.4887701288385,31.26948096997097]]]}},{"id":"150","type":"Feature","properties":{"省":"上海市","市":"上海市","县":"虹口区","乡":"广中路街道","Shape_Leng":0.091636295246,"Shape_Area":0.000274748871211,"__source_file__":"19-其它/13-历史版本数据/2021.08/上海市_乡镇.shp"},"geometry":{"type":"Polygon","coordinates":[[[121.47597662252326,31.26050484382364],[121.47582504988634,31.260542121621768],[121.47568662353899,31.260586146133903],[121.47552522311071,31.260647785666947],[121.47541239686484,31.26070419923957],[121.475404226524,31.260708283960298],[121.47530339723414,31.26077166278219],[121.47519968561721,31.260852327473117],[121.47507580850197,31.260947395705898],[121.4749096398682,31.261098372092363],[121.47457165845549,31.26140545190026],[121.47429942827614,31.261642474520727],[121.47411795048322,31.261799095052368],[121.4740171409785,31.261884294125025],[121.47357454862674,31.262279348313427],[121.47323962311032,31.262562632059996],[121.47296764294254,31.262790629084407],[121.47246527625168,31.263211754618965],[121.47200526762913,31.26358998339117],[121.47170881870716,31.263822542676394],[121.47149670371005,31.263986101477542],[121.47137403438433,31.2640781030222],[121.47125049721285,31.264139067164365],[121.47091173878584,31.264339539538298],[121.47065204515593,31.264494177064762],[121.46900143486846,31.265878496295727],[121.46898734968659,31.265891773886437],[121.46778290205941,31.267032591780833],[121.46674479213857,31.26804687506342],[121.46621527761317,31.268504774775693],[121.46587774855948,31.26880777076218],[121.46564499232272,31.26903157424789],[121.46504818242784,31.269702986503773],[121.46442153122882,31.270562393040166],[121.46434095736947,31.270660893985223],[121.46377091219802,31.27143460052656],[121.46374612508373,31.271468244164282],[121.46373252373712,31.27148673422556],[121.46372606480622,31.271495475635845],[121.46372183079802,31.271501572139982],[121.46367402643534,31.271570420638568],[121.46366547388266,31.271582807001096],[121.46365266034218,31.271601193640322],[121.46362894521985,31.27163526805333],[121.4635683057329,31.271722548157243],[121.46328434299824,31.27213996039103],[121.46327313294887,31.272156448561418],[121.46326983153767,31.27216164664287],[121.46326600851967,31.27216760645007],[121.46325819970627,31.272179862410894],[121.46324565776104,31.27219894782337],[121.46318100370058,31.27228937195713],[121.46306190828057,31.27244730729757],[121.46264216770203,31.273002980403362],[121.46234235351699,31.273399888993822],[121.46226794990616,31.27349831439585],[121.46225571462969,31.27351360376997],[121.46220020667442,31.273581767884423],[121.46206148624879,31.273752343196236],[121.46198974912784,31.27384052082357],[121.4619830365881,31.27384877570063],[121.4615093106064,31.27443106334306],[121.4612898607387,31.27473747675333],[121.46049139766001,31.275755338438273],[121.46042887948943,31.275855611947122],[121.46030408866295,31.276022000015473],[121.46025067702726,31.276081637657626],[121.46015354754832,31.276186406877343],[121.4600541355901,31.27628043819186],[121.4598762344009,31.276434007323758],[121.45972882652427,31.276571861702223],[121.45958819324073,31.27667343023478],[121.45952550779612,31.276718703005884],[121.45927147359976,31.276845847358118],[121.45876638016443,31.277003609129395],[121.45868717687188,31.277031562756576],[121.45861146834477,31.277058351761696],[121.45852178255439,31.27709329491978],[121.45842394351041,31.27713755505431],[121.45838084799789,31.277163179437366],[121.45833658696404,31.277195792452005],[121.4582986589561,31.277233470448493],[121.45825589619278,31.27728121725454],[121.45818284156508,31.27740496846468],[121.45768468729864,31.278370550760485],[121.45750768812945,31.2787566881708],[121.45742350673929,31.27892273090962],[121.4588075388096,31.278992791860716],[121.4597745209531,31.2789600539246],[121.46042491756738,31.279069480360747],[121.46346656964805,31.279322109661262],[121.46652241816194,31.27932042100063],[121.46956369543403,31.279064429478048],[121.47256177113401,31.278556544172076],[121.47548842248383,31.27780154543424],[121.47591890626485,31.277650066457444],[121.47566249832585,31.277133314750813],[121.47564444173781,31.27709557020455],[121.47549854562158,31.276796311800524],[121.47509624829343,31.275969528171345],[121.47496301553088,31.275430917003405],[121.47477242400839,31.27408743598653],[121.47478367362783,31.273477882698273],[121.47522014789172,31.271658790720778],[121.4752570012098,31.27151684262833],[121.47529493911031,31.2713754368271],[121.47537984680264,31.27105945463029],[121.47561808080991,31.26864823552779],[121.47564307926484,31.267769469285724],[121.475640915496,31.267735907486326],[121.47542517443242,31.26479734841905],[121.47542517713043,31.264772699800403],[121.4755202696449,31.26362001715023],[121.4755752164233,31.2631011829734],[121.47564606681271,31.262444122098714],[121.47570029053611,31.26193698090708],[121.47597662252326,31.26050484382364]]]}},{"id":"19","type":"Feature","properties":{"省":"上海市","市":"上海市","县":"虹口区","乡":"曲阳路街道","Shape_Leng":0.075865295977,"Shape_Area":0.000288418346771,"__source_file__":"19-其它/13-历史版本数据/2021.08/上海市_乡镇.shp"},"geometry":{"type":"Polygon","coordinates":[[[121.47784636521772,31.27686770897776],[121.47670168923173,31.276914079821097],[121.47566249832585,31.277133314750813],[121.47591890626485,31.277650066457444],[121.4780626233349,31.276895733582126],[121.47784636521772,31.27686770897776]]]}},{"id":"61","type":"Feature","properties":{"省":"上海市","市":"上海市","县":"普陀区","乡":"石泉路街道","Shape_Leng":0.07728460581,"Shape_Area":0.000331881761794,"__source_file__":"19-其它/13-历史版本数据/2021.08/上海市_乡镇.shp"},"geometry":{"type":"Polygon","coordinates":[[[121.42619573524519,31.25976681248858],[121.42610324356997,31.258087504834634],[121.42608560876397,31.257762908031964],[121.42612641100527,31.256967158207942],[121.42667444706831,31.25549455253173],[121.4266996865415,31.25542818885998],[121.4271648060112,31.25421450339678],[121.4272123999325,31.254090590308635],[121.42723691904871,31.254025036026746],[121.42762775811468,31.253188123333416],[121.4282641246898,31.252120841204032],[121.42739863963573,31.251447943268147],[121.42679416212104,31.250923976660374],[121.42596769325462,31.25002312846476],[121.42595003326755,31.250002239012304],[121.4252201893604,31.249214600173843],[121.42456460067592,31.248679757165235],[121.42376846774073,31.248188247989447],[121.42297884409857,31.247831984258823],[121.42206816451437,31.247469793096627],[121.42159943927065,31.247255064362815],[121.42156340684444,31.24749933153729],[121.42147728155989,31.250154955564412],[121.42169466605459,31.252805036785787],[121.42221349050395,31.25542403347189],[121.4230287788687,31.2579867013908],[121.42400125939164,31.260172864296234],[121.42619573524519,31.25976681248858]]]}},{"id":"133","type":"Feature","properties":{"省":"上海市","市":"上海市","县":"闸北区","乡":"芷江西路街道","Shape_Leng":0.0522575104747,"Shape_Area":0.000149400835514,"__source_file__":"19-其它/13-历史版本数据/2021.08/上海市_乡镇.shp"},"geometry":{"type":"Polygon","coordinates":[[[121.45955569443993,31.24911345522196],[121.45950299147,31.24905827551919],[121.45846000002916,31.249462007266004],[121.45842462069982,31.249475778584497],[121.45698674594178,31.249980300050993],[121.45503384743427,31.25068390623744],[121.45498547739805,31.25070116152955],[121.45510780947802,31.25106586000163],[121.4549529111481,31.251630557804162],[121.45473450449401,31.25198604901709],[121.45440887257155,31.252652389995944],[121.45434602255102,31.25317312264167],[121.4544026699474,31.253414340599477],[121.45458271601967,31.254182906615995],[121.45469818986976,31.254520691976495],[121.45480457337248,31.25563697636551],[121.45480601588508,31.255654072477626],[121.4538253213816,31.25576743741749],[121.45236849071341,31.25729823192802],[121.45223277492278,31.25744026185879],[121.45132320240407,31.258461656980046],[121.45127267399494,31.258491957837748],[121.45060063760957,31.259097353560207],[121.45033607325138,31.259502174386],[121.45009745343486,31.260381054841957],[121.4502013629027,31.26066356427225],[121.4502280269021,31.261134024815533],[121.45028829317039,31.26114773228221],[121.45416334056586,31.262005968800565],[121.45425826670578,31.262025967024897],[121.45484154719986,31.26214977399303],[121.4567993712941,31.262758872224367],[121.45895697078777,31.263498644646916],[121.46028763826405,31.264018068779023],[121.46153316512368,31.2645213284967],[121.46228066182323,31.26305047559913],[121.46261541916647,31.262362280195248],[121.46270319119947,31.26195227297916],[121.46278735155522,31.26156015867457],[121.46287886117068,31.25969836958427],[121.46293162979111,31.259070482716766],[121.46302950300935,31.2587770905904],[121.46315698370802,31.25848674087058],[121.4639543792913,31.256671236288696],[121.46396412974093,31.25665011930772],[121.46419959563502,31.256128393810513],[121.46431775665928,31.255100259169808],[121.46432173166272,31.255067703711745],[121.4644484982997,31.254741283083888],[121.46469235756638,31.253243062917193],[121.46487659897605,31.25220502314346],[121.46487804418655,31.25219845989119],[121.46490007847603,31.25210603566518],[121.46531182318222,31.25087992426927],[121.46585899949343,31.24947514186448],[121.46387815904995,31.24872179417565],[121.46393016324657,31.248601556616734],[121.46366911343898,31.248549091967163],[121.46311019018333,31.248474215312967],[121.461722661272,31.248457784699156],[121.46080379965576,31.24864754794612],[121.46027595697001,31.24884456062813],[121.45955569443993,31.24911345522196]]]}},{"id":"131","type":"Feature","properties":{"省":"上海市","市":"上海市","县":"普陀区","乡":"宜川路街道","Shape_Leng":0.0718335287248,"Shape_Area":0.000210228745991,"__source_file__":"19-其它/13-历史版本数据/2021.08/上海市_乡镇.shp"},"geometry":{"type":"Polygon","coordinates":[[[121.43434526392298,31.25239684853591],[121.4335744478027,31.250554911979748],[121.43327916710007,31.249999451113922],[121.43303254331738,31.249765666952158],[121.4328198005935,31.249723096643777],[121.43247903757765,31.24985928727648],[121.43088200530053,31.250915764051456],[121.43029176765117,31.25121818716974],[121.42963631206635,31.251300053354953],[121.42926354847418,31.25109872212846],[121.42873285044084,31.251333966789275],[121.42865857453376,31.251458294464896],[121.42827854711743,31.252096478569797],[121.4282641246898,31.252120841204032],[121.42762775811468,31.253188123333416],[121.42723691904871,31.254025036026746],[121.4272123999325,31.254090590308635],[121.4271648060112,31.25421450339678],[121.4266996865415,31.25542818885998],[121.42667444706831,31.25549455253173],[121.42612641100527,31.256967158207942],[121.42608560876397,31.257762908031964],[121.42610324356997,31.258087504834634],[121.42619573524519,31.25976681248858],[121.42850575723503,31.259294038888925],[121.43164751002473,31.25870247024295],[121.4316424495396,31.258849190138164],[121.43159402464471,31.260095625313],[121.43094785366065,31.260698881548308],[121.43040333394686,31.26179742860859],[121.43036907517285,31.261876011368997],[121.43139047119348,31.26235833127214],[121.43364542049994,31.263715001746107],[121.43365912257059,31.263723117228267],[121.43696377226047,31.265691886971183],[121.43737166157314,31.265940357061993],[121.43960960290099,31.26737394744987],[121.44116015641623,31.26534592227665],[121.44140043458253,31.26502849846662],[121.4427342784644,31.2632737781625],[121.4436796008331,31.26203138813821],[121.44416995797735,31.261391032170536],[121.44514710105807,31.2600660816845],[121.44515034850997,31.260061499638653],[121.44643392118871,31.258156112314907],[121.44646387221007,31.25812090475614],[121.4457982201119,31.257487850384166],[121.44549157287793,31.257018220814416],[121.44532132671804,31.256396095003936],[121.44532570461774,31.25584464511445],[121.444945815697,31.255450452476566],[121.44481740779736,31.25503702693743],[121.44475933587478,31.25484818279756],[121.44678932696604,31.254092551730025],[121.44665192404727,31.253262313804896],[121.44657043198004,31.25263846309474],[121.44605409791848,31.252638561120875],[121.4457304310148,31.25283892287814],[121.44533317888329,31.25287173554233],[121.4433456726648,31.25203759635815],[121.44283195203309,31.25190327271804],[121.43930799187046,31.251523962960675],[121.43886253068138,31.251514877110083],[121.43832185197209,31.25157743664954],[121.43794889052901,31.25177395110711],[121.43766140245191,31.252118139640572],[121.43721546732013,31.253824356808764],[121.43693194525326,31.254289737081876],[121.43651463284425,31.254673864507424],[121.43605695166718,31.254892231591384],[121.43552861705223,31.25486572137612],[121.4352058719536,31.254630452433616],[121.43494626106133,31.25416228156422],[121.43434526392298,31.25239684853591]]]}},{"id":"60","type":"Feature","properties":{"省":"上海市","市":"上海市","县":"普陀区","乡":"甘泉路街道","Shape_Leng":0.064561435538,"Shape_Area":0.000223477752554,"__source_file__":"19-其它/13-历史版本数据/2021.08/上海市_乡镇.shp"},"geometry":{"type":"Polygon","coordinates":[[[121.43094785366065,31.260698881548308],[121.43159402464471,31.260095625313],[121.4316424495396,31.258849190138164],[121.43164751002473,31.25870247024295],[121.42850575723503,31.259294038888925],[121.42619573524519,31.25976681248858],[121.42400125939164,31.260172864296234],[121.42413269591728,31.260468337213158],[121.4250762245237,31.262312331058894],[121.42645565496629,31.264685114812334],[121.42809893331145,31.266930492098258],[121.42999028682037,31.269026885533062],[121.43211155526778,31.2709541479284],[121.4325164723482,31.271256359243647],[121.43254568363659,31.27124004928902],[121.43257453118986,31.271226323835947],[121.43503283879465,31.270395897952483],[121.43680219916234,31.26980396687975],[121.43742183564939,31.269610959778163],[121.43804005840218,31.269290941423947],[121.43848373893354,31.268835806227628],[121.4395966157914,31.267391289076897],[121.43960960290099,31.26737394744987],[121.43737166157314,31.265940357061993],[121.43696377226047,31.265691886971183],[121.43365912257059,31.263723117228267],[121.43364542049994,31.263715001746107],[121.43139047119348,31.26235833127214],[121.43036907517285,31.261876011368997],[121.43040333394686,31.26179742860859],[121.43094785366065,31.260698881548308]]]}},{"id":"24","type":"Feature","properties":{"省":"上海市","市":"上海市","县":"闸北区","乡":"共和新路街道","Shape_Leng":0.0823869157157,"Shape_Area":0.000258189044928,"__source_file__":"19-其它/13-历史版本数据/2021.08/上海市_乡镇.shp"},"geometry":{"type":"Polygon","coordinates":[[[121.44514710105807,31.2600660816845],[121.44416995797735,31.261391032170536],[121.4436796008331,31.26203138813821],[121.4427342784644,31.2632737781625],[121.44140043458253,31.26502849846662],[121.44116015641623,31.26534592227665],[121.43960960290099,31.26737394744987],[121.4395966157914,31.267391289076897],[121.43848373893354,31.268835806227628],[121.43804005840218,31.269290941423947],[121.43742183564939,31.269610959778163],[121.43680219916234,31.26980396687975],[121.43503283879465,31.270395897952483],[121.4387464722721,31.2712421653938],[121.43960601460606,31.27129969412573],[121.44167837006091,31.271415175170375],[121.44235945182743,31.271547610234165],[121.44460162446558,31.271950697167085],[121.44533593170809,31.270993869771416],[121.44534026194367,31.270988120405605],[121.44626874360779,31.269693785539914],[121.44816599836236,31.269871530247087],[121.4496487771695,31.269907596658413],[121.45045895661576,31.269860398438823],[121.45105334643495,31.26982581950614],[121.45330975534114,31.270003044405144],[121.45208679786765,31.271840519424586],[121.45107397418474,31.273329161811546],[121.4526528905186,31.273953759858273],[121.4540099396072,31.27449051752353],[121.45507433581213,31.274916935568285],[121.45701591635168,31.275745616766983],[121.45927147359976,31.276845847358118],[121.45952550779612,31.276718703005884],[121.45958819324073,31.27667343023478],[121.45972882652427,31.276571861702223],[121.4598762344009,31.276434007323758],[121.4600541355901,31.27628043819186],[121.46015354754832,31.276186406877343],[121.46025067702726,31.276081637657626],[121.46030408866295,31.276022000015473],[121.46042887948943,31.275855611947122],[121.46049139766001,31.275755338438273],[121.4612898607387,31.27473747675333],[121.4615093106064,31.27443106334306],[121.4619830365881,31.27384877570063],[121.46198974912784,31.27384052082357],[121.46206148624879,31.273752343196236],[121.46220020667442,31.273581767884423],[121.46225571462969,31.27351360376997],[121.46226794990616,31.27349831439585],[121.46234235351699,31.273399888993822],[121.46264216770203,31.273002980403362],[121.46306190828057,31.27244730729757],[121.46318100370058,31.27228937195713],[121.46324565776104,31.27219894782337],[121.46325819970627,31.272179862410894],[121.46326600851967,31.27216760645007],[121.46326983153767,31.27216164664287],[121.46327313294887,31.272156448561418],[121.46328434299824,31.27213996039103],[121.4635683057329,31.271722548157243],[121.46362894521985,31.27163526805333],[121.46365266034218,31.271601193640322],[121.46366547388266,31.271582807001096],[121.46367402643534,31.271570420638568],[121.46372183079802,31.271501572139982],[121.46372606480622,31.271495475635845],[121.46373252373712,31.27148673422556],[121.46374612508373,31.271468244164282],[121.46377091219802,31.27143460052656],[121.46434095736947,31.270660893985223],[121.46442153122882,31.270562393040166],[121.46504818242784,31.269702986503773],[121.46564499232272,31.26903157424789],[121.46587774855948,31.26880777076218],[121.46621527761317,31.268504774775693],[121.46674479213857,31.26804687506342],[121.46578490974593,31.26693256648491],[121.46542167357154,31.266660232883623],[121.46410163248447,31.26576540564912],[121.46313329556529,31.265185187346674],[121.46252745917502,31.264933698231744],[121.46244586368584,31.26489985404521],[121.4615454408696,31.264526486108593],[121.46153316512368,31.2645213284967],[121.46028763826405,31.264018068779023],[121.45895697078777,31.263498644646916],[121.4567993712941,31.262758872224367],[121.45484154719986,31.26214977399303],[121.45425826670578,31.262025967024897],[121.45416334056586,31.262005968800565],[121.45028829317039,31.26114773228221],[121.4502280269021,31.261134024815533],[121.44910031752579,31.260900722690337],[121.44909454387823,31.26089963181272],[121.44817040414102,31.26070527932535],[121.44733398427616,31.26052876129347],[121.44514710105807,31.2600660816845]]]}},{"id":"162","type":"Feature","properties":{"省":"上海市","市":"上海市","县":"闸北区","乡":"大宁路街道","Shape_Leng":0.133986937797,"Shape_Area":0.000595070834101,"__source_file__":"19-其它/13-历史版本数据/2021.08/上海市_乡镇.shp"},"geometry":{"type":"Polygon","coordinates":[[[121.45750768812945,31.2787566881708],[121.45768468729864,31.278370550760485],[121.45818284156508,31.27740496846468],[121.45825589619278,31.27728121725454],[121.4582986589561,31.277233470448493],[121.45833658696404,31.277195792452005],[121.45838084799789,31.277163179437366],[121.45842394351041,31.27713755505431],[121.45852178255439,31.27709329491978],[121.45861146834477,31.277058351761696],[121.45868717687188,31.277031562756576],[121.45876638016443,31.277003609129395],[121.45927147359976,31.276845847358118],[121.45701591635168,31.275745616766983],[121.45507433581213,31.274916935568285],[121.4540099396072,31.27449051752353],[121.4526528905186,31.273953759858273],[121.45107397418474,31.273329161811546],[121.45208679786765,31.271840519424586],[121.45330975534114,31.270003044405144],[121.45105334643495,31.26982581950614],[121.45045895661576,31.269860398438823],[121.4496487771695,31.269907596658413],[121.44816599836236,31.269871530247087],[121.44626874360779,31.269693785539914],[121.44534026194367,31.270988120405605],[121.44533593170809,31.270993869771416],[121.44460162446558,31.271950697167085],[121.44418451080674,31.272428803746436],[121.44349465795233,31.27291488281577],[121.44177196790213,31.273660429785195],[121.44021354711765,31.274375870150436],[121.43970273849072,31.274821329540885],[121.4393215679319,31.275388158951436],[121.43964124126684,31.27554509134123],[121.44061922217837,31.275921387116107],[121.44062500583948,31.275803629334177],[121.44142005599099,31.275827466764326],[121.44139554676724,31.275587135538046],[121.4414702192754,31.27558870305637],[121.44152867610774,31.275393764211003],[121.44180573834433,31.275265504699462],[121.44223426170197,31.27579144801706],[121.44241171502881,31.276221237620177],[121.44234063261433,31.276377828474153],[121.4427444470141,31.276711399051052],[121.44538756589114,31.27747152011958],[121.44839774190646,31.27806332719107],[121.45146094135256,31.27839914064598],[121.45273825928797,31.278430843127566],[121.45571835399855,31.278836414540702],[121.45742350673929,31.27892273090962],[121.45750768812945,31.2787566881708]]]}},{"id":"158","type":"Feature","properties":{"省":"上海市","市":"上海市","县":"闸北区","乡":"彭浦镇","Shape_Leng":0.180568259504,"Shape_Area":0.000744262133033,"__source_file__":"19-其它/13-历史版本数据/2021.08/上海市_乡镇.shp"},"geometry":{"type":"MultiPolygon","coordinates":[[[[121.44234063261433,31.276377828474153],[121.44241171502881,31.276221237620177],[121.44223426170197,31.27579144801706],[121.44180573834433,31.275265504699462],[121.44152867610774,31.275393764211003],[121.4414702192754,31.27558870305637],[121.44139554676724,31.275587135538046],[121.44142005599099,31.275827466764326],[121.44062500583948,31.275803629334177],[121.44061922217837,31.275921387116107],[121.44245935009069,31.276629409481853],[121.4427444470141,31.276711399051052],[121.44234063261433,31.276377828474153]]],[[[121.43970273849072,31.274821329540885],[121.44021354711765,31.274375870150436],[121.44177196790213,31.273660429785195],[121.44349465795233,31.27291488281577],[121.44418451080674,31.272428803746436],[121.44460162446558,31.271950697167085],[121.44235945182743,31.271547610234165],[121.44167837006091,31.271415175170375],[121.43960601460606,31.27129969412573],[121.4387464722721,31.2712421653938],[121.43503283879465,31.270395897952483],[121.43257453118986,31.271226323835947],[121.43254568363659,31.27124004928902],[121.4325164723482,31.271256359243647],[121.43444236509998,31.272693756206372],[121.43696032504036,31.274228989732933],[121.4393215679319,31.275388158951436],[121.43970273849072,31.274821329540885]]]]}}],"name":"上海市_乡镇","crs":{"type":"name","properties":{"name":"urn:ogc:def:crs:OGC:1.3:CRS84"}}}