{"type":"FeatureCollection","features":[{"id":"573","type":"Feature","properties":{"gml_id":"layer_gas_pt.80408","Name":"长乐加油站","pyname":"cljyz","kind":"4082","zipcode":null,"telephone":"021-62555530","display_x":"121.46105","display_y":"31.22104","side":"L","address":"长乐路398－4","__source_file__":"19-其它/13-历史版本数据/2021.08/上海市_加油站.shp"},"geometry":{"type":"Point","coordinates":[121.4565111,31.22297348]}},{"id":"452","type":"Feature","properties":{"gml_id":"layer_gas_pt.80275","Name":"延平路加油站","pyname":"ypljyz","kind":"4081","zipcode":null,"telephone":"021-62560116","display_x":"121.44177","display_y":"31.22944","side":"R","address":"武定路1099","__source_file__":"19-其它/13-历史版本数据/2021.08/上海市_加油站.shp"},"geometry":{"type":"Point","coordinates":[121.43718918,31.23133533]}},{"id":"744","type":"Feature","properties":{"gml_id":"layer_gas_pt.80596","Name":"常德路加油站","pyname":"cdljyz","kind":"4081","zipcode":null,"telephone":"021-62584654","display_x":"121.44558","display_y":"31.23025","side":"R","address":"常德路557","__source_file__":"19-其它/13-历史版本数据/2021.08/上海市_加油站.shp"},"geometry":{"type":"Point","coordinates":[121.4410077,31.23215204]}},{"id":"625","type":"Feature","properties":{"gml_id":"layer_gas_pt.80466","Name":"武宁路加油站","pyname":"wnljyz","kind":"4082","zipcode":null,"telephone":"021-62312533","display_x":"121.43366","display_y":"31.23202","side":"R","address":"余姚路589","__source_file__":"19-其它/13-历史版本数据/2021.08/上海市_加油站.shp"},"geometry":{"type":"Point","coordinates":[121.42906146,31.23389961]}},{"id":"626","type":"Feature","properties":{"gml_id":"layer_gas_pt.80467","Name":"中国石化上海石油公司第三加油站","pyname":"zgshshsygsdsjyz","kind":"4082","zipcode":null,"telephone":"021-62559886","display_x":"121.44973","display_y":"31.23506","side":"R","address":"康定路358－1","__source_file__":"19-其它/13-历史版本数据/2021.08/上海市_加油站.shp"},"geometry":{"type":"Point","coordinates":[121.44519234,31.23697865]}},{"id":"316","type":"Feature","properties":{"gml_id":"layer_gas_pt.80133","Name":"梅园油气加油站","pyname":"myyqjyz","kind":"4081","zipcode":null,"telephone":"021-63800671","display_x":"121.46191","display_y":"31.24211","side":"R","address":"光复路555","__source_file__":"19-其它/13-历史版本数据/2021.08/上海市_加油站.shp"},"geometry":{"type":"Point","coordinates":[121.45746294,31.24407537]}},{"id":"691","type":"Feature","properties":{"gml_id":"layer_gas_pt.80538","Name":"新奥九环加气站","pyname":"xajhjqz","kind":"40A0","zipcode":null,"telephone":"021-63800671","display_x":"121.46191","display_y":"31.24211","side":"R","address":"光复路555","__source_file__":"19-其它/13-历史版本数据/2021.08/上海市_加油站.shp"},"geometry":{"type":"Point","coordinates":[121.45746294,31.24407537]}},{"id":"183","type":"Feature","properties":{"gml_id":"layer_gas_pt.79988","Name":"加油站","pyname":"jyz","kind":"4082","zipcode":"200060","telephone":"021-62980737","display_x":"121.43666","display_y":"31.24353","side":"L","address":"西康路1333","__source_file__":"19-其它/13-历史版本数据/2021.08/上海市_加油站.shp"},"geometry":{"type":"Point","coordinates":[121.43209878,31.2454238]}},{"id":"205","type":"Feature","properties":{"gml_id":"layer_gas_pt.80010","Name":"新复加油站","pyname":"xfjyz","kind":"4082","zipcode":null,"telephone":"021-62042544","display_x":"121.43308","display_y":"31.24884","side":"R","address":"光复西路115","__source_file__":"19-其它/13-历史版本数据/2021.08/上海市_加油站.shp"},"geometry":{"type":"Point","coordinates":[121.42852596,31.25073168]}},{"id":"451","type":"Feature","properties":{"gml_id":"layer_gas_pt.80274","Name":"人民路加油站","pyname":"rmljyz","kind":"4082","zipcode":null,"telephone":"021-33070279","display_x":"121.48277","display_y":"31.22475","side":"L","address":"人民路888","__source_file__":"19-其它/13-历史版本数据/2021.08/上海市_加油站.shp"},"geometry":{"type":"Point","coordinates":[121.47834312,31.22674898]}},{"id":"450","type":"Feature","properties":{"gml_id":"layer_gas_pt.80273","Name":"成都路油气站","pyname":"cdlyqz","kind":"4082","zipcode":null,"telephone":"021-63598638","display_x":"121.46838","display_y":"31.22622","side":"R","address":"成都北路118","__source_file__":"19-其它/13-历史版本数据/2021.08/上海市_加油站.shp"},"geometry":{"type":"Point","coordinates":[121.46389092,31.22817926]}},{"id":"857","type":"Feature","properties":{"gml_id":"layer_gas_pt.80723","Name":"大田加油站","pyname":"dtjyz","kind":"4082","zipcode":null,"telephone":"021-62183904","display_x":"121.46424","display_y":"31.2337","side":"L","address":"大田路180","__source_file__":"19-其它/13-历史版本数据/2021.08/上海市_加油站.shp"},"geometry":{"type":"Point","coordinates":[121.4597655,31.23565893]}},{"id":"449","type":"Feature","properties":{"gml_id":"layer_gas_pt.80272","Name":"第一加油站","pyname":"dyjyz","kind":"4082","zipcode":null,"telephone":"021-63236827","display_x":"121.48621","display_y":"31.24358","side":"L","address":"南苏州路198","__source_file__":"19-其它/13-历史版本数据/2021.08/上海市_加油站.shp"},"geometry":{"type":"Point","coordinates":[121.48188606,31.24561869]}},{"id":"544","type":"Feature","properties":{"gml_id":"layer_gas_pt.80373","Name":"第十加油站","pyname":"dsjyz","kind":"4082","zipcode":null,"telephone":"021-63813660","display_x":"121.46347","display_y":"31.2444","side":"L","address":"天目中路620","__source_file__":"19-其它/13-历史版本数据/2021.08/上海市_加油站.shp"},"geometry":{"type":"Point","coordinates":[121.459041,31.24637352]}},{"id":"669","type":"Feature","properties":{"gml_id":"layer_gas_pt.80512","Name":"第十加气站","pyname":"dsjqz","kind":"40A0","zipcode":null,"telephone":"021-63813660","display_x":"121.46347","display_y":"31.2444","side":"L","address":"天目中路620","__source_file__":"19-其它/13-历史版本数据/2021.08/上海市_加油站.shp"},"geometry":{"type":"Point","coordinates":[121.459041,31.24637352]}},{"id":"576","type":"Feature","properties":{"gml_id":"layer_gas_pt.80413","Name":"晋元加油站","pyname":"jyjyz","kind":"4082","zipcode":null,"telephone":"021-63178021","display_x":"121.46957","display_y":"31.24502","side":"R","address":"晋元路327","__source_file__":"19-其它/13-历史版本数据/2021.08/上海市_加油站.shp"},"geometry":{"type":"Point","coordinates":[121.46517306,31.2470123]}},{"id":"186","type":"Feature","properties":{"gml_id":"layer_gas_pt.79991","Name":"海宁加油站","pyname":"hnjyz","kind":"4081","zipcode":null,"telephone":"021-63063778","display_x":"121.47594","display_y":"31.24557","side":"L","address":"浙江北路218","__source_file__":"19-其它/13-历史版本数据/2021.08/上海市_加油站.shp"},"geometry":{"type":"Point","coordinates":[121.47157602,31.24758182]}},{"id":"663","type":"Feature","properties":{"gml_id":"layer_gas_pt.80506","Name":"永兴加汽站","pyname":"yxjqz","kind":"40A0","zipcode":null,"telephone":"021-56300496","display_x":"121.46873","display_y":"31.25171","side":"L","address":"西藏北路551","__source_file__":"19-其它/13-历史版本数据/2021.08/上海市_加油站.shp"},"geometry":{"type":"Point","coordinates":[121.46435982,31.25371041]}},{"id":"407","type":"Feature","properties":{"gml_id":"layer_gas_pt.80227","Name":"永兴油汽站","pyname":"yxyqz","kind":"4082","zipcode":null,"telephone":"021-56300496","display_x":"121.46873","display_y":"31.25171","side":"L","address":"西藏北路551","__source_file__":"19-其它/13-历史版本数据/2021.08/上海市_加油站.shp"},"geometry":{"type":"Point","coordinates":[121.46435982,31.25371041]}},{"id":"719","type":"Feature","properties":{"gml_id":"layer_gas_pt.80569","Name":"闸兴加油站","pyname":"zxjyz","kind":"4082","zipcode":null,"telephone":"021-56531689","display_x":"121.45209","display_y":"31.25237","side":"R","address":"交通路","__source_file__":"19-其它/13-历史版本数据/2021.08/上海市_加油站.shp"},"geometry":{"type":"Point","coordinates":[121.44764322,31.25432282]}},{"id":"627","type":"Feature","properties":{"gml_id":"layer_gas_pt.80468","Name":"石普加油站","pyname":"spjyz","kind":"4082","zipcode":null,"telephone":"021-62031716","display_x":"121.43634","display_y":"31.25322","side":"R","address":"中山北路1700","__source_file__":"19-其它/13-历史版本数据/2021.08/上海市_加油站.shp"},"geometry":{"type":"Point","coordinates":[121.43182176,31.25512814]}},{"id":"748","type":"Feature","properties":{"gml_id":"layer_gas_pt.80600","Name":"石普加气站","pyname":"spjqz","kind":"40A0","zipcode":null,"telephone":"021-62031716","display_x":"121.43634","display_y":"31.25322","side":"R","address":"中山北路1700","__source_file__":"19-其它/13-历史版本数据/2021.08/上海市_加油站.shp"},"geometry":{"type":"Point","coordinates":[121.43182176,31.25512814]}},{"id":"322","type":"Feature","properties":{"gml_id":"layer_gas_pt.80139","Name":"中华新路加油站","pyname":"zhxljyz","kind":"4082","zipcode":null,"telephone":"021-56325934","display_x":"121.45366","display_y":"31.25437","side":"R","address":"中华新路970","__source_file__":"19-其它/13-历史版本数据/2021.08/上海市_加油站.shp"},"geometry":{"type":"Point","coordinates":[121.44922992,31.25633054]}},{"id":"740","type":"Feature","properties":{"gml_id":"layer_gas_pt.80591","Name":"普善路加油站","pyname":"psljyz","kind":"4082","zipcode":null,"telephone":"021-56551079","display_x":"121.45508","display_y":"31.25862","side":"R","address":"普善路265","__source_file__":"19-其它/13-历史版本数据/2021.08/上海市_加油站.shp"},"geometry":{"type":"Point","coordinates":[121.45064832,31.26057755]}},{"id":"325","type":"Feature","properties":{"gml_id":"layer_gas_pt.80142","Name":"宜川加油站","pyname":"ycjyz","kind":"4082","zipcode":null,"telephone":"021-56533187","display_x":"121.44579","display_y":"31.26283","side":"R","address":"沪太路684","__source_file__":"19-其它/13-历史版本数据/2021.08/上海市_加油站.shp"},"geometry":{"type":"Point","coordinates":[121.44129516,31.2647481]}},{"id":"548","type":"Feature","properties":{"gml_id":"layer_gas_pt.80378","Name":"洛川中路加油站","pyname":"lczljyz","kind":"4082","zipcode":null,"telephone":"021-36030854","display_x":"121.45416","display_y":"31.26688","side":"R","address":"洛川中路733","__source_file__":"19-其它/13-历史版本数据/2021.08/上海市_加油站.shp"},"geometry":{"type":"Point","coordinates":[121.44969288,31.26881358]}},{"id":"185","type":"Feature","properties":{"gml_id":"layer_gas_pt.79990","Name":"沪实加油站","pyname":"hsjyz","kind":"4082","zipcode":null,"telephone":"021-56953497","display_x":"121.44047","display_y":"31.26792","side":"L","address":"新村路19","__source_file__":"19-其它/13-历史版本数据/2021.08/上海市_加油站.shp"},"geometry":{"type":"Point","coordinates":[121.435929,31.26980867]}},{"id":"547","type":"Feature","properties":{"gml_id":"layer_gas_pt.80377","Name":"绿园加油站","pyname":"lyjyz","kind":"4081","zipcode":null,"telephone":"021-56954611","display_x":"121.43889","display_y":"31.26932","side":"R","address":"沪太路857","__source_file__":"19-其它/13-历史版本数据/2021.08/上海市_加油站.shp"},"geometry":{"type":"Point","coordinates":[121.43433564,31.2712002]}},{"id":"640","type":"Feature","properties":{"gml_id":"layer_gas_pt.80482","Name":"新奥九环沪太路LPG加气站","pyname":"xajhhtlljqz","kind":"40A0","zipcode":null,"telephone":"021-56954611","display_x":"121.43865","display_y":"31.26942","side":"R","address":"沪太路857号","__source_file__":"19-其它/13-历史版本数据/2021.08/上海市_加油站.shp"},"geometry":{"type":"Point","coordinates":[121.43409408,31.27129925]}},{"id":"545","type":"Feature","properties":{"gml_id":"layer_gas_pt.80374","Name":"和田路加油站","pyname":"htljyz","kind":"4082","zipcode":null,"telephone":"021-56636808","display_x":"121.46837","display_y":"31.25586","side":"R","address":"西藏北路796","__source_file__":"19-其它/13-历史版本数据/2021.08/上海市_加油站.shp"},"geometry":{"type":"Point","coordinates":[121.46401656,31.25786562]}},{"id":"493","type":"Feature","properties":{"gml_id":"layer_gas_pt.80320","Name":"胜利加油站","pyname":"sljyz","kind":"4082","zipcode":null,"telephone":"021-65845697","display_x":"121.49914","display_y":"31.25714","side":"R","address":"高阳路551","__source_file__":"19-其它/13-历史版本数据/2021.08/上海市_加油站.shp"},"geometry":{"type":"Point","coordinates":[121.49492418,31.25923272]}},{"id":"66","type":"Feature","properties":{"gml_id":"layer_gas_pt.79867","Name":"洪远加油站","pyname":"hyjyz","kind":"4082","zipcode":null,"telephone":"021-56628784","display_x":"121.47491","display_y":"31.26046","side":"N","address":"天通庵路413","__source_file__":"19-其它/13-历史版本数据/2021.08/上海市_加油站.shp"},"geometry":{"type":"Point","coordinates":[121.47057288,31.26247407]}},{"id":"534","type":"Feature","properties":{"gml_id":"layer_gas_pt.80363","Name":"中田加油站","pyname":"ztjyz","kind":"4082","zipcode":null,"telephone":"021-56304515","display_x":"121.46461","display_y":"31.26158","side":"R","address":"中山北路572","__source_file__":"19-其它/13-历史版本数据/2021.08/上海市_加油站.shp"},"geometry":{"type":"Point","coordinates":[121.46021604,31.26355938]}},{"id":"495","type":"Feature","properties":{"gml_id":"layer_gas_pt.80322","Name":"溧阳加油站","pyname":"lyjyz","kind":"4082","zipcode":null,"telephone":"021-65872873","display_x":"121.48781","display_y":"31.26242","side":"R","address":"溧阳路1192","__source_file__":"19-其它/13-历史版本数据/2021.08/上海市_加油站.shp"},"geometry":{"type":"Point","coordinates":[121.48352658,31.26446735]}},{"id":"549","type":"Feature","properties":{"gml_id":"layer_gas_pt.80379","Name":"新炼加油站","pyname":"xljyz","kind":"4082","zipcode":null,"telephone":"021-56627763","display_x":"121.47072","display_y":"31.26604","side":"R","address":"中山北路157","__source_file__":"19-其它/13-历史版本数据/2021.08/上海市_加油站.shp"},"geometry":{"type":"Point","coordinates":[121.46633694,31.26802577]}},{"id":"442","type":"Feature","properties":{"gml_id":"layer_gas_pt.80264","Name":"和贝加油站","pyname":"hbjyz","kind":"4082","zipcode":null,"telephone":"021-56906793","display_x":"121.46304","display_y":"31.26675","side":"R","address":"民和路277号","__source_file__":"19-其它/13-历史版本数据/2021.08/上海市_加油站.shp"},"geometry":{"type":"Point","coordinates":[121.4586171,31.26871085]}}],"name":"上海市_加油站","crs":{"type":"name","properties":{"name":"urn:ogc:def:crs:OGC:1.3:CRS84"}}}