{"type":"FeatureCollection","features":[{"id":"2","type":"Feature","properties":{"gml_id":"layer_ferry_pl.759","Name":null,"__source_file__":"19-其它/13-历史版本数据/2021.08/上海市_轮渡.shp"},"geometry":{"type":"LineString","coordinates":[[121.48874928,31.23480173],[121.48896078,31.23494258],[121.48901118,31.23497277],[121.48907166,31.23500301],[121.48911198,31.23502313]]}},{"id":"1","type":"Feature","properties":{"gml_id":"layer_ferry_pl.758","Name":null,"__source_file__":"19-其它/13-历史版本数据/2021.08/上海市_轮渡.shp"},"geometry":{"type":"LineString","coordinates":[[121.49337132,31.23576671],[121.49369796444802,31.235604921485457]]}},{"id":"3","type":"Feature","properties":{"gml_id":"layer_ferry_pl.760","Name":null,"__source_file__":"19-其它/13-历史版本数据/2021.08/上海市_轮渡.shp"},"geometry":{"type":"LineString","coordinates":[[121.48911198,31.23502313],[121.48922268,31.23507353],[121.48933338,31.2351039],[121.48946406,31.23513432],[121.48975584,31.2351953],[121.49043948,31.23529745],[121.4909523,31.23536904]]}},{"id":"0","type":"Feature","properties":{"gml_id":"layer_ferry_pl.757","Name":null,"__source_file__":"19-其它/13-历史版本数据/2021.08/上海市_轮渡.shp"},"geometry":{"type":"LineString","coordinates":[[121.4909523,31.23536904],[121.49102268,31.23537926],[121.4914968,31.23551084],[121.49192034,31.23562226],[121.49241462,31.23578394],[121.49256582,31.23582444],[121.4928882,31.23582539],[121.49320032,31.23580626],[121.49337132,31.23576671]]}}],"name":"上海市_轮渡","crs":{"type":"name","properties":{"name":"urn:ogc:def:crs:OGC:1.3:CRS84"}}}