{"type":"FeatureCollection","features":[{"id":"20","type":"Feature","properties":{"gml_id":"layer_bus_station_pt.8245","Name":"太平洋长途汽车站","pyname":"tpyctqcz","kind":"8083","zipcode":"200070","telephone":"021-63170440","display_x":"121.45117","display_y":"31.24939","side":"R","address":"恒丰路710号","__source_file__":"19-其它/13-历史版本数据/2021.08/上海市_汽车站.shp"},"geometry":{"type":"Point","coordinates":[121.44670506,31.25133545]}},{"id":"19","type":"Feature","properties":{"gml_id":"layer_bus_station_pt.8244","Name":"上海沪铁长途客运站","pyname":"shhtctkyz","kind":"8083","zipcode":"200070","telephone":"021-63532300","display_x":"121.45158","display_y":"31.25045","side":"R","address":"恒丰路783号","__source_file__":"19-其它/13-历史版本数据/2021.08/上海市_汽车站.shp"},"geometry":{"type":"Point","coordinates":[121.44712194,31.2523983]}},{"id":"50","type":"Feature","properties":{"gml_id":"layer_bus_station_pt.8282","Name":"上海长途汽车客运总站","pyname":"shctqckyzz","kind":"8083","zipcode":null,"telephone":"021-66050000","display_x":"121.45472","display_y":"31.25217","side":"R","address":"中兴路1666号","__source_file__":"19-其它/13-历史版本数据/2021.08/上海市_汽车站.shp"},"geometry":{"type":"Point","coordinates":[121.4502849,31.25413017]}},{"id":"0","type":"Feature","properties":{"gml_id":"layer_bus_station_pt.8223","Name":"上海长途汽车站","pyname":"shctqcz","kind":"8083","zipcode":"200065","telephone":"021-66051111","display_x":"121.45002","display_y":"31.25873","side":"R","address":"中山北路1015号","__source_file__":"19-其它/13-历史版本数据/2021.08/上海市_汽车站.shp"},"geometry":{"type":"Point","coordinates":[121.44556206,31.26067164]}},{"id":"2","type":"Feature","properties":{"gml_id":"layer_bus_station_pt.8225","Name":"上海中山客运站","pyname":"shzskyz","kind":"8083","zipcode":null,"telephone":"021-56552789","display_x":"121.45851","display_y":"31.25976","side":"R","address":"中山北路806号","__source_file__":"19-其它/13-历史版本数据/2021.08/上海市_汽车站.shp"},"geometry":{"type":"Point","coordinates":[121.45409154,31.26172523]}},{"id":"25","type":"Feature","properties":{"gml_id":"layer_bus_station_pt.8252","Name":"上海虹口足球场长途客运站","pyname":"shhkzqcctkyz","kind":"8083","zipcode":null,"telephone":"021-56967721","display_x":"121.47964","display_y":"31.27186","side":"R","address":"东江湾路450临","__source_file__":"19-其它/13-历史版本数据/2021.08/上海市_汽车站.shp"},"geometry":{"type":"Point","coordinates":[121.47526782,31.27385448]}},{"id":"12","type":"Feature","properties":{"gml_id":"layer_bus_station_pt.8236","Name":"上海东站长途客运旅游站","pyname":"shdzctkylyz","kind":"8083","zipcode":null,"telephone":null,"display_x":"121.47966","display_y":"31.27209","side":"N","address":"东江湾路444号","__source_file__":"19-其它/13-历史版本数据/2021.08/上海市_汽车站.shp"},"geometry":{"type":"Point","coordinates":[121.47528672,31.27408385]}}],"name":"上海市_汽车站","crs":{"type":"name","properties":{"name":"urn:ogc:def:crs:OGC:1.3:CRS84"}}}