{"type":"FeatureCollection","features":[{"id":"6","type":"Feature","properties":{"gml_id":"layer_hospital_pg.13","Name":"瑞金医院","fclass":"hospital","__source_file__":"19-其它/13-历史版本数据/2021.08/上海市_医院区域.shp"},"geometry":{"type":"Polygon","coordinates":[[[121.46747,31.220968],[121.468399,31.221165],[121.468541,31.220184],[121.467154,31.219862],[121.46747,31.220968]]]}},{"id":"60","type":"Feature","properties":{"gml_id":"layer_hospital_pg.759","Name":null,"fclass":"hospital","__source_file__":"19-其它/13-历史版本数据/2021.08/上海市_医院区域.shp"},"geometry":{"type":"Polygon","coordinates":[[[121.462797,31.233922],[121.46325,31.233901],[121.46316,31.233416],[121.463163,31.233332],[121.463205,31.233323],[121.463227,31.233046],[121.462943,31.233014],[121.462856,31.233069],[121.462791,31.233116],[121.462784,31.233154],[121.462797,31.233922]]]}},{"id":"16","type":"Feature","properties":{"gml_id":"layer_hospital_pg.103","Name":null,"fclass":"hospital","__source_file__":"19-其它/13-历史版本数据/2021.08/上海市_医院区域.shp"},"geometry":{"type":"Polygon","coordinates":[[[121.462835,31.234642],[121.462857,31.234704],[121.462929,31.234764],[121.463028,31.234814],[121.463119,31.234844],[121.463226,31.234789],[121.463232,31.23475],[121.46323,31.234679],[121.463208,31.234598],[121.463157,31.234534],[121.463066,31.234481],[121.462926,31.23444],[121.46283,31.234491],[121.462825,31.234562],[121.462835,31.234642]]]}},{"id":"46","type":"Feature","properties":{"gml_id":"layer_hospital_pg.451","Name":"长寿","fclass":"hospital","__source_file__":"19-其它/13-历史版本数据/2021.08/上海市_医院区域.shp"},"geometry":{"type":"Polygon","coordinates":[[[121.430595,31.239683],[121.431123,31.239972],[121.431475,31.23981],[121.431536,31.239706],[121.43111,31.239451],[121.430941,31.23937],[121.431042,31.239087],[121.430968,31.23885],[121.430859,31.238601],[121.430115,31.238583],[121.430047,31.239503],[121.430595,31.239683]]]}},{"id":"76","type":"Feature","properties":{"gml_id":"layer_hospital_pg.1122","Name":null,"fclass":"hospital","__source_file__":"19-其它/13-历史版本数据/2021.08/上海市_医院区域.shp"},"geometry":{"type":"Polygon","coordinates":[[[121.492653,31.25351],[121.493023,31.253731],[121.494043,31.252849],[121.493846,31.252648],[121.493881,31.252446],[121.493148,31.25218],[121.492519,31.25307],[121.492653,31.25351]]]}},{"id":"22","type":"Feature","properties":{"gml_id":"layer_hospital_pg.136","Name":"上海市第一人民医院","fclass":"hospital","__source_file__":"19-其它/13-历史版本数据/2021.08/上海市_医院区域.shp"},"geometry":{"type":"Polygon","coordinates":[[[121.483681,31.255109],[121.483692,31.255125],[121.483707,31.255136],[121.483756,31.255161],[121.484644,31.255527],[121.48573,31.255961],[121.485768,31.255971],[121.485809,31.255972],[121.48631,31.255828],[121.486332,31.255802],[121.486449,31.255634],[121.486123,31.255495],[121.486344,31.255145],[121.485451,31.254737],[121.484625,31.254359],[121.484512,31.254322],[121.484443,31.254317],[121.484362,31.254324],[121.484291,31.254339],[121.484249,31.254359],[121.484208,31.254396],[121.484043,31.254657],[121.483986,31.254629],[121.483801,31.25493],[121.483748,31.254909],[121.483695,31.254997],[121.483679,31.255032],[121.483675,31.255072],[121.483681,31.255109]]]}}],"name":"上海市_医院区域","crs":{"type":"name","properties":{"name":"urn:ogc:def:crs:OGC:1.3:CRS84"}}}