{"type":"FeatureCollection","features":[{"id":"7","type":"Feature","properties":{"gml_id":"layer_travel_pg.26","Name":"新天地","fclass":"attraction","__source_file__":"19-其它/13-历史版本数据/2021.08/上海市_旅游胜地区域.shp"},"geometry":{"type":"Polygon","coordinates":[[[121.469643,31.223199],[121.469822,31.223285],[121.469853,31.223299],[121.469874,31.22331],[121.469955,31.223346],[121.47023,31.223462],[121.470272,31.22348],[121.470697,31.223575],[121.470729,31.223484],[121.470882,31.222783],[121.470905,31.222623],[121.470924,31.222487],[121.470956,31.222343],[121.471065,31.221983],[121.471151,31.221688],[121.471274,31.22126],[121.47142,31.220686],[121.471443,31.220591],[121.471334,31.220566],[121.470078,31.220289],[121.46981,31.221662],[121.469779,31.22184],[121.469563,31.223079],[121.469533,31.223151],[121.469643,31.223199]]]}},{"id":"3","type":"Feature","properties":{"gml_id":"layer_travel_pg.22","Name":"上海大剧院","fclass":"attraction","__source_file__":"19-其它/13-历史版本数据/2021.08/上海市_旅游胜地区域.shp"},"geometry":{"type":"Polygon","coordinates":[[[121.467395,31.232099],[121.46802,31.231403],[121.467841,31.231285],[121.46791,31.231197],[121.467524,31.230932],[121.467464,31.231006],[121.467232,31.230859],[121.467161,31.230941],[121.466823,31.231333],[121.466605,31.231586],[121.467395,31.232099]]]}},{"id":"4","type":"Feature","properties":{"gml_id":"layer_travel_pg.23","Name":"上海城市规划展示馆","fclass":"attraction","__source_file__":"19-其它/13-历史版本数据/2021.08/上海市_旅游胜地区域.shp"},"geometry":{"type":"Polygon","coordinates":[[[121.470934,31.233741],[121.471316,31.23332],[121.470819,31.232991],[121.470461,31.233433],[121.470934,31.233741]]]}},{"id":"12","type":"Feature","properties":{"gml_id":"layer_travel_pg.41","Name":"市第一百货商店","fclass":"attraction","__source_file__":"19-其它/13-历史版本数据/2021.08/上海市_旅游胜地区域.shp"},"geometry":{"type":"Polygon","coordinates":[[[121.470496,31.237387],[121.470647,31.236894],[121.470134,31.236779],[121.469984,31.237272],[121.470496,31.237387]]]}},{"id":"1","type":"Feature","properties":{"gml_id":"layer_travel_pg.3","Name":"英国驻上海总领事馆","fclass":"attraction","__source_file__":"19-其它/13-历史版本数据/2021.08/上海市_旅游胜地区域.shp"},"geometry":{"type":"Polygon","coordinates":[[[121.483884,31.244602],[121.483933,31.244709],[121.48405,31.244964],[121.484068,31.245004],[121.484351,31.245095],[121.484554,31.244979],[121.484617,31.244918],[121.485043,31.244468],[121.485293,31.244118],[121.485489,31.243775],[121.483836,31.243626],[121.483682,31.24458],[121.483884,31.244602]]]}},{"id":"20","type":"Feature","properties":{"gml_id":"layer_travel_pg.177","Name":"原新天安堂","fclass":"attraction","__source_file__":"19-其它/13-历史版本数据/2021.08/上海市_旅游胜地区域.shp"},"geometry":{"type":"Polygon","coordinates":[[[121.483645,31.24494],[121.483661,31.245029],[121.483688,31.245115],[121.483715,31.245202],[121.483775,31.245298],[121.484203,31.24515],[121.484351,31.245095],[121.484068,31.245004],[121.48405,31.244964],[121.483933,31.244709],[121.483884,31.244602],[121.483682,31.24458],[121.483649,31.244801],[121.483642,31.244871],[121.483645,31.24494]]]}},{"id":"2","type":"Feature","properties":{"gml_id":"layer_travel_pg.4","Name":"俄罗斯领事馆","fclass":"attraction","__source_file__":"19-其它/13-历史版本数据/2021.08/上海市_旅游胜地区域.shp"},"geometry":{"type":"Polygon","coordinates":[[[121.486209,31.245878],[121.486643,31.245845],[121.486627,31.245631],[121.486486,31.245645],[121.486486,31.245668],[121.486326,31.245694],[121.48624,31.245692],[121.486188,31.245717],[121.486209,31.245878]]]}},{"id":"14","type":"Feature","properties":{"gml_id":"layer_travel_pg.44","Name":"豫园商城 Yuyuan Tourist Mart","fclass":"attraction","__source_file__":"19-其它/13-历史版本数据/2021.08/上海市_旅游胜地区域.shp"},"geometry":{"type":"Polygon","coordinates":[[[121.486176,31.229754],[121.487016,31.229759],[121.487022,31.229508],[121.487067,31.2294],[121.487121,31.229273],[121.487221,31.229006],[121.487242,31.228952],[121.487344,31.22898],[121.487545,31.229031],[121.487594,31.229006],[121.487622,31.228952],[121.487115,31.228887],[121.48718319468999,31.2285011616224],[121.48647684307407,31.228002365803032],[121.486142,31.229678],[121.486176,31.229754]]]}},{"id":"5","type":"Feature","properties":{"gml_id":"layer_travel_pg.24","Name":"豫园 Yuyuan Garden","fclass":"attraction","__source_file__":"19-其它/13-历史版本数据/2021.08/上海市_旅游胜地区域.shp"},"geometry":{"type":"Polygon","coordinates":[[[121.487187,31.229762],[121.487871,31.229774],[121.488123,31.229779],[121.48822581330576,31.22938243439207],[121.48764140934554,31.228878392180395],[121.487631,31.228934],[121.487622,31.228952],[121.487594,31.229006],[121.487545,31.229031],[121.487344,31.22898],[121.487242,31.228952],[121.487221,31.229006],[121.487121,31.229273],[121.487067,31.2294],[121.487022,31.229508],[121.487016,31.229759],[121.487187,31.229762]]]}},{"id":"21","type":"Feature","properties":{"gml_id":"layer_travel_pg.178","Name":"外滩 The Bund","fclass":"attraction","__source_file__":"19-其它/13-历史版本数据/2021.08/上海市_旅游胜地区域.shp"},"geometry":{"type":"MultiPolygon","coordinates":[[[[121.48563,31.244717],[121.485651,31.244801],[121.485703,31.244813],[121.485845,31.244767],[121.485858,31.24482],[121.486419,31.244612],[121.486599,31.244548],[121.486633,31.244532],[121.486605,31.244449],[121.486583,31.244367],[121.486578,31.244294],[121.486661,31.244291],[121.486671,31.244327],[121.486702,31.244377],[121.48674,31.244425],[121.486807,31.244462],[121.486878,31.244494],[121.486955,31.244498],[121.487032,31.24449],[121.487097,31.244469],[121.487161,31.244427],[121.487211,31.244373],[121.487246,31.244306],[121.487254,31.244236],[121.487239,31.244163],[121.487214,31.244107],[121.487177,31.244065],[121.487072,31.243998],[121.487,31.243984],[121.486913,31.24399],[121.486822,31.244007],[121.486774,31.243957],[121.486868,31.243901],[121.487033,31.24385],[121.486732,31.243134],[121.486648,31.242883],[121.486602,31.242693],[121.486441,31.242129],[121.486347,31.241576],[121.486314,31.241232],[121.486268,31.240285],[121.486323,31.23945],[121.486423,31.238737],[121.486606,31.238081],[121.486863,31.237461],[121.48721,31.236765],[121.487503,31.236234],[121.488064,31.235375],[121.488441,31.234891],[121.488549,31.234771],[121.488516,31.234747],[121.488568,31.234696],[121.48859,31.234674],[121.48861,31.234654],[121.488671,31.234593],[121.48869,31.234575],[121.488708,31.234557],[121.48881,31.234456],[121.488822,31.234445],[121.488879,31.234389],[121.48892,31.234349],[121.489125,31.234138],[121.489094,31.234117],[121.489786,31.233467],[121.490688,31.232734],[121.49124060179824,31.232314022633343],[121.49114329729451,31.232211503729932],[121.491001,31.232317],[121.490078,31.23306],[121.490059,31.233055],[121.489981,31.233018],[121.489954,31.233034],[121.489908,31.233007],[121.489659,31.233256],[121.489334,31.233598],[121.488583,31.234307],[121.488393,31.234483],[121.488147,31.234638],[121.487886,31.234894],[121.487886,31.234936],[121.488063,31.235091],[121.488167,31.234949],[121.488206,31.234981],[121.487895,31.235376],[121.487871,31.235367],[121.487678,31.235617],[121.487648,31.235601],[121.487594,31.235706],[121.48761,31.235715],[121.487433,31.236014],[121.487409,31.236004],[121.487356,31.236094],[121.487379,31.236105],[121.487302,31.236245],[121.487278,31.236236],[121.48712,31.236518],[121.487071,31.2365],[121.486849,31.236924],[121.486634,31.236848],[121.486352,31.237268],[121.486253,31.237449],[121.48617,31.237644],[121.486087,31.237917],[121.486025,31.238197],[121.486001,31.238378],[121.486218,31.238428],[121.486167,31.238672],[121.486103,31.239025],[121.486025,31.239671],[121.485827,31.239649],[121.485759,31.240089],[121.485819,31.240098],[121.485784,31.240313],[121.48573,31.240311],[121.485718,31.240396],[121.485773,31.240394],[121.485765,31.240561],[121.485701,31.240561],[121.485694,31.240731],[121.485679,31.241075],[121.485754,31.241077],[121.485773,31.241247],[121.485703,31.241258],[121.485714,31.241327],[121.48578,31.241318],[121.485805,31.241458],[121.485725,31.241474],[121.485929,31.242506],[121.485996,31.242531],[121.486054,31.242524],[121.4861,31.242481],[121.48613,31.242586],[121.486135,31.2426],[121.486094,31.242604],[121.486014,31.242613],[121.485985,31.242634],[121.48597,31.242673],[121.485978,31.24277],[121.485981,31.242818],[121.48599,31.242814],[121.486023,31.242799],[121.486098,31.242776],[121.486114,31.242767],[121.486147,31.242884],[121.486185,31.242972],[121.486149,31.243092],[121.486001,31.243576],[121.485932,31.24354],[121.485912,31.243528],[121.485894,31.243591],[121.485909,31.2436],[121.485973,31.243643],[121.485862,31.243946],[121.485819,31.24393],[121.485792,31.243997],[121.485842,31.244017],[121.485671,31.24457],[121.485623,31.24456],[121.485619,31.244653],[121.48563,31.244717]],[[121.485907,31.244022],[121.48644,31.24418],[121.486395,31.244281],[121.486454,31.244478],[121.486361,31.244517],[121.486394,31.244556],[121.48592,31.244724],[121.485882,31.244664],[121.48572,31.244609],[121.485907,31.244022]],[[121.486119,31.243334],[121.486171,31.24318],[121.486243,31.243009],[121.486307,31.243065],[121.486371,31.243102],[121.486414,31.243104],[121.486454,31.243043],[121.486512,31.243031],[121.486543,31.243079],[121.486607,31.243293],[121.486321,31.2438],[121.486049,31.243615],[121.486119,31.243334]],[[121.486166,31.241479],[121.486202,31.241722],[121.486237,31.241985],[121.486285,31.242203],[121.486368,31.242546],[121.486229,31.242563],[121.486111,31.242102],[121.486036,31.241717],[121.485986,31.241504],[121.486166,31.241479]],[[121.486382,31.23808],[121.486562,31.237644],[121.486739,31.237279],[121.48694,31.23686],[121.48699,31.236887],[121.486776,31.237302],[121.486596,31.237665],[121.486425,31.238096],[121.486302,31.238529],[121.486251,31.238509],[121.486382,31.23808]],[[121.486654,31.243411],[121.486791,31.24373],[121.48662,31.243835],[121.486521,31.243768],[121.486502,31.243693],[121.486654,31.243411]],[[121.485907,31.240109],[121.485987,31.240119],[121.485999,31.240513],[121.485891,31.240508],[121.485907,31.240109]],[[121.486122,31.239295],[121.486175,31.238905],[121.486205,31.238915],[121.486149,31.2393],[121.486094,31.239853],[121.486058,31.239853],[121.486122,31.239295]],[[121.486103,31.240437],[121.48613,31.241433],[121.4861,31.241245],[121.486079,31.240777],[121.486068,31.24044],[121.486103,31.240437]],[[121.486041,31.241057],[121.486043,31.241201],[121.485882,31.241229],[121.48588,31.241061],[121.486041,31.241057]],[[121.486272,31.242948],[121.48629,31.242924],[121.486323,31.242905],[121.486369,31.2429],[121.4864,31.242907],[121.486427,31.242924],[121.48644,31.242939],[121.486451,31.242965],[121.48645,31.242994],[121.486439,31.24302],[121.486418,31.243041],[121.486389,31.243055],[121.486357,31.243059],[121.486339,31.243057],[121.486308,31.243047],[121.486284,31.243028],[121.486273,31.243012],[121.486265,31.242985],[121.486272,31.242948]],[[121.486049,31.24127],[121.486063,31.241396],[121.485905,31.241442],[121.485881,31.241304],[121.486049,31.24127]],[[121.48606,31.239972],[121.486096,31.239974],[121.486084,31.240242],[121.486047,31.24024],[121.48606,31.239972]],[[121.486432,31.243805],[121.486571,31.243913],[121.486563,31.243925],[121.486502,31.243922],[121.486405,31.243853],[121.486432,31.243805]],[[121.48661,31.244168],[121.486674,31.244182],[121.486663,31.244246],[121.486596,31.244239],[121.48661,31.244168]],[[121.486731,31.243994],[121.486775,31.244038],[121.486722,31.244081],[121.486682,31.244056],[121.486731,31.243994]],[[121.489161,31.233887],[121.489179,31.233899],[121.489135,31.233944],[121.489117,31.23394],[121.489161,31.233887]]],[[[121.487495,31.23575],[121.487674,31.235453],[121.487843,31.235215],[121.487932,31.235107],[121.487779,31.234988],[121.487586,31.235218],[121.487406,31.235484],[121.487315,31.235667],[121.487495,31.23575]]]]}},{"id":"8","type":"Feature","properties":{"gml_id":"layer_travel_pg.27","Name":"东方明珠电视塔","fclass":"attraction","__source_file__":"19-其它/13-历史版本数据/2021.08/上海市_旅游胜地区域.shp"},"geometry":{"type":"Polygon","coordinates":[[[121.495128,31.241945],[121.495156,31.241981],[121.495196,31.242007],[121.495244,31.242019],[121.495294,31.242017],[121.49534,31.242001],[121.495377,31.241971],[121.4954,31.241933],[121.495406,31.24189],[121.495395,31.241849],[121.495367,31.241813],[121.495327,31.241787],[121.495279,31.241774],[121.495229,31.241776],[121.495183,31.241793],[121.495146,31.241822],[121.495123,31.241861],[121.495117,31.241903],[121.495128,31.241945]]]}},{"id":"37","type":"Feature","properties":{"gml_id":"layer_travel_pg.602","Name":"上海海洋水族馆","fclass":"attraction","__source_file__":"19-其它/13-历史版本数据/2021.08/上海市_旅游胜地区域.shp"},"geometry":{"type":"Polygon","coordinates":[[[121.49685603874703,31.24281186867141],[121.49679843192325,31.2425506273],[121.496664,31.242681],[121.49685603874703,31.24281186867141]]]}},{"id":"10","type":"Feature","properties":{"gml_id":"layer_travel_pg.38","Name":"人民英雄纪念塔","fclass":"attraction","__source_file__":"19-其它/13-历史版本数据/2021.08/上海市_旅游胜地区域.shp"},"geometry":{"type":"Polygon","coordinates":[[[121.486726,31.244337],[121.486767,31.244395],[121.486828,31.244439],[121.486903,31.244462],[121.486983,31.244463],[121.487058,31.244441],[121.487121,31.244399],[121.487164,31.244342],[121.487181,31.244275],[121.487172,31.244207],[121.487138,31.244146],[121.48708,31.244098],[121.487008,31.24407],[121.486929,31.244063],[121.486851,31.24408],[121.486803,31.244104],[121.486763,31.244137],[121.486733,31.244177],[121.486715,31.244222],[121.48671,31.24427],[121.486726,31.244337]]]}}],"name":"上海市_旅游胜地区域","crs":{"type":"name","properties":{"name":"urn:ogc:def:crs:OGC:1.3:CRS84"}}}