{"type":"FeatureCollection","features":[{"id":"59","type":"Feature","properties":{"gml_id":"layer_forest_pg.1407","Name":"音乐广场","fclass":"forest","__source_file__":"19-其它/13-历史版本数据/2021.08/上海市_森林.shp"},"geometry":{"type":"Polygon","coordinates":[[[121.471863,31.228879],[121.471885,31.228915],[121.47193,31.228961],[121.472081,31.229064],[121.472327,31.229241],[121.472759,31.229557],[121.473011,31.229762],[121.47314,31.229851],[121.473293,31.229933],[121.473655,31.230147],[121.473735,31.230181],[121.473786,31.230181],[121.473821,31.230174],[121.473853,31.230163],[121.473882,31.230131],[121.47441,31.229365],[121.474626,31.229025],[121.474835,31.228693],[121.474848,31.228658],[121.474837,31.228632],[121.474811,31.228608],[121.474698,31.228553],[121.474639,31.22853],[121.474339,31.228408],[121.473764,31.228187],[121.473448,31.228039],[121.473153,31.227904],[121.472982,31.227814],[121.472673,31.227648],[121.472595,31.227606],[121.472565,31.227609],[121.472522,31.227625],[121.472486,31.227663],[121.472469,31.227695],[121.472382,31.2279],[121.472339,31.227999],[121.472305,31.228088],[121.472198,31.228279],[121.471925,31.22872],[121.471871,31.228802],[121.47186,31.22885],[121.471863,31.228879]]]}},{"id":"380","type":"Feature","properties":{"gml_id":"layer_forest_pg.13709","Name":"大假山","fclass":"forest","__source_file__":"19-其它/13-历史版本数据/2021.08/上海市_森林.shp"},"geometry":{"type":"Polygon","coordinates":[[[121.487114,31.229653],[121.48717,31.229682],[121.487219,31.229682],[121.48724,31.229669],[121.48728,31.22963],[121.487307,31.229589],[121.487352,31.229595],[121.487381,31.229613],[121.487425,31.229617],[121.487455,31.229604],[121.487421,31.229582],[121.48737,31.229566],[121.487356,31.229511],[121.487378,31.229475],[121.487334,31.229446],[121.487287,31.229432],[121.48724,31.229462],[121.487208,31.229508],[121.487131,31.229554],[121.487114,31.229604],[121.487114,31.229653]]]}},{"id":"53","type":"Feature","properties":{"gml_id":"layer_forest_pg.1235","Name":null,"fclass":"forest","__source_file__":"19-其它/13-历史版本数据/2021.08/上海市_森林.shp"},"geometry":{"type":"Polygon","coordinates":[[[121.472819,31.230883],[121.472904,31.231025],[121.472878,31.231103],[121.472964,31.231406],[121.473099,31.231372],[121.473403,31.230768],[121.473232,31.23064],[121.473099,31.230514],[121.472617,31.230243],[121.472477,31.23039],[121.472819,31.230883]]]}},{"id":"54","type":"Feature","properties":{"gml_id":"layer_forest_pg.1236","Name":null,"fclass":"forest","__source_file__":"19-其它/13-历史版本数据/2021.08/上海市_森林.shp"},"geometry":{"type":"Polygon","coordinates":[[[121.471734,31.231317],[121.471757,31.231351],[121.471992,31.231461],[121.472033,31.231355],[121.472074,31.231326],[121.471724,31.230773],[121.471907,31.230626],[121.471858,31.230571],[121.47138,31.230785],[121.471734,31.231317]]]}},{"id":"72","type":"Feature","properties":{"gml_id":"layer_forest_pg.4779","Name":null,"fclass":"forest","__source_file__":"19-其它/13-历史版本数据/2021.08/上海市_森林.shp"},"geometry":{"type":"Polygon","coordinates":[[[121.477808,31.232343],[121.477925,31.232358],[121.478628,31.232616],[121.478732,31.232642],[121.478779,31.232609],[121.479237,31.231945],[121.479237,31.231889],[121.479202,31.231841],[121.47786,31.231192],[121.477256,31.232085],[121.477808,31.232343]]]}},{"id":"168","type":"Feature","properties":{"gml_id":"layer_forest_pg.9468","Name":null,"fclass":"forest","__source_file__":"19-其它/13-历史版本数据/2021.08/上海市_森林.shp"},"geometry":{"type":"Polygon","coordinates":[[[121.480769,31.23293],[121.480845,31.232925],[121.480942,31.232914],[121.48101,31.232903],[121.481088,31.232876],[121.481111,31.232849],[121.481085,31.232793],[121.481001,31.23272],[121.480896,31.232666],[121.480843,31.232685],[121.480808,31.232738],[121.480787,31.232807],[121.480772,31.232852],[121.480761,31.232888],[121.480759,31.232903],[121.480769,31.23293]]]}},{"id":"49","type":"Feature","properties":{"gml_id":"layer_forest_pg.1231","Name":null,"fclass":"forest","__source_file__":"19-其它/13-历史版本数据/2021.08/上海市_森林.shp"},"geometry":{"type":"Polygon","coordinates":[[[121.475149,31.236947],[121.475384,31.236972],[121.475447,31.236922],[121.475165,31.236862],[121.475137,31.236915],[121.475149,31.236947]]]}},{"id":"47","type":"Feature","properties":{"gml_id":"layer_forest_pg.1229","Name":null,"fclass":"forest","__source_file__":"19-其它/13-历史版本数据/2021.08/上海市_森林.shp"},"geometry":{"type":"Polygon","coordinates":[[[121.47555,31.237184],[121.475619,31.237281],[121.475625,31.23731],[121.475715,31.237319],[121.475916,31.237312],[121.475978,31.237302],[121.476029,31.237174],[121.475499,31.236991],[121.475454,31.237094],[121.47555,31.237184]]]}},{"id":"48","type":"Feature","properties":{"gml_id":"layer_forest_pg.1230","Name":null,"fclass":"forest","__source_file__":"19-其它/13-历史版本数据/2021.08/上海市_森林.shp"},"geometry":{"type":"Polygon","coordinates":[[[121.474421,31.237472],[121.47463,31.237465],[121.474761,31.237511],[121.474854,31.237486],[121.474811,31.237406],[121.47469,31.237408],[121.474644,31.237438],[121.474478,31.237334],[121.474481,31.237302],[121.474524,31.237295],[121.474594,31.237245],[121.474669,31.237284],[121.474788,31.237201],[121.474828,31.237224],[121.474883,31.237197],[121.474969,31.237137],[121.474993,31.237062],[121.475082,31.237045],[121.475071,31.236926],[121.475015,31.236908],[121.474574,31.237139],[121.474468,31.237273],[121.474395,31.237277],[121.474349,31.23738],[121.474421,31.237472]]]}},{"id":"5","type":"Feature","properties":{"gml_id":"layer_forest_pg.111","Name":"四川北路公园","fclass":"forest","__source_file__":"19-其它/13-历史版本数据/2021.08/上海市_森林.shp"},"geometry":{"type":"Polygon","coordinates":[[[121.479596,31.256874],[121.479631,31.256916],[121.479645,31.25697],[121.479653,31.257017],[121.479645,31.257068],[121.479413,31.257419],[121.480602,31.258296],[121.480672,31.2583],[121.480742,31.258266],[121.481081,31.257824],[121.481247,31.257559],[121.481354,31.257306],[121.481395,31.257076],[121.481362,31.256867],[121.481273,31.25664],[121.481139,31.256436],[121.480516,31.255792],[121.48021,31.255517],[121.480023,31.255391],[121.479823,31.255306],[121.479688,31.25531],[121.479619,31.255398],[121.479437,31.256013],[121.479138,31.256643],[121.479596,31.256874]]]}},{"id":"225","type":"Feature","properties":{"gml_id":"layer_forest_pg.11853","Name":"延中广场公园","fclass":"forest","__source_file__":"19-其它/13-历史版本数据/2021.08/上海市_森林.shp"},"geometry":{"type":"Polygon","coordinates":[[[121.471496,31.228752],[121.47222,31.227216],[121.469382,31.226271],[121.468781,31.227707],[121.471496,31.228752]]]}},{"id":"51","type":"Feature","properties":{"gml_id":"layer_forest_pg.1233","Name":null,"fclass":"forest","__source_file__":"19-其它/13-历史版本数据/2021.08/上海市_森林.shp"},"geometry":{"type":"Polygon","coordinates":[[[121.467457,31.229975],[121.467731,31.230043],[121.467787,31.230096],[121.468068,31.230135],[121.468374,31.229956],[121.468471,31.230131],[121.468519,31.230167],[121.468661,31.230122],[121.468658,31.230053],[121.468522,31.229933],[121.468584,31.229874],[121.468527,31.229791],[121.468608,31.229782],[121.468785,31.229954],[121.468935,31.229865],[121.469136,31.229876],[121.469243,31.229826],[121.469485,31.229904],[121.469581,31.229947],[121.46953,31.23],[121.469584,31.230016],[121.469715,31.230025],[121.469721,31.230115],[121.469796,31.230232],[121.469884,31.230213],[121.469876,31.230124],[121.469959,31.230135],[121.469962,31.230255],[121.469935,31.230342],[121.469761,31.230346],[121.469702,31.230518],[121.469742,31.23055],[121.469847,31.230438],[121.469882,31.230493],[121.47012,31.230245],[121.470182,31.230149],[121.470112,31.230098],[121.470155,31.230057],[121.470219,31.230071],[121.47024,31.230003],[121.470177,31.229995],[121.470214,31.229904],[121.470256,31.229897],[121.470341,31.229474],[121.470339,31.229422],[121.470341,31.229383],[121.470206,31.229319],[121.47011,31.229313],[121.470058,31.22936],[121.470035,31.2295],[121.469935,31.22947],[121.469395,31.229534],[121.469356,31.229557],[121.469331,31.229507],[121.469179,31.229504],[121.469108,31.229544],[121.469035,31.229662],[121.468849,31.229661],[121.468829,31.229583],[121.468782,31.229582],[121.468672,31.229768],[121.468551,31.229713],[121.468526,31.229599],[121.467838,31.229711],[121.467803,31.229865],[121.467731,31.229883],[121.467513,31.229732],[121.467395,31.229826],[121.467457,31.229975]]]}},{"id":"52","type":"Feature","properties":{"gml_id":"layer_forest_pg.1234","Name":null,"fclass":"forest","__source_file__":"19-其它/13-历史版本数据/2021.08/上海市_森林.shp"},"geometry":{"type":"Polygon","coordinates":[[[121.471606,31.231653],[121.471842,31.231663],[121.471762,31.23142],[121.471515,31.2313],[121.471342,31.231461],[121.471606,31.231653]]]}},{"id":"50","type":"Feature","properties":{"gml_id":"layer_forest_pg.1232","Name":null,"fclass":"forest","__source_file__":"19-其它/13-历史版本数据/2021.08/上海市_森林.shp"},"geometry":{"type":"MultiPolygon","coordinates":[[[[121.467455,31.233671],[121.46755,31.233622],[121.467625,31.23355],[121.467735,31.23364],[121.467856,31.233605],[121.46796,31.233463],[121.46792,31.233413],[121.467792,31.233383],[121.467754,31.233365],[121.467695,31.233389],[121.467657,31.233479],[121.467429,31.233537],[121.467401,31.233547],[121.467362,31.23358],[121.467455,31.233671]]],[[[121.466703,31.233748],[121.466783,31.233947],[121.467008,31.234142],[121.466976,31.233984],[121.466939,31.233915],[121.466837,31.233865],[121.466764,31.233695],[121.466695,31.233688],[121.466703,31.233748]]]]}},{"id":"100","type":"Feature","properties":{"gml_id":"layer_forest_pg.8255","Name":null,"fclass":"forest","__source_file__":"19-其它/13-历史版本数据/2021.08/上海市_森林.shp"},"geometry":{"type":"Polygon","coordinates":[[[121.435524,31.255322],[121.435679,31.255354],[121.435821,31.255388],[121.435987,31.255452],[121.436137,31.255497],[121.436209,31.255549],[121.436311,31.25566],[121.436378,31.255732],[121.436385,31.255871],[121.436295,31.256093],[121.436284,31.256168],[121.43633,31.256218],[121.436427,31.256243],[121.4365,31.256236],[121.436559,31.25614],[121.436617,31.255957],[121.436695,31.255717],[121.436718,31.255622],[121.436709,31.255556],[121.436621,31.255524],[121.436475,31.255492],[121.436278,31.255459],[121.436311,31.25528],[121.436196,31.255227],[121.43609,31.25523],[121.435516,31.25527],[121.435524,31.255322]]]}},{"id":"249","type":"Feature","properties":{"gml_id":"layer_forest_pg.12592","Name":null,"fclass":"forest","__source_file__":"19-其它/13-历史版本数据/2021.08/上海市_森林.shp"},"geometry":{"type":"Polygon","coordinates":[[[121.454671,31.271932],[121.454662,31.272027],[121.454722,31.272134],[121.454843,31.272174],[121.454988,31.272108],[121.45504,31.272005],[121.455152,31.271954],[121.455251,31.271833],[121.455276,31.271704],[121.455148,31.271561],[121.454976,31.271469],[121.454838,31.271461],[121.454722,31.271579],[121.454636,31.271704],[121.454585,31.271825],[121.454671,31.271932]]]}},{"id":"10","type":"Feature","properties":{"gml_id":"layer_forest_pg.118","Name":"闸北公园","fclass":"forest","__source_file__":"19-其它/13-历史版本数据/2021.08/上海市_森林.shp"},"geometry":{"type":"Polygon","coordinates":[[[121.453508,31.272841],[121.454077,31.273162],[121.45427,31.273144],[121.454635,31.272878],[121.454838,31.272869],[121.456362,31.273566],[121.457885,31.274345],[121.458819,31.273006],[121.458282,31.272704],[121.458186,31.272841],[121.456845,31.272062],[121.454517,31.270769],[121.454603,31.270659],[121.454066,31.270384],[121.453465,31.2702],[121.452199,31.272108],[121.453508,31.272841]]]}},{"id":"250","type":"Feature","properties":{"gml_id":"layer_forest_pg.12593","Name":null,"fclass":"forest","__source_file__":"19-其它/13-历史版本数据/2021.08/上海市_森林.shp"},"geometry":{"type":"Polygon","coordinates":[[[121.454069,31.272354],[121.454236,31.272449],[121.454258,31.272571],[121.454404,31.272648],[121.454606,31.272652],[121.454718,31.2726],[121.45483,31.272428],[121.454894,31.272314],[121.454812,31.272236],[121.454666,31.272174],[121.454555,31.272108],[121.454555,31.271998],[121.454477,31.271935],[121.454366,31.27195],[121.454258,31.271965],[121.454185,31.272086],[121.454056,31.272207],[121.454069,31.272354]]]}},{"id":"239","type":"Feature","properties":{"gml_id":"layer_forest_pg.12582","Name":"大宁灵石公园","fclass":"forest","__source_file__":"19-其它/13-历史版本数据/2021.08/上海市_森林.shp"},"geometry":{"type":"Polygon","coordinates":[[[121.442566,31.276592],[121.442439,31.276424],[121.442295,31.275993],[121.442212,31.27591],[121.442093,31.275879],[121.44066,31.275798],[121.44065112489871,31.275933662262513],[121.44245935009069,31.276629409481853],[121.44266234451791,31.276687787613184],[121.442566,31.276592]]]}},{"id":"246","type":"Feature","properties":{"gml_id":"layer_forest_pg.12589","Name":null,"fclass":"forest","__source_file__":"19-其它/13-历史版本数据/2021.08/上海市_森林.shp"},"geometry":{"type":"Polygon","coordinates":[[[121.477445,31.271869],[121.477542,31.271914],[121.477598,31.271899],[121.477639,31.271826],[121.47759,31.271755],[121.477482,31.271747],[121.477422,31.27177],[121.477383,31.271814],[121.477445,31.271869]]]}},{"id":"213","type":"Feature","properties":{"gml_id":"layer_forest_pg.11822","Name":"鲁迅公园","fclass":"forest","__source_file__":"19-其它/13-历史版本数据/2021.08/上海市_森林.shp"},"geometry":{"type":"Polygon","coordinates":[[[121.475561,31.271882],[121.475728,31.272162],[121.476172,31.272018],[121.47625,31.272249],[121.476818,31.27229],[121.477123,31.272411],[121.47734,31.272556],[121.477481,31.272701],[121.477587,31.272878],[121.477682,31.273139],[121.4777,31.273338],[121.47767,31.27351],[121.477517,31.273838],[121.4773,31.27406],[121.477183,31.274301],[121.477497,31.274825],[121.477879,31.274702],[121.478065,31.275183],[121.478423,31.275221],[121.478797,31.275246],[121.478739,31.27598],[121.47887,31.276514],[121.47887619573032,31.276552485017163],[121.4800367209132,31.27602607984905],[121.48002,31.275997],[121.480004,31.275931],[121.480017,31.275891],[121.480018,31.275848],[121.480042,31.27581],[121.48002,31.275777],[121.480043,31.275748],[121.480004,31.275658],[121.479956,31.275623],[121.479913,31.275583],[121.479889,31.275519],[121.479839,31.275461],[121.479765,31.27543],[121.47968,31.275412],[121.47961,31.275372],[121.479566,31.275199],[121.479512,31.275006],[121.479567,31.274959],[121.479634,31.275033],[121.479715,31.275107],[121.479789,31.275131],[121.479851,31.275096],[121.479882,31.275059],[121.479864,31.274953],[121.479854,31.274868],[121.479776,31.274817],[121.479755,31.27474],[121.479702,31.274595],[121.47964,31.274576],[121.479672,31.274502],[121.479713,31.274404],[121.479705,31.274357],[121.479663,31.274352],[121.479625,31.274314],[121.47956,31.274291],[121.479511,31.274277],[121.479443,31.274245],[121.479386,31.274245],[121.479345,31.274284],[121.47927,31.27435],[121.47925,31.27433],[121.479212,31.274345],[121.479161,31.274411],[121.479155,31.274447],[121.479176,31.274457],[121.479222,31.27446],[121.479224,31.274486],[121.479187,31.274502],[121.479207,31.274537],[121.479253,31.274549],[121.479288,31.274603],[121.479249,31.274647],[121.479207,31.27467],[121.479179,31.274626],[121.479162,31.274571],[121.479118,31.274508],[121.479047,31.274473],[121.478934,31.27446],[121.478791,31.274407],[121.478728,31.274322],[121.478733,31.274218],[121.478833,31.274047],[121.478927,31.274041],[121.478936,31.273975],[121.478898,31.273902],[121.478826,31.273882],[121.478779,31.273905],[121.478744,31.273899],[121.478694,31.273821],[121.478756,31.273701],[121.478767,31.273599],[121.478745,31.273543],[121.478745,31.273459],[121.478663,31.273444],[121.478642,31.273387],[121.478648,31.273275],[121.478716,31.273182],[121.478805,31.27308],[121.478806,31.273015],[121.478734,31.272966],[121.478733,31.272845],[121.478657,31.27277],[121.478812,31.272767],[121.478885,31.272754],[121.478896,31.272642],[121.478896,31.272556],[121.478923,31.272478],[121.478914,31.272417],[121.478878,31.27236],[121.478869,31.272271],[121.478841,31.272183],[121.478761,31.272126],[121.478688,31.272066],[121.478694,31.271986],[121.478674,31.271892],[121.478619,31.271864],[121.478503,31.271861],[121.47841,31.271858],[121.478308,31.271879],[121.478212,31.271933],[121.478133,31.271941],[121.478045,31.271926],[121.477966,31.271935],[121.477895,31.27193],[121.477809,31.271937],[121.477762,31.271966],[121.477721,31.272036],[121.477707,31.272087],[121.477661,31.272119],[121.477667,31.272245],[121.477743,31.272303],[121.477788,31.272364],[121.477847,31.272363],[121.477878,31.272351],[121.477978,31.272375],[121.478065,31.272395],[121.478055,31.272431],[121.478066,31.272471],[121.47812,31.272512],[121.478086,31.272554],[121.478005,31.272568],[121.477868,31.272618],[121.477784,31.272615],[121.477704,31.272566],[121.477645,31.272495],[121.477661,31.272424],[121.477667,31.272368],[121.47763,31.272284],[121.477561,31.272174],[121.477492,31.272117],[121.477444,31.272101],[121.477348,31.272063],[121.477352,31.272036],[121.477328,31.271998],[121.477294,31.271939],[121.477218,31.27188],[121.477098,31.271833],[121.477062,31.271771],[121.477064,31.271695],[121.477119,31.271701],[121.477186,31.271545],[121.477086,31.271509],[121.477106,31.271465],[121.47714,31.271478],[121.477183,31.271457],[121.477205,31.271414],[121.47713,31.271366],[121.477081,31.271378],[121.477064,31.271332],[121.477104,31.271282],[121.477213,31.271363],[121.477304,31.271394],[121.477385,31.271397],[121.477464,31.271385],[121.477546,31.271358],[121.477609,31.271356],[121.477652,31.271397],[121.477669,31.271468],[121.477677,31.271538],[121.4777,31.271593],[121.477644,31.271616],[121.477627,31.271662],[121.47765,31.271704],[121.477709,31.271746],[121.477726,31.271819],[121.477728,31.271888],[121.477847,31.271887],[121.477982,31.271856],[121.478131,31.271839],[121.47821,31.271832],[121.478309,31.271833],[121.478431,31.271815],[121.478574,31.271821],[121.478702,31.271828],[121.478788,31.271859],[121.478825,31.271948],[121.47888,31.27206],[121.478946,31.27216],[121.478969,31.272282],[121.478982,31.272407],[121.478964,31.272522],[121.478948,31.272599],[121.478982,31.272645],[121.479015,31.272712],[121.479027,31.272789],[121.479016,31.272833],[121.479046,31.272865],[121.479098,31.272872],[121.479076,31.272917],[121.479135,31.272939],[121.479142,31.272999],[121.479103,31.273004],[121.479079,31.273035],[121.479096,31.27306],[121.479145,31.273056],[121.479139,31.27311],[121.479116,31.273129],[121.479107,31.273181],[121.479125,31.273205],[121.479154,31.273206],[121.47919,31.273184],[121.479233,31.273178],[121.479288,31.273186],[121.479297,31.273218],[121.479274,31.273243],[121.479234,31.273256],[121.479213,31.273338],[121.479048,31.273366],[121.479088,31.27353],[121.478992,31.273558],[121.478899,31.273637],[121.478893,31.273651],[121.478959,31.273651],[121.478994,31.2737],[121.478997,31.273718],[121.479063,31.273775],[121.479045,31.273821],[121.479119,31.273875],[121.479211,31.273894],[121.479294,31.273887],[121.479418,31.273911],[121.479554,31.273952],[121.479666,31.27396],[121.479758,31.273913],[121.479846,31.2739],[121.479921,31.273912],[121.479952,31.273944],[121.479949,31.274005],[121.479971,31.274062],[121.480044,31.274144],[121.480122,31.274193],[121.480198,31.274175],[121.48025,31.274199],[121.480323,31.274248],[121.48039,31.274324],[121.480435,31.274362],[121.480464,31.274421],[121.480467,31.274474],[121.480442,31.274551],[121.480411,31.274629],[121.480452,31.274701],[121.480518,31.274876],[121.480523,31.274972],[121.480504,31.275053],[121.480547,31.275171],[121.480548,31.275265],[121.48055,31.275347],[121.480598,31.275389],[121.480641,31.27542],[121.480647,31.275485],[121.480667,31.27558],[121.480632,31.275588],[121.480663,31.275665],[121.480681,31.275724],[121.48068704599109,31.275731097467794],[121.48101819033857,31.275580892975483],[121.48130544377703,31.27541821235008],[121.481106,31.275348],[121.480968,31.27525],[121.48082,31.275207],[121.480761,31.274861],[121.48087,31.274576],[121.480961,31.274369],[121.480583,31.274178],[121.480434,31.273473],[121.48038,31.273412],[121.480276,31.273333],[121.480224,31.273251],[121.479483,31.27015],[121.478168,31.270378],[121.477591,31.270509],[121.477069,31.270708],[121.476364,31.271034],[121.475445,31.271562],[121.475323,31.271993],[121.475561,31.271882]]]}},{"id":"247","type":"Feature","properties":{"gml_id":"layer_forest_pg.12590","Name":null,"fclass":"forest","__source_file__":"19-其它/13-历史版本数据/2021.08/上海市_森林.shp"},"geometry":{"type":"Polygon","coordinates":[[[121.480077,31.274573],[121.480145,31.274573],[121.480268,31.274561],[121.480381,31.274491],[121.480386,31.274406],[121.480295,31.274352],[121.480199,31.274344],[121.480077,31.274375],[121.480027,31.27448],[121.480077,31.274573]]]}}],"name":"上海市_森林","crs":{"type":"name","properties":{"name":"urn:ogc:def:crs:OGC:1.3:CRS84"}}}