{"type":"FeatureCollection","features":[{"id":"58","type":"Feature","properties":{"gml_id":"layer_traffic_police_pt.8807","Name":"上海市公安局静安分局出入境接待大厅","pyname":"shsgajjafjcrjjddt","kind":"7100","zipcode":null,"telephone":null,"display_x":"121.44816","display_y":"31.22461","side":"L","address":"南京西路1566","__source_file__":"19-其它/13-历史版本数据/2021.08/上海市_公安交警.shp"},"geometry":{"type":"Point","coordinates":[121.44359304,31.22651867]}},{"id":"78","type":"Feature","properties":{"gml_id":"layer_traffic_police_pt.8827","Name":"上海市公安局静安分局人口办","pyname":"shsgajjafjrkb","kind":"7100","zipcode":null,"telephone":null,"display_x":"121.4415","display_y":"31.23003","side":"R","address":"武定路1088号阳光科技广场14层A","__source_file__":"19-其它/13-历史版本数据/2021.08/上海市_公安交警.shp"},"geometry":{"type":"Point","coordinates":[121.43691864,31.23192465]}},{"id":"76","type":"Feature","properties":{"gml_id":"layer_traffic_police_pt.8825","Name":"上海市公安局户口政策咨询接待室","pyname":"shsgajhkzczxjds","kind":"7100","zipcode":null,"telephone":null,"display_x":"121.48596","display_y":"31.23566","side":"R","address":"河南中路280弄内","__source_file__":"19-其它/13-历史版本数据/2021.08/上海市_公安交警.shp"},"geometry":{"type":"Point","coordinates":[121.48159842,31.23768546]}},{"id":"49","type":"Feature","properties":{"gml_id":"layer_traffic_police_pt.8798","Name":"尚品红烧牛肉面","pyname":"sphsnrm","kind":"7100","zipcode":null,"telephone":"021-63803970","display_x":"121.46307","display_y":"31.24587","side":"R","address":"天目中路707","__source_file__":"19-其它/13-历史版本数据/2021.08/上海市_公安交警.shp"},"geometry":{"type":"Point","coordinates":[121.4586459,31.24784466]}},{"id":"5","type":"Feature","properties":{"gml_id":"layer_traffic_police_pt.8748","Name":"上海铁路公安局上海公安处上海车站公安段","pyname":"shtlgajshgacshczgad","kind":"7100","zipcode":null,"telephone":null,"display_x":"121.45301","display_y":"31.24983","side":"R","address":"秣陵路333","__source_file__":"19-其它/13-历史版本数据/2021.08/上海市_公安交警.shp"},"geometry":{"type":"Point","coordinates":[121.448556,31.25178149]}},{"id":"20","type":"Feature","properties":{"gml_id":"layer_traffic_police_pt.8766","Name":"上海市公安局铁路公安处","pyname":"shsgajtlgac","kind":"7100","zipcode":null,"telephone":"021-51003500","display_x":"121.47038","display_y":"31.25036","side":"L","address":"虬江路1168号","__source_file__":"19-其它/13-历史版本数据/2021.08/上海市_公安交警.shp"},"geometry":{"type":"Point","coordinates":[121.4660115,31.25236307]}},{"id":"90","type":"Feature","properties":{"gml_id":"layer_traffic_police_pt.8839","Name":"上海铁路公安局上海公安处","pyname":"shtlgajshgac","kind":"7100","zipcode":null,"telephone":null,"display_x":"121.47038","display_y":"31.25036","side":"L","address":"虬江路1168号","__source_file__":"19-其它/13-历史版本数据/2021.08/上海市_公安交警.shp"},"geometry":{"type":"Point","coordinates":[121.4660115,31.25236307]}}],"name":"上海市_公安交警","crs":{"type":"name","properties":{"name":"urn:ogc:def:crs:OGC:1.3:CRS84"}}}