{"type":"FeatureCollection","features":[{"id":"7","type":"Feature","properties":{"gml_id":"layer_grade9road_pl.97769","Name":"北宝兴路","pyname":"bbxl","mapid":"466173","id":"6874156","kind_num":"1","kind":"090a","width":"30","direction":"2","toll":"2","const_st":"1","undconcrid":null,"snodeid":"6089132","enodeid":"6101521","funcclass":"5","length":"0.175","detailcity":"1","through":"0","unthrucrid":null,"ownership":"0","road_cond":"1","special":"0","admincodel":"310109","admincoder":"310108","uflag":"1","onewaycrid":null,"accesscrid":null,"speedclass":"7","lanenums2e":"1","lanenume2s":null,"lanenum":"1","vehcl_type":"11110001110000000000000000000000","elevated":"0","structure":"0","usefeecrid":null,"usefeetype":null,"spdlmts2e":"150","spdlmte2s":null,"spdsrcs2e":null,"spdsrce2s":null,"dc_type":"1","nopasscrid":null,"__source_file__":"19-其它/13-历史版本数据/2021.08/上海市_九级路.shp"},"geometry":{"type":"LineString","coordinates":[[121.4606088,31.27578534],[121.46099328,31.27530789],[121.46104386,31.27523828],[121.4614485,31.27471106],[121.46157,31.27454195],[121.46161032,31.2745221],[121.46166072,31.2745023]]}},{"id":"8","type":"Feature","properties":{"gml_id":"layer_grade9road_pl.97770","Name":"株洲路","pyname":"zzl","mapid":"466173","id":"6874157","kind_num":"1","kind":"0904","width":"30","direction":"1","toll":"2","const_st":"1","undconcrid":null,"snodeid":"6101520","enodeid":"6089132","funcclass":"5","length":"0.006","detailcity":"1","through":"0","unthrucrid":null,"ownership":"0","road_cond":"1","special":"0","admincodel":"310109","admincoder":"310109","uflag":"1","onewaycrid":null,"accesscrid":null,"speedclass":"7","lanenums2e":"1","lanenume2s":"1","lanenum":"1","vehcl_type":"11110001110000000000000000000000","elevated":"0","structure":"0","usefeecrid":null,"usefeetype":null,"spdlmts2e":"150","spdlmte2s":"150","spdsrcs2e":null,"spdsrce2s":null,"dc_type":"1","nopasscrid":null,"__source_file__":"19-其它/13-历史版本数据/2021.08/上海市_九级路.shp"},"geometry":{"type":"LineString","coordinates":[[121.46065902,31.27581536],[121.4606088,31.27578534]]}},{"id":"6","type":"Feature","properties":{"gml_id":"layer_grade9road_pl.97768","Name":"北宝兴路","pyname":"bbxl","mapid":"466173","id":"6874155","kind_num":"1","kind":"090a","width":"30","direction":"2","toll":"2","const_st":"1","undconcrid":null,"snodeid":"6094612","enodeid":"6089132","funcclass":"5","length":"0.179","detailcity":"1","through":"0","unthrucrid":null,"ownership":"0","road_cond":"1","special":"0","admincodel":"310109","admincoder":"310108","uflag":"1","onewaycrid":null,"accesscrid":null,"speedclass":"7","lanenums2e":"1","lanenume2s":null,"lanenum":"1","vehcl_type":"11110001110000000000000000000000","elevated":"0","structure":"0","usefeecrid":null,"usefeetype":null,"spdlmts2e":"150","spdlmte2s":null,"spdsrcs2e":null,"spdsrce2s":null,"dc_type":"1","nopasscrid":null,"__source_file__":"19-其它/13-历史版本数据/2021.08/上海市_九级路.shp"},"geometry":{"type":"LineString","coordinates":[[121.45931676,31.27692803],[121.45934718,31.27688825],[121.4593974,31.27686845],[121.4595585,31.27680914],[121.4596089,31.27677935],[121.45974012,31.27668003],[121.4601336,31.27635221],[121.46033574,31.27614341],[121.4606088,31.27578534]]}}],"name":"上海市_九级路","crs":{"type":"name","properties":{"name":"urn:ogc:def:crs:OGC:1.3:CRS84"}}}