{"type":"FeatureCollection","features":[{"id":"1071","type":"Feature","properties":{"osm_id":513577038.0,"name":"上海地铁8号线","type":"subway","__source_file__":"19-其它/13-历史版本数据/2021.08/上海市_地铁线.shp"},"geometry":{"type":"LineString","coordinates":[[121.4669849,31.2436044],[121.4671064,31.2430746],[121.4673122,31.2426076],[121.4680641,31.2415816],[121.4683549,31.241076],[121.4687863,31.2401238],[121.4696715,31.2365976],[121.4697737,31.2362007],[121.469871,31.2359301],[121.4699263,31.2358106],[121.4699945,31.2356947],[121.4710582,31.2341272],[121.4715276,31.2334084],[121.471879,31.2330279],[121.4736741,31.2310843],[121.473894,31.2307885],[121.4749042,31.2291352],[121.4755613,31.228009],[121.4759791,31.2272579],[121.4764075,31.2261224],[121.4768257,31.2251615],[121.476901,31.2244281],[121.4772133,31.2225031],[121.47726662144566,31.2224286371768]]}},{"id":"608","type":"Feature","properties":{"osm_id":169026109.0,"name":"上海地铁8号线","type":"subway","__source_file__":"19-其它/13-历史版本数据/2021.08/上海市_地铁线.shp"},"geometry":{"type":"LineString","coordinates":[[121.4773175407424,31.222452098962105],[121.4772689,31.2225201],[121.4769585,31.2244337],[121.4768826,31.2251725],[121.4764621,31.2261386],[121.4760329,31.2272762],[121.4756133,31.2280307],[121.474956,31.2291572],[121.4739338,31.2308177],[121.4737221,31.2311099],[121.4715986,31.2334565],[121.4711371,31.2341554],[121.4700726,31.2357367],[121.4700113,31.2358422],[121.4699586,31.2359551],[121.4698621,31.2362208],[121.4697589,31.2366],[121.4688409,31.2401401],[121.4684079,31.2410959],[121.4681147,31.2416057],[121.4673643,31.2426297],[121.4671622,31.2430882],[121.4670423,31.2436112]]}},{"id":"1604","type":"Feature","properties":{"osm_id":966464272.0,"name":"上海地铁12号线","type":"subway","__source_file__":"19-其它/13-历史版本数据/2021.08/上海市_地铁线.shp"},"geometry":{"type":"LineString","coordinates":[[121.4675778,31.244436],[121.4718335,31.24504],[121.4760672,31.2454419],[121.4763757,31.2454702],[121.4767177,31.2455127],[121.4770356,31.2455685],[121.47734,31.2456185],[121.4776154,31.2456718],[121.477971,31.2457595],[121.4783788,31.2458765],[121.4791198,31.2461346],[121.4793385,31.2462292],[121.4795405,31.2463353],[121.4797335,31.2464558],[121.4799086,31.2465667],[121.4801854,31.2467324],[121.4803874,31.2468339],[121.480624,31.2469375],[121.480893,31.2470524],[121.4810744,31.2471269],[121.4812889,31.2471957],[121.4815201,31.247253],[121.4819471,31.2473475],[121.4823004,31.2474162],[121.4829573,31.2475293],[121.4836661,31.2476356],[121.4845508,31.2477503],[121.4854212,31.2478216],[121.4859827,31.2478616]]}},{"id":"1605","type":"Feature","properties":{"osm_id":966464273.0,"name":"上海地铁12号线","type":"subway","__source_file__":"19-其它/13-历史版本数据/2021.08/上海市_地铁线.shp"},"geometry":{"type":"LineString","coordinates":[[121.4859557,31.2479168],[121.4853895,31.2478747],[121.4845406,31.247799],[121.4836568,31.2476844],[121.4829466,31.2475779],[121.4822883,31.2474645],[121.4819334,31.2473955],[121.4815048,31.2473007],[121.4812707,31.2472426],[121.4810517,31.2471724],[121.4808676,31.2470968],[121.4805979,31.2469816],[121.4803596,31.2468772],[121.4801541,31.246774],[121.4798748,31.2466068],[121.4796993,31.2464956],[121.4795083,31.2463764],[121.4793103,31.2462724],[121.4790958,31.2461796],[121.4783587,31.2459229],[121.4779538,31.2458067],[121.477601,31.2457197],[121.4773282,31.2456669],[121.4770243,31.245617],[121.4767077,31.2455614],[121.4763685,31.2455192],[121.4760609,31.245491],[121.4718256,31.245089],[121.4675689,31.2444849]]}},{"id":"1607","type":"Feature","properties":{"osm_id":966464275.0,"name":"上海地铁12号线","type":"subway","__source_file__":"19-其它/13-历史版本数据/2021.08/上海市_地铁线.shp"},"geometry":{"type":"LineString","coordinates":[[121.4859827,31.2478616],[121.486397,31.2478974],[121.4866944,31.2479638],[121.4869713,31.2480727]]}},{"id":"1606","type":"Feature","properties":{"osm_id":966464274.0,"name":"上海地铁12号线","type":"subway","__source_file__":"19-其它/13-历史版本数据/2021.08/上海市_地铁线.shp"},"geometry":{"type":"LineString","coordinates":[[121.4869455,31.2481298],[121.4866824,31.2480235],[121.4863782,31.2479567],[121.4859557,31.2479168]]}},{"id":"1610","type":"Feature","properties":{"osm_id":966476603.0,"name":"上海地铁12号线","type":"subway","__source_file__":"19-其它/13-历史版本数据/2021.08/上海市_地铁线.shp"},"geometry":{"type":"LineString","coordinates":[[121.4869713,31.2480727],[121.4872711,31.2482218],[121.4875462,31.2483751],[121.4878421,31.2486077],[121.4880974,31.24884],[121.4884273,31.2491635],[121.4888418,31.2495333],[121.4891522,31.2497624],[121.4896215,31.2500533],[121.4900137,31.2502812],[121.4911396,31.2508142],[121.4939755,31.2521208],[121.495056,31.2525348]]}},{"id":"1608","type":"Feature","properties":{"osm_id":966476601.0,"name":"上海地铁12号线","type":"subway","__source_file__":"19-其它/13-历史版本数据/2021.08/上海市_地铁线.shp"},"geometry":{"type":"LineString","coordinates":[[121.4950314,31.2525795],[121.4939516,31.2521658],[121.491096,31.250863],[121.4899778,31.2503333],[121.4895828,31.2501032],[121.4891174,31.2498134],[121.4887885,31.249579],[121.4883686,31.2492141],[121.4880354,31.2488856],[121.4877851,31.2486578],[121.4875627,31.2484656],[121.4872397,31.2482796],[121.4869455,31.2481298]]}},{"id":"763","type":"Feature","properties":{"osm_id":321205031.0,"name":"上海地铁12号线","type":"subway","__source_file__":"19-其它/13-历史版本数据/2021.08/上海市_地铁线.shp"},"geometry":{"type":"LineString","coordinates":[[121.45399665534015,31.22003026035886],[121.4539589,31.22018],[121.4539101,31.2206101],[121.4538614,31.2210403],[121.4538954,31.2214809],[121.4539586,31.2219214],[121.4541044,31.2224402],[121.4543812,31.2229528],[121.4546874,31.2234552],[121.454883,31.2237969],[121.4551804,31.2243253],[121.4553969,31.2249216],[121.4554848,31.2253698],[121.4555179,31.2260949],[121.4555218,31.2266707],[121.4554861,31.227259],[121.4553776,31.2278846],[121.4552358,31.2284264],[121.4548158,31.229438],[121.4543381,31.2303233],[121.4539944,31.2308792],[121.4535901,31.2317463],[121.4532407,31.2326704],[121.4530165,31.2335144],[121.4527536,31.2349385],[121.4520331,31.238247],[121.4519482,31.2387159],[121.4518632,31.2391989],[121.4518366,31.2399481],[121.4518819,31.2403371],[121.452021,31.2407543],[121.4521634,31.2410606],[121.4523665,31.2413715],[121.4526397,31.241643],[121.4530176,31.241905],[121.4537183,31.2422498],[121.4544054,31.2425951],[121.4562659,31.2434737],[121.4571036,31.2438149],[121.4585636,31.2442814],[121.4590617,31.2444151],[121.4595708,31.2444733],[121.4601107,31.2445143],[121.4606339,31.2444799],[121.4610409,31.2443926],[121.4620883,31.2441681],[121.4627904,31.2440064],[121.4635697,31.243958],[121.4642018,31.2440213],[121.4664457,31.2443006]]}},{"id":"1066","type":"Feature","properties":{"osm_id":513577028.0,"name":"上海地铁12号线","type":"subway","__source_file__":"19-其它/13-历史版本数据/2021.08/上海市_地铁线.shp"},"geometry":{"type":"LineString","coordinates":[[121.4664378,31.2443496],[121.4641943,31.2440703],[121.4635684,31.2440076],[121.4628001,31.2440553],[121.4621028,31.2442159],[121.4606432,31.2445289],[121.4601104,31.2445639],[121.4595644,31.2445224],[121.4590491,31.2444635],[121.4585448,31.2443282],[121.457081,31.2438604],[121.4562395,31.2435177],[121.4543768,31.242638],[121.4536892,31.2422925],[121.4529848,31.2419459],[121.4525993,31.2416786],[121.4523189,31.2414],[121.4521111,31.2410819],[121.4519662,31.2407702],[121.4518249,31.2403464],[121.4517787,31.2399498],[121.4518055,31.2391945],[121.4518911,31.2387084],[121.4519761,31.2382387],[121.4526966,31.2349301],[121.4529597,31.2335051],[121.4531849,31.2326573],[121.4535357,31.2317295],[121.4539419,31.2308584],[121.4542863,31.2303014],[121.4547622,31.2294193],[121.4551802,31.2284127],[121.4553207,31.2278756],[121.4554285,31.2272541],[121.455464,31.2266696],[121.4554601,31.226096],[121.4554272,31.2253749],[121.4553405,31.2249331],[121.4551265,31.2243434],[121.454831,31.2238185],[121.4546358,31.2234775],[121.4543293,31.2229746],[121.4540495,31.2224565],[121.4539016,31.2219302],[121.4538378,31.2214855],[121.4538034,31.2210395],[121.4538526,31.2206053],[121.4539017,31.2201724],[121.453932333424,31.22004185826889]]}},{"id":"1064","type":"Feature","properties":{"osm_id":513577026.0,"name":"上海地铁13号线","type":"subway","__source_file__":"19-其它/13-历史版本数据/2021.08/上海市_地铁线.shp"},"geometry":{"type":"LineString","coordinates":[[121.4336126,31.2425284],[121.4340129,31.2428091],[121.4354507,31.2441149],[121.4366075,31.2449241],[121.4378097,31.2454343],[121.4387763,31.245807],[121.4398741,31.2460853],[121.4403008,31.246144],[121.4411437,31.2462552],[121.441927,31.2463148],[121.4426726,31.2463973],[121.4436458,31.2465571],[121.444813,31.246778],[121.4455265,31.2469523],[121.446417,31.2472137],[121.447217,31.2474087],[121.4477218,31.2474587],[121.4479438,31.2474618],[121.4481942,31.2474477],[121.4484124,31.2474172],[121.4486226,31.2473698],[121.4488386,31.2473082],[121.4490449,31.2472327],[121.4494826,31.2470312],[121.4498917,31.2467776],[121.4501711,31.2465729],[121.4502872,31.2464659],[121.4503614,31.2463975],[121.4505017,31.2462439],[121.4506708,31.2460322],[121.4508532,31.2457627],[121.451167,31.2453149],[121.4513434,31.245055],[121.4516077,31.2446564],[121.4518552,31.2443264],[121.4518987,31.2442666],[121.452062,31.2440421],[121.452251,31.2438244],[121.4524147,31.2436437],[121.4526096,31.2434713],[121.4528585,31.2433052],[121.4531743,31.2431061],[121.4533998,31.2429832],[121.4542719,31.2425333],[121.4551162,31.2421076],[121.4555926,31.2418273],[121.4558815,31.2416265],[121.4562467,31.2412984],[121.4564882,31.2410141],[121.4566896,31.2407073],[121.4571247,31.2399358],[121.4575312,31.2390782],[121.4575889,31.2389297],[121.4577121,31.238584],[121.4578116,31.2382498],[121.4578943,31.2378228],[121.457948,31.2373953],[121.4579649,31.2370931],[121.4579588,31.2368103],[121.4579373,31.2364715],[121.4578743,31.2361273],[121.4577613,31.235631],[121.4576128,31.2350185],[121.4574819,31.2343999],[121.4573642,31.2336512],[121.4573266,31.2330721],[121.4573459,31.2324667],[121.4574422,31.2318777],[121.4576302,31.2312722],[121.4579234,31.230462],[121.4581603,31.2292886],[121.4583954,31.2285533],[121.458544,31.2275604],[121.4586035,31.2265458],[121.4586248,31.225876],[121.4585488,31.2255674],[121.4586127,31.2252522],[121.4586724,31.2239393],[121.4587631,31.2234656],[121.458919,31.2230364],[121.4591096,31.222698],[121.4593613,31.2223636],[121.4598109,31.221834],[121.4600719,31.2215461],[121.4603248,31.2212824],[121.4604424,31.2211631],[121.4605127,31.2210918],[121.4607011,31.2209287],[121.4609092,31.2207605],[121.4611413,31.2206027],[121.4613573,31.2204903],[121.4615957,31.220403],[121.4618655,31.220324],[121.4620076,31.2202908],[121.4621567,31.220265],[121.4624451,31.2202227],[121.4627001,31.2202062],[121.4629405,31.2201973],[121.4631808,31.2201953],[121.4636577,31.2202056],[121.4651655,31.2201924],[121.4659625,31.220183],[121.4662903,31.2201662],[121.466618,31.2201494],[121.4671806,31.2200938],[121.4674583,31.2200383],[121.4676338,31.2199867],[121.4678058,31.2199239],[121.4679716,31.2198428],[121.4681698,31.219734],[121.46822558225911,31.219698447726415]]}},{"id":"752","type":"Feature","properties":{"osm_id":318987668.0,"name":"上海地铁13号线","type":"subway","__source_file__":"19-其它/13-历史版本数据/2021.08/上海市_地铁线.shp"},"geometry":{"type":"LineString","coordinates":[[121.46830146723637,31.21971167130285],[121.4682027,31.2197746],[121.4680016,31.219885],[121.4678316,31.2199682],[121.4676545,31.2200328],[121.4674743,31.2200858],[121.4671905,31.2201425],[121.4666231,31.2201986],[121.4662938,31.2202155],[121.4659646,31.2202324],[121.4651662,31.2202418],[121.4639449,31.2202525],[121.4636573,31.220255],[121.4631804,31.2202447],[121.462942,31.2202467],[121.4627035,31.2202555],[121.4624522,31.2202718],[121.4621673,31.2203136],[121.4620209,31.2203389],[121.4618825,31.2203712],[121.4616165,31.2204491],[121.4613838,31.2205343],[121.4611744,31.2206433],[121.4609471,31.2207978],[121.4607415,31.220964],[121.4605554,31.2211251],[121.460495,31.2211864],[121.4603692,31.221314],[121.4601171,31.2215769],[121.4598571,31.2218636],[121.459409,31.2223915],[121.4591601,31.2227222],[121.4589729,31.2230545],[121.4588194,31.223477],[121.45873,31.2239443],[121.4586703,31.2252574],[121.4586076,31.2255665],[121.4586827,31.2258715],[121.4586612,31.2265477],[121.4586176,31.2272381],[121.4586016,31.2275648],[121.4584522,31.228563],[121.4582167,31.2292993],[121.4579797,31.2304735],[121.4576857,31.2312858],[121.4574989,31.2318875],[121.4574035,31.2324708],[121.4573844,31.2330714],[121.4574217,31.2336465],[121.457539,31.2343922],[121.4576695,31.2350091],[121.4578179,31.2356213],[121.4579312,31.2361188],[121.4579948,31.2364663],[121.4580165,31.2368085],[121.4580227,31.2370938],[121.4580056,31.2373991],[121.4579515,31.2378295],[121.4578682,31.2382599],[121.4577677,31.2385973],[121.4576439,31.2389447],[121.4575854,31.2390953],[121.4571775,31.2399558],[121.4567408,31.2407301],[121.4565369,31.2410408],[121.4562912,31.2413301],[121.4559208,31.2416628],[121.4556272,31.2418669],[121.4551473,31.2421493],[121.4543015,31.2425757],[121.4534302,31.2430252],[121.453207,31.2431468],[121.4528934,31.2433445],[121.4526483,31.2435081],[121.4524584,31.2436761],[121.452297,31.2438542],[121.4521098,31.2440699],[121.4519932,31.2442302],[121.451904,31.2443528],[121.4516572,31.2446819],[121.4513935,31.2450796],[121.4512201,31.2453428],[121.4509128,31.2457934],[121.4507248,31.2460623],[121.4505554,31.2462848],[121.4504121,31.2464384],[121.450271,31.2465745],[121.4502294,31.2466147],[121.4499317,31.2468301],[121.4494985,31.2470959],[121.449057,31.2473],[121.4488523,31.2473703],[121.4486345,31.247435],[121.4484243,31.2474848],[121.4481992,31.2475166],[121.4479438,31.2475283],[121.4476977,31.2475216],[121.4472136,31.2474943],[121.4463955,31.247443],[121.4453226,31.2473696],[121.4448774,31.2473513],[121.4442807,31.2472797],[121.4436296,31.2471782],[121.4429301,31.2470853],[121.4419323,31.2468193],[121.4408916,31.2465028],[121.4398399,31.2461627],[121.4387561,31.2458534],[121.437785,31.2454789],[121.436576,31.2449659],[121.4354112,31.2441511],[121.4339734,31.2428453],[121.4335758,31.2425665]]}},{"id":"935","type":"Feature","properties":{"osm_id":376634457.0,"name":"上海地铁2号线","type":"subway","__source_file__":"19-其它/13-历史版本数据/2021.08/上海市_地铁线.shp"},"geometry":{"type":"LineString","coordinates":[[121.43977304959914,31.224417670433123],[121.4422253,31.2252915],[121.4423969,31.2253715],[121.4454422,31.226791],[121.4486217,31.2285846],[121.4508795,31.2300393],[121.4510207,31.2301092],[121.4515098,31.2303515],[121.453469,31.230801],[121.4537026,31.2308546],[121.4560334,31.2318048],[121.457453,31.2322503],[121.4593801,31.2325641],[121.4613754,31.2327161],[121.4625934,31.2327522],[121.4637925,31.2328534],[121.4651183,31.2332322],[121.4665783,31.2339585],[121.4670567,31.2341965],[121.4693327,31.2356383],[121.4696578,31.235847],[121.4707708,31.2365614],[121.4710813,31.236712],[121.4713878,31.2368243],[121.4723018,31.2371168],[121.4744646,31.2375375],[121.4792398,31.239101],[121.4824114,31.2401528],[121.484214,31.2406874],[121.4853604,31.2408798],[121.4870626,31.2410883],[121.4885333,31.2412169],[121.4901428,31.2411871],[121.4916945,31.2411201],[121.4921696,31.2410971],[121.4927448,31.241044],[121.4937057,31.2409209],[121.4945652,31.2407831],[121.49613504138415,31.240513309647426]]}},{"id":"936","type":"Feature","properties":{"osm_id":376634458.0,"name":"上海地铁2号线","type":"subway","__source_file__":"19-其它/13-历史版本数据/2021.08/上海市_地铁线.shp"},"geometry":{"type":"LineString","coordinates":[[121.49615133649493,31.240560810616692],[121.4952623,31.2407136],[121.4945762,31.2408315],[121.4937153,31.2409696],[121.4927522,31.241093],[121.4921727,31.2411464],[121.4916324,31.2411766],[121.4900937,31.2412442],[121.4885304,31.241264],[121.48706,31.241144],[121.4853511,31.2409286],[121.4841989,31.2407352],[121.4838772,31.2406398],[121.4823914,31.2401992],[121.4792191,31.239147],[121.4744478,31.2375848],[121.4722852,31.2371643],[121.4713647,31.2368696],[121.4710431,31.2367491],[121.4707378,31.2366043],[121.4692751,31.2357016],[121.4670125,31.2342621],[121.4650917,31.2332762],[121.4637795,31.2329024],[121.4625907,31.2328049],[121.4613699,31.2327654],[121.4593425,31.2326237],[121.4583049,31.2324464],[121.4574384,31.2322983],[121.456011,31.2318504],[121.4536825,31.2309012],[121.4514874,31.2303975],[121.4509917,31.2301519],[121.4508476,31.2300805],[121.4485884,31.228625],[121.4454125,31.2268334],[121.4422003,31.2253361],[121.4397074966859,31.224447814667894]]}},{"id":"933","type":"Feature","properties":{"osm_id":376634452.0,"name":"上海地铁1号线","type":"subway","__source_file__":"19-其它/13-历史版本数据/2021.08/上海市_地铁线.shp"},"geometry":{"type":"LineString","coordinates":[[121.45684932698437,31.219541442654837],[121.4589259,31.2204269],[121.4613898,31.2215176],[121.4632166,31.2221881],[121.465558,31.2232819],[121.4693648,31.2249043],[121.4701942,31.2252706],[121.4730205,31.2263365],[121.4738421,31.2266464],[121.4743545,31.2270997],[121.4747496,31.2278203],[121.4747873,31.2283751],[121.47478,31.2284963],[121.4747756,31.2285919],[121.4743589,31.2294679],[121.4734862,31.2309444],[121.4733432,31.2311769],[121.4717852,31.2329858],[121.471454,31.2333703],[121.4709758,31.234099],[121.469912,31.2356556],[121.4692506,31.2368426],[121.4690423,31.2371855],[121.4685635,31.237935],[121.4681103,31.2384194],[121.4670041,31.2393081],[121.4636702,31.2405923],[121.4619543,31.2412493],[121.4587626,31.2423642],[121.4570597,31.2429167],[121.455327,31.2434107],[121.4537311,31.2438092],[121.4528839,31.2440153],[121.4523717,31.2441622],[121.4520042,31.2442885],[121.4517782,31.2443774],[121.4516114,31.2444623],[121.4514606,31.2445499],[121.4512718,31.2446761],[121.451017,31.2449102],[121.4508589,31.2450847],[121.4507328,31.2452915],[121.4505972,31.2455022],[121.4504821,31.2458252],[121.4504203,31.2460908],[121.4503767,31.2463211],[121.4503364,31.2465916],[121.4503086,31.2469645],[121.4503554,31.2472793],[121.4503686,31.2473492],[121.4504868,31.2476592],[121.4512676,31.2490863],[121.4539777,31.2540442],[121.4543325,31.2546863],[121.4546333,31.2552521],[121.4548076,31.2557979],[121.4549402,31.2573391],[121.4549226,31.2600921],[121.4545011,31.2614942],[121.45442,31.2619399],[121.4544118,31.2628715],[121.4545966,31.2652163],[121.4545754,31.2664814],[121.4545003,31.2671096],[121.4543642,31.2677476],[121.4538451,31.268916],[121.4527014,31.2707903],[121.4510421,31.2732578],[121.4497655,31.2751558],[121.4487374,31.2767303],[121.4484382,31.2773412],[121.4482191,31.2779414],[121.44819387899427,31.278023247304567]]}},{"id":"1040","type":"Feature","properties":{"osm_id":460289578.0,"name":"上海地铁1号线","type":"subway","__source_file__":"19-其它/13-历史版本数据/2021.08/上海市_地铁线.shp"},"geometry":{"type":"LineString","coordinates":[[121.44812679121883,31.27801005770379],[121.448154,31.2779266],[121.448374,31.2773232],[121.4486767,31.2767051],[121.4497069,31.2751274],[121.4509837,31.2732291],[121.4526423,31.2707626],[121.4537835,31.2688924],[121.4542978,31.2677349],[121.4544252,31.2670958],[121.4545003,31.2664585],[121.4545291,31.2652147],[121.454326,31.2628624],[121.4543606,31.2619343],[121.4544335,31.2614875],[121.4548552,31.2600847],[121.4548728,31.2573411],[121.4547409,31.2558077],[121.4545697,31.2552717],[121.4542713,31.2547105],[121.4539167,31.2540687],[121.4512065,31.2491107],[121.450424,31.2476804],[121.4503029,31.2473628],[121.4502887,31.2472875],[121.4502409,31.2469663],[121.4502693,31.2465861],[121.450271,31.2465745],[121.4502872,31.2464659],[121.45031,31.2463129],[121.450354,31.2460806],[121.4504169,31.2458102],[121.4505475,31.2454824],[121.4506727,31.2452654],[121.4508019,31.2450535],[121.4509656,31.2448729],[121.4512261,31.2446335],[121.4514209,31.2445033],[121.4515752,31.2444137],[121.4517468,31.2443263],[121.4518987,31.2442666],[121.4519775,31.2442356],[121.4519932,31.2442302],[121.4523484,31.2441081],[121.4528639,31.2439602],[121.4537124,31.2437538],[121.4553069,31.2433557],[121.4570371,31.2428624],[121.4587379,31.2423106],[121.4619278,31.2411963],[121.4636428,31.2405396],[121.4669575,31.2392467],[121.4680326,31.2383707],[121.4684831,31.2378726],[121.4688767,31.2372605],[121.4691385,31.2368369],[121.4698175,31.23563],[121.4708951,31.2340677],[121.471146,31.2336915],[121.4713894,31.2333177],[121.4732844,31.2311487],[121.4734263,31.230918],[121.4742975,31.229444],[121.4747087,31.2285795],[121.4747127,31.2284937],[121.4747198,31.2283753],[121.4746831,31.2278347],[121.4742982,31.2271329],[121.4738028,31.2266946],[121.4729933,31.2263892],[121.4701651,31.2253226],[121.4693343,31.2249557],[121.4655268,31.223333],[121.4631871,31.22224],[121.461361,31.2215697],[121.460495,31.2211864],[121.4604424,31.2211631],[121.4588954,31.2204783],[121.45672321105182,31.21955208049269]]}},{"id":"236","type":"Feature","properties":{"osm_id":95098484.0,"name":"上海地铁3/4号线","type":"subway","__source_file__":"19-其它/13-历史版本数据/2021.08/上海市_地铁线.shp"},"geometry":{"type":"LineString","coordinates":[[121.42174928779399,31.246239227261636],[121.4221213,31.2464581],[121.4223946,31.246614],[121.424534,31.2477875],[121.4251784,31.2481804],[121.425799,31.2486167],[121.4260282,31.2487993],[121.4262933,31.2490209],[121.4264958,31.2492009],[121.4267333,31.2494303],[121.4310772,31.2538566],[121.4312813,31.2540585],[121.4314984,31.2542598],[121.4317206,31.254447],[121.4319724,31.2546476],[121.4322196,31.2548285],[121.4324814,31.2550103],[121.4327263,31.2551664],[121.4329561,31.255301],[121.4332211,31.2554471],[121.4335031,31.2555854],[121.4337738,31.2557096],[121.4340149,31.2558152],[121.4343031,31.2559272],[121.4345441,31.2560107],[121.434819,31.2560974],[121.4351333,31.2561884],[121.4354341,31.2562626],[121.4355062,31.256279],[121.4356344,31.2563044],[121.4364091,31.2564319],[121.4371998,31.2565383],[121.4373667,31.2565608],[121.4381373,31.2566646],[121.4384378,31.2567063],[121.4388236,31.2567461],[121.4391872,31.2567534],[121.4394112,31.256748],[121.4396522,31.2567246],[121.4398686,31.2566919],[121.4400649,31.2566589],[121.4403281,31.2566019],[121.4406251,31.2565134],[121.4409178,31.2564101],[121.441199,31.2563021],[121.4432055,31.255507]]}},{"id":"294","type":"Feature","properties":{"osm_id":97546587.0,"name":"上海地铁3/4号线","type":"subway","__source_file__":"19-其它/13-历史版本数据/2021.08/上海市_地铁线.shp"},"geometry":{"type":"LineString","coordinates":[[121.44322,31.2555353],[121.441217,31.2563294],[121.4409289,31.2564401],[121.4406396,31.2565449],[121.4403356,31.2566335],[121.4400762,31.2566904],[121.4398789,31.2567246],[121.4396542,31.2567583],[121.4394197,31.2567779],[121.4391907,31.256785],[121.4388209,31.256775],[121.4384253,31.2567347],[121.4381296,31.2566942],[121.4377025,31.2566378],[121.4364028,31.2564662],[121.4356266,31.2563362],[121.435503,31.25631],[121.4354171,31.2562905],[121.4351219,31.2562186],[121.4347988,31.2561282],[121.4345257,31.2560429],[121.434285,31.2559601],[121.4339947,31.2558477],[121.4337509,31.2557408],[121.4334811,31.2556177],[121.4331947,31.2554731],[121.4329307,31.2553306],[121.4326996,31.2551911],[121.4324557,31.2550373],[121.4321911,31.2548562],[121.4319441,31.2546702],[121.4316898,31.2544678],[121.431465,31.2542789],[121.4312512,31.2540802],[121.431045,31.2538749],[121.4267061,31.2494522],[121.4264608,31.2492174],[121.4262682,31.2490419],[121.426004,31.2488227],[121.4257724,31.2486395],[121.4251548,31.2482018],[121.4245142,31.2478102],[121.4223727,31.2466385],[121.4220964,31.246482],[121.42174407838458,31.246274542333385]]}},{"id":"295","type":"Feature","properties":{"osm_id":97550421.0,"name":"上海地铁4号线","type":"subway","__source_file__":"19-其它/13-历史版本数据/2021.08/上海市_地铁线.shp"},"geometry":{"type":"LineString","coordinates":[[121.49407663195402,31.262575135300718],[121.4926301,31.2623132],[121.4889177,31.2616842],[121.4866466,31.2613046],[121.4852967,31.2610118],[121.484609,31.2608534],[121.484236,31.2607602],[121.4838706,31.2606474],[121.4831423,31.2603025],[121.4830347,31.2602363],[121.4828224,31.2601028],[121.4826112,31.2599682],[121.4824217,31.2598386],[121.4813395,31.259042]]}},{"id":"24","type":"Feature","properties":{"osm_id":49026397.0,"name":"上海地铁4号线","type":"subway","__source_file__":"19-其它/13-历史版本数据/2021.08/上海市_地铁线.shp"},"geometry":{"type":"LineString","coordinates":[[121.4813694,31.2590143],[121.4824549,31.2598166],[121.4826451,31.2599458],[121.4828473,31.2600776],[121.4830771,31.2602112],[121.4831717,31.2602646],[121.4838626,31.2605762],[121.4842437,31.2606995],[121.4846371,31.2607939],[121.4853185,31.2609569],[121.4866695,31.2612445],[121.4889357,31.261622],[121.4926509,31.26225],[121.49410587859832,31.262516632250083]]}},{"id":"1745","type":"Feature","properties":{"osm_id":1017517778.0,"name":null,"type":"subway","__source_file__":"19-其它/13-历史版本数据/2021.08/上海市_地铁线.shp"},"geometry":{"type":"LineString","coordinates":[[121.4670599,31.2252589],[121.466782,31.2250846],[121.4666632,31.2250111]]}},{"id":"1744","type":"Feature","properties":{"osm_id":1017517777.0,"name":null,"type":"subway","__source_file__":"19-其它/13-历史版本数据/2021.08/上海市_地铁线.shp"},"geometry":{"type":"LineString","coordinates":[[121.4670599,31.2252589],[121.4666802,31.2251204],[121.4665944,31.2251036]]}},{"id":"1747","type":"Feature","properties":{"osm_id":1017517780.0,"name":null,"type":"subway","__source_file__":"19-其它/13-历史版本数据/2021.08/上海市_地铁线.shp"},"geometry":{"type":"LineString","coordinates":[[121.4693314,31.226124],[121.4689686,31.2260105],[121.4687291,31.2259356],[121.4684548,31.2258381],[121.4681591,31.2257288],[121.4678433,31.2256076],[121.4675875,31.2255009],[121.4672116,31.2253309],[121.4670599,31.2252589],[121.4666124,31.2250464]]}},{"id":"1746","type":"Feature","properties":{"osm_id":1017517779.0,"name":null,"type":"subway","__source_file__":"19-其它/13-历史版本数据/2021.08/上海市_地铁线.shp"},"geometry":{"type":"LineString","coordinates":[[121.4693465,31.2260796],[121.4693116,31.2260698],[121.4689686,31.2260105]]}},{"id":"1748","type":"Feature","properties":{"osm_id":1017517781.0,"name":null,"type":"subway","__source_file__":"19-其它/13-历史版本数据/2021.08/上海市_地铁线.shp"},"geometry":{"type":"LineString","coordinates":[[121.469328,31.2261713],[121.469262,31.2261403],[121.4689686,31.2260105]]}},{"id":"1086","type":"Feature","properties":{"osm_id":513764722.0,"name":null,"type":"subway","__source_file__":"19-其它/13-历史版本数据/2021.08/上海市_地铁线.shp"},"geometry":{"type":"LineString","coordinates":[[121.4715986,31.2334565],[121.471879,31.2330279]]}},{"id":"1077","type":"Feature","properties":{"osm_id":513577066.0,"name":"上海地铁10号线","type":"subway","__source_file__":"19-其它/13-历史版本数据/2021.08/上海市_地铁线.shp"},"geometry":{"type":"LineString","coordinates":[[121.48898270073155,31.269764113305193],[121.4877107,31.2686318],[121.4874585,31.268382],[121.4872267,31.2680973],[121.486866,31.2675466],[121.4866737,31.2671478],[121.4862722,31.2661795],[121.4856465,31.2647054],[121.4852178,31.2637616],[121.4848104,31.2629033],[121.4842435,31.2616084],[121.4841811,31.2614051],[121.484148,31.261173],[121.4841305,31.2608755],[121.4841378,31.2602261],[121.484104,31.2598326],[121.4838944,31.2592975],[121.4831655,31.2578321],[121.4829552,31.2574076],[121.4824377,31.2563178],[121.4823142,31.2561082],[121.4821611,31.2559278],[121.4819595,31.2557248],[121.4816999,31.2554973],[121.4801661,31.2543226],[121.4794548,31.2537411],[121.4786794,31.2531498],[121.4784631,31.2529492],[121.4782697,31.2527432],[121.4780019,31.2524255],[121.4777515,31.2520738],[121.4775702,31.251769],[121.4773935,31.2514295],[121.4772729,31.2511001],[121.4771782,31.2508184],[121.4770941,31.250508],[121.4770365,31.2502005],[121.4770149,31.2498903],[121.4770166,31.2496023],[121.4770471,31.2492938],[121.4771095,31.2489625],[121.4772099,31.2486247],[121.4773391,31.2482353],[121.4774583,31.2478622],[121.4775028,31.2477002],[121.4775365,31.2475526],[121.47757,31.2473383],[121.477775,31.2457578],[121.4777939,31.2456119],[121.4778245,31.2454428],[121.4778537,31.2453051],[121.4779096,31.2451017],[121.477995,31.2448178],[121.4780898,31.2445518],[121.4782045,31.2443042],[121.4784166,31.2439057],[121.4786156,31.2435795],[121.4790354,31.2428701],[121.4801243,31.2402472],[121.4814189,31.2363418],[121.4820794,31.2336064],[121.4826157,31.2309656],[121.4828441,31.2299158],[121.4830534,31.2289566],[121.4831881,31.2283534],[121.483433,31.2275508],[121.4837666,31.2268688],[121.48406237171399,31.226353628066672]]}},{"id":"1080","type":"Feature","properties":{"osm_id":513622481.0,"name":"上海地铁10号线","type":"subway","__source_file__":"19-其它/13-历史版本数据/2021.08/上海市_地铁线.shp"},"geometry":{"type":"LineString","coordinates":[[121.48410948138324,31.2263836563912],[121.4838192,31.2268892],[121.4834879,31.2275666],[121.4832445,31.2283643],[121.4831102,31.2289658],[121.4829009,31.2299247],[121.4826815,31.2309756],[121.4821361,31.2336157],[121.4814752,31.2363531],[121.4801795,31.2402618],[121.4790886,31.2428896],[121.478667,31.2436021],[121.4784685,31.2439274],[121.4782577,31.2443235],[121.4781444,31.2445681],[121.4780506,31.2448312],[121.4779657,31.2451135],[121.4779103,31.2453152],[121.4778815,31.245451],[121.4778512,31.2456184],[121.4778324,31.2457632],[121.4776273,31.2473443],[121.4775935,31.2475606],[121.4775593,31.2477106],[121.4775143,31.2478744],[121.4773948,31.2482485],[121.4772657,31.2486375],[121.4771661,31.2489725],[121.4771045,31.2492998],[121.4770744,31.2496045],[121.4770727,31.249889],[121.477094,31.2501951],[121.4771508,31.2504985],[121.4772341,31.250806],[121.4773282,31.2510859],[121.4774476,31.251412],[121.4776224,31.2517478],[121.477802,31.2520497],[121.4780501,31.2523982],[121.4783157,31.2527133],[121.4785069,31.252917],[121.47872,31.2531146],[121.479494,31.2537048],[121.4802053,31.2542864],[121.4817399,31.2554616],[121.4820022,31.2556915],[121.4822066,31.2558973],[121.4823637,31.2560824],[121.4824903,31.2562974],[121.4830086,31.2573887],[121.4832187,31.2578128],[121.4835241,31.2584268],[121.483723,31.2588266],[121.4839485,31.25928],[121.4839883,31.2593817],[121.4841611,31.2598228],[121.4841956,31.2602245],[121.4841883,31.2608745],[121.4842056,31.2611688],[121.484238,31.2613958],[121.4842986,31.2615934],[121.4848642,31.2628854],[121.4852715,31.2637434],[121.4857006,31.264688],[121.4863266,31.2661628],[121.4867277,31.2671301],[121.4869181,31.2675251],[121.4872757,31.2680711],[121.4875042,31.2683517],[121.4877534,31.2685985],[121.4890199144606,31.26972591092845]]}},{"id":"1063","type":"Feature","properties":{"osm_id":513577024.0,"name":"上海地铁13号线","type":"subway","__source_file__":"19-其它/13-历史版本数据/2021.08/上海市_地铁线.shp"},"geometry":{"type":"LineString","coordinates":[[121.42581407282175,31.235927056772244],[121.4261106,31.236323],[121.4265095,31.2369637],[121.4267008,31.2375244],[121.4269947,31.2382081],[121.4275183,31.2387789],[121.4282816,31.2392312],[121.4291815,31.2395151],[121.4301779,31.2397564],[121.4304667,31.2398395],[121.4307834,31.2399653],[121.4310993,31.2401934],[121.4313619,31.2404518],[121.4321804,31.2414075],[121.4326189,31.24182],[121.4336126,31.2425284]]}},{"id":"650","type":"Feature","properties":{"osm_id":181000526.0,"name":"上海地铁13号线","type":"subway","__source_file__":"19-其它/13-历史版本数据/2021.08/上海市_地铁线.shp"},"geometry":{"type":"LineString","coordinates":[[121.4335758,31.2425665],[121.4325788,31.2418557],[121.4321356,31.2414388],[121.4313167,31.2404826],[121.4310586,31.2402287],[121.430752,31.2400073],[121.4304453,31.2398854],[121.4301608,31.2398036],[121.4291636,31.2395621],[121.4282547,31.2392754],[121.4274782,31.2388152],[121.4269436,31.2382324],[121.4266459,31.2375399],[121.4264557,31.2369824],[121.4260607,31.236348],[121.42578181729156,31.235975589784317]]}},{"id":"1114","type":"Feature","properties":{"osm_id":584100104.0,"name":"上海地铁14号线","type":"subway","__source_file__":"19-其它/13-历史版本数据/2021.08/上海市_地铁线.shp"},"geometry":{"type":"MultiLineString","coordinates":[[[121.42704788976974,31.234256187644622],[121.4272203,31.2341231],[121.4273864,31.2339869],[121.4275537,31.2338105],[121.4277292,31.2336272],[121.4278695,31.2334561],[121.4279947,31.2333011],[121.428237,31.233032],[121.4287185,31.2324448],[121.4289236,31.2321742],[121.42898023386306,31.232088054975762]],[[121.43514950031182,31.22722874544217],[121.4351571,31.2272293],[121.4354843,31.2272477],[121.4358427,31.2272158],[121.4361924,31.2271468],[121.4381161,31.2265386],[121.4395612,31.2256651],[121.4398187,31.2254678],[121.440044,31.2252614],[121.4402264,31.225032],[121.4404031,31.2247612],[121.4405215,31.2245045],[121.440562,31.224359],[121.4405934,31.2242161],[121.44063566063856,31.224021002330964]],[[121.45015969126025,31.220873818987904],[121.4502472,31.2209309],[121.4508694,31.2213392],[121.4511216,31.2214791],[121.4513656,31.22158],[121.4516178,31.2216534],[121.4519075,31.2217199],[121.452747,31.2218989],[121.4538435,31.2221343],[121.4563787,31.2226925],[121.458165,31.2230319],[121.4588034,31.2231329],[121.4599621,31.2232521],[121.4612435,31.2233769],[121.4618182,31.2234655],[121.4624298,31.2235962],[121.464259,31.2240848],[121.4648035,31.2242293],[121.4652488,31.2243532],[121.4658804,31.2246261],[121.4666632,31.2250111],[121.46696,31.2251571],[121.4679953,31.2256032],[121.4684272,31.2257775],[121.4687758,31.2258933],[121.4693465,31.2260796],[121.469429,31.2261066],[121.4701438,31.2263119],[121.4707071,31.2264816],[121.4713293,31.226711],[121.4719731,31.2269816],[121.472826,31.2273853],[121.4736414,31.2278165],[121.4744224,31.2281869],[121.4752333,31.2285734],[121.4765409,31.2291926],[121.4784083,31.2301438],[121.4787805,31.2303119],[121.4790702,31.2304128],[121.4793652,31.2304908],[121.4796978,31.2305458],[121.480025,31.2305871],[121.4805561,31.2306513],[121.4811569,31.2307247],[121.4816076,31.2307935],[121.4821225,31.2308945],[121.4830519,31.2311029],[121.4842589,31.2314139],[121.4857311,31.2317795],[121.4875674,31.2322614],[121.4887369,31.2326192],[121.4894771,31.2328118],[121.4901853,31.2329586],[121.4910114,31.2331329],[121.4919555,31.2333806],[121.49215883257786,31.233446278781102]]]}},{"id":"1334","type":"Feature","properties":{"osm_id":761728395.0,"name":"上海地铁14号线","type":"subway","__source_file__":"19-其它/13-历史版本数据/2021.08/上海市_地铁线.shp"},"geometry":{"type":"MultiLineString","coordinates":[[[121.49227705609638,31.23359972344668],[121.4919147,31.2334827],[121.4909777,31.2332369],[121.4901553,31.2330633],[121.4894439,31.2329159],[121.4886972,31.2327216],[121.4875277,31.2323637],[121.4856948,31.2318827],[121.48422,31.2315091],[121.4830181,31.2312067],[121.4820925,31.2309992],[121.4815824,31.2308992],[121.4811369,31.2308312],[121.4805384,31.2307581],[121.480007,31.2306938],[121.4796766,31.2306522],[121.4793345,31.2305955],[121.4790277,31.2305144],[121.4787271,31.2304097],[121.4783466,31.2302379],[121.4764786,31.2292864],[121.4751568,31.2286789],[121.4743292,31.2282945],[121.4735758,31.2279086],[121.4727623,31.2274784],[121.4719147,31.2270772],[121.4712765,31.2268089],[121.4706611,31.2265821],[121.4701,31.226413],[121.4693865,31.2261899],[121.469328,31.2261713],[121.4687635,31.225992],[121.4679399,31.2256978],[121.4669252,31.2252644],[121.4665944,31.2251036],[121.4658088,31.2247218],[121.4651403,31.2244625],[121.4647201,31.2243184],[121.4643383,31.2242048],[121.462398,31.2237006],[121.4617917,31.2235709],[121.4612252,31.2234837],[121.4599475,31.2233592],[121.4587844,31.2232395],[121.4581399,31.2231376],[121.4563493,31.2227974],[121.4538124,31.2222388],[121.4527164,31.2220035],[121.4518759,31.2218243],[121.4515811,31.2217566],[121.4513177,31.22168],[121.4510596,31.2215732],[121.4507966,31.2214273],[121.4501705,31.2210165],[121.45000592630416,31.220909153729124]],[[121.4408007440701,31.22394508940092],[121.4407419,31.2242302],[121.4406906,31.2244013],[121.4406503,31.2245451],[121.4405174,31.2248074],[121.4403338,31.2250887],[121.4401429,31.2253289],[121.4399071,31.2255449],[121.43964,31.2257496],[121.4381754,31.2266348],[121.4362286,31.2272503],[121.4358635,31.2273224],[121.4354867,31.2273559],[121.4351476,31.2273369],[121.43500972323781,31.22732681529968]],[[121.42942990073162,31.231643270038624],[121.4290311,31.2322306],[121.4288231,31.2325051],[121.428338,31.2330966],[121.4281093,31.2333702],[121.4278908,31.2336431],[121.4276423,31.2339125],[121.4274163,31.2341298],[121.427277,31.2342486],[121.42666624651939,31.23471839749995]]]}},{"id":"1656","type":"Feature","properties":{"osm_id":1007651589.0,"name":"上海地铁8号线","type":"subway","__source_file__":"19-其它/13-历史版本数据/2021.08/上海市_地铁线.shp"},"geometry":{"type":"LineString","coordinates":[[121.4664278,31.2470151],[121.4665897,31.2462603],[121.4667931,31.2451972],[121.4668902,31.2444785]]}},{"id":"1657","type":"Feature","properties":{"osm_id":1007651590.0,"name":"上海地铁8号线","type":"subway","__source_file__":"19-其它/13-历史版本数据/2021.08/上海市_地铁线.shp"},"geometry":{"type":"LineString","coordinates":[[121.4652723,31.2513666],[121.4659687,31.2489145],[121.4663632,31.2473161],[121.4664278,31.2470151]]}},{"id":"1658","type":"Feature","properties":{"osm_id":1007651591.0,"name":"上海地铁8号线","type":"subway","__source_file__":"19-其它/13-历史版本数据/2021.08/上海市_地铁线.shp"},"geometry":{"type":"LineString","coordinates":[[121.4664853,31.2470209],[121.4664199,31.2473257],[121.4660251,31.2489254],[121.4653279,31.2513801]]}},{"id":"9","type":"Feature","properties":{"osm_id":47097098.0,"name":"上海地铁3/4号线","type":"subway","__source_file__":"19-其它/13-历史版本数据/2021.08/上海市_地铁线.shp"},"geometry":{"type":"LineString","coordinates":[[121.444927,31.2548311],[121.4514715,31.2522877],[121.4539952,31.2512955],[121.4544812,31.2511045],[121.4548717,31.250959],[121.4551144,31.2508716],[121.4569447,31.2501784],[121.4573734,31.2500028],[121.4577443,31.2498515],[121.4590777,31.2493264],[121.4595003,31.2491686],[121.4610743,31.2486505],[121.4613665,31.2485732]]}},{"id":"1089","type":"Feature","properties":{"osm_id":513764725.0,"name":null,"type":"subway","__source_file__":"19-其它/13-历史版本数据/2021.08/上海市_地铁线.shp"},"geometry":{"type":"LineString","coordinates":[[121.4713323,31.2336299],[121.471454,31.2333703]]}},{"id":"1088","type":"Feature","properties":{"osm_id":513764724.0,"name":null,"type":"subway","__source_file__":"19-其它/13-历史版本数据/2021.08/上海市_地铁线.shp"},"geometry":{"type":"LineString","coordinates":[[121.4715276,31.2334084],[121.4713323,31.2336299]]}},{"id":"1087","type":"Feature","properties":{"osm_id":513764723.0,"name":null,"type":"subway","__source_file__":"19-其它/13-历史版本数据/2021.08/上海市_地铁线.shp"},"geometry":{"type":"LineString","coordinates":[[121.4710175,31.2341152],[121.4713323,31.2336299]]}},{"id":"1084","type":"Feature","properties":{"osm_id":513764720.0,"name":null,"type":"subway","__source_file__":"19-其它/13-历史版本数据/2021.08/上海市_地铁线.shp"},"geometry":{"type":"LineString","coordinates":[[121.4670567,31.2341965],[121.4675049,31.234406],[121.467668,31.2344856],[121.468056,31.2346819],[121.4682667,31.2347605],[121.4684425,31.2348174],[121.4686104,31.2348566],[121.4688099,31.2348851],[121.4690063,31.2349013],[121.4691726,31.234904],[121.4693548,31.2348905],[121.4695702,31.2348634],[121.4697824,31.2348104],[121.4699718,31.2347431],[121.4701505,31.2346599],[121.4703744,31.2345154],[121.4705111,31.2344008],[121.4706272,31.2342784],[121.4707646,31.2341197],[121.4708706,31.2339742],[121.4711078,31.2336371],[121.4712467,31.2334743],[121.4713894,31.2333177],[121.4717852,31.2329858]]}},{"id":"1083","type":"Feature","properties":{"osm_id":513764719.0,"name":null,"type":"subway","__source_file__":"19-其它/13-历史版本数据/2021.08/上海市_地铁线.shp"},"geometry":{"type":"LineString","coordinates":[[121.4670125,31.2342621],[121.4665783,31.2339585]]}},{"id":"1082","type":"Feature","properties":{"osm_id":513764718.0,"name":null,"type":"subway","__source_file__":"19-其它/13-历史版本数据/2021.08/上海市_地铁线.shp"},"geometry":{"type":"LineString","coordinates":[[121.467668,31.2344856],[121.4693756,31.2355698]]}},{"id":"1085","type":"Feature","properties":{"osm_id":513764721.0,"name":null,"type":"subway","__source_file__":"19-其它/13-历史版本数据/2021.08/上海市_地铁线.shp"},"geometry":{"type":"LineString","coordinates":[[121.4696578,31.235847],[121.4693756,31.2355698]]}},{"id":"1600","type":"Feature","properties":{"osm_id":966464247.0,"name":"上海地铁8号线","type":"subway","__source_file__":"19-其它/13-历史版本数据/2021.08/上海市_地铁线.shp"},"geometry":{"type":"LineString","coordinates":[[121.4668902,31.2444785],[121.4669288,31.2441929],[121.4669849,31.2436044]]}},{"id":"1601","type":"Feature","properties":{"osm_id":966464248.0,"name":"上海地铁8号线","type":"subway","__source_file__":"19-其它/13-历史版本数据/2021.08/上海市_地铁线.shp"},"geometry":{"type":"LineString","coordinates":[[121.4670423,31.2436112],[121.4669863,31.2441977],[121.4669485,31.2444774]]}},{"id":"1596","type":"Feature","properties":{"osm_id":966464243.0,"name":"上海地铁12号线","type":"subway","__source_file__":"19-其它/13-历史版本数据/2021.08/上海市_地铁线.shp"},"geometry":{"type":"LineString","coordinates":[[121.4664457,31.2443006],[121.4672583,31.2443907]]}},{"id":"1597","type":"Feature","properties":{"osm_id":966464244.0,"name":"上海地铁12号线","type":"subway","__source_file__":"19-其它/13-历史版本数据/2021.08/上海市_地铁线.shp"},"geometry":{"type":"LineString","coordinates":[[121.4672498,31.2444396],[121.4664378,31.2443496]]}},{"id":"1603","type":"Feature","properties":{"osm_id":966464257.0,"name":"上海地铁12号线","type":"subway","__source_file__":"19-其它/13-历史版本数据/2021.08/上海市_地铁线.shp"},"geometry":{"type":"LineString","coordinates":[[121.4672583,31.2443907],[121.4675778,31.244436]]}},{"id":"1602","type":"Feature","properties":{"osm_id":966464256.0,"name":"上海地铁12号线","type":"subway","__source_file__":"19-其它/13-历史版本数据/2021.08/上海市_地铁线.shp"},"geometry":{"type":"LineString","coordinates":[[121.4675689,31.2444849],[121.4672498,31.2444396]]}},{"id":"1655","type":"Feature","properties":{"osm_id":1007651588.0,"name":"上海地铁8号线","type":"subway","__source_file__":"19-其它/13-历史版本数据/2021.08/上海市_地铁线.shp"},"geometry":{"type":"LineString","coordinates":[[121.4669485,31.2444774],[121.4668504,31.245204],[121.4666467,31.2462687],[121.4664853,31.2470209]]}},{"id":"30","type":"Feature","properties":{"osm_id":49027840.0,"name":"上海地铁3/4号线","type":"subway","__source_file__":"19-其它/13-历史版本数据/2021.08/上海市_地铁线.shp"},"geometry":{"type":"LineString","coordinates":[[121.4613665,31.2485732],[121.4616816,31.2485205],[121.4619986,31.2484866],[121.4623092,31.248467],[121.4626273,31.2484646],[121.4629407,31.2484848],[121.4632555,31.2485201],[121.4635644,31.2485626],[121.463884,31.2486332],[121.4641693,31.2487167],[121.4644639,31.2488208],[121.464741,31.2489385],[121.4650192,31.249074],[121.4657777,31.2494542],[121.4662423,31.249687],[121.4665007,31.2498378],[121.466743,31.2499993],[121.4669727,31.2501719],[121.4671924,31.2503677],[121.4678056,31.2509756],[121.4680175,31.251174],[121.4682399,31.2513712],[121.4684655,31.2515437],[121.4686528,31.2516636],[121.4688601,31.2517843],[121.4724614,31.2538024],[121.4731886,31.2542118]]}},{"id":"299","type":"Feature","properties":{"osm_id":97550427.0,"name":"上海地铁3/4号线","type":"subway","__source_file__":"19-其它/13-历史版本数据/2021.08/上海市_地铁线.shp"},"geometry":{"type":"LineString","coordinates":[[121.4732049,31.2542729],[121.4711217,31.2530993],[121.4688321,31.2518095],[121.4686313,31.2516902],[121.46844,31.2515637],[121.4682151,31.2513899],[121.4679914,31.2511946],[121.4677787,31.2509947],[121.4671631,31.2503869],[121.4669466,31.2501936],[121.4667176,31.2500258],[121.466472,31.249858],[121.4662199,31.2497133],[121.4649972,31.2490998],[121.464723,31.2489631],[121.4644488,31.2488469],[121.4641577,31.2487451],[121.4638594,31.2486618],[121.4635551,31.2485919],[121.463246,31.2485466],[121.4629345,31.2485127],[121.4626219,31.2484966],[121.4623047,31.2484949],[121.461996,31.2485159],[121.4616856,31.2485485],[121.4613763,31.2485979]]}},{"id":"550","type":"Feature","properties":{"osm_id":144987339.0,"name":"上海地铁4号线","type":"subway","__source_file__":"19-其它/13-历史版本数据/2021.08/上海市_地铁线.shp"},"geometry":{"type":"LineString","coordinates":[[121.4744832,31.2551929],[121.4736271,31.2545486],[121.4732049,31.2542729]]}},{"id":"296","type":"Feature","properties":{"osm_id":97550422.0,"name":"上海地铁3号线","type":"subway","__source_file__":"19-其它/13-历史版本数据/2021.08/上海市_地铁线.shp"},"geometry":{"type":"LineString","coordinates":[[121.4731886,31.2542118],[121.4741244,31.2547388],[121.4743831,31.2548952],[121.4746208,31.2550572],[121.4748523,31.2552519],[121.475066,31.2554508],[121.4752628,31.255673],[121.4754291,31.2558977],[121.4755828,31.2561354],[121.4757104,31.2563856],[121.4758161,31.2566413],[121.4759001,31.2569007],[121.4759545,31.2571253],[121.4759912,31.2573932],[121.4760057,31.2576228],[121.4760108,31.257896],[121.475991,31.2581678],[121.4759189,31.2589788],[121.4758997,31.2592516],[121.4758758,31.2600922],[121.4758656,31.2604092],[121.4756788,31.2624244],[121.4756649,31.2625746],[121.4755812,31.263102],[121.4754935,31.2636483],[121.4754323,31.2641989],[121.47538,31.2646345],[121.4753636,31.26495],[121.4753619,31.2652767],[121.4753725,31.2655585],[121.4753971,31.2658361],[121.4755113,31.2673592],[121.4755454,31.2678979]]}},{"id":"549","type":"Feature","properties":{"osm_id":144554238.0,"name":"上海地铁3号线","type":"subway","__source_file__":"19-其它/13-历史版本数据/2021.08/上海市_地铁线.shp"},"geometry":{"type":"LineString","coordinates":[[121.4755104,31.2678979],[121.4754728,31.2673598],[121.4753644,31.2658374],[121.4753397,31.2655624],[121.4753245,31.2652775],[121.4753273,31.26495],[121.475349,31.264633],[121.4753958,31.2641944],[121.475459,31.2636422],[121.4755407,31.2630954],[121.475629,31.2625727],[121.4757568,31.2612062],[121.4758317,31.2604049],[121.4758449,31.2600915],[121.4758658,31.2592497],[121.4758879,31.2589771],[121.4759577,31.2581646],[121.4759755,31.2578955],[121.4759745,31.2576248],[121.4759628,31.2573954],[121.4759214,31.2571314],[121.4758704,31.2569052],[121.4757829,31.2566469],[121.475678,31.2563977],[121.475552,31.2561468],[121.4754028,31.2559124],[121.4752285,31.2556944],[121.4750372,31.2554732],[121.4748236,31.2552741],[121.4745946,31.2550824],[121.4743627,31.2549188],[121.4741048,31.2547658],[121.4732049,31.2542729]]}},{"id":"0","type":"Feature","properties":{"osm_id":12247578.0,"name":null,"type":"subway","__source_file__":"19-其它/13-历史版本数据/2021.08/上海市_地铁线.shp"},"geometry":{"type":"LineString","coordinates":[[121.4749401,31.2719489],[121.4748231,31.2723468]]}},{"id":"1611","type":"Feature","properties":{"osm_id":966476604.0,"name":"上海地铁12号线","type":"subway","__source_file__":"19-其它/13-历史版本数据/2021.08/上海市_地铁线.shp"},"geometry":{"type":"LineString","coordinates":[[121.495056,31.2525348],[121.4954837,31.252715]]}},{"id":"1609","type":"Feature","properties":{"osm_id":966476602.0,"name":"上海地铁12号线","type":"subway","__source_file__":"19-其它/13-历史版本数据/2021.08/上海市_地铁线.shp"},"geometry":{"type":"LineString","coordinates":[[121.4954546,31.2527578],[121.4950314,31.2525795]]}},{"id":"646","type":"Feature","properties":{"osm_id":175759819.0,"name":"上海地铁4号线","type":"subway","__source_file__":"19-其它/13-历史版本数据/2021.08/上海市_地铁线.shp"},"geometry":{"type":"LineString","coordinates":[[121.4769626,31.256341],[121.4763623,31.2561833],[121.4760646,31.2560931],[121.475756,31.2559822],[121.4754659,31.2558477],[121.4752149,31.2557091],[121.4749957,31.2555741],[121.4747651,31.2554051],[121.4744832,31.2551929]]}},{"id":"29","type":"Feature","properties":{"osm_id":49026995.0,"name":"上海地铁4号线","type":"subway","__source_file__":"19-其它/13-历史版本数据/2021.08/上海市_地铁线.shp"},"geometry":{"type":"LineString","coordinates":[[121.4731886,31.2542118],[121.4740307,31.2545841],[121.4743708,31.2547474],[121.4746456,31.2548922],[121.4752109,31.2552114],[121.4754796,31.2553519],[121.4758801,31.2555543],[121.4762467,31.2557309],[121.4771832,31.2561593],[121.4775403,31.2563399],[121.4778831,31.2565317],[121.4781462,31.256688],[121.4783281,31.256799],[121.4784992,31.2569047],[121.4786913,31.257039],[121.4811502,31.2588596]]}},{"id":"28","type":"Feature","properties":{"osm_id":49026994.0,"name":"上海地铁4号线","type":"subway","__source_file__":"19-其它/13-历史版本数据/2021.08/上海市_地铁线.shp"},"geometry":{"type":"LineString","coordinates":[[121.4811235,31.2588822],[121.4789892,31.2573018],[121.4786611,31.2570595],[121.478465,31.256932],[121.478287,31.2568343],[121.4780272,31.2567027],[121.4777981,31.256598],[121.4775414,31.256503],[121.4772594,31.2564219],[121.4769626,31.256341]]}},{"id":"297","type":"Feature","properties":{"osm_id":97550424.0,"name":"上海地铁4号线","type":"subway","__source_file__":"19-其它/13-历史版本数据/2021.08/上海市_地铁线.shp"},"geometry":{"type":"LineString","coordinates":[[121.4811502,31.2588596],[121.4813694,31.2590143]]}},{"id":"298","type":"Feature","properties":{"osm_id":97550425.0,"name":"上海地铁4号线","type":"subway","__source_file__":"19-其它/13-历史版本数据/2021.08/上海市_地铁线.shp"},"geometry":{"type":"LineString","coordinates":[[121.4813395,31.259042],[121.4811235,31.2588822]]}},{"id":"1023","type":"Feature","properties":{"osm_id":437239483.0,"name":"上海地铁12号线","type":"subway","__source_file__":"19-其它/13-历史版本数据/2021.08/上海市_地铁线.shp"},"geometry":{"type":"LineString","coordinates":[[121.4954837,31.252715],[121.4957852,31.252842],[121.4966969,31.253235],[121.49709477220657,31.25340126302153]]}},{"id":"1065","type":"Feature","properties":{"osm_id":513577027.0,"name":"上海地铁12号线","type":"subway","__source_file__":"19-其它/13-历史版本数据/2021.08/上海市_地铁线.shp"},"geometry":{"type":"LineString","coordinates":[[121.4970823844156,31.253451106127315],[121.4966712,31.2532793],[121.4957594,31.2528862],[121.4954546,31.2527578]]}},{"id":"8","type":"Feature","properties":{"osm_id":47096751.0,"name":"上海地铁3号线","type":"subway","__source_file__":"19-其它/13-历史版本数据/2021.08/上海市_地铁线.shp"},"geometry":{"type":"LineString","coordinates":[[121.4755454,31.2678979],[121.4755419,31.2685379],[121.4755022,31.2690847],[121.4754268,31.2696326],[121.4753235,31.2701674],[121.4751959,31.2707135],[121.4750846,31.2712486],[121.4749401,31.2719489],[121.474855,31.2723514],[121.474808,31.272584],[121.4747589,31.2729279],[121.4747158,31.2732672],[121.4746885,31.2736102],[121.474688,31.2739199],[121.4746879,31.2739618],[121.4747076,31.2743223],[121.474729,31.2745888],[121.4747624,31.2748523],[121.4748055,31.2751092],[121.4748741,31.2753946],[121.4749507,31.2756643],[121.4750421,31.2759245],[121.4752332,31.2764387],[121.4754508,31.2768748],[121.47587229248069,31.277666468953058]]}},{"id":"26","type":"Feature","properties":{"osm_id":49026399.0,"name":"上海地铁3/4号线","type":"subway","__source_file__":"19-其它/13-历史版本数据/2021.08/上海市_地铁线.shp"},"geometry":{"type":"LineString","coordinates":[[121.4613763,31.2485979],[121.461083,31.2486798],[121.4607719,31.2487827],[121.4601539,31.2489871],[121.4595145,31.2491986],[121.4590892,31.249353],[121.4577625,31.2498765],[121.4573886,31.2500273],[121.4569553,31.2502],[121.4558552,31.250618],[121.4555045,31.2507755],[121.4552531,31.2509011],[121.4550101,31.2510158],[121.4547312,31.2511387],[121.4544885,31.2512427],[121.4523857,31.2520583],[121.4522823,31.252096],[121.4520508,31.2521721],[121.4517605,31.2522676],[121.4513698,31.2524019],[121.4474882,31.2539174],[121.4471223,31.2540576],[121.4461487,31.2544087],[121.4458287,31.2545286],[121.4449471,31.2548724]]}},{"id":"293","type":"Feature","properties":{"osm_id":97546576.0,"name":null,"type":"subway","__source_file__":"19-其它/13-历史版本数据/2021.08/上海市_地铁线.shp"},"geometry":{"type":"LineString","coordinates":[[121.4512263,31.2524192],[121.4514715,31.2522877]]}},{"id":"292","type":"Feature","properties":{"osm_id":97546564.0,"name":null,"type":"subway","__source_file__":"19-其它/13-历史版本数据/2021.08/上海市_地铁线.shp"},"geometry":{"type":"LineString","coordinates":[[121.4472913,31.2539594],[121.4512263,31.2524192],[121.4515197,31.2523036],[121.4520508,31.2521721]]}},{"id":"1516","type":"Feature","properties":{"osm_id":840440427.0,"name":"上海地铁3/4号线","type":"subway","__source_file__":"19-其它/13-历史版本数据/2021.08/上海市_地铁线.shp"},"geometry":{"type":"LineString","coordinates":[[121.4445582,31.254979],[121.444927,31.2548311]]}},{"id":"1520","type":"Feature","properties":{"osm_id":841562184.0,"name":"上海地铁3/4号线","type":"subway","__source_file__":"19-其它/13-历史版本数据/2021.08/上海市_地铁线.shp"},"geometry":{"type":"LineString","coordinates":[[121.4449471,31.2548724],[121.4446253,31.2549974]]}},{"id":"1517","type":"Feature","properties":{"osm_id":840440428.0,"name":"上海地铁3/4号线","type":"subway","__source_file__":"19-其它/13-历史版本数据/2021.08/上海市_地铁线.shp"},"geometry":{"type":"LineString","coordinates":[[121.4432055,31.255507],[121.4445582,31.254979]]}},{"id":"1519","type":"Feature","properties":{"osm_id":841562183.0,"name":"上海地铁3/4号线","type":"subway","__source_file__":"19-其它/13-历史版本数据/2021.08/上海市_地铁线.shp"},"geometry":{"type":"LineString","coordinates":[[121.4446253,31.2549974],[121.44322,31.2555353]]}},{"id":"339","type":"Feature","properties":{"osm_id":97659382.0,"name":null,"type":"subway","__source_file__":"19-其它/13-历史版本数据/2021.08/上海市_地铁线.shp"},"geometry":{"type":"LineString","coordinates":[[121.4373667,31.2565608],[121.4377025,31.2566378]]}},{"id":"1047","type":"Feature","properties":{"osm_id":461654540.0,"name":"上海地铁7号线","type":"subway","__source_file__":"19-其它/13-历史版本数据/2021.08/上海市_地铁线.shp"},"geometry":{"type":"LineString","coordinates":[[121.4217457893215,31.253063104166348],[121.422192,31.2530293],[121.4229557,31.2528455],[121.4236077,31.2524789],[121.4248458,31.2511463],[121.4256694,31.250246],[121.4265057,31.2493523],[121.427186,31.2483656],[121.4274636,31.2479342],[121.4277389,31.2473102],[121.4279625,31.2463594],[121.4287541,31.244778],[121.429084,31.2444067],[121.4301001,31.2438547],[121.4326276,31.2425604],[121.433661,31.2418081],[121.4343604,31.2411803],[121.4361012,31.2387828],[121.4373478,31.2366794],[121.4377624,31.2359724],[121.4380564,31.2355211],[121.4382774,31.2352362],[121.4384725,31.2350088],[121.4387185,31.2347553],[121.440515,31.2330558],[121.4416112,31.2318402],[121.4418193,31.2314343],[121.4419698,31.231008],[121.44221,31.2294818],[121.4424853,31.2287464],[121.4438124,31.2252098],[121.4449242,31.2230634],[121.4449895,31.2226924],[121.4449844,31.2223514],[121.44498107645761,31.222339755695423]]}},{"id":"1046","type":"Feature","properties":{"osm_id":461654539.0,"name":"上海地铁7号线","type":"subway","__source_file__":"19-其它/13-历史版本数据/2021.08/上海市_地铁线.shp"},"geometry":{"type":"LineString","coordinates":[[121.44501502043894,31.222330797266707],[121.4450161,31.2223345],[121.4450156,31.2227043],[121.4449363,31.2231041],[121.4438538,31.2252219],[121.4425269,31.2287579],[121.4422528,31.2294903],[121.4420124,31.2310173],[121.4418611,31.2314485],[121.44165,31.2318583],[121.440549,31.2330793],[121.4387522,31.2347948],[121.4383394,31.2352425],[121.438114,31.2355406],[121.4379553,31.235781],[121.4378203,31.2359878],[121.4374004,31.2367029],[121.4361394,31.2388011],[121.4343954,31.241203],[121.4336992,31.2418386],[121.432664,31.2425918],[121.4301241,31.2438856],[121.4291146,31.2444342],[121.4287923,31.2447967],[121.4280045,31.2463707],[121.4277811,31.2473207],[121.427504,31.2479487],[121.4270004,31.2487102],[121.4265413,31.249374],[121.425704,31.2502689],[121.4248804,31.251169],[121.4236389,31.2525054],[121.4229761,31.2528838],[121.4222094,31.2530648],[121.42175296893232,31.253099346438617]]}},{"id":"3","type":"Feature","properties":{"osm_id":39067562.0,"name":"上海地铁3号线","type":"subway","__source_file__":"19-其它/13-历史版本数据/2021.08/上海市_地铁线.shp"},"geometry":{"type":"LineString","coordinates":[[121.47583711623179,31.277678846799624],[121.4754152,31.2768882],[121.4752062,31.276452],[121.4750098,31.2759325],[121.4749227,31.2756745],[121.4748343,31.2754055],[121.4747671,31.2751174],[121.4747264,31.2748533],[121.4746954,31.2745929],[121.4746714,31.2743284],[121.4746503,31.2739604],[121.4746513,31.2736091],[121.4746735,31.2732646],[121.4747115,31.2729239],[121.4747671,31.2726034],[121.4747713,31.2725793],[121.4748231,31.2723468],[121.4750498,31.2712442],[121.475164,31.2707066],[121.4752902,31.2701621],[121.4753946,31.2696292],[121.4754612,31.2690829],[121.4755062,31.2685367],[121.4755104,31.2678979]]}},{"id":"1599","type":"Feature","properties":{"osm_id":966464246.0,"name":"上海地铁8号线","type":"subway","__source_file__":"19-其它/13-历史版本数据/2021.08/上海市_地铁线.shp"},"geometry":{"type":"LineString","coordinates":[[121.48016957274821,31.275965819293248],[121.4800518,31.2753233],[121.4798556,31.2745687],[121.4797279,31.2742733],[121.4795678,31.2740108],[121.4793336,31.2737093],[121.4790792,31.2734114],[121.4788323,31.2731922],[121.4785328,31.2729824],[121.4781959,31.2727798],[121.4778272,31.2725895],[121.4775345,31.2724668],[121.4772228,31.2723582],[121.4768895,31.2722641],[121.4764954,31.2721788],[121.4746987,31.2718952],[121.4735983,31.2717232],[121.4726162,31.2714689],[121.4717562,31.2711516],[121.4708359,31.2707549],[121.4699585,31.2702748],[121.4690189,31.2696724],[121.4678822,31.2688242],[121.4669046,31.2679499],[121.4645539,31.2655805],[121.4637572,31.2647658],[121.4634336,31.2643305],[121.4631659,31.2638956],[121.4626732,31.2627692],[121.4625848,31.2623388],[121.4627316,31.261453],[121.4627916,31.2603694],[121.4628432,31.2594285],[121.4629474,31.2586863],[121.4634479,31.2576535],[121.4643339,31.2550603],[121.4650201,31.2522546],[121.4652723,31.2513666]]}},{"id":"1598","type":"Feature","properties":{"osm_id":966464245.0,"name":"上海地铁8号线","type":"subway","__source_file__":"19-其它/13-历史版本数据/2021.08/上海市_地铁线.shp"},"geometry":{"type":"LineString","coordinates":[[121.4653279,31.2513801],[121.4650765,31.2522654],[121.4643732,31.2550951],[121.4635016,31.2576717],[121.4630038,31.2586989],[121.4629008,31.2594326],[121.4628493,31.2603717],[121.4627892,31.2614576],[121.4626433,31.262338],[121.4627292,31.2627562],[121.4632188,31.2638754],[121.4634837,31.2643057],[121.463804,31.2647366],[121.4645981,31.2655487],[121.4669476,31.2679168],[121.4679222,31.2687884],[121.4690553,31.269634],[121.4699915,31.2702342],[121.4708646,31.2707119],[121.4717807,31.2711068],[121.4726361,31.2714224],[121.4736119,31.2716751],[121.4747091,31.2718466],[121.4765078,31.2721305],[121.4769057,31.2722166],[121.4772428,31.2723118],[121.4775582,31.2724217],[121.4778549,31.2725461],[121.4782275,31.2727384],[121.4785678,31.272943],[121.4788716,31.2731558],[121.4791236,31.2733796],[121.479381,31.2736811],[121.4796176,31.2739856],[121.4797809,31.2742532],[121.4799112,31.2745547],[121.4801086,31.2753141],[121.48022357443712,31.2759413245485]]}}],"name":"上海市_地铁线","crs":{"type":"name","properties":{"name":"urn:ogc:def:crs:OGC:1.3:CRS84"}}}