{"type":"FeatureCollection","features":[{"id":"334","type":"Feature","properties":{"gml_id":"layer_school_pg.6133","Name":"上海市西小学","fclass":"school","__source_file__":"19-其它/13-历史版本数据/2021.08/上海市_学校区域.shp"},"geometry":{"type":"Polygon","coordinates":[[[121.436766,31.226936],[121.437237,31.226806],[121.437126,31.226615],[121.436938,31.22672],[121.436852,31.22661],[121.436584,31.226766],[121.436766,31.226936]]]}},{"id":"257","type":"Feature","properties":{"gml_id":"layer_school_pg.4735","Name":"光明中学","fclass":"school","__source_file__":"19-其它/13-历史版本数据/2021.08/上海市_学校区域.shp"},"geometry":{"type":"Polygon","coordinates":[[[121.47594,31.228429],[121.476629,31.228826],[121.47668,31.22883],[121.476981,31.228399],[121.476966,31.228276],[121.475947,31.22782],[121.475637,31.228296],[121.47594,31.228429]]]}},{"id":"310","type":"Feature","properties":{"gml_id":"layer_school_pg.5492","Name":null,"fclass":"school","__source_file__":"19-其它/13-历史版本数据/2021.08/上海市_学校区域.shp"},"geometry":{"type":"Polygon","coordinates":[[[121.45323,31.233028],[121.45338,31.232743],[121.452963,31.232583],[121.453003,31.232507],[121.452847,31.232447],[121.452657,31.232809],[121.45323,31.233028]]]}},{"id":"180","type":"Feature","properties":{"gml_id":"layer_school_pg.2491","Name":null,"fclass":"school","__source_file__":"19-其它/13-历史版本数据/2021.08/上海市_学校区域.shp"},"geometry":{"type":"Polygon","coordinates":[[[121.431528,31.254062],[121.432804,31.252994],[121.43171,31.252088],[121.431404,31.252342],[121.431866,31.252718],[121.431603,31.252962],[121.431437,31.252925],[121.431222,31.253122],[121.431082,31.253095],[121.430771,31.253315],[121.431528,31.254062]]]}},{"id":"302","type":"Feature","properties":{"gml_id":"layer_school_pg.5329","Name":null,"fclass":"school","__source_file__":"19-其它/13-历史版本数据/2021.08/上海市_学校区域.shp"},"geometry":{"type":"Polygon","coordinates":[[[121.440463,31.25559],[121.440739,31.255325],[121.440539,31.255314],[121.440535,31.25535],[121.440416,31.255339],[121.440416,31.255387],[121.440276,31.255379],[121.440237,31.255339],[121.440174,31.255339],[121.440165,31.255579],[121.440463,31.25559]]]}}],"name":"上海市_学校区域","crs":{"type":"name","properties":{"name":"urn:ogc:def:crs:OGC:1.3:CRS84"}}}