{"type":"FeatureCollection","features":[{"id":"18","type":"Feature","properties":{"gml_id":"layer_railway_pl.1199","Name":"外滩观光隧道","fclass":"light_rail","__source_file__":"19-其它/13-历史版本数据/2021.08/上海市_铁路.shp"},"geometry":{"type":"LineString","coordinates":[[121.48608636,31.24156032],[121.49240976,31.24058787]]}},{"id":"59","type":"Feature","properties":{"gml_id":"layer_railway_pl.3141","Name":"京沪线","fclass":"rail","__source_file__":"19-其它/13-历史版本数据/2021.08/上海市_铁路.shp"},"geometry":{"type":"LineString","coordinates":[[121.45787748,31.24953513],[121.46035572,31.24869129],[121.46116068,31.24848951],[121.4615682,31.24840689],[121.46235156,31.2483519],[121.46313456,31.24837017],[121.46368176,31.24847106],[121.4642718,31.24863621],[121.46490504,31.24884717],[121.46531184,31.24901241],[121.46553792,31.24910403]]}},{"id":"61","type":"Feature","properties":{"gml_id":"layer_railway_pl.3143","Name":"京沪线","fclass":"rail","__source_file__":"19-其它/13-历史版本数据/2021.08/上海市_铁路.shp"},"geometry":{"type":"LineString","coordinates":[[121.46542848,31.2489513],[121.46491548,31.24872801],[121.46383188,31.24837017],[121.46324184,31.24825101],[121.4621154,31.24823274],[121.46125716,31.24831518],[121.46036652,31.24853532],[121.46010912,31.24859949],[121.45951908,31.24880127],[121.45781304,31.24942506],[121.45667976,31.24985958]]}},{"id":"1826","type":"Feature","properties":{"gml_id":"layer_railway_pl.103044","Name":"京沪线","fclass":"rail","__source_file__":"19-其它/13-历史版本数据/2021.08/上海市_铁路.shp"},"geometry":{"type":"LineString","coordinates":[[121.45344012,31.25012796],[121.45387572,31.25004876],[121.45435848,31.25004498],[121.45461228,31.250043],[121.4550558,31.25003958],[121.45597848,31.24996623],[121.45622364,31.24991511],[121.4564184,31.24987452],[121.4577486,31.24935171],[121.4593902,31.24876464],[121.46018436,31.24849869],[121.46118192,31.24826019],[121.46204016,31.2481593],[121.46326344,31.24818684],[121.46392836,31.24831518],[121.46492628,31.24869129],[121.46542848,31.2489513],[121.4656344,31.24905822],[121.46638176,31.24948932],[121.46652036,31.24956897],[121.46656212,31.24959309],[121.46668704,31.24964493],[121.46727024,31.24988658],[121.46813928,31.25023506],[121.46878296,31.25052864],[121.47260292,31.25271078]]}},{"id":"65","type":"Feature","properties":{"gml_id":"layer_railway_pl.3147","Name":"京沪线","fclass":"rail","__source_file__":"19-其它/13-历史版本数据/2021.08/上海市_铁路.shp"},"geometry":{"type":"LineString","coordinates":[[121.45396284,31.25094714],[121.45533084,31.25042478],[121.45565556,31.25030157],[121.45619448,31.25008908],[121.45658868,31.24994481],[121.45783464,31.24948932],[121.4599482,31.24872801],[121.46091372,31.24848033],[121.4615466,31.24834272],[121.46222268,31.24829691],[121.4631774,31.248306],[121.46363892,31.2483978],[121.46421816,31.2485445],[121.46492628,31.24879218],[121.46553792,31.24910403],[121.46635332,31.24955349],[121.4668224,31.24989441],[121.466997,31.25002122],[121.46719248,31.25019987],[121.46729076,31.25028969],[121.46838084,31.25128698],[121.46871348,31.25152548],[121.4699904,31.25224089],[121.47201864,31.25340828]]}},{"id":"80","type":"Feature","properties":{"gml_id":"layer_railway_pl.3173","Name":"京沪线","fclass":"rail","__source_file__":"19-其它/13-历史版本数据/2021.08/上海市_铁路.shp"},"geometry":{"type":"LineString","coordinates":[[121.46668704,31.24964493],[121.46857884,31.25064789],[121.4724618,31.25287854]]}},{"id":"77","type":"Feature","properties":{"gml_id":"layer_railway_pl.3170","Name":"京沪线","fclass":"rail","__source_file__":"19-其它/13-历史版本数据/2021.08/上海市_铁路.shp"},"geometry":{"type":"LineString","coordinates":[[121.46635332,31.24955349],[121.46659416,31.24966653],[121.46688144,31.24985292],[121.46928696,31.2512166],[121.47237252,31.25298483]]}},{"id":"81","type":"Feature","properties":{"gml_id":"layer_railway_pl.3174","Name":"京沪线","fclass":"rail","__source_file__":"19-其它/13-历史版本数据/2021.08/上海市_铁路.shp"},"geometry":{"type":"LineString","coordinates":[[121.46659416,31.24966653],[121.46722704,31.24998747],[121.46777424,31.25028096],[121.46858964,31.25071206],[121.47244164,31.25290248]]}},{"id":"69","type":"Feature","properties":{"gml_id":"layer_railway_pl.3162","Name":"京沪线","fclass":"rail","__source_file__":"19-其它/13-历史版本数据/2021.08/上海市_铁路.shp"},"geometry":{"type":"LineString","coordinates":[[121.46727024,31.24988658],[121.46816052,31.2503085],[121.46891328,31.25071791],[121.46922288,31.25088639],[121.47253524,31.25279106]]}},{"id":"70","type":"Feature","properties":{"gml_id":"layer_railway_pl.3163","Name":"京沪线","fclass":"rail","__source_file__":"19-其它/13-历史版本数据/2021.08/上海市_铁路.shp"},"geometry":{"type":"LineString","coordinates":[[121.46727024,31.24988658],[121.46916924,31.25092311],[121.47250104,31.25283183]]}},{"id":"52","type":"Feature","properties":{"gml_id":"layer_railway_pl.3134","Name":"京沪线","fclass":"rail","__source_file__":"19-其它/13-历史版本数据/2021.08/上海市_铁路.shp"},"geometry":{"type":"LineString","coordinates":[[121.4539632,31.25122173],[121.45451544,31.25098836],[121.45580676,31.25044323],[121.45692276,31.24997541],[121.45790988,31.2495993],[121.46065632,31.24866384],[121.46147172,31.24848033],[121.46231916,31.24840689],[121.46311296,31.24842534],[121.46385348,31.24855368],[121.46472252,31.24883799],[121.46531184,31.24901241]]}},{"id":"1825","type":"Feature","properties":{"gml_id":"layer_railway_pl.103043","Name":"京沪线","fclass":"rail","__source_file__":"19-其它/13-历史版本数据/2021.08/上海市_铁路.shp"},"geometry":{"type":"LineString","coordinates":[[121.45347504,31.25018529],[121.45378968,31.25010384],[121.45435848,31.25004498]]}},{"id":"55","type":"Feature","properties":{"gml_id":"layer_railway_pl.3137","Name":"京沪线","fclass":"rail","__source_file__":"19-其它/13-历史版本数据/2021.08/上海市_铁路.shp"},"geometry":{"type":"LineString","coordinates":[[121.45625352,31.24997019],[121.45595868,31.25000457],[121.45559472,31.2500394],[121.45532292,31.25006541],[121.45519332,31.25007612],[121.45504392,31.25008827],[121.45486284,31.25010438],[121.45423536,31.25014344],[121.45397364,31.25017323],[121.45370976,31.25022939],[121.4535042,31.25028384]]}},{"id":"1824","type":"Feature","properties":{"gml_id":"layer_railway_pl.103042","Name":"京沪线","fclass":"rail","__source_file__":"19-其它/13-历史版本数据/2021.08/上海市_铁路.shp"},"geometry":{"type":"LineString","coordinates":[[121.45353408,31.25038707],[121.45383,31.25031588],[121.45415868,31.25024712],[121.45450608,31.25021562],[121.45488984,31.2501915],[121.45511484,31.25018241],[121.45530024,31.25014218],[121.4559774,31.25001843],[121.45625352,31.24997019],[121.45649652,31.24992546]]}},{"id":"1842","type":"Feature","properties":{"gml_id":"layer_railway_pl.103061","Name":"京沪线","fclass":"rail","__source_file__":"19-其它/13-历史版本数据/2021.08/上海市_铁路.shp"},"geometry":{"type":"LineString","coordinates":[[121.45559472,31.2500394],[121.45536576,31.2500952],[121.45518216,31.25012499],[121.45499316,31.2501411],[121.45455576,31.2501663],[121.45425948,31.25019384],[121.45398048,31.2502374],[121.45375908,31.25028096],[121.45352832,31.25033766]]}},{"id":"1822","type":"Feature","properties":{"gml_id":"layer_railway_pl.103040","Name":"京沪线","fclass":"rail","__source_file__":"19-其它/13-历史版本数据/2021.08/上海市_铁路.shp"},"geometry":{"type":"LineString","coordinates":[[121.45361724,31.2505407],[121.4539308,31.25044152],[121.45428612,31.25035944],[121.45509288,31.25023173],[121.45548636,31.25015829],[121.45581648,31.25009637],[121.45608468,31.25003787],[121.45626576,31.24999548],[121.45649652,31.24992546],[121.45667976,31.24985958]]}},{"id":"1845","type":"Feature","properties":{"gml_id":"layer_railway_pl.103064","Name":"京沪线","fclass":"rail","__source_file__":"19-其它/13-历史版本数据/2021.08/上海市_铁路.shp"},"geometry":{"type":"LineString","coordinates":[[121.45458636,31.25051199],[121.45482684,31.25043747],[121.45525056,31.25032281],[121.45563756,31.25020986],[121.45602312,31.25010213],[121.45632156,31.25001726],[121.45658868,31.24994481]]}},{"id":"1837","type":"Feature","properties":{"gml_id":"layer_railway_pl.103056","Name":"京沪线","fclass":"rail","__source_file__":"19-其它/13-历史版本数据/2021.08/上海市_铁路.shp"},"geometry":{"type":"LineString","coordinates":[[121.45392036,31.25108763],[121.45491936,31.25068677],[121.45574664,31.25036241],[121.4565822,31.25003103],[121.45787748,31.24953513]]}},{"id":"1823","type":"Feature","properties":{"gml_id":"layer_railway_pl.103041","Name":"京沪线","fclass":"rail","__source_file__":"19-其它/13-历史版本数据/2021.08/上海市_铁路.shp"},"geometry":{"type":"LineString","coordinates":[[121.45360248,31.25049597],[121.45392144,31.25040021],[121.45427928,31.2503274],[121.45511484,31.25018241]]}},{"id":"1841","type":"Feature","properties":{"gml_id":"layer_railway_pl.103060","Name":"京沪线","fclass":"rail","__source_file__":"19-其它/13-历史版本数据/2021.08/上海市_铁路.shp"},"geometry":{"type":"LineString","coordinates":[[121.45602312,31.25010213],[121.45555548,31.2501852],[121.45510836,31.25027286],[121.45461768,31.25036124],[121.45445244,31.25039904],[121.45420728,31.25047356],[121.45396572,31.25055609],[121.4536896,31.25065653]]}},{"id":"78","type":"Feature","properties":{"gml_id":"layer_railway_pl.3171","Name":"京沪线","fclass":"rail","__source_file__":"19-其它/13-历史版本数据/2021.08/上海市_铁路.shp"},"geometry":{"type":"LineString","coordinates":[[121.46688144,31.24985292],[121.46863284,31.25090466],[121.47233328,31.25303154]]}},{"id":"79","type":"Feature","properties":{"gml_id":"layer_railway_pl.3172","Name":"京沪线","fclass":"rail","__source_file__":"19-其它/13-历史版本数据/2021.08/上海市_铁路.shp"},"geometry":{"type":"LineString","coordinates":[[121.4668224,31.24989441],[121.46767776,31.25040939],[121.46842872,31.25083131],[121.47229152,31.25308122]]}},{"id":"68","type":"Feature","properties":{"gml_id":"layer_railway_pl.3161","Name":"京沪线","fclass":"rail","__source_file__":"19-其它/13-历史版本数据/2021.08/上海市_铁路.shp"},"geometry":{"type":"LineString","coordinates":[[121.46813928,31.25023506],[121.46841828,31.25039112],[121.46956596,31.25102391],[121.47256188,31.25275956]]}},{"id":"82","type":"Feature","properties":{"gml_id":"layer_railway_pl.3175","Name":"京沪线","fclass":"rail","__source_file__":"19-其它/13-历史版本数据/2021.08/上海市_铁路.shp"},"geometry":{"type":"LineString","coordinates":[[121.46777424,31.25028096],[121.47240492,31.25294631]]}},{"id":"76","type":"Feature","properties":{"gml_id":"layer_railway_pl.3169","Name":"京沪线","fclass":"rail","__source_file__":"19-其它/13-历史版本数据/2021.08/上海市_铁路.shp"},"geometry":{"type":"LineString","coordinates":[[121.46719248,31.25019987],[121.4693838,31.25144592],[121.47225444,31.25312541]]}},{"id":"75","type":"Feature","properties":{"gml_id":"layer_railway_pl.3168","Name":"京沪线","fclass":"rail","__source_file__":"19-其它/13-历史版本数据/2021.08/上海市_铁路.shp"},"geometry":{"type":"LineString","coordinates":[[121.46729076,31.25028969],[121.46796756,31.25068461],[121.46995224,31.25183112],[121.47222456,31.25316069]]}},{"id":"886","type":"Feature","properties":{"gml_id":"layer_railway_pl.19917","Name":"京沪线","fclass":"rail","__source_file__":"19-其它/13-历史版本数据/2021.08/上海市_铁路.shp"},"geometry":{"type":"LineString","coordinates":[[121.46729076,31.25028969],[121.46759676,31.25053377],[121.46772528,31.25064393],[121.46793984,31.25082744],[121.4681022,31.25096604],[121.46843448,31.25126871],[121.468896,31.25157129],[121.47204564,31.25337381]]}},{"id":"74","type":"Feature","properties":{"gml_id":"layer_railway_pl.3167","Name":"京沪线","fclass":"rail","__source_file__":"19-其它/13-历史版本数据/2021.08/上海市_铁路.shp"},"geometry":{"type":"LineString","coordinates":[[121.46759676,31.25053377],[121.46899752,31.25135412],[121.47219216,31.25319957]]}},{"id":"73","type":"Feature","properties":{"gml_id":"layer_railway_pl.3166","Name":"京沪线","fclass":"rail","__source_file__":"19-其它/13-历史版本数据/2021.08/上海市_铁路.shp"},"geometry":{"type":"LineString","coordinates":[[121.46772528,31.25064393],[121.46869728,31.25124414],[121.47215688,31.25324124]]}},{"id":"72","type":"Feature","properties":{"gml_id":"layer_railway_pl.3165","Name":"京沪线","fclass":"rail","__source_file__":"19-其它/13-历史版本数据/2021.08/上海市_铁路.shp"},"geometry":{"type":"LineString","coordinates":[[121.46793984,31.25082744],[121.46879376,31.25138166],[121.4721216,31.25328327]]}},{"id":"1820","type":"Feature","properties":{"gml_id":"layer_railway_pl.103038","Name":"京沪线","fclass":"rail","__source_file__":"19-其它/13-历史版本数据/2021.08/上海市_铁路.shp"},"geometry":{"type":"LineString","coordinates":[[121.45378356,31.25082726],[121.45458636,31.25051199],[121.45516596,31.25030328],[121.45533048,31.25024937],[121.45555548,31.2501852],[121.45586076,31.25009871],[121.45608468,31.25003787]]}},{"id":"1840","type":"Feature","properties":{"gml_id":"layer_railway_pl.103059","Name":"京沪线","fclass":"rail","__source_file__":"19-其它/13-历史版本数据/2021.08/上海市_铁路.shp"},"geometry":{"type":"LineString","coordinates":[[121.45516596,31.25030328],[121.45497048,31.25035692],[121.45474368,31.25041506],[121.45389588,31.25064438],[121.45371516,31.25070576]]}},{"id":"1844","type":"Feature","properties":{"gml_id":"layer_railway_pl.103063","Name":"京沪线","fclass":"rail","__source_file__":"19-其它/13-历史版本数据/2021.08/上海市_铁路.shp"},"geometry":{"type":"LineString","coordinates":[[121.4543862,31.2506937],[121.45464144,31.25061567],[121.4550774,31.25049876],[121.45533084,31.25042478]]}},{"id":"1836","type":"Feature","properties":{"gml_id":"layer_railway_pl.103055","Name":"京沪线","fclass":"rail","__source_file__":"19-其它/13-历史版本数据/2021.08/上海市_铁路.shp"},"geometry":{"type":"LineString","coordinates":[[121.45381596,31.25091348],[121.4543862,31.2506937],[121.45546836,31.25027061],[121.45563756,31.25020986]]}},{"id":"1839","type":"Feature","properties":{"gml_id":"layer_railway_pl.103058","Name":"京沪线","fclass":"rail","__source_file__":"19-其它/13-历史版本数据/2021.08/上海市_铁路.shp"},"geometry":{"type":"LineString","coordinates":[[121.45387752,31.25103264],[121.45534344,31.25047401],[121.45568472,31.25034108],[121.45620924,31.25013993]]}},{"id":"1849","type":"Feature","properties":{"gml_id":"layer_railway_pl.103068","Name":"京沪线","fclass":"rail","__source_file__":"19-其它/13-历史版本数据/2021.08/上海市_铁路.shp"},"geometry":{"type":"LineString","coordinates":[[121.45525056,31.25032281],[121.45495428,31.25042082],[121.45379976,31.25087316]]}},{"id":"1838","type":"Feature","properties":{"gml_id":"layer_railway_pl.103057","Name":"京沪线","fclass":"rail","__source_file__":"19-其它/13-历史版本数据/2021.08/上海市_铁路.shp"},"geometry":{"type":"LineString","coordinates":[[121.45451544,31.25098836],[121.45473936,31.25086911],[121.4555454,31.2504552],[121.45574664,31.25036241]]}},{"id":"54","type":"Feature","properties":{"gml_id":"layer_railway_pl.3136","Name":"京沪线","fclass":"rail","__source_file__":"19-其它/13-历史版本数据/2021.08/上海市_铁路.shp"},"geometry":{"type":"LineString","coordinates":[[121.44701448,31.25314323],[121.44733092,31.25288151],[121.44769632,31.25258946],[121.44806244,31.25233044],[121.44828024,31.25219589],[121.44855852,31.25206089],[121.45318524,31.25025216],[121.45347504,31.25018529]]}},{"id":"56","type":"Feature","properties":{"gml_id":"layer_railway_pl.3138","Name":"京沪线","fclass":"rail","__source_file__":"19-其它/13-历史版本数据/2021.08/上海市_铁路.shp"},"geometry":{"type":"LineString","coordinates":[[121.44704328,31.25318697],[121.44753756,31.2528978],[121.4477172,31.25277288],[121.44811428,31.25255274],[121.44855852,31.25231784],[121.45329864,31.25047032],[121.45353408,31.25038707]]}},{"id":"57","type":"Feature","properties":{"gml_id":"layer_railway_pl.3139","Name":"京沪线","fclass":"rail","__source_file__":"19-其它/13-历史版本数据/2021.08/上海市_铁路.shp"},"geometry":{"type":"LineString","coordinates":[[121.44705696,31.2536151],[121.44764052,31.25333439],[121.4483238,31.25300571],[121.44882024,31.25277522],[121.45378356,31.25082726]]}},{"id":"1846","type":"Feature","properties":{"gml_id":"layer_railway_pl.103065","Name":"京沪线","fclass":"rail","__source_file__":"19-其它/13-历史版本数据/2021.08/上海市_铁路.shp"},"geometry":{"type":"LineString","coordinates":[[121.44749724,31.25354418],[121.44778956,31.25340657],[121.4484066,31.25308437],[121.44872448,31.25291589],[121.44886596,31.25284434],[121.45381596,31.25091348]]}},{"id":"1817","type":"Feature","properties":{"gml_id":"layer_railway_pl.103035","Name":"京沪线","fclass":"rail","__source_file__":"19-其它/13-历史版本数据/2021.08/上海市_铁路.shp"},"geometry":{"type":"LineString","coordinates":[[121.45379976,31.25087316],[121.44884436,31.2528096],[121.44705048,31.25366973],[121.44670416,31.25383578],[121.44652344,31.25392236]]}},{"id":"1818","type":"Feature","properties":{"gml_id":"layer_railway_pl.103036","Name":"京沪线","fclass":"rail","__source_file__":"19-其它/13-历史版本数据/2021.08/上海市_铁路.shp"},"geometry":{"type":"LineString","coordinates":[[121.44653424,31.2539724],[121.4470548,31.25371788],[121.44749724,31.25354418],[121.44892176,31.25298501],[121.45387752,31.25103264]]}},{"id":"62","type":"Feature","properties":{"gml_id":"layer_railway_pl.3144","Name":"京沪线","fclass":"rail","__source_file__":"19-其它/13-历史版本数据/2021.08/上海市_铁路.shp"},"geometry":{"type":"LineString","coordinates":[[121.45352832,31.25033766],[121.45326228,31.25042118],[121.44845772,31.25230506],[121.44807144,31.25249766],[121.4476704,31.252743],[121.44737412,31.25295864],[121.44704328,31.25318697],[121.44669408,31.25342286],[121.44619368,31.25376657],[121.44564936,31.25408436]]}},{"id":"63","type":"Feature","properties":{"gml_id":"layer_railway_pl.3145","Name":"京沪线","fclass":"rail","__source_file__":"19-其它/13-历史版本数据/2021.08/上海市_铁路.shp"},"geometry":{"type":"LineString","coordinates":[[121.44601836,31.25393541],[121.4463312,31.25374263],[121.44704688,31.25324412],[121.44780576,31.2528024],[121.44830112,31.25256768],[121.44864708,31.25242206],[121.45360248,31.25049597]]}},{"id":"1843","type":"Feature","properties":{"gml_id":"layer_railway_pl.103062","Name":"京沪线","fclass":"rail","__source_file__":"19-其它/13-历史版本数据/2021.08/上海市_铁路.shp"},"geometry":{"type":"LineString","coordinates":[[121.4535042,31.25028384],[121.45323996,31.25036997],[121.44840408,31.25225007],[121.44764232,31.2527178],[121.44701448,31.25314323],[121.44656736,31.25345202],[121.44612132,31.25376],[121.44564936,31.25408436],[121.44513816,31.25443536]]}},{"id":"1832","type":"Feature","properties":{"gml_id":"layer_railway_pl.103051","Name":"京沪线","fclass":"rail","__source_file__":"19-其它/13-历史版本数据/2021.08/上海市_铁路.shp"},"geometry":{"type":"LineString","coordinates":[[121.45371516,31.25070576],[121.44875436,31.25267316],[121.4484084,31.25284056],[121.44705696,31.2536151],[121.44652344,31.25392236],[121.44635748,31.2540039],[121.44602268,31.25416824],[121.44592404,31.25421441]]}},{"id":"60","type":"Feature","properties":{"gml_id":"layer_railway_pl.3142","Name":"京沪线","fclass":"rail","__source_file__":"19-其它/13-历史版本数据/2021.08/上海市_铁路.shp"},"geometry":{"type":"LineString","coordinates":[[121.44634848,31.25406042],[121.44653424,31.2539724],[121.4469738,31.25379699],[121.4489448,31.25302398],[121.45392036,31.25108763]]}},{"id":"64","type":"Feature","properties":{"gml_id":"layer_railway_pl.3146","Name":"京沪线","fclass":"rail","__source_file__":"19-其它/13-历史版本数据/2021.08/上海市_铁路.shp"},"geometry":{"type":"LineString","coordinates":[[121.44461436,31.25473677],[121.44594276,31.25409849],[121.44662064,31.25375658],[121.4470566,31.25351934],[121.44820464,31.25275803],[121.44865896,31.25248056],[121.45361724,31.2505407]]}},{"id":"1821","type":"Feature","properties":{"gml_id":"layer_railway_pl.103039","Name":"京沪线","fclass":"rail","__source_file__":"19-其它/13-历史版本数据/2021.08/上海市_铁路.shp"},"geometry":{"type":"LineString","coordinates":[[121.4536896,31.25065653],[121.44874104,31.2526296],[121.4483706,31.25280051],[121.44740724,31.25335788],[121.44652632,31.25386917],[121.44633372,31.25396304],[121.44594024,31.25415474],[121.44540636,31.25440458],[121.44420252,31.25498679]]}},{"id":"1819","type":"Feature","properties":{"gml_id":"layer_railway_pl.103037","Name":"京沪线","fclass":"rail","__source_file__":"19-其它/13-历史版本数据/2021.08/上海市_铁路.shp"},"geometry":{"type":"LineString","coordinates":[[121.44463344,31.2548544],[121.44730428,31.25382219],[121.4483274,31.25342088],[121.44900924,31.25314332],[121.4539632,31.25122173]]}},{"id":"1835","type":"Feature","properties":{"gml_id":"layer_railway_pl.103054","Name":"京沪线","fclass":"rail","__source_file__":"19-其它/13-历史版本数据/2021.08/上海市_铁路.shp"},"geometry":{"type":"LineString","coordinates":[[121.44534264,31.25419461],[121.44592476,31.25379861],[121.44642048,31.25344212],[121.44707352,31.25292903],[121.44717468,31.25284974],[121.44748248,31.25261151],[121.44784464,31.25232198],[121.44822588,31.25204028]]}},{"id":"1814","type":"Feature","properties":{"gml_id":"layer_railway_pl.103032","Name":"京沪线","fclass":"rail","__source_file__":"19-其它/13-历史版本数据/2021.08/上海市_铁路.shp"},"geometry":{"type":"LineString","coordinates":[[121.44764052,31.25333439],[121.44705048,31.25366973]]}},{"id":"1816","type":"Feature","properties":{"gml_id":"layer_railway_pl.103034","Name":"京沪线","fclass":"rail","__source_file__":"19-其它/13-历史版本数据/2021.08/上海市_铁路.shp"},"geometry":{"type":"LineString","coordinates":[[121.4469738,31.25379699],[121.44722112,31.25372022],[121.44786732,31.25355741],[121.4481168,31.25348739],[121.4483274,31.25342088]]}},{"id":"1830","type":"Feature","properties":{"gml_id":"layer_railway_pl.103049","Name":"京沪线","fclass":"rail","__source_file__":"19-其它/13-历史版本数据/2021.08/上海市_铁路.shp"},"geometry":{"type":"LineString","coordinates":[[121.44602268,31.25416824],[121.44633372,31.25396304]]}},{"id":"1831","type":"Feature","properties":{"gml_id":"layer_railway_pl.103050","Name":"京沪线","fclass":"rail","__source_file__":"19-其它/13-历史版本数据/2021.08/上海市_铁路.shp"},"geometry":{"type":"LineString","coordinates":[[121.44594024,31.25415474],[121.44635748,31.2540039]]}},{"id":"1815","type":"Feature","properties":{"gml_id":"layer_railway_pl.103033","Name":"京沪线","fclass":"rail","__source_file__":"19-其它/13-历史版本数据/2021.08/上海市_铁路.shp"},"geometry":{"type":"LineString","coordinates":[[121.44594276,31.25409849],[121.44540636,31.25440458]]}},{"id":"1828","type":"Feature","properties":{"gml_id":"layer_railway_pl.103047","Name":"京沪线","fclass":"rail","__source_file__":"19-其它/13-历史版本数据/2021.08/上海市_铁路.shp"},"geometry":{"type":"LineString","coordinates":[[121.44548304,31.25442186],[121.44595356,31.25424789]]}},{"id":"1829","type":"Feature","properties":{"gml_id":"layer_railway_pl.103048","Name":"京沪线","fclass":"rail","__source_file__":"19-其它/13-历史版本数据/2021.08/上海市_铁路.shp"},"geometry":{"type":"LineString","coordinates":[[121.44592404,31.25421441],[121.44549528,31.2544656]]}},{"id":"1833","type":"Feature","properties":{"gml_id":"layer_railway_pl.103052","Name":"京沪线","fclass":"rail","__source_file__":"19-其它/13-历史版本数据/2021.08/上海市_铁路.shp"},"geometry":{"type":"LineString","coordinates":[[121.44564936,31.25408436],[121.44508452,31.2544098],[121.44458556,31.25469069]]}},{"id":"1834","type":"Feature","properties":{"gml_id":"layer_railway_pl.103053","Name":"京沪线","fclass":"rail","__source_file__":"19-其它/13-历史版本数据/2021.08/上海市_铁路.shp"},"geometry":{"type":"LineString","coordinates":[[121.44634848,31.25406042],[121.44595356,31.25424789],[121.44549528,31.2544656],[121.44518964,31.25461068],[121.44463344,31.2548544]]}},{"id":"1827","type":"Feature","properties":{"gml_id":"layer_railway_pl.103046","Name":"京沪线","fclass":"rail","__source_file__":"19-其它/13-历史版本数据/2021.08/上海市_铁路.shp"},"geometry":{"type":"LineString","coordinates":[[121.44592404,31.25421441],[121.44548304,31.25442186],[121.44505968,31.25462103],[121.4447922,31.25474856]]}},{"id":"53","type":"Feature","properties":{"gml_id":"layer_railway_pl.3135","Name":"京沪线","fclass":"rail","__source_file__":"19-其它/13-历史版本数据/2021.08/上海市_铁路.shp"},"geometry":{"type":"LineString","coordinates":[[121.42392877117615,31.26000990879836],[121.42410768,31.25997612],[121.43045916,31.25877462],[121.43541168,31.25783457],[121.437261,31.2574356],[121.4375508,31.25735298],[121.43858076,31.25705958],[121.43927808,31.2568119],[121.440276,31.25643588],[121.44249684,31.25557377],[121.44410352,31.25488707],[121.44471372,31.25457396],[121.44534264,31.25419461],[121.44570156,31.25399427],[121.44610116,31.25372067],[121.44645504,31.25346966],[121.44661236,31.25335383],[121.44723876,31.25289096],[121.44767544,31.2525387],[121.44801888,31.25230371],[121.4482374,31.25217303],[121.44852504,31.25202084],[121.4531532,31.25018763],[121.45344012,31.25012796]]}},{"id":"87","type":"Feature","properties":{"gml_id":"layer_railway_pl.3200","Name":null,"fclass":"rail","__source_file__":"19-其它/13-历史版本数据/2021.08/上海市_铁路.shp"},"geometry":{"type":"LineString","coordinates":[[121.42395022854056,31.260058145542445],[121.42480608,31.25989359],[121.4318646,31.25855448],[121.43546928,31.25787579],[121.43731464,31.25748141],[121.43859156,31.25711457],[121.43957868,31.25677518],[121.44276504,31.25551869],[121.44417804,31.25493891],[121.44461436,31.25473677],[121.44513816,31.25443536],[121.445694,31.2541155],[121.44601836,31.25393541]]}},{"id":"20","type":"Feature","properties":{"gml_id":"layer_railway_pl.1237","Name":"京沪线","fclass":"rail","__source_file__":"19-其它/13-历史版本数据/2021.08/上海市_铁路.shp"},"geometry":{"type":"LineString","coordinates":[[121.44420252,31.25498679],[121.44386052,31.25512782],[121.43911716,31.25699541],[121.43731464,31.25752731],[121.43548008,31.25792169],[121.4304804,31.25887551],[121.42485972,31.25994858],[121.4239768030225,31.26011788570719]]}},{"id":"1597","type":"Feature","properties":{"gml_id":"layer_railway_pl.99235","Name":null,"fclass":"rail","__source_file__":"19-其它/13-历史版本数据/2021.08/上海市_铁路.shp"},"geometry":{"type":"LineString","coordinates":[[121.44463344,31.2548544],[121.44388752,31.25516679],[121.44142368,31.25613321],[121.4391492,31.25704122],[121.43735748,31.25756403],[121.43543724,31.25798586],[121.4304912,31.2589305],[121.42478448,31.2600312],[121.42400506908032,31.26018142858096]]}},{"id":"71","type":"Feature","properties":{"gml_id":"layer_railway_pl.3164","Name":"京沪线","fclass":"rail","__source_file__":"19-其它/13-历史版本数据/2021.08/上海市_铁路.shp"},"geometry":{"type":"LineString","coordinates":[[121.4681022,31.25096604],[121.46867568,31.25138166],[121.47208632,31.25332548]]}},{"id":"1","type":"Feature","properties":{"gml_id":"layer_railway_pl.8","Name":null,"fclass":"light_rail","__source_file__":"19-其它/13-历史版本数据/2021.08/上海市_铁路.shp"},"geometry":{"type":"LineString","coordinates":[[121.47494004,31.27194891],[121.47482304,31.2723468]]}}],"name":"上海市_铁路","crs":{"type":"name","properties":{"name":"urn:ogc:def:crs:OGC:1.3:CRS84"}}}