{"type":"FeatureCollection","features":[{"id":"1211","type":"Feature","properties":{"name":"陕西南路地铁站3号口","pname":"上海市","cityname":"上海市","adname":"黄浦区","address":"1号线","isin_regio":"yes","wgs84_lng":"121.45645903844684","wgs84_lat":"31.21977852136464","行业大类":"交通设施服务","行业子类":"地铁站","__source_file__":"19-其它/13-历史版本数据/2021.08/上海市-地铁出入口.shp"},"geometry":{"type":"Point","coordinates":[121.45645903844684,31.21977852136464]}},{"id":"239","type":"Feature","properties":{"name":"淮海中路地铁站2号口","pname":"上海市","cityname":"上海市","adname":"黄浦区","address":"13号线","isin_regio":"yes","wgs84_lng":"121.45936536649799","wgs84_lat":"31.22130588053662","行业大类":"交通设施服务","行业子类":"地铁站","__source_file__":"19-其它/13-历史版本数据/2021.08/上海市-地铁出入口.shp"},"geometry":{"type":"Point","coordinates":[121.45936536649799,31.22130588053662]}},{"id":"1474","type":"Feature","properties":{"name":"淮海中路地铁站1号口","pname":"上海市","cityname":"上海市","adname":"黄浦区","address":"13号线","isin_regio":"yes","wgs84_lng":"121.46025099984435","wgs84_lat":"31.221319079344887","行业大类":"交通设施服务","行业子类":"地铁站","__source_file__":"19-其它/13-历史版本数据/2021.08/上海市-地铁出入口.shp"},"geometry":{"type":"Point","coordinates":[121.46025099984435,31.221319079344887]}},{"id":"1234","type":"Feature","properties":{"name":"淮海中路地铁站3号口","pname":"上海市","cityname":"上海市","adname":"黄浦区","address":"13号线","isin_regio":"yes","wgs84_lng":"121.45906134665336","wgs84_lat":"31.222718462734356","行业大类":"交通设施服务","行业子类":"地铁站","__source_file__":"19-其它/13-历史版本数据/2021.08/上海市-地铁出入口.shp"},"geometry":{"type":"Point","coordinates":[121.45906134665336,31.222718462734356]}},{"id":"340","type":"Feature","properties":{"name":"一大会址·黄陂南路地铁站1号口","pname":"上海市","cityname":"上海市","adname":"黄浦区","address":"1号线","isin_regio":"yes","wgs84_lng":"121.46800585474872","wgs84_lat":"31.224165904053987","行业大类":"交通设施服务","行业子类":"地铁站","__source_file__":"19-其它/13-历史版本数据/2021.08/上海市-地铁出入口.shp"},"geometry":{"type":"Point","coordinates":[121.46800585474872,31.224165904053987]}},{"id":"352","type":"Feature","properties":{"name":"一大会址·黄陂南路地铁站3号口","pname":"上海市","cityname":"上海市","adname":"黄浦区","address":"1号线","isin_regio":"yes","wgs84_lng":"121.46854753556774","wgs84_lat":"31.224938003077508","行业大类":"交通设施服务","行业子类":"地铁站","__source_file__":"19-其它/13-历史版本数据/2021.08/上海市-地铁出入口.shp"},"geometry":{"type":"Point","coordinates":[121.46854753556774,31.224938003077508]}},{"id":"341","type":"Feature","properties":{"name":"一大会址·黄陂南路地铁站7号口","pname":"上海市","cityname":"上海市","adname":"黄浦区","address":"14号线","isin_regio":"yes","wgs84_lng":"121.46696744023578","wgs84_lat":"31.225183643440893","行业大类":"交通设施服务","行业子类":"地铁站","__source_file__":"19-其它/13-历史版本数据/2021.08/上海市-地铁出入口.shp"},"geometry":{"type":"Point","coordinates":[121.46696744023578,31.225183643440893]}},{"id":"368","type":"Feature","properties":{"name":"一大会址·黄陂南路地铁站6号口","pname":"上海市","cityname":"上海市","adname":"黄浦区","address":"14号线","isin_regio":"yes","wgs84_lng":"121.46831374093078","wgs84_lat":"31.225401154594998","行业大类":"交通设施服务","行业子类":"地铁站","__source_file__":"19-其它/13-历史版本数据/2021.08/上海市-地铁出入口.shp"},"geometry":{"type":"Point","coordinates":[121.46831374093078,31.225401154594998]}},{"id":"365","type":"Feature","properties":{"name":"一大会址·黄陂南路地铁站4号口","pname":"上海市","cityname":"上海市","adname":"黄浦区","address":"14号线","isin_regio":"yes","wgs84_lng":"121.46856146429413","wgs84_lat":"31.226295405226743","行业大类":"交通设施服务","行业子类":"地铁站","__source_file__":"19-其它/13-历史版本数据/2021.08/上海市-地铁出入口.shp"},"geometry":{"type":"Point","coordinates":[121.46856146429413,31.226295405226743]}},{"id":"594","type":"Feature","properties":{"name":"静安寺地铁站8号口","pname":"上海市","cityname":"上海市","adname":"静安区","address":"7号线","isin_regio":"999","wgs84_lng":"121.44471570192793","wgs84_lat":"31.2240955660033","行业大类":"交通设施服务","行业子类":"地铁站","__source_file__":"19-其它/13-历史版本数据/2021.08/上海市-地铁出入口.shp"},"geometry":{"type":"Point","coordinates":[121.44471570192793,31.2240955660033]}},{"id":"45","type":"Feature","properties":{"name":"静安寺地铁站9号口","pname":"上海市","cityname":"上海市","adname":"静安区","address":"7号线","isin_regio":"yes","wgs84_lng":"121.44401201970868","wgs84_lat":"31.224157133653794","行业大类":"交通设施服务","行业子类":"地铁站","__source_file__":"19-其它/13-历史版本数据/2021.08/上海市-地铁出入口.shp"},"geometry":{"type":"Point","coordinates":[121.44401201970868,31.224157133653794]}},{"id":"19","type":"Feature","properties":{"name":"静安寺地铁站15号口","pname":"上海市","cityname":"上海市","adname":"静安区","address":"14号线","isin_regio":"yes","wgs84_lng":"121.4410251215569","wgs84_lat":"31.224411260276252","行业大类":"交通设施服务","行业子类":"地铁站","__source_file__":"19-其它/13-历史版本数据/2021.08/上海市-地铁出入口.shp"},"geometry":{"type":"Point","coordinates":[121.4410251215569,31.224411260276252]}},{"id":"34","type":"Feature","properties":{"name":"静安寺地铁站5号口","pname":"上海市","cityname":"上海市","adname":"静安区","address":"2号线","isin_regio":"yes","wgs84_lng":"121.4414249957046","wgs84_lat":"31.22468188433804","行业大类":"交通设施服务","行业子类":"地铁站","__source_file__":"19-其它/13-历史版本数据/2021.08/上海市-地铁出入口.shp"},"geometry":{"type":"Point","coordinates":[121.4414249957046,31.22468188433804]}},{"id":"1106","type":"Feature","properties":{"name":"静安寺地铁站1号口","pname":"上海市","cityname":"上海市","adname":"静安区","address":"2号线","isin_regio":"yes","wgs84_lng":"121.44072240955526","wgs84_lat":"31.22484249350395","行业大类":"交通设施服务","行业子类":"地铁站","__source_file__":"19-其它/13-历史版本数据/2021.08/上海市-地铁出入口.shp"},"geometry":{"type":"Point","coordinates":[121.44072240955526,31.22484249350395]}},{"id":"14","type":"Feature","properties":{"name":"静安寺地铁站4号口","pname":"上海市","cityname":"上海市","adname":"静安区","address":"2号线","isin_regio":"yes","wgs84_lng":"121.44293338401026","wgs84_lat":"31.22539543686413","行业大类":"交通设施服务","行业子类":"地铁站","__source_file__":"19-其它/13-历史版本数据/2021.08/上海市-地铁出入口.shp"},"geometry":{"type":"Point","coordinates":[121.44293338401026,31.22539543686413]}},{"id":"46","type":"Feature","properties":{"name":"静安寺地铁站10号口","pname":"上海市","cityname":"上海市","adname":"静安区","address":"7号线","isin_regio":"yes","wgs84_lng":"121.44304163165205","wgs84_lat":"31.22543962660295","行业大类":"交通设施服务","行业子类":"地铁站","__source_file__":"19-其它/13-历史版本数据/2021.08/上海市-地铁出入口.shp"},"geometry":{"type":"Point","coordinates":[121.44304163165205,31.22543962660295]}},{"id":"41","type":"Feature","properties":{"name":"武宁路地铁站5A口","pname":"上海市","cityname":"上海市","adname":"静安区","address":"14号线","isin_regio":"yes","wgs84_lng":"121.4276366206843","wgs84_lat":"31.23356251542376","行业大类":"交通设施服务","行业子类":"地铁站","__source_file__":"19-其它/13-历史版本数据/2021.08/上海市-地铁出入口.shp"},"geometry":{"type":"Point","coordinates":[121.4276366206843,31.23356251542376]}},{"id":"43","type":"Feature","properties":{"name":"武宁路地铁站4号口","pname":"上海市","cityname":"上海市","adname":"静安区","address":"14号线","isin_regio":"yes","wgs84_lng":"121.42760754254451","wgs84_lat":"31.23392930778087","行业大类":"交通设施服务","行业子类":"地铁站","__source_file__":"19-其它/13-历史版本数据/2021.08/上海市-地铁出入口.shp"},"geometry":{"type":"Point","coordinates":[121.42760754254451,31.23392930778087]}},{"id":"48","type":"Feature","properties":{"name":"昌平路地铁站3号口","pname":"上海市","cityname":"上海市","adname":"静安区","address":"7号线","isin_regio":"yes","wgs84_lng":"121.43827524469484","wgs84_lat":"31.23481642737934","行业大类":"交通设施服务","行业子类":"地铁站","__source_file__":"19-其它/13-历史版本数据/2021.08/上海市-地铁出入口.shp"},"geometry":{"type":"Point","coordinates":[121.43827524469484,31.23481642737934]}},{"id":"296","type":"Feature","properties":{"name":"昌平路地铁站2号口","pname":"上海市","cityname":"上海市","adname":"静安区","address":"7号线","isin_regio":"yes","wgs84_lng":"121.43881537793321","wgs84_lat":"31.234969315991624","行业大类":"交通设施服务","行业子类":"地铁站","__source_file__":"19-其它/13-历史版本数据/2021.08/上海市-地铁出入口.shp"},"geometry":{"type":"Point","coordinates":[121.43881537793321,31.234969315991624]}},{"id":"50","type":"Feature","properties":{"name":"昌平路地铁站4号口","pname":"上海市","cityname":"上海市","adname":"静安区","address":"7号线","isin_regio":"yes","wgs84_lng":"121.43755967310035","wgs84_lat":"31.23566578434623","行业大类":"交通设施服务","行业子类":"地铁站","__source_file__":"19-其它/13-历史版本数据/2021.08/上海市-地铁出入口.shp"},"geometry":{"type":"Point","coordinates":[121.43755967310035,31.23566578434623]}},{"id":"591","type":"Feature","properties":{"name":"南京西路地铁站8号口","pname":"上海市","cityname":"上海市","adname":"静安区","address":"13号线","isin_regio":"999","wgs84_lng":"121.45849510311984","wgs84_lat":"31.22944392329251","行业大类":"交通设施服务","行业子类":"地铁站","__source_file__":"19-其它/13-历史版本数据/2021.08/上海市-地铁出入口.shp"},"geometry":{"type":"Point","coordinates":[121.45849510311984,31.22944392329251]}},{"id":"238","type":"Feature","properties":{"name":"南京西路地铁站7号口","pname":"上海市","cityname":"上海市","adname":"静安区","address":"13号线","isin_regio":"yes","wgs84_lng":"121.45830549735948","wgs84_lat":"31.230032185428588","行业大类":"交通设施服务","行业子类":"地铁站","__source_file__":"19-其它/13-历史版本数据/2021.08/上海市-地铁出入口.shp"},"geometry":{"type":"Point","coordinates":[121.45830549735948,31.230032185428588]}},{"id":"354","type":"Feature","properties":{"name":"南京西路地铁站9号口","pname":"上海市","cityname":"上海市","adname":"静安区","address":"13号线","isin_regio":"yes","wgs84_lng":"121.45757030294054","wgs84_lat":"31.23065310543082","行业大类":"交通设施服务","行业子类":"地铁站","__source_file__":"19-其它/13-历史版本数据/2021.08/上海市-地铁出入口.shp"},"geometry":{"type":"Point","coordinates":[121.45757030294054,31.23065310543082]}},{"id":"1172","type":"Feature","properties":{"name":"南京西路地铁站6号口","pname":"上海市","cityname":"上海市","adname":"静安区","address":"13号线","isin_regio":"yes","wgs84_lng":"121.45824726278204","wgs84_lat":"31.23077969618925","行业大类":"交通设施服务","行业子类":"地铁站","__source_file__":"19-其它/13-历史版本数据/2021.08/上海市-地铁出入口.shp"},"geometry":{"type":"Point","coordinates":[121.45824726278204,31.23077969618925]}},{"id":"355","type":"Feature","properties":{"name":"南京西路地铁站10号口","pname":"上海市","cityname":"上海市","adname":"静安区","address":"13号线","isin_regio":"yes","wgs84_lng":"121.4573987569642","wgs84_lat":"31.23122342527359","行业大类":"交通设施服务","行业子类":"地铁站","__source_file__":"19-其它/13-历史版本数据/2021.08/上海市-地铁出入口.shp"},"geometry":{"type":"Point","coordinates":[121.4573987569642,31.23122342527359]}},{"id":"1169","type":"Feature","properties":{"name":"南京西路地铁站3号口","pname":"上海市","cityname":"上海市","adname":"静安区","address":"2号线","isin_regio":"yes","wgs84_lng":"121.45612906889724","wgs84_lat":"31.23171514620878","行业大类":"交通设施服务","行业子类":"地铁站","__source_file__":"19-其它/13-历史版本数据/2021.08/上海市-地铁出入口.shp"},"geometry":{"type":"Point","coordinates":[121.45612906889724,31.23171514620878]}},{"id":"1171","type":"Feature","properties":{"name":"南京西路地铁站5号口","pname":"上海市","cityname":"上海市","adname":"静安区","address":"13号线","isin_regio":"yes","wgs84_lng":"121.45762033215927","wgs84_lat":"31.2319996034242","行业大类":"交通设施服务","行业子类":"地铁站","__source_file__":"19-其它/13-历史版本数据/2021.08/上海市-地铁出入口.shp"},"geometry":{"type":"Point","coordinates":[121.45762033215927,31.2319996034242]}},{"id":"374","type":"Feature","properties":{"name":"南京西路地铁站11号口","pname":"上海市","cityname":"上海市","adname":"静安区","address":"13号线","isin_regio":"yes","wgs84_lng":"121.4571990996998","wgs84_lat":"31.232155511042603","行业大类":"交通设施服务","行业子类":"地铁站","__source_file__":"19-其它/13-历史版本数据/2021.08/上海市-地铁出入口.shp"},"geometry":{"type":"Point","coordinates":[121.4571990996998,31.232155511042603]}},{"id":"304","type":"Feature","properties":{"name":"人民广场地铁站11号口","pname":"上海市","cityname":"上海市","adname":"黄浦区","address":"2号线","isin_regio":"999","wgs84_lng":"121.46664064208086","wgs84_lat":"31.234011671083216","行业大类":"交通设施服务","行业子类":"地铁站","__source_file__":"19-其它/13-历史版本数据/2021.08/上海市-地铁出入口.shp"},"geometry":{"type":"Point","coordinates":[121.46664064208086,31.234011671083216]}},{"id":"314","type":"Feature","properties":{"name":"人民广场地铁站10号口","pname":"上海市","cityname":"上海市","adname":"黄浦区","address":"2号线","isin_regio":"999","wgs84_lng":"121.4669546054972","wgs84_lat":"31.234441309964573","行业大类":"交通设施服务","行业子类":"地铁站","__source_file__":"19-其它/13-历史版本数据/2021.08/上海市-地铁出入口.shp"},"geometry":{"type":"Point","coordinates":[121.4669546054972,31.234441309964573]}},{"id":"1114","type":"Feature","properties":{"name":"静安寺地铁站2号口","pname":"上海市","cityname":"上海市","adname":"静安区","address":"2号线","isin_regio":"yes","wgs84_lng":"121.44160934061708","wgs84_lat":"31.22550584646398","行业大类":"交通设施服务","行业子类":"地铁站","__source_file__":"19-其它/13-历史版本数据/2021.08/上海市-地铁出入口.shp"},"geometry":{"type":"Point","coordinates":[121.44160934061708,31.22550584646398]}},{"id":"35","type":"Feature","properties":{"name":"静安寺地铁站3号口","pname":"上海市","cityname":"上海市","adname":"静安区","address":"2号线","isin_regio":"yes","wgs84_lng":"121.44261562631891","wgs84_lat":"31.225655699781086","行业大类":"交通设施服务","行业子类":"地铁站","__source_file__":"19-其它/13-历史版本数据/2021.08/上海市-地铁出入口.shp"},"geometry":{"type":"Point","coordinates":[121.44261562631891,31.225655699781086]}},{"id":"593","type":"Feature","properties":{"name":"静安寺地铁站6号口","pname":"上海市","cityname":"上海市","adname":"静安区","address":"7号线","isin_regio":"999","wgs84_lng":"121.44390662826767","wgs84_lat":"31.225801154413812","行业大类":"交通设施服务","行业子类":"地铁站","__source_file__":"19-其它/13-历史版本数据/2021.08/上海市-地铁出入口.shp"},"geometry":{"type":"Point","coordinates":[121.44390662826767,31.225801154413812]}},{"id":"375","type":"Feature","properties":{"name":"南京西路地铁站12号口","pname":"上海市","cityname":"上海市","adname":"静安区","address":"12号线","isin_regio":"yes","wgs84_lng":"121.45516760411307","wgs84_lat":"31.22872225612543","行业大类":"交通设施服务","行业子类":"地铁站","__source_file__":"19-其它/13-历史版本数据/2021.08/上海市-地铁出入口.shp"},"geometry":{"type":"Point","coordinates":[121.45516760411307,31.22872225612543]}},{"id":"366","type":"Feature","properties":{"name":"南京西路地铁站13号口","pname":"上海市","cityname":"上海市","adname":"静安区","address":"12号线","isin_regio":"yes","wgs84_lng":"121.45444248939219","wgs84_lat":"31.229693104615993","行业大类":"交通设施服务","行业子类":"地铁站","__source_file__":"19-其它/13-历史版本数据/2021.08/上海市-地铁出入口.shp"},"geometry":{"type":"Point","coordinates":[121.45444248939219,31.229693104615993]}},{"id":"376","type":"Feature","properties":{"name":"南京西路地铁站14号口","pname":"上海市","cityname":"上海市","adname":"静安区","address":"12号线","isin_regio":"yes","wgs84_lng":"121.45428095690707","wgs84_lat":"31.23065228295952","行业大类":"交通设施服务","行业子类":"地铁站","__source_file__":"19-其它/13-历史版本数据/2021.08/上海市-地铁出入口.shp"},"geometry":{"type":"Point","coordinates":[121.45428095690707,31.23065228295952]}},{"id":"1170","type":"Feature","properties":{"name":"南京西路地铁站4号口","pname":"上海市","cityname":"上海市","adname":"静安区","address":"2号线","isin_regio":"yes","wgs84_lng":"121.454857523172","wgs84_lat":"31.231160395173077","行业大类":"交通设施服务","行业子类":"地铁站","__source_file__":"19-其它/13-历史版本数据/2021.08/上海市-地铁出入口.shp"},"geometry":{"type":"Point","coordinates":[121.454857523172,31.231160395173077]}},{"id":"1080","type":"Feature","properties":{"name":"南京西路地铁站1号口","pname":"上海市","cityname":"上海市","adname":"静安区","address":"2号线","isin_regio":"yes","wgs84_lng":"121.45447741262687","wgs84_lat":"31.231714249163602","行业大类":"交通设施服务","行业子类":"地铁站","__source_file__":"19-其它/13-历史版本数据/2021.08/上海市-地铁出入口.shp"},"geometry":{"type":"Point","coordinates":[121.45447741262687,31.231714249163602]}},{"id":"1475","type":"Feature","properties":{"name":"南京西路地铁站2号口","pname":"上海市","cityname":"上海市","adname":"静安区","address":"2号线","isin_regio":"yes","wgs84_lng":"121.45598761239587","wgs84_lat":"31.232340520031432","行业大类":"交通设施服务","行业子类":"地铁站","__source_file__":"19-其它/13-历史版本数据/2021.08/上海市-地铁出入口.shp"},"geometry":{"type":"Point","coordinates":[121.45598761239587,31.232340520031432]}},{"id":"222","type":"Feature","properties":{"name":"汉中路地铁站8号口","pname":"上海市","cityname":"上海市","adname":"静安区","address":"12号线","isin_regio":"yes","wgs84_lng":"121.45487267940356","wgs84_lat":"31.241445715405114","行业大类":"交通设施服务","行业子类":"地铁站","__source_file__":"19-其它/13-历史版本数据/2021.08/上海市-地铁出入口.shp"},"geometry":{"type":"Point","coordinates":[121.45487267940356,31.241445715405114]}},{"id":"305","type":"Feature","properties":{"name":"人民广场地铁站9号口","pname":"上海市","cityname":"上海市","adname":"黄浦区","address":"2号线","isin_regio":"999","wgs84_lng":"121.46726958084022","wgs84_lat":"31.234800986112297","行业大类":"交通设施服务","行业子类":"地铁站","__source_file__":"19-其它/13-历史版本数据/2021.08/上海市-地铁出入口.shp"},"geometry":{"type":"Point","coordinates":[121.46726958084022,31.234800986112297]}},{"id":"373","type":"Feature","properties":{"name":"人民广场地铁站8号口","pname":"上海市","cityname":"上海市","adname":"黄浦区","address":"2号线","isin_regio":"yes","wgs84_lng":"121.46792462245394","wgs84_lat":"31.23549442476043","行业大类":"交通设施服务","行业子类":"地铁站","__source_file__":"19-其它/13-历史版本数据/2021.08/上海市-地铁出入口.shp"},"geometry":{"type":"Point","coordinates":[121.46792462245394,31.23549442476043]}},{"id":"370","type":"Feature","properties":{"name":"自然博物馆地铁站1号口","pname":"上海市","cityname":"上海市","adname":"静安区","address":"13号线","isin_regio":"yes","wgs84_lng":"121.45844726942767","wgs84_lat":"31.23750408978358","行业大类":"交通设施服务","行业子类":"地铁站","__source_file__":"19-其它/13-历史版本数据/2021.08/上海市-地铁出入口.shp"},"geometry":{"type":"Point","coordinates":[121.45844726942767,31.23750408978358]}},{"id":"371","type":"Feature","properties":{"name":"自然博物馆地铁站2号口","pname":"上海市","cityname":"上海市","adname":"静安区","address":"13号线","isin_regio":"yes","wgs84_lng":"121.45775023036148","wgs84_lat":"31.23756436007512","行业大类":"交通设施服务","行业子类":"地铁站","__source_file__":"19-其它/13-历史版本数据/2021.08/上海市-地铁出入口.shp"},"geometry":{"type":"Point","coordinates":[121.45775023036148,31.23756436007512]}},{"id":"589","type":"Feature","properties":{"name":"自然博物馆地铁站6号口","pname":"上海市","cityname":"上海市","adname":"静安区","address":"13号线","isin_regio":"999","wgs84_lng":"121.45825568211802","wgs84_lat":"31.237813479097127","行业大类":"交通设施服务","行业子类":"地铁站","__source_file__":"19-其它/13-历史版本数据/2021.08/上海市-地铁出入口.shp"},"geometry":{"type":"Point","coordinates":[121.45825568211802,31.237813479097127]}},{"id":"1032","type":"Feature","properties":{"name":"自然博物馆地铁站出入口","pname":"上海市","cityname":"上海市","adname":"静安区","address":"13号线","isin_regio":"yes","wgs84_lng":"121.45768500960148","wgs84_lat":"31.237928035270958","行业大类":"交通设施服务","行业子类":"地铁站","__source_file__":"19-其它/13-历史版本数据/2021.08/上海市-地铁出入口.shp"},"geometry":{"type":"Point","coordinates":[121.45768500960148,31.237928035270958]}},{"id":"590","type":"Feature","properties":{"name":"自然博物馆地铁站5号口","pname":"上海市","cityname":"上海市","adname":"静安区","address":"13号线","isin_regio":"999","wgs84_lng":"121.4581774334531","wgs84_lat":"31.23804618141628","行业大类":"交通设施服务","行业子类":"地铁站","__source_file__":"19-其它/13-历史版本数据/2021.08/上海市-地铁出入口.shp"},"geometry":{"type":"Point","coordinates":[121.4581774334531,31.23804618141628]}},{"id":"369","type":"Feature","properties":{"name":"自然博物馆地铁站4号口","pname":"上海市","cityname":"上海市","adname":"静安区","address":"13号线","isin_regio":"yes","wgs84_lng":"121.45781032010757","wgs84_lat":"31.23855105549722","行业大类":"交通设施服务","行业子类":"地铁站","__source_file__":"19-其它/13-历史版本数据/2021.08/上海市-地铁出入口.shp"},"geometry":{"type":"Point","coordinates":[121.45781032010757,31.23855105549722]}},{"id":"359","type":"Feature","properties":{"name":"自然博物馆地铁站3号口","pname":"上海市","cityname":"上海市","adname":"静安区","address":"13号线","isin_regio":"yes","wgs84_lng":"121.4573569742488","wgs84_lat":"31.238911790562565","行业大类":"交通设施服务","行业子类":"地铁站","__source_file__":"19-其它/13-历史版本数据/2021.08/上海市-地铁出入口.shp"},"geometry":{"type":"Point","coordinates":[121.4573569742488,31.238911790562565]}},{"id":"357","type":"Feature","properties":{"name":"新闸路地铁站6号口","pname":"上海市","cityname":"上海市","adname":"黄浦区","address":"1号线","isin_regio":"yes","wgs84_lng":"121.46486249363429","wgs84_lat":"31.2402471213963","行业大类":"交通设施服务","行业子类":"地铁站","__source_file__":"19-其它/13-历史版本数据/2021.08/上海市-地铁出入口.shp"},"geometry":{"type":"Point","coordinates":[121.46486249363429,31.2402471213963]}},{"id":"38","type":"Feature","properties":{"name":"昌平路地铁站5号口","pname":"上海市","cityname":"上海市","adname":"静安区","address":"7号线","isin_regio":"yes","wgs84_lng":"121.43682912367517","wgs84_lat":"31.236182289123263","行业大类":"交通设施服务","行业子类":"地铁站","__source_file__":"19-其它/13-历史版本数据/2021.08/上海市-地铁出入口.shp"},"geometry":{"type":"Point","coordinates":[121.43682912367517,31.236182289123263]}},{"id":"11","type":"Feature","properties":{"name":"武宁路地铁站2号口","pname":"上海市","cityname":"上海市","adname":"静安区","address":"13号线","isin_regio":"yes","wgs84_lng":"121.42624321902993","wgs84_lat":"31.236237475721648","行业大类":"交通设施服务","行业子类":"地铁站","__source_file__":"19-其它/13-历史版本数据/2021.08/上海市-地铁出入口.shp"},"geometry":{"type":"Point","coordinates":[121.42624321902993,31.236237475721648]}},{"id":"44","type":"Feature","properties":{"name":"长寿路地铁站5号口","pname":"上海市","cityname":"上海市","adname":"普陀区","address":"7号线","isin_regio":"yes","wgs84_lng":"121.4342926329963","wgs84_lat":"31.24151665260136","行业大类":"交通设施服务","行业子类":"地铁站","__source_file__":"19-其它/13-历史版本数据/2021.08/上海市-地铁出入口.shp"},"geometry":{"type":"Point","coordinates":[121.4342926329963,31.24151665260136]}},{"id":"32","type":"Feature","properties":{"name":"长寿路地铁站6号口","pname":"上海市","cityname":"上海市","adname":"普陀区","address":"7号线","isin_regio":"yes","wgs84_lng":"121.43357626661349","wgs84_lat":"31.241541501191644","行业大类":"交通设施服务","行业子类":"地铁站","__source_file__":"19-其它/13-历史版本数据/2021.08/上海市-地铁出入口.shp"},"geometry":{"type":"Point","coordinates":[121.43357626661349,31.241541501191644]}},{"id":"1072","type":"Feature","properties":{"name":"长寿路地铁站出入口","pname":"上海市","cityname":"上海市","adname":"普陀区","address":"7号线","isin_regio":"yes","wgs84_lng":"121.43428159479272","wgs84_lat":"31.24171254603079","行业大类":"交通设施服务","行业子类":"地铁站","__source_file__":"19-其它/13-历史版本数据/2021.08/上海市-地铁出入口.shp"},"geometry":{"type":"Point","coordinates":[121.43428159479272,31.24171254603079]}},{"id":"31","type":"Feature","properties":{"name":"长寿路地铁站7号口","pname":"上海市","cityname":"上海市","adname":"普陀区","address":"7号线","isin_regio":"yes","wgs84_lng":"121.43302822341661","wgs84_lat":"31.241729557806927","行业大类":"交通设施服务","行业子类":"地铁站","__source_file__":"19-其它/13-历史版本数据/2021.08/上海市-地铁出入口.shp"},"geometry":{"type":"Point","coordinates":[121.43302822341661,31.241729557806927]}},{"id":"26","type":"Feature","properties":{"name":"长寿路地铁站1号口","pname":"上海市","cityname":"上海市","adname":"普陀区","address":"13号线","isin_regio":"yes","wgs84_lng":"121.4324010315798","wgs84_lat":"31.242128410130665","行业大类":"交通设施服务","行业子类":"地铁站","__source_file__":"19-其它/13-历史版本数据/2021.08/上海市-地铁出入口.shp"},"geometry":{"type":"Point","coordinates":[121.4324010315798,31.242128410130665]}},{"id":"9","type":"Feature","properties":{"name":"长寿路地铁站4号口","pname":"上海市","cityname":"上海市","adname":"普陀区","address":"13号线","isin_regio":"yes","wgs84_lng":"121.43399898496523","wgs84_lat":"31.242505734501904","行业大类":"交通设施服务","行业子类":"地铁站","__source_file__":"19-其它/13-历史版本数据/2021.08/上海市-地铁出入口.shp"},"geometry":{"type":"Point","coordinates":[121.43399898496523,31.242505734501904]}},{"id":"1112","type":"Feature","properties":{"name":"长寿路地铁站2号口","pname":"上海市","cityname":"上海市","adname":"普陀区","address":"13号线","isin_regio":"yes","wgs84_lng":"121.43304918452273","wgs84_lat":"31.242627183769375","行业大类":"交通设施服务","行业子类":"地铁站","__source_file__":"19-其它/13-历史版本数据/2021.08/上海市-地铁出入口.shp"},"geometry":{"type":"Point","coordinates":[121.43304918452273,31.242627183769375]}},{"id":"1446","type":"Feature","properties":{"name":"汉中路地铁站9号口","pname":"上海市","cityname":"上海市","adname":"静安区","address":"12号线","isin_regio":"yes","wgs84_lng":"121.45430602442545","wgs84_lat":"31.242281011914404","行业大类":"交通设施服务","行业子类":"地铁站","__source_file__":"19-其它/13-历史版本数据/2021.08/上海市-地铁出入口.shp"},"geometry":{"type":"Point","coordinates":[121.45430602442545,31.242281011914404]}},{"id":"1434","type":"Feature","properties":{"name":"汉中路地铁站7号口","pname":"上海市","cityname":"上海市","adname":"静安区","address":"12号线","isin_regio":"yes","wgs84_lng":"121.45474021096967","wgs84_lat":"31.2425748931073","行业大类":"交通设施服务","行业子类":"地铁站","__source_file__":"19-其它/13-历史版本数据/2021.08/上海市-地铁出入口.shp"},"geometry":{"type":"Point","coordinates":[121.45474021096967,31.2425748931073]}},{"id":"1442","type":"Feature","properties":{"name":"汉中路地铁站10号口","pname":"上海市","cityname":"上海市","adname":"静安区","address":"13号线","isin_regio":"yes","wgs84_lng":"121.4536050552864","wgs84_lat":"31.242598243132868","行业大类":"交通设施服务","行业子类":"地铁站","__source_file__":"19-其它/13-历史版本数据/2021.08/上海市-地铁出入口.shp"},"geometry":{"type":"Point","coordinates":[121.4536050552864,31.242598243132868]}},{"id":"1444","type":"Feature","properties":{"name":"汉中路地铁站6号口","pname":"上海市","cityname":"上海市","adname":"静安区","address":"12号线","isin_regio":"yes","wgs84_lng":"121.45451657042693","wgs84_lat":"31.242754288776574","行业大类":"交通设施服务","行业子类":"地铁站","__source_file__":"19-其它/13-历史版本数据/2021.08/上海市-地铁出入口.shp"},"geometry":{"type":"Point","coordinates":[121.45451657042693,31.242754288776574]}},{"id":"956","type":"Feature","properties":{"name":"汉中路地铁站5号口","pname":"上海市","cityname":"上海市","adname":"静安区","address":"13号线","isin_regio":"yes","wgs84_lng":"121.45369424832715","wgs84_lat":"31.243213170925426","行业大类":"交通设施服务","行业子类":"地铁站","__source_file__":"19-其它/13-历史版本数据/2021.08/上海市-地铁出入口.shp"},"geometry":{"type":"Point","coordinates":[121.45369424832715,31.243213170925426]}},{"id":"811","type":"Feature","properties":{"name":"汉中路地铁站3号口","pname":"上海市","cityname":"上海市","adname":"静安区","address":"1号线","isin_regio":"yes","wgs84_lng":"121.45508812036219","wgs84_lat":"31.243348360168017","行业大类":"交通设施服务","行业子类":"地铁站","__source_file__":"19-其它/13-历史版本数据/2021.08/上海市-地铁出入口.shp"},"geometry":{"type":"Point","coordinates":[121.45508812036219,31.243348360168017]}},{"id":"360","type":"Feature","properties":{"name":"汉中路地铁站4号口","pname":"上海市","cityname":"上海市","adname":"静安区","address":"1号线","isin_regio":"yes","wgs84_lng":"121.45338536285912","wgs84_lat":"31.24361427756009","行业大类":"交通设施服务","行业子类":"地铁站","__source_file__":"19-其它/13-历史版本数据/2021.08/上海市-地铁出入口.shp"},"geometry":{"type":"Point","coordinates":[121.45338536285912,31.24361427756009]}},{"id":"912","type":"Feature","properties":{"name":"汉中路地铁站2号口","pname":"上海市","cityname":"上海市","adname":"静安区","address":"1号线","isin_regio":"yes","wgs84_lng":"121.45501689210283","wgs84_lat":"31.243674045496018","行业大类":"交通设施服务","行业子类":"地铁站","__source_file__":"19-其它/13-历史版本数据/2021.08/上海市-地铁出入口.shp"},"geometry":{"type":"Point","coordinates":[121.45501689210283,31.243674045496018]}},{"id":"1057","type":"Feature","properties":{"name":"汉中路地铁站1号口","pname":"上海市","cityname":"上海市","adname":"静安区","address":"1号线","isin_regio":"yes","wgs84_lng":"121.45333918018561","wgs84_lat":"31.244260879498192","行业大类":"交通设施服务","行业子类":"地铁站","__source_file__":"19-其它/13-历史版本数据/2021.08/上海市-地铁出入口.shp"},"geometry":{"type":"Point","coordinates":[121.45333918018561,31.244260879498192]}},{"id":"15","type":"Feature","properties":{"name":"江宁路地铁站2号口","pname":"上海市","cityname":"上海市","adname":"普陀区","address":"13号线","isin_regio":"yes","wgs84_lng":"121.44114051054302","wgs84_lat":"31.24600555558227","行业大类":"交通设施服务","行业子类":"地铁站","__source_file__":"19-其它/13-历史版本数据/2021.08/上海市-地铁出入口.shp"},"geometry":{"type":"Point","coordinates":[121.44114051054302,31.24600555558227]}},{"id":"52","type":"Feature","properties":{"name":"长寿路地铁站3号口","pname":"上海市","cityname":"上海市","adname":"普陀区","address":"13号线","isin_regio":"yes","wgs84_lng":"121.43388769667385","wgs84_lat":"31.243385159586143","行业大类":"交通设施服务","行业子类":"地铁站","__source_file__":"19-其它/13-历史版本数据/2021.08/上海市-地铁出入口.shp"},"geometry":{"type":"Point","coordinates":[121.43388769667385,31.243385159586143]}},{"id":"16","type":"Feature","properties":{"name":"江宁路地铁站3号口","pname":"上海市","cityname":"上海市","adname":"普陀区","address":"13号线","isin_regio":"yes","wgs84_lng":"121.44003106109682","wgs84_lat":"31.245896547798733","行业大类":"交通设施服务","行业子类":"地铁站","__source_file__":"19-其它/13-历史版本数据/2021.08/上海市-地铁出入口.shp"},"geometry":{"type":"Point","coordinates":[121.44003106109682,31.245896547798733]}},{"id":"98","type":"Feature","properties":{"name":"江宁路地铁站4号口","pname":"上海市","cityname":"上海市","adname":"普陀区","address":"13号线","isin_regio":"yes","wgs84_lng":"121.43924733219052","wgs84_lat":"31.246192990039653","行业大类":"交通设施服务","行业子类":"地铁站","__source_file__":"19-其它/13-历史版本数据/2021.08/上海市-地铁出入口.shp"},"geometry":{"type":"Point","coordinates":[121.43924733219052,31.246192990039653]}},{"id":"12","type":"Feature","properties":{"name":"镇坪路地铁站6号口","pname":"上海市","cityname":"上海市","adname":"普陀区","address":"7号线","isin_regio":"yes","wgs84_lng":"121.42713657780116","wgs84_lat":"31.247981305808686","行业大类":"交通设施服务","行业子类":"地铁站","__source_file__":"19-其它/13-历史版本数据/2021.08/上海市-地铁出入口.shp"},"geometry":{"type":"Point","coordinates":[121.42713657780116,31.247981305808686]}},{"id":"1093","type":"Feature","properties":{"name":"镇坪路地铁站2号口","pname":"上海市","cityname":"上海市","adname":"普陀区","address":"3号线;4号线","isin_regio":"yes","wgs84_lng":"121.42524469332696","wgs84_lat":"31.248107852730815","行业大类":"交通设施服务","行业子类":"地铁站","__source_file__":"19-其它/13-历史版本数据/2021.08/上海市-地铁出入口.shp"},"geometry":{"type":"Point","coordinates":[121.42524469332696,31.248107852730815]}},{"id":"13","type":"Feature","properties":{"name":"镇坪路地铁站5号口","pname":"上海市","cityname":"上海市","adname":"普陀区","address":"7号线","isin_regio":"yes","wgs84_lng":"121.42769143297028","wgs84_lat":"31.24823592385206","行业大类":"交通设施服务","行业子类":"地铁站","__source_file__":"19-其它/13-历史版本数据/2021.08/上海市-地铁出入口.shp"},"geometry":{"type":"Point","coordinates":[121.42769143297028,31.24823592385206]}},{"id":"164","type":"Feature","properties":{"name":"镇坪路地铁站3号口","pname":"上海市","cityname":"上海市","adname":"普陀区","address":"3号线;4号线","isin_regio":"999","wgs84_lng":"121.42508844796264","wgs84_lat":"31.248294578186936","行业大类":"交通设施服务","行业子类":"地铁站","__source_file__":"19-其它/13-历史版本数据/2021.08/上海市-地铁出入口.shp"},"geometry":{"type":"Point","coordinates":[121.42508844796264,31.248294578186936]}},{"id":"33","type":"Feature","properties":{"name":"镇坪路地铁站7号口","pname":"上海市","cityname":"上海市","adname":"普陀区","address":"7号线","isin_regio":"yes","wgs84_lng":"121.42673289577813","wgs84_lat":"31.24859750595836","行业大类":"交通设施服务","行业子类":"地铁站","__source_file__":"19-其它/13-历史版本数据/2021.08/上海市-地铁出入口.shp"},"geometry":{"type":"Point","coordinates":[121.42673289577813,31.24859750595836]}},{"id":"324","type":"Feature","properties":{"name":"镇坪路地铁站4号口","pname":"上海市","cityname":"上海市","adname":"普陀区","address":"7号线","isin_regio":"yes","wgs84_lng":"121.42718756661507","wgs84_lat":"31.249029903760743","行业大类":"交通设施服务","行业子类":"地铁站","__source_file__":"19-其它/13-历史版本数据/2021.08/上海市-地铁出入口.shp"},"geometry":{"type":"Point","coordinates":[121.42718756661507,31.249029903760743]}},{"id":"5","type":"Feature","properties":{"name":"中潭路地铁站3号口","pname":"上海市","cityname":"上海市","adname":"普陀区","address":"3号线;4号线","isin_regio":"yes","wgs84_lng":"121.43605781934801","wgs84_lat":"31.256279956844132","行业大类":"交通设施服务","行业子类":"地铁站","__source_file__":"19-其它/13-历史版本数据/2021.08/上海市-地铁出入口.shp"},"geometry":{"type":"Point","coordinates":[121.43605781934801,31.256279956844132]}},{"id":"310","type":"Feature","properties":{"name":"一大会址·黄陂南路地铁站2号口","pname":"上海市","cityname":"上海市","adname":"黄浦区","address":"1号线","isin_regio":"999","wgs84_lng":"121.4695528176968","wgs84_lat":"31.224704840779882","行业大类":"交通设施服务","行业子类":"地铁站","__source_file__":"19-其它/13-历史版本数据/2021.08/上海市-地铁出入口.shp"},"geometry":{"type":"Point","coordinates":[121.4695528176968,31.224704840779882]}},{"id":"1025","type":"Feature","properties":{"name":"一大会址·黄陂南路地铁站出入口","pname":"上海市","cityname":"上海市","adname":"黄浦区","address":"1号线","isin_regio":"yes","wgs84_lng":"121.46897187335519","wgs84_lat":"31.22535895489818","行业大类":"交通设施服务","行业子类":"地铁站","__source_file__":"19-其它/13-历史版本数据/2021.08/上海市-地铁出入口.shp"},"geometry":{"type":"Point","coordinates":[121.46897187335519,31.22535895489818]}},{"id":"367","type":"Feature","properties":{"name":"一大会址·黄陂南路地铁站5号口","pname":"上海市","cityname":"上海市","adname":"黄浦区","address":"14号线","isin_regio":"yes","wgs84_lng":"121.46925666986095","wgs84_lat":"31.22685502846011","行业大类":"交通设施服务","行业子类":"地铁站","__source_file__":"19-其它/13-历史版本数据/2021.08/上海市-地铁出入口.shp"},"geometry":{"type":"Point","coordinates":[121.46925666986095,31.22685502846011]}},{"id":"196","type":"Feature","properties":{"name":"大世界地铁站6号口","pname":"上海市","cityname":"上海市","adname":"黄浦区","address":"14号线","isin_regio":"yes","wgs84_lng":"121.47555748724406","wgs84_lat":"31.228355839523484","行业大类":"交通设施服务","行业子类":"地铁站","__source_file__":"19-其它/13-历史版本数据/2021.08/上海市-地铁出入口.shp"},"geometry":{"type":"Point","coordinates":[121.47555748724406,31.228355839523484]}},{"id":"1491","type":"Feature","properties":{"name":"大世界地铁站3号口","pname":"上海市","cityname":"上海市","adname":"黄浦区","address":"8号线","isin_regio":"yes","wgs84_lng":"121.47463635690096","wgs84_lat":"31.22851915901945","行业大类":"交通设施服务","行业子类":"地铁站","__source_file__":"19-其它/13-历史版本数据/2021.08/上海市-地铁出入口.shp"},"geometry":{"type":"Point","coordinates":[121.47463635690096,31.22851915901945]}},{"id":"377","type":"Feature","properties":{"name":"大世界地铁站2号口","pname":"上海市","cityname":"上海市","adname":"黄浦区","address":"8号线","isin_regio":"yes","wgs84_lng":"121.47551429694373","wgs84_lat":"31.22886847845696","行业大类":"交通设施服务","行业子类":"地铁站","__source_file__":"19-其它/13-历史版本数据/2021.08/上海市-地铁出入口.shp"},"geometry":{"type":"Point","coordinates":[121.47551429694373,31.22886847845696]}},{"id":"291","type":"Feature","properties":{"name":"大世界地铁站5号口","pname":"上海市","cityname":"上海市","adname":"黄浦区","address":"14号线","isin_regio":"yes","wgs84_lng":"121.47640529370416","wgs84_lat":"31.2292538308881","行业大类":"交通设施服务","行业子类":"地铁站","__source_file__":"19-其它/13-历史版本数据/2021.08/上海市-地铁出入口.shp"},"geometry":{"type":"Point","coordinates":[121.47640529370416,31.2292538308881]}},{"id":"350","type":"Feature","properties":{"name":"大世界地铁站4号口","pname":"上海市","cityname":"上海市","adname":"黄浦区","address":"8号线","isin_regio":"yes","wgs84_lng":"121.47406735555482","wgs84_lat":"31.22951309497077","行业大类":"交通设施服务","行业子类":"地铁站","__source_file__":"19-其它/13-历史版本数据/2021.08/上海市-地铁出入口.shp"},"geometry":{"type":"Point","coordinates":[121.47406735555482,31.22951309497077]}},{"id":"1076","type":"Feature","properties":{"name":"豫园地铁站3号口","pname":"上海市","cityname":"上海市","adname":"黄浦区","address":"10号线","isin_regio":"yes","wgs84_lng":"121.48277936153663","wgs84_lat":"31.229344224988083","行业大类":"交通设施服务","行业子类":"地铁站","__source_file__":"19-其它/13-历史版本数据/2021.08/上海市-地铁出入口.shp"},"geometry":{"type":"Point","coordinates":[121.48277936153663,31.229344224988083]}},{"id":"1216","type":"Feature","properties":{"name":"豫园地铁站4号口","pname":"上海市","cityname":"上海市","adname":"黄浦区","address":"10号线","isin_regio":"yes","wgs84_lng":"121.48248624057463","wgs84_lat":"31.230426863543368","行业大类":"交通设施服务","行业子类":"地铁站","__source_file__":"19-其它/13-历史版本数据/2021.08/上海市-地铁出入口.shp"},"geometry":{"type":"Point","coordinates":[121.48248624057463,31.230426863543368]}},{"id":"1079","type":"Feature","properties":{"name":"豫园地铁站1号口","pname":"上海市","cityname":"上海市","adname":"黄浦区","address":"10号线","isin_regio":"yes","wgs84_lng":"121.48304017203864","wgs84_lat":"31.230586413021655","行业大类":"交通设施服务","行业子类":"地铁站","__source_file__":"19-其它/13-历史版本数据/2021.08/上海市-地铁出入口.shp"},"geometry":{"type":"Point","coordinates":[121.48304017203864,31.230586413021655]}},{"id":"1229","type":"Feature","properties":{"name":"豫园地铁站5号口","pname":"上海市","cityname":"上海市","adname":"黄浦区","address":"14号线","isin_regio":"yes","wgs84_lng":"121.48364923313378","wgs84_lat":"31.23155075490444","行业大类":"交通设施服务","行业子类":"地铁站","__source_file__":"19-其它/13-历史版本数据/2021.08/上海市-地铁出入口.shp"},"geometry":{"type":"Point","coordinates":[121.48364923313378,31.23155075490444]}},{"id":"1017","type":"Feature","properties":{"name":"豫园地铁站7号口","pname":"上海市","cityname":"上海市","adname":"黄浦区","address":"14号线","isin_regio":"yes","wgs84_lng":"121.4857576697769","wgs84_lat":"31.231747882410165","行业大类":"交通设施服务","行业子类":"地铁站","__source_file__":"19-其它/13-历史版本数据/2021.08/上海市-地铁出入口.shp"},"geometry":{"type":"Point","coordinates":[121.4857576697769,31.231747882410165]}},{"id":"1249","type":"Feature","properties":{"name":"大世界地铁站1号口","pname":"上海市","cityname":"上海市","adname":"黄浦区","address":"8号线","isin_regio":"yes","wgs84_lng":"121.47512691644305","wgs84_lat":"31.22966601094299","行业大类":"交通设施服务","行业子类":"地铁站","__source_file__":"19-其它/13-历史版本数据/2021.08/上海市-地铁出入口.shp"},"geometry":{"type":"Point","coordinates":[121.47512691644305,31.22966601094299]}},{"id":"339","type":"Feature","properties":{"name":"人民广场地铁站1号口","pname":"上海市","cityname":"上海市","adname":"黄浦区","address":"1号线","isin_regio":"yes","wgs84_lng":"121.47195401835761","wgs84_lat":"31.23279167735235","行业大类":"交通设施服务","行业子类":"地铁站","__source_file__":"19-其它/13-历史版本数据/2021.08/上海市-地铁出入口.shp"},"geometry":{"type":"Point","coordinates":[121.47195401835761,31.23279167735235]}},{"id":"220","type":"Feature","properties":{"name":"人民广场地铁站2号口","pname":"上海市","cityname":"上海市","adname":"黄浦区","address":"1号线","isin_regio":"yes","wgs84_lng":"121.47098675091136","wgs84_lat":"31.233623621282366","行业大类":"交通设施服务","行业子类":"地铁站","__source_file__":"19-其它/13-历史版本数据/2021.08/上海市-地铁出入口.shp"},"geometry":{"type":"Point","coordinates":[121.47098675091136,31.233623621282366]}},{"id":"1231","type":"Feature","properties":{"name":"人民广场地铁站3号口","pname":"上海市","cityname":"上海市","adname":"黄浦区","address":"1号线","isin_regio":"yes","wgs84_lng":"121.47136799370169","wgs84_lat":"31.233791594977486","行业大类":"交通设施服务","行业子类":"地铁站","__source_file__":"19-其它/13-历史版本数据/2021.08/上海市-地铁出入口.shp"},"geometry":{"type":"Point","coordinates":[121.47136799370169,31.233791594977486]}},{"id":"312","type":"Feature","properties":{"name":"人民广场地铁站16号口","pname":"上海市","cityname":"上海市","adname":"黄浦区","address":"1号线","isin_regio":"999","wgs84_lng":"121.47102080272084","wgs84_lat":"31.23432839041514","行业大类":"交通设施服务","行业子类":"地铁站","__source_file__":"19-其它/13-历史版本数据/2021.08/上海市-地铁出入口.shp"},"geometry":{"type":"Point","coordinates":[121.47102080272084,31.23432839041514]}},{"id":"380","type":"Feature","properties":{"name":"人民广场地铁站15号口","pname":"上海市","cityname":"上海市","adname":"黄浦区","address":"8号线","isin_regio":"yes","wgs84_lng":"121.47165790452051","wgs84_lat":"31.23434614076638","行业大类":"交通设施服务","行业子类":"地铁站","__source_file__":"19-其它/13-历史版本数据/2021.08/上海市-地铁出入口.shp"},"geometry":{"type":"Point","coordinates":[121.47165790452051,31.23434614076638]}},{"id":"303","type":"Feature","properties":{"name":"人民广场地铁站17号口","pname":"上海市","cityname":"上海市","adname":"黄浦区","address":"2号线","isin_regio":"999","wgs84_lng":"121.47000341795177","wgs84_lat":"31.234866351282637","行业大类":"交通设施服务","行业子类":"地铁站","__source_file__":"19-其它/13-历史版本数据/2021.08/上海市-地铁出入口.shp"},"geometry":{"type":"Point","coordinates":[121.47000341795177,31.234866351282637]}},{"id":"1177","type":"Feature","properties":{"name":"人民广场地铁站14号口","pname":"上海市","cityname":"上海市","adname":"黄浦区","address":"8号线","isin_regio":"yes","wgs84_lng":"121.47142006804734","wgs84_lat":"31.234932213771593","行业大类":"交通设施服务","行业子类":"地铁站","__source_file__":"19-其它/13-历史版本数据/2021.08/上海市-地铁出入口.shp"},"geometry":{"type":"Point","coordinates":[121.47142006804734,31.234932213771593]}},{"id":"221","type":"Feature","properties":{"name":"人民广场地铁站18号口","pname":"上海市","cityname":"上海市","adname":"黄浦区","address":"2号线","isin_regio":"yes","wgs84_lng":"121.4693081394975","wgs84_lat":"31.23499939435734","行业大类":"交通设施服务","行业子类":"地铁站","__source_file__":"19-其它/13-历史版本数据/2021.08/上海市-地铁出入口.shp"},"geometry":{"type":"Point","coordinates":[121.4693081394975,31.23499939435734]}},{"id":"349","type":"Feature","properties":{"name":"人民广场地铁站20号口","pname":"上海市","cityname":"上海市","adname":"黄浦区","address":"8号线","isin_regio":"yes","wgs84_lng":"121.4704117248079","wgs84_lat":"31.235217307853574","行业大类":"交通设施服务","行业子类":"地铁站","__source_file__":"19-其它/13-历史版本数据/2021.08/上海市-地铁出入口.shp"},"geometry":{"type":"Point","coordinates":[121.4704117248079,31.235217307853574]}},{"id":"223","type":"Feature","properties":{"name":"人民广场地铁站12号口","pname":"上海市","cityname":"上海市","adname":"黄浦区","address":"2号线","isin_regio":"yes","wgs84_lng":"121.46878943275463","wgs84_lat":"31.235271861366943","行业大类":"交通设施服务","行业子类":"地铁站","__source_file__":"19-其它/13-历史版本数据/2021.08/上海市-地铁出入口.shp"},"geometry":{"type":"Point","coordinates":[121.46878943275463,31.235271861366943]}},{"id":"313","type":"Feature","properties":{"name":"人民广场地铁站6号口","pname":"上海市","cityname":"上海市","adname":"黄浦区","address":"2号线","isin_regio":"999","wgs84_lng":"121.46941643132018","wgs84_lat":"31.235705364677777","行业大类":"交通设施服务","行业子类":"地铁站","__source_file__":"19-其它/13-历史版本数据/2021.08/上海市-地铁出入口.shp"},"geometry":{"type":"Point","coordinates":[121.46941643132018,31.235705364677777]}},{"id":"344","type":"Feature","properties":{"name":"人民广场地铁站5号口","pname":"上海市","cityname":"上海市","adname":"黄浦区","address":"1号线","isin_regio":"yes","wgs84_lng":"121.46959400328083","wgs84_lat":"31.23577981412739","行业大类":"交通设施服务","行业子类":"地铁站","__source_file__":"19-其它/13-历史版本数据/2021.08/上海市-地铁出入口.shp"},"geometry":{"type":"Point","coordinates":[121.46959400328083,31.23577981412739]}},{"id":"381","type":"Feature","properties":{"name":"人民广场地铁站7号口","pname":"上海市","cityname":"上海市","adname":"黄浦区","address":"2号线","isin_regio":"yes","wgs84_lng":"121.46924083033129","wgs84_lat":"31.23605372721166","行业大类":"交通设施服务","行业子类":"地铁站","__source_file__":"19-其它/13-历史版本数据/2021.08/上海市-地铁出入口.shp"},"geometry":{"type":"Point","coordinates":[121.46924083033129,31.23605372721166]}},{"id":"382","type":"Feature","properties":{"name":"人民广场地铁站19号口","pname":"上海市","cityname":"上海市","adname":"黄浦区","address":"8号线","isin_regio":"yes","wgs84_lng":"121.46984077579968","wgs84_lat":"31.236159313185134","行业大类":"交通设施服务","行业子类":"地铁站","__source_file__":"19-其它/13-历史版本数据/2021.08/上海市-地铁出入口.shp"},"geometry":{"type":"Point","coordinates":[121.46984077579968,31.236159313185134]}},{"id":"1535","type":"Feature","properties":{"name":"南京东路地铁站4号口","pname":"上海市","cityname":"上海市","adname":"黄浦区","address":"2号线","isin_regio":"yes","wgs84_lng":"121.47823780363757","wgs84_lat":"31.238250929499223","行业大类":"交通设施服务","行业子类":"地铁站","__source_file__":"19-其它/13-历史版本数据/2021.08/上海市-地铁出入口.shp"},"geometry":{"type":"Point","coordinates":[121.47823780363757,31.238250929499223]}},{"id":"1168","type":"Feature","properties":{"name":"南京东路地铁站1号口","pname":"上海市","cityname":"上海市","adname":"黄浦区","address":"2号线","isin_regio":"yes","wgs84_lng":"121.4782879274797","wgs84_lat":"31.238821813065353","行业大类":"交通设施服务","行业子类":"地铁站","__source_file__":"19-其它/13-历史版本数据/2021.08/上海市-地铁出入口.shp"},"geometry":{"type":"Point","coordinates":[121.4782879274797,31.238821813065353]}},{"id":"1448","type":"Feature","properties":{"name":"天潼路地铁站4号口","pname":"上海市","cityname":"上海市","adname":"静安区","address":"10号线;12号线","isin_regio":"yes","wgs84_lng":"121.47748459214381","wgs84_lat":"31.24555145841699","行业大类":"交通设施服务","行业子类":"地铁站","__source_file__":"19-其它/13-历史版本数据/2021.08/上海市-地铁出入口.shp"},"geometry":{"type":"Point","coordinates":[121.47748459214381,31.24555145841699]}},{"id":"930","type":"Feature","properties":{"name":"天潼路地铁站3号口","pname":"上海市","cityname":"上海市","adname":"虹口区","address":"12号线","isin_regio":"yes","wgs84_lng":"121.478476990665","wgs84_lat":"31.24571123641185","行业大类":"交通设施服务","行业子类":"地铁站","__source_file__":"19-其它/13-历史版本数据/2021.08/上海市-地铁出入口.shp"},"geometry":{"type":"Point","coordinates":[121.478476990665,31.24571123641185]}},{"id":"348","type":"Feature","properties":{"name":"天潼路地铁站5号口","pname":"上海市","cityname":"上海市","adname":"静安区","address":"10号线","isin_regio":"yes","wgs84_lng":"121.47747252052419","wgs84_lat":"31.24590526472809","行业大类":"交通设施服务","行业子类":"地铁站","__source_file__":"19-其它/13-历史版本数据/2021.08/上海市-地铁出入口.shp"},"geometry":{"type":"Point","coordinates":[121.47747252052419,31.24590526472809]}},{"id":"1078","type":"Feature","properties":{"name":"豫园地铁站6号口","pname":"上海市","cityname":"上海市","adname":"黄浦区","address":"14号线","isin_regio":"yes","wgs84_lng":"121.4843847801336","wgs84_lat":"31.232107662196505","行业大类":"交通设施服务","行业子类":"地铁站","__source_file__":"19-其它/13-历史版本数据/2021.08/上海市-地铁出入口.shp"},"geometry":{"type":"Point","coordinates":[121.4843847801336,31.232107662196505]}},{"id":"1233","type":"Feature","properties":{"name":"南京东路地铁站3号口","pname":"上海市","cityname":"上海市","adname":"黄浦区","address":"2号线","isin_regio":"yes","wgs84_lng":"121.47964459152082","wgs84_lat":"31.23909260399915","行业大类":"交通设施服务","行业子类":"地铁站","__source_file__":"19-其它/13-历史版本数据/2021.08/上海市-地铁出入口.shp"},"geometry":{"type":"Point","coordinates":[121.47964459152082,31.23909260399915]}},{"id":"1236","type":"Feature","properties":{"name":"南京东路地铁站2号口","pname":"上海市","cityname":"上海市","adname":"黄浦区","address":"10号线;2号线","isin_regio":"yes","wgs84_lng":"121.4800950962807","wgs84_lat":"31.239776597578057","行业大类":"交通设施服务","行业子类":"地铁站","__source_file__":"19-其它/13-历史版本数据/2021.08/上海市-地铁出入口.shp"},"geometry":{"type":"Point","coordinates":[121.4800950962807,31.239776597578057]}},{"id":"235","type":"Feature","properties":{"name":"南京东路地铁站7号口","pname":"上海市","cityname":"上海市","adname":"黄浦区","address":"10号线","isin_regio":"yes","wgs84_lng":"121.48044929371225","wgs84_lat":"31.240172445409236","行业大类":"交通设施服务","行业子类":"地铁站","__source_file__":"19-其它/13-历史版本数据/2021.08/上海市-地铁出入口.shp"},"geometry":{"type":"Point","coordinates":[121.48044929371225,31.240172445409236]}},{"id":"236","type":"Feature","properties":{"name":"南京东路地铁站5号口","pname":"上海市","cityname":"上海市","adname":"黄浦区","address":"10号线","isin_regio":"yes","wgs84_lng":"121.4798231072163","wgs84_lat":"31.24030356945327","行业大类":"交通设施服务","行业子类":"地铁站","__source_file__":"19-其它/13-历史版本数据/2021.08/上海市-地铁出入口.shp"},"geometry":{"type":"Point","coordinates":[121.4798231072163,31.24030356945327]}},{"id":"1189","type":"Feature","properties":{"name":"南京东路地铁站6号口","pname":"上海市","cityname":"上海市","adname":"黄浦区","address":"10号线","isin_regio":"yes","wgs84_lng":"121.48003577970775","wgs84_lat":"31.241072836184284","行业大类":"交通设施服务","行业子类":"地铁站","__source_file__":"19-其它/13-历史版本数据/2021.08/上海市-地铁出入口.shp"},"geometry":{"type":"Point","coordinates":[121.48003577970775,31.241072836184284]}},{"id":"658","type":"Feature","properties":{"name":"国际客运中心地铁站3号口","pname":"上海市","cityname":"上海市","adname":"虹口区","address":"12号线","isin_regio":"999","wgs84_lng":"121.49312432653382","wgs84_lat":"31.25165381307787","行业大类":"交通设施服务","行业子类":"地铁站","__source_file__":"19-其它/13-历史版本数据/2021.08/上海市-地铁出入口.shp"},"geometry":{"type":"Point","coordinates":[121.49312432653382,31.25165381307787]}},{"id":"122","type":"Feature","properties":{"name":"国际客运中心地铁站4号口","pname":"上海市","cityname":"上海市","adname":"虹口区","address":"12号线","isin_regio":"yes","wgs84_lng":"121.49261144902853","wgs84_lat":"31.252038106435318","行业大类":"交通设施服务","行业子类":"地铁站","__source_file__":"19-其它/13-历史版本数据/2021.08/上海市-地铁出入口.shp"},"geometry":{"type":"Point","coordinates":[121.49261144902853,31.252038106435318]}},{"id":"135","type":"Feature","properties":{"name":"国际客运中心地铁站2号口","pname":"上海市","cityname":"上海市","adname":"虹口区","address":"12号线","isin_regio":"yes","wgs84_lng":"121.49417205606643","wgs84_lat":"31.25214773325017","行业大类":"交通设施服务","行业子类":"地铁站","__source_file__":"19-其它/13-历史版本数据/2021.08/上海市-地铁出入口.shp"},"geometry":{"type":"Point","coordinates":[121.49417205606643,31.25214773325017]}},{"id":"383","type":"Feature","properties":{"name":"新闸路地铁站5号口","pname":"上海市","cityname":"上海市","adname":"黄浦区","address":"1号线","isin_regio":"yes","wgs84_lng":"121.46392855385552","wgs84_lat":"31.24056953864018","行业大类":"交通设施服务","行业子类":"地铁站","__source_file__":"19-其它/13-历史版本数据/2021.08/上海市-地铁出入口.shp"},"geometry":{"type":"Point","coordinates":[121.46392855385552,31.24056953864018]}},{"id":"1081","type":"Feature","properties":{"name":"新闸路地铁站1号口","pname":"上海市","cityname":"上海市","adname":"黄浦区","address":"1号线","isin_regio":"yes","wgs84_lng":"121.4628662373104","wgs84_lat":"31.240984605192153","行业大类":"交通设施服务","行业子类":"地铁站","__source_file__":"19-其它/13-历史版本数据/2021.08/上海市-地铁出入口.shp"},"geometry":{"type":"Point","coordinates":[121.4628662373104,31.240984605192153]}},{"id":"961","type":"Feature","properties":{"name":"曲阜路地铁站2号口","pname":"上海市","cityname":"上海市","adname":"静安区","address":"8号线","isin_regio":"yes","wgs84_lng":"121.46735507914606","wgs84_lat":"31.24384109554151","行业大类":"交通设施服务","行业子类":"地铁站","__source_file__":"19-其它/13-历史版本数据/2021.08/上海市-地铁出入口.shp"},"geometry":{"type":"Point","coordinates":[121.46735507914606,31.24384109554151]}},{"id":"1058","type":"Feature","properties":{"name":"曲阜路地铁站3号口","pname":"上海市","cityname":"上海市","adname":"静安区","address":"8号线","isin_regio":"yes","wgs84_lng":"121.46651940010258","wgs84_lat":"31.243994796555477","行业大类":"交通设施服务","行业子类":"地铁站","__source_file__":"19-其它/13-历史版本数据/2021.08/上海市-地铁出入口.shp"},"geometry":{"type":"Point","coordinates":[121.46651940010258,31.243994796555477]}},{"id":"965","type":"Feature","properties":{"name":"曲阜路地铁站4号口","pname":"上海市","cityname":"上海市","adname":"静安区","address":"12号线","isin_regio":"yes","wgs84_lng":"121.46630568543775","wgs84_lat":"31.24441403977469","行业大类":"交通设施服务","行业子类":"地铁站","__source_file__":"19-其它/13-历史版本数据/2021.08/上海市-地铁出入口.shp"},"geometry":{"type":"Point","coordinates":[121.46630568543775,31.24441403977469]}},{"id":"1062","type":"Feature","properties":{"name":"曲阜路地铁站5号口","pname":"上海市","cityname":"上海市","adname":"静安区","address":"12号线","isin_regio":"yes","wgs84_lng":"121.46808535738542","wgs84_lat":"31.244619705430445","行业大类":"交通设施服务","行业子类":"地铁站","__source_file__":"19-其它/13-历史版本数据/2021.08/上海市-地铁出入口.shp"},"geometry":{"type":"Point","coordinates":[121.46808535738542,31.244619705430445]}},{"id":"959","type":"Feature","properties":{"name":"曲阜路地铁站1号口","pname":"上海市","cityname":"上海市","adname":"静安区","address":"8号线","isin_regio":"yes","wgs84_lng":"121.46718946679609","wgs84_lat":"31.244803218510274","行业大类":"交通设施服务","行业子类":"地铁站","__source_file__":"19-其它/13-历史版本数据/2021.08/上海市-地铁出入口.shp"},"geometry":{"type":"Point","coordinates":[121.46718946679609,31.244803218510274]}},{"id":"603","type":"Feature","properties":{"name":"中兴路地铁站3号口","pname":"上海市","cityname":"上海市","adname":"静安区","address":"8号线","isin_regio":"yes","wgs84_lng":"121.46421826314405","wgs84_lat":"31.254439078847426","行业大类":"交通设施服务","行业子类":"地铁站","__source_file__":"19-其它/13-历史版本数据/2021.08/上海市-地铁出入口.shp"},"geometry":{"type":"Point","coordinates":[121.46421826314405,31.254439078847426]}},{"id":"867","type":"Feature","properties":{"name":"中兴路地铁站2号口","pname":"上海市","cityname":"上海市","adname":"静安区","address":"8号线","isin_regio":"yes","wgs84_lng":"121.46507889564045","wgs84_lat":"31.255112032257017","行业大类":"交通设施服务","行业子类":"地铁站","__source_file__":"19-其它/13-历史版本数据/2021.08/上海市-地铁出入口.shp"},"geometry":{"type":"Point","coordinates":[121.46507889564045,31.255112032257017]}},{"id":"663","type":"Feature","properties":{"name":"中兴路地铁站4号口","pname":"上海市","cityname":"上海市","adname":"静安区","address":"8号线","isin_regio":"yes","wgs84_lng":"121.463759770436","wgs84_lat":"31.255234536670983","行业大类":"交通设施服务","行业子类":"地铁站","__source_file__":"19-其它/13-历史版本数据/2021.08/上海市-地铁出入口.shp"},"geometry":{"type":"Point","coordinates":[121.463759770436,31.255234536670983]}},{"id":"123","type":"Feature","properties":{"name":"国际客运中心地铁站1号口","pname":"上海市","cityname":"上海市","adname":"虹口区","address":"12号线","isin_regio":"yes","wgs84_lng":"121.49412986131803","wgs84_lat":"31.252652383021356","行业大类":"交通设施服务","行业子类":"地铁站","__source_file__":"19-其它/13-历史版本数据/2021.08/上海市-地铁出入口.shp"},"geometry":{"type":"Point","coordinates":[121.49412986131803,31.252652383021356]}},{"id":"890","type":"Feature","properties":{"name":"四川北路地铁站3号口","pname":"上海市","cityname":"上海市","adname":"虹口区","address":"10号线","isin_regio":"yes","wgs84_lng":"121.47941056331457","wgs84_lat":"31.253357518850656","行业大类":"交通设施服务","行业子类":"地铁站","__source_file__":"19-其它/13-历史版本数据/2021.08/上海市-地铁出入口.shp"},"geometry":{"type":"Point","coordinates":[121.47941056331457,31.253357518850656]}},{"id":"909","type":"Feature","properties":{"name":"四川北路地铁站2号口","pname":"上海市","cityname":"上海市","adname":"虹口区","address":"10号线","isin_regio":"yes","wgs84_lng":"121.48006578176913","wgs84_lat":"31.25398913677604","行业大类":"交通设施服务","行业子类":"地铁站","__source_file__":"19-其它/13-历史版本数据/2021.08/上海市-地铁出入口.shp"},"geometry":{"type":"Point","coordinates":[121.48006578176913,31.25398913677604]}},{"id":"923","type":"Feature","properties":{"name":"四川北路地铁站1号口","pname":"上海市","cityname":"上海市","adname":"虹口区","address":"10号线","isin_regio":"yes","wgs84_lng":"121.48000252045634","wgs84_lat":"31.25447673804462","行业大类":"交通设施服务","行业子类":"地铁站","__source_file__":"19-其它/13-历史版本数据/2021.08/上海市-地铁出入口.shp"},"geometry":{"type":"Point","coordinates":[121.48000252045634,31.25447673804462]}},{"id":"1378","type":"Feature","properties":{"name":"海伦路地铁站5号口","pname":"上海市","cityname":"上海市","adname":"虹口区","address":"10号线","isin_regio":"yes","wgs84_lng":"121.48378322323252","wgs84_lat":"31.260687058781237","行业大类":"交通设施服务","行业子类":"地铁站","__source_file__":"19-其它/13-历史版本数据/2021.08/上海市-地铁出入口.shp"},"geometry":{"type":"Point","coordinates":[121.48378322323252,31.260687058781237]}},{"id":"1379","type":"Feature","properties":{"name":"海伦路地铁站3号口","pname":"上海市","cityname":"上海市","adname":"虹口区","address":"4号线","isin_regio":"yes","wgs84_lng":"121.48454089275073","wgs84_lat":"31.260746264007068","行业大类":"交通设施服务","行业子类":"地铁站","__source_file__":"19-其它/13-历史版本数据/2021.08/上海市-地铁出入口.shp"},"geometry":{"type":"Point","coordinates":[121.48454089275073,31.260746264007068]}},{"id":"100","type":"Feature","properties":{"name":"海伦路地铁站2号口","pname":"上海市","cityname":"上海市","adname":"虹口区","address":"4号线","isin_regio":"yes","wgs84_lng":"121.485808375072","wgs84_lat":"31.260821974620313","行业大类":"交通设施服务","行业子类":"地铁站","__source_file__":"19-其它/13-历史版本数据/2021.08/上海市-地铁出入口.shp"},"geometry":{"type":"Point","coordinates":[121.485808375072,31.260821974620313]}},{"id":"1449","type":"Feature","properties":{"name":"海伦路地铁站4号口","pname":"上海市","cityname":"上海市","adname":"虹口区","address":"4号线","isin_regio":"yes","wgs84_lng":"121.48528447316426","wgs84_lat":"31.261343198905","行业大类":"交通设施服务","行业子类":"地铁站","__source_file__":"19-其它/13-历史版本数据/2021.08/上海市-地铁出入口.shp"},"geometry":{"type":"Point","coordinates":[121.48528447316426,31.261343198905]}},{"id":"847","type":"Feature","properties":{"name":"海伦路地铁站1号口","pname":"上海市","cityname":"上海市","adname":"虹口区","address":"4号线","isin_regio":"yes","wgs84_lng":"121.48606624455087","wgs84_lat":"31.261360503653954","行业大类":"交通设施服务","行业子类":"地铁站","__source_file__":"19-其它/13-历史版本数据/2021.08/上海市-地铁出入口.shp"},"geometry":{"type":"Point","coordinates":[121.48606624455087,31.261360503653954]}},{"id":"848","type":"Feature","properties":{"name":"海伦路地铁站7号口","pname":"上海市","cityname":"上海市","adname":"虹口区","address":"10号线","isin_regio":"yes","wgs84_lng":"121.48473549146766","wgs84_lat":"31.26179438219783","行业大类":"交通设施服务","行业子类":"地铁站","__source_file__":"19-其它/13-历史版本数据/2021.08/上海市-地铁出入口.shp"},"geometry":{"type":"Point","coordinates":[121.48473549146766,31.26179438219783]}},{"id":"1042","type":"Feature","properties":{"name":"天潼路地铁站出入口","pname":"上海市","cityname":"上海市","adname":"静安区","address":"10号线","isin_regio":"yes","wgs84_lng":"121.4775075934164","wgs84_lat":"31.24646011591595","行业大类":"交通设施服务","行业子类":"地铁站","__source_file__":"19-其它/13-历史版本数据/2021.08/上海市-地铁出入口.shp"},"geometry":{"type":"Point","coordinates":[121.4775075934164,31.24646011591595]}},{"id":"665","type":"Feature","properties":{"name":"天潼路地铁站6号口","pname":"上海市","cityname":"上海市","adname":"静安区","address":"10号线","isin_regio":"yes","wgs84_lng":"121.4771794458867","wgs84_lat":"31.246729055873747","行业大类":"交通设施服务","行业子类":"地铁站","__source_file__":"19-其它/13-历史版本数据/2021.08/上海市-地铁出入口.shp"},"geometry":{"type":"Point","coordinates":[121.4771794458867,31.246729055873747]}},{"id":"661","type":"Feature","properties":{"name":"天潼路地铁站1号口","pname":"上海市","cityname":"上海市","adname":"虹口区","address":"10号线","isin_regio":"999","wgs84_lng":"121.4778166071439","wgs84_lat":"31.247010754799","行业大类":"交通设施服务","行业子类":"地铁站","__source_file__":"19-其它/13-历史版本数据/2021.08/上海市-地铁出入口.shp"},"geometry":{"type":"Point","coordinates":[121.4778166071439,31.247010754799]}},{"id":"662","type":"Feature","properties":{"name":"宝山路地铁站2号口","pname":"上海市","cityname":"上海市","adname":"静安区","address":"3号线;4号线","isin_regio":"yes","wgs84_lng":"121.47106733654931","wgs84_lat":"31.253237981119064","行业大类":"交通设施服务","行业子类":"地铁站","__source_file__":"19-其它/13-历史版本数据/2021.08/上海市-地铁出入口.shp"},"geometry":{"type":"Point","coordinates":[121.47106733654931,31.253237981119064]}},{"id":"1061","type":"Feature","properties":{"name":"宝山路地铁站1号口","pname":"上海市","cityname":"上海市","adname":"静安区","address":"3号线;4号线","isin_regio":"yes","wgs84_lng":"121.47229835353747","wgs84_lat":"31.25391208888195","行业大类":"交通设施服务","行业子类":"地铁站","__source_file__":"19-其它/13-历史版本数据/2021.08/上海市-地铁出入口.shp"},"geometry":{"type":"Point","coordinates":[121.47229835353747,31.25391208888195]}},{"id":"934","type":"Feature","properties":{"name":"东宝兴路地铁站2号口","pname":"上海市","cityname":"上海市","adname":"虹口区","address":"3号线","isin_regio":"yes","wgs84_lng":"121.4757132127822","wgs84_lat":"31.261147508098155","行业大类":"交通设施服务","行业子类":"地铁站","__source_file__":"19-其它/13-历史版本数据/2021.08/上海市-地铁出入口.shp"},"geometry":{"type":"Point","coordinates":[121.4757132127822,31.261147508098155]}},{"id":"868","type":"Feature","properties":{"name":"东宝兴路地铁站1号口","pname":"上海市","cityname":"上海市","adname":"虹口区","address":"3号线","isin_regio":"yes","wgs84_lng":"121.47558867066093","wgs84_lat":"31.26254154962255","行业大类":"交通设施服务","行业子类":"地铁站","__source_file__":"19-其它/13-历史版本数据/2021.08/上海市-地铁出入口.shp"},"geometry":{"type":"Point","coordinates":[121.47558867066093,31.26254154962255]}},{"id":"913","type":"Feature","properties":{"name":"1号口","pname":"上海市","cityname":"上海市","adname":"虹口区","address":null,"isin_regio":"yes","wgs84_lng":"121.47568923520804","wgs84_lat":"31.271622939338954","行业大类":"交通设施服务","行业子类":"地铁站","__source_file__":"19-其它/13-历史版本数据/2021.08/上海市-地铁出入口.shp"},"geometry":{"type":"Point","coordinates":[121.47568923520804,31.271622939338954]}},{"id":"892","type":"Feature","properties":{"name":"2号口","pname":"上海市","cityname":"上海市","adname":"虹口区","address":null,"isin_regio":"yes","wgs84_lng":"121.47408180057016","wgs84_lat":"31.271632396283167","行业大类":"交通设施服务","行业子类":"地铁站","__source_file__":"19-其它/13-历史版本数据/2021.08/上海市-地铁出入口.shp"},"geometry":{"type":"Point","coordinates":[121.47408180057016,31.271632396283167]}},{"id":"1428","type":"Feature","properties":{"name":"虹口足球场地铁站3号口","pname":"上海市","cityname":"上海市","adname":"虹口区","address":"3号线","isin_regio":"yes","wgs84_lng":"121.47469378596948","wgs84_lat":"31.27253373719474","行业大类":"交通设施服务","行业子类":"地铁站","__source_file__":"19-其它/13-历史版本数据/2021.08/上海市-地铁出入口.shp"},"geometry":{"type":"Point","coordinates":[121.47469378596948,31.27253373719474]}},{"id":"664","type":"Feature","properties":{"name":"中兴路地铁站1号口","pname":"上海市","cityname":"上海市","adname":"静安区","address":"8号线","isin_regio":"yes","wgs84_lng":"121.46473878221794","wgs84_lat":"31.255666896486346","行业大类":"交通设施服务","行业子类":"地铁站","__source_file__":"19-其它/13-历史版本数据/2021.08/上海市-地铁出入口.shp"},"geometry":{"type":"Point","coordinates":[121.46473878221794,31.255666896486346]}},{"id":"889","type":"Feature","properties":{"name":"西藏北路地铁站3号口","pname":"上海市","cityname":"上海市","adname":"静安区","address":"8号线","isin_regio":"yes","wgs84_lng":"121.4637187933404","wgs84_lat":"31.265125120624504","行业大类":"交通设施服务","行业子类":"地铁站","__source_file__":"19-其它/13-历史版本数据/2021.08/上海市-地铁出入口.shp"},"geometry":{"type":"Point","coordinates":[121.4637187933404,31.265125120624504]}},{"id":"908","type":"Feature","properties":{"name":"西藏北路地铁站2号口","pname":"上海市","cityname":"上海市","adname":"静安区","address":"8号线","isin_regio":"yes","wgs84_lng":"121.46481115595084","wgs84_lat":"31.265592765104866","行业大类":"交通设施服务","行业子类":"地铁站","__source_file__":"19-其它/13-历史版本数据/2021.08/上海市-地铁出入口.shp"},"geometry":{"type":"Point","coordinates":[121.46481115595084,31.265592765104866]}},{"id":"922","type":"Feature","properties":{"name":"西藏北路地铁站4号口","pname":"上海市","cityname":"上海市","adname":"静安区","address":"8号线","isin_regio":"yes","wgs84_lng":"121.46358632942655","wgs84_lat":"31.265749508672876","行业大类":"交通设施服务","行业子类":"地铁站","__source_file__":"19-其它/13-历史版本数据/2021.08/上海市-地铁出入口.shp"},"geometry":{"type":"Point","coordinates":[121.46358632942655,31.265749508672876]}},{"id":"907","type":"Feature","properties":{"name":"西藏北路地铁站1号口","pname":"上海市","cityname":"上海市","adname":"静安区","address":"8号线","isin_regio":"yes","wgs84_lng":"121.46421926816102","wgs84_lat":"31.266054021049722","行业大类":"交通设施服务","行业子类":"地铁站","__source_file__":"19-其它/13-历史版本数据/2021.08/上海市-地铁出入口.shp"},"geometry":{"type":"Point","coordinates":[121.46421926816102,31.266054021049722]}},{"id":"55","type":"Feature","properties":{"name":"江宁路地铁站1号口","pname":"上海市","cityname":"上海市","adname":"普陀区","address":"13号线","isin_regio":"yes","wgs84_lng":"121.44062932200616","wgs84_lat":"31.24656734976362","行业大类":"交通设施服务","行业子类":"地铁站","__source_file__":"19-其它/13-历史版本数据/2021.08/上海市-地铁出入口.shp"},"geometry":{"type":"Point","coordinates":[121.44062932200616,31.24656734976362]}},{"id":"631","type":"Feature","properties":{"name":"上海火车站地铁站5号口","pname":"上海市","cityname":"上海市","adname":"静安区","address":"1号线","isin_regio":"yes","wgs84_lng":"121.45140657392908","wgs84_lat":"31.24852558053744","行业大类":"交通设施服务","行业子类":"地铁站","__source_file__":"19-其它/13-历史版本数据/2021.08/上海市-地铁出入口.shp"},"geometry":{"type":"Point","coordinates":[121.45140657392908,31.24852558053744]}},{"id":"604","type":"Feature","properties":{"name":"上海火车站地铁站3号口","pname":"上海市","cityname":"上海市","adname":"静安区","address":"1号线","isin_regio":"yes","wgs84_lng":"121.45059037177093","wgs84_lat":"31.24890959375462","行业大类":"交通设施服务","行业子类":"地铁站","__source_file__":"19-其它/13-历史版本数据/2021.08/上海市-地铁出入口.shp"},"geometry":{"type":"Point","coordinates":[121.45059037177093,31.24890959375462]}},{"id":"605","type":"Feature","properties":{"name":"上海火车站地铁站4号口","pname":"上海市","cityname":"上海市","adname":"静安区","address":"1号线","isin_regio":"yes","wgs84_lng":"121.45148874047688","wgs84_lat":"31.249142488896652","行业大类":"交通设施服务","行业子类":"地铁站","__source_file__":"19-其它/13-历史版本数据/2021.08/上海市-地铁出入口.shp"},"geometry":{"type":"Point","coordinates":[121.45148874047688,31.249142488896652]}},{"id":"630","type":"Feature","properties":{"name":"上海火车站地铁站2号口","pname":"上海市","cityname":"上海市","adname":"静安区","address":"1号线","isin_regio":"yes","wgs84_lng":"121.45078684166154","wgs84_lat":"31.24948677106176","行业大类":"交通设施服务","行业子类":"地铁站","__source_file__":"19-其它/13-历史版本数据/2021.08/上海市-地铁出入口.shp"},"geometry":{"type":"Point","coordinates":[121.45078684166154,31.24948677106176]}},{"id":"656","type":"Feature","properties":{"name":"上海火车站地铁站1号口","pname":"上海市","cityname":"上海市","adname":"静安区","address":"1号线","isin_regio":"yes","wgs84_lng":"121.45099135515598","wgs84_lat":"31.249824074744417","行业大类":"交通设施服务","行业子类":"地铁站","__source_file__":"19-其它/13-历史版本数据/2021.08/上海市-地铁出入口.shp"},"geometry":{"type":"Point","coordinates":[121.45099135515598,31.249824074744417]}},{"id":"955","type":"Feature","properties":{"name":"1号口","pname":"上海市","cityname":"上海市","adname":"静安区","address":null,"isin_regio":"yes","wgs84_lng":"121.45409564453091","wgs84_lat":"31.251503385819944","行业大类":"交通设施服务","行业子类":"地铁站","__source_file__":"19-其它/13-历史版本数据/2021.08/上海市-地铁出入口.shp"},"geometry":{"type":"Point","coordinates":[121.45409564453091,31.251503385819944]}},{"id":"1166","type":"Feature","properties":{"name":"4号口","pname":"上海市","cityname":"上海市","adname":"静安区","address":null,"isin_regio":"yes","wgs84_lng":"121.45311089491602","wgs84_lat":"31.251901936633047","行业大类":"交通设施服务","行业子类":"地铁站","__source_file__":"19-其它/13-历史版本数据/2021.08/上海市-地铁出入口.shp"},"geometry":{"type":"Point","coordinates":[121.45311089491602,31.251901936633047]}},{"id":"632","type":"Feature","properties":{"name":"6号口","pname":"上海市","cityname":"上海市","adname":"静安区","address":null,"isin_regio":"yes","wgs84_lng":"121.45243298766762","wgs84_lat":"31.252589085456556","行业大类":"交通设施服务","行业子类":"地铁站","__source_file__":"19-其它/13-历史版本数据/2021.08/上海市-地铁出入口.shp"},"geometry":{"type":"Point","coordinates":[121.45243298766762,31.252589085456556]}},{"id":"887","type":"Feature","properties":{"name":"中山北路地铁站2号口","pname":"上海市","cityname":"上海市","adname":"静安区","address":"1号线","isin_regio":"yes","wgs84_lng":"121.45501648531028","wgs84_lat":"31.259978808028144","行业大类":"交通设施服务","行业子类":"地铁站","__source_file__":"19-其它/13-历史版本数据/2021.08/上海市-地铁出入口.shp"},"geometry":{"type":"Point","coordinates":[121.45501648531028,31.259978808028144]}},{"id":"4","type":"Feature","properties":{"name":"中潭路地铁站2号口","pname":"上海市","cityname":"上海市","adname":"普陀区","address":"3号线;4号线","isin_regio":"yes","wgs84_lng":"121.43711495244396","wgs84_lat":"31.256446678847453","行业大类":"交通设施服务","行业子类":"地铁站","__source_file__":"19-其它/13-历史版本数据/2021.08/上海市-地铁出入口.shp"},"geometry":{"type":"Point","coordinates":[121.43711495244396,31.256446678847453]}},{"id":"323","type":"Feature","properties":{"name":"中潭路地铁站4号口","pname":"上海市","cityname":"上海市","adname":"普陀区","address":"3号线;4号线","isin_regio":"yes","wgs84_lng":"121.43602974465438","wgs84_lat":"31.25649181667137","行业大类":"交通设施服务","行业子类":"地铁站","__source_file__":"19-其它/13-历史版本数据/2021.08/上海市-地铁出入口.shp"},"geometry":{"type":"Point","coordinates":[121.43602974465438,31.25649181667137]}},{"id":"2","type":"Feature","properties":{"name":"中潭路地铁站5号口","pname":"上海市","cityname":"上海市","adname":"普陀区","address":"3号线;4号线","isin_regio":"yes","wgs84_lng":"121.43638144772713","wgs84_lat":"31.256550382895917","行业大类":"交通设施服务","行业子类":"地铁站","__source_file__":"19-其它/13-历史版本数据/2021.08/上海市-地铁出入口.shp"},"geometry":{"type":"Point","coordinates":[121.43638144772713,31.256550382895917]}},{"id":"3","type":"Feature","properties":{"name":"中潭路地铁站6号口","pname":"上海市","cityname":"上海市","adname":"普陀区","address":"3号线;4号线","isin_regio":"yes","wgs84_lng":"121.43677424227108","wgs84_lat":"31.2565880332921","行业大类":"交通设施服务","行业子类":"地铁站","__source_file__":"19-其它/13-历史版本数据/2021.08/上海市-地铁出入口.shp"},"geometry":{"type":"Point","coordinates":[121.43677424227108,31.2565880332921]}},{"id":"317","type":"Feature","properties":{"name":"中潭路地铁站1号口","pname":"上海市","cityname":"上海市","adname":"普陀区","address":"3号线;4号线","isin_regio":"yes","wgs84_lng":"121.43708286976522","wgs84_lat":"31.256639538988605","行业大类":"交通设施服务","行业子类":"地铁站","__source_file__":"19-其它/13-历史版本数据/2021.08/上海市-地铁出入口.shp"},"geometry":{"type":"Point","coordinates":[121.43708286976522,31.256639538988605]}},{"id":"812","type":"Feature","properties":{"name":"中山北路地铁站1号口","pname":"上海市","cityname":"上海市","adname":"静安区","address":"1号线","isin_regio":"yes","wgs84_lng":"121.45461424685149","wgs84_lat":"31.261268303475582","行业大类":"交通设施服务","行业子类":"地铁站","__source_file__":"19-其它/13-历史版本数据/2021.08/上海市-地铁出入口.shp"},"geometry":{"type":"Point","coordinates":[121.45461424685149,31.261268303475582]}},{"id":"903","type":"Feature","properties":{"name":"中山北路地铁站4号口","pname":"上海市","cityname":"上海市","adname":"静安区","address":"1号线","isin_regio":"yes","wgs84_lng":"121.45427128244948","wgs84_lat":"31.26136046311268","行业大类":"交通设施服务","行业子类":"地铁站","__source_file__":"19-其它/13-历史版本数据/2021.08/上海市-地铁出入口.shp"},"geometry":{"type":"Point","coordinates":[121.45427128244948,31.26136046311268]}},{"id":"212","type":"Feature","properties":{"name":"延长路地铁站3号口","pname":"上海市","cityname":"上海市","adname":"静安区","address":"1号线","isin_regio":"yes","wgs84_lng":"121.45075472774624","wgs84_lat":"31.272976489926098","行业大类":"交通设施服务","行业子类":"地铁站","__source_file__":"19-其它/13-历史版本数据/2021.08/上海市-地铁出入口.shp"},"geometry":{"type":"Point","coordinates":[121.45075472774624,31.272976489926098]}},{"id":"1086","type":"Feature","properties":{"name":"延长路地铁站2号口","pname":"上海市","cityname":"上海市","adname":"静安区","address":"1号线","isin_regio":"yes","wgs84_lng":"121.4516671399489","wgs84_lat":"31.273216423953137","行业大类":"交通设施服务","行业子类":"地铁站","__source_file__":"19-其它/13-历史版本数据/2021.08/上海市-地铁出入口.shp"},"geometry":{"type":"Point","coordinates":[121.4516671399489,31.273216423953137]}},{"id":"598","type":"Feature","properties":{"name":"延长路地铁站4号口","pname":"上海市","cityname":"上海市","adname":"静安区","address":"1号线","isin_regio":"yes","wgs84_lng":"121.45028842085776","wgs84_lat":"31.273857088104922","行业大类":"交通设施服务","行业子类":"地铁站","__source_file__":"19-其它/13-历史版本数据/2021.08/上海市-地铁出入口.shp"},"geometry":{"type":"Point","coordinates":[121.45028842085776,31.273857088104922]}},{"id":"1037","type":"Feature","properties":{"name":"虹口足球场地铁站出入口","pname":"上海市","cityname":"上海市","adname":"虹口区","address":"3号线","isin_regio":"yes","wgs84_lng":"121.47455329899682","wgs84_lat":"31.27268327777723","行业大类":"交通设施服务","行业子类":"地铁站","__source_file__":"19-其它/13-历史版本数据/2021.08/上海市-地铁出入口.shp"},"geometry":{"type":"Point","coordinates":[121.47455329899682,31.27268327777723]}},{"id":"1165","type":"Feature","properties":{"name":"虹口足球场地铁站2号口","pname":"上海市","cityname":"上海市","adname":"虹口区","address":"3号线","isin_regio":"yes","wgs84_lng":"121.47516335682488","wgs84_lat":"31.27273197959534","行业大类":"交通设施服务","行业子类":"地铁站","__source_file__":"19-其它/13-历史版本数据/2021.08/上海市-地铁出入口.shp"},"geometry":{"type":"Point","coordinates":[121.47516335682488,31.27273197959534]}},{"id":"1031","type":"Feature","properties":{"name":"虹口足球场地铁站出入口","pname":"上海市","cityname":"上海市","adname":"虹口区","address":"3号线","isin_regio":"yes","wgs84_lng":"121.47441778932841","wgs84_lat":"31.27329863571247","行业大类":"交通设施服务","行业子类":"地铁站","__source_file__":"19-其它/13-历史版本数据/2021.08/上海市-地铁出入口.shp"},"geometry":{"type":"Point","coordinates":[121.47441778932841,31.27329863571247]}},{"id":"1164","type":"Feature","properties":{"name":"虹口足球场地铁站1号口","pname":"上海市","cityname":"上海市","adname":"虹口区","address":"3号线","isin_regio":"yes","wgs84_lng":"121.47501073393903","wgs84_lat":"31.2739740231328","行业大类":"交通设施服务","行业子类":"地铁站","__source_file__":"19-其它/13-历史版本数据/2021.08/上海市-地铁出入口.shp"},"geometry":{"type":"Point","coordinates":[121.47501073393903,31.2739740231328]}},{"id":"902","type":"Feature","properties":{"name":"虹口足球场地铁站4号口","pname":"上海市","cityname":"上海市","adname":"虹口区","address":"3号线","isin_regio":"yes","wgs84_lng":"121.47459231236466","wgs84_lat":"31.27406480385001","行业大类":"交通设施服务","行业子类":"地铁站","__source_file__":"19-其它/13-历史版本数据/2021.08/上海市-地铁出入口.shp"},"geometry":{"type":"Point","coordinates":[121.47459231236466,31.27406480385001]}}],"name":"上海市-地铁出入口","crs":{"type":"name","properties":{"name":"urn:ogc:def:crs:OGC:1.3:CRS84"}}}