{"type":"FeatureCollection","features":[{"id":"3","type":"Feature","properties":{"gml_id":"layer_religion_pt.234","Name":null,"fclass":"christian","__source_file__":"19-其它/13-历史版本数据/2021.08/上海市_宗教点.shp"},"geometry":{"type":"Point","coordinates":[121.43612304,31.22658234]}},{"id":"5","type":"Feature","properties":{"gml_id":"layer_religion_pt.243","Name":null,"fclass":"christian","__source_file__":"19-其它/13-历史版本数据/2021.08/上海市_宗教点.shp"},"geometry":{"type":"Point","coordinates":[121.48549668,31.23260064]}},{"id":"2","type":"Feature","properties":{"gml_id":"layer_religion_pt.211","Name":null,"fclass":"christian","__source_file__":"19-其它/13-历史版本数据/2021.08/上海市_宗教点.shp"},"geometry":{"type":"Point","coordinates":[121.45860468,31.23876546]}}],"name":"上海市_宗教点","crs":{"type":"name","properties":{"name":"urn:ogc:def:crs:OGC:1.3:CRS84"}}}