{"type":"FeatureCollection","features":[{"id":"15","type":"Feature","properties":{"gml_id":"layer_industrial_pg.81","Name":null,"fclass":"industrial","__source_file__":"19-其它/13-历史版本数据/2021.08/上海市_工业区.shp"},"geometry":{"type":"Polygon","coordinates":[[[121.463082,31.249227],[121.465378,31.249989],[121.465603,31.249402],[121.464241,31.248815],[121.463554,31.248631],[121.462588,31.24853],[121.461891,31.248585],[121.463082,31.249227]]]}}],"name":"上海市_工业区","crs":{"type":"name","properties":{"name":"urn:ogc:def:crs:OGC:1.3:CRS84"}}}