{"type":"FeatureCollection","features":[{"id":"743","type":"Feature","properties":{"gml_id":"layer_shopping_plaza_pt.106331","Name":"新天地时尚北门","pyname":"xtdssbm","kind":"2200","zipcode":null,"telephone":null,"display_x":"121.47489","display_y":"31.21822","side":"L","address":"马当路245号","__source_file__":"19-其它/13-历史版本数据/2021.08/上海市_大型购物广场.shp"},"geometry":{"type":"Point","coordinates":[121.4703954,31.22018568]}},{"id":"1196","type":"Feature","properties":{"gml_id":"layer_shopping_plaza_pt.106805","Name":"华府天地商场","pyname":"hftdsc","kind":"2200","zipcode":null,"telephone":null,"display_x":"121.47431","display_y":"31.21849","side":"R","address":"自忠路386","__source_file__":"19-其它/13-历史版本数据/2021.08/上海市_大型购物广场.shp"},"geometry":{"type":"Point","coordinates":[121.46981382,31.22045442]}},{"id":"1122","type":"Feature","properties":{"gml_id":"layer_shopping_plaza_pt.106730","Name":"新天地时尚北区西门","pyname":"xtdssbqxm","kind":"2200","zipcode":null,"telephone":null,"display_x":"121.47478","display_y":"31.21908","side":"L","address":"马当路181","__source_file__":"19-其它/13-历史版本数据/2021.08/上海市_大型购物广场.shp"},"geometry":{"type":"Point","coordinates":[121.47028866,31.22104671]}},{"id":"1050","type":"Feature","properties":{"gml_id":"layer_shopping_plaza_pt.106655","Name":"华府天地商场北门","pyname":"hftdscbm","kind":"2200","zipcode":null,"telephone":null,"display_x":"121.47412","display_y":"31.2195","side":"L","address":"兴业路","__source_file__":"19-其它/13-历史版本数据/2021.08/上海市_大型购物广场.shp"},"geometry":{"type":"Point","coordinates":[121.46962752,31.22146544]}},{"id":"275","type":"Feature","properties":{"gml_id":"layer_shopping_plaza_pt.105849","Name":"华狮广场","pyname":"hsgc","kind":"2200","zipcode":null,"telephone":"021-63879028","display_x":"121.46541","display_y":"31.21977","side":"R","address":"淮海中路688","__source_file__":"19-其它/13-历史版本数据/2021.08/上海市_大型购物广场.shp"},"geometry":{"type":"Point","coordinates":[121.4608806,31.2217119]}},{"id":"19","type":"Feature","properties":{"gml_id":"layer_shopping_plaza_pt.105590","Name":"雪豹商城","pyname":"xbsc","kind":"2200","zipcode":null,"telephone":null,"display_x":"121.46656","display_y":"31.21978","side":"L","address":"淮海中路627","__source_file__":"19-其它/13-历史版本数据/2021.08/上海市_大型购物广场.shp"},"geometry":{"type":"Point","coordinates":[121.46203314,31.22172401]}},{"id":"1257","type":"Feature","properties":{"gml_id":"layer_shopping_plaza_pt.106868","Name":"锦麟天地","pyname":"jltd","kind":"2200","zipcode":null,"telephone":"13681730098","display_x":"121.47416","display_y":"31.21983","side":"R","address":"马当路190","__source_file__":"19-其它/13-历史版本数据/2021.08/上海市_大型购物广场.shp"},"geometry":{"type":"Point","coordinates":[121.46966928,31.22179605]}},{"id":"983","type":"Feature","properties":{"gml_id":"layer_shopping_plaza_pt.106588","Name":"上海新天地北里","pyname":"shxtdbl","kind":"2200","zipcode":null,"telephone":null,"display_x":"121.47491","display_y":"31.21993","side":"R","address":"太仓路181弄1～25号","__source_file__":"19-其它/13-历史版本数据/2021.08/上海市_大型购物广场.shp"},"geometry":{"type":"Point","coordinates":[121.4704233,31.22189843]}},{"id":"1195","type":"Feature","properties":{"gml_id":"layer_shopping_plaza_pt.106804","Name":"珂图美创","pyname":"ktmc","kind":"2200","zipcode":null,"telephone":null,"display_x":"121.46786","display_y":"31.22069","side":"R","address":"淮海中路572","__source_file__":"19-其它/13-历史版本数据/2021.08/上海市_大型购物广场.shp"},"geometry":{"type":"Point","coordinates":[121.463343,31.22263904]}},{"id":"1332","type":"Feature","properties":{"gml_id":"layer_shopping_plaza_pt.106948","Name":"聚集地","pyname":"jjd","kind":"2200","zipcode":null,"telephone":null,"display_x":"121.44868","display_y":"31.22231","side":"R","address":"常德路1（轨道）地下1层","__source_file__":"19-其它/13-历史版本数据/2021.08/上海市_大型购物广场.shp"},"geometry":{"type":"Point","coordinates":[121.44411396,31.22422043]}},{"id":"32","type":"Feature","properties":{"gml_id":"layer_shopping_plaza_pt.105603","Name":"伊美商场","pyname":"ymsc","kind":"2200","zipcode":null,"telephone":null,"display_x":"121.44614","display_y":"31.22252","side":"R","address":"南京西路1661","__source_file__":"19-其它/13-历史版本数据/2021.08/上海市_大型购物广场.shp"},"geometry":{"type":"Point","coordinates":[121.4415684,31.22442572]}},{"id":"1304","type":"Feature","properties":{"gml_id":"layer_shopping_plaza_pt.106918","Name":"芮欧百货西门","pyname":"robhxm","kind":"2200","zipcode":null,"telephone":null,"display_x":"121.4473","display_y":"31.22292","side":"R","address":"南京西路1601号","__source_file__":"19-其它/13-历史版本数据/2021.08/上海市_大型购物广场.shp"},"geometry":{"type":"Point","coordinates":[121.44273102,31.2248277]}},{"id":"887","type":"Feature","properties":{"gml_id":"layer_shopping_plaza_pt.106482","Name":"静安嘉里中心南区商场东门","pyname":"jajlzxnqscdm","kind":"2200","zipcode":null,"telephone":null,"display_x":"121.44949","display_y":"31.22321","side":"R","address":null,"__source_file__":"19-其它/13-历史版本数据/2021.08/上海市_大型购物广场.shp"},"geometry":{"type":"Point","coordinates":[121.44492576,31.2251216]}},{"id":"1244","type":"Feature","properties":{"gml_id":"layer_shopping_plaza_pt.106855","Name":"静安嘉里中心南区商场","pyname":"jajlzxnqsc","kind":"2200","zipcode":null,"telephone":null,"display_x":"121.44922","display_y":"31.22326","side":"L","address":"延安中路1238号","__source_file__":"19-其它/13-历史版本数据/2021.08/上海市_大型购物广场.shp"},"geometry":{"type":"Point","coordinates":[121.44465522,31.2251711]}},{"id":"1241","type":"Feature","properties":{"gml_id":"layer_shopping_plaza_pt.106852","Name":"芮欧百货西北门","pyname":"robhxbm","kind":"2200","zipcode":null,"telephone":null,"display_x":"121.44701","display_y":"31.2233","side":"L","address":"南京西路1601号","__source_file__":"19-其它/13-历史版本数据/2021.08/上海市_大型购物广场.shp"},"geometry":{"type":"Point","coordinates":[121.44244032,31.22520701]}},{"id":"367","type":"Feature","properties":{"gml_id":"layer_shopping_plaza_pt.105947","Name":"东方商厦淮海店","pyname":"dfsshhd","kind":"2200","zipcode":null,"telephone":"021-64458000","display_x":"121.4642","display_y":"31.2187","side":"L","address":"淮海中路755号","__source_file__":"19-其它/13-历史版本数据/2021.08/上海市_大型购物广场.shp"},"geometry":{"type":"Point","coordinates":[121.45966794,31.22064005]}},{"id":"468","type":"Feature","properties":{"gml_id":"layer_shopping_plaza_pt.106048","Name":"上海花园饭店－三越商场","pyname":"shhyfd-sysc","kind":"2200","zipcode":"200020","telephone":"021-64151111","display_x":"121.45991","display_y":"31.21981","side":"L","address":"茂名南路58号上海花园饭店1层","__source_file__":"19-其它/13-历史版本数据/2021.08/上海市_大型购物广场.shp"},"geometry":{"type":"Point","coordinates":[121.45536846,31.22174183]}},{"id":"48","type":"Feature","properties":{"gml_id":"layer_shopping_plaza_pt.105619","Name":"锦江迪生商厦","pyname":"jjdsss","kind":"2200","zipcode":null,"telephone":"021-64726888","display_x":"121.45963","display_y":"31.22077","side":"R","address":"长乐路400－2","__source_file__":"19-其它/13-历史版本数据/2021.08/上海市_大型购物广场.shp"},"geometry":{"type":"Point","coordinates":[121.45508802,31.222701]}},{"id":"1018","type":"Feature","properties":{"gml_id":"layer_shopping_plaza_pt.106623","Name":"大沽路社区商业服务中心","pyname":"dglsqsyfwzx","kind":"2200","zipcode":null,"telephone":null,"display_x":"121.46405","display_y":"31.22517","side":"R","address":"大沽路527","__source_file__":"19-其它/13-历史版本数据/2021.08/上海市_大型购物广场.shp"},"geometry":{"type":"Point","coordinates":[121.45953546,31.22711492]}},{"id":"1032","type":"Feature","properties":{"gml_id":"layer_shopping_plaza_pt.106637","Name":"中信泰富广场","pyname":"zxtfgc","kind":"2200","zipcode":null,"telephone":null,"display_x":"121.45575","display_y":"31.22793","side":"R","address":"南京西路1168号","__source_file__":"19-其它/13-历史版本数据/2021.08/上海市_大型购物广场.shp"},"geometry":{"type":"Point","coordinates":[121.4512083,31.22985501]}},{"id":"595","type":"Feature","properties":{"gml_id":"layer_shopping_plaza_pt.106178","Name":"Pｌａｚａ66恒隆广场","pyname":"p66hlgc","kind":"2200","zipcode":null,"telephone":null,"display_x":"121.45429","display_y":"31.228","side":"L","address":"南京西路1266","__source_file__":"19-其它/13-历史版本数据/2021.08/上海市_大型购物广场.shp"},"geometry":{"type":"Point","coordinates":[121.44974166,31.22992085]}},{"id":"169","type":"Feature","properties":{"gml_id":"layer_shopping_plaza_pt.105743","Name":"梅龙镇广场","pyname":"mlzgc","kind":"2200","zipcode":null,"telephone":"021-62187878","display_x":"121.4567","display_y":"31.2286","side":"L","address":"南京西路1038号","__source_file__":"19-其它/13-历史版本数据/2021.08/上海市_大型购物广场.shp"},"geometry":{"type":"Point","coordinates":[121.45216608,31.23052884]}},{"id":"1457","type":"Feature","properties":{"gml_id":"layer_shopping_plaza_pt.107078","Name":"金鹰国际购物中心上海店东门","pyname":"jygjgwzxshddm","kind":"2200","zipcode":null,"telephone":"021-62881588","display_x":"121.45498","display_y":"31.22861","side":"R","address":null,"__source_file__":"19-其它/13-历史版本数据/2021.08/上海市_大型购物广场.shp"},"geometry":{"type":"Point","coordinates":[121.4504379,31.23053384]}},{"id":"243","type":"Feature","properties":{"gml_id":"layer_shopping_plaza_pt.105817","Name":"芮欧百货东门","pyname":"robhdm","kind":"2200","zipcode":null,"telephone":"021-22309788","display_x":"121.44791","display_y":"31.22335","side":"R","address":"南京西路1605","__source_file__":"19-其它/13-历史版本数据/2021.08/上海市_大型购物广场.shp"},"geometry":{"type":"Point","coordinates":[121.4433423,31.22525867]}},{"id":"1286","type":"Feature","properties":{"gml_id":"layer_shopping_plaza_pt.106898","Name":"乐意坊","pyname":"lyf","kind":"2200","zipcode":null,"telephone":null,"display_x":"121.45129","display_y":"31.22342","side":"R","address":"铜仁路88号","__source_file__":"19-其它/13-历史版本数据/2021.08/上海市_大型购物广场.shp"},"geometry":{"type":"Point","coordinates":[121.44672972,31.22533481]}},{"id":"698","type":"Feature","properties":{"gml_id":"layer_shopping_plaza_pt.106283","Name":"芮欧百货","pyname":"robh","kind":"2200","zipcode":null,"telephone":"021-22309788","display_x":"121.4475","display_y":"31.22352","side":"L","address":"南京西路1601号","__source_file__":"19-其它/13-历史版本数据/2021.08/上海市_大型购物广场.shp"},"geometry":{"type":"Point","coordinates":[121.44293136,31.22542787]}},{"id":"805","type":"Feature","properties":{"gml_id":"layer_shopping_plaza_pt.106398","Name":"久光百货南门","pyname":"jgbhnm","kind":"2200","zipcode":null,"telephone":null,"display_x":"121.44657","display_y":"31.22353","side":"R","address":"南京西路","__source_file__":"19-其它/13-历史版本数据/2021.08/上海市_大型购物广场.shp"},"geometry":{"type":"Point","coordinates":[121.44199932,31.22543615]}},{"id":"174","type":"Feature","properties":{"gml_id":"layer_shopping_plaza_pt.105748","Name":"久光百货上海店","pyname":"jgbhshd","kind":"2200","zipcode":null,"telephone":"021-32174838","display_x":"121.44619","display_y":"31.22354","side":"R","address":"南京西路1618","__source_file__":"19-其它/13-历史版本数据/2021.08/上海市_大型购物广场.shp"},"geometry":{"type":"Point","coordinates":[121.44161862,31.22544546]}},{"id":"353","type":"Feature","properties":{"gml_id":"layer_shopping_plaza_pt.105932","Name":"久光百货东南门","pyname":"jgbhdnm","kind":"2200","zipcode":null,"telephone":null,"display_x":"121.4468","display_y":"31.22365","side":"R","address":"南京西路","__source_file__":"19-其它/13-历史版本数据/2021.08/上海市_大型购物广场.shp"},"geometry":{"type":"Point","coordinates":[121.4422299,31.22555652]}},{"id":"571","type":"Feature","properties":{"gml_id":"layer_shopping_plaza_pt.106153","Name":"静安嘉里中心北区商场","pyname":"jajlzxbqsc","kind":"2200","zipcode":null,"telephone":"021-60871515","display_x":"121.44907","display_y":"31.22365","side":"L","address":"南京西路1515号","__source_file__":"19-其它/13-历史版本数据/2021.08/上海市_大型购物广场.shp"},"geometry":{"type":"Point","coordinates":[121.44450492,31.22556066]}},{"id":"1362","type":"Feature","properties":{"gml_id":"layer_shopping_plaza_pt.106978","Name":"久光百货西门","pyname":"jgbhxm","kind":"2200","zipcode":null,"telephone":null,"display_x":"121.44578","display_y":"31.22386","side":"L","address":"南京西路1618","__source_file__":"19-其它/13-历史版本数据/2021.08/上海市_大型购物广场.shp"},"geometry":{"type":"Point","coordinates":[121.44120768,31.2257646]}},{"id":"1303","type":"Feature","properties":{"gml_id":"layer_shopping_plaza_pt.106917","Name":"静安嘉里中心北区商场西门","pyname":"jajlzxbqscxm","kind":"2200","zipcode":null,"telephone":null,"display_x":"121.44858","display_y":"31.22388","side":"L","address":"常德路","__source_file__":"19-其它/13-历史版本数据/2021.08/上海市_大型购物广场.shp"},"geometry":{"type":"Point","coordinates":[121.44401388,31.22578971]}},{"id":"1077","type":"Feature","properties":{"gml_id":"layer_shopping_plaza_pt.106684","Name":"静安嘉里中心北区商场东南门","pyname":"jajlzxbqscdnm","kind":"2200","zipcode":null,"telephone":null,"display_x":"121.44952","display_y":"31.22395","side":"L","address":null,"__source_file__":"19-其它/13-历史版本数据/2021.08/上海市_大型购物广场.shp"},"geometry":{"type":"Point","coordinates":[121.44495582,31.2258614]}},{"id":"252","type":"Feature","properties":{"gml_id":"layer_shopping_plaza_pt.105826","Name":"香黛广场","pyname":"xdgc","kind":"2200","zipcode":null,"telephone":null,"display_x":"121.47205","display_y":"31.22195","side":"R","address":"淮海中路417号","__source_file__":"19-其它/13-历史版本数据/2021.08/上海市_大型购物广场.shp"},"geometry":{"type":"Point","coordinates":[121.46755896,31.22391326]}},{"id":"1011","type":"Feature","properties":{"gml_id":"layer_shopping_plaza_pt.106616","Name":"中环广场","pyname":"zhgc","kind":"2200","zipcode":null,"telephone":null,"display_x":"121.47282","display_y":"31.22201","side":"L","address":"淮海中路381号","__source_file__":"19-其它/13-历史版本数据/2021.08/上海市_大型购物广场.shp"},"geometry":{"type":"Point","coordinates":[121.46833278,31.22397558]}},{"id":"1149","type":"Feature","properties":{"gml_id":"layer_shopping_plaza_pt.106758","Name":"中环广场南门","pyname":"zhgcnm","kind":"2200","zipcode":null,"telephone":null,"display_x":"121.47308","display_y":"31.22205","side":"L","address":"淮海中路381","__source_file__":"19-其它/13-历史版本数据/2021.08/上海市_大型购物广场.shp"},"geometry":{"type":"Point","coordinates":[121.46859432,31.2240164]}},{"id":"51","type":"Feature","properties":{"gml_id":"layer_shopping_plaza_pt.105622","Name":"太平洋百货淮海店","pyname":"tpybhhhd","kind":"2200","zipcode":"200021","telephone":"021-53068888","display_x":"121.4742","display_y":"31.22271","side":"L","address":"淮海中路333","__source_file__":"19-其它/13-历史版本数据/2021.08/上海市_大型购物广场.shp"},"geometry":{"type":"Point","coordinates":[121.46972274,31.22468073]}},{"id":"653","type":"Feature","properties":{"gml_id":"layer_shopping_plaza_pt.106237","Name":"香港广场南座","pyname":"xggcnz","kind":"2200","zipcode":"200021","telephone":"021-63840717","display_x":"121.47489","display_y":"31.22313","side":"L","address":"淮海中路283号","__source_file__":"19-其它/13-历史版本数据/2021.08/上海市_大型购物广场.shp"},"geometry":{"type":"Point","coordinates":[121.4704179,31.22510342]}},{"id":"997","type":"Feature","properties":{"gml_id":"layer_shopping_plaza_pt.106602","Name":"K11购物艺术中心","pyname":"k11gwyszx","kind":"2200","zipcode":null,"telephone":"021-23103188","display_x":"121.47373","display_y":"31.22316","side":"R","address":"淮海中路300号","__source_file__":"19-其它/13-历史版本数据/2021.08/上海市_大型购物广场.shp"},"geometry":{"type":"Point","coordinates":[121.4692524,31.22513006]}},{"id":"692","type":"Feature","properties":{"gml_id":"layer_shopping_plaza_pt.106277","Name":"香港广场北座","pyname":"xggcbz","kind":"2200","zipcode":null,"telephone":null,"display_x":"121.47466","display_y":"31.22356","side":"R","address":"淮海中路282号","__source_file__":"19-其它/13-历史版本数据/2021.08/上海市_大型购物广场.shp"},"geometry":{"type":"Point","coordinates":[121.47018876,31.22553339]}},{"id":"1034","type":"Feature","properties":{"gml_id":"layer_shopping_plaza_pt.106639","Name":"K11购物艺术中心东门","pyname":"k11gwyszxdm","kind":"2200","zipcode":null,"telephone":null,"display_x":"121.47392","display_y":"31.22372","side":"R","address":"淮海中路300号","__source_file__":"19-其它/13-历史版本数据/2021.08/上海市_大型购物广场.shp"},"geometry":{"type":"Point","coordinates":[121.4694459,31.22569148]}},{"id":"896","type":"Feature","properties":{"gml_id":"layer_shopping_plaza_pt.106492","Name":"香港广场北座北门","pyname":"xggcbzbm","kind":"2200","zipcode":null,"telephone":null,"display_x":"121.47455","display_y":"31.22421","side":"L","address":"金陵中路","__source_file__":"19-其它/13-历史版本数据/2021.08/上海市_大型购物广场.shp"},"geometry":{"type":"Point","coordinates":[121.4700813,31.22618409]}},{"id":"239","type":"Feature","properties":{"gml_id":"layer_shopping_plaza_pt.105813","Name":"上海迪美购物中心南门","pyname":"shdmgwzxnm","kind":"2200","zipcode":null,"telephone":"021-63580000","display_x":"121.47404","display_y":"31.22754","side":"L","address":"武胜路218号","__source_file__":"19-其它/13-历史版本数据/2021.08/上海市_大型购物广场.shp"},"geometry":{"type":"Point","coordinates":[121.46958414,31.22951787]}},{"id":"1097","type":"Feature","properties":{"gml_id":"layer_shopping_plaza_pt.106704","Name":"静安嘉里中心北区商场西北门","pyname":"jajlzxbqscxbm","kind":"2200","zipcode":null,"telephone":null,"display_x":"121.44878","display_y":"31.22422","side":"L","address":"南京西路","__source_file__":"19-其它/13-历史版本数据/2021.08/上海市_大型购物广场.shp"},"geometry":{"type":"Point","coordinates":[121.44421422,31.22612996]}},{"id":"1146","type":"Feature","properties":{"gml_id":"layer_shopping_plaza_pt.106754","Name":"静安嘉里中心东区商场","pyname":"jajlzxdqsc","kind":"2200","zipcode":null,"telephone":null,"display_x":"121.44987","display_y":"31.2245","side":"L","address":"南京西路1515号","__source_file__":"19-其它/13-历史版本数据/2021.08/上海市_大型购物广场.shp"},"geometry":{"type":"Point","coordinates":[121.44530664,31.22641184]}},{"id":"750","type":"Feature","properties":{"gml_id":"layer_shopping_plaza_pt.106338","Name":"静安嘉里中心北区商场北门","pyname":"jajlzxbqscbm","kind":"2200","zipcode":null,"telephone":null,"display_x":"121.44936","display_y":"31.22455","side":"L","address":"南京西路1515号","__source_file__":"19-其它/13-历史版本数据/2021.08/上海市_大型购物广场.shp"},"geometry":{"type":"Point","coordinates":[121.44479562,31.22646089]}},{"id":"163","type":"Feature","properties":{"gml_id":"layer_shopping_plaza_pt.105737","Name":"久光百货北门","pyname":"jgbhbm","kind":"2200","zipcode":null,"telephone":null,"display_x":"121.446","display_y":"31.22457","side":"R","address":"南京西路1618","__source_file__":"19-其它/13-历史版本数据/2021.08/上海市_大型购物广场.shp"},"geometry":{"type":"Point","coordinates":[121.44142818,31.22647475]}},{"id":"842","type":"Feature","properties":{"gml_id":"layer_shopping_plaza_pt.106436","Name":"Pｌａｚａ66恒隆广场西南门","pyname":"p66hlgcxnm","kind":"2200","zipcode":null,"telephone":null,"display_x":"121.45314","display_y":"31.22721","side":"R","address":"南京西路1266","__source_file__":"19-其它/13-历史版本数据/2021.08/上海市_大型购物广场.shp"},"geometry":{"type":"Point","coordinates":[121.44858408,31.22912691]}},{"id":"695","type":"Feature","properties":{"gml_id":"layer_shopping_plaza_pt.106280","Name":"Pｌａｚａ66恒隆广场北门","pyname":"p66hlgcbm","kind":"2200","zipcode":null,"telephone":null,"display_x":"121.45339","display_y":"31.22781","side":"R","address":null,"__source_file__":"19-其它/13-历史版本数据/2021.08/上海市_大型购物广场.shp"},"geometry":{"type":"Point","coordinates":[121.44883662,31.22972793]}},{"id":"708","type":"Feature","properties":{"gml_id":"layer_shopping_plaza_pt.106293","Name":"金鹰国际购物中心上海店","pyname":"jygjgwzxshd","kind":"2200","zipcode":null,"telephone":"021-62881588","display_x":"121.45468","display_y":"31.22869","side":"R","address":"陕西北路278","__source_file__":"19-其它/13-历史版本数据/2021.08/上海市_大型购物广场.shp"},"geometry":{"type":"Point","coordinates":[121.45013676,31.23061308]}},{"id":"670","type":"Feature","properties":{"gml_id":"layer_shopping_plaza_pt.106254","Name":"金鹰国际购物中心上海店北门","pyname":"jygjgwzxshdbm","kind":"2200","zipcode":null,"telephone":null,"display_x":"121.45474","display_y":"31.2288","side":"R","address":null,"__source_file__":"19-其它/13-历史版本数据/2021.08/上海市_大型购物广场.shp"},"geometry":{"type":"Point","coordinates":[121.4501976,31.23072342]}},{"id":"533","type":"Feature","properties":{"gml_id":"layer_shopping_plaza_pt.106115","Name":"梅龙镇广场二号门","pyname":"mlzgcehm","kind":"2200","zipcode":null,"telephone":null,"display_x":"121.45646","display_y":"31.22883","side":"L","address":"南京西路1038号","__source_file__":"19-其它/13-历史版本数据/2021.08/上海市_大型购物广场.shp"},"geometry":{"type":"Point","coordinates":[121.45192596,31.23075852]}},{"id":"1164","type":"Feature","properties":{"gml_id":"layer_shopping_plaza_pt.106773","Name":"湟普汇","pyname":"hph","kind":"2200","zipcode":null,"telephone":"021-61361673","display_x":"121.45904","display_y":"31.22891","side":"L","address":"茂名北路328","__source_file__":"19-其它/13-历史版本数据/2021.08/上海市_大型购物广场.shp"},"geometry":{"type":"Point","coordinates":[121.45451868,31.23084618]}},{"id":"36","type":"Feature","properties":{"gml_id":"layer_shopping_plaza_pt.105607","Name":"梅龙镇伊势丹","pyname":"mlzysd","kind":"2200","zipcode":null,"telephone":"021-62721111","display_x":"121.45737","display_y":"31.22897","side":"L","address":"南京西路1038号梅龙镇广场1～7层","__source_file__":"19-其它/13-历史版本数据/2021.08/上海市_大型购物广场.shp"},"geometry":{"type":"Point","coordinates":[121.4528409,31.2309014]}},{"id":"1372","type":"Feature","properties":{"gml_id":"layer_shopping_plaza_pt.106988","Name":"湟普汇北门","pyname":"hphbm","kind":"2200","zipcode":null,"telephone":null,"display_x":"121.45937","display_y":"31.22907","side":"L","address":"吴江路269号","__source_file__":"19-其它/13-历史版本数据/2021.08/上海市_大型购物广场.shp"},"geometry":{"type":"Point","coordinates":[121.45485096,31.23100742]}},{"id":"532","type":"Feature","properties":{"gml_id":"layer_shopping_plaza_pt.106114","Name":"梅龙镇广场三号门","pyname":"mlzgcshm","kind":"2200","zipcode":null,"telephone":null,"display_x":"121.45625","display_y":"31.22915","side":"L","address":"南京西路1038号","__source_file__":"19-其它/13-历史版本数据/2021.08/上海市_大型购物广场.shp"},"geometry":{"type":"Point","coordinates":[121.45171644,31.23107843]}},{"id":"1012","type":"Feature","properties":{"gml_id":"layer_shopping_plaza_pt.106617","Name":"四季坊F入口","pyname":"sjffrk","kind":"2200","zipcode":null,"telephone":null,"display_x":"121.45988","display_y":"31.22929","side":"R","address":"吴江路169","__source_file__":"19-其它/13-历史版本数据/2021.08/上海市_大型购物广场.shp"},"geometry":{"type":"Point","coordinates":[121.45536432,31.23122922]}},{"id":"724","type":"Feature","properties":{"gml_id":"layer_shopping_plaza_pt.106311","Name":"四季坊E入口","pyname":"sjferk","kind":"2200","zipcode":null,"telephone":null,"display_x":"121.46069","display_y":"31.22963","side":"R","address":null,"__source_file__":"19-其它/13-历史版本数据/2021.08/上海市_大型购物广场.shp"},"geometry":{"type":"Point","coordinates":[121.4561799,31.23157212]}},{"id":"589","type":"Feature","properties":{"gml_id":"layer_shopping_plaza_pt.106172","Name":"四季坊D入口","pyname":"sjfdrk","kind":"2200","zipcode":null,"telephone":null,"display_x":"121.46093","display_y":"31.2297","side":"R","address":"吴江路169号","__source_file__":"19-其它/13-历史版本数据/2021.08/上海市_大型购物广场.shp"},"geometry":{"type":"Point","coordinates":[121.45642128,31.23164295]}},{"id":"505","type":"Feature","properties":{"gml_id":"layer_shopping_plaza_pt.106086","Name":"上海迪美购物中心东门","pyname":"shdmgwzxdm","kind":"2200","zipcode":null,"telephone":null,"display_x":"121.47393","display_y":"31.22823","side":"R","address":"人民大道221号","__source_file__":"19-其它/13-历史版本数据/2021.08/上海市_大型购物广场.shp"},"geometry":{"type":"Point","coordinates":[121.46947668,31.23020862]}},{"id":"400","type":"Feature","properties":{"gml_id":"layer_shopping_plaza_pt.105980","Name":"上海迪美购物中心","pyname":"shdmgwzx","kind":"2200","zipcode":null,"telephone":"021-63580000","display_x":"121.47345","display_y":"31.22869","side":"R","address":"人民大道221号","__source_file__":"19-其它/13-历史版本数据/2021.08/上海市_大型购物广场.shp"},"geometry":{"type":"Point","coordinates":[121.46899662,31.23066794]}},{"id":"420","type":"Feature","properties":{"gml_id":"layer_shopping_plaza_pt.106000","Name":"韩城服饰礼品广场","pyname":"hcfslpgc","kind":"2200","zipcode":null,"telephone":null,"display_x":"121.46611","display_y":"31.23106","side":"L","address":"南京西路580","__source_file__":"19-其它/13-历史版本数据/2021.08/上海市_大型购物广场.shp"},"geometry":{"type":"Point","coordinates":[121.46163228,31.23302022]}},{"id":"769","type":"Feature","properties":{"gml_id":"layer_shopping_plaza_pt.106358","Name":"仙乐斯广场","pyname":"xlsgc","kind":"2200","zipcode":null,"telephone":"021-63181388","display_x":"121.46943","display_y":"31.23139","side":"L","address":"南京西路388号","__source_file__":"19-其它/13-历史版本数据/2021.08/上海市_大型购物广场.shp"},"geometry":{"type":"Point","coordinates":[121.46496966,31.23336047]}},{"id":"1033","type":"Feature","properties":{"gml_id":"layer_shopping_plaza_pt.106638","Name":"韩城服饰礼品广场北门","pyname":"hcfslpgcbm","kind":"2200","zipcode":null,"telephone":null,"display_x":"121.4656","display_y":"31.23236","side":"R","address":"凤阳路545","__source_file__":"19-其它/13-历史版本数据/2021.08/上海市_大型购物广场.shp"},"geometry":{"type":"Point","coordinates":[121.46112594,31.23432077]}},{"id":"350","type":"Feature","properties":{"gml_id":"layer_shopping_plaza_pt.105928","Name":"世茂·商都","pyname":"smsd","kind":"2200","zipcode":null,"telephone":"021-63589000","display_x":"121.47084","display_y":"31.23239","side":"R","address":"南京西路258","__source_file__":"19-其它/13-历史版本数据/2021.08/上海市_大型购物广场.shp"},"geometry":{"type":"Point","coordinates":[121.46639112,31.23436613]}},{"id":"145","type":"Feature","properties":{"gml_id":"layer_shopping_plaza_pt.105718","Name":"上海华盛街西口","pyname":"shhsjxk","kind":"2200","zipcode":null,"telephone":null,"display_x":"121.47175","display_y":"31.23298","side":"L","address":"南京西路69","__source_file__":"19-其它/13-历史版本数据/2021.08/上海市_大型购物广场.shp"},"geometry":{"type":"Point","coordinates":[121.46730822,31.23495972]}},{"id":"715","type":"Feature","properties":{"gml_id":"layer_shopping_plaza_pt.106302","Name":"怡妮轩贸易商行","pyname":"ynxmysh","kind":"2200","zipcode":null,"telephone":null,"display_x":"121.46894","display_y":"31.23307","side":"L","address":"新昌路127","__source_file__":"19-其它/13-历史版本数据/2021.08/上海市_大型购物广场.shp"},"geometry":{"type":"Point","coordinates":[121.4644851,31.23504167]}},{"id":"1437","type":"Feature","properties":{"gml_id":"layer_shopping_plaza_pt.107056","Name":"上海华盛街西北口","pyname":"shhsjxbk","kind":"2200","zipcode":null,"telephone":null,"display_x":"121.47251","display_y":"31.23373","side":"R","address":"南京西路65号人民广场站8号口内","__source_file__":"19-其它/13-历史版本数据/2021.08/上海市_大型购物广场.shp"},"geometry":{"type":"Point","coordinates":[121.4680752,31.23571311]}},{"id":"364","type":"Feature","properties":{"gml_id":"layer_shopping_plaza_pt.105944","Name":"上海华盛街","pyname":"shhsj","kind":"2200","zipcode":null,"telephone":null,"display_x":"121.47377","display_y":"31.23432","side":"R","address":"南京西路19号人民广场地铁站7号口内","__source_file__":"19-其它/13-历史版本数据/2021.08/上海市_大型购物广场.shp"},"geometry":{"type":"Point","coordinates":[121.46934402,31.23630774]}},{"id":"889","type":"Feature","properties":{"gml_id":"layer_shopping_plaza_pt.106484","Name":"新世界城","pyname":"xsjc","kind":"2200","zipcode":"200003","telephone":"021-63588888","display_x":"121.47278","display_y":"31.23472","side":"L","address":"南京西路2～68号","__source_file__":"19-其它/13-历史版本数据/2021.08/上海市_大型购物广场.shp"},"geometry":{"type":"Point","coordinates":[121.46835114,31.2367055]}},{"id":"803","type":"Feature","properties":{"gml_id":"layer_shopping_plaza_pt.106395","Name":"南京路步行街西口","pyname":"njlbxjxk","kind":"2200","zipcode":null,"telephone":null,"display_x":"121.47474","display_y":"31.23474","side":"N","address":"南京东路","__source_file__":"19-其它/13-历史版本数据/2021.08/上海市_大型购物广场.shp"},"geometry":{"type":"Point","coordinates":[121.47032052,31.23673124]}},{"id":"1259","type":"Feature","properties":{"gml_id":"layer_shopping_plaza_pt.106870","Name":"新世界城东南门","pyname":"xsjcdnm","kind":"2200","zipcode":null,"telephone":null,"display_x":"121.47417","display_y":"31.23481","side":"L","address":"南京西路2号","__source_file__":"19-其它/13-历史版本数据/2021.08/上海市_大型购物广场.shp"},"geometry":{"type":"Point","coordinates":[121.46974812,31.23679968]}},{"id":"1359","type":"Feature","properties":{"gml_id":"layer_shopping_plaza_pt.106975","Name":"新世界城北门","pyname":"xsjcbm","kind":"2200","zipcode":null,"telephone":null,"display_x":"121.47333","display_y":"31.23527","side":"L","address":"凤阳路99号","__source_file__":"19-其它/13-历史版本数据/2021.08/上海市_大型购物广场.shp"},"geometry":{"type":"Point","coordinates":[121.46890626,31.23725796]}},{"id":"1159","type":"Feature","properties":{"gml_id":"layer_shopping_plaza_pt.106768","Name":"新世界城东门","pyname":"xsjcdm","kind":"2200","zipcode":null,"telephone":null,"display_x":"121.47403","display_y":"31.23531","side":"R","address":"西藏中路369号","__source_file__":"19-其它/13-历史版本数据/2021.08/上海市_大型购物广场.shp"},"geometry":{"type":"Point","coordinates":[121.4696097,31.23730008]}},{"id":"114","type":"Feature","properties":{"gml_id":"layer_shopping_plaza_pt.105687","Name":"上海市第一百货商店1号门","pyname":"shsdybhsd1hm","kind":"2200","zipcode":null,"telephone":null,"display_x":"121.47447","display_y":"31.23534","side":"R","address":"南京东路830号","__source_file__":"19-其它/13-历史版本数据/2021.08/上海市_大型购物广场.shp"},"geometry":{"type":"Point","coordinates":[121.47005196,31.2373314]}},{"id":"1438","type":"Feature","properties":{"gml_id":"layer_shopping_plaza_pt.107057","Name":"雅居乐国际广场西南门","pyname":"yjlgjgcxnm","kind":"2200","zipcode":null,"telephone":null,"display_x":"121.47299","display_y":"31.23544","side":"R","address":"长沙路","__source_file__":"19-其它/13-历史版本数据/2021.08/上海市_大型购物广场.shp"},"geometry":{"type":"Point","coordinates":[121.46856534,31.23742721]}},{"id":"1360","type":"Feature","properties":{"gml_id":"layer_shopping_plaza_pt.106976","Name":"新世界城东北门","pyname":"xsjcdbm","kind":"2200","zipcode":null,"telephone":null,"display_x":"121.47384","display_y":"31.23575","side":"L","address":"西藏中路399号","__source_file__":"19-其它/13-历史版本数据/2021.08/上海市_大型购物广场.shp"},"geometry":{"type":"Point","coordinates":[121.46942088,31.23774018]}},{"id":"316","type":"Feature","properties":{"gml_id":"layer_shopping_plaza_pt.105892","Name":"雅居乐国际广场","pyname":"yjlgjgc","kind":"2200","zipcode":null,"telephone":"021-53758788","display_x":"121.47371","display_y":"31.23617","side":"R","address":"西藏中路525号","__source_file__":"19-其它/13-历史版本数据/2021.08/上海市_大型购物广场.shp"},"geometry":{"type":"Point","coordinates":[121.46929218,31.23816048]}},{"id":"867","type":"Feature","properties":{"gml_id":"layer_shopping_plaza_pt.106462","Name":"雅居乐国际广场北门","pyname":"yjlgjgcbm","kind":"2200","zipcode":null,"telephone":"021-53758788","display_x":"121.47292","display_y":"31.23618","side":"R","address":null,"__source_file__":"19-其它/13-历史版本数据/2021.08/上海市_大型购物广场.shp"},"geometry":{"type":"Point","coordinates":[121.46849838,31.23816818]}},{"id":"899","type":"Feature","properties":{"gml_id":"layer_shopping_plaza_pt.106495","Name":"米兰777","pyname":"ml777","kind":"2200","zipcode":null,"telephone":"13801735604","display_x":"121.44287","display_y":"31.23307","side":"R","address":"常德路777号","__source_file__":"19-其它/13-历史版本数据/2021.08/上海市_大型购物广场.shp"},"geometry":{"type":"Point","coordinates":[121.43829186,31.23496611]}},{"id":"718","type":"Feature","properties":{"gml_id":"layer_shopping_plaza_pt.106305","Name":"亚新生活广场西门","pyname":"yxshgcxm","kind":"2200","zipcode":null,"telephone":null,"display_x":"121.43768","display_y":"31.23839","side":"N","address":null,"__source_file__":"19-其它/13-历史版本数据/2021.08/上海市_大型购物广场.shp"},"geometry":{"type":"Point","coordinates":[121.43309994,31.24027868]}},{"id":"1312","type":"Feature","properties":{"gml_id":"layer_shopping_plaza_pt.106926","Name":"亚新生活广场北门","pyname":"yxshgcbm","kind":"2200","zipcode":null,"telephone":null,"display_x":"121.43821","display_y":"31.2389","side":"L","address":"新会路","__source_file__":"19-其它/13-历史版本数据/2021.08/上海市_大型购物广场.shp"},"geometry":{"type":"Point","coordinates":[121.4336349,31.24079105]}},{"id":"396","type":"Feature","properties":{"gml_id":"layer_shopping_plaza_pt.105976","Name":"亚新生活广场东门","pyname":"yxshgcdm","kind":"2200","zipcode":null,"telephone":null,"display_x":"121.43711","display_y":"31.2394","side":"L","address":"长寿路401号","__source_file__":"19-其它/13-历史版本数据/2021.08/上海市_大型购物广场.shp"},"geometry":{"type":"Point","coordinates":[121.43253186,31.24128861]}},{"id":"18","type":"Feature","properties":{"gml_id":"layer_shopping_plaza_pt.105589","Name":"亚新生活广场","pyname":"yxshgc","kind":"2200","zipcode":"200060","telephone":null,"display_x":"121.43724","display_y":"31.23969","side":"L","address":"长寿路401","__source_file__":"19-其它/13-历史版本数据/2021.08/上海市_大型购物广场.shp"},"geometry":{"type":"Point","coordinates":[121.4326638,31.24157945]}},{"id":"1347","type":"Feature","properties":{"gml_id":"layer_shopping_plaza_pt.106963","Name":"新四百广场","pyname":"xsbgc","kind":"2200","zipcode":null,"telephone":null,"display_x":"121.43742","display_y":"31.23981","side":"L","address":"长寿路393号","__source_file__":"19-其它/13-历史版本数据/2021.08/上海市_大型购物广场.shp"},"geometry":{"type":"Point","coordinates":[121.43284524,31.24170018]}},{"id":"752","type":"Feature","properties":{"gml_id":"layer_shopping_plaza_pt.106340","Name":"上海纬陆V6时尚广场","pyname":"shwlv6ssgc","kind":"2200","zipcode":null,"telephone":null,"display_x":"121.43687","display_y":"31.24018","side":"R","address":"长寿路432","__source_file__":"19-其它/13-历史版本数据/2021.08/上海市_大型购物广场.shp"},"geometry":{"type":"Point","coordinates":[121.43229444,31.24206914]}},{"id":"566","type":"Feature","properties":{"gml_id":"layer_shopping_plaza_pt.106148","Name":"纬陆V6时尚广场东北门","pyname":"wlv6ssgcdbm","kind":"2200","zipcode":null,"telephone":null,"display_x":"121.43704","display_y":"31.24051","side":"R","address":"长寿路432","__source_file__":"19-其它/13-历史版本数据/2021.08/上海市_大型购物广场.shp"},"geometry":{"type":"Point","coordinates":[121.4324667,31.24240016]}},{"id":"876","type":"Feature","properties":{"gml_id":"layer_shopping_plaza_pt.106471","Name":"长寿商业广场南门","pyname":"cssygcnm","kind":"2200","zipcode":null,"telephone":null,"display_x":"121.44206","display_y":"31.24168","side":"N","address":"长寿路181弄","__source_file__":"19-其它/13-历史版本数据/2021.08/上海市_大型购物广场.shp"},"geometry":{"type":"Point","coordinates":[121.43751606,31.24358667]}},{"id":"1057","type":"Feature","properties":{"gml_id":"layer_shopping_plaza_pt.106662","Name":"新天地时尚北区南门","pyname":"xtdssbqnm","kind":"2200","zipcode":null,"telephone":null,"display_x":"121.47507","display_y":"31.21863","side":"R","address":"自忠路340","__source_file__":"19-其它/13-历史版本数据/2021.08/上海市_大型购物广场.shp"},"geometry":{"type":"Point","coordinates":[121.4705781,31.22059685]}},{"id":"202","type":"Feature","properties":{"gml_id":"layer_shopping_plaza_pt.105776","Name":"新天地时尚北区","pyname":"xtdssbq","kind":"2200","zipcode":null,"telephone":"021-63112288","display_x":"121.47527","display_y":"31.219","side":"R","address":"兴业路123弄6","__source_file__":"19-其它/13-历史版本数据/2021.08/上海市_大型购物广场.shp"},"geometry":{"type":"Point","coordinates":[121.47078078,31.22096801]}},{"id":"1084","type":"Feature","properties":{"gml_id":"layer_shopping_plaza_pt.106691","Name":"九号商场南门","pyname":"jhscnm","kind":"2200","zipcode":null,"telephone":null,"display_x":"121.47733","display_y":"31.22141","side":"R","address":"济南路9号","__source_file__":"19-其它/13-历史版本数据/2021.08/上海市_大型购物广场.shp"},"geometry":{"type":"Point","coordinates":[121.47286158,31.22338784]}},{"id":"506","type":"Feature","properties":{"gml_id":"layer_shopping_plaza_pt.106087","Name":"九号商场","pyname":"jhsc","kind":"2200","zipcode":"200021","telephone":"021-63856888","display_x":"121.47705","display_y":"31.22154","side":"R","address":"济南路9号","__source_file__":"19-其它/13-历史版本数据/2021.08/上海市_大型购物广场.shp"},"geometry":{"type":"Point","coordinates":[121.47258096,31.22351721]}},{"id":"1048","type":"Feature","properties":{"gml_id":"layer_shopping_plaza_pt.106653","Name":"九号商场北门","pyname":"jhscbm","kind":"2200","zipcode":null,"telephone":null,"display_x":"121.47723","display_y":"31.2217","side":"L","address":"济南路9号","__source_file__":"19-其它/13-历史版本数据/2021.08/上海市_大型购物广场.shp"},"geometry":{"type":"Point","coordinates":[121.47276258,31.223678]}},{"id":"754","type":"Feature","properties":{"gml_id":"layer_shopping_plaza_pt.106342","Name":"香港广场南座南门","pyname":"xggcnznm","kind":"2200","zipcode":null,"telephone":null,"display_x":"121.47525","display_y":"31.22259","side":"L","address":"淮海中路283号香港广场南座","__source_file__":"19-其它/13-历史版本数据/2021.08/上海市_大型购物广场.shp"},"geometry":{"type":"Point","coordinates":[121.47077718,31.2245636]}},{"id":"759","type":"Feature","properties":{"gml_id":"layer_shopping_plaza_pt.106347","Name":"力宝广场","pyname":"lbgc","kind":"2200","zipcode":null,"telephone":null,"display_x":"121.47551","display_y":"31.22398","side":"R","address":"淮海中路222号","__source_file__":"19-其它/13-历史版本数据/2021.08/上海市_大型购物广场.shp"},"geometry":{"type":"Point","coordinates":[121.47104484,31.22595657]}},{"id":"1422","type":"Feature","properties":{"gml_id":"layer_shopping_plaza_pt.107039","Name":"力宝广场北门","pyname":"lbgcbm","kind":"2200","zipcode":null,"telephone":null,"display_x":"121.47558","display_y":"31.22441","side":"R","address":"淮海中路222号","__source_file__":"19-其它/13-历史版本数据/2021.08/上海市_大型购物广场.shp"},"geometry":{"type":"Point","coordinates":[121.47111702,31.22638745]}},{"id":"413","type":"Feature","properties":{"gml_id":"layer_shopping_plaza_pt.105993","Name":"大上海时代广场","pyname":"dshsdgc","kind":"2200","zipcode":"200021","telephone":"021-63910691","display_x":"121.47923","display_y":"31.22456","side":"R","address":"淮海中路99号","__source_file__":"19-其它/13-历史版本数据/2021.08/上海市_大型购物广场.shp"},"geometry":{"type":"Point","coordinates":[121.47478524,31.22654832]}},{"id":"868","type":"Feature","properties":{"gml_id":"layer_shopping_plaza_pt.106463","Name":"上海广场西门","pyname":"shgcxm","kind":"2200","zipcode":null,"telephone":null,"display_x":"121.47784","display_y":"31.22499","side":"R","address":"淮海中路138","__source_file__":"19-其它/13-历史版本数据/2021.08/上海市_大型购物广场.shp"},"geometry":{"type":"Point","coordinates":[121.4733906,31.22697497]}},{"id":"329","type":"Feature","properties":{"gml_id":"layer_shopping_plaza_pt.105905","Name":"豫园商城5号门","pyname":"yysc5hm","kind":"2200","zipcode":null,"telephone":null,"display_x":"121.4909","display_y":"31.22626","side":"N","address":"百翎路","__source_file__":"19-其它/13-历史版本数据/2021.08/上海市_大型购物广场.shp"},"geometry":{"type":"Point","coordinates":[121.4865189,31.2282851]}},{"id":"1147","type":"Feature","properties":{"gml_id":"layer_shopping_plaza_pt.106756","Name":"豫园商城4号门","pyname":"yysc4hm","kind":"2200","zipcode":null,"telephone":null,"display_x":"121.49082","display_y":"31.22693","side":"N","address":"旧校场路六十九弄","__source_file__":"19-其它/13-历史版本数据/2021.08/上海市_大型购物广场.shp"},"geometry":{"type":"Point","coordinates":[121.4864415,31.22895596]}},{"id":"1071","type":"Feature","properties":{"gml_id":"layer_shopping_plaza_pt.106678","Name":"上海广场","pyname":"shgc","kind":"2200","zipcode":null,"telephone":null,"display_x":"121.47757","display_y":"31.22517","side":"R","address":"淮海中路138","__source_file__":"19-其它/13-历史版本数据/2021.08/上海市_大型购物广场.shp"},"geometry":{"type":"Point","coordinates":[121.47312006,31.22715443]}},{"id":"1232","type":"Feature","properties":{"gml_id":"layer_shopping_plaza_pt.106843","Name":"上海广场北门","pyname":"shgcbm","kind":"2200","zipcode":null,"telephone":null,"display_x":"121.47824","display_y":"31.22559","side":"R","address":"淮海中路138","__source_file__":"19-其它/13-历史版本数据/2021.08/上海市_大型购物广场.shp"},"geometry":{"type":"Point","coordinates":[121.47379524,31.22757707]}},{"id":"9","type":"Feature","properties":{"gml_id":"layer_shopping_plaza_pt.105580","Name":"汇都国际广场","pyname":"hdgjgc","kind":"2200","zipcode":null,"telephone":"021-61677187","display_x":"121.48024","display_y":"31.22662","side":"R","address":"金陵东路569号","__source_file__":"19-其它/13-历史版本数据/2021.08/上海市_大型购物广场.shp"},"geometry":{"type":"Point","coordinates":[121.47580944,31.22861454]}},{"id":"885","type":"Feature","properties":{"gml_id":"layer_shopping_plaza_pt.106480","Name":"亚龙国际广场","pyname":"ylgjgc","kind":"2200","zipcode":null,"telephone":"021-63267313","display_x":"121.47989","display_y":"31.22695","side":"R","address":"金陵东路500号","__source_file__":"19-其它/13-历史版本数据/2021.08/上海市_大型购物广场.shp"},"geometry":{"type":"Point","coordinates":[121.47545934,31.22894403]}},{"id":"401","type":"Feature","properties":{"gml_id":"layer_shopping_plaza_pt.105981","Name":"香港名店街","pyname":"xgmdj","kind":"2200","zipcode":null,"telephone":null,"display_x":"121.47578","display_y":"31.23017","side":"L","address":"人民大道9号","__source_file__":"19-其它/13-历史版本数据/2021.08/上海市_大型购物广场.shp"},"geometry":{"type":"Point","coordinates":[121.47134454,31.23215708]}},{"id":"1082","type":"Feature","properties":{"gml_id":"layer_shopping_plaza_pt.106689","Name":"好思特","pyname":"hst","kind":"2200","zipcode":null,"telephone":null,"display_x":"121.47578","display_y":"31.23017","side":"L","address":"人民大道9号香港名店街地下1层","__source_file__":"19-其它/13-历史版本数据/2021.08/上海市_大型购物广场.shp"},"geometry":{"type":"Point","coordinates":[121.47134454,31.23215708]}},{"id":"301","type":"Feature","properties":{"gml_id":"layer_shopping_plaza_pt.105876","Name":"1930风情街·名品坊","pyname":"1930fqjmpf","kind":"2200","zipcode":null,"telephone":null,"display_x":"121.47556","display_y":"31.23159","side":"R","address":"人民大道100号地下1层","__source_file__":"19-其它/13-历史版本数据/2021.08/上海市_大型购物广场.shp"},"geometry":{"type":"Point","coordinates":[121.47112998,31.23357867]}},{"id":"1258","type":"Feature","properties":{"gml_id":"layer_shopping_plaza_pt.106869","Name":"来福士广场西门","pyname":"lfsgcxm","kind":"2200","zipcode":null,"telephone":null,"display_x":"121.47653","display_y":"31.23196","side":"L","address":"西藏中路268号","__source_file__":"19-其它/13-历史版本数据/2021.08/上海市_大型购物广场.shp"},"geometry":{"type":"Point","coordinates":[121.4721063,31.23395208]}},{"id":"290","type":"Feature","properties":{"gml_id":"layer_shopping_plaza_pt.105865","Name":"上海长宁来福士广场","pyname":"shcnlfsgc","kind":"2200","zipcode":"200001","telephone":"021-33114633|021-634","display_x":"121.47668","display_y":"31.23219","side":"R","address":"西藏中路268号来福士广场19楼","__source_file__":"19-其它/13-历史版本数据/2021.08/上海市_大型购物广场.shp"},"geometry":{"type":"Point","coordinates":[121.47225804,31.23418289]}},{"id":"1169","type":"Feature","properties":{"gml_id":"layer_shopping_plaza_pt.106778","Name":"来福士广场北门","pyname":"lfsgcbm","kind":"2200","zipcode":null,"telephone":"021-63403600","display_x":"121.47602","display_y":"31.23292","side":"R","address":"汉口路","__source_file__":"19-其它/13-历史版本数据/2021.08/上海市_大型购物广场.shp"},"geometry":{"type":"Point","coordinates":[121.47159834,31.23491211]}},{"id":"701","type":"Feature","properties":{"gml_id":"layer_shopping_plaza_pt.106286","Name":"福源商厦","pyname":"fyss","kind":"2200","zipcode":null,"telephone":null,"display_x":"121.4895","display_y":"31.22703","side":"L","address":"侯家路59号","__source_file__":"19-其它/13-历史版本数据/2021.08/上海市_大型购物广场.shp"},"geometry":{"type":"Point","coordinates":[121.4851158,31.22905226]}},{"id":"132","type":"Feature","properties":{"gml_id":"layer_shopping_plaza_pt.105705","Name":"福满堂喜庆文化广场","pyname":"fmtxqwhgc","kind":"2200","zipcode":null,"telephone":null,"display_x":"121.4895","display_y":"31.22703","side":"L","address":"侯家路59号","__source_file__":"19-其它/13-历史版本数据/2021.08/上海市_大型购物广场.shp"},"geometry":{"type":"Point","coordinates":[121.4851158,31.22905226]}},{"id":"1220","type":"Feature","properties":{"gml_id":"layer_shopping_plaza_pt.106830","Name":"福源商厦西门","pyname":"fyssxm","kind":"2200","zipcode":null,"telephone":null,"display_x":"121.48944","display_y":"31.22734","side":"L","address":"侯家路","__source_file__":"19-其它/13-历史版本数据/2021.08/上海市_大型购物广场.shp"},"geometry":{"type":"Point","coordinates":[121.48505676,31.22936253]}},{"id":"444","type":"Feature","properties":{"gml_id":"layer_shopping_plaza_pt.106024","Name":"鄂尔多斯广场（西门）","pyname":"eedsgc(xm)","kind":"2200","zipcode":null,"telephone":null,"display_x":"121.48887","display_y":"31.2285","side":"R","address":"福佑路333","__source_file__":"19-其它/13-历史版本数据/2021.08/上海市_大型购物广场.shp"},"geometry":{"type":"Point","coordinates":[121.4844894,31.23052272]}},{"id":"483","type":"Feature","properties":{"gml_id":"layer_shopping_plaza_pt.106063","Name":"范仕达生活广场北门","pyname":"fsdshgcbm","kind":"2200","zipcode":null,"telephone":null,"display_x":"121.48746","display_y":"31.22938","side":"L","address":"人民路600号","__source_file__":"19-其它/13-历史版本数据/2021.08/上海市_大型购物广场.shp"},"geometry":{"type":"Point","coordinates":[121.48307676,31.23139995]}},{"id":"1127","type":"Feature","properties":{"gml_id":"layer_shopping_plaza_pt.106735","Name":"范仕达生活广场","pyname":"fsdshgc","kind":"2200","zipcode":null,"telephone":null,"display_x":"121.48715","display_y":"31.23004","side":"R","address":"金陵东路229号","__source_file__":"19-其它/13-历史版本数据/2021.08/上海市_大型购物广场.shp"},"geometry":{"type":"Point","coordinates":[121.48276824,31.2320601]}},{"id":"730","type":"Feature","properties":{"gml_id":"layer_shopping_plaza_pt.106317","Name":"范仕达生活广场","pyname":"fsdshgc","kind":"2200","zipcode":null,"telephone":null,"display_x":"121.4887","display_y":"31.23112","side":"R","address":"江西南路29号","__source_file__":"19-其它/13-历史版本数据/2021.08/上海市_大型购物广场.shp"},"geometry":{"type":"Point","coordinates":[121.48433064,31.23314636]}},{"id":"649","type":"Feature","properties":{"gml_id":"layer_shopping_plaza_pt.106233","Name":"曼克顿广场南门","pyname":"mkdgcnm","kind":"2200","zipcode":null,"telephone":null,"display_x":"121.48154","display_y":"31.23575","side":"R","address":"九江路458","__source_file__":"19-其它/13-历史版本数据/2021.08/上海市_大型购物广场.shp"},"geometry":{"type":"Point","coordinates":[121.47715764,31.23776268]}},{"id":"1148","type":"Feature","properties":{"gml_id":"layer_shopping_plaza_pt.106757","Name":"豫园商城3号门","pyname":"yysc3hm","kind":"2200","zipcode":null,"telephone":null,"display_x":"121.49079","display_y":"31.22724","side":"N","address":"旧校场路十五弄","__source_file__":"19-其它/13-历史版本数据/2021.08/上海市_大型购物广场.shp"},"geometry":{"type":"Point","coordinates":[121.48641288,31.22926632]}},{"id":"359","type":"Feature","properties":{"gml_id":"layer_shopping_plaza_pt.105939","Name":"豫园老街","pyname":"yylj","kind":"2200","zipcode":null,"telephone":null,"display_x":"121.49142","display_y":"31.22773","side":"N","address":null,"__source_file__":"19-其它/13-历史版本数据/2021.08/上海市_大型购物广场.shp"},"geometry":{"type":"Point","coordinates":[121.4870481,31.22975894]}},{"id":"111","type":"Feature","properties":{"gml_id":"layer_shopping_plaza_pt.105684","Name":"福源商厦北门","pyname":"fyssbm","kind":"2200","zipcode":null,"telephone":null,"display_x":"121.4895","display_y":"31.22779","side":"R","address":"福佑路338","__source_file__":"19-其它/13-历史版本数据/2021.08/上海市_大型购物广场.shp"},"geometry":{"type":"Point","coordinates":[121.48511922,31.22981343]}},{"id":"1322","type":"Feature","properties":{"gml_id":"layer_shopping_plaza_pt.106936","Name":"豫园商城2号门","pyname":"yysc2hm","kind":"2200","zipcode":null,"telephone":null,"display_x":"121.49111","display_y":"31.22784","side":"N","address":"福佑路240","__source_file__":"19-其它/13-历史版本数据/2021.08/上海市_大型购物广场.shp"},"geometry":{"type":"Point","coordinates":[121.48673706,31.2298682]}},{"id":"727","type":"Feature","properties":{"gml_id":"layer_shopping_plaza_pt.106314","Name":"豫园商城","pyname":"yysc","kind":"2200","zipcode":"200010","telephone":"021-63559999","display_x":"121.49111","display_y":"31.22784","side":"N","address":"福佑路240","__source_file__":"19-其它/13-历史版本数据/2021.08/上海市_大型购物广场.shp"},"geometry":{"type":"Point","coordinates":[121.48673706,31.2298682]}},{"id":"247","type":"Feature","properties":{"gml_id":"layer_shopping_plaza_pt.105821","Name":"鄂尔多斯广场","pyname":"eedsgc","kind":"2200","zipcode":null,"telephone":null,"display_x":"121.48959","display_y":"31.22804","side":"N","address":"福佑路333","__source_file__":"19-其它/13-历史版本数据/2021.08/上海市_大型购物广场.shp"},"geometry":{"type":"Point","coordinates":[121.48521084,31.23006408]}},{"id":"700","type":"Feature","properties":{"gml_id":"layer_shopping_plaza_pt.106285","Name":"紫锦城","pyname":"zjc","kind":"2200","zipcode":null,"telephone":null,"display_x":"121.49085","display_y":"31.22829","side":"L","address":"丽水路81号","__source_file__":"19-其它/13-历史版本数据/2021.08/上海市_大型购物广场.shp"},"geometry":{"type":"Point","coordinates":[121.48647804,31.23031815]}},{"id":"654","type":"Feature","properties":{"gml_id":"layer_shopping_plaza_pt.106238","Name":"豫园旅游商城","pyname":"yylysc","kind":"2200","zipcode":null,"telephone":"021-63559999","display_x":"121.49056","display_y":"31.22914","side":"R","address":"方浜中路269号","__source_file__":"19-其它/13-历史版本数据/2021.08/上海市_大型购物广场.shp"},"geometry":{"type":"Point","coordinates":[121.4861904,31.23116865]}},{"id":"967","type":"Feature","properties":{"gml_id":"layer_shopping_plaza_pt.106572","Name":"Bｕｎｄ22","pyname":"b22","kind":"2200","zipcode":null,"telephone":null,"display_x":"121.49403","display_y":"31.23074","side":"L","address":"中山东二路22","__source_file__":"19-其它/13-历史版本数据/2021.08/上海市_大型购物广场.shp"},"geometry":{"type":"Point","coordinates":[121.48968438,31.23278132]}},{"id":"478","type":"Feature","properties":{"gml_id":"layer_shopping_plaza_pt.106058","Name":"联谊商场","pyname":"lysc","kind":"2200","zipcode":null,"telephone":"021-63264006","display_x":"121.49003","display_y":"31.23296","side":"L","address":"延安东路100号联谊大厦1层108室","__source_file__":"19-其它/13-历史版本数据/2021.08/上海市_大型购物广场.shp"},"geometry":{"type":"Point","coordinates":[121.48567542,31.23499311]}},{"id":"162","type":"Feature","properties":{"gml_id":"layer_shopping_plaza_pt.105736","Name":"百米香榭商业街","pyname":"bmxxsyj","kind":"2200","zipcode":null,"telephone":null,"display_x":"121.47796","display_y":"31.23331","side":"N","address":"广西北路248","__source_file__":"19-其它/13-历史版本数据/2021.08/上海市_大型购物广场.shp"},"geometry":{"type":"Point","coordinates":[121.47354936,31.23530838]}},{"id":"336","type":"Feature","properties":{"gml_id":"layer_shopping_plaza_pt.105912","Name":"百联世茂国际广场西南门","pyname":"blsmgjgcxnm","kind":"2200","zipcode":null,"telephone":null,"display_x":"121.47526","display_y":"31.234","side":"R","address":"百联世茂国际广场","__source_file__":"19-其它/13-历史版本数据/2021.08/上海市_大型购物广场.shp"},"geometry":{"type":"Point","coordinates":[121.47083964,31.23599162]}},{"id":"3","type":"Feature","properties":{"gml_id":"layer_shopping_plaza_pt.105574","Name":"百联世茂国际广场","pyname":"blsmgjgc","kind":"2200","zipcode":null,"telephone":null,"display_x":"121.47583","display_y":"31.23454","side":"R","address":"南京东路819","__source_file__":"19-其它/13-历史版本数据/2021.08/上海市_大型购物广场.shp"},"geometry":{"type":"Point","coordinates":[121.47141474,31.23653409]}},{"id":"249","type":"Feature","properties":{"gml_id":"layer_shopping_plaza_pt.105823","Name":"永安百货南门","pyname":"yabhnm","kind":"2200","zipcode":null,"telephone":null,"display_x":"121.47835","display_y":"31.23465","side":"L","address":"九江路596","__source_file__":"19-其它/13-历史版本数据/2021.08/上海市_大型购物广场.shp"},"geometry":{"type":"Point","coordinates":[121.47394734,31.23665163]}},{"id":"1375","type":"Feature","properties":{"gml_id":"layer_shopping_plaza_pt.106991","Name":"百联世茂国际广场7号门","pyname":"blsmgjgc7hm","kind":"2200","zipcode":null,"telephone":null,"display_x":"121.47614","display_y":"31.23483","side":"L","address":"南京东路819号","__source_file__":"19-其它/13-历史版本数据/2021.08/上海市_大型购物广场.shp"},"geometry":{"type":"Point","coordinates":[121.47172758,31.23682547]}},{"id":"45","type":"Feature","properties":{"gml_id":"layer_shopping_plaza_pt.105616","Name":"永安百货西门","pyname":"yabhxm","kind":"2200","zipcode":null,"telephone":null,"display_x":"121.47804","display_y":"31.23488","side":"L","address":"金华路","__source_file__":"19-其它/13-历史版本数据/2021.08/上海市_大型购物广场.shp"},"geometry":{"type":"Point","coordinates":[121.47363702,31.23688109]}},{"id":"2","type":"Feature","properties":{"gml_id":"layer_shopping_plaza_pt.105573","Name":"上海市第一百货商店","pyname":"shsdybhsd","kind":"2200","zipcode":null,"telephone":"021-63223344","display_x":"121.47506","display_y":"31.23496","side":"L","address":"南京东路830号","__source_file__":"19-其它/13-历史版本数据/2021.08/上海市_大型购物广场.shp"},"geometry":{"type":"Point","coordinates":[121.47064308,31.2369525]}},{"id":"322","type":"Feature","properties":{"gml_id":"layer_shopping_plaza_pt.105898","Name":"东方商厦（南东店）","pyname":"dfss(ndd)","kind":"2200","zipcode":null,"telephone":"021-63223344","display_x":"121.47536","display_y":"31.23504","side":"R","address":"南京东路800","__source_file__":"19-其它/13-历史版本数据/2021.08/上海市_大型购物广场.shp"},"geometry":{"type":"Point","coordinates":[121.47094494,31.2370335]}},{"id":"219","type":"Feature","properties":{"gml_id":"layer_shopping_plaza_pt.105793","Name":"宝大祥青少年儿童购物中心南东店","pyname":"bdxqsnetgwzxndd","kind":"2200","zipcode":null,"telephone":"021-63225122","display_x":"121.47746","display_y":"31.2352","side":"R","address":"南京东路685号","__source_file__":"19-其它/13-历史版本数据/2021.08/上海市_大型购物广场.shp"},"geometry":{"type":"Point","coordinates":[121.47305562,31.23719991]}},{"id":"62","type":"Feature","properties":{"gml_id":"layer_shopping_plaza_pt.105633","Name":"永安百货","pyname":"yabh","kind":"2200","zipcode":"200001","telephone":"021-63224466","display_x":"121.47817","display_y":"31.23538","side":"R","address":"南京东路635号","__source_file__":"19-其它/13-历史版本数据/2021.08/上海市_大型购物广场.shp"},"geometry":{"type":"Point","coordinates":[121.47376986,31.23738225]}},{"id":"809","type":"Feature","properties":{"gml_id":"layer_shopping_plaza_pt.106403","Name":"上海置地广场南门","pyname":"shzdgcnm","kind":"2200","zipcode":null,"telephone":null,"display_x":"121.48216","display_y":"31.23603","side":"R","address":"九江路","__source_file__":"19-其它/13-历史版本数据/2021.08/上海市_大型购物广场.shp"},"geometry":{"type":"Point","coordinates":[121.47778188,31.23804497]}},{"id":"153","type":"Feature","properties":{"gml_id":"layer_shopping_plaza_pt.105727","Name":"上海置地广场","pyname":"shzdgc","kind":"2200","zipcode":"200001","telephone":"021-63513828","display_x":"121.4821","display_y":"31.23613","side":"L","address":"南京东路409","__source_file__":"19-其它/13-历史版本数据/2021.08/上海市_大型购物广场.shp"},"geometry":{"type":"Point","coordinates":[121.47772212,31.23814496]}},{"id":"810","type":"Feature","properties":{"gml_id":"layer_shopping_plaza_pt.106404","Name":"上海置地广场东门","pyname":"shzdgcdm","kind":"2200","zipcode":null,"telephone":null,"display_x":"121.48178","display_y":"31.23621","side":"L","address":"南京东路459","__source_file__":"19-其它/13-历史版本数据/2021.08/上海市_大型购物广场.shp"},"geometry":{"type":"Point","coordinates":[121.477401,31.23822411]}},{"id":"449","type":"Feature","properties":{"gml_id":"layer_shopping_plaza_pt.106029","Name":"圣德娜商厦","pyname":"sdnss","kind":"2200","zipcode":null,"telephone":null,"display_x":"121.48293","display_y":"31.23642","side":"L","address":"南京东路387","__source_file__":"19-其它/13-历史版本数据/2021.08/上海市_大型购物广场.shp"},"geometry":{"type":"Point","coordinates":[121.4785575,31.23843782]}},{"id":"312","type":"Feature","properties":{"gml_id":"layer_shopping_plaza_pt.105888","Name":"三联商厦","pyname":"slss","kind":"2200","zipcode":null,"telephone":"021-63517418","display_x":"121.48161","display_y":"31.23644","side":"R","address":"南京东路456","__source_file__":"19-其它/13-历史版本数据/2021.08/上海市_大型购物广场.shp"},"geometry":{"type":"Point","coordinates":[121.47723126,31.23845397]}},{"id":"648","type":"Feature","properties":{"gml_id":"layer_shopping_plaza_pt.106232","Name":"353广场南门","pyname":"353gcnm","kind":"2200","zipcode":null,"telephone":"021-63535353","display_x":"121.48403","display_y":"31.23652","side":"R","address":"山东中路329","__source_file__":"19-其它/13-历史版本数据/2021.08/上海市_大型购物广场.shp"},"geometry":{"type":"Point","coordinates":[121.47966324,31.23854118]}},{"id":"152","type":"Feature","properties":{"gml_id":"layer_shopping_plaza_pt.105726","Name":"宏伊国际广场","pyname":"hygjgc","kind":"2200","zipcode":null,"telephone":null,"display_x":"121.48462","display_y":"31.23682","side":"R","address":"九江路288","__source_file__":"19-其它/13-历史版本数据/2021.08/上海市_大型购物广场.shp"},"geometry":{"type":"Point","coordinates":[121.48025742,31.2388434]}},{"id":"266","type":"Feature","properties":{"gml_id":"layer_shopping_plaza_pt.105840","Name":"悦荟ｍｏｓａｉｃ","pyname":"yhm","kind":"2200","zipcode":null,"telephone":null,"display_x":"121.48339","display_y":"31.23683","side":"L","address":"南京东路353","__source_file__":"19-其它/13-历史版本数据/2021.08/上海市_大型购物广场.shp"},"geometry":{"type":"Point","coordinates":[121.47902154,31.23884979]}},{"id":"414","type":"Feature","properties":{"gml_id":"layer_shopping_plaza_pt.105994","Name":"华联商厦中联店","pyname":"hlsszld","kind":"2200","zipcode":"200001","telephone":null,"display_x":"121.4832","display_y":"31.23706","side":"R","address":"南京东路348号","__source_file__":"19-其它/13-历史版本数据/2021.08/上海市_大型购物广场.shp"},"geometry":{"type":"Point","coordinates":[121.47883164,31.23907961]}},{"id":"938","type":"Feature","properties":{"gml_id":"layer_shopping_plaza_pt.106539","Name":"宏伊国际广场西北门","pyname":"hygjgcxbm","kind":"2200","zipcode":null,"telephone":null,"display_x":"121.4842","display_y":"31.23716","side":"R","address":"南京东路299号","__source_file__":"19-其它/13-历史版本数据/2021.08/上海市_大型购物广场.shp"},"geometry":{"type":"Point","coordinates":[121.47983694,31.2391827]}},{"id":"227","type":"Feature","properties":{"gml_id":"layer_shopping_plaza_pt.105801","Name":"外滩六号","pyname":"wtlh","kind":"2200","zipcode":null,"telephone":null,"display_x":"121.49066","display_y":"31.23472","side":"R","address":"中山东一路6","__source_file__":"19-其它/13-历史版本数据/2021.08/上海市_大型购物广场.shp"},"geometry":{"type":"Point","coordinates":[121.48631658,31.23675774]}},{"id":"776","type":"Feature","properties":{"gml_id":"layer_shopping_plaza_pt.106365","Name":"正大广场南门","pyname":"zdgcnm","kind":"2200","zipcode":null,"telephone":"021-68877888","display_x":"121.49922","display_y":"31.23637","side":"L","address":"陆家嘴西路168号","__source_file__":"19-其它/13-历史版本数据/2021.08/上海市_大型购物广场.shp"},"geometry":{"type":"Point","coordinates":[121.49493444,31.23843543]}},{"id":"913","type":"Feature","properties":{"gml_id":"layer_shopping_plaza_pt.106510","Name":"正大广场西门","pyname":"zdgcxm","kind":"2200","zipcode":null,"telephone":"021-68877888","display_x":"121.498","display_y":"31.23668","side":"R","address":"陆家嘴西路168号","__source_file__":"19-其它/13-历史版本数据/2021.08/上海市_大型购物广场.shp"},"geometry":{"type":"Point","coordinates":[121.49370702,31.23874233]}},{"id":"26","type":"Feature","properties":{"gml_id":"layer_shopping_plaza_pt.105597","Name":"正大广场北门","pyname":"zdgcbm","kind":"2200","zipcode":null,"telephone":null,"display_x":"121.49903","display_y":"31.23726","side":"L","address":"陆家嘴西路168号","__source_file__":"19-其它/13-历史版本数据/2021.08/上海市_大型购物广场.shp"},"geometry":{"type":"Point","coordinates":[121.49474706,31.23932625]}},{"id":"58","type":"Feature","properties":{"gml_id":"layer_shopping_plaza_pt.105629","Name":"外滩18号","pyname":"wt18h","kind":"2200","zipcode":null,"telephone":null,"display_x":"121.48979","display_y":"31.23844","side":"R","address":"中山东一路18","__source_file__":"19-其它/13-历史版本数据/2021.08/上海市_大型购物广场.shp"},"geometry":{"type":"Point","coordinates":[121.4854596,31.24048104]}},{"id":"641","type":"Feature","properties":{"gml_id":"layer_shopping_plaza_pt.106224","Name":"观光隧道商场","pyname":"ggsdsc","kind":"2200","zipcode":null,"telephone":null,"display_x":"121.49041","display_y":"31.2398","side":"R","address":"中山东一路（外滩）351号地下1层","__source_file__":"19-其它/13-历史版本数据/2021.08/上海市_大型购物广场.shp"},"geometry":{"type":"Point","coordinates":[121.4860887,31.24184499]}},{"id":"206","type":"Feature","properties":{"gml_id":"layer_shopping_plaza_pt.105780","Name":"上海时装商店","pyname":"shszsd","kind":"2200","zipcode":null,"telephone":null,"display_x":"121.47808","display_y":"31.23563","side":"L","address":"南京东路660","__source_file__":"19-其它/13-历史版本数据/2021.08/上海市_大型购物广场.shp"},"geometry":{"type":"Point","coordinates":[121.47368058,31.23763241]}},{"id":"890","type":"Feature","properties":{"gml_id":"layer_shopping_plaza_pt.106485","Name":"中丝亚太商厦","pyname":"zsytss","kind":"2200","zipcode":"200001","telephone":"021-63518058","display_x":"121.47907","display_y":"31.23578","side":"L","address":"南京东路592","__source_file__":"19-其它/13-历史版本数据/2021.08/上海市_大型购物广场.shp"},"geometry":{"type":"Point","coordinates":[121.47467598,31.23778554]}},{"id":"253","type":"Feature","properties":{"gml_id":"layer_shopping_plaza_pt.105827","Name":"丝绸商厦","pyname":"scss","kind":"2200","zipcode":null,"telephone":null,"display_x":"121.47927","display_y":"31.23583","side":"L","address":"南京东路588号","__source_file__":"19-其它/13-历史版本数据/2021.08/上海市_大型购物广场.shp"},"geometry":{"type":"Point","coordinates":[121.47487722,31.23783621]}},{"id":"167","type":"Feature","properties":{"gml_id":"layer_shopping_plaza_pt.105741","Name":"阳光商厦","pyname":"ygss","kind":"2200","zipcode":null,"telephone":null,"display_x":"121.47945","display_y":"31.23585","side":"L","address":"南京东路580","__source_file__":"19-其它/13-历史版本数据/2021.08/上海市_大型购物广场.shp"},"geometry":{"type":"Point","coordinates":[121.47505812,31.23785673]}},{"id":"418","type":"Feature","properties":{"gml_id":"layer_shopping_plaza_pt.105998","Name":"上海旅游品商厦","pyname":"shlypss","kind":"2200","zipcode":null,"telephone":null,"display_x":"121.47973","display_y":"31.23588","side":"L","address":"南京东路558","__source_file__":"19-其它/13-历史版本数据/2021.08/上海市_大型购物广场.shp"},"geometry":{"type":"Point","coordinates":[121.47533964,31.2378876]}},{"id":"466","type":"Feature","properties":{"gml_id":"layer_shopping_plaza_pt.106046","Name":"福建路中华名品街","pyname":"fjlzhmpj","kind":"2200","zipcode":null,"telephone":null,"display_x":"121.48027","display_y":"31.23598","side":"L","address":"福建中路","__source_file__":"19-其它/13-历史版本数据/2021.08/上海市_大型购物广场.shp"},"geometry":{"type":"Point","coordinates":[121.4758827,31.23798935]}},{"id":"363","type":"Feature","properties":{"gml_id":"layer_shopping_plaza_pt.105943","Name":"曼克顿广场","pyname":"mkdgc","kind":"2200","zipcode":null,"telephone":"021-63222239","display_x":"121.48139","display_y":"31.23608","side":"L","address":"南京东路463","__source_file__":"19-其它/13-历史版本数据/2021.08/上海市_大型购物广场.shp"},"geometry":{"type":"Point","coordinates":[121.47700842,31.2380928]}},{"id":"81","type":"Feature","properties":{"gml_id":"layer_shopping_plaza_pt.105652","Name":"百货折扣","pyname":"bhzk","kind":"2200","zipcode":null,"telephone":"021-53028159","display_x":"121.47738","display_y":"31.23733","side":"R","address":"浙江中路474","__source_file__":"19-其它/13-历史版本数据/2021.08/上海市_大型购物广场.shp"},"geometry":{"type":"Point","coordinates":[121.47298506,31.23933305]}},{"id":"551","type":"Feature","properties":{"gml_id":"layer_shopping_plaza_pt.106133","Name":"圣和圣时尚汇西门","pyname":"shssshxm","kind":"2200","zipcode":null,"telephone":"021-63257777","display_x":"121.48019","display_y":"31.24637","side":"L","address":null,"__source_file__":"19-其它/13-历史版本数据/2021.08/上海市_大型购物广场.shp"},"geometry":{"type":"Point","coordinates":[121.47585012,31.24839546]}},{"id":"1398","type":"Feature","properties":{"gml_id":"layer_shopping_plaza_pt.107015","Name":"圣和圣广场三期","pyname":"shsgcsq","kind":"2200","zipcode":null,"telephone":null,"display_x":"121.47975","display_y":"31.24688","side":"R","address":null,"__source_file__":"19-其它/13-历史版本数据/2021.08/上海市_大型购物广场.shp"},"geometry":{"type":"Point","coordinates":[121.47541038,31.248905]}},{"id":"1440","type":"Feature","properties":{"gml_id":"layer_shopping_plaza_pt.107059","Name":"四季坊C出口","pyname":"sjfcck","kind":"2200","zipcode":null,"telephone":null,"display_x":"121.46106","display_y":"31.22976","side":"R","address":null,"__source_file__":"19-其它/13-历史版本数据/2021.08/上海市_大型购物广场.shp"},"geometry":{"type":"Point","coordinates":[121.45655214,31.23170343]}},{"id":"474","type":"Feature","properties":{"gml_id":"layer_shopping_plaza_pt.106054","Name":"四季坊A入口","pyname":"sjfark","kind":"2200","zipcode":null,"telephone":null,"display_x":"121.46168","display_y":"31.22988","side":"L","address":"石门一路335","__source_file__":"19-其它/13-历史版本数据/2021.08/上海市_大型购物广场.shp"},"geometry":{"type":"Point","coordinates":[121.45717566,31.23182543]}},{"id":"607","type":"Feature","properties":{"gml_id":"layer_shopping_plaza_pt.106190","Name":"四季坊","pyname":"sjf","kind":"2200","zipcode":null,"telephone":null,"display_x":"121.46161","display_y":"31.23003","side":"R","address":"吴江路139","__source_file__":"19-其它/13-历史版本数据/2021.08/上海市_大型购物广场.shp"},"geometry":{"type":"Point","coordinates":[121.457106,31.23197546]}},{"id":"947","type":"Feature","properties":{"gml_id":"layer_shopping_plaza_pt.106549","Name":"开欣商厦","pyname":"kxss","kind":"2200","zipcode":null,"telephone":"021-62103227","display_x":"121.461","display_y":"31.23057","side":"L","address":"南京西路819号","__source_file__":"19-其它/13-历史版本数据/2021.08/上海市_大型购物广场.shp"},"geometry":{"type":"Point","coordinates":[121.45649562,31.23251451]}},{"id":"816","type":"Feature","properties":{"gml_id":"layer_shopping_plaza_pt.106410","Name":"818广场西门","pyname":"818gcxm","kind":"2200","zipcode":null,"telephone":null,"display_x":"121.46087","display_y":"31.2309","side":"R","address":"南京西路818号","__source_file__":"19-其它/13-历史版本数据/2021.08/上海市_大型购物广场.shp"},"geometry":{"type":"Point","coordinates":[121.45636656,31.23284468]}},{"id":"579","type":"Feature","properties":{"gml_id":"layer_shopping_plaza_pt.106161","Name":"818广场","pyname":"818gc","kind":"2200","zipcode":"200040","telephone":"021-62175312","display_x":"121.46106","display_y":"31.23095","side":"R","address":"南京西路818号","__source_file__":"19-其它/13-历史版本数据/2021.08/上海市_大型购物广场.shp"},"geometry":{"type":"Point","coordinates":[121.45655772,31.2328953]}},{"id":"158","type":"Feature","properties":{"gml_id":"layer_shopping_plaza_pt.105732","Name":"中服出国人员服务中心免税店","pyname":"zfcgryfwzxmsd","kind":"2200","zipcode":null,"telephone":null,"display_x":"121.45381","display_y":"31.23211","side":"R","address":"江宁路293","__source_file__":"19-其它/13-历史版本数据/2021.08/上海市_大型购物广场.shp"},"geometry":{"type":"Point","coordinates":[121.44927834,31.23403592]}},{"id":"848","type":"Feature","properties":{"gml_id":"layer_shopping_plaza_pt.106442","Name":"688广场","pyname":"688gc","kind":"2200","zipcode":null,"telephone":"021-23136003","display_x":"121.46447","display_y":"31.2321","side":"L","address":"凤阳路","__source_file__":"19-其它/13-历史版本数据/2021.08/上海市_大型购物广场.shp"},"geometry":{"type":"Point","coordinates":[121.45998924,31.23405707]}},{"id":"548","type":"Feature","properties":{"gml_id":"layer_shopping_plaza_pt.106130","Name":"太阳CITY","pyname":"tyc","kind":"2200","zipcode":null,"telephone":null,"display_x":"121.45679","display_y":"31.24259","side":"L","address":"恒丰路299号","__source_file__":"19-其它/13-历史版本数据/2021.08/上海市_大型购物广场.shp"},"geometry":{"type":"Point","coordinates":[121.4523207,31.24454112]}},{"id":"136","type":"Feature","properties":{"gml_id":"layer_shopping_plaza_pt.105709","Name":"闸北嘉里不夜城三期","pyname":"zbjlbycsq","kind":"2200","zipcode":null,"telephone":null,"display_x":"121.45795","display_y":"31.24455","side":"R","address":"共和路277号","__source_file__":"19-其它/13-历史版本数据/2021.08/上海市_大型购物广场.shp"},"geometry":{"type":"Point","coordinates":[121.45349538,31.24650762]}},{"id":"918","type":"Feature","properties":{"gml_id":"layer_shopping_plaza_pt.106515","Name":"太平洋百货不夜城店南门","pyname":"tpybhbycdnm","kind":"2200","zipcode":null,"telephone":null,"display_x":"121.45708","display_y":"31.2446","side":"R","address":"梅园路","__source_file__":"19-其它/13-历史版本数据/2021.08/上海市_大型购物广场.shp"},"geometry":{"type":"Point","coordinates":[121.4526213,31.24655514]}},{"id":"47","type":"Feature","properties":{"gml_id":"layer_shopping_plaza_pt.105618","Name":"太平洋百货不夜城店","pyname":"tpybhbycd","kind":"2200","zipcode":"200070","telephone":"021-63818888","display_x":"121.45656","display_y":"31.24503","side":"L","address":"天目西路218号","__source_file__":"19-其它/13-历史版本数据/2021.08/上海市_大型购物广场.shp"},"geometry":{"type":"Point","coordinates":[121.45210092,31.24698431]}},{"id":"1206","type":"Feature","properties":{"gml_id":"layer_shopping_plaza_pt.106816","Name":"太平洋百货不夜城店东门","pyname":"tpybhbycddm","kind":"2200","zipcode":null,"telephone":null,"display_x":"121.45711","display_y":"31.24511","side":"R","address":"梅园路","__source_file__":"19-其它/13-历史版本数据/2021.08/上海市_大型购物广场.shp"},"geometry":{"type":"Point","coordinates":[121.45265388,31.24706603]}},{"id":"631","type":"Feature","properties":{"gml_id":"layer_shopping_plaza_pt.106214","Name":"太平洋百货不夜城店北门","pyname":"tpybhbycdbm","kind":"2200","zipcode":null,"telephone":null,"display_x":"121.4569","display_y":"31.24574","side":"L","address":"天目西路218号","__source_file__":"19-其它/13-历史版本数据/2021.08/上海市_大型购物广场.shp"},"geometry":{"type":"Point","coordinates":[121.4524458,31.24769643]}},{"id":"919","type":"Feature","properties":{"gml_id":"layer_shopping_plaza_pt.106516","Name":"环龙商场南门","pyname":"hlscnm","kind":"2200","zipcode":null,"telephone":null,"display_x":"121.45591","display_y":"31.24678","side":"L","address":"秣陵路204","__source_file__":"19-其它/13-历史版本数据/2021.08/上海市_大型购物广场.shp"},"geometry":{"type":"Point","coordinates":[121.4514558,31.24873517]}},{"id":"49","type":"Feature","properties":{"gml_id":"layer_shopping_plaza_pt.105620","Name":"上海名品商厦","pyname":"shmpss","kind":"2200","zipcode":"200070","telephone":"021-63541118","display_x":"121.45495","display_y":"31.24694","side":"R","address":"秣陵路228号","__source_file__":"19-其它/13-历史版本数据/2021.08/上海市_大型购物广场.shp"},"geometry":{"type":"Point","coordinates":[121.4504919,31.24889262]}},{"id":"808","type":"Feature","properties":{"gml_id":"layer_shopping_plaza_pt.106402","Name":"环龙商场","pyname":"hlsc","kind":"2200","zipcode":null,"telephone":"021-65321259","display_x":"121.45621","display_y":"31.24733","side":"L","address":"秣陵路206号","__source_file__":"19-其它/13-历史版本数据/2021.08/上海市_大型购物广场.shp"},"geometry":{"type":"Point","coordinates":[121.45175982,31.24928691]}},{"id":"1061","type":"Feature","properties":{"gml_id":"layer_shopping_plaza_pt.106668","Name":"地铁商场","pyname":"dtsc","kind":"2200","zipcode":null,"telephone":null,"display_x":"121.45549","display_y":"31.24796","side":"R","address":null,"__source_file__":"19-其它/13-历史版本数据/2021.08/上海市_大型购物广场.shp"},"geometry":{"type":"Point","coordinates":[121.45103928,31.24991579]}},{"id":"1190","type":"Feature","properties":{"gml_id":"layer_shopping_plaza_pt.106799","Name":"康园购物商场","pyname":"kygwsc","kind":"2200","zipcode":null,"telephone":null,"display_x":"121.45513","display_y":"31.2486","side":"L","address":"秣陵路303号上海站2层","__source_file__":"19-其它/13-历史版本数据/2021.08/上海市_大型购物广场.shp"},"geometry":{"type":"Point","coordinates":[121.45068036,31.25055573]}},{"id":"1173","type":"Feature","properties":{"gml_id":"layer_shopping_plaza_pt.106782","Name":"新上铁商场","pyname":"xstsc","kind":"2200","zipcode":null,"telephone":null,"display_x":"121.45513","display_y":"31.2486","side":"L","address":"秣陵路303号上海站2层","__source_file__":"19-其它/13-历史版本数据/2021.08/上海市_大型购物广场.shp"},"geometry":{"type":"Point","coordinates":[121.45068036,31.25055573]}},{"id":"181","type":"Feature","properties":{"gml_id":"layer_shopping_plaza_pt.105755","Name":"思源商厦","pyname":"syss","kind":"2200","zipcode":null,"telephone":"021-63503099","display_x":"121.4744","display_y":"31.23645","side":"R","address":"西藏中路500号","__source_file__":"19-其它/13-历史版本数据/2021.08/上海市_大型购物广场.shp"},"geometry":{"type":"Point","coordinates":[121.4699868,31.23844295]}},{"id":"549","type":"Feature","properties":{"gml_id":"layer_shopping_plaza_pt.106131","Name":"上海大悦城南门","pyname":"shdycnm","kind":"2200","zipcode":null,"telephone":"021-36338833","display_x":"121.47185","display_y":"31.24262","side":"L","address":"曲阜路","__source_file__":"19-其它/13-历史版本数据/2021.08/上海市_大型购物广场.shp"},"geometry":{"type":"Point","coordinates":[121.46745294,31.24461519]}},{"id":"113","type":"Feature","properties":{"gml_id":"layer_shopping_plaza_pt.105686","Name":"上海大悦城","pyname":"shdyc","kind":"2200","zipcode":null,"telephone":"021-36338833","display_x":"121.47178","display_y":"31.24293","side":"L","address":"西藏北路166号","__source_file__":"19-其它/13-历史版本数据/2021.08/上海市_大型购物广场.shp"},"geometry":{"type":"Point","coordinates":[121.467384,31.24492547]}},{"id":"102","type":"Feature","properties":{"gml_id":"layer_shopping_plaza_pt.105675","Name":"东方商厦虹口店西门","pyname":"dfsshkdxm","kind":"2200","zipcode":null,"telephone":null,"display_x":"121.46722","display_y":"31.27273","side":"R","address":"同丰路699号","__source_file__":"19-其它/13-历史版本数据/2021.08/上海市_大型购物广场.shp"},"geometry":{"type":"Point","coordinates":[121.462785,31.27468509]}},{"id":"793","type":"Feature","properties":{"gml_id":"layer_shopping_plaza_pt.106383","Name":"百联虹口购物中心西门","pyname":"blhkgwzxxm","kind":"2200","zipcode":null,"telephone":null,"display_x":"121.46722","display_y":"31.27273","side":"R","address":"同丰路699号","__source_file__":"19-其它/13-历史版本数据/2021.08/上海市_大型购物广场.shp"},"geometry":{"type":"Point","coordinates":[121.462785,31.27468509]}},{"id":"1028","type":"Feature","properties":{"gml_id":"layer_shopping_plaza_pt.106633","Name":"百联虹口购物中心南门","pyname":"blhkgwzxnm","kind":"2200","zipcode":null,"telephone":null,"display_x":"121.46798","display_y":"31.27295","side":"R","address":null,"__source_file__":"19-其它/13-历史版本数据/2021.08/上海市_大型购物广场.shp"},"geometry":{"type":"Point","coordinates":[121.4635473,31.27490667]}},{"id":"783","type":"Feature","properties":{"gml_id":"layer_shopping_plaza_pt.106373","Name":"东方商厦虹口店","pyname":"dfsshkd","kind":"2200","zipcode":null,"telephone":null,"display_x":"121.46734","display_y":"31.27304","side":"R","address":"同丰路699号","__source_file__":"19-其它/13-历史版本数据/2021.08/上海市_大型购物广场.shp"},"geometry":{"type":"Point","coordinates":[121.4629038,31.27499451]}},{"id":"737","type":"Feature","properties":{"gml_id":"layer_shopping_plaza_pt.106324","Name":"百联虹口购物中心","pyname":"blhkgwzx","kind":"2200","zipcode":null,"telephone":null,"display_x":"121.46765","display_y":"31.27321","side":"R","address":"同丰路699号","__source_file__":"19-其它/13-历史版本数据/2021.08/上海市_大型购物广场.shp"},"geometry":{"type":"Point","coordinates":[121.46321448,31.27516488]}},{"id":"738","type":"Feature","properties":{"gml_id":"layer_shopping_plaza_pt.106325","Name":"百联虹口购物中心东门","pyname":"blhkgwzxdm","kind":"2200","zipcode":null,"telephone":null,"display_x":"121.46792","display_y":"31.27331","side":"R","address":"同丰路699号","__source_file__":"19-其它/13-历史版本数据/2021.08/上海市_大型购物广场.shp"},"geometry":{"type":"Point","coordinates":[121.4634852,31.27526541]}},{"id":"1224","type":"Feature","properties":{"gml_id":"layer_shopping_plaza_pt.106834","Name":"大自鸣钟广场","pyname":"dzmzgc","kind":"2200","zipcode":null,"telephone":null,"display_x":"121.4403","display_y":"31.24211","side":"L","address":"长寿路189临","__source_file__":"19-其它/13-历史版本数据/2021.08/上海市_大型购物广场.shp"},"geometry":{"type":"Point","coordinates":[121.43574972,31.24401219]}},{"id":"854","type":"Feature","properties":{"gml_id":"layer_shopping_plaza_pt.106448","Name":"巴黎春天陕西路店东门","pyname":"blctsxlddm","kind":"2200","zipcode":null,"telephone":null,"display_x":"121.44231","display_y":"31.24216","side":"R","address":"陕西北路","__source_file__":"19-其它/13-历史版本数据/2021.08/上海市_大型购物广场.shp"},"geometry":{"type":"Point","coordinates":[121.4377695,31.24406817]}},{"id":"1235","type":"Feature","properties":{"gml_id":"layer_shopping_plaza_pt.106846","Name":"长寿商业广场","pyname":"cssygc","kind":"2200","zipcode":null,"telephone":null,"display_x":"121.44061","display_y":"31.24255","side":"N","address":"长寿路181弄3","__source_file__":"19-其它/13-历史版本数据/2021.08/上海市_大型购物广场.shp"},"geometry":{"type":"Point","coordinates":[121.4360631,31.24445378]}},{"id":"807","type":"Feature","properties":{"gml_id":"layer_shopping_plaza_pt.106401","Name":"新世界百货上海巴黎春天陕西路店","pyname":"xsjbhshblctsxld","kind":"2200","zipcode":null,"telephone":"021-31315151","display_x":"121.44143","display_y":"31.24277","side":"L","address":"长寿路155","__source_file__":"19-其它/13-历史版本数据/2021.08/上海市_大型购物广场.shp"},"geometry":{"type":"Point","coordinates":[121.43688804,31.24467653]}},{"id":"53","type":"Feature","properties":{"gml_id":"layer_shopping_plaza_pt.105624","Name":"物华广场","pyname":"whgc","kind":"2200","zipcode":null,"telephone":"021-51075209","display_x":"121.43972","display_y":"31.24485","side":"R","address":"陕西北路1622号","__source_file__":"19-其它/13-历史版本数据/2021.08/上海市_大型购物广场.shp"},"geometry":{"type":"Point","coordinates":[121.43517948,31.24675481]}},{"id":"691","type":"Feature","properties":{"gml_id":"layer_shopping_plaza_pt.106276","Name":"上海汽车集团公司委员会党校","pyname":"shqcjtgswyhdx","kind":"2200","zipcode":null,"telephone":"021-63178900","display_x":"121.45247","display_y":"31.24691","side":"R","address":"恒丰路600号机电大厦2层","__source_file__":"19-其它/13-历史版本数据/2021.08/上海市_大型购物广场.shp"},"geometry":{"type":"Point","coordinates":[121.44799998,31.24885532]}},{"id":"1091","type":"Feature","properties":{"gml_id":"layer_shopping_plaza_pt.106698","Name":"天安阳光广场","pyname":"tayggc","kind":"2200","zipcode":null,"telephone":null,"display_x":"121.44472","display_y":"31.24871","side":"R","address":"莫干山路292","__source_file__":"19-其它/13-历史版本数据/2021.08/上海市_大型购物广场.shp"},"geometry":{"type":"Point","coordinates":[121.4402211,31.25063552]}},{"id":"15","type":"Feature","properties":{"gml_id":"layer_shopping_plaza_pt.105586","Name":"福辰商城","pyname":"fcsc","kind":"2200","zipcode":null,"telephone":null,"display_x":"121.43762","display_y":"31.26252","side":"R","address":"宜川路310号","__source_file__":"19-其它/13-历史版本数据/2021.08/上海市_大型购物广场.shp"},"geometry":{"type":"Point","coordinates":[121.43308446,31.26441366]}},{"id":"971","type":"Feature","properties":{"gml_id":"layer_shopping_plaza_pt.106576","Name":"大宁绿地商业街","pyname":"dnldsyj","kind":"2200","zipcode":null,"telephone":null,"display_x":"121.43756","display_y":"31.2695","side":"L","address":"宜川路","__source_file__":"19-其它/13-历史版本数据/2021.08/上海市_大型购物广场.shp"},"geometry":{"type":"Point","coordinates":[121.43299824,31.27137566]}},{"id":"674","type":"Feature","properties":{"gml_id":"layer_shopping_plaza_pt.106259","Name":"太阳山广场","pyname":"tysgc","kind":"2200","zipcode":null,"telephone":"021-56983335","display_x":"121.45965","display_y":"31.2503","side":"L","address":"太阳山路","__source_file__":"19-其它/13-历史版本数据/2021.08/上海市_大型购物广场.shp"},"geometry":{"type":"Point","coordinates":[121.45522986,31.25227163]}},{"id":"244","type":"Feature","properties":{"gml_id":"layer_shopping_plaza_pt.105818","Name":"王子生活馆","pyname":"wzshg","kind":"2200","zipcode":null,"telephone":null,"display_x":"121.46422","display_y":"31.25373","side":"L","address":"共和新路567号","__source_file__":"19-其它/13-历史版本数据/2021.08/上海市_大型购物广场.shp"},"geometry":{"type":"Point","coordinates":[121.4598375,31.25572038]}},{"id":"1427","type":"Feature","properties":{"gml_id":"layer_shopping_plaza_pt.107044","Name":"王子生活馆西门","pyname":"wzshgxm","kind":"2200","zipcode":null,"telephone":null,"display_x":"121.46409","display_y":"31.25394","side":"L","address":"中华新路567号","__source_file__":"19-其它/13-历史版本数据/2021.08/上海市_大型购物广场.shp"},"geometry":{"type":"Point","coordinates":[121.4597079,31.25593035]}},{"id":"869","type":"Feature","properties":{"gml_id":"layer_shopping_plaza_pt.106464","Name":"五月花生活广场西门","pyname":"wyhshgcxm","kind":"2200","zipcode":null,"telephone":null,"display_x":"121.45616","display_y":"31.25647","side":"R","address":"芷江西路","__source_file__":"19-其它/13-历史版本数据/2021.08/上海市_大型购物广场.shp"},"geometry":{"type":"Point","coordinates":[121.45174182,31.25843636]}},{"id":"736","type":"Feature","properties":{"gml_id":"layer_shopping_plaza_pt.106323","Name":"五月花生活广场","pyname":"wyhshgc","kind":"2200","zipcode":null,"telephone":"021-66581916","display_x":"121.45697","display_y":"31.25661","side":"R","address":"芷江西路488号","__source_file__":"19-其它/13-历史版本数据/2021.08/上海市_大型购物广场.shp"},"geometry":{"type":"Point","coordinates":[121.45255542,31.25857851]}},{"id":"1202","type":"Feature","properties":{"gml_id":"layer_shopping_plaza_pt.106812","Name":"银发无忧五月花旗舰店","pyname":"yfwywyhqjd","kind":"2200","zipcode":null,"telephone":"021-56520178","display_x":"121.45697","display_y":"31.25661","side":"R","address":"芷江西路488号五月花生活广场2层216～218","__source_file__":"19-其它/13-历史版本数据/2021.08/上海市_大型购物广场.shp"},"geometry":{"type":"Point","coordinates":[121.45255542,31.25857851]}},{"id":"995","type":"Feature","properties":{"gml_id":"layer_shopping_plaza_pt.106600","Name":"盛源生活广场","pyname":"syshgc","kind":"2200","zipcode":null,"telephone":"021-61670202","display_x":"121.45557","display_y":"31.26364","side":"L","address":"柳营路777号","__source_file__":"19-其它/13-历史版本数据/2021.08/上海市_大型购物广场.shp"},"geometry":{"type":"Point","coordinates":[121.45112208,31.26558623]}},{"id":"85","type":"Feature","properties":{"gml_id":"layer_shopping_plaza_pt.105657","Name":"优尚生活广场","pyname":"ysshgc","kind":"2200","zipcode":null,"telephone":"18964032021","display_x":"121.4624","display_y":"31.2729","side":"R","address":"平型关路453","__source_file__":"19-其它/13-历史版本数据/2021.08/上海市_大型购物广场.shp"},"geometry":{"type":"Point","coordinates":[121.45794138,31.2748403]}},{"id":"516","type":"Feature","properties":{"gml_id":"layer_shopping_plaza_pt.106098","Name":"大宁国际商业广场","pyname":"dngjsygc","kind":"2200","zipcode":null,"telephone":null,"display_x":"121.45357","display_y":"31.27357","side":"L","address":"共和新路1898号","__source_file__":"19-其它/13-历史版本数据/2021.08/上海市_大型购物广场.shp"},"geometry":{"type":"Point","coordinates":[121.4490663,31.27548213]}},{"id":"503","type":"Feature","properties":{"gml_id":"layer_shopping_plaza_pt.106084","Name":"南京路步行街","pyname":"njlbxj","kind":"2200","zipcode":null,"telephone":"021-63526638","display_x":"121.48461","display_y":"31.23749","side":"N","address":"南京东路299号附近","__source_file__":"19-其它/13-历史版本数据/2021.08/上海市_大型购物广场.shp"},"geometry":{"type":"Point","coordinates":[121.4802504,31.2395144]}},{"id":"403","type":"Feature","properties":{"gml_id":"layer_shopping_plaza_pt.105983","Name":"恒基名人购物中心","pyname":"hjmrgwzx","kind":"2200","zipcode":null,"telephone":"021-33302099","display_x":"121.48441","display_y":"31.2377","side":"L","address":"南京东路300","__source_file__":"19-其它/13-历史版本数据/2021.08/上海市_大型购物广场.shp"},"geometry":{"type":"Point","coordinates":[121.48005042,31.23972414]}},{"id":"1432","type":"Feature","properties":{"gml_id":"layer_shopping_plaza_pt.107050","Name":"恒基名人购物中心北门","pyname":"hjmrgwzxbm","kind":"2200","zipcode":null,"telephone":null,"display_x":"121.48399","display_y":"31.23817","side":"R","address":"天津路155","__source_file__":"19-其它/13-历史版本数据/2021.08/上海市_大型购物广场.shp"},"geometry":{"type":"Point","coordinates":[121.47963048,31.24019367]}},{"id":"1350","type":"Feature","properties":{"gml_id":"layer_shopping_plaza_pt.106966","Name":"61街购物中心","pyname":"61jgwzx","kind":"2200","zipcode":null,"telephone":"021-63216050","display_x":"121.48841","display_y":"31.23852","side":"R","address":"南京东路61","__source_file__":"19-其它/13-历史版本数据/2021.08/上海市_大型购物广场.shp"},"geometry":{"type":"Point","coordinates":[121.48407324,31.24055714]}},{"id":"1216","type":"Feature","properties":{"gml_id":"layer_shopping_plaza_pt.106826","Name":"惠罗商厦","pyname":"hlss","kind":"2200","zipcode":null,"telephone":null,"display_x":"121.48776","display_y":"31.23865","side":"L","address":"南京东路100号","__source_file__":"19-其它/13-历史版本数据/2021.08/上海市_大型购物广场.shp"},"geometry":{"type":"Point","coordinates":[121.48342074,31.24068543]}},{"id":"1418","type":"Feature","properties":{"gml_id":"layer_shopping_plaza_pt.107035","Name":"新世界名品城","pyname":"xsjmpc","kind":"2200","zipcode":null,"telephone":null,"display_x":"121.48544","display_y":"31.23874","side":"R","address":"天津路","__source_file__":"19-其它/13-历史版本数据/2021.08/上海市_大型购物广场.shp"},"geometry":{"type":"Point","coordinates":[121.4810901,31.24076882]}},{"id":"881","type":"Feature","properties":{"gml_id":"layer_shopping_plaza_pt.106476","Name":"益丰·外滩源西门","pyname":"yfwtyxm","kind":"2200","zipcode":null,"telephone":"021-63392228","display_x":"121.48833","display_y":"31.24047","side":"L","address":"圆明园路88","__source_file__":"19-其它/13-历史版本数据/2021.08/上海市_大型购物广场.shp"},"geometry":{"type":"Point","coordinates":[121.48400196,31.24250996]}},{"id":"626","type":"Feature","properties":{"gml_id":"layer_shopping_plaza_pt.106209","Name":"益丰·外滩源","pyname":"yfwty","kind":"2200","zipcode":null,"telephone":"021-63392228","display_x":"121.48889","display_y":"31.24058","side":"L","address":"北京东路99","__source_file__":"19-其它/13-历史版本数据/2021.08/上海市_大型购物广场.shp"},"geometry":{"type":"Point","coordinates":[121.484565,31.24262178]}},{"id":"134","type":"Feature","properties":{"gml_id":"layer_shopping_plaza_pt.105707","Name":"翔阳商厦","pyname":"xyss","kind":"2200","zipcode":null,"telephone":"021-66286986","display_x":"121.48273","display_y":"31.24364","side":"L","address":"天潼路567","__source_file__":"19-其它/13-历史版本数据/2021.08/上海市_大型购物广场.shp"},"geometry":{"type":"Point","coordinates":[121.47838974,31.2456686]}},{"id":"332","type":"Feature","properties":{"gml_id":"layer_shopping_plaza_pt.105908","Name":"弘基／休闲广场","pyname":"hj/xxgc","kind":"2200","zipcode":null,"telephone":null,"display_x":"121.48343","display_y":"31.24555","side":"R","address":"四川北路71号","__source_file__":"19-其它/13-历史版本数据/2021.08/上海市_大型购物广场.shp"},"geometry":{"type":"Point","coordinates":[121.47910182,31.24758366]}},{"id":"318","type":"Feature","properties":{"gml_id":"layer_shopping_plaza_pt.105894","Name":"圣和圣时尚汇","pyname":"shsssh","kind":"2200","zipcode":null,"telephone":"021-63257777","display_x":"121.48145","display_y":"31.24659","side":"L","address":"河南北路233","__source_file__":"19-其它/13-历史版本数据/2021.08/上海市_大型购物广场.shp"},"geometry":{"type":"Point","coordinates":[121.47711714,31.24861952]}},{"id":"484","type":"Feature","properties":{"gml_id":"layer_shopping_plaza_pt.106064","Name":"圣和圣时尚汇北门","pyname":"shssshbm","kind":"2200","zipcode":null,"telephone":null,"display_x":"121.48137","display_y":"31.24695","side":"L","address":"河南北路","__source_file__":"19-其它/13-历史版本数据/2021.08/上海市_大型购物广场.shp"},"geometry":{"type":"Point","coordinates":[121.4770383,31.24897983]}},{"id":"1027","type":"Feature","properties":{"gml_id":"layer_shopping_plaza_pt.106632","Name":"中信广场","pyname":"zxgc","kind":"2200","zipcode":null,"telephone":null,"display_x":"121.48488","display_y":"31.2486","side":"L","address":"四川北路859","__source_file__":"19-其它/13-历史版本数据/2021.08/上海市_大型购物广场.shp"},"geometry":{"type":"Point","coordinates":[121.48057278,31.25064267]}},{"id":"577","type":"Feature","properties":{"gml_id":"layer_shopping_plaza_pt.106159","Name":"壹丰广场","pyname":"yfgc","kind":"2200","zipcode":null,"telephone":null,"display_x":"121.48388","display_y":"31.25217","side":"L","address":"四川北路1363号","__source_file__":"19-其它/13-历史版本数据/2021.08/上海市_大型购物广场.shp"},"geometry":{"type":"Point","coordinates":[121.4795844,31.2542154]}},{"id":"1311","type":"Feature","properties":{"gml_id":"layer_shopping_plaza_pt.106925","Name":"中信泰富·申虹广场南门","pyname":"zxtfshgcnm","kind":"2200","zipcode":null,"telephone":null,"display_x":"121.48469","display_y":"31.25245","side":"R","address":"四川北路","__source_file__":"19-其它/13-历史版本数据/2021.08/上海市_大型购物广场.shp"},"geometry":{"type":"Point","coordinates":[121.48039944,31.25449818]}},{"id":"1355","type":"Feature","properties":{"gml_id":"layer_shopping_plaza_pt.106971","Name":"壹丰广场北门","pyname":"yfgcbm","kind":"2200","zipcode":null,"telephone":null,"display_x":"121.48351","display_y":"31.25284","side":"L","address":"四川北路1363号","__source_file__":"19-其它/13-历史版本数据/2021.08/上海市_大型购物广场.shp"},"geometry":{"type":"Point","coordinates":[121.47921576,31.25488536]}},{"id":"1430","type":"Feature","properties":{"gml_id":"layer_shopping_plaza_pt.107048","Name":"壹丰广场东门","pyname":"yfgcdm","kind":"2200","zipcode":null,"telephone":"021-36366222","display_x":"121.48387","display_y":"31.25288","side":"L","address":"四川北路1363号","__source_file__":"19-其它/13-历史版本数据/2021.08/上海市_大型购物广场.shp"},"geometry":{"type":"Point","coordinates":[121.47957756,31.25492649]}},{"id":"1383","type":"Feature","properties":{"gml_id":"layer_shopping_plaza_pt.107000","Name":"中信泰富·申虹广场","pyname":"zxtfshgc","kind":"2200","zipcode":null,"telephone":null,"display_x":"121.48442","display_y":"31.25301","side":"R","address":"四川北路1350","__source_file__":"19-其它/13-历史版本数据/2021.08/上海市_大型购物广场.shp"},"geometry":{"type":"Point","coordinates":[121.48013088,31.2550583]}},{"id":"101","type":"Feature","properties":{"gml_id":"layer_shopping_plaza_pt.105674","Name":"凯鸿广场","pyname":"khgc","kind":"2200","zipcode":null,"telephone":"021-63933081","display_x":"121.48285","display_y":"31.25691","side":"R","address":"四川北路1661","__source_file__":"19-其它/13-历史版本数据/2021.08/上海市_大型购物广场.shp"},"geometry":{"type":"Point","coordinates":[121.47856668,31.25895764]}},{"id":"146","type":"Feature","properties":{"gml_id":"layer_shopping_plaza_pt.105719","Name":"东宝百货","pyname":"dbbh","kind":"2200","zipcode":"200071","telephone":"021-63561818","display_x":"121.48313","display_y":"31.25752","side":"R","address":"四川北路1666","__source_file__":"19-其它/13-历史版本数据/2021.08/上海市_大型购物广场.shp"},"geometry":{"type":"Point","coordinates":[121.47884586,31.25956694]}},{"id":"647","type":"Feature","properties":{"gml_id":"layer_shopping_plaza_pt.106231","Name":"上海北外滩白玉兰广场","pyname":"shbwtbylgc","kind":"2200","zipcode":null,"telephone":null,"display_x":"121.49967","display_y":"31.24913","side":"L","address":"东大名路555号","__source_file__":"19-其它/13-历史版本数据/2021.08/上海市_大型购物广场.shp"},"geometry":{"type":"Point","coordinates":[121.49544474,31.25121683]}},{"id":"791","type":"Feature","properties":{"gml_id":"layer_shopping_plaza_pt.106381","Name":"瑞虹坊1区","pyname":"rhf1q","kind":"2200","zipcode":null,"telephone":null,"display_x":"121.49614","display_y":"31.26255","side":"L","address":"临平路323临","__source_file__":"19-其它/13-历史版本数据/2021.08/上海市_大型购物广场.shp"},"geometry":{"type":"Point","coordinates":[121.4919234,31.26464024]}},{"id":"8","type":"Feature","properties":{"gml_id":"layer_shopping_plaza_pt.105579","Name":"凯鸿广场东门","pyname":"khgcdm","kind":"2200","zipcode":null,"telephone":null,"display_x":"121.48261","display_y":"31.25768","side":"L","address":"四川北路1661","__source_file__":"19-其它/13-历史版本数据/2021.08/上海市_大型购物广场.shp"},"geometry":{"type":"Point","coordinates":[121.4783226,31.25972493]}},{"id":"212","type":"Feature","properties":{"gml_id":"layer_shopping_plaza_pt.105786","Name":"巴黎春天虹口店","pyname":"blcthkd","kind":"2200","zipcode":null,"telephone":"021-63098090","display_x":"121.48308","display_y":"31.25797","side":"L","address":"四川北路1688","__source_file__":"19-其它/13-历史版本数据/2021.08/上海市_大型购物广场.shp"},"geometry":{"type":"Point","coordinates":[121.47879402,31.26001563]}},{"id":"1351","type":"Feature","properties":{"gml_id":"layer_shopping_plaza_pt.106967","Name":"凯鸿广场北门","pyname":"khgcbm","kind":"2200","zipcode":null,"telephone":null,"display_x":"121.48182","display_y":"31.258","side":"R","address":"东宝兴路","__source_file__":"19-其它/13-历史版本数据/2021.08/上海市_大型购物广场.shp"},"geometry":{"type":"Point","coordinates":[121.47752736,31.26004169]}},{"id":"432","type":"Feature","properties":{"gml_id":"layer_shopping_plaza_pt.106012","Name":"嘉杰国际广场","pyname":"jjgjgc","kind":"2200","zipcode":null,"telephone":"021-36393000","display_x":"121.48243","display_y":"31.25828","side":"L","address":"四川北路1717","__source_file__":"19-其它/13-历史版本数据/2021.08/上海市_大型购物广场.shp"},"geometry":{"type":"Point","coordinates":[121.47813954,31.26032285]}},{"id":"214","type":"Feature","properties":{"gml_id":"layer_shopping_plaza_pt.105788","Name":"嘉杰·风尚汇","pyname":"jjfsh","kind":"2200","zipcode":null,"telephone":"021-63098866","display_x":"121.48222","display_y":"31.25891","side":"R","address":"四川北路1727弄","__source_file__":"19-其它/13-历史版本数据/2021.08/上海市_大型购物广场.shp"},"geometry":{"type":"Point","coordinates":[121.47792606,31.2609506]}},{"id":"739","type":"Feature","properties":{"gml_id":"layer_shopping_plaza_pt.106326","Name":"海虹永安商厦","pyname":"hhyass","kind":"2200","zipcode":null,"telephone":null,"display_x":"121.48371","display_y":"31.26005","side":"L","address":"四川北路1800","__source_file__":"19-其它/13-历史版本数据/2021.08/上海市_大型购物广场.shp"},"geometry":{"type":"Point","coordinates":[121.47941952,31.26209225]}},{"id":"1292","type":"Feature","properties":{"gml_id":"layer_shopping_plaza_pt.106904","Name":"多伦生活广场","pyname":"dlshgc","kind":"2200","zipcode":null,"telephone":null,"display_x":"121.4837","display_y":"31.26174","side":"R","address":"四川北路1885号","__source_file__":"19-其它/13-历史版本数据/2021.08/上海市_大型购物广场.shp"},"geometry":{"type":"Point","coordinates":[121.4794008,31.26377723]}},{"id":"445","type":"Feature","properties":{"gml_id":"layer_shopping_plaza_pt.106025","Name":"东泰休闲广场","pyname":"dtxxgc","kind":"2200","zipcode":null,"telephone":null,"display_x":"121.48424","display_y":"31.26426","side":"R","address":"四川北路2002弄","__source_file__":"19-其它/13-历史版本数据/2021.08/上海市_大型购物广场.shp"},"geometry":{"type":"Point","coordinates":[121.47993,31.2662912]}},{"id":"55","type":"Feature","properties":{"gml_id":"layer_shopping_plaza_pt.105626","Name":"天兴百货","pyname":"txbh","kind":"2200","zipcode":"200081","telephone":"021-56711018","display_x":"121.48206","display_y":"31.26528","side":"R","address":"四川北路2088","__source_file__":"19-其它/13-历史版本数据/2021.08/上海市_大型购物广场.shp"},"geometry":{"type":"Point","coordinates":[121.47773436,31.26730163]}},{"id":"1139","type":"Feature","properties":{"gml_id":"layer_shopping_plaza_pt.106747","Name":"中广综合市场","pyname":"zgzhsc","kind":"2200","zipcode":null,"telephone":"021-65871720","display_x":"121.47846","display_y":"31.26709","side":"R","address":"西江湾路122号","__source_file__":"19-其它/13-历史版本数据/2021.08/上海市_大型购物广场.shp"},"geometry":{"type":"Point","coordinates":[121.47410772,31.26909546]}},{"id":"1229","type":"Feature","properties":{"gml_id":"layer_shopping_plaza_pt.106840","Name":"凯德龙之梦虹口A座","pyname":"kdlzmhkaz","kind":"2200","zipcode":null,"telephone":null,"display_x":"121.47878","display_y":"31.27018","side":"R","address":"西江湾路388号","__source_file__":"19-其它/13-历史版本数据/2021.08/上海市_大型购物广场.shp"},"geometry":{"type":"Point","coordinates":[121.47441282,31.27217706]}},{"id":"361","type":"Feature","properties":{"gml_id":"layer_shopping_plaza_pt.105941","Name":"凯德龙之梦虹口A座西门","pyname":"kdlzmhkazxm","kind":"2200","zipcode":null,"telephone":null,"display_x":"121.47794","display_y":"31.27031","side":"R","address":"花园路","__source_file__":"19-其它/13-历史版本数据/2021.08/上海市_大型购物广场.shp"},"geometry":{"type":"Point","coordinates":[121.47356808,31.27230419]}},{"id":"236","type":"Feature","properties":{"gml_id":"layer_shopping_plaza_pt.105810","Name":"麦尚城虹口店","pyname":"mschkd","kind":"2200","zipcode":null,"telephone":"021-26031498","display_x":"121.47922","display_y":"31.27069","side":"L","address":"东江湾路446临","__source_file__":"19-其它/13-历史版本数据/2021.08/上海市_大型购物广场.shp"},"geometry":{"type":"Point","coordinates":[121.4748522,31.27268682]}},{"id":"916","type":"Feature","properties":{"gml_id":"layer_shopping_plaza_pt.106513","Name":"凯德龙之梦虹口B座","pyname":"kdlzmhkbz","kind":"2200","zipcode":null,"telephone":null,"display_x":"121.47696","display_y":"31.2707","side":"R","address":"西江湾路388号","__source_file__":"19-其它/13-历史版本数据/2021.08/上海市_大型购物广场.shp"},"geometry":{"type":"Point","coordinates":[121.4725815,31.27269006]}},{"id":"531","type":"Feature","properties":{"gml_id":"layer_shopping_plaza_pt.106113","Name":"星城时尚中心","pyname":"xcsszx","kind":"2200","zipcode":null,"telephone":"021-26031498","display_x":"121.4794","display_y":"31.27071","side":"R","address":"东江湾路448号临附近","__source_file__":"19-其它/13-历史版本数据/2021.08/上海市_大型购物广场.shp"},"geometry":{"type":"Point","coordinates":[121.47503292,31.2727073]}},{"id":"836","type":"Feature","properties":{"gml_id":"layer_shopping_plaza_pt.106430","Name":"凯德龙之梦虹口B座东门","pyname":"kdlzmhkbzdm","kind":"2200","zipcode":null,"telephone":null,"display_x":"121.47777","display_y":"31.27136","side":"R","address":"同煌路","__source_file__":"19-其它/13-历史版本数据/2021.08/上海市_大型购物广场.shp"},"geometry":{"type":"Point","coordinates":[121.47339168,31.27335048]}},{"id":"706","type":"Feature","properties":{"gml_id":"layer_shopping_plaza_pt.106291","Name":"凯德龙之梦虹口A座北门","pyname":"kdlzmhkazbm","kind":"2200","zipcode":null,"telephone":null,"display_x":"121.47808","display_y":"31.27136","side":"R","address":"同煌路","__source_file__":"19-其它/13-历史版本数据/2021.08/上海市_大型购物广场.shp"},"geometry":{"type":"Point","coordinates":[121.47370326,31.27335138]}},{"id":"115","type":"Feature","properties":{"gml_id":"layer_shopping_plaza_pt.105688","Name":"凯德龙之梦虹口B座西门","pyname":"kdlzmhkbzxm","kind":"2200","zipcode":null,"telephone":null,"display_x":"121.47703","display_y":"31.27145","side":"R","address":"中山北一路","__source_file__":"19-其它/13-历史版本数据/2021.08/上海市_大型购物广场.shp"},"geometry":{"type":"Point","coordinates":[121.47264774,31.27343801]}}],"name":"上海市_大型购物广场","crs":{"type":"name","properties":{"name":"urn:ogc:def:crs:OGC:1.3:CRS84"}}}