{"type":"FeatureCollection","features":[{"id":"200","type":"Feature","properties":{"gml_id":"v2_layer_transportation_pg.2315","code":5601,"fclass":"railway_station","Name":"静安寺","__source_file__":"19-其它/13-历史版本数据/2021.08/上海市_交通运输.shp"},"geometry":{"type":"Polygon","coordinates":[[[121.4437115,31.2257257],[121.4443555,31.2241914],[121.4441252,31.2241207],[121.4434813,31.2256551],[121.4437115,31.2257257]]]}},{"id":"294","type":"Feature","properties":{"gml_id":"v2_layer_transportation_pg.3741","code":5622,"fclass":"bus_station","Name":"静安寺枢纽站","__source_file__":"19-其它/13-历史版本数据/2021.08/上海市_交通运输.shp"},"geometry":{"type":"Polygon","coordinates":[[[121.4423623,31.2282226],[121.4424301,31.2280985],[121.4410702,31.2276994],[121.4413519,31.2272287],[121.4411017,31.2271239],[121.4407155,31.2277501],[121.4423623,31.2282226]]]}},{"id":"201","type":"Feature","properties":{"gml_id":"v2_layer_transportation_pg.2316","code":5601,"fclass":"railway_station","Name":"昌平路","__source_file__":"19-其它/13-历史版本数据/2021.08/上海市_交通运输.shp"},"geometry":{"type":"Polygon","coordinates":[[[121.4375488,31.2364834],[121.4383562,31.235106],[121.4381345,31.235011],[121.4373271,31.2363884],[121.4375488,31.2364834]]]}},{"id":"234","type":"Feature","properties":{"gml_id":"v2_layer_transportation_pg.2871","code":5601,"fclass":"railway_station","Name":"长寿路","__source_file__":"19-其它/13-历史版本数据/2021.08/上海市_交通运输.shp"},"geometry":{"type":"Polygon","coordinates":[[[121.4332449,31.2423888],[121.4333958,31.2422466],[121.4344802,31.2412258],[121.4342958,31.2410828],[121.4330616,31.2422467],[121.4332449,31.2423888]]]}},{"id":"230","type":"Feature","properties":{"gml_id":"v2_layer_transportation_pg.2863","code":5601,"fclass":"railway_station","Name":"汉中路","__source_file__":"19-其它/13-历史版本数据/2021.08/上海市_交通运输.shp"},"geometry":{"type":"Polygon","coordinates":[[[121.4535272,31.2431108],[121.4536019,31.2430725],[121.454368,31.2426788],[121.4546368,31.2425406],[121.4553084,31.2421955],[121.4551658,31.2419926],[121.4543679,31.2424026],[121.454099,31.2425407],[121.4533846,31.2429079],[121.4535272,31.2431108]]]}},{"id":"202","type":"Feature","properties":{"gml_id":"v2_layer_transportation_pg.2317","code":5601,"fclass":"railway_station","Name":"长寿路","__source_file__":"19-其它/13-历史版本数据/2021.08/上海市_交通运输.shp"},"geometry":{"type":"Polygon","coordinates":[[[121.4344432,31.2433177],[121.4345934,31.2431762],[121.4333958,31.2422466],[121.4332449,31.2423888],[121.4344432,31.2433177]]]}},{"id":"223","type":"Feature","properties":{"gml_id":"v2_layer_transportation_pg.2554","code":5601,"fclass":"railway_station","Name":"汉中路","__source_file__":"19-其它/13-历史版本数据/2021.08/上海市_交通运输.shp"},"geometry":{"type":"Polygon","coordinates":[[[121.4532265,31.2440295],[121.4552227,31.2435354],[121.4551457,31.243308],[121.454263,31.2435264],[121.454024,31.2435856],[121.4531495,31.2438021],[121.4532265,31.2440295]]]}},{"id":"17","type":"Feature","properties":{"gml_id":"v2_layer_transportation_pg.82","code":5601,"fclass":"railway_station","Name":"镇坪路","__source_file__":"19-其它/13-历史版本数据/2021.08/上海市_交通运输.shp"},"geometry":{"type":"Polygon","coordinates":[[[121.4250851,31.248258],[121.4257237,31.2487002],[121.4257631,31.2486639],[121.4258216,31.24861],[121.4258683,31.248567],[121.425231,31.2481091],[121.4245673,31.2476987],[121.4245255,31.2477525],[121.4244781,31.2478137],[121.4244419,31.2478604],[121.4250851,31.248258]]]}},{"id":"189","type":"Feature","properties":{"gml_id":"v2_layer_transportation_pg.2304","code":5601,"fclass":"railway_station","Name":"镇坪路","__source_file__":"19-其它/13-历史版本数据/2021.08/上海市_交通运输.shp"},"geometry":{"type":"Polygon","coordinates":[[[121.4267801,31.2492118],[121.427594,31.2479526],[121.4273792,31.2478512],[121.4267025,31.2488981],[121.4265652,31.2491104],[121.4267801,31.2492118]]]}},{"id":"221","type":"Feature","properties":{"gml_id":"v2_layer_transportation_pg.2552","code":5601,"fclass":"railway_station","Name":"上海火车站","__source_file__":"19-其它/13-历史版本数据/2021.08/上海市_交通运输.shp"},"geometry":{"type":"Polygon","coordinates":[[[121.4515017,31.249907],[121.4517733,31.2497984],[121.4517212,31.2497031],[121.4516882,31.2496428],[121.4509082,31.2482162],[121.4506365,31.2483247],[121.4515017,31.249907]]]}},{"id":"220","type":"Feature","properties":{"gml_id":"v2_layer_transportation_pg.2551","code":5601,"fclass":"railway_station","Name":"人民广场","__source_file__":"19-其它/13-历史版本数据/2021.08/上海市_交通运输.shp"},"geometry":{"type":"Polygon","coordinates":[[[121.4696454,31.2354479],[121.4700237,31.2355884],[121.4701181,31.2354372],[121.4715246,31.2333407],[121.4713824,31.233266],[121.4705532,31.2345102],[121.4703173,31.2346486],[121.4700035,31.2347824],[121.469824,31.2348482],[121.4695225,31.234912],[121.4696454,31.2354479]]]}},{"id":"229","type":"Feature","properties":{"gml_id":"v2_layer_transportation_pg.2862","code":5601,"fclass":"railway_station","Name":"人民广场","__source_file__":"19-其它/13-历史版本数据/2021.08/上海市_交通运输.shp"},"geometry":{"type":"Polygon","coordinates":[[[121.4702215,31.2356618],[121.4716675,31.2334158],[121.4715246,31.2333407],[121.4701181,31.2354372],[121.4700237,31.2355884],[121.4702215,31.2356618]]]}},{"id":"320","type":"Feature","properties":{"gml_id":"v2_layer_transportation_pg.4970","code":5655,"fclass":"helipad","Name":null,"__source_file__":"19-其它/13-历史版本数据/2021.08/上海市_交通运输.shp"},"geometry":{"type":"Polygon","coordinates":[[[121.4629412,31.2346696],[121.4629625,31.2346933],[121.462992,31.2347093],[121.4630261,31.2347157],[121.4630608,31.2347118],[121.463089,31.2346997],[121.4631114,31.2346808],[121.4631259,31.2346568],[121.4631311,31.2346302],[121.4631263,31.2346036],[121.4631122,31.2345795],[121.46309,31.2345603],[121.463062,31.234548],[121.4630309,31.2345436],[121.4629997,31.2345477],[121.4629688,31.2345616],[121.4629453,31.2345837],[121.462932,31.2346113],[121.4629306,31.2346412],[121.4629412,31.2346696]]]}},{"id":"228","type":"Feature","properties":{"gml_id":"v2_layer_transportation_pg.2861","code":5601,"fclass":"railway_station","Name":"人民广场","__source_file__":"19-其它/13-历史版本数据/2021.08/上海市_交通运输.shp"},"geometry":{"type":"Polygon","coordinates":[[[121.4692632,31.2357825],[121.4696454,31.2354479],[121.4695225,31.234912],[121.469331,31.2349334],[121.4691382,31.2349474],[121.4689025,31.2349422],[121.4687266,31.234923],[121.4685113,31.2348811],[121.4682447,31.2347943],[121.4678256,31.2345914],[121.4670887,31.2341336],[121.4669557,31.2342796],[121.4692632,31.2357825]]]}},{"id":"1","type":"Feature","properties":{"gml_id":"v2_layer_transportation_pg.2","code":5622,"fclass":"bus_station","Name":"陆家嘴","__source_file__":"19-其它/13-历史版本数据/2021.08/上海市_交通运输.shp"},"geometry":{"type":"Polygon","coordinates":[[[121.4930452,31.2386865],[121.4931414,31.2385369],[121.4931072,31.2385193],[121.4930877,31.2383359],[121.4924657,31.2380726],[121.4922831,31.2382392],[121.4922331,31.2383242],[121.4930452,31.2386865]]]}},{"id":"222","type":"Feature","properties":{"gml_id":"v2_layer_transportation_pg.2553","code":5601,"fclass":"railway_station","Name":"汉中路","__source_file__":"19-其它/13-历史版本数据/2021.08/上海市_交通运输.shp"},"geometry":{"type":"Polygon","coordinates":[[[121.454099,31.2425407],[121.454368,31.2426788],[121.4546394,31.2428181],[121.4553557,31.2431857],[121.4554982,31.2429827],[121.4546368,31.2425406],[121.4543679,31.2424026],[121.4537164,31.2420682],[121.4535739,31.2422712],[121.454099,31.2425407]]]}},{"id":"74","type":"Feature","properties":{"gml_id":"v2_layer_transportation_pg.479","code":5661,"fclass":"ferry_terminal","Name":"上海港国际客运中心","__source_file__":"19-其它/13-历史版本数据/2021.08/上海市_交通运输.shp"},"geometry":{"type":"Polygon","coordinates":[[[121.4921708,31.2478168],[121.4921325,31.2478841],[121.4920352,31.2480586],[121.4917256,31.2485909],[121.492183,31.2487887],[121.4921338,31.2488741],[121.4925139,31.2490143],[121.4929273,31.2491712],[121.4927988,31.2493564],[121.4926962,31.2495198],[121.4936001,31.2499326],[121.4943188,31.2503124],[121.4947139,31.2505305],[121.4947692,31.2504481],[121.4947329,31.2504183],[121.4947169,31.2503862],[121.4947155,31.2503529],[121.4947209,31.2503266],[121.494745,31.2502933],[121.4947732,31.250275],[121.4948241,31.2502646],[121.4948195,31.2501946],[121.4947741,31.2501881],[121.4947741,31.2501041],[121.4948926,31.249951],[121.4949518,31.249883],[121.4950307,31.2498306],[121.4951466,31.2497961],[121.4952929,31.2497662],[121.4954692,31.2497523],[121.4955696,31.2497536],[121.495661,31.2497664],[121.4957568,31.2497869],[121.4958527,31.2498169],[121.4969664,31.2503978],[121.49752226505127,31.250525814021074],[121.49755548948157,31.25026961052951],[121.49756192326755,31.249791117844076],[121.4975567,31.2497897],[121.4973273,31.2496952],[121.4966813,31.2494059],[121.4957655,31.2490495],[121.4941436,31.2483706],[121.4932442,31.2480212],[121.4916235,31.2473916],[121.4915496,31.2475685],[121.4921708,31.2478168]]]}},{"id":"28","type":"Feature","properties":{"gml_id":"v2_layer_transportation_pg.123","code":5601,"fclass":"railway_station","Name":"宝山路","__source_file__":"19-其它/13-历史版本数据/2021.08/上海市_交通运输.shp"},"geometry":{"type":"Polygon","coordinates":[[[121.4724203,31.2539359],[121.4724686,31.2538729],[121.4725172,31.2538097],[121.4725549,31.2537608],[121.4711637,31.2529793],[121.471126,31.2530282],[121.4710774,31.2530915],[121.4710291,31.2531544],[121.4724203,31.2539359]]]}},{"id":"207","type":"Feature","properties":{"gml_id":"v2_layer_transportation_pg.2526","code":5601,"fclass":"railway_station","Name":"海伦路","__source_file__":"19-其它/13-历史版本数据/2021.08/上海市_交通运输.shp"},"geometry":{"type":"Polygon","coordinates":[[[121.4842193,31.2607896],[121.4862667,31.2612874],[121.4863267,31.2611073],[121.4841533,31.2605788],[121.4840994,31.2607603],[121.4842193,31.2607896]]]}},{"id":"27","type":"Feature","properties":{"gml_id":"v2_layer_transportation_pg.122","code":5601,"fclass":"railway_station","Name":"上海火车站","__source_file__":"19-其它/13-历史版本数据/2021.08/上海市_交通运输.shp"},"geometry":{"type":"Polygon","coordinates":[[[121.4522827,31.2519822],[121.4523301,31.2520703],[121.4523686,31.2521417],[121.454111,31.2514567],[121.4540771,31.2513937],[121.4540251,31.2512971],[121.4540096,31.2512684],[121.4538938,31.2513139],[121.4538292,31.2513393],[121.4522673,31.2519534],[121.4522827,31.2519822]]]}},{"id":"158","type":"Feature","properties":{"gml_id":"v2_layer_transportation_pg.2125","code":5622,"fclass":"bus_station","Name":"上海火车站北广场枢纽","__source_file__":"19-其它/13-历史版本数据/2021.08/上海市_交通运输.shp"},"geometry":{"type":"Polygon","coordinates":[[[121.4508165,31.2534638],[121.4510091,31.2532583],[121.4504674,31.2528966],[121.4502766,31.253053],[121.4508165,31.2534638]]]}},{"id":"10","type":"Feature","properties":{"gml_id":"v2_layer_transportation_pg.65","code":5622,"fclass":"bus_station","Name":"上海长途客运总站","__source_file__":"19-其它/13-历史版本数据/2021.08/上海市_交通运输.shp"},"geometry":{"type":"Polygon","coordinates":[[[121.4472121,31.2543424],[121.4472712,31.254402],[121.4473524,31.2544166],[121.4505047,31.2543046],[121.4506146,31.2542442],[121.4506827,31.2541831],[121.4507171,31.2540901],[121.4508298,31.2536323],[121.4508186,31.2535987],[121.4507872,31.2535729],[121.450508,31.2535268],[121.4504537,31.2535104],[121.4504114,31.2534719],[121.4502451,31.2531577],[121.4502129,31.2531233],[121.4501566,31.2531073],[121.4501003,31.2531095],[121.4472249,31.2541987],[121.4472078,31.2542756],[121.4472121,31.2543424]]]}},{"id":"26","type":"Feature","properties":{"gml_id":"v2_layer_transportation_pg.121","code":5601,"fclass":"railway_station","Name":"中潭路","__source_file__":"19-其它/13-历史版本数据/2021.08/上海市_交通运输.shp"},"geometry":{"type":"Polygon","coordinates":[[[121.4363878,31.2565356],[121.4371969,31.2566434],[121.4372077,31.2565903],[121.4372225,31.2565176],[121.437232,31.2564707],[121.4364292,31.2563652],[121.4356353,31.2562208],[121.4356181,31.2562777],[121.4355974,31.2563489],[121.4355821,31.2563958],[121.4363878,31.2565356]]]}},{"id":"317","type":"Feature","properties":{"gml_id":"v2_layer_transportation_pg.4955","code":5655,"fclass":"helipad","Name":null,"__source_file__":"19-其它/13-历史版本数据/2021.08/上海市_交通运输.shp"},"geometry":{"type":"Polygon","coordinates":[[[121.448116,31.2738669],[121.4481294,31.2738888],[121.4481516,31.2739047],[121.4481792,31.2739122],[121.448208,31.27391],[121.4482337,31.2738986],[121.4482523,31.2738796],[121.448261,31.273856],[121.4482585,31.2738313],[121.4482451,31.2738094],[121.4482229,31.2737935],[121.4481953,31.2737861],[121.4481664,31.2737882],[121.4481408,31.2737997],[121.4481222,31.2738186],[121.4481135,31.2738422],[121.448116,31.2738669]]]}},{"id":"231","type":"Feature","properties":{"gml_id":"v2_layer_transportation_pg.2864","code":5601,"fclass":"railway_station","Name":"海伦路","__source_file__":"19-其它/13-历史版本数据/2021.08/上海市_交通运输.shp"},"geometry":{"type":"Polygon","coordinates":[[[121.4843386,31.2619999],[121.4845811,31.2619444],[121.4842193,31.2607896],[121.4841533,31.2605788],[121.4840938,31.2603887],[121.4838513,31.2604442],[121.4843386,31.2619999]]]}},{"id":"62","type":"Feature","properties":{"gml_id":"v2_layer_transportation_pg.351","code":5601,"fclass":"railway_station","Name":"东宝兴路","__source_file__":"19-其它/13-历史版本数据/2021.08/上海市_交通运输.shp"},"geometry":{"type":"Polygon","coordinates":[[[121.4757683,31.2625074],[121.4758931,31.2611642],[121.4758666,31.2611624],[121.4756416,31.2611471],[121.4755169,31.2624903],[121.4757683,31.2625074]]]}},{"id":"224","type":"Feature","properties":{"gml_id":"v2_layer_transportation_pg.2555","code":5601,"fclass":"railway_station","Name":"虹口足球场","__source_file__":"19-其它/13-历史版本数据/2021.08/上海市_交通运输.shp"},"geometry":{"type":"Polygon","coordinates":[[[121.4756044,31.2721167],[121.4756469,31.2719197],[121.473677,31.2716091],[121.4736345,31.271806],[121.4756044,31.2721167]]]}},{"id":"63","type":"Feature","properties":{"gml_id":"v2_layer_transportation_pg.352","code":5601,"fclass":"railway_station","Name":"虹口足球场","__source_file__":"19-其它/13-历史版本数据/2021.08/上海市_交通运输.shp"},"geometry":{"type":"Polygon","coordinates":[[[121.47462,31.2739505],[121.4747159,31.2739488],[121.4747887,31.2739475],[121.4747897,31.2738823],[121.4747878,31.2736112],[121.4748096,31.2732703],[121.4748505,31.2729343],[121.4748922,31.2726431],[121.4748986,31.2726061],[121.474832,31.272596],[121.4747863,31.2725891],[121.4747508,31.2725837],[121.474692,31.2725748],[121.4746769,31.2726532],[121.4746262,31.2729169],[121.474578,31.2732588],[121.4745752,31.2732987],[121.4745539,31.2736063],[121.4745465,31.2739519],[121.47462,31.2739505]]]}}],"name":"上海市_交通运输","crs":{"type":"name","properties":{"name":"urn:ogc:def:crs:OGC:1.3:CRS84"}}}