{"type":"FeatureCollection","features":[{"id":"767","type":"Feature","properties":{"name":"玉兰园","pname":"上海市","cityname":"上海市","adname":"黄浦区","address":"瑞金二路","isin_regio":"yes","wgs84_lng":"121.46647828407627","wgs84_lat":"31.22050554240757","行业大类":"风景名胜","行业子类":"公园广场","__source_file__":"19-其它/13-历史版本数据/2021.08/上海市_公园.shp"},"geometry":{"type":"Point","coordinates":[121.46647828407627,31.22050554240757]}},{"id":"632","type":"Feature","properties":{"name":"太平桥公园","pname":"上海市","cityname":"上海市","adname":"黄浦区","address":"淮海中路(一大会址·新天地地铁站1号口步行490米)","isin_regio":"yes","wgs84_lng":"121.47237436917489","wgs84_lat":"31.221627055263564","行业大类":"风景名胜","行业子类":"公园广场","__source_file__":"19-其它/13-历史版本数据/2021.08/上海市_公园.shp"},"geometry":{"type":"Point","coordinates":[121.47237436917489,31.221627055263564]}},{"id":"687","type":"Feature","properties":{"name":"延中公园(巨鹿路)","pname":"上海市","cityname":"上海市","adname":"黄浦区","address":"巨鹿路成都南路口","isin_regio":"yes","wgs84_lng":"121.46250054006522","wgs84_lat":"31.224405322357537","行业大类":"风景名胜","行业子类":"公园广场","__source_file__":"19-其它/13-历史版本数据/2021.08/上海市_公园.shp"},"geometry":{"type":"Point","coordinates":[121.46250054006522,31.224405322357537]}},{"id":"784","type":"Feature","properties":{"name":"延中广场公园春之园","pname":"上海市","cityname":"上海市","adname":"黄浦区","address":"巨鹿路与瑞金一路交叉口东北角","isin_regio":"yes","wgs84_lng":"121.46058366741063","wgs84_lat":"31.22514311473732","行业大类":"风景名胜","行业子类":"公园广场","__source_file__":"19-其它/13-历史版本数据/2021.08/上海市_公园.shp"},"geometry":{"type":"Point","coordinates":[121.46058366741063,31.22514311473732]}},{"id":"63","type":"Feature","properties":{"name":"静安职工世纪园","pname":"上海市","cityname":"上海市","adname":"静安区","address":"延安中路866号","isin_regio":"yes","wgs84_lng":"121.45274010307782","wgs84_lat":"31.226147829595956","行业大类":"风景名胜","行业子类":"公园广场","__source_file__":"19-其它/13-历史版本数据/2021.08/上海市_公园.shp"},"geometry":{"type":"Point","coordinates":[121.45274010307782,31.226147829595956]}},{"id":"762","type":"Feature","properties":{"name":"广场公园","pname":"上海市","cityname":"上海市","adname":"黄浦区","address":"金陵中路与黄陂南路交叉口","isin_regio":"yes","wgs84_lng":"121.46719506011604","wgs84_lat":"31.226431667400906","行业大类":"风景名胜","行业子类":"公园广场","__source_file__":"19-其它/13-历史版本数据/2021.08/上海市_公园.shp"},"geometry":{"type":"Point","coordinates":[121.46719506011604,31.226431667400906]}},{"id":"773","type":"Feature","properties":{"name":"延安中路大型公共绿地静安段","pname":"上海市","cityname":"上海市","adname":"静安区","address":"老成都北路大沽路路口(南京西路地铁站8号口步行490米)","isin_regio":"yes","wgs84_lng":"121.4620951031423","wgs84_lat":"31.22671720359748","行业大类":"风景名胜","行业子类":"公园广场","__source_file__":"19-其它/13-历史版本数据/2021.08/上海市_公园.shp"},"geometry":{"type":"Point","coordinates":[121.4620951031423,31.22671720359748]}},{"id":"786","type":"Feature","properties":{"name":"延安公园","pname":"上海市","cityname":"上海市","adname":"静安区","address":"大沽路(成都北路大沽路)","isin_regio":"yes","wgs84_lng":"121.46213319307164","wgs84_lat":"31.227022158346347","行业大类":"风景名胜","行业子类":"公园广场","__source_file__":"19-其它/13-历史版本数据/2021.08/上海市_公园.shp"},"geometry":{"type":"Point","coordinates":[121.46213319307164,31.227022158346347]}},{"id":"702","type":"Feature","properties":{"name":"延中广场公园","pname":"上海市","cityname":"上海市","adname":"黄浦区","address":"一大会址·黄陂南路地铁站5号口步行240米","isin_regio":"yes","wgs84_lng":"121.47057191141698","wgs84_lat":"31.227497321738007","行业大类":"风景名胜","行业子类":"公园广场","__source_file__":"19-其它/13-历史版本数据/2021.08/上海市_公园.shp"},"geometry":{"type":"Point","coordinates":[121.47057191141698,31.227497321738007]}},{"id":"628","type":"Feature","properties":{"name":"延中广场公园-延中绿地","pname":"上海市","cityname":"上海市","adname":"黄浦区","address":"延安东路附近","isin_regio":"yes","wgs84_lng":"121.46928569271097","wgs84_lat":"31.227689717815757","行业大类":"风景名胜","行业子类":"公园广场","__source_file__":"19-其它/13-历史版本数据/2021.08/上海市_公园.shp"},"geometry":{"type":"Point","coordinates":[121.46928569271097,31.227689717815757]}},{"id":"635","type":"Feature","properties":{"name":"静安公园(暂停营业)","pname":"上海市","cityname":"上海市","adname":"静安区","address":"华山路189号(静安寺地铁站2号口步行110米)","isin_regio":"yes","wgs84_lng":"121.44228602083825","wgs84_lat":"31.223893891714205","行业大类":"风景名胜","行业子类":"公园广场","__source_file__":"19-其它/13-历史版本数据/2021.08/上海市_公园.shp"},"geometry":{"type":"Point","coordinates":[121.44228602083825,31.223893891714205]}},{"id":"404","type":"Feature","properties":{"name":"威海路花园","pname":"上海市","cityname":"上海市","adname":"静安区","address":"威海路陕西北路路口(南京西路地铁站12号口步行320米)","isin_regio":"yes","wgs84_lng":"121.45206013363685","wgs84_lat":"31.227609603791045","行业大类":"风景名胜","行业子类":"公园广场","__source_file__":"19-其它/13-历史版本数据/2021.08/上海市_公园.shp"},"geometry":{"type":"Point","coordinates":[121.45206013363685,31.227609603791045]}},{"id":"642","type":"Feature","properties":{"name":"上海玫瑰花园","pname":"上海市","cityname":"上海市","adname":"静安区","address":"南京西路1398号(静安寺地铁站6号口步行490米)","isin_regio":"yes","wgs84_lng":"121.4464686265868","wgs84_lat":"31.228087272468088","行业大类":"风景名胜","行业子类":"公园广场","__source_file__":"19-其它/13-历史版本数据/2021.08/上海市_公园.shp"},"geometry":{"type":"Point","coordinates":[121.4464686265868,31.228087272468088]}},{"id":"408","type":"Feature","properties":{"name":"北京西路与常德路口公园","pname":"上海市","cityname":"上海市","adname":"静安区","address":"常德路371号(静安寺地铁站6号口步行460米)","isin_regio":"999","wgs84_lng":"121.44219734159518","wgs84_lat":"31.229398150004563","行业大类":"风景名胜","行业子类":"公园广场","__source_file__":"19-其它/13-历史版本数据/2021.08/上海市_公园.shp"},"geometry":{"type":"Point","coordinates":[121.44219734159518,31.229398150004563]}},{"id":"565","type":"Feature","properties":{"name":"西康公园(暂停营业)","pname":"上海市","cityname":"上海市","adname":"静安区","address":"西康路255-1号","isin_regio":"yes","wgs84_lng":"121.4452402810802","wgs84_lat":"31.232018931901745","行业大类":"风景名胜","行业子类":"公园广场","__source_file__":"19-其它/13-历史版本数据/2021.08/上海市_公园.shp"},"geometry":{"type":"Point","coordinates":[121.4452402810802,31.232018931901745]}},{"id":"405","type":"Feature","properties":{"name":"昌新花园","pname":"上海市","cityname":"上海市","adname":"静安区","address":"新闸路与昌化路交叉口西北角","isin_regio":"yes","wgs84_lng":"121.45076401682279","wgs84_lat":"31.235171203139714","行业大类":"风景名胜","行业子类":"公园广场","__source_file__":"19-其它/13-历史版本数据/2021.08/上海市_公园.shp"},"geometry":{"type":"Point","coordinates":[121.45076401682279,31.235171203139714]}},{"id":"643","type":"Feature","properties":{"name":"新会花园","pname":"上海市","cityname":"上海市","adname":"普陀区","address":"新会路延平路西北角","isin_regio":"yes","wgs84_lng":"121.43133841076919","wgs84_lat":"31.238721358032596","行业大类":"风景名胜","行业子类":"公园广场","__source_file__":"19-其它/13-历史版本数据/2021.08/上海市_公园.shp"},"geometry":{"type":"Point","coordinates":[121.43133841076919,31.238721358032596]}},{"id":"815","type":"Feature","properties":{"name":"新天地太平湖","pname":"上海市","cityname":"上海市","adname":"黄浦区","address":"湖滨路168号","isin_regio":"yes","wgs84_lng":"121.47337669727864","wgs84_lat":"31.221809764569606","行业大类":"风景名胜","行业子类":"公园广场","__source_file__":"19-其它/13-历史版本数据/2021.08/上海市_公园.shp"},"geometry":{"type":"Point","coordinates":[121.47337669727864,31.221809764569606]}},{"id":"636","type":"Feature","properties":{"name":"淮海公园","pname":"上海市","cityname":"上海市","adname":"黄浦区","address":"太仓路56号","isin_regio":"yes","wgs84_lng":"121.47305434582533","wgs84_lat":"31.22501035878101","行业大类":"风景名胜","行业子类":"公园广场","__source_file__":"19-其它/13-历史版本数据/2021.08/上海市_公园.shp"},"geometry":{"type":"Point","coordinates":[121.47305434582533,31.22501035878101]}},{"id":"682","type":"Feature","properties":{"name":"广场公园(音乐广场地块)","pname":"上海市","cityname":"上海市","adname":"黄浦区","address":"延安东路523号","isin_regio":"yes","wgs84_lng":"121.47330183537093","wgs84_lat":"31.2289602059483","行业大类":"风景名胜","行业子类":"公园广场","__source_file__":"19-其它/13-历史版本数据/2021.08/上海市_公园.shp"},"geometry":{"type":"Point","coordinates":[121.47330183537093,31.2289602059483]}},{"id":"649","type":"Feature","properties":{"name":"古城公园","pname":"上海市","cityname":"上海市","adname":"黄浦区","address":"人民路333号","isin_regio":"yes","wgs84_lng":"121.48938269927243","wgs84_lat":"31.23042826488673","行业大类":"风景名胜","行业子类":"公园广场","__source_file__":"19-其它/13-历史版本数据/2021.08/上海市_公园.shp"},"geometry":{"type":"Point","coordinates":[121.48938269927243,31.23042826488673]}},{"id":"623","type":"Feature","properties":{"name":"延福绿地","pname":"上海市","cityname":"上海市","adname":"黄浦区","address":"金陵东路","isin_regio":"yes","wgs84_lng":"121.47828550492447","wgs84_lat":"31.231958958500165","行业大类":"风景名胜","行业子类":"公园广场","__source_file__":"19-其它/13-历史版本数据/2021.08/上海市_公园.shp"},"geometry":{"type":"Point","coordinates":[121.47828550492447,31.231958958500165]}},{"id":"675","type":"Feature","properties":{"name":"滨江公园","pname":"上海市","cityname":"上海市","adname":"浦东新区","address":"滨江大道2967号","isin_regio":"yes","wgs84_lng":"121.4921288877601","wgs84_lat":"31.238209888775536","行业大类":"风景名胜","行业子类":"公园广场","__source_file__":"19-其它/13-历史版本数据/2021.08/上海市_公园.shp"},"geometry":{"type":"Point","coordinates":[121.4921288877601,31.238209888775536]}},{"id":"629","type":"Feature","properties":{"name":"东方明珠公园","pname":"上海市","cityname":"上海市","adname":"浦东新区","address":"滨江大道2525弄5-25号","isin_regio":"yes","wgs84_lng":"121.49569530885562","wgs84_lat":"31.243117344791358","行业大类":"风景名胜","行业子类":"公园广场","__source_file__":"19-其它/13-历史版本数据/2021.08/上海市_公园.shp"},"geometry":{"type":"Point","coordinates":[121.49569530885562,31.243117344791358]}},{"id":"631","type":"Feature","properties":{"name":"同福花园","pname":"上海市","cityname":"上海市","adname":"静安区","address":"石门一路和南京西路交叉路口西南角","isin_regio":"yes","wgs84_lng":"121.45685105270276","wgs84_lat":"31.23267143353168","行业大类":"风景名胜","行业子类":"公园广场","__source_file__":"19-其它/13-历史版本数据/2021.08/上海市_公园.shp"},"geometry":{"type":"Point","coordinates":[121.45685105270276,31.23267143353168]}},{"id":"605","type":"Feature","properties":{"name":"人民公园","pname":"上海市","cityname":"上海市","adname":"黄浦区","address":"南京西路213","isin_regio":"yes","wgs84_lng":"121.46858286687372","wgs84_lat":"31.234074852928803","行业大类":"风景名胜","行业子类":"公园广场","__source_file__":"19-其它/13-历史版本数据/2021.08/上海市_公园.shp"},"geometry":{"type":"Point","coordinates":[121.46858286687372,31.234074852928803]}},{"id":"603","type":"Feature","properties":{"name":"静安雕塑公园(暂停营业)","pname":"上海市","cityname":"上海市","adname":"静安区","address":"北京西路500号(自然博物馆地铁站1号口旁)","isin_regio":"yes","wgs84_lng":"121.4593168962631","wgs84_lat":"31.236733585303842","行业大类":"风景名胜","行业子类":"公园广场","__source_file__":"19-其它/13-历史版本数据/2021.08/上海市_公园.shp"},"geometry":{"type":"Point","coordinates":[121.4593168962631,31.236733585303842]}},{"id":"90","type":"Feature","properties":{"name":"大观园绿地","pname":"上海市","cityname":"上海市","adname":"黄浦区","address":"南京东路(新闸路地铁站6号口步行310米)","isin_regio":"yes","wgs84_lng":"121.467591200922","wgs84_lat":"31.239583658922317","行业大类":"风景名胜","行业子类":"公园广场","__source_file__":"19-其它/13-历史版本数据/2021.08/上海市_公园.shp"},"geometry":{"type":"Point","coordinates":[121.467591200922,31.239583658922317]}},{"id":"634","type":"Feature","properties":{"name":"静安区双拥公园","pname":"上海市","cityname":"上海市","adname":"静安区","address":"国庆路与晋元路交叉口西南约120米","isin_regio":"yes","wgs84_lng":"121.46465370339118","wgs84_lat":"31.241842850348604","行业大类":"风景名胜","行业子类":"公园广场","__source_file__":"19-其它/13-历史版本数据/2021.08/上海市_公园.shp"},"geometry":{"type":"Point","coordinates":[121.46465370339118,31.241842850348604]}},{"id":"648","type":"Feature","properties":{"name":"九子公园","pname":"上海市","cityname":"上海市","adname":"黄浦区","address":"成都北路1018号","isin_regio":"yes","wgs84_lng":"121.45948891557923","wgs84_lat":"31.24243141671116","行业大类":"风景名胜","行业子类":"公园广场","__source_file__":"19-其它/13-历史版本数据/2021.08/上海市_公园.shp"},"geometry":{"type":"Point","coordinates":[121.45948891557923,31.24243141671116]}},{"id":"692","type":"Feature","properties":{"name":"不夜城公园","pname":"上海市","cityname":"上海市","adname":"静安区","address":"华盛路213号(汉中路地铁站2号口步行350米)","isin_regio":"yes","wgs84_lng":"121.4564767854674","wgs84_lat":"31.246533222601467","行业大类":"风景名胜","行业子类":"公园广场","__source_file__":"19-其它/13-历史版本数据/2021.08/上海市_公园.shp"},"geometry":{"type":"Point","coordinates":[121.4564767854674,31.246533222601467]}},{"id":"509","type":"Feature","properties":{"name":"不夜城绿地","pname":"上海市","cityname":"上海市","adname":"静安区","address":"华盛路213号(汉中路地铁站1号口步行390米)","isin_regio":"yes","wgs84_lng":"121.45607964873375","wgs84_lat":"31.246568258116124","行业大类":"风景名胜","行业子类":"公园广场","__source_file__":"19-其它/13-历史版本数据/2021.08/上海市_公园.shp"},"geometry":{"type":"Point","coordinates":[121.45607964873375,31.246568258116124]}},{"id":"508","type":"Feature","properties":{"name":"交通公园","pname":"上海市","cityname":"上海市","adname":"静安区","address":"新马路262","isin_regio":"yes","wgs84_lng":"121.46288758035125","wgs84_lat":"31.249392874836207","行业大类":"风景名胜","行业子类":"公园广场","__source_file__":"19-其它/13-历史版本数据/2021.08/上海市_公园.shp"},"geometry":{"type":"Point","coordinates":[121.46288758035125,31.249392874836207]}},{"id":"479","type":"Feature","properties":{"name":"中兴公园","pname":"上海市","cityname":"上海市","adname":"静安区","address":"中华新路396号(中兴路地铁站1号口步行290米)","isin_regio":"yes","wgs84_lng":"121.46538873880725","wgs84_lat":"31.256633177466217","行业大类":"风景名胜","行业子类":"公园广场","__source_file__":"19-其它/13-历史版本数据/2021.08/上海市_公园.shp"},"geometry":{"type":"Point","coordinates":[121.46538873880725,31.256633177466217]}},{"id":"647","type":"Feature","properties":{"name":"音花园","pname":"上海市","cityname":"上海市","adname":"静安区","address":"胶州路安远路路口(长寿路地铁站5号口步行410米)","isin_regio":"yes","wgs84_lng":"121.43371475960582","wgs84_lat":"31.238876931947342","行业大类":"风景名胜","行业子类":"公园广场","__source_file__":"19-其它/13-历史版本数据/2021.08/上海市_公园.shp"},"geometry":{"type":"Point","coordinates":[121.43371475960582,31.238876931947342]}},{"id":"544","type":"Feature","properties":{"name":"蝴蝶湾花园","pname":"上海市","cityname":"上海市","adname":"静安区","address":"康定东路50号","isin_regio":"yes","wgs84_lng":"121.45207413642802","wgs84_lat":"31.23961010416834","行业大类":"风景名胜","行业子类":"公园广场","__source_file__":"19-其它/13-历史版本数据/2021.08/上海市_公园.shp"},"geometry":{"type":"Point","coordinates":[121.45207413642802,31.23961010416834]}},{"id":"638","type":"Feature","properties":{"name":"长寿健康主题公园(暂停营业)","pname":"上海市","cityname":"上海市","adname":"普陀区","address":"长寿路260号(长寿路地铁站3号口步行290米)","isin_regio":"yes","wgs84_lng":"121.43488345048364","wgs84_lat":"31.245277909035615","行业大类":"风景名胜","行业子类":"公园广场","__source_file__":"19-其它/13-历史版本数据/2021.08/上海市_公园.shp"},"geometry":{"type":"Point","coordinates":[121.43488345048364,31.245277909035615]}},{"id":"510","type":"Feature","properties":{"name":"普陀公园","pname":"上海市","cityname":"上海市","adname":"普陀区","address":"光复西路255号门卫(镇坪路地铁站2号口步行310米)","isin_regio":"yes","wgs84_lng":"121.42299465062463","wgs84_lat":"31.24655090206566","行业大类":"风景名胜","行业子类":"公园广场","__source_file__":"19-其它/13-历史版本数据/2021.08/上海市_公园.shp"},"geometry":{"type":"Point","coordinates":[121.42299465062463,31.24655090206566]}},{"id":"265","type":"Feature","properties":{"name":"梦清园人工湿地","pname":"上海市","cityname":"上海市","adname":"普陀区","address":"宜昌路66号(苏州河梦清园环保主题公园)","isin_regio":"yes","wgs84_lng":"121.43521452535418","wgs84_lat":"31.251887496747056","行业大类":"风景名胜","行业子类":"公园广场","__source_file__":"19-其它/13-历史版本数据/2021.08/上海市_公园.shp"},"geometry":{"type":"Point","coordinates":[121.43521452535418,31.251887496747056]}},{"id":"639","type":"Feature","properties":{"name":"苏州河梦清园环保主题公园","pname":"上海市","cityname":"上海市","adname":"普陀区","address":"宜昌路66号","isin_regio":"yes","wgs84_lng":"121.43583469963612","wgs84_lat":"31.25251324615018","行业大类":"风景名胜","行业子类":"公园广场","__source_file__":"19-其它/13-历史版本数据/2021.08/上海市_公园.shp"},"geometry":{"type":"Point","coordinates":[121.43583469963612,31.25251324615018]}},{"id":"641","type":"Feature","properties":{"name":"宜川公园(暂停营业)","pname":"上海市","cityname":"上海市","adname":"普陀区","address":"宜川路99号(近洛川路)","isin_regio":"yes","wgs84_lng":"121.43625871185934","wgs84_lat":"31.26217572006829","行业大类":"风景名胜","行业子类":"公园广场","__source_file__":"19-其它/13-历史版本数据/2021.08/上海市_公园.shp"},"geometry":{"type":"Point","coordinates":[121.43625871185934,31.26217572006829]}},{"id":"667","type":"Feature","properties":{"name":"沪太公园(暂停营业)","pname":"上海市","cityname":"上海市","adname":"普陀区","address":"新村路37号(近沪太路)","isin_regio":"yes","wgs84_lng":"121.4347390308198","wgs84_lat":"31.269916877032678","行业大类":"风景名胜","行业子类":"公园广场","__source_file__":"19-其它/13-历史版本数据/2021.08/上海市_公园.shp"},"geometry":{"type":"Point","coordinates":[121.4347390308198,31.269916877032678]}},{"id":"726","type":"Feature","properties":{"name":"华润苏河湾中央公园","pname":"上海市","cityname":"上海市","adname":"静安区","address":"北苏州路与福建北路交叉口西北100米","isin_regio":"yes","wgs84_lng":"121.47394576513074","wgs84_lat":"31.24333241911469","行业大类":"风景名胜","行业子类":"公园广场","__source_file__":"19-其它/13-历史版本数据/2021.08/上海市_公园.shp"},"geometry":{"type":"Point","coordinates":[121.47394576513074,31.24333241911469]}},{"id":"541","type":"Feature","properties":{"name":"最美花园","pname":"上海市","cityname":"上海市","adname":"黄浦区","address":"南苏州路76号","isin_regio":"yes","wgs84_lng":"121.48522568842495","wgs84_lat":"31.244626427125322","行业大类":"风景名胜","行业子类":"公园广场","__source_file__":"19-其它/13-历史版本数据/2021.08/上海市_公园.shp"},"geometry":{"type":"Point","coordinates":[121.48522568842495,31.244626427125322]}},{"id":"538","type":"Feature","properties":{"name":"北外滩城市花甸","pname":"上海市","cityname":"上海市","adname":"虹口区","address":"大名路与武昌路交界处","isin_regio":"yes","wgs84_lng":"121.4869154285684","wgs84_lat":"31.247669063015316","行业大类":"风景名胜","行业子类":"公园广场","__source_file__":"19-其它/13-历史版本数据/2021.08/上海市_公园.shp"},"geometry":{"type":"Point","coordinates":[121.4869154285684,31.247669063015316]}},{"id":"601","type":"Feature","properties":{"name":"北外滩滨江绿地","pname":"上海市","cityname":"上海市","adname":"虹口区","address":"东大名路558-678","isin_regio":"yes","wgs84_lng":"121.49493302414778","wgs84_lat":"31.249468206482256","行业大类":"风景名胜","行业子类":"公园广场","__source_file__":"19-其它/13-历史版本数据/2021.08/上海市_公园.shp"},"geometry":{"type":"Point","coordinates":[121.49493302414778,31.249468206482256]}},{"id":"151","type":"Feature","properties":{"name":"小憩园","pname":"上海市","cityname":"上海市","adname":"虹口区","address":"四川北路街道昆山花园路15号小憩园","isin_regio":"yes","wgs84_lng":"121.48187336759617","wgs84_lat":"31.250672868512805","行业大类":"风景名胜","行业子类":"公园广场","__source_file__":"19-其它/13-历史版本数据/2021.08/上海市_公园.shp"},"geometry":{"type":"Point","coordinates":[121.48187336759617,31.250672868512805]}},{"id":"507","type":"Feature","properties":{"name":"昆山公园(暂停营业)","pname":"上海市","cityname":"上海市","adname":"虹口区","address":"昆山花园路13号(百官街口)","isin_regio":"yes","wgs84_lng":"121.48216737294736","wgs84_lat":"31.25095760115592","行业大类":"风景名胜","行业子类":"公园广场","__source_file__":"19-其它/13-历史版本数据/2021.08/上海市_公园.shp"},"geometry":{"type":"Point","coordinates":[121.48216737294736,31.25095760115592]}},{"id":"542","type":"Feature","properties":{"name":"海宁绿地","pname":"上海市","cityname":"上海市","adname":"虹口区","address":"乍浦路(四川北路地铁站2号口步行320米)","isin_regio":"yes","wgs84_lng":"121.48066299370066","wgs84_lat":"31.252408570256712","行业大类":"风景名胜","行业子类":"公园广场","__source_file__":"19-其它/13-历史版本数据/2021.08/上海市_公园.shp"},"geometry":{"type":"Point","coordinates":[121.48066299370066,31.252408570256712]}},{"id":"482","type":"Feature","properties":{"name":"四川北路公园","pname":"上海市","cityname":"上海市","adname":"虹口区","address":"四川北路1428号(四川北路地铁站1号口步行220米)","isin_regio":"yes","wgs84_lng":"121.48031440303672","wgs84_lat":"31.25683360524212","行业大类":"风景名胜","行业子类":"公园广场","__source_file__":"19-其它/13-历史版本数据/2021.08/上海市_公园.shp"},"geometry":{"type":"Point","coordinates":[121.48031440303672,31.25683360524212]}},{"id":"506","type":"Feature","properties":{"name":"百草园","pname":"上海市","cityname":"上海市","adname":"虹口区","address":"四平路与邢家桥北路交叉口西南约80米","isin_regio":"yes","wgs84_lng":"121.48413036259845","wgs84_lat":"31.261686645640285","行业大类":"风景名胜","行业子类":"公园广场","__source_file__":"19-其它/13-历史版本数据/2021.08/上海市_公园.shp"},"geometry":{"type":"Point","coordinates":[121.48413036259845,31.261686645640285]}},{"id":"604","type":"Feature","properties":{"name":"鲁迅公园-垂钓中心","pname":"上海市","cityname":"上海市","adname":"虹口区","address":"祥德路与欧阳路交叉口西240米","isin_regio":"yes","wgs84_lng":"121.48008021025534","wgs84_lat":"31.272982963589516","行业大类":"风景名胜","行业子类":"公园广场","__source_file__":"19-其它/13-历史版本数据/2021.08/上海市_公园.shp"},"geometry":{"type":"Point","coordinates":[121.48008021025534,31.272982963589516]}},{"id":"540","type":"Feature","properties":{"name":"芷江绿地","pname":"上海市","cityname":"上海市","adname":"静安区","address":"共和新路736号近芷江西路","isin_regio":"yes","wgs84_lng":"121.45862304052756","wgs84_lat":"31.257768446415128","行业大类":"风景名胜","行业子类":"公园广场","__source_file__":"19-其它/13-历史版本数据/2021.08/上海市_公园.shp"},"geometry":{"type":"Point","coordinates":[121.45862304052756,31.257768446415128]}},{"id":"609","type":"Feature","properties":{"name":"闸北公园(暂停营业)","pname":"上海市","cityname":"上海市","adname":"静安区","address":"共和新路1555号(近洛川东路)","isin_regio":"yes","wgs84_lng":"121.45540450346816","wgs84_lat":"31.27244136646469","行业大类":"风景名胜","行业子类":"公园广场","__source_file__":"19-其它/13-历史版本数据/2021.08/上海市_公园.shp"},"geometry":{"type":"Point","coordinates":[121.45540450346816,31.27244136646469]}},{"id":"597","type":"Feature","properties":{"name":"鲁迅公园(暂停营业)","pname":"上海市","cityname":"上海市","adname":"虹口区","address":"四川北路2288号(虹口足球场地铁站1号口步行130米)","isin_regio":"yes","wgs84_lng":"121.47903753433876","wgs84_lat":"31.273709639876195","行业大类":"风景名胜","行业子类":"公园广场","__source_file__":"19-其它/13-历史版本数据/2021.08/上海市_公园.shp"},"geometry":{"type":"Point","coordinates":[121.47903753433876,31.273709639876195]}}],"name":"上海市_公园","crs":{"type":"name","properties":{"name":"urn:ogc:def:crs:OGC:1.3:CRS84"}}}