{"type":"FeatureCollection","features":[{"id":"10","type":"Feature","properties":{"gml_id":"layer_county_boundary_pg.11","Name":"浦东新区","layer":"区县","code":"310115000000","grade":3,"__source_file__":"19-其它/13-历史版本数据/2021.08/上海市_县界.shp"},"geometry":{"type":"Polygon","coordinates":[[[121.49130124,31.23497904],[121.48998439,31.23644443],[121.48997736,31.23645441],[121.48996732,31.23646337],[121.48989506,31.23654412],[121.48984788,31.23662994],[121.48984286,31.23664292],[121.48983584,31.23665389],[121.48903484,31.23814182],[121.48884404,31.23957759],[121.48890514,31.24091917],[121.4890355,31.24216299],[121.48948704,31.24305693],[121.49038115,31.24420709],[121.4936618,31.24604309],[121.49557951,31.24700031],[121.49759163340003,31.247581519778027],[121.49759164003945,31.24758102599288],[121.49731707620205,31.24490262891695],[121.49673453446849,31.24226085852577],[121.49584979036605,31.239681790302594],[121.49467160045832,31.237190878711193],[121.49321161501332,31.234812706127755],[121.49257290891562,31.233983716728826],[121.49130124,31.23497904]]]}},{"id":"1","type":"Feature","properties":{"gml_id":"layer_county_boundary_pg.2","Name":"徐汇区","layer":"区县","code":"310104000000","grade":3,"__source_file__":"19-其它/13-历史版本数据/2021.08/上海市_县界.shp"},"geometry":{"type":"Polygon","coordinates":[[[121.45013555,31.22092353],[121.45040625,31.22109705],[121.45067595,31.22126356],[121.45101383,31.22147621],[121.45109203,31.22152536],[121.45116021,31.2215685],[121.45122939,31.22160963],[121.4512705,31.22163171],[121.45131261,31.2216478],[121.45134569,31.22166087],[121.45138079,31.22166994],[121.4514249,31.22167904],[121.45158633,31.22171538],[121.45165853,31.22173253],[121.4522481,31.2218678],[121.45245666,31.22191825],[121.45298609,31.2220454],[121.45299512,31.22204942],[121.45311544,31.22210067],[121.45324883,31.22191106],[121.45375735,31.22041294],[121.4537333,31.22029694],[121.45380551,31.22014518],[121.45384788057454,31.220057085995435],[121.45322544632577,31.22016931735996],[121.4500848057972,31.220891027450254],[121.45013555,31.22092353]]]}},{"id":"0","type":"Feature","properties":{"gml_id":"layer_county_boundary_pg.1","Name":"黄浦区","layer":"区县","code":"310101000000","grade":3,"__source_file__":"19-其它/13-历史版本数据/2021.08/上海市_县界.shp"},"geometry":{"type":"Polygon","coordinates":[[[121.45380551,31.22014518],[121.4537333,31.22029694],[121.45375735,31.22041294],[121.45324883,31.22191106],[121.45311544,31.22210067],[121.45276942,31.22297846],[121.45270323,31.22306627],[121.45259794,31.22320596],[121.45254679,31.2233068],[121.45252172,31.22335672],[121.4523793,31.22363926],[121.45232314,31.22382205],[121.45230006,31.2240269],[121.452284,31.2241678],[121.45226292,31.22439964],[121.45224685,31.22479442],[121.45225083,31.22509729],[121.45225283,31.22520424],[121.45225682,31.22542715],[121.45224176,31.22561802],[121.45224076,31.22562602],[121.45223775,31.22563701],[121.45222973,31.22565898],[121.45220867,31.22567692],[121.45221568,31.22570193],[121.45219663,31.22575686],[121.4521876,31.22577183],[121.45218259,31.2258008],[121.45605433,31.22584678],[121.45854653,31.22588179],[121.4595184,31.22588019],[121.46039502,31.22581041],[121.46128972,31.2257417],[121.46191461,31.22572829],[121.46249639,31.22574577],[121.46291768,31.22579483],[121.46300493,31.22602195],[121.46309316,31.22641199],[121.46311513,31.22756051],[121.4633649,31.22761713],[121.46337292,31.22764214],[121.46307797,31.22813315],[121.46291343,31.22851655],[121.46278299,31.22891403],[121.46269569,31.2293486],[121.46262641,31.23007509],[121.46242657,31.23281231],[121.46197497,31.235316],[121.46177529,31.23623607],[121.46167997,31.2365117],[121.46157563,31.23683129],[121.46142013,31.23716674],[121.46127266,31.23742925],[121.46104694,31.23783149],[121.46023941,31.23915186],[121.45972679,31.24018511],[121.45841565,31.24331045],[121.45942362,31.24329495],[121.46041258,31.24309151],[121.46141764,31.24277118],[121.46143369,31.24276723],[121.46145074,31.24276127],[121.46174063,31.24266905],[121.46216695,31.24246023],[121.46382514,31.24139898],[121.46449323,31.2412258],[121.4650229,31.24114122],[121.46563081,31.24117581],[121.46601201,31.24125578],[121.4670894,31.24170344],[121.46768829,31.2420379],[121.46897336,31.24288398],[121.4696064,31.24316458],[121.47032774,31.24336146],[121.47108322,31.24343351],[121.47163003,31.24341602],[121.47215076,31.24337049],[121.47272368,31.24312519],[121.47440741,31.24224631],[121.47512786,31.24206243],[121.47550112,31.2420385],[121.47582221,31.2420624],[121.47607406,31.24212509],[121.47655168,31.24227438],[121.47699417,31.24250254],[121.47741157,31.24285857],[121.47849622,31.24388323],[121.47962502,31.24505696],[121.48056223,31.2456844],[121.48149144,31.24606193],[121.48248992,31.24621579],[121.48333189,31.24616628],[121.49038115,31.24420709],[121.48948704,31.24305693],[121.4890355,31.24216299],[121.48890514,31.24091917],[121.48884404,31.23957759],[121.48903484,31.23814182],[121.48983584,31.23665389],[121.48984286,31.23664292],[121.48984788,31.23662994],[121.48989506,31.23654412],[121.48996732,31.23646337],[121.48997736,31.23645441],[121.48998439,31.23644443],[121.49130124,31.23497904],[121.49257290891562,31.233983716728826],[121.49148426222861,31.232570740453905],[121.48950660518585,31.230487103791795],[121.48729817297192,31.228582354451937],[121.48488076764959,31.226875284429966],[121.48121403475672,31.224538060522995],[121.478665785768,31.223073321904213],[121.47596394886362,31.221828412381864],[121.47313411878733,31.220815121884005],[121.47020309954797,31.220043046248612],[121.4671986510073,31.21951949657703],[121.4641492265292,31.21924943018647],[121.46108370414828,31.219235403806874],[121.45999741410716,31.2192759025309],[121.45658308634171,31.21956389996637],[121.45384788057454,31.220057085995435],[121.45380551,31.22014518]]]}},{"id":"4","type":"Feature","properties":{"gml_id":"layer_county_boundary_pg.5","Name":"普陀区","layer":"区县","code":"310107000000","grade":3,"__source_file__":"19-其它/13-历史版本数据/2021.08/上海市_县界.shp"},"geometry":{"type":"Polygon","coordinates":[[[121.43423495,31.27064182],[121.43664077,31.26987113],[121.43764788,31.26950901],[121.43810786,31.26923593],[121.43834238,31.26897546],[121.44134628,31.2651106],[121.44372503,31.26197954],[121.44501926,31.26027886],[121.44520172,31.26007732],[121.44578322,31.25910293],[121.44645195,31.25813873],[121.44580041,31.25745369],[121.4455398,31.2571303],[121.44546262,31.25700419],[121.44529727,31.2564441],[121.4453404,31.25607935],[121.44534844,31.25587146],[121.44528831,31.25571241],[121.4451149,31.2556041],[121.44489739,31.25543874],[121.44485431,31.25516177],[121.44472403,31.25479667],[121.44687737,31.25387049],[121.44678118,31.25332753],[121.44669503,31.25261366],[121.44605244,31.25264432],[121.44610458,31.2524775],[121.44614781,31.25107721],[121.44602658,31.25028532],[121.44581813,31.24962518],[121.44516662,31.24871426],[121.44482784,31.24827078],[121.44401196,31.24750249],[121.4437173,31.24709509],[121.44370831,31.24676922],[121.44383865,31.24639865],[121.44415943,31.24606643],[121.4454015,31.24517433],[121.44516795,31.24490498],[121.44493942,31.24466562],[121.44478306,31.24450338],[121.44473395,31.24445131],[121.44468884,31.24440524],[121.44465576,31.24437718],[121.4446277,31.24436513],[121.44459161,31.24434907],[121.44453548,31.24432996],[121.44450741,31.24432191],[121.44330159,31.24399767],[121.44312619,31.24394935],[121.44295379,31.24390304],[121.44287561,31.24388489],[121.44281046,31.24387077],[121.44274832,31.24386166],[121.44263305,31.24384644],[121.44220408,31.2436677],[121.44191844,31.2435472],[121.4417681,31.24348495],[121.44160073,31.24341666],[121.44144438,31.24335339],[121.44135418,31.24331724],[121.44117178,31.24322094],[121.44062759,31.24289607],[121.44019867,31.24264039],[121.44004334,31.24254815],[121.43992007,31.24247396],[121.43972365,31.24235066],[121.43949317,31.24219031],[121.43924765,31.24205993],[121.43900815,31.24187558],[121.43880072,31.24171628],[121.43875062,31.24167821],[121.43857625,31.24158794],[121.43839187,31.24150365],[121.43809225,31.24137018],[121.43800707,31.24133705],[121.437974,31.241322],[121.43767439,31.24114755],[121.43746397,31.24102124],[121.43732869,31.24094304],[121.43726857,31.24090496],[121.43661326,31.24052701],[121.43567743,31.23991471],[121.43537084,31.23982125],[121.43521353,31.23975002],[121.43508729,31.23970683],[121.43492197,31.23963959],[121.43490394,31.23963057],[121.43453423,31.23945505],[121.43399722,31.2391933],[121.43397618,31.23918228],[121.43382991,31.23910908],[121.4337688,31.23907899],[121.4335564,31.2389887],[121.43350932,31.23894664],[121.43336205,31.23887744],[121.43334702,31.23886243],[121.4332769,31.23878935],[121.4332208,31.23872329],[121.43316169,31.23865523],[121.43312563,31.23861319],[121.43304549,31.23852411],[121.43289522,31.23839794],[121.432773,31.2382758],[121.43266081,31.23818067],[121.4326027,31.23817858],[121.43260671,31.23814261],[121.43259569,31.23813559],[121.43258667,31.23812858],[121.43255662,31.23810855],[121.43236528,31.2379973],[121.4321489,31.23787103],[121.43207276,31.23786092],[121.43173116,31.23763051],[121.43158591,31.23756732],[121.43141661,31.23743713],[121.43125233,31.23735092],[121.431063,31.23726768],[121.43101692,31.23725062],[121.43090673,31.23724446],[121.43088069,31.23720344],[121.43073043,31.23715724],[121.43064228,31.23713313],[121.4305421,31.23710799],[121.43039886,31.23710978],[121.42996412,31.23700521],[121.42985794,31.23699206],[121.42961352,31.23695973],[121.42931002,31.23692132],[121.42924791,31.23691424],[121.4292409,31.23691323],[121.42901553,31.23688693],[121.42886628,31.23687073],[121.42872906,31.23685954],[121.42854976,31.23686729],[121.42845861,31.23685218],[121.42841053,31.23685311],[121.42838449,31.23685308],[121.42833341,31.236858],[121.42828232,31.23686293],[121.42823425,31.23686786],[121.42820119,31.23687082],[121.42793576,31.23688945],[121.42751909,31.23692688],[121.42745499,31.23693279],[121.42716353,31.2369564],[121.42698625,31.23697816],[121.42670682,31.23699279],[121.42647546,31.2369765],[121.42637631,31.23695438],[121.42619607,31.23661031],[121.42587462,31.2361871],[121.42574407985984,31.236032371093422],[121.42488241023125,31.237328875049442],[121.4236197451339,31.239753911837933],[121.42263984931566,31.242273631908752],[121.4219521865427,31.244863757739896],[121.42156340684444,31.24749933153729],[121.42147728155989,31.250154955564412],[121.42169466605459,31.252805036785787],[121.42221349050395,31.25542403347189],[121.4230287788687,31.2579867013908],[121.42413269591728,31.260468337213158],[121.4250762245237,31.262312331058894],[121.42645565496629,31.264685114812334],[121.42809893331145,31.266930492098258],[121.42999028682037,31.269026885533062],[121.43211155526778,31.2709541479284],[121.4325267749861,31.271264048654405],[121.43423495,31.27064182]]]}},{"id":"3","type":"Feature","properties":{"gml_id":"layer_county_boundary_pg.4","Name":"静安区","layer":"区县","code":"310106000000","grade":3,"__source_file__":"19-其它/13-历史版本数据/2021.08/上海市_县界.shp"},"geometry":{"type":"Polygon","coordinates":[[[121.47741157,31.24285857],[121.47699417,31.24250254],[121.47655168,31.24227438],[121.47607406,31.24212509],[121.47582221,31.2420624],[121.47550112,31.2420385],[121.47512786,31.24206243],[121.47440741,31.24224631],[121.47272368,31.24312519],[121.47215076,31.24337049],[121.47163003,31.24341602],[121.47108322,31.24343351],[121.47032774,31.24336146],[121.4696064,31.24316458],[121.46897336,31.24288398],[121.46768829,31.2420379],[121.4670894,31.24170344],[121.46601201,31.24125578],[121.46563081,31.24117581],[121.4650229,31.24114122],[121.46449323,31.2412258],[121.46382514,31.24139898],[121.46216695,31.24246023],[121.46174063,31.24266905],[121.46145074,31.24276127],[121.46143369,31.24276723],[121.46141764,31.24277118],[121.46041258,31.24309151],[121.45942362,31.24329495],[121.45841565,31.24331045],[121.45972679,31.24018511],[121.46023941,31.23915186],[121.46104694,31.23783149],[121.46127266,31.23742925],[121.46142013,31.23716674],[121.46157563,31.23683129],[121.46167997,31.2365117],[121.46177529,31.23623607],[121.46197497,31.235316],[121.46242657,31.23281231],[121.46262641,31.23007509],[121.46269569,31.2293486],[121.46278299,31.22891403],[121.46291343,31.22851655],[121.46307797,31.22813315],[121.46337292,31.22764214],[121.4633649,31.22761713],[121.46311513,31.22756051],[121.46309316,31.22641199],[121.46300493,31.22602195],[121.46291768,31.22579483],[121.46249639,31.22574577],[121.46191461,31.22572829],[121.46128972,31.2257417],[121.46039502,31.22581041],[121.4595184,31.22588019],[121.45854653,31.22588179],[121.45605433,31.22584678],[121.45218259,31.2258008],[121.4521876,31.22577183],[121.45219663,31.22575686],[121.45221568,31.22570193],[121.45220867,31.22567692],[121.45222973,31.22565898],[121.45223775,31.22563701],[121.45224076,31.22562602],[121.45224176,31.22561802],[121.45225682,31.22542715],[121.45225283,31.22520424],[121.45225083,31.22509729],[121.45224685,31.22479442],[121.45226292,31.22439964],[121.452284,31.2241678],[121.45230006,31.2240269],[121.45232314,31.22382205],[121.4523793,31.22363926],[121.45252172,31.22335672],[121.45254679,31.2233068],[121.45259794,31.22320596],[121.45270323,31.22306627],[121.45276942,31.22297846],[121.45311544,31.22210067],[121.45299512,31.22204942],[121.45298609,31.2220454],[121.45245666,31.22191825],[121.4522481,31.2218678],[121.45165853,31.22173253],[121.45158633,31.22171538],[121.4514249,31.22167904],[121.45138079,31.22166994],[121.45134569,31.22166087],[121.45131261,31.2216478],[121.4512705,31.22163171],[121.45122939,31.22160963],[121.45116021,31.2215685],[121.45109203,31.22152536],[121.45101383,31.22147621],[121.45067595,31.22126356],[121.45040625,31.22109705],[121.45013555,31.22092353],[121.4500848057972,31.220891027450254],[121.44987632194113,31.220938936436088],[121.44729699990332,31.22163482208588],[121.44530175929886,31.222255121711427],[121.4448249527962,31.222380959544715],[121.44201488607233,31.223386771246194],[121.43933089239154,31.22462099458779],[121.43679803887224,31.22607210410547],[121.43465443577679,31.227576090732896],[121.43247887854997,31.22902447931829],[121.43023229027573,31.23084959185621],[121.42820470240456,31.232855166664738],[121.42641565907029,31.235021885085512],[121.42574407985984,31.236032371093422],[121.42587462,31.2361871],[121.42619607,31.23661031],[121.42637631,31.23695438],[121.42647546,31.2369765],[121.42670682,31.23699279],[121.42698625,31.23697816],[121.42716353,31.2369564],[121.42745499,31.23693279],[121.42751909,31.23692688],[121.42793576,31.23688945],[121.42820119,31.23687082],[121.42823425,31.23686786],[121.42828232,31.23686293],[121.42833341,31.236858],[121.42838449,31.23685308],[121.42841053,31.23685311],[121.42845861,31.23685218],[121.42854976,31.23686729],[121.42872906,31.23685954],[121.42886628,31.23687073],[121.42901553,31.23688693],[121.4292409,31.23691323],[121.42924791,31.23691424],[121.42931002,31.23692132],[121.42961352,31.23695973],[121.42985794,31.23699206],[121.42996412,31.23700521],[121.43039886,31.23710978],[121.4305421,31.23710799],[121.43064228,31.23713313],[121.43073043,31.23715724],[121.43088069,31.23720344],[121.43090673,31.23724446],[121.43101692,31.23725062],[121.431063,31.23726768],[121.43125233,31.23735092],[121.43141661,31.23743713],[121.43158591,31.23756732],[121.43173116,31.23763051],[121.43207276,31.23786092],[121.4321489,31.23787103],[121.43236528,31.2379973],[121.43255662,31.23810855],[121.43258667,31.23812858],[121.43259569,31.23813559],[121.43260671,31.23814261],[121.4326027,31.23817858],[121.43266081,31.23818067],[121.432773,31.2382758],[121.43289522,31.23839794],[121.43304549,31.23852411],[121.43312563,31.23861319],[121.43316169,31.23865523],[121.4332208,31.23872329],[121.4332769,31.23878935],[121.43334702,31.23886243],[121.43336205,31.23887744],[121.43350932,31.23894664],[121.4335564,31.2389887],[121.4337688,31.23907899],[121.43382991,31.23910908],[121.43397618,31.23918228],[121.43399722,31.2391933],[121.43453423,31.23945505],[121.43490394,31.23963057],[121.43492197,31.23963959],[121.43508729,31.23970683],[121.43521353,31.23975002],[121.43537084,31.23982125],[121.43567743,31.23991471],[121.43661326,31.24052701],[121.43726857,31.24090496],[121.43732869,31.24094304],[121.43746397,31.24102124],[121.43767439,31.24114755],[121.437974,31.241322],[121.43800707,31.24133705],[121.43809225,31.24137018],[121.43839187,31.24150365],[121.43857625,31.24158794],[121.43875062,31.24167821],[121.43880072,31.24171628],[121.43900815,31.24187558],[121.43924765,31.24205993],[121.43949317,31.24219031],[121.43972365,31.24235066],[121.43992007,31.24247396],[121.44004334,31.24254815],[121.44019867,31.24264039],[121.44062759,31.24289607],[121.44117178,31.24322094],[121.44135418,31.24331724],[121.44144438,31.24335339],[121.44160073,31.24341666],[121.4417681,31.24348495],[121.44191844,31.2435472],[121.44220408,31.2436677],[121.44263305,31.24384644],[121.44274832,31.24386166],[121.44281046,31.24387077],[121.44287561,31.24388489],[121.44295379,31.24390304],[121.44312619,31.24394935],[121.44330159,31.24399767],[121.44450741,31.24432191],[121.44453548,31.24432996],[121.44459161,31.24434907],[121.4446277,31.24436513],[121.44465576,31.24437718],[121.44468884,31.24440524],[121.44473395,31.24445131],[121.44478306,31.24450338],[121.44493942,31.24466562],[121.44516795,31.24490498],[121.4454015,31.24517433],[121.44415943,31.24606643],[121.44383865,31.24639865],[121.44370831,31.24676922],[121.4437173,31.24709509],[121.44401196,31.24750249],[121.44482784,31.24827078],[121.44516662,31.24871426],[121.44581813,31.24962518],[121.44602658,31.25028532],[121.44614781,31.25107721],[121.44610458,31.2524775],[121.44605244,31.25264432],[121.44669503,31.25261366],[121.44678118,31.25332753],[121.44687737,31.25387049],[121.44472403,31.25479667],[121.44485431,31.25516177],[121.44489739,31.25543874],[121.4451149,31.2556041],[121.44528831,31.25571241],[121.44534844,31.25587146],[121.4453404,31.25607935],[121.44529727,31.2564441],[121.44546262,31.25700419],[121.4455398,31.2571303],[121.44580041,31.25745369],[121.44645195,31.25813873],[121.44578322,31.25910293],[121.44520172,31.26007732],[121.44501926,31.26027886],[121.44372503,31.26197954],[121.44134628,31.2651106],[121.43834238,31.26897546],[121.43810786,31.26923593],[121.43764788,31.26950901],[121.43664077,31.26987113],[121.43423495,31.27064182],[121.4325267749861,31.271264048654405],[121.43444236509998,31.272693756206372],[121.43696032504036,31.274228989732933],[121.43964124126684,31.27554509134123],[121.44245935009069,31.276629409481853],[121.44538756589114,31.27747152011958],[121.44839774190646,31.27806332719107],[121.45146094135256,31.27839914064598],[121.45273825928797,31.278430843127566],[121.45571835399855,31.278836414540702],[121.45743644970075,31.278923386094],[121.45743974,31.2789166],[121.45748488,31.27882574],[121.45748889,31.27881476],[121.45751998,31.27876785],[121.45827932,31.27728432],[121.45831142,31.27724442],[121.45834954,31.27720653],[121.45839367,31.27717465],[121.4584368,31.27714877],[121.45853308,31.27710502],[121.45854211,31.27710204],[121.45862435,31.27706926],[121.45869958,31.27704346],[121.45877881,31.27701466],[121.45907168,31.27692342],[121.45928432,31.27685698],[121.45953808,31.27672966],[121.45960127,31.27668483],[121.4597417,31.27658323],[121.45988915,31.27644565],[121.46006669,31.27629216],[121.460167,31.27619845],[121.4602643,31.27609374],[121.46031746,31.27603389],[121.46044185,31.27586728],[121.46050405,31.27576647],[121.4609394,31.2752128],[121.46130254,31.27474892],[121.46152223,31.2744426],[121.4617028,31.27422215],[121.46199673,31.27386105],[121.46200274,31.27385207],[121.46207497,31.27376429],[121.46221341,31.27359372],[121.46226959,31.27352589],[121.46228062,31.27350993],[121.46235586,31.27341216],[121.46265581,31.2730151],[121.46307515,31.27245941],[121.46319453,31.27230178],[121.46325874,31.27221099],[121.46327178,31.27219203],[121.4632788,31.27218005],[121.46328282,31.27217407],[121.46328683,31.27216808],[121.46329786,31.27215211],[121.46358178,31.27173403],[121.46364197,31.27164722],[121.46366605,31.2716133],[121.46367909,31.27159434],[121.46368712,31.27158236],[121.46373527,31.27151352],[121.46373929,31.27150753],[121.46374631,31.27149855],[121.46375935,31.27148059],[121.46378443,31.27144667],[121.46435427,31.27067348],[121.46443553,31.27057474],[121.46506157,31.26971574],[121.4656585,31.2690436],[121.46589126,31.26881931],[121.46622935,31.26851734],[121.46675908,31.26805894],[121.46781053,31.26704319],[121.46840048,31.26648502],[121.46844262,31.26644615],[121.46896736,31.26594879],[121.46901452,31.26590393],[121.4690386,31.26588101],[121.46959746,31.26538374],[121.47047941,31.26464248],[121.47066604,31.26450705],[121.47092591,31.26435183],[121.47126504,31.26415185],[121.47138846,31.26409122],[121.47151087,31.2639986],[121.47172359,31.26383526],[121.47201959,31.26360318],[121.47238683,31.26330133],[121.47247915,31.26322462],[121.47298186,31.2628032],[121.47325379,31.26257606],[121.4735498,31.262325],[121.47403146,31.26189753],[121.47413381,31.26181386],[121.47411676,31.26176983],[121.47431443,31.26165544],[121.47458637,31.26141831],[121.47486734,31.26116421],[121.47509011,31.26096093],[121.47521454,31.26086532],[121.4753189,31.26078465],[121.47541925,31.26072096],[121.47542728,31.26071699],[121.47554067,31.26066133],[121.47570222,31.26059882],[121.47583969,31.26055523],[121.47599121,31.26051768],[121.47598821,31.26041671],[121.47606564,31.25846378],[121.47610384,31.25763726],[121.47606672,31.2575312],[121.47610185,31.25744833],[121.47608281,31.25719439],[121.47602162,31.25689735],[121.47596946,31.25669329],[121.47588319,31.25646514],[121.47579591,31.25626798],[121.4756404,31.25603764],[121.47538858,31.25569008],[121.47521401,31.25537672],[121.47511969,31.25533747],[121.47525115,31.25515493],[121.47527223,31.255133],[121.47527925,31.25512702],[121.47528929,31.25511705],[121.47529631,31.25511007],[121.47530133,31.25510409],[121.47531939,31.25508715],[121.47534047,31.25506322],[121.47534548,31.25503625],[121.47534749,31.25501626],[121.47535151,31.25500228],[121.47536656,31.25495834],[121.47537359,31.25494437],[121.47538764,31.25491342],[121.47540871,31.25488349],[121.47541574,31.25487452],[121.4754338,31.25485058],[121.47545788,31.25481966],[121.47547695,31.25479572],[121.47554017,31.25472294],[121.47561845,31.25464119],[121.47562447,31.25463421],[121.47562948,31.25463023],[121.47563851,31.25462226],[121.47564755,31.25461829],[121.47565557,31.25461631],[121.4756636,31.25461733],[121.47567163,31.25461935],[121.47568166,31.25462338],[121.4756937,31.25462841],[121.47570474,31.25463244],[121.47571277,31.25463446],[121.47571979,31.25463348],[121.47572481,31.2546335],[121.47572882,31.25463451],[121.47573484,31.25463853],[121.47584121,31.25450389],[121.47592551,31.25440817],[121.47593454,31.2543972],[121.4760359,31.25428154],[121.47614126,31.25416089],[121.47620449,31.2540891],[121.47625567,31.25403127],[121.47626971,31.25401632],[121.47630283,31.25397743],[121.47638412,31.2538877],[121.47642626,31.25384084],[121.47643128,31.25383486],[121.47649852,31.25375509],[121.47653766,31.25370222],[121.47658181,31.25365637],[121.47661894,31.25362549],[121.476637,31.25359056],[121.47671127,31.25349181],[121.47675041,31.25344095],[121.47678252,31.25339806],[121.47684976,31.25330429],[121.4768618,31.25327934],[121.47686682,31.25325736],[121.47686983,31.25323238],[121.47686983,31.25321739],[121.47687084,31.25320439],[121.47686984,31.25316841],[121.47700732,31.25298688],[121.47701435,31.25297691],[121.47702238,31.25296493],[121.47705349,31.25291505],[121.47715786,31.25275342],[121.47717291,31.25273047],[121.47717592,31.25272348],[121.47718094,31.2527125],[121.47718295,31.25269751],[121.47718295,31.25267852],[121.47717894,31.25267051],[121.47716991,31.2526505],[121.47669028,31.25246821],[121.47630699,31.25231418],[121.47620364,31.2522739],[121.47588356,31.25215105],[121.47581934,31.25212688],[121.47574911,31.25209969],[121.47530461,31.2519335],[121.475122,31.25184003],[121.47508588,31.25182293],[121.47508388,31.25175995],[121.47642155,31.25034138],[121.47673365,31.24990947],[121.47683803,31.24967887],[121.47727261,31.24853562],[121.47752354,31.24779967],[121.47763697,31.24732221],[121.47785387,31.24544567],[121.4779141,31.24516497],[121.47849622,31.24388323],[121.47741157,31.24285857]]]}},{"id":"5","type":"Feature","properties":{"gml_id":"layer_county_boundary_pg.6","Name":"虹口区","layer":"区县","code":"310109000000","grade":3,"__source_file__":"19-其它/13-历史版本数据/2021.08/上海市_县界.shp"},"geometry":{"type":"Polygon","coordinates":[[[121.49557951,31.24700031],[121.4936618,31.24604309],[121.49038115,31.24420709],[121.48333189,31.24616628],[121.48248992,31.24621579],[121.48149144,31.24606193],[121.48056223,31.2456844],[121.47962502,31.24505696],[121.47849622,31.24388323],[121.4779141,31.24516497],[121.47785387,31.24544567],[121.47763697,31.24732221],[121.47752354,31.24779967],[121.47727261,31.24853562],[121.47683803,31.24967887],[121.47673365,31.24990947],[121.47642155,31.25034138],[121.47508388,31.25175995],[121.47508588,31.25182293],[121.475122,31.25184003],[121.47530461,31.2519335],[121.47574911,31.25209969],[121.47581934,31.25212688],[121.47588356,31.25215105],[121.47620364,31.2522739],[121.47630699,31.25231418],[121.47669028,31.25246821],[121.47716991,31.2526505],[121.47717894,31.25267051],[121.47718295,31.25267852],[121.47718295,31.25269751],[121.47718094,31.2527125],[121.47717592,31.25272348],[121.47717291,31.25273047],[121.47715786,31.25275342],[121.47705349,31.25291505],[121.47702238,31.25296493],[121.47701435,31.25297691],[121.47700732,31.25298688],[121.47686984,31.25316841],[121.47687084,31.25320439],[121.47686983,31.25321739],[121.47686983,31.25323238],[121.47686682,31.25325736],[121.4768618,31.25327934],[121.47684976,31.25330429],[121.47678252,31.25339806],[121.47675041,31.25344095],[121.47671127,31.25349181],[121.476637,31.25359056],[121.47661894,31.25362549],[121.47658181,31.25365637],[121.47653766,31.25370222],[121.47649852,31.25375509],[121.47643128,31.25383486],[121.47642626,31.25384084],[121.47638412,31.2538877],[121.47630283,31.25397743],[121.47626971,31.25401632],[121.47625567,31.25403127],[121.47620449,31.2540891],[121.47614126,31.25416089],[121.4760359,31.25428154],[121.47593454,31.2543972],[121.47592551,31.25440817],[121.47584121,31.25450389],[121.47573484,31.25463853],[121.47572882,31.25463451],[121.47572481,31.2546335],[121.47571979,31.25463348],[121.47571277,31.25463446],[121.47570474,31.25463244],[121.4756937,31.25462841],[121.47568166,31.25462338],[121.47567163,31.25461935],[121.4756636,31.25461733],[121.47565557,31.25461631],[121.47564755,31.25461829],[121.47563851,31.25462226],[121.47562948,31.25463023],[121.47562447,31.25463421],[121.47561845,31.25464119],[121.47554017,31.25472294],[121.47547695,31.25479572],[121.47545788,31.25481966],[121.4754338,31.25485058],[121.47541574,31.25487452],[121.47540871,31.25488349],[121.47538764,31.25491342],[121.47537359,31.25494437],[121.47536656,31.25495834],[121.47535151,31.25500228],[121.47534749,31.25501626],[121.47534548,31.25503625],[121.47534047,31.25506322],[121.47531939,31.25508715],[121.47530133,31.25510409],[121.47529631,31.25511007],[121.47528929,31.25511705],[121.47527925,31.25512702],[121.47527223,31.255133],[121.47525115,31.25515493],[121.47511969,31.25533747],[121.47521401,31.25537672],[121.47538858,31.25569008],[121.4756404,31.25603764],[121.47579591,31.25626798],[121.47588319,31.25646514],[121.47596946,31.25669329],[121.47602162,31.25689735],[121.47608281,31.25719439],[121.47610185,31.25744833],[121.47606672,31.2575312],[121.47610384,31.25763726],[121.47606564,31.25846378],[121.47598821,31.26041671],[121.47599121,31.26051768],[121.47583969,31.26055523],[121.47570222,31.26059882],[121.47554067,31.26066133],[121.47542728,31.26071699],[121.47541925,31.26072096],[121.4753189,31.26078465],[121.47521454,31.26086532],[121.47509011,31.26096093],[121.47486734,31.26116421],[121.47458637,31.26141831],[121.47431443,31.26165544],[121.47411676,31.26176983],[121.47413381,31.26181386],[121.47403146,31.26189753],[121.4735498,31.262325],[121.47325379,31.26257606],[121.47298186,31.2628032],[121.47247915,31.26322462],[121.47238683,31.26330133],[121.47201959,31.26360318],[121.47172359,31.26383526],[121.47151087,31.2639986],[121.47138846,31.26409122],[121.47126504,31.26415185],[121.47092591,31.26435183],[121.47066604,31.26450705],[121.47047941,31.26464248],[121.46959746,31.26538374],[121.4690386,31.26588101],[121.46901452,31.26590393],[121.46896736,31.26594879],[121.46844262,31.26644615],[121.46840048,31.26648502],[121.46781053,31.26704319],[121.46675908,31.26805894],[121.46622935,31.26851734],[121.46589126,31.26881931],[121.4656585,31.2690436],[121.46506157,31.26971574],[121.46443553,31.27057474],[121.46435427,31.27067348],[121.46378443,31.27144667],[121.46375935,31.27148059],[121.46374631,31.27149855],[121.46373929,31.27150753],[121.46373527,31.27151352],[121.46368712,31.27158236],[121.46367909,31.27159434],[121.46366605,31.2716133],[121.46364197,31.27164722],[121.46358178,31.27173403],[121.46329786,31.27215211],[121.46328683,31.27216808],[121.46328282,31.27217407],[121.4632788,31.27218005],[121.46327178,31.27219203],[121.46325874,31.27221099],[121.46319453,31.27230178],[121.46307515,31.27245941],[121.46265581,31.2730151],[121.46235586,31.27341216],[121.46228062,31.27350993],[121.46226959,31.27352589],[121.46221341,31.27359372],[121.46207497,31.27376429],[121.46200274,31.27385207],[121.46199673,31.27386105],[121.4617028,31.27422215],[121.46152223,31.2744426],[121.46130254,31.27474892],[121.4609394,31.2752128],[121.46050405,31.27576647],[121.46044185,31.27586728],[121.46031746,31.27603389],[121.4602643,31.27609374],[121.460167,31.27619845],[121.46006669,31.27629216],[121.45988915,31.27644565],[121.4597417,31.27658323],[121.45960127,31.27668483],[121.45953808,31.27672966],[121.45928432,31.27685698],[121.45907168,31.27692342],[121.45877881,31.27701466],[121.45869958,31.27704346],[121.45862435,31.27706926],[121.45854211,31.27710204],[121.45853308,31.27710502],[121.4584368,31.27714877],[121.45839367,31.27717465],[121.45834954,31.27720653],[121.45831142,31.27724442],[121.45827932,31.27728432],[121.45751998,31.27876785],[121.45748889,31.27881476],[121.45748488,31.27882574],[121.45743974,31.2789166],[121.45743644970075,31.278923386094],[121.4588075388096,31.278992791860716],[121.4597745209531,31.2789600539246],[121.46042491756738,31.279069480360747],[121.46346656964805,31.279322109661262],[121.46652241816194,31.27932042100063],[121.46956369543403,31.279064429478048],[121.47256177113401,31.278556544172076],[121.47548842248383,31.27780154543424],[121.47831610058658,31.276806539804294],[121.48101819033857,31.275580892975483],[121.48356926145082,31.274136141448007],[121.48594530819267,31.27248588371089],[121.48812397558218,31.27064565198753],[121.49008476988105,31.268632765764472],[121.49180925140566,31.266466168495256],[121.49328120783882,31.264166249029824],[121.49448680641774,31.26175464946417],[121.4954147235775,31.259254061231182],[121.49655543230132,31.255571333216174],[121.49720895509832,31.252941840516893],[121.49755548948157,31.25026961052951],[121.49759163340003,31.247581519778027],[121.49557951,31.24700031]]]}}],"name":"上海市_县界","crs":{"type":"name","properties":{"name":"urn:ogc:def:crs:OGC:1.3:CRS84"}}}