{"type":"FeatureCollection","features":[{"id":"318","type":"Feature","properties":{"OBJECTID":1234361,"id":"4f9993ca-2172-3897-82c0-bef17cb37397","name":"上海站网络取票1-2","type":"交通设施服务;火车站;票务相关","typecode":"150209","address":"秣陵路303号上海站1F层","经度":121.455487,"纬度":31.248417,"tel":null,"pcode":310000,"pname":null,"citycode":21,"cityname":"上海市","adcode":310106,"adname":"静安区","gridcode":4621639621.0,"distance":"372","business_a":null,"timestamp":"NaT","biz_ext":"{'rating': [], 'cost': []}","行业大":"交通设施服务","行业中":"火车站","行业小":"票务相关","typecode_X":0.0,"typecode_Y":0.0,"__source_file__":"04-交通数据/2-交通设施/火车站/上海市_火车站相关.shp"},"geometry":{"type":"Point","coordinates":[121.45090809246737,31.250305675131763]}},{"id":"73","type":"Feature","properties":{"OBJECTID":890606,"id":"b866ff72-b332-3945-a9ce-a62815d5e5b6","name":"上海站第一自助售(取)票处","type":"交通设施服务;火车站;售票","typecode":"150205","address":"秣陵路303号上海站1F层","经度":121.455416,"纬度":31.248501,"tel":null,"pcode":310000,"pname":null,"citycode":21,"cityname":"上海市","adcode":310106,"adname":"静安区","gridcode":4621639621.0,"distance":"381","business_a":null,"timestamp":"NaT","biz_ext":"{\"rating\": [], \"cost\": []}","行业大":"交通设施服务","行业中":"火车站","行业小":"售票","typecode_X":0.0,"typecode_Y":0.0,"__source_file__":"04-交通数据/2-交通设施/火车站/上海市_火车站相关.shp"},"geometry":{"type":"Point","coordinates":[121.45083689637968,31.250389479772732]}},{"id":"319","type":"Feature","properties":{"OBJECTID":1234362,"id":"ea4791dc-3a5a-3b5f-a207-88db1134676c","name":"上海站(商务座VIP专用通道)","type":"交通设施服务;火车站;进站口/检票口","typecode":"150202","address":"秣陵路303号上海站1F层","经度":121.455267,"纬度":31.248518,"tel":null,"pcode":310000,"pname":null,"citycode":21,"cityname":"上海市","adcode":310106,"adname":"静安区","gridcode":4621639621.0,"distance":"257","business_a":null,"timestamp":"NaT","biz_ext":"{'rating': [], 'cost': []}","行业大":"交通设施服务","行业中":"火车站","行业小":"进站口/检票口","typecode_X":0.0,"typecode_Y":0.0,"__source_file__":"04-交通数据/2-交通设施/火车站/上海市_火车站相关.shp"},"geometry":{"type":"Point","coordinates":[121.45068749930272,31.250406141260605]}},{"id":"270","type":"Feature","properties":{"OBJECTID":1142430,"id":"ba13b0c8-6ef4-3ab8-809a-9bbcb39e1549","name":"上海站VIP商务休闲服务区","type":"交通设施服务;火车站;候车室","typecode":"150201","address":"秣陵路303号上海站1F层","经度":121.455615,"纬度":31.248558,"tel":null,"pcode":310000,"pname":null,"citycode":21,"cityname":"上海市","adcode":310106,"adname":"静安区","gridcode":4621639621.0,"distance":"363","business_a":null,"timestamp":"NaT","biz_ext":"{'rating': [], 'cost': []}","行业大":"交通设施服务","行业中":"火车站","行业小":"候车室","typecode_X":0.0,"typecode_Y":0.0,"__source_file__":"04-交通数据/2-交通设施/火车站/上海市_火车站相关.shp"},"geometry":{"type":"Point","coordinates":[121.45103642117813,31.25044689754209]}},{"id":"79","type":"Feature","properties":{"OBJECTID":943386,"id":"f04002cd-5c5c-361e-bef7-c0c2754ca6e2","name":"上海站(南进站口)","type":"交通设施服务;火车站;进站口/检票口","typecode":"150202","address":"秣陵路303号上海站1F层","经度":121.454979,"纬度":31.248568,"tel":null,"pcode":310000,"pname":null,"citycode":21,"cityname":"上海市","adcode":310106,"adname":"静安区","gridcode":4621639621.0,"distance":"423","business_a":null,"timestamp":"NaT","biz_ext":"{\"rating\": [], \"cost\": []}","行业大":"交通设施服务","行业中":"火车站","行业小":"进站口/检票口","typecode_X":0.0,"typecode_Y":0.0,"__source_file__":"04-交通数据/2-交通设施/火车站/上海市_火车站相关.shp"},"geometry":{"type":"Point","coordinates":[121.45039873281385,31.25045548141785]}},{"id":"308","type":"Feature","properties":{"OBJECTID":1209072,"id":"3f742b63-3814-3fef-8562-226d7acc0e5d","name":"上海站重点旅客候车室&商务休闲服务区","type":"交通设施服务;火车站;候车室","typecode":"150201","address":"秣陵路303号上海站1F层","经度":121.455709,"纬度":31.248666,"tel":null,"pcode":310000,"pname":null,"citycode":21,"cityname":"上海市","adcode":310106,"adname":"静安区","gridcode":4621639621.0,"distance":"357","business_a":null,"timestamp":"NaT","biz_ext":"{'rating': [], 'cost': []}","行业大":"交通设施服务","行业中":"火车站","行业小":"候车室","typecode_X":0.0,"typecode_Y":0.0,"__source_file__":"04-交通数据/2-交通设施/火车站/上海市_火车站相关.shp"},"geometry":{"type":"Point","coordinates":[121.45113066260215,31.2505550592495]}},{"id":"229","type":"Feature","properties":{"OBJECTID":1117562,"id":"a5edc227-d65a-36b3-a650-159c42857bba","name":"上海站4候车室","type":"交通设施服务;火车站;候车室","typecode":"150201","address":"秣陵路303号上海站2F层","经度":121.455653,"纬度":31.248736,"tel":null,"pcode":310000,"pname":null,"citycode":21,"cityname":"上海市","adcode":310106,"adname":"静安区","gridcode":4621639621.0,"distance":"365","business_a":null,"timestamp":"NaT","biz_ext":"{'rating': [], 'cost': []}","行业大":"交通设施服务","行业中":"火车站","行业小":"候车室","typecode_X":0.0,"typecode_Y":0.0,"__source_file__":"04-交通数据/2-交通设施/火车站/上海市_火车站相关.shp"},"geometry":{"type":"Point","coordinates":[121.45107450710982,31.250624903086724]}},{"id":"310","type":"Feature","properties":{"OBJECTID":1209074,"id":"b9faffed-286b-3be8-b880-e9b7929190d9","name":"上海站4候车室&商务座候车区","type":"交通设施服务;火车站;候车室","typecode":"150201","address":"秣陵路303号上海站2F层","经度":121.455644,"纬度":31.248746,"tel":null,"pcode":310000,"pname":null,"citycode":21,"cityname":"上海市","adcode":310106,"adname":"静安区","gridcode":4621639621.0,"distance":"366","business_a":null,"timestamp":"NaT","biz_ext":"{'rating': [], 'cost': []}","行业大":"交通设施服务","行业中":"火车站","行业小":"候车室","typecode_X":0.0,"typecode_Y":0.0,"__source_file__":"04-交通数据/2-交通设施/火车站/上海市_火车站相关.shp"},"geometry":{"type":"Point","coordinates":[121.45106548223954,31.250634878555438]}},{"id":"272","type":"Feature","properties":{"OBJECTID":1142432,"id":"fa68baff-56dd-33cb-954e-9808e1c0a187","name":"上海站1候车室","type":"交通设施服务;火车站;候车室","typecode":"150201","address":"秣陵路303号上海站2F层","经度":121.454898,"纬度":31.24891,"tel":null,"pcode":310000,"pname":null,"citycode":21,"cityname":"上海市","adcode":310106,"adname":"静安区","gridcode":4621639621.0,"distance":"439","business_a":null,"timestamp":"NaT","biz_ext":"{\"rating\": [], \"cost\": []}","行业大":"交通设施服务","行业中":"火车站","行业小":"候车室","typecode_X":0.0,"typecode_Y":0.0,"__source_file__":"04-交通数据/2-交通设施/火车站/上海市_火车站相关.shp"},"geometry":{"type":"Point","coordinates":[121.45031748945371,31.250797150407443]}},{"id":"201","type":"Feature","properties":{"OBJECTID":1028543,"id":"eefa46cf-9ab1-3713-9d4d-9912df0fc01a","name":"上海站3候车室","type":"交通设施服务;火车站;候车室","typecode":"150201","address":"秣陵路303号上海站2F层","经度":121.454834,"纬度":31.249115,"tel":null,"pcode":310000,"pname":null,"citycode":21,"cityname":"上海市","adcode":310106,"adname":"静安区","gridcode":4621639621.0,"distance":"631","business_a":null,"timestamp":"NaT","biz_ext":"{\"rating\": [], \"cost\": []}","行业大":"交通设施服务","行业中":"火车站","行业小":"候车室","typecode_X":0.0,"typecode_Y":0.0,"__source_file__":"04-交通数据/2-交通设施/火车站/上海市_火车站相关.shp"},"geometry":{"type":"Point","coordinates":[121.4502533029978,31.25100191810078]}},{"id":"72","type":"Feature","properties":{"OBJECTID":890605,"id":"15909e0e-3a8f-3b49-9f96-8c0e7790daf9","name":"上海站第二自助售票处","type":"交通设施服务;火车站;售票","typecode":"150205","address":"秣陵路303号上海站1F层","经度":121.456067,"纬度":31.248274,"tel":null,"pcode":310000,"pname":null,"citycode":21,"cityname":"上海市","adcode":310106,"adname":"静安区","gridcode":4621639621.0,"distance":"315","business_a":null,"timestamp":"NaT","biz_ext":"{'rating': [], 'cost': []}","行业大":"交通设施服务","行业中":"火车站","行业小":"售票","typecode_X":0.0,"typecode_Y":0.0,"__source_file__":"04-交通数据/2-交通设施/火车站/上海市_火车站相关.shp"},"geometry":{"type":"Point","coordinates":[121.45148965475057,31.250164035402502]}},{"id":"80","type":"Feature","properties":{"OBJECTID":943387,"id":"f5d7d92a-e89f-39a7-bf7c-828d486e0437","name":"上海站(南出站口)","type":"交通设施服务;火车站;出站口","typecode":"150203","address":"秣陵路303号上海站1F层","经度":121.45662,"纬度":31.248368,"tel":null,"pcode":310000,"pname":null,"citycode":21,"cityname":"上海市","adcode":310106,"adname":"静安区","gridcode":4621639621.0,"distance":"265","business_a":null,"timestamp":"NaT","biz_ext":"{'rating': [], 'cost': []}","行业大":"交通设施服务","行业中":"火车站","行业小":"出站口","typecode_X":0.0,"typecode_Y":0.0,"__source_file__":"04-交通数据/2-交通设施/火车站/上海市_火车站相关.shp"},"geometry":{"type":"Point","coordinates":[121.4520441366484,31.250259240026917]}},{"id":"85","type":"Feature","properties":{"OBJECTID":965687,"id":"35e659b7-0e0f-327b-8aa5-2cf51d9f77f7","name":"上海站6候车室","type":"交通设施服务;火车站;候车室","typecode":"150201","address":"秣陵路303号上海站2F层","经度":121.456011,"纬度":31.24938,"tel":null,"pcode":310000,"pname":null,"citycode":21,"cityname":"上海市","adcode":310106,"adname":"静安区","gridcode":4621639621.0,"distance":"544","business_a":null,"timestamp":"NaT","biz_ext":"{\"rating\": [], \"cost\": []}","行业大":"交通设施服务","行业中":"火车站","行业小":"候车室","typecode_X":0.0,"typecode_Y":0.0,"__source_file__":"04-交通数据/2-交通设施/火车站/上海市_火车站相关.shp"},"geometry":{"type":"Point","coordinates":[121.45143340884547,31.251269417659564]}},{"id":"88","type":"Feature","properties":{"OBJECTID":965723,"id":"8c9eaa36-9882-342a-95ba-72e4e0ffba8b","name":"上海站8候车室","type":"交通设施服务;火车站;候车室","typecode":"150201","address":"秣陵路303号上海站2F层(上海火车站地铁站8号口旁)","经度":121.456125,"纬度":31.249642,"tel":null,"pcode":310000,"pname":null,"citycode":21,"cityname":"上海市","adcode":310106,"adname":"静安区","gridcode":4621639621.0,"distance":"515","business_a":null,"timestamp":"NaT","biz_ext":"{\"rating\": [], \"cost\": []}","行业大":"交通设施服务","行业中":"火车站","行业小":"候车室","typecode_X":0.0,"typecode_Y":0.0,"__source_file__":"04-交通数据/2-交通设施/火车站/上海市_火车站相关.shp"},"geometry":{"type":"Point","coordinates":[121.45154769212375,31.251531557200124]}},{"id":"273","type":"Feature","properties":{"OBJECTID":1142433,"id":"b590eec6-a81b-3b46-9660-dbba43b068ee","name":"上海站军人候车室","type":"交通设施服务;火车站;候车室","typecode":"150201","address":"秣陵路303号上海站2F层(上海火车站地铁站8号口旁)","经度":121.456271,"纬度":31.249739,"tel":null,"pcode":310000,"pname":null,"citycode":21,"cityname":"上海市","adcode":310106,"adname":"静安区","gridcode":4621639621.0,"distance":"498","business_a":null,"timestamp":"NaT","biz_ext":"{'rating': [], 'cost': []}","行业大":"交通设施服务","行业中":"火车站","行业小":"候车室","typecode_X":0.0,"typecode_Y":0.0,"__source_file__":"04-交通数据/2-交通设施/火车站/上海市_火车站相关.shp"},"geometry":{"type":"Point","coordinates":[121.45169407629918,31.251628842522734]}},{"id":"86","type":"Feature","properties":{"OBJECTID":965696,"id":"256e79ea-a925-3cad-968c-11e2ba00a6c5","name":"上海站10候车室","type":"交通设施服务;火车站;候车室","typecode":"150201","address":"秣陵路303号上海站2F层(上海火车站地铁站8号口旁)","经度":121.456259,"纬度":31.249908,"tel":null,"pcode":310000,"pname":null,"citycode":21,"cityname":"上海市","adcode":310106,"adname":"静安区","gridcode":4621639621.0,"distance":"483","business_a":null,"timestamp":"NaT","biz_ext":"{'rating': [], 'cost': []}","行业大":"交通设施服务","行业中":"火车站","行业小":"候车室","typecode_X":0.0,"typecode_Y":0.0,"__source_file__":"04-交通数据/2-交通设施/火车站/上海市_火车站相关.shp"},"geometry":{"type":"Point","coordinates":[121.45168202938213,31.251797740475812]}},{"id":"99","type":"Feature","properties":{"OBJECTID":990093,"id":"03506203-2515-3d27-b7f7-eb658ce7c728","name":"上海站10-11站台","type":"交通设施服务;火车站;站台","typecode":"150204","address":"秣陵路303号上海站1F层(上海火车站地铁站7号口旁)","经度":121.455816,"纬度":31.250071,"tel":null,"pcode":310000,"pname":null,"citycode":21,"cityname":"上海市","adcode":310106,"adname":"静安区","gridcode":4621730601.0,"distance":"416","business_a":null,"timestamp":"NaT","biz_ext":"{\"rating\": [], \"cost\": []}","行业大":"交通设施服务","行业中":"火车站","行业小":"站台","typecode_X":0.0,"typecode_Y":0.0,"__source_file__":"04-交通数据/2-交通设施/火车站/上海市_火车站相关.shp"},"geometry":{"type":"Point","coordinates":[121.45123782691591,31.251959674023052]}},{"id":"100","type":"Feature","properties":{"OBJECTID":990094,"id":"35967278-b1e6-36b2-8a0f-ecb53aec14aa","name":"上海站12-13站台","type":"交通设施服务;火车站;站台","typecode":"150204","address":"秣陵路303号上海站1F层(上海火车站地铁站7号口旁)","经度":121.455905,"纬度":31.250237,"tel":null,"pcode":310000,"pname":null,"citycode":21,"cityname":"上海市","adcode":310106,"adname":"静安区","gridcode":4621730601.0,"distance":"421","business_a":null,"timestamp":"NaT","biz_ext":"{\"rating\": [], \"cost\": []}","行业大":"交通设施服务","行业中":"火车站","行业小":"站台","typecode_X":0.0,"typecode_Y":0.0,"__source_file__":"04-交通数据/2-交通设施/火车站/上海市_火车站相关.shp"},"geometry":{"type":"Point","coordinates":[121.4513270506822,31.25212579958207]}},{"id":"274","type":"Feature","properties":{"OBJECTID":1142434,"id":"bfd84fb6-c033-313b-b1da-bf9eb03940dc","name":"上海站(检票口1-4)","type":"交通设施服务;火车站;进站口/检票口","typecode":"150202","address":"秣陵路303号上海站2F层","经度":121.456795,"纬度":31.250453,"tel":null,"pcode":310000,"pname":null,"citycode":21,"cityname":"上海市","adcode":310106,"adname":"静安区","gridcode":4621730601.0,"distance":"377","business_a":null,"timestamp":"NaT","biz_ext":"{\"rating\": [], \"cost\": []}","行业大":"交通设施服务","行业中":"火车站","行业小":"进站口/检票口","typecode_X":0.0,"typecode_Y":0.0,"__source_file__":"04-交通数据/2-交通设施/火车站/上海市_火车站相关.shp"},"geometry":{"type":"Point","coordinates":[121.45221943031672,31.25234371007892]}},{"id":"309","type":"Feature","properties":{"OBJECTID":1209073,"id":"fdae4411-dcbd-3066-890c-08ba68d273cb","name":"上海站始发改签兼挂失补32 33","type":"交通设施服务;火车站;票务相关","typecode":"150209","address":"秣陵路303号上海站1F层(上海火车站地铁站7号口旁)","经度":121.456927,"纬度":31.250502,"tel":null,"pcode":310000,"pname":null,"citycode":21,"cityname":"上海市","adcode":310106,"adname":"静安区","gridcode":4621730601.0,"distance":"373","business_a":null,"timestamp":"NaT","biz_ext":"{\"rating\": [], \"cost\": []}","行业大":"交通设施服务","行业中":"火车站","行业小":"票务相关","typecode_X":0.0,"typecode_Y":0.0,"__source_file__":"04-交通数据/2-交通设施/火车站/上海市_火车站相关.shp"},"geometry":{"type":"Point","coordinates":[121.45235178440477,31.252392988108703]}},{"id":"220","type":"Feature","properties":{"OBJECTID":1073535,"id":"3e82b414-03d4-3a30-b997-366cbd4b1fe2","name":"上海站(西南出站口)","type":"交通设施服务;火车站;出站口","typecode":"150203","address":"秣陵路303号上海站1层","经度":121.453868,"纬度":31.249144,"tel":null,"pcode":310000,"pname":null,"citycode":21,"cityname":"上海市","adcode":310106,"adname":"静安区","gridcode":4621639620.0,"distance":"703","business_a":null,"timestamp":"NaT","biz_ext":"{\"rating\": [], \"cost\": []}","行业大":"交通设施服务","行业中":"火车站","行业小":"出站口","typecode_X":0.0,"typecode_Y":0.0,"__source_file__":"04-交通数据/2-交通设施/火车站/上海市_火车站相关.shp"},"geometry":{"type":"Point","coordinates":[121.44928477393046,31.251028791663536]}},{"id":"101","type":"Feature","properties":{"OBJECTID":990095,"id":"fb1ccd27-3327-38a9-acb2-d2209d1e1ed7","name":"上海站2-3站台","type":"交通设施服务;火车站;站台","typecode":"150204","address":"秣陵路303号上海站1F层","经度":121.455472,"纬度":31.249424,"tel":null,"pcode":310000,"pname":null,"citycode":21,"cityname":"上海市","adcode":310106,"adname":"静安区","gridcode":4621639621.0,"distance":"407","business_a":null,"timestamp":"NaT","biz_ext":"{\"rating\": [], \"cost\": []}","行业大":"交通设施服务","行业中":"火车站","行业小":"站台","typecode_X":0.0,"typecode_Y":0.0,"__source_file__":"04-交通数据/2-交通设施/火车站/上海市_火车站相关.shp"},"geometry":{"type":"Point","coordinates":[121.450892965427,31.251312193810616]}},{"id":"38","type":"Feature","properties":{"OBJECTID":798541,"id":"c1bd9c25-681b-3595-bb30-c5d20b671014","name":"上海站","type":"交通设施服务;火车站;火车站","typecode":"150200","address":"秣陵路303号","经度":121.455708,"纬度":31.249574,"tel":null,"pcode":310000,"pname":null,"citycode":21,"cityname":"上海市","adcode":310106,"adname":"静安区","gridcode":4621639621.0,"distance":"545","business_a":null,"timestamp":"NaT","biz_ext":"{\"rating\": \"5.0\", \"cost\": []}","行业大":"交通设施服务","行业中":"火车站","行业小":"火车站","typecode_X":0.0,"typecode_Y":0.0,"__source_file__":"04-交通数据/2-交通设施/火车站/上海市_火车站相关.shp"},"geometry":{"type":"Point","coordinates":[121.45112958137155,31.251462653290684]}},{"id":"102","type":"Feature","properties":{"OBJECTID":990096,"id":"134a4098-548a-34e8-8157-d3ea287405e2","name":"上海站4-5站台","type":"交通设施服务;火车站;站台","typecode":"150204","address":"秣陵路303号上海站1F层","经度":121.455558,"纬度":31.249585,"tel":null,"pcode":310000,"pname":null,"citycode":21,"cityname":"上海市","adcode":310106,"adname":"静安区","gridcode":4621639621.0,"distance":"408","business_a":null,"timestamp":"NaT","biz_ext":"{\"rating\": [], \"cost\": []}","行业大":"交通设施服务","行业中":"火车站","行业小":"站台","typecode_X":0.0,"typecode_Y":0.0,"__source_file__":"04-交通数据/2-交通设施/火车站/上海市_火车站相关.shp"},"geometry":{"type":"Point","coordinates":[121.45097918042539,31.251473313792882]}},{"id":"83","type":"Feature","properties":{"OBJECTID":965670,"id":"0216ed2d-9447-3fda-a8cc-2bd78b8fc68b","name":"上海站5候车室","type":"交通设施服务;火车站;候车室","typecode":"150201","address":"秣陵路303号上海站2F层","经度":121.455166,"纬度":31.249703,"tel":null,"pcode":310000,"pname":null,"citycode":21,"cityname":"上海市","adcode":310106,"adname":"静安区","gridcode":4621639621.0,"distance":"569","business_a":null,"timestamp":"NaT","biz_ext":"{\"rating\": [], \"cost\": []}","行业大":"交通设施服务","行业中":"火车站","行业小":"候车室","typecode_X":0.0,"typecode_Y":0.0,"__source_file__":"04-交通数据/2-交通设施/火车站/上海市_火车站相关.shp"},"geometry":{"type":"Point","coordinates":[121.45058612909658,31.251590390450712]}},{"id":"103","type":"Feature","properties":{"OBJECTID":990097,"id":"91d19413-98ce-3c7c-bfea-8cc6ecda7d6e","name":"上海站6-7站台","type":"交通设施服务;火车站;站台","typecode":"150204","address":"秣陵路303号上海站1F层","经度":121.455644,"纬度":31.249747,"tel":null,"pcode":310000,"pname":null,"citycode":21,"cityname":"上海市","adcode":310106,"adname":"静安区","gridcode":4621639621.0,"distance":"410","business_a":null,"timestamp":"NaT","biz_ext":"{\"rating\": [], \"cost\": []}","行业大":"交通设施服务","行业中":"火车站","行业小":"站台","typecode_X":0.0,"typecode_Y":0.0,"__source_file__":"04-交通数据/2-交通设施/火车站/上海市_火车站相关.shp"},"geometry":{"type":"Point","coordinates":[121.45106539562993,31.251635433600484]}},{"id":"271","type":"Feature","properties":{"OBJECTID":1142431,"id":"22d0349c-e180-314c-8c8c-706160d1af75","name":"上海站(2检票口)","type":"交通设施服务;火车站;进站口/检票口","typecode":"150202","address":"秣陵路303号上海站2F层","经度":121.455084,"纬度":31.249777,"tel":null,"pcode":310000,"pname":null,"citycode":21,"cityname":"上海市","adcode":310106,"adname":"静安区","gridcode":4621639621.0,"distance":"568","business_a":null,"timestamp":"NaT","biz_ext":"{\"rating\": [], \"cost\": []}","行业大":"交通设施服务","行业中":"火车站","行业小":"进站口/检票口","typecode_X":0.0,"typecode_Y":0.0,"__source_file__":"04-交通数据/2-交通设施/火车站/上海市_火车站相关.shp"},"geometry":{"type":"Point","coordinates":[121.45050390567886,31.251664176052245]}},{"id":"104","type":"Feature","properties":{"OBJECTID":990098,"id":"5ee3ead3-3feb-3caa-a2d1-e4579f1ddda7","name":"上海站8-9站台","type":"交通设施服务;火车站;站台","typecode":"150204","address":"秣陵路303号上海站1F层(上海火车站地铁站7号口旁)","经度":121.455732,"纬度":31.249913,"tel":null,"pcode":310000,"pname":null,"citycode":21,"cityname":"上海市","adcode":310106,"adname":"静安区","gridcode":4621639621.0,"distance":"413","business_a":null,"timestamp":"NaT","biz_ext":"{\"rating\": [], \"cost\": []}","行业大":"交通设施服务","行业中":"火车站","行业小":"站台","typecode_X":0.0,"typecode_Y":0.0,"__source_file__":"04-交通数据/2-交通设施/火车站/上海市_火车站相关.shp"},"geometry":{"type":"Point","coordinates":[121.45115361612186,31.251801556369756]}},{"id":"90","type":"Feature","properties":{"OBJECTID":965768,"id":"1d733451-3ddc-325f-855a-45b94c9bdb63","name":"上海站7候车室","type":"交通设施服务;火车站;候车室","typecode":"150201","address":"秣陵路303号上海站2F层","经度":121.455292,"纬度":31.249967,"tel":null,"pcode":310000,"pname":null,"citycode":21,"cityname":"上海市","adcode":310106,"adname":"静安区","gridcode":4621639621.0,"distance":"539","business_a":null,"timestamp":"NaT","biz_ext":"{\"rating\": [], \"cost\": []}","行业大":"交通设施服务","行业中":"火车站","行业小":"候车室","typecode_X":0.0,"typecode_Y":0.0,"__source_file__":"04-交通数据/2-交通设施/火车站/上海市_火车站相关.shp"},"geometry":{"type":"Point","coordinates":[121.45071244023246,31.251854552636143]}},{"id":"208","type":"Feature","properties":{"OBJECTID":1064747,"id":"5cde501a-2ff7-3601-84e5-7e948000de2e","name":"上海站9候车室","type":"交通设施服务;火车站;候车室","typecode":"150201","address":"秣陵路303号上海站2F层","经度":121.455466,"纬度":31.25024,"tel":null,"pcode":310000,"pname":null,"citycode":21,"cityname":"上海市","adcode":310106,"adname":"静安区","gridcode":4621730601.0,"distance":"507","business_a":null,"timestamp":"NaT","biz_ext":"{\"rating\": [], \"cost\": []}","行业大":"交通设施服务","行业中":"火车站","行业小":"候车室","typecode_X":0.0,"typecode_Y":0.0,"__source_file__":"04-交通数据/2-交通设施/火车站/上海市_火车站相关.shp"},"geometry":{"type":"Point","coordinates":[121.45088687885783,31.252127818196143]}},{"id":"230","type":"Feature","properties":{"OBJECTID":1117563,"id":"32ba525a-5303-3a8b-9ee0-631e703d805c","name":"上海站始发改签兼挂失补32","type":"交通设施服务;火车站;票务相关","typecode":"150209","address":"秣陵路303号上海站1F层","经度":121.456927,"纬度":31.250503,"tel":null,"pcode":310000,"pname":null,"citycode":21,"cityname":"上海市","adcode":310106,"adname":"静安区","gridcode":4621730601.0,"distance":"373","business_a":null,"timestamp":"NaT","biz_ext":"{\"rating\": [], \"cost\": []}","行业大":"交通设施服务","行业中":"火车站","行业小":"票务相关","typecode_X":0.0,"typecode_Y":0.0,"__source_file__":"04-交通数据/2-交通设施/火车站/上海市_火车站相关.shp"},"geometry":{"type":"Point","coordinates":[121.45235178431828,31.252393987665393]}},{"id":"92","type":"Feature","properties":{"OBJECTID":967475,"id":"3205fda1-5b01-3771-980e-36040c1d0ae1","name":"上海站12候车室","type":"交通设施服务;火车站;候车室","typecode":"150201","address":"秣陵路303号上海站2F层(上海火车站地铁站7号口旁)","经度":121.456609,"纬度":31.250546,"tel":null,"pcode":310000,"pname":null,"citycode":21,"cityname":"上海市","adcode":310106,"adname":"静安区","gridcode":4621730601.0,"distance":"257","business_a":null,"timestamp":"NaT","biz_ext":"{'rating': [], 'cost': []}","行业大":"交通设施服务","行业中":"火车站","行业小":"候车室","typecode_X":0.0,"typecode_Y":0.0,"__source_file__":"04-交通数据/2-交通设施/火车站/上海市_火车站相关.shp"},"geometry":{"type":"Point","coordinates":[121.45203291850203,31.252436247428786]}},{"id":"307","type":"Feature","properties":{"OBJECTID":1209071,"id":"4323339c-e735-3b0e-90f7-457310a2264e","name":"上海站售票窗口34-41","type":"交通设施服务;火车站;售票","typecode":"150205","address":"秣陵路303号上海站1F层(上海火车站地铁站7号口旁)","经度":121.456798,"纬度":31.250554,"tel":null,"pcode":310000,"pname":null,"citycode":21,"cityname":"上海市","adcode":310106,"adname":"静安区","gridcode":4621730601.0,"distance":"385","business_a":null,"timestamp":"NaT","biz_ext":"{\"rating\": [], \"cost\": []}","行业大":"交通设施服务","行业中":"火车站","行业小":"售票","typecode_X":0.0,"typecode_Y":0.0,"__source_file__":"04-交通数据/2-交通设施/火车站/上海市_火车站相关.shp"},"geometry":{"type":"Point","coordinates":[121.45222242971695,31.25244467211131]}},{"id":"228","type":"Feature","properties":{"OBJECTID":1117561,"id":"97f44219-cc99-3125-9f71-14595d96d097","name":"上海站售票窗口33-42","type":"交通设施服务;火车站;售票","typecode":"150205","address":"秣陵路303号上海站1F层","经度":121.456781,"纬度":31.250561,"tel":null,"pcode":310000,"pname":null,"citycode":21,"cityname":"上海市","adcode":310106,"adname":"静安区","gridcode":4621730601.0,"distance":"387","business_a":null,"timestamp":"NaT","biz_ext":"{\"rating\": [], \"cost\": []}","行业大":"交通设施服务","行业中":"火车站","行业小":"售票","typecode_X":0.0,"typecode_Y":0.0,"__source_file__":"04-交通数据/2-交通设施/火车站/上海市_火车站相关.shp"},"geometry":{"type":"Point","coordinates":[121.45220538301038,31.252451630443247]}},{"id":"317","type":"Feature","properties":{"OBJECTID":1234360,"id":"1f680e78-cda3-3b44-83ba-5fd59dd891f6","name":"上海站退票兼网络取票42","type":"交通设施服务;火车站;票务相关","typecode":"150209","address":"秣陵路303号上海站1F层(上海火车站地铁站7号口旁)","经度":121.456674,"纬度":31.250607,"tel":null,"pcode":310000,"pname":null,"citycode":21,"cityname":"上海市","adcode":310106,"adname":"静安区","gridcode":4621730601.0,"distance":"398","business_a":null,"timestamp":"NaT","biz_ext":"{'rating': [], 'cost': []}","行业大":"交通设施服务","行业中":"火车站","行业小":"票务相关","typecode_X":0.0,"typecode_Y":0.0,"__source_file__":"04-交通数据/2-交通设施/火车站/上海市_火车站相关.shp"},"geometry":{"type":"Point","coordinates":[121.45209808912205,31.25249736753517]}},{"id":"320","type":"Feature","properties":{"OBJECTID":1234363,"id":"02753a08-7f8c-3747-aeed-933d6669c56d","name":"上海站北广场铁路售票大厅","type":"交通设施服务;火车站;售票","typecode":"150205","address":"秣陵路303号上海站1F层(上海火车站地铁站7号口旁)","经度":121.456888,"纬度":31.250624,"tel":null,"pcode":310000,"pname":null,"citycode":21,"cityname":"上海市","adcode":310106,"adname":"静安区","gridcode":4621730601.0,"distance":"386","business_a":null,"timestamp":"NaT","biz_ext":"{\"rating\": [], \"cost\": []}","行业大":"交通设施服务","行业中":"火车站","行业小":"售票","typecode_X":0.0,"typecode_Y":0.0,"__source_file__":"04-交通数据/2-交通设施/火车站/上海市_火车站相关.shp"},"geometry":{"type":"Point","coordinates":[121.45231266791339,31.252514845410325]}},{"id":"68","type":"Feature","properties":{"OBJECTID":876966,"id":"53d246fc-c548-376d-930b-6a85b1ff7bdb","name":"上海站(北进站口)","type":"交通设施服务;火车站;进站口/检票口","typecode":"150202","address":"秣陵路303号上海站1F层","经度":121.456307,"纬度":31.250905,"tel":null,"pcode":310000,"pname":null,"citycode":21,"cityname":"上海市","adcode":310106,"adname":"静安区","gridcode":4621730601.0,"distance":"397","business_a":null,"timestamp":"NaT","biz_ext":"{'rating': [], 'cost': []}","行业大":"交通设施服务","行业中":"火车站","行业小":"进站口/检票口","typecode_X":0.0,"typecode_Y":0.0,"__source_file__":"04-交通数据/2-交通设施/火车站/上海市_火车站相关.shp"},"geometry":{"type":"Point","coordinates":[121.45173007235555,31.252794406507142]}},{"id":"89","type":"Feature","properties":{"OBJECTID":965731,"id":"68607e49-bb99-3ba0-ad95-eea14898bdaa","name":"上海站11候车室","type":"交通设施服务;火车站;候车室","typecode":"150201","address":"秣陵路303号上海站2F层","经度":121.455748,"纬度":31.250908,"tel":null,"pcode":310000,"pname":null,"citycode":21,"cityname":"上海市","adcode":310106,"adname":"静安区","gridcode":4621730601.0,"distance":"438","business_a":null,"timestamp":"NaT","biz_ext":"{'rating': [], 'cost': []}","行业大":"交通设施服务","行业中":"火车站","行业小":"候车室","typecode_X":0.0,"typecode_Y":0.0,"__source_file__":"04-交通数据/2-交通设施/火车站/上海市_火车站相关.shp"},"geometry":{"type":"Point","coordinates":[121.45116957276423,31.25279615094071]}},{"id":"4","type":"Feature","properties":{"OBJECTID":102343,"id":"a42dfff6-3b0b-3f15-8a45-a8edd486bae9","name":"上海站(北出站口)","type":"交通设施服务;火车站;出站口","typecode":"150203","address":"上海火车站地铁站6号口步行130米","经度":121.456,"纬度":31.251063,"tel":"[]","pcode":310000,"pname":"上海市","citycode":21,"cityname":"上海市","adcode":310106,"adname":"静安区","gridcode":4621730601.0,"distance":"478","business_a":"和田","timestamp":"2023-04-19","biz_ext":"{'rating': [], 'cost': []}","行业大":"交通设施服务","行业中":"火车站","行业小":"出站口","typecode_X":0.0,"typecode_Y":0.0,"__source_file__":"04-交通数据/2-交通设施/火车站/上海市_火车站相关.shp"},"geometry":{"type":"Point","coordinates":[121.451422233744,31.252951646448142]}}],"name":"上海市_火车站相关","crs":{"type":"name","properties":{"name":"urn:ogc:def:crs:OGC:1.3:CRS84"}}}