{"type":"FeatureCollection","features":[{"id":"61621","type":"Feature","properties":{"OBJECTID_1":61622,"OBJECTID_2":247946,"OBJECTID":16721086,"Id":16721086,"gridcode":249,"Shape_Leng":0.000879764556998,"Shape_Le_1":106.44219999,"ORIG_OID":61621,"STATUS":0,"Shape_Le_2":0.000640225620536,"Shape_Area":7.03741918042e-09,"__source_file__":"10-AI解译数据/2025.02.28/浦东新区/浦东新区_AI解析建筑.shp"},"geometry":{"type":"Polygon","coordinates":[[[121.49618912300002,31.240905487000077],[121.4961692380001,31.240919009000038],[121.4963355487247,31.241097797420903],[121.49631658177174,31.241042507913406],[121.49618912300002,31.240905487000077]]]}},{"id":"60848","type":"Feature","properties":{"OBJECTID_1":60849,"OBJECTID_2":244921,"OBJECTID":16508162,"Id":16508162,"gridcode":249,"Shape_Leng":0.000343322753679,"Shape_Le_1":41.054399997,"ORIG_OID":60848,"STATUS":0,"Shape_Le_2":0.000287243152146,"Shape_Area":4.41575100349e-09,"__source_file__":"10-AI解译数据/2025.02.28/浦东新区/浦东新区_AI解析建筑.shp"},"geometry":{"type":"Polygon","coordinates":[[[121.49617176000004,31.241603888000043],[121.49626034300002,31.241646486000036],[121.49628525500009,31.241608617000054],[121.49619667200011,31.24156601900006],[121.49617176000004,31.241603888000043]]]}},{"id":"60354","type":"Feature","properties":{"OBJECTID_1":60355,"OBJECTID_2":242626,"OBJECTID":16349949,"Id":16349949,"gridcode":249,"Shape_Leng":0.000278949737549,"Shape_Le_1":34.2936000079,"ORIG_OID":60354,"STATUS":0,"Shape_Le_2":0.000228267504264,"Shape_Area":2.20780259196e-09,"__source_file__":"10-AI解译数据/2025.02.28/浦东新区/浦东新区_AI解析建筑.shp"},"geometry":{"type":"Polygon","coordinates":[[[121.49589749200004,31.242077212000027],[121.49587404800002,31.242068837000033],[121.4958348670001,31.242149015000052],[121.495858311,31.242157389000056],[121.49589749200004,31.242077212000027]]]}},{"id":"60242","type":"Feature","properties":{"OBJECTID_1":60243,"OBJECTID_2":242118,"OBJECTID":16317282,"Id":16317282,"gridcode":249,"Shape_Leng":0.000472068786507,"Shape_Le_1":57.4122000039,"ORIG_OID":60242,"STATUS":0,"Shape_Le_2":0.000348774980592,"Shape_Area":4.96763223048e-09,"__source_file__":"10-AI解译数据/2025.02.28/浦东新区/浦东新区_AI解析建筑.shp"},"geometry":{"type":"Polygon","coordinates":[[[121.495880295,31.24219974300007],[121.49584906700011,31.242181062000043],[121.4957616690001,31.242287857000065],[121.49579289600001,31.242306538000037],[121.495880295,31.24219974300007]]]}},{"id":"60124","type":"Feature","properties":{"OBJECTID_1":60125,"OBJECTID_2":241645,"OBJECTID":16284550,"Id":16284550,"gridcode":249,"Shape_Leng":0.000321865081673,"Shape_Le_1":38.6658000052,"ORIG_OID":60124,"STATUS":0,"Shape_Le_2":0.0002492878022,"Shape_Area":2.34580776879e-09,"__source_file__":"10-AI解译数据/2025.02.28/浦东新区/浦东新区_AI解析建筑.shp"},"geometry":{"type":"Polygon","coordinates":[[[121.49563674300009,31.242349381000054],[121.49565386400002,31.242365432000042],[121.49573365300012,31.242303221000043],[121.49571653200007,31.242287170000054],[121.49563674300009,31.242349381000054]]]}},{"id":"60409","type":"Feature","properties":{"OBJECTID_1":60410,"OBJECTID_2":242842,"OBJECTID":16363445,"Id":16363445,"gridcode":249,"Shape_Leng":0.00278681302499,"Shape_Le_1":335.627521349,"ORIG_OID":60409,"STATUS":0,"Shape_Le_2":0.00243210367954,"Shape_Area":2.2657775979e-07,"__source_file__":"10-AI解译数据/2025.02.28/浦东新区/浦东新区_AI解析建筑.shp"},"geometry":{"type":"Polygon","coordinates":[[[121.49572372500006,31.242544379000037],[121.49570551700003,31.242566628000077],[121.49576797200007,31.242603990000077],[121.49574976400004,31.24262623900006],[121.49581742300006,31.242666714000052],[121.49584291400004,31.242635566000047],[121.49585852700011,31.242644906000066],[121.49589858500008,31.242595959000028],[121.49595583500002,31.242630207000047],[121.4960104590001,31.24256346100003],[121.49603127700004,31.24257591500003],[121.49624977400003,31.242308928000057],[121.49623416000009,31.242299588000037],[121.49628878500005,31.242232841000032],[121.4962315350001,31.24219859200008],[121.49629344200002,31.242122946000052],[121.49620496500006,31.24207001600007],[121.49618675700003,31.242092265000053],[121.49613471200007,31.242061130000025],[121.49612014500008,31.24207892900006],[121.49604728200006,31.24203534000003],[121.49602543200001,31.242062039000075],[121.4959577730001,31.242021563000037],[121.49591043200007,31.24207941000003],[121.49593125000001,31.24209186400003],[121.49587298400002,31.242163061000042],[121.4959198250001,31.24219108300008],[121.49579601000005,31.242342375000078],[121.49574396500009,31.24231124000005],[121.49568569900009,31.24238243700006],[121.49566488100004,31.24236998300006],[121.49561025700007,31.242436729000076],[121.49568312100007,31.242480318000048],[121.49566127100002,31.242507017000037],[121.49572372500006,31.242544379000037]]]}},{"id":"59001","type":"Feature","properties":{"OBJECTID_1":59002,"OBJECTID_2":236706,"OBJECTID":15974771,"Id":15974771,"gridcode":249,"Shape_Leng":0.00108899209857,"Shape_Le_1":130.711487059,"ORIG_OID":59001,"STATUS":0,"Shape_Le_2":0.000832945684801,"Shape_Area":3.22201335838e-08,"__source_file__":"10-AI解译数据/2025.02.28/浦东新区/浦东新区_AI解析建筑.shp"},"geometry":{"type":"Polygon","coordinates":[[[121.49649259900002,31.243390859000044],[121.49651056700009,31.24336846800003],[121.49638485900005,31.24329473100005],[121.49635970400004,31.243326078000052],[121.49630732500009,31.243295355000043],[121.496239048,31.243380440000067],[121.4963123770001,31.243423454000038],[121.49632315800011,31.243410019000066],[121.4964802930001,31.24350219100006],[121.4965449770001,31.243421583000043],[121.49649259900002,31.243390859000044]]]}},{"id":"60070","type":"Feature","properties":{"OBJECTID_1":60071,"OBJECTID_2":241421,"OBJECTID":16268996,"Id":16268996,"gridcode":249,"Shape_Leng":0.00242203259896,"Shape_Le_1":293.400739448,"ORIG_OID":60070,"STATUS":0,"Shape_Le_2":0.00209185893698,"Shape_Area":1.68483990079e-07,"__source_file__":"10-AI解译数据/2025.02.28/浦东新区/浦东新区_AI解析建筑.shp"},"geometry":{"type":"Polygon","coordinates":[[[121.49675980100005,31.242690094000068],[121.49684170001424,31.242746843905728],[121.49681609145851,31.242630711583537],[121.49675980100005,31.242690094000068]]]}},{"id":"58777","type":"Feature","properties":{"OBJECTID_1":58778,"OBJECTID_2":235756,"OBJECTID":15912568,"Id":15912568,"gridcode":249,"Shape_Leng":0.0022745132444,"Shape_Le_1":273.457599998,"ORIG_OID":58777,"STATUS":0,"Shape_Le_2":0.00168423710335,"Shape_Area":1.5247542985e-07,"__source_file__":"10-AI解译数据/2025.02.28/浦东新区/浦东新区_AI解析建筑.shp"},"geometry":{"type":"Polygon","coordinates":[[[121.49692196100011,31.243741514000078],[121.49679564500002,31.243870666000078],[121.49703929000009,31.244044853000048],[121.49711161905833,31.243970900651558],[121.4970339259218,31.24361856979546],[121.49700673200005,31.243646374000036],[121.49702622300003,31.243660310000053],[121.49693658000001,31.243751965000058],[121.49692196100011,31.243741514000078]]]}},{"id":"58604","type":"Feature","properties":{"OBJECTID_1":58605,"OBJECTID_2":235061,"OBJECTID":15866749,"Id":15866749,"gridcode":249,"Shape_Leng":0.000472068786621,"Shape_Le_1":56.60239999,"ORIG_OID":58604,"STATUS":0,"Shape_Le_2":0.000332588123233,"Shape_Area":5.5195034343e-09,"__source_file__":"10-AI解译数据/2025.02.28/浦东新区/浦东新区_AI解析建筑.shp"},"geometry":{"type":"Polygon","coordinates":[[[121.4965461600001,31.243684253000026],[121.49664261100008,31.243754945000035],[121.49667568500001,31.243721960000073],[121.49657923400002,31.243651268000065],[121.4965461600001,31.243684253000026]]]}},{"id":"58582","type":"Feature","properties":{"OBJECTID_1":58583,"OBJECTID_2":234975,"OBJECTID":15860160,"Id":15860160,"gridcode":249,"Shape_Leng":0.00102996826206,"Shape_Le_1":123.569999993,"ORIG_OID":58582,"STATUS":0,"Shape_Le_2":0.000782462712215,"Shape_Area":1.81107808666e-08,"__source_file__":"10-AI解译数据/2025.02.28/浦东新区/浦东新区_AI解析建筑.shp"},"geometry":{"type":"Polygon","coordinates":[[[121.49581790500008,31.24377488600004],[121.49592959800009,31.24368617700003],[121.49590798200006,31.24366628300004],[121.49567063500001,31.243854789000068],[121.49573548300009,31.243914473000075],[121.49586113800001,31.243814675000067],[121.49581790500008,31.24377488600004]]]}},{"id":"58445","type":"Feature","properties":{"OBJECTID_1":58446,"OBJECTID_2":234359,"OBJECTID":15817033,"Id":15817033,"gridcode":249,"Shape_Leng":0.00167101407479,"Shape_Le_1":200.074880987,"ORIG_OID":58445,"STATUS":0,"Shape_Le_2":0.00143252688943,"Shape_Area":6.2887276199e-08,"__source_file__":"10-AI解译数据/2025.02.28/浦东新区/浦东新区_AI解析建筑.shp"},"geometry":{"type":"Polygon","coordinates":[[[121.49672592600007,31.24403534700008],[121.49670570300009,31.244056284000067],[121.49685753500012,31.244163486000048],[121.49688180300006,31.24413836100007],[121.49691608800003,31.244162568000036],[121.4969403560001,31.244137443000056],[121.49697464100007,31.244161650000024],[121.49700699900006,31.24412815000005],[121.49702659000002,31.244141983000077],[121.49710344000005,31.244062421000024],[121.49706915600007,31.244038214000057],[121.49703679800007,31.24407171400003],[121.49676252000006,31.243878059000053],[121.49681914700011,31.243819435000034],[121.49679465800011,31.24380214400003],[121.49670567300006,31.243894268000076],[121.49672036700008,31.243904643000064],[121.49667991900003,31.24394651700004],[121.49671420400011,31.243970724000064],[121.49668184600012,31.244004224000037],[121.49672592600007,31.24403534700008]]]}},{"id":"57695","type":"Feature","properties":{"OBJECTID_1":57696,"OBJECTID_2":230823,"OBJECTID":15594199,"Id":15594199,"gridcode":249,"Shape_Leng":0.000772476196516,"Shape_Le_1":92.0700000077,"ORIG_OID":57695,"STATUS":0,"Shape_Le_2":0.000573196175468,"Shape_Area":1.64202352851e-08,"__source_file__":"10-AI解译数据/2025.02.28/浦东新区/浦东新区_AI解析建筑.shp"},"geometry":{"type":"Polygon","coordinates":[[[121.49718477400006,31.244667970000023],[121.49700858300002,31.244561187000045],[121.49695715500002,31.244623214000057],[121.49713334600006,31.244729997000036],[121.49718477400006,31.244667970000023]]]}},{"id":"67133","type":"Feature","properties":{"OBJECTID_1":67134,"OBJECTID_2":270559,"OBJECTID":18224035,"Id":18224035,"gridcode":249,"Shape_Leng":0.00105142593418,"Shape_Le_1":126.358599991,"ORIG_OID":67133,"STATUS":0,"Shape_Le_2":0.000780123242457,"Shape_Area":2.25626714277e-08,"__source_file__":"10-AI解译数据/2025.02.28/浦东新区/浦东新区_AI解析建筑.shp"},"geometry":{"type":"Polygon","coordinates":[[[121.49407220800003,31.236220589000027],[121.49408032018869,31.236227741351712],[121.49407467397252,31.23621854422134],[121.49407220800003,31.236220589000027]]]}},{"id":"66629","type":"Feature","properties":{"OBJECTID_1":66630,"OBJECTID_2":268428,"OBJECTID":18086143,"Id":18086143,"gridcode":249,"Shape_Leng":0.000643730164029,"Shape_Le_1":77.3295999914,"ORIG_OID":66629,"STATUS":0,"Shape_Le_2":0.000482603220165,"Shape_Area":8.2109126284e-09,"__source_file__":"10-AI解译数据/2025.02.28/浦东新区/浦东新区_AI解析建筑.shp"},"geometry":{"type":"Polygon","coordinates":[[[121.49409240500006,31.236525147000066],[121.49394590200006,31.236660825000058],[121.49397857200006,31.236686615000053],[121.49412507500006,31.23655093700006],[121.49409240500006,31.236525147000066]]]}},{"id":"66549","type":"Feature","properties":{"OBJECTID_1":66550,"OBJECTID_2":268025,"OBJECTID":18062239,"Id":18062239,"gridcode":249,"Shape_Leng":0.000834174622219,"Shape_Le_1":100.637887969,"ORIG_OID":66549,"STATUS":0,"Shape_Le_2":0.000611518879796,"Shape_Area":1.67666213495e-08,"__source_file__":"10-AI解译数据/2025.02.28/浦东新区/浦东新区_AI解析建筑.shp"},"geometry":{"type":"Polygon","coordinates":[[[121.49326555800008,31.23661786300005],[121.4931177950001,31.236767084000064],[121.49317112100005,31.23680568900005],[121.4932450020001,31.236731078000048],[121.49326924100001,31.236748626000065],[121.49334312300005,31.236674015000062],[121.49326555800008,31.23661786300005]]]}},{"id":"66417","type":"Feature","properties":{"OBJECTID_1":66418,"OBJECTID_2":267459,"OBJECTID":18023868,"Id":18023868,"gridcode":249,"Shape_Leng":0.00038623809769,"Shape_Le_1":46.6405999959,"ORIG_OID":66417,"STATUS":0,"Shape_Le_2":0.000282298831851,"Shape_Area":3.72591523149e-09,"__source_file__":"10-AI解译数据/2025.02.28/浦东新区/浦东新区_AI解析建筑.shp"},"geometry":{"type":"Polygon","coordinates":[[[121.49319828500006,31.236854400000027],[121.49327402400002,31.236781164000035],[121.49324547300012,31.236759577000043],[121.49316973400005,31.236832814000024],[121.49319828500006,31.236854400000027]]]}},{"id":"66205","type":"Feature","properties":{"OBJECTID_1":66206,"OBJECTID_2":266501,"OBJECTID":17964277,"Id":17964277,"gridcode":249,"Shape_Leng":0.000708103179932,"Shape_Le_1":84.9008000046,"ORIG_OID":66205,"STATUS":0,"Shape_Le_2":0.000520028671811,"Shape_Area":1.66976163171e-08,"__source_file__":"10-AI解译数据/2025.02.28/浦东新区/浦东新区_AI解析建筑.shp"},"geometry":{"type":"Polygon","coordinates":[[[121.49311359500007,31.23703848300005],[121.49301005000007,31.236958241000025],[121.49291620300005,31.237046774000078],[121.49301974700006,31.237127016000045],[121.49311359500007,31.23703848300005]]]}},{"id":"65993","type":"Feature","properties":{"OBJECTID_1":65994,"OBJECTID_2":265738,"OBJECTID":17911797,"Id":17911797,"gridcode":249,"Shape_Leng":0.00126332806421,"Shape_Le_1":150.841087977,"ORIG_OID":65993,"STATUS":0,"Shape_Le_2":0.000978579488352,"Shape_Area":2.19414107297e-08,"__source_file__":"10-AI解译数据/2025.02.28/浦东新区/浦东新区_AI解析建筑.shp"},"geometry":{"type":"Polygon","coordinates":[[[121.49280019100001,31.23711987300004],[121.4927224590001,31.237166987000023],[121.49274082700003,31.237189141000044],[121.49269418800009,31.23721740900004],[121.4927088820001,31.237235132000023],[121.49253787300006,31.23733878300004],[121.49255624000011,31.237360937000062],[121.49274279500003,31.23724786400004],[121.49277218300006,31.237283310000066],[121.49286027900007,31.237229915000057],[121.49287129900006,31.237243207000063],[121.49289202800003,31.237230643000032],[121.49280019100001,31.23711987300004]]]}},{"id":"65921","type":"Feature","properties":{"OBJECTID_1":65922,"OBJECTID_2":265480,"OBJECTID":17896010,"Id":17896010,"gridcode":249,"Shape_Leng":0.000407695770491,"Shape_Le_1":52.6746000051,"ORIG_OID":65921,"STATUS":0,"Shape_Le_2":0.000416452000081,"Shape_Area":2.48391149363e-09,"__source_file__":"10-AI解译数据/2025.02.28/浦东新区/浦东新区_AI解析建筑.shp"},"geometry":{"type":"Polygon","coordinates":[[[121.4938555110001,31.237187376000065],[121.49384280700008,31.237187376000065],[121.49384280700008,31.237382898000078],[121.4938555110001,31.237382898000078],[121.4938555110001,31.237187376000065]]]}},{"id":"65680","type":"Feature","properties":{"OBJECTID_1":65681,"OBJECTID_2":264367,"OBJECTID":17830120,"Id":17830120,"gridcode":249,"Shape_Leng":0.000834164861694,"Shape_Le_1":100.025397895,"ORIG_OID":65680,"STATUS":0,"Shape_Le_2":0.000614256418023,"Shape_Area":1.67664734655e-08,"__source_file__":"10-AI解译数据/2025.02.28/浦东新区/浦东新区_AI解析建筑.shp"},"geometry":{"type":"Polygon","coordinates":[[[121.4923972470001,31.237518296000076],[121.49247734800008,31.237448535000055],[121.49242748800009,31.23740668100004],[121.49226728700012,31.23754620300008],[121.49233981000009,31.23760708100008],[121.49241991100007,31.237537321000048],[121.4923972470001,31.237518296000076]]]}},{"id":"65489","type":"Feature","properties":{"OBJECTID_1":65490,"OBJECTID_2":263556,"OBJECTID":17776713,"Id":17776713,"gridcode":249,"Shape_Leng":0.000686645507358,"Shape_Le_1":82.9173999876,"ORIG_OID":65489,"STATUS":0,"Shape_Le_2":0.000489610699157,"Shape_Area":1.02461693146e-08,"__source_file__":"10-AI解译数据/2025.02.28/浦东新区/浦东新区_AI解析建筑.shp"},"geometry":{"type":"Polygon","coordinates":[[[121.49185165400002,31.23760194700003],[121.49172782100004,31.237746557000037],[121.49177394700007,31.237775433000024],[121.49189778100003,31.237630823000075],[121.49185165400002,31.23760194700003]]]}},{"id":"64940","type":"Feature","properties":{"OBJECTID_1":64941,"OBJECTID_2":261391,"OBJECTID":17631599,"Id":17631599,"gridcode":249,"Shape_Leng":0.000965595245361,"Shape_Le_1":113.565200001,"ORIG_OID":64940,"STATUS":0,"Shape_Le_2":0.000759159464801,"Shape_Area":1.15916699013e-08,"__source_file__":"10-AI解译数据/2025.02.28/浦东新区/浦东新区_AI解析建筑.shp"},"geometry":{"type":"Polygon","coordinates":[[[121.49261994200003,31.238115295000057],[121.4929371830001,31.238252874000068],[121.49295442300001,31.23822381100007],[121.49263718200007,31.238086233000047],[121.49261994200003,31.238115295000057]]]}},{"id":"65922","type":"Feature","properties":{"OBJECTID_1":65923,"OBJECTID_2":265481,"OBJECTID":17896022,"Id":17896022,"gridcode":249,"Shape_Leng":0.000901222228663,"Shape_Le_1":109.63880001,"ORIG_OID":65922,"STATUS":0,"Shape_Le_2":0.000740854651885,"Shape_Area":2.58397536134e-08,"__source_file__":"10-AI解译数据/2025.02.28/浦东新区/浦东新区_AI解析建筑.shp"},"geometry":{"type":"Polygon","coordinates":[[[121.49427319500012,31.23735434300005],[121.49429602800001,31.23736387200006],[121.49427373900005,31.237402919000033],[121.49435936600003,31.237438652000037],[121.49447638200002,31.237233656000058],[121.49443071500002,31.237214598000037],[121.49443907300008,31.23719995600004],[121.49440482300008,31.237185663000048],[121.49437696200005,31.23723447100008],[121.49434842000005,31.237222560000077],[121.49427319500012,31.23735434300005]]]}},{"id":"66008","type":"Feature","properties":{"OBJECTID_1":66009,"OBJECTID_2":265789,"OBJECTID":17915087,"Id":17915087,"gridcode":249,"Shape_Leng":0.00376850700275,"Shape_Le_1":453.77008042,"ORIG_OID":66008,"STATUS":0,"Shape_Le_2":0.00282768747519,"Shape_Area":2.99623692493e-07,"__source_file__":"10-AI解译数据/2025.02.28/浦东新区/浦东新区_AI解析建筑.shp"},"geometry":{"type":"Polygon","coordinates":[[[121.49460358600004,31.237614525000026],[121.49444170600009,31.237885350000056],[121.49442473700003,31.23787793500003],[121.49441895600012,31.23788760700006],[121.4945773290001,31.23795681200005],[121.49464092400001,31.23785041700006],[121.49471445500001,31.237882548000073],[121.49487316567985,31.237617024906676],[121.49467160045832,31.237190878711193],[121.49464770451777,31.237151954576134],[121.49458873700007,31.237126187000058],[121.49455404800005,31.237184221000064],[121.49449183000002,31.237157033000074],[121.49446292300001,31.237205395000046],[121.49450817200011,31.237225168000066],[121.49436941800002,31.23745730400003],[121.49431851300005,31.237435060000053],[121.49429249600007,31.237478585000076],[121.49460358600004,31.237614525000026]]]}},{"id":"65644","type":"Feature","properties":{"OBJECTID_1":65645,"OBJECTID_2":264228,"OBJECTID":17820983,"Id":17820983,"gridcode":249,"Shape_Leng":0.00201433682839,"Shape_Le_1":240.312321394,"ORIG_OID":65644,"STATUS":0,"Shape_Le_2":0.00152171397858,"Shape_Area":1.37857530235e-07,"__source_file__":"10-AI解译数据/2025.02.28/浦东新区/浦东新区_AI解析建筑.shp"},"geometry":{"type":"Polygon","coordinates":[[[121.49415789900002,31.23743747800006],[121.4939971340001,31.237696553000035],[121.49441236000007,31.237884921000045],[121.4945731250001,31.23762584700006],[121.49415789900002,31.23743747800006]]]}},{"id":"65306","type":"Feature","properties":{"OBJECTID_1":65307,"OBJECTID_2":262838,"OBJECTID":17727187,"Id":17727187,"gridcode":249,"Shape_Leng":0.00347078394293,"Shape_Le_1":413.867217525,"ORIG_OID":65306,"STATUS":0,"Shape_Le_2":0.00275047391227,"Shape_Area":2.19757221147e-07,"__source_file__":"10-AI解译数据/2025.02.28/浦东新区/浦东新区_AI解析建筑.shp"},"geometry":{"type":"MultiPolygon","coordinates":[[[[121.49504707100004,31.23804513300007],[121.49500491000003,31.238112080000064],[121.49513583547738,31.23817235748853],[121.49497918061869,31.237841160114662],[121.49481260400012,31.23776446900007],[121.49476140800004,31.237845762000063],[121.49483411400001,31.237879236000026],[121.49474075800003,31.23802747600007],[121.4949029490001,31.238102148000053],[121.49496317900002,31.23800650900006],[121.49504707100004,31.23804513300007]]],[[[121.49514343900012,31.23821286900005],[121.4951582149148,31.23821967176248],[121.49515003965082,31.23820238774092],[121.49514343900012,31.23821286900005]]]]}},{"id":"65151","type":"Feature","properties":{"OBJECTID_1":65152,"OBJECTID_2":262217,"OBJECTID":17686047,"Id":17686047,"gridcode":249,"Shape_Leng":0.00848383592782,"Shape_Le_1":1011.85469314,"ORIG_OID":65151,"STATUS":0,"Shape_Le_2":0.00756501230998,"Shape_Area":1.90107696244e-06,"__source_file__":"10-AI解译数据/2025.02.28/浦东新区/浦东新区_AI解析建筑.shp"},"geometry":{"type":"Polygon","coordinates":[[[121.49423369200008,31.238803333000078],[121.49413495400006,31.238973646000034],[121.49454472200011,31.239147314000036],[121.49456447000011,31.23911325100005],[121.49466691200007,31.239156668000078],[121.49464434300012,31.239195597000048],[121.49505411100006,31.23936926500005],[121.49505975300008,31.239359533000027],[121.49552643300001,31.239557321000063],[121.49554900200008,31.239518392000036],[121.49557745800007,31.239530452000054],[121.49560002700002,31.239491524000073],[121.49557157100003,31.239479464000055],[121.4956138870001,31.23940647300003],[121.49564803400006,31.239420946000052],[121.49567342400007,31.239377151000042],[121.49570188000007,31.23938921200005],[121.49570712388307,31.239380166944727],[121.49535877261822,31.238643687878152],[121.49533236800005,31.238632497000026],[121.49534399406933,31.238612443289767],[121.49529063744042,31.23849963749795],[121.4939062520001,31.237912901000072],[121.49368338600004,31.23829732300004],[121.4937744450001,31.23833591600004],[121.49375469800009,31.238369979000026],[121.49374331500007,31.238365155000054],[121.49365022000006,31.238525736000042],[121.49368436700001,31.238540208000074],[121.49365897700011,31.238584003000028],[121.493698816,31.238600887000075],[121.493679068,31.238634950000062],[121.49373028900004,31.238656658000025],[121.49371054100004,31.23869072100007],[121.49377883600005,31.238719666000065],[121.4937562670001,31.238758594000046],[121.49388147400009,31.238811660000067],[121.49391532700008,31.23875326700005],[121.49397793100002,31.23877980000003],[121.49399203600001,31.23875546900007],[121.49404325700004,31.238777178000078],[121.49406582600011,31.23873824900005],[121.49409997300006,31.238752722000072],[121.49411972100006,31.23871865900003],[121.4941709420001,31.238740368000038],[121.49415401500005,31.23876956400005],[121.49423369200008,31.238803333000078]]]}},{"id":"63007","type":"Feature","properties":{"OBJECTID_1":63008,"OBJECTID_2":253342,"OBJECTID":17087085,"Id":17087085,"gridcode":249,"Shape_Leng":0.00167369842529,"Shape_Le_1":200.493200034,"ORIG_OID":63007,"STATUS":0,"Shape_Le_2":0.00130611414502,"Shape_Area":7.82071202287e-08,"__source_file__":"10-AI解译数据/2025.02.28/浦东新区/浦东新区_AI解析建筑.shp"},"geometry":{"type":"Polygon","coordinates":[[[121.49410565800008,31.239835511000024],[121.49406069600002,31.23981526500006],[121.49396005900007,31.239978647000044],[121.49407808500007,31.240031792000025],[121.49406624500011,31.240051013000027],[121.49418427100011,31.240104159000055],[121.49419611100006,31.240084937000063],[121.49430851600005,31.240135552000027],[121.4944091530001,31.239972170000044],[121.49435857000003,31.239949394000064],[121.49437337000006,31.23992536700007],[121.49433402800003,31.239907652000056],[121.4943192290001,31.23993167800006],[121.49415062000003,31.239855757000043],[121.49416542000006,31.23983173000005],[121.49412045800011,31.23981148400003],[121.49410565800008,31.239835511000024]]]}},{"id":"62987","type":"Feature","properties":{"OBJECTID_1":62988,"OBJECTID_2":253280,"OBJECTID":17083419,"Id":17083419,"gridcode":249,"Shape_Leng":0.0015878677367,"Shape_Le_1":191.749000013,"ORIG_OID":62987,"STATUS":0,"Shape_Le_2":0.00124082921645,"Shape_Area":6.93067642738e-08,"__source_file__":"10-AI解译数据/2025.02.28/浦东新区/浦东新区_AI解析建筑.shp"},"geometry":{"type":"Polygon","coordinates":[[[121.49449275600011,31.239879743000074],[121.49432796700012,31.240149276000068],[121.49441240700003,31.24018701600005],[121.49445066200008,31.24012444600004],[121.49454636000007,31.240167217000078],[121.49472880500002,31.23986880600006],[121.49462184700008,31.239821002000042],[121.49459830600006,31.239859507000062],[121.49455890100012,31.23984189500004],[121.49452653200001,31.239894839000044],[121.49449275600011,31.239879743000074]]]}},{"id":"64693","type":"Feature","properties":{"OBJECTID_1":64694,"OBJECTID_2":260433,"OBJECTID":17563855,"Id":17563855,"gridcode":249,"Shape_Leng":0.000708103179932,"Shape_Le_1":86.1162,"ORIG_OID":64693,"STATUS":0,"Shape_Le_2":0.000539073891083,"Shape_Area":1.27644936613e-08,"__source_file__":"10-AI解译数据/2025.02.28/浦东新区/浦东新区_AI解析建筑.shp"},"geometry":{"type":"Polygon","coordinates":[[[121.4936698350001,31.238314588000037],[121.49356934900004,31.23849624500008],[121.4936267710001,31.23851946600007],[121.49372725700005,31.23833780900003],[121.4936698350001,31.238314588000037]]]}},{"id":"64183","type":"Feature","properties":{"OBJECTID_1":64184,"OBJECTID_2":258160,"OBJECTID":17409726,"Id":17409726,"gridcode":249,"Shape_Leng":0.00137061642614,"Shape_Le_1":162.786077708,"ORIG_OID":64183,"STATUS":0,"Shape_Le_2":0.00105574924159,"Shape_Area":5.74745137698e-08,"__source_file__":"10-AI解译数据/2025.02.28/浦东新区/浦东新区_AI解析建筑.shp"},"geometry":{"type":"Polygon","coordinates":[[[121.49217465100003,31.239070784000035],[121.49217987000009,31.239060881000057],[121.49223778200007,31.239083194000045],[121.49231085400004,31.23894455100003],[121.49200971100004,31.238828522000063],[121.49198622400002,31.23887308600007],[121.49195147700004,31.238859698000056],[121.49189667300004,31.23896368100003],[121.49217465100003,31.239070784000035]]]}},{"id":"64004","type":"Feature","properties":{"OBJECTID_1":64005,"OBJECTID_2":257428,"OBJECTID":17359750,"Id":17359750,"gridcode":249,"Shape_Leng":0.0012445449828,"Shape_Le_1":148.263400003,"ORIG_OID":64004,"STATUS":0,"Shape_Le_2":0.000944485535141,"Shape_Area":3.22904997127e-08,"__source_file__":"10-AI解译数据/2025.02.28/浦东新区/浦东新区_AI解析建筑.shp"},"geometry":{"type":"Polygon","coordinates":[[[121.49240028200006,31.239150641000037],[121.4924364200001,31.239093258000025],[121.49266572500005,31.239198828000042],[121.49271390900003,31.239122318000057],[121.49242867700002,31.238990999000066],[121.49234435400001,31.239124892000063],[121.49240028200006,31.239150641000037]]]}},{"id":"63841","type":"Feature","properties":{"OBJECTID_1":63842,"OBJECTID_2":256798,"OBJECTID":17315718,"Id":17315718,"gridcode":249,"Shape_Leng":0.000450611114161,"Shape_Le_1":53.4019999951,"ORIG_OID":63841,"STATUS":0,"Shape_Le_2":0.000325946305887,"Shape_Area":4.34681286995e-09,"__source_file__":"10-AI解译数据/2025.02.28/浦东新区/浦东新区_AI解析建筑.shp"},"geometry":{"type":"Polygon","coordinates":[[[121.4925541020001,31.239187610000045],[121.49243803900004,31.239131393000036],[121.4924192530001,31.23915974600004],[121.49253531700003,31.23921596300005],[121.4925541020001,31.239187610000045]]]}},{"id":"63804","type":"Feature","properties":{"OBJECTID_1":63805,"OBJECTID_2":256683,"OBJECTID":17308650,"Id":17308650,"gridcode":249,"Shape_Leng":0.000335126652653,"Shape_Le_1":40.440630943,"ORIG_OID":63804,"STATUS":0,"Shape_Le_2":0.000259624424086,"Shape_Area":2.48390199521e-09,"__source_file__":"10-AI解译数据/2025.02.28/浦东新区/浦东新区_AI解析建筑.shp"},"geometry":{"type":"Polygon","coordinates":[[[121.49165741700006,31.239227726000024],[121.49167565700009,31.23924285000004],[121.49175525600003,31.239172672000052],[121.49173701600012,31.239157548000037],[121.49165741700006,31.239227726000024]]]}},{"id":"63491","type":"Feature","properties":{"OBJECTID_1":63492,"OBJECTID_2":255305,"OBJECTID":17220000,"Id":17220000,"gridcode":249,"Shape_Leng":0.000278949737663,"Shape_Le_1":34.2929999977,"ORIG_OID":63491,"STATUS":0,"Shape_Le_2":0.000240254623325,"Shape_Area":2.34588752702e-09,"__source_file__":"10-AI解译数据/2025.02.28/浦东新区/浦东新区_AI解析建筑.shp"},"geometry":{"type":"Polygon","coordinates":[[[121.49271751200001,31.23942747800004],[121.49269451000009,31.23941825000003],[121.49264864000008,31.239501834000066],[121.49267164200012,31.239511062000076],[121.49271751200001,31.23942747800004]]]}},{"id":"63607","type":"Feature","properties":{"OBJECTID_1":63608,"OBJECTID_2":255832,"OBJECTID":17252647,"Id":17252647,"gridcode":249,"Shape_Leng":0.00189830707466,"Shape_Le_1":227.753718971,"ORIG_OID":63607,"STATUS":0,"Shape_Le_2":0.00148775615748,"Shape_Area":7.76902763966e-08,"__source_file__":"10-AI解译数据/2025.02.28/浦东新区/浦东新区_AI解析建筑.shp"},"geometry":{"type":"Polygon","coordinates":[[[121.49320078800008,31.239386336000052],[121.49316706600007,31.239371151000057],[121.49305163000008,31.239558561000024],[121.49319775700008,31.23962436000005],[121.49330727400002,31.23944656200007],[121.49351522400002,31.239540199000032],[121.49359218100005,31.239415259000054],[121.4933673700001,31.23931402900007],[121.4933496110001,31.239342862000058],[121.4933215100001,31.23933020800007],[121.49330375000011,31.239359040000068],[121.49326440800007,31.239341325000055],[121.49324664900007,31.239370157000053],[121.49321854700008,31.239357504000054],[121.49320078800008,31.239386336000052]]]}},{"id":"63433","type":"Feature","properties":{"OBJECTID_1":63434,"OBJECTID_2":255045,"OBJECTID":17201900,"Id":17201900,"gridcode":249,"Shape_Leng":0.00196874689504,"Shape_Le_1":236.132609365,"ORIG_OID":63433,"STATUS":0,"Shape_Le_2":0.00148772865911,"Shape_Area":1.07323739818e-07,"__source_file__":"10-AI解译数据/2025.02.28/浦东新区/浦东新区_AI解析建筑.shp"},"geometry":{"type":"Polygon","coordinates":[[[121.4931473690001,31.239746377000074],[121.49327121400006,31.23980172800003],[121.49328887000001,31.239772850000065],[121.49336768100011,31.239808073000063],[121.49335002500004,31.239836952000076],[121.49347387000012,31.239892303000033],[121.49353566600007,31.23979122800006],[121.49350189000006,31.239776133000078],[121.49354602900007,31.23970393600007],[121.49357417600004,31.239716516000044],[121.4936359720001,31.23961544100007],[121.49331510000002,31.23947203000006],[121.4931473690001,31.239746377000074]]]}},{"id":"63355","type":"Feature","properties":{"OBJECTID_1":63356,"OBJECTID_2":254716,"OBJECTID":17180223,"Id":17180223,"gridcode":249,"Shape_Leng":0.00171393917925,"Shape_Le_1":209.511677713,"ORIG_OID":63355,"STATUS":0,"Shape_Le_2":0.00138779000761,"Shape_Area":8.84533365668e-08,"__source_file__":"10-AI解译数据/2025.02.28/浦东新区/浦东新区_AI解析建筑.shp"},"geometry":{"type":"Polygon","coordinates":[[[121.49409624500004,31.239641868000035],[121.49406252400001,31.23962668400003],[121.49408620300005,31.239588241000035],[121.49397379700008,31.23953762600007],[121.49371332600003,31.239960498000073],[121.49380887000007,31.240003520000073],[121.49382663000006,31.239974688000075],[121.49391093400004,31.24001264900005],[121.49409740800002,31.239709912000023],[121.49406368600012,31.23969472700003],[121.49409624500004,31.239641868000035]]]}},{"id":"63147","type":"Feature","properties":{"OBJECTID_1":63148,"OBJECTID_2":253877,"OBJECTID":17123453,"Id":17123453,"gridcode":249,"Shape_Leng":0.00381679104681,"Shape_Le_1":456.968277688,"ORIG_OID":63147,"STATUS":0,"Shape_Le_2":0.00359678656947,"Shape_Area":5.12985721377e-07,"__source_file__":"10-AI解译数据/2025.02.28/浦东新区/浦东新区_AI解析建筑.shp"},"geometry":{"type":"Polygon","coordinates":[[[121.49229569600004,31.239972558000034],[121.49229528700005,31.23993454200007],[121.4922254170001,31.239935092000053],[121.49222494900005,31.239891646000046],[121.4920725070001,31.239892845000043],[121.49207203900005,31.239849399000036],[121.49198946600006,31.23985004900004],[121.49198899800001,31.239806603000034],[121.49191277700004,31.239807202000065],[121.49191242600011,31.23977461800007],[121.49176633500008,31.239775767000026],[121.4917660430001,31.239748613000074],[121.4917215800001,31.239748963000068],[121.49172128800001,31.23972180900006],[121.49164506700004,31.239722409000024],[121.49164559300004,31.239771286000064],[121.49161383400008,31.239771536000035],[121.4916144770001,31.23983127500003],[121.4916589400001,31.239830925000035],[121.49165999200011,31.23992867900006],[121.49155836300008,31.239929479000068],[121.49156362500003,31.240418249000072],[121.49172877100011,31.240416949000064],[121.4917297070001,31.240503841000077],[121.49193296400006,31.240502242000048],[121.49193255400007,31.240464227000075],[121.49214851500005,31.240462527000034],[121.49214804700011,31.240419081000027],[121.49230049000005,31.24041788100004],[121.49230002200011,31.240374435000035],[121.49236354000004,31.240373935000036],[121.49236278000001,31.24030333500008],[121.4924008910001,31.240303036000057],[121.49240048100012,31.240265020000038],[121.4924385920001,31.240264720000027],[121.49243789100001,31.240199551000046],[121.49248235300001,31.240199201000053],[121.4924815930001,31.240128601000038],[121.49253240700011,31.24012820100006],[121.49253158900001,31.24005217000007],[121.49244901600002,31.240052820000074],[121.49244854800008,31.240009374000067],[121.4923659750001,31.240010023000025],[121.4923655660001,31.239972008000052],[121.49229569600004,31.239972558000034]]]}},{"id":"62662","type":"Feature","properties":{"OBJECTID_1":62663,"OBJECTID_2":252016,"OBJECTID":16999415,"Id":16999415,"gridcode":249,"Shape_Leng":0.000987052917594,"Shape_Le_1":118.790400028,"ORIG_OID":62662,"STATUS":0,"Shape_Le_2":0.000870027315703,"Shape_Area":3.62230326731e-08,"__source_file__":"10-AI解译数据/2025.02.28/浦东新区/浦东新区_AI解析建筑.shp"},"geometry":{"type":"Polygon","coordinates":[[[121.49469551600009,31.240274500000055],[121.4947315930001,31.24028500600008],[121.49474183300003,31.240259301000037],[121.49491620600008,31.24031008000003],[121.49494078100008,31.240248388000055],[121.49491071700004,31.240239633000044],[121.49495577200003,31.240126531000044],[121.49479342400002,31.24007925400008],[121.49475246500003,31.240182074000074],[121.49473442700003,31.240176821000034],[121.49469551600009,31.240274500000055]]]}},{"id":"62258","type":"Feature","properties":{"OBJECTID_1":62259,"OBJECTID_2":250541,"OBJECTID":16899404,"Id":16899404,"gridcode":249,"Shape_Leng":0.00139474868752,"Shape_Le_1":165.79519999,"ORIG_OID":62258,"STATUS":0,"Shape_Le_2":0.00116792637799,"Shape_Area":5.12983682532e-08,"__source_file__":"10-AI解译数据/2025.02.28/浦东新区/浦东新区_AI解析建筑.shp"},"geometry":{"type":"Polygon","coordinates":[[[121.49488608600007,31.240408888000047],[121.49482834900004,31.240375242000027],[121.49479972900008,31.240411144000063],[121.49473149500011,31.240371380000056],[121.49471718500001,31.240389331000074],[121.49464895000006,31.240349568000056],[121.49461317500004,31.24039444500005],[121.49470240500011,31.240446444000042],[121.49461296900006,31.24055863700005],[121.49475468700007,31.24064122300007],[121.4948584340001,31.240511078000054],[121.49487418000001,31.240520254000046],[121.49495646200012,31.240417036000053],[121.49490397400007,31.240386449000027],[121.49488608600007,31.240408888000047]]]}},{"id":"61620","type":"Feature","properties":{"OBJECTID_1":61621,"OBJECTID_2":247945,"OBJECTID":16721056,"Id":16721056,"gridcode":249,"Shape_Leng":0.000321865081673,"Shape_Le_1":38.6656000018,"ORIG_OID":61620,"STATUS":0,"Shape_Le_2":0.000261370425916,"Shape_Area":3.86374137719e-09,"__source_file__":"10-AI解译数据/2025.02.28/浦东新区/浦东新区_AI解析建筑.shp"},"geometry":{"type":"Polygon","coordinates":[[[121.49519808900004,31.24091112600007],[121.49516707100008,31.24094554100003],[121.49523751200002,31.24099195000008],[121.49526853000009,31.240957535000064],[121.49519808900004,31.24091112600007]]]}},{"id":"61258","type":"Feature","properties":{"OBJECTID_1":61259,"OBJECTID_2":246546,"OBJECTID":16625304,"Id":16625304,"gridcode":249,"Shape_Leng":0.00193119049061,"Shape_Le_1":229.96859999,"ORIG_OID":61258,"STATUS":0,"Shape_Le_2":0.00168819153693,"Shape_Area":8.47259782969e-08,"__source_file__":"10-AI解译数据/2025.02.28/浦东新区/浦东新区_AI解析建筑.shp"},"geometry":{"type":"Polygon","coordinates":[[[121.49455618600007,31.241414723000048],[121.49453573700009,31.241393945000027],[121.49475931500001,31.241233101000034],[121.49471432900009,31.24118739000005],[121.49464628300007,31.241236342000036],[121.49460947700004,31.24119894200004],[121.49456573300006,31.24123041200005],[121.49454937500002,31.241213789000028],[121.49421886900006,31.24145155900004],[121.49421069000005,31.241443248000053],[121.49417666700003,31.241467724000074],[121.494217563,31.24150928000006],[121.4942613070001,31.24147781000005],[121.49429811400012,31.241515210000045],[121.49427381200007,31.241532693000067],[121.49432697700001,31.24158671600003],[121.49436100000003,31.241562240000064],[121.49438962700003,31.241591329000073],[121.49443823100012,31.24155636300003],[121.49442596200004,31.241543896000053],[121.49451344900001,31.24148095700008],[121.49449300100002,31.241460179000057],[121.49455618600007,31.241414723000048]]]}},{"id":"60761","type":"Feature","properties":{"OBJECTID_1":60762,"OBJECTID_2":244492,"OBJECTID":16474697,"Id":16474697,"gridcode":249,"Shape_Leng":0.00100582623978,"Shape_Le_1":119.947139433,"ORIG_OID":60761,"STATUS":0,"Shape_Le_2":0.00090282010446,"Shape_Area":4.31907673613e-08,"__source_file__":"10-AI解译数据/2025.02.28/浦东新区/浦东新区_AI解析建筑.shp"},"geometry":{"type":"Polygon","coordinates":[[[121.49418583800002,31.241708715000073],[121.49409751300004,31.241699871000037],[121.49407756400001,31.241845510000076],[121.49434253900006,31.241872042000068],[121.49436322700001,31.24172100900006],[121.49428121100004,31.24171279600006],[121.49428564400012,31.241680432000067],[121.49419101000001,31.241670956000064],[121.49418583800002,31.241708715000073]]]}},{"id":"60701","type":"Feature","properties":{"OBJECTID_1":60702,"OBJECTID_2":244173,"OBJECTID":16454146,"Id":16454146,"gridcode":249,"Shape_Leng":0.00118017196655,"Shape_Le_1":141.504800007,"ORIG_OID":60701,"STATUS":0,"Shape_Le_2":0.00107501199989,"Shape_Area":6.45790831756e-08,"__source_file__":"10-AI解译数据/2025.02.28/浦东新区/浦东新区_AI解析建筑.shp"},"geometry":{"type":"Polygon","coordinates":[[[121.4951212850001,31.241795483000033],[121.49507682100011,31.241795483000033],[121.49507682100011,31.24194754800004],[121.4951212850001,31.24194754800004],[121.4951212850001,31.241990995000037],[121.4953372550001,31.241990995000037],[121.4953372550001,31.241952979000075],[121.49537536700007,31.241952979000075],[121.49537536700007,31.241790052000056],[121.4953372550001,31.241790052000056],[121.4953372550001,31.241752035000047],[121.4951212850001,31.241752035000047],[121.4951212850001,31.241795483000033]]]}},{"id":"60369","type":"Feature","properties":{"OBJECTID_1":60370,"OBJECTID_2":242683,"OBJECTID":16353354,"Id":16353354,"gridcode":249,"Shape_Leng":0.000407695770491,"Shape_Le_1":49.841200009,"ORIG_OID":60369,"STATUS":0,"Shape_Le_2":0.000343720415956,"Shape_Area":4.96762023692e-09,"__source_file__":"10-AI解译数据/2025.02.28/浦东新区/浦东新区_AI解析建筑.shp"},"geometry":{"type":"Polygon","coordinates":[[[121.4945601390001,31.242051745000026],[121.49452573600001,31.242065767000042],[121.49459133900007,31.24218342300003],[121.49462574200004,31.24216940000008],[121.4945601390001,31.242051745000026]]]}},{"id":"60297","type":"Feature","properties":{"OBJECTID_1":60298,"OBJECTID_2":242387,"OBJECTID":16333608,"Id":16333608,"gridcode":249,"Shape_Leng":0.000592618717433,"Shape_Le_1":71.6048584444,"ORIG_OID":60297,"STATUS":0,"Shape_Le_2":0.000456615036491,"Shape_Area":1.00042620911e-08,"__source_file__":"10-AI解译数据/2025.02.28/浦东新区/浦东新区_AI解析建筑.shp"},"geometry":{"type":"Polygon","coordinates":[[[121.49446365400001,31.24224347200004],[121.49435032200006,31.242119310000078],[121.49430024600008,31.24215272300006],[121.49441357700005,31.242276884000034],[121.49446365400001,31.24224347200004]]]}},{"id":"60166","type":"Feature","properties":{"OBJECTID_1":60167,"OBJECTID_2":241833,"OBJECTID":16297208,"Id":16297208,"gridcode":249,"Shape_Leng":0.00111579894974,"Shape_Le_1":134.744200006,"ORIG_OID":60166,"STATUS":0,"Shape_Le_2":0.000807408786693,"Shape_Area":1.68346673643e-08,"__source_file__":"10-AI解译数据/2025.02.28/浦东新区/浦东新区_AI解析建筑.shp"},"geometry":{"type":"Polygon","coordinates":[[[121.49419909200003,31.242270457000075],[121.49444946900007,31.242523289000076],[121.49448825200011,31.242495215000076],[121.49423787500007,31.242242383000075],[121.49419909200003,31.242270457000075]]]}},{"id":"59950","type":"Feature","properties":{"OBJECTID_1":59951,"OBJECTID_2":240974,"OBJECTID":16239746,"Id":16239746,"gridcode":249,"Shape_Leng":0.00135183334305,"Shape_Le_1":156.968199998,"ORIG_OID":59950,"STATUS":0,"Shape_Le_2":0.00121657231374,"Shape_Area":3.36347995593e-08,"__source_file__":"10-AI解译数据/2025.02.28/浦东新区/浦东新区_AI解析建筑.shp"},"geometry":{"type":"Polygon","coordinates":[[[121.49489139400009,31.24252539300005],[121.49498001800009,31.242531684000028],[121.49498159500001,31.242515447000073],[121.49504489800006,31.24251994100007],[121.49504069300008,31.24256323900005],[121.49533188500004,31.242583909000075],[121.4953392430001,31.242508137000073],[121.4949910790001,31.242483423000067],[121.49499370600006,31.24245636200004],[121.49485444100003,31.242446476000055],[121.49484918500002,31.24250059800005],[121.49489349700002,31.242503744000032],[121.49489139400009,31.24252539300005]]]}},{"id":"62033","type":"Feature","properties":{"OBJECTID_1":62034,"OBJECTID_2":249634,"OBJECTID":16835902,"Id":16835902,"gridcode":249,"Shape_Leng":0.000407695770491,"Shape_Le_1":47.8149999976,"ORIG_OID":62033,"STATUS":0,"Shape_Le_2":0.00029376678352,"Shape_Area":3.72572987197e-09,"__source_file__":"10-AI解译数据/2025.02.28/浦东新区/浦东新区_AI解析建筑.shp"},"geometry":{"type":"Polygon","coordinates":[[[121.49201895200008,31.240593731000047],[121.49201649800011,31.240561213000035],[121.49190239900008,31.240567507000037],[121.49190485200006,31.24060002500005],[121.49201895200008,31.240593731000047]]]}},{"id":"62049","type":"Feature","properties":{"OBJECTID_1":62050,"OBJECTID_2":249693,"OBJECTID":16839374,"Id":16839374,"gridcode":249,"Shape_Leng":0.000659819134982,"Shape_Le_1":78.4696788776,"ORIG_OID":62049,"STATUS":0,"Shape_Le_2":0.000468146926351,"Shape_Area":7.2100515057e-09,"__source_file__":"10-AI解译数据/2025.02.28/浦东新区/浦东新区_AI解析建筑.shp"},"geometry":{"type":"Polygon","coordinates":[[[121.49210936400004,31.240689979000024],[121.49222045400006,31.240564344000063],[121.49219005300006,31.24054469200007],[121.492105777,31.240640002000077],[121.49208044200009,31.24062362500007],[121.49205362700002,31.24065395100007],[121.49210936400004,31.240689979000024]]]}},{"id":"61651","type":"Feature","properties":{"OBJECTID_1":61652,"OBJECTID_2":248059,"OBJECTID":16727859,"Id":16727859,"gridcode":249,"Shape_Leng":0.00188827514705,"Shape_Le_1":221.140000001,"ORIG_OID":61651,"STATUS":0,"Shape_Le_2":0.00172090126252,"Shape_Area":1.085989064e-07,"__source_file__":"10-AI解译数据/2025.02.28/浦东新区/浦东新区_AI解析建筑.shp"},"geometry":{"type":"Polygon","coordinates":[[[121.49168923100001,31.240903557000024],[121.49169141200002,31.240941528000064],[121.49164700200004,31.240943393000066],[121.49164949500005,31.240986789000033],[121.49161777300003,31.240988121000044],[121.49162712400005,31.241150854000068],[121.49200778700003,31.24113486500005],[121.49200654100002,31.241113167000037],[121.49224128300011,31.24110330700006],[121.4922387900001,31.241059912000026],[121.49216265700011,31.241063110000027],[121.4921601640001,31.24101971400006],[121.4920840310001,31.241022912000062],[121.4920802910001,31.240957819000073],[121.4920422240001,31.240959418000045],[121.49204097800009,31.240937720000034],[121.49192043400001,31.240942783000037],[121.49191762900011,31.240893964000065],[121.49168923100001,31.240903557000024]]]}},{"id":"61317","type":"Feature","properties":{"OBJECTID_1":61318,"OBJECTID_2":246811,"OBJECTID":16642794,"Id":16642794,"gridcode":249,"Shape_Leng":0.00514449212885,"Shape_Le_1":614.172355433,"ORIG_OID":61317,"STATUS":0,"Shape_Le_2":0.00448051167917,"Shape_Area":7.55840285479e-07,"__source_file__":"10-AI解译数据/2025.02.28/浦东新区/浦东新区_AI解析建筑.shp"},"geometry":{"type":"Polygon","coordinates":[[[121.49279976600008,31.241915886000072],[121.49288208600001,31.24195690600004],[121.49287249000008,31.241970982000055],[121.49290541800008,31.241987390000077],[121.49300457200002,31.241841934000036],[121.49303201200007,31.241855607000048],[121.49318873800007,31.241625691000024],[121.49316129800002,31.24161201700008],[121.49321247400007,31.24153694300003],[121.49313015400003,31.24149592300006],[121.49308217700002,31.24156630500005],[121.49228641700006,31.24116977600005],[121.49229281400005,31.24116039100005],[121.49225988600006,31.24114398300003],[121.49224069500008,31.241172136000046],[121.49218581500008,31.241144789000032],[121.49216022700011,31.241182327000047],[121.492105347,31.241154980000033],[121.49207975900003,31.241192518000048],[121.4920303670001,31.241167905000054],[121.49201437500005,31.241191366000066],[121.49197595900011,31.241172223000035],[121.49195356900009,31.241205069000046],[121.4918986890001,31.24117772200003],[121.49187310100001,31.241215259000057],[121.49182371000006,31.241190647000053],[121.49180771700003,31.241214108000065],[121.49177478900003,31.241197700000043],[121.49174920100006,31.24123523800006],[121.49178761700011,31.241254380000044],[121.49176202900003,31.24129191800006],[121.49180044500008,31.241311061000033],[121.49177805500005,31.241343906000054],[121.49182195900005,31.24136578300005],[121.49179957000001,31.24139862900006],[121.49185445000012,31.241425976000073],[121.49183206000009,31.241458821000037],[121.49187596400009,31.241480698000032],[121.49185357500005,31.241513544000043],[121.49190845500004,31.241540890000067],[121.49188926400006,31.241569043000027],[121.49196060800011,31.241604594000023],[121.49193821800009,31.241637439000044],[121.49202602600008,31.24168119400008],[121.4920068350001,31.24170934700004],[121.49210013100003,31.241755837000028],[121.49208094000005,31.241783990000044],[121.49217972400004,31.241833214000053],[121.49216693000005,31.24185198200007],[121.4922712020001,31.241903941000032],[121.49227759900009,31.241894557000023],[121.49243126300007,31.241971128000046],[121.49241207200009,31.241999281000062],[121.49256024800002,31.242073117000075],[121.49257943900011,31.24204496400006],[121.4926562710001,31.242083249000075],[121.49267866000002,31.242050404000054],[121.49270061200002,31.242061343000046],[121.49279976600008,31.241915886000072]]]}},{"id":"60472","type":"Feature","properties":{"OBJECTID_1":60473,"OBJECTID_2":243104,"OBJECTID":16379857,"Id":16379857,"gridcode":249,"Shape_Leng":0.00060081481945,"Shape_Le_1":68.5029999912,"ORIG_OID":60472,"STATUS":0,"Shape_Le_2":0.000563518720444,"Shape_Area":5.65762158681e-09,"__source_file__":"10-AI解译数据/2025.02.28/浦东新区/浦东新区_AI解析建筑.shp"},"geometry":{"type":"Polygon","coordinates":[[[121.49371576900012,31.241998081000077],[121.49345701100003,31.241972859000043],[121.49345413300011,31.241994443000067],[121.49371289100009,31.242019665000043],[121.49371576900012,31.241998081000077]]]}},{"id":"60241","type":"Feature","properties":{"OBJECTID_1":60242,"OBJECTID_2":242116,"OBJECTID":16317229,"Id":16317229,"gridcode":249,"Shape_Leng":0.000922679900668,"Shape_Le_1":110.4102,"ORIG_OID":60241,"STATUS":0,"Shape_Le_2":0.000667641991448,"Shape_Area":1.32468878893e-08,"__source_file__":"10-AI解译数据/2025.02.28/浦东新区/浦东新区_AI解析建筑.shp"},"geometry":{"type":"Polygon","coordinates":[[[121.49340819200006,31.242180347000044],[121.49317610300011,31.24234940300005],[121.49320905800005,31.242382475000056],[121.49344114700011,31.242213419000052],[121.49340819200006,31.242180347000044]]]}},{"id":"60230","type":"Feature","properties":{"OBJECTID_1":60231,"OBJECTID_2":242076,"OBJECTID":16313796,"Id":16313796,"gridcode":249,"Shape_Leng":0.00188827514614,"Shape_Le_1":225.597800002,"ORIG_OID":60230,"STATUS":0,"Shape_Le_2":0.00153171062536,"Shape_Area":1.03284568618e-07,"__source_file__":"10-AI解译数据/2025.02.28/浦东新区/浦东新区_AI解析建筑.shp"},"geometry":{"type":"Polygon","coordinates":[[[121.4935251180001,31.242180808000057],[121.49315871400006,31.242441134000046],[121.49330486500003,31.24259150200004],[121.49363707100008,31.242355474000078],[121.49366548900002,31.242384713000035],[121.49370945800001,31.242353473000037],[121.49367698000003,31.242320058000075],[121.49372094800003,31.242288819000066],[121.49364381300006,31.242209458000048],[121.49361450100002,31.242230284000073],[121.49359826200009,31.24221357600004],[121.493573835,31.24223093100005],[121.4935251180001,31.242180808000057]]]}},{"id":"60036","type":"Feature","properties":{"OBJECTID_1":60037,"OBJECTID_2":241290,"OBJECTID":16259391,"Id":16259391,"gridcode":249,"Shape_Leng":0.00025749206543,"Shape_Le_1":30.6898000091,"ORIG_OID":60036,"STATUS":0,"Shape_Le_2":0.000201063104823,"Shape_Area":2.48376681851e-09,"__source_file__":"10-AI解译数据/2025.02.28/浦东新区/浦东新区_AI解析建筑.shp"},"geometry":{"type":"Polygon","coordinates":[[[121.49314751800011,31.242427491000058],[121.49319137400005,31.24239613700007],[121.49315877700008,31.242362807000063],[121.49311492100003,31.24239416100005],[121.49314751800011,31.242427491000058]]]}},{"id":"60069","type":"Feature","properties":{"OBJECTID_1":60070,"OBJECTID_2":241419,"OBJECTID":16268887,"Id":16268887,"gridcode":249,"Shape_Leng":0.000600814819336,"Shape_Le_1":72.1493999958,"ORIG_OID":60069,"STATUS":0,"Shape_Le_2":0.00045108515083,"Shape_Area":8.27934872429e-09,"__source_file__":"10-AI解译数据/2025.02.28/浦东新区/浦东新区_AI解析建筑.shp"},"geometry":{"type":"Polygon","coordinates":[[[121.49146947700001,31.242445753000027],[121.49132828100005,31.24233633800003],[121.49129415400012,31.24236853000008],[121.49143535100006,31.242477945000076],[121.49146947700001,31.242445753000027]]]}},{"id":"60181","type":"Feature","properties":{"OBJECTID_1":60182,"OBJECTID_2":241888,"OBJECTID":16300468,"Id":16300468,"gridcode":249,"Shape_Leng":0.00190973281872,"Shape_Le_1":229.201800019,"ORIG_OID":60181,"STATUS":0,"Shape_Le_2":0.00155287432895,"Shape_Area":1.02077478606e-07,"__source_file__":"10-AI解译数据/2025.02.28/浦东新区/浦东新区_AI解析建筑.shp"},"geometry":{"type":"Polygon","coordinates":[[[121.49394499900006,31.242366323000056],[121.49391568700003,31.242387149000024],[121.49394004500004,31.242412211000044],[121.4939888990001,31.242377501000078],[121.4942649620001,31.242661530000078],[121.49443595100001,31.242540045000055],[121.49412741000003,31.242222600000048],[121.49406878500008,31.24226425200004],[121.49404848600011,31.24224336800006],[121.49401917400007,31.24226419400003],[121.49399481600005,31.242239132000066],[121.49391664900008,31.242294668000056],[121.49394100800009,31.242319730000077],[121.49391658100001,31.24233708500003],[121.49394499900006,31.242366323000056]]]}},{"id":"59737","type":"Feature","properties":{"OBJECTID_1":59738,"OBJECTID_2":239955,"OBJECTID":16177489,"Id":16177489,"gridcode":249,"Shape_Leng":0.00025749206543,"Shape_Le_1":29.4742000103,"ORIG_OID":59737,"STATUS":0,"Shape_Le_2":0.000246502028412,"Shape_Area":2.20778068715e-09,"__source_file__":"10-AI解译数据/2025.02.28/浦东新区/浦东新区_AI解析建筑.shp"},"geometry":{"type":"Polygon","coordinates":[[[121.49382863800008,31.242664882000042],[121.49383128400007,31.24264327700007],[121.49373020300004,31.242634229000032],[121.49372755800005,31.24265583400006],[121.49382863800008,31.242664882000042]]]}},{"id":"59700","type":"Feature","properties":{"OBJECTID_1":59701,"OBJECTID_2":239782,"OBJECTID":16167264,"Id":16167264,"gridcode":249,"Shape_Leng":0.0011801719661,"Shape_Le_1":141.910400003,"ORIG_OID":59700,"STATUS":0,"Shape_Le_2":0.00108428566552,"Shape_Area":6.00593717781e-08,"__source_file__":"10-AI解译数据/2025.02.28/浦东新区/浦东新区_AI解析建筑.shp"},"geometry":{"type":"Polygon","coordinates":[[[121.49394996700005,31.242768932000047],[121.49385563300007,31.24275747300004],[121.49386635500002,31.242692951000038],[121.49367139900005,31.24266927000008],[121.49364191500001,31.24284670700007],[121.49373624800012,31.24285816500003],[121.49372463300006,31.24292806400007],[121.49391958900003,31.242951745000028],[121.49394996700005,31.242768932000047]]]}},{"id":"58836","type":"Feature","properties":{"OBJECTID_1":58837,"OBJECTID_2":236010,"OBJECTID":15928700,"Id":15928700,"gridcode":249,"Shape_Leng":0.000236034393083,"Shape_Le_1":28.7063999921,"ORIG_OID":58836,"STATUS":0,"Shape_Le_2":0.000186194172106,"Shape_Area":2.06982318548e-09,"__source_file__":"10-AI解译数据/2025.02.28/浦东新区/浦东新区_AI解析建筑.shp"},"geometry":{"type":"Polygon","coordinates":[[[121.49382661900006,31.243492222000043],[121.4938618750001,31.24350459900006],[121.49388600300006,31.243454361000033],[121.49385074700001,31.24344198400007],[121.49382661900006,31.243492222000043]]]}},{"id":"59760","type":"Feature","properties":{"OBJECTID_1":59761,"OBJECTID_2":240065,"OBJECTID":16184062,"Id":16184062,"gridcode":249,"Shape_Leng":0.000300407409895,"Shape_Le_1":35.4669999927,"ORIG_OID":59760,"STATUS":0,"Shape_Le_2":0.00026636468903,"Shape_Area":3.31170123983e-09,"__source_file__":"10-AI解译数据/2025.02.28/浦东新区/浦东新区_AI解析建筑.shp"},"geometry":{"type":"Polygon","coordinates":[[[121.49493298100003,31.242645181000057],[121.49483827100005,31.242613660000075],[121.49482444600005,31.24264402500006],[121.49491915600004,31.242675547000033],[121.49493298100003,31.242645181000057]]]}},{"id":"59178","type":"Feature","properties":{"OBJECTID_1":59179,"OBJECTID_2":237413,"OBJECTID":16022272,"Id":16022272,"gridcode":249,"Shape_Leng":0.00100851058949,"Shape_Le_1":121.181200013,"ORIG_OID":59178,"STATUS":0,"Shape_Le_2":0.000781611180546,"Shape_Area":2.53552372712e-08,"__source_file__":"10-AI解译数据/2025.02.28/浦东新区/浦东新区_AI解析建筑.shp"},"geometry":{"type":"Polygon","coordinates":[[[121.49444625800004,31.24327326100007],[121.49442136400012,31.243297934000054],[121.49446465200003,31.243329860000074],[121.49449369500007,31.243301074000044],[121.49453217400003,31.24332945200007],[121.49461515400003,31.243247207000024],[121.49455262600009,31.24320109200005],[121.49453188100006,31.243221654000024],[121.49440682500006,31.243129424000074],[121.49434044200007,31.243195221000065],[121.49444625800004,31.24327326100007]]]}},{"id":"58733","type":"Feature","properties":{"OBJECTID_1":58734,"OBJECTID_2":235599,"OBJECTID":15902744,"Id":15902744,"gridcode":249,"Shape_Leng":0.000791259278355,"Shape_Le_1":94.6488777107,"ORIG_OID":58733,"STATUS":0,"Shape_Le_2":0.000595382420427,"Shape_Area":2.06978869047e-08,"__source_file__":"10-AI解译数据/2025.02.28/浦东新区/浦东新区_AI解析建筑.shp"},"geometry":{"type":"Polygon","coordinates":[[[121.49534005800001,31.243699864000064],[121.49540097300007,31.243604549000054],[121.49523374700004,31.243526428000052],[121.4951728320001,31.243621743000062],[121.49534005800001,31.243699864000064]]]}}],"name":"浦东新区_AI解析建筑","crs":{"type":"name","properties":{"name":"urn:ogc:def:crs:OGC:1.3:CRS84"}}}