{"type":"FeatureCollection","features":[{"id":"74","type":"Feature","properties":{"OBJECTID":1208342,"id":"6f063bbe-14db-3265-98dd-1b715eddff49","name":"延安东路隧道","type":"地名地址信息;交通地名;隧道","typecode":"190310","address":"黄浦区","经度":121.492509,"纬度":31.233317,"tel":null,"pcode":310000,"pname":null,"citycode":21,"cityname":"上海市","adcode":310101,"adname":"黄浦区","gridcode":4621637921.0,"distance":"215","business_a":null,"timestamp":"NaT","biz_ext":"{\"rating\": [], \"cost\": []}","行业大":"地名地址信息","行业中":"交通地名","行业小":"隧道","typecode_X":0.0,"typecode_Y":0.0,"__source_file__":"04-交通数据/1-交通路网/3-其它/上海市_隧道.shp"},"geometry":{"type":"Point","coordinates":[121.48805052422613,31.235312041990703]}},{"id":"79","type":"Feature","properties":{"OBJECTID":1281046,"id":"93afaa91-d1b1-3dc8-acaa-87b1ce6ca32f","name":"外滩隧道","type":"地名地址信息;交通地名;隧道","typecode":"190310","address":"虹口区","经度":121.49107,"纬度":31.245962,"tel":null,"pcode":310000,"pname":null,"citycode":21,"cityname":"上海市","adcode":310109,"adname":"虹口区","gridcode":4621639910.0,"distance":"416","business_a":null,"timestamp":"NaT","biz_ext":"{'rating': [], 'cost': []}","行业大":"地名地址信息","行业中":"交通地名","行业小":"隧道","typecode_X":0.0,"typecode_Y":0.0,"__source_file__":"04-交通数据/1-交通路网/3-其它/上海市_隧道.shp"},"geometry":{"type":"Point","coordinates":[121.48660530173979,31.247947018684645]}},{"id":"26","type":"Feature","properties":{"OBJECTID":932263,"id":"3a639401-1c0b-3444-8e65-80b78524d8f7","name":"新建路隧道","type":"地名地址信息;交通地名;隧道","typecode":"190310","address":"虹口区","经度":121.501638,"纬度":31.24743,"tel":null,"pcode":310000,"pname":null,"citycode":21,"cityname":"上海市","adcode":310109,"adname":"虹口区","gridcode":4621649020.0,"distance":"584","business_a":null,"timestamp":"NaT","biz_ext":"{'rating': [], 'cost': []}","行业大":"地名地址信息","行业中":"交通地名","行业小":"隧道","typecode_X":0.0,"typecode_Y":0.0,"__source_file__":"04-交通数据/1-交通路网/3-其它/上海市_隧道.shp"},"geometry":{"type":"Point","coordinates":[121.49721123551907,31.249446045706293]}},{"id":"61","type":"Feature","properties":{"OBJECTID":1053362,"id":"5c95af6b-ee89-3256-827a-7024506a0734","name":"新建路隧道","type":"地名地址信息;交通地名;隧道","typecode":"190310","address":"虹口区","经度":121.498293,"纬度":31.252709,"tel":null,"pcode":310000,"pname":null,"citycode":21,"cityname":"上海市","adcode":310109,"adname":"虹口区","gridcode":4621730902.0,"distance":"481","business_a":null,"timestamp":"NaT","biz_ext":"{\"rating\": [], \"cost\": []}","行业大":"地名地址信息","行业中":"交通地名","行业小":"隧道","typecode_X":0.0,"typecode_Y":0.0,"__source_file__":"04-交通数据/1-交通路网/3-其它/上海市_隧道.shp"},"geometry":{"type":"Point","coordinates":[121.49385369215345,31.25471264437445]}},{"id":"75","type":"Feature","properties":{"OBJECTID":1224272,"id":"dde00dc3-b09e-37f4-835f-6a9d4fb18f64","name":"人民路隧道","type":"地名地址信息;交通地名;隧道","typecode":"190310","address":"黄浦区","经度":121.489851,"纬度":31.229399,"tel":null,"pcode":310000,"pname":null,"citycode":21,"cityname":"上海市","adcode":310101,"adname":"黄浦区","gridcode":4621637910.0,"distance":"321","business_a":null,"timestamp":"NaT","biz_ext":"{\"rating\": [], \"cost\": []}","行业大":"地名地址信息","行业中":"交通地名","行业小":"隧道","typecode_X":0.0,"typecode_Y":0.0,"__source_file__":"04-交通数据/1-交通路网/3-其它/上海市_隧道.shp"},"geometry":{"type":"Point","coordinates":[121.48538337362882,31.23138794221946]}},{"id":"27","type":"Feature","properties":{"OBJECTID":932264,"id":"7db4bd36-3516-30aa-bfd1-f33e8d1627ee","name":"外滩隧道","type":"地名地址信息;交通地名;隧道","typecode":"190310","address":"虹口区","经度":121.490199,"纬度":31.247123,"tel":null,"pcode":310000,"pname":null,"citycode":21,"cityname":"上海市","adcode":310109,"adname":"虹口区","gridcode":4621639910.0,"distance":"565","business_a":null,"timestamp":"NaT","biz_ext":"{'rating': [], 'cost': []}","行业大":"地名地址信息","行业中":"交通地名","行业小":"隧道","typecode_X":0.0,"typecode_Y":0.0,"__source_file__":"04-交通数据/1-交通路网/3-其它/上海市_隧道.shp"},"geometry":{"type":"Point","coordinates":[121.48573109851182,31.249104911909367]}},{"id":"28","type":"Feature","properties":{"OBJECTID":932265,"id":"bbf72717-1bde-3ad2-938f-1efaf71d4bfb","name":"西藏北路地道","type":"地名地址信息;交通地名;隧道","typecode":"190310","address":"静安区","经度":121.470388,"纬度":31.247289,"tel":null,"pcode":310000,"pname":null,"citycode":21,"cityname":"上海市","adcode":310106,"adname":"静安区","gridcode":4621639721.0,"distance":"64","business_a":null,"timestamp":"NaT","biz_ext":"{\"rating\": [], \"cost\": []}","行业大":"地名地址信息","行业中":"交通地名","行业小":"隧道","typecode_X":0.0,"typecode_Y":0.0,"__source_file__":"04-交通数据/1-交通路网/3-其它/上海市_隧道.shp"},"geometry":{"type":"Point","coordinates":[121.46585283946969,31.249214686622356]}},{"id":"11","type":"Feature","properties":{"OBJECTID":257739,"id":"36924c74-e1db-3ebd-88ba-6eaaf23e0d3e","name":"大统路地道","type":"地名地址信息;交通地名;隧道","typecode":"190310","address":"静安区","经度":121.459669,"纬度":31.249105,"tel":"[]","pcode":310000,"pname":"上海市","citycode":21,"cityname":"上海市","adcode":310106,"adname":"静安区","gridcode":4621639622.0,"distance":"141","business_a":"宝山路","timestamp":"2022-11-15","biz_ext":"{\"rating\": [], \"cost\": []}","行业大":"地名地址信息","行业中":"交通地名","行业小":"隧道","typecode_X":0.0,"typecode_Y":0.0,"__source_file__":"04-交通数据/1-交通路网/3-其它/上海市_隧道.shp"},"geometry":{"type":"Point","coordinates":[121.45510149820286,31.251002960175338]}},{"id":"29","type":"Feature","properties":{"OBJECTID":932266,"id":"76bdedb9-bb85-36f6-9d34-47285b9e92db","name":"广中路地道","type":"地名地址信息;交通地名;隧道","typecode":"190310","address":"虹口区","经度":121.479166,"纬度":31.275509,"tel":null,"pcode":310000,"pname":null,"citycode":21,"cityname":"上海市","adcode":310109,"adname":"虹口区","gridcode":4621733800.0,"distance":"206","business_a":null,"timestamp":"NaT","biz_ext":"{\"rating\": [], \"cost\": []}","行业大":"地名地址信息","行业中":"交通地名","行业小":"隧道","typecode_X":0.0,"typecode_Y":0.0,"__source_file__":"04-交通数据/1-交通路网/3-其它/上海市_隧道.shp"},"geometry":{"type":"Point","coordinates":[121.47465724199839,31.277446565812276]}}],"name":"上海市_隧道","crs":{"type":"name","properties":{"name":"urn:ogc:def:crs:OGC:1.3:CRS84"}}}