{"type":"FeatureCollection","features":[{"id":"5","type":"Feature","properties":{"OBJECTID":16213,"id":"34935fbf-7a50-3ee2-a167-928446d2b806","name":"福建路桥","type":"地名地址信息;交通地名;桥","typecode":"190307","address":"黄浦区","经度":121.478882,"纬度":31.240281,"tel":"[]","pcode":310000,"pname":"上海市","citycode":21,"cityname":"上海市","adcode":310101,"adname":"黄浦区","gridcode":4621638820.0,"distance":"328","business_a":"北京东路","timestamp":"2023-03-28","biz_ext":"{\"rating\": [], \"cost\": []}","行业大":"地名地址信息","行业中":"交通地名","行业小":"桥","typecode_X":0.0,"typecode_Y":0.0,"__source_file__":"04-交通数据/1-交通路网/3-其它/上海市_桥梁.shp"},"geometry":{"type":"Point","coordinates":[121.47437530432758,31.242233124241693]}},{"id":"8287","type":"Feature","properties":{"OBJECTID":1107346,"id":"dfe85bee-30f0-3c01-8218-5329e7ba2baf","name":"浙江路桥","type":"地名地址信息;交通地名;桥","typecode":"190307","address":"黄浦区","经度":121.476553,"纬度":31.241434,"tel":null,"pcode":310000,"pname":null,"citycode":21,"cityname":"上海市","adcode":310101,"adname":"黄浦区","gridcode":4621638820.0,"distance":"66","business_a":null,"timestamp":"NaT","biz_ext":"{'cost': [], 'rating': []}","行业大":"地名地址信息","行业中":"交通地名","行业小":"桥","typecode_X":0.0,"typecode_Y":0.0,"__source_file__":"04-交通数据/1-交通路网/3-其它/上海市_桥梁.shp"},"geometry":{"type":"Point","coordinates":[121.47203839200712,31.243379074618904]}},{"id":"55","type":"Feature","properties":{"OBJECTID":91181,"id":"1a07b2c1-be68-3aee-ab63-2383a0b419cd","name":"河南路桥","type":"地名地址信息;交通地名;桥","typecode":"190307","address":"黄浦区","经度":121.483007,"纬度":31.241929,"tel":"[]","pcode":310000,"pname":"上海市","citycode":21,"cityname":"上海市","adcode":310101,"adname":"黄浦区","gridcode":4621639801.0,"distance":"167","business_a":"北京东路","timestamp":"2023-03-18","biz_ext":"{\"rating\": [], \"cost\": []}","行业大":"地名地址信息","行业中":"交通地名","行业小":"桥","typecode_X":0.0,"typecode_Y":0.0,"__source_file__":"04-交通数据/1-交通路网/3-其它/上海市_桥梁.shp"},"geometry":{"type":"Point","coordinates":[121.47851427449915,31.243892163400805]}},{"id":"73","type":"Feature","properties":{"OBJECTID":128644,"id":"21140261-5b81-348d-9f8c-f61e4982ff0e","name":"外白渡桥","type":"地名地址信息;交通地名;桥","typecode":"190307","address":"黄浦区","经度":121.4902,"纬度":31.243458,"tel":"[]","pcode":310000,"pname":"上海市","citycode":21,"cityname":"上海市","adcode":310101,"adname":"黄浦区","gridcode":4621639900.0,"distance":"234","business_a":"[]","timestamp":"2023-05-12","biz_ext":"{'rating': [], 'cost': []}","行业大":"地名地址信息","行业中":"交通地名","行业小":"桥","typecode_X":0.0,"typecode_Y":0.0,"__source_file__":"04-交通数据/1-交通路网/3-其它/上海市_桥梁.shp"},"geometry":{"type":"Point","coordinates":[121.4857324149982,31.245441557981792]}},{"id":"64","type":"Feature","properties":{"OBJECTID":118260,"id":"41e1419d-7df6-3568-9119-55e86e9392e1","name":"乍浦路桥","type":"地名地址信息;交通地名;桥","typecode":"190307","address":"虹口区","经度":121.487771,"纬度":31.244224,"tel":"[]","pcode":310000,"pname":"上海市","citycode":21,"cityname":"上海市","adcode":310109,"adname":"虹口区","gridcode":4621639900.0,"distance":"478","business_a":"北京东路","timestamp":"2023-05-12","biz_ext":"{'rating': [], 'cost': []}","行业大":"地名地址信息","行业中":"交通地名","行业小":"桥","typecode_X":0.0,"typecode_Y":0.0,"__source_file__":"04-交通数据/1-交通路网/3-其它/上海市_桥梁.shp"},"geometry":{"type":"Point","coordinates":[121.48329473726656,31.246200031514107]}},{"id":"7686","type":"Feature","properties":{"OBJECTID":1071786,"id":"9fb2ae7e-6d29-3ffd-b07f-c121de0af058","name":"汉阳路桥","type":"地名地址信息;交通地名;桥","typecode":"190307","address":"虹口区","经度":121.492317,"纬度":31.250099,"tel":null,"pcode":310000,"pname":null,"citycode":21,"cityname":"上海市","adcode":310109,"adname":"虹口区","gridcode":4621730901.0,"distance":"248","business_a":null,"timestamp":"NaT","biz_ext":"{'rating': [], 'cost': []}","行业大":"地名地址信息","行业中":"交通地名","行业小":"桥","typecode_X":0.0,"typecode_Y":0.0,"__source_file__":"04-交通数据/1-交通路网/3-其它/上海市_桥梁.shp"},"geometry":{"type":"Point","coordinates":[121.4878564055008,31.252085889116877]}},{"id":"6571","type":"Feature","properties":{"OBJECTID":1069124,"id":"a7038f53-7c80-38df-8749-d7d0e238231e","name":"余杭路桥","type":"地名地址信息;交通地名;桥","typecode":"190307","address":"虹口区","经度":121.491645,"纬度":31.251471,"tel":null,"pcode":310000,"pname":null,"citycode":21,"cityname":"上海市","adcode":310109,"adname":"虹口区","gridcode":4621730900.0,"distance":"406","business_a":null,"timestamp":"NaT","biz_ext":"{\"rating\": [], \"cost\": []}","行业大":"地名地址信息","行业中":"交通地名","行业小":"桥","typecode_X":0.0,"typecode_Y":0.0,"__source_file__":"04-交通数据/1-交通路网/3-其它/上海市_桥梁.shp"},"geometry":{"type":"Point","coordinates":[121.48718188485901,31.253455278222805]}},{"id":"5104","type":"Feature","properties":{"OBJECTID":809346,"id":"54d8fa79-663f-3fdd-b20c-fdb21783f7c1","name":"海宁路桥","type":"地名地址信息;交通地名;桥","typecode":"190307","address":"虹口区","经度":121.492015,"纬度":31.253334,"tel":null,"pcode":310000,"pname":null,"citycode":21,"cityname":"上海市","adcode":310109,"adname":"虹口区","gridcode":4621730911.0,"distance":"28","business_a":null,"timestamp":"NaT","biz_ext":"{\"rating\": [], \"cost\": []}","行业大":"地名地址信息","行业中":"交通地名","行业小":"桥","typecode_X":0.0,"typecode_Y":0.0,"__source_file__":"04-交通数据/1-交通路网/3-其它/上海市_桥梁.shp"},"geometry":{"type":"Point","coordinates":[121.48755304878163,31.25531855812482]}},{"id":"8157","type":"Feature","properties":{"OBJECTID":1094321,"id":"fd3ad68a-a399-37b5-a0d5-af75234c7e52","name":"嘉兴路桥","type":"地名地址信息;交通地名;桥","typecode":"190307","address":"虹口区","经度":121.487354,"纬度":31.255023,"tel":null,"pcode":310000,"pname":null,"citycode":21,"cityname":"上海市","adcode":310109,"adname":"虹口区","gridcode":4621730812.0,"distance":"224","business_a":null,"timestamp":"NaT","biz_ext":"{'cost': [], 'rating': []}","行业大":"地名地址信息","行业中":"交通地名","行业小":"桥","typecode_X":0.0,"typecode_Y":0.0,"__source_file__":"04-交通数据/1-交通路网/3-其它/上海市_桥梁.shp"},"geometry":{"type":"Point","coordinates":[121.48287534265607,31.256993007533588]}},{"id":"8403","type":"Feature","properties":{"OBJECTID":1340564,"id":"c7e5ec12-8e4a-35ee-9075-8a14a3277aa5","name":"恒丰路桥","type":"地名地址信息;交通地名;桥","typecode":"190307","address":"静安区","经度":121.458557,"纬度":31.238747,"tel":null,"pcode":310000,"pname":null,"citycode":21,"cityname":"上海市","adcode":310106,"adname":"静安区","gridcode":4621638612.0,"distance":"221","business_a":null,"timestamp":"NaT","biz_ext":"{\"rating\": [], \"cost\": []}","行业大":"地名地址信息","行业中":"交通地名","行业小":"桥","typecode_X":0.0,"typecode_Y":0.0,"__source_file__":"04-交通数据/1-交通路网/3-其它/上海市_桥梁.shp"},"geometry":{"type":"Point","coordinates":[121.4539872800628,31.24064701233577]}},{"id":"8420","type":"Feature","properties":{"OBJECTID":1369184,"id":"5d285cae-5874-37a5-9e03-b9bcd149c306","name":"昌平路桥","type":"地名地址信息;交通地名;桥","typecode":"190307","address":"静安区","经度":121.454782,"纬度":31.239514,"tel":null,"pcode":310000,"pname":null,"citycode":21,"cityname":"上海市","adcode":310106,"adname":"静安区","gridcode":4621638621.0,"distance":"155","business_a":null,"timestamp":"NaT","biz_ext":"{'rating': [], 'cost': []}","行业大":"地名地址信息","行业中":"交通地名","行业小":"桥","typecode_X":0.0,"typecode_Y":0.0,"__source_file__":"04-交通数据/1-交通路网/3-其它/上海市_桥梁.shp"},"geometry":{"type":"Point","coordinates":[121.45020199681564,31.241405116223593]}},{"id":"5816","type":"Feature","properties":{"OBJECTID":1055563,"id":"e5767476-513e-3c6e-8ec7-567342c01ed2","name":"西藏路桥","type":"地名地址信息;交通地名;桥","typecode":"190307","address":"静安区","经度":121.472255,"纬度":31.240155,"tel":null,"pcode":310000,"pname":null,"citycode":21,"cityname":"上海市","adcode":310106,"adname":"静安区","gridcode":4621638722.0,"distance":"306","business_a":null,"timestamp":"NaT","biz_ext":"{'rating': [], 'cost': []}","行业大":"地名地址信息","行业中":"交通地名","行业小":"桥","typecode_X":0.0,"typecode_Y":0.0,"__source_file__":"04-交通数据/1-交通路网/3-其它/上海市_桥梁.shp"},"geometry":{"type":"Point","coordinates":[121.46772642005959,31.242088883795486]}},{"id":"145","type":"Feature","properties":{"OBJECTID":700779,"id":"46f0cf51-2429-3789-b390-3726af3339a0","name":"安远桥","type":"地名地址信息;交通地名;桥","typecode":"190307","address":"静安区","经度":121.449953,"纬度":31.24318,"tel":"[]","pcode":310000,"pname":"上海市","citycode":21,"cityname":"上海市","adcode":310106,"adname":"静安区","gridcode":4621639502.0,"distance":"176","business_a":"[]","timestamp":"2023-03-20","biz_ext":"{'rating': [], 'cost': []}","行业大":"地名地址信息","行业中":"交通地名","行业小":"桥","typecode_X":0.0,"typecode_Y":0.0,"__source_file__":"04-交通数据/1-交通路网/3-其它/上海市_桥梁.shp"},"geometry":{"type":"Point","coordinates":[121.44536044484953,31.245059224359395]}},{"id":"8151","type":"Feature","properties":{"OBJECTID":1094282,"id":"8573e587-09b9-36c7-9917-ce9eee7fe28e","name":"长寿路桥","type":"地名地址信息;交通地名;桥","typecode":"190307","address":"普陀区","经度":121.447887,"纬度":31.24518,"tel":null,"pcode":310000,"pname":null,"citycode":21,"cityname":"上海市","adcode":310107,"adname":"普陀区","gridcode":4621639512.0,"distance":"316","business_a":null,"timestamp":"NaT","biz_ext":"{'rating': [], 'cost': []}","行业大":"地名地址信息","行业中":"交通地名","行业小":"桥","typecode_X":0.0,"typecode_Y":0.0,"__source_file__":"04-交通数据/1-交通路网/3-其它/上海市_桥梁.shp"},"geometry":{"type":"Point","coordinates":[121.44328933916695,31.247054200330464]}},{"id":"7028","type":"Feature","properties":{"OBJECTID":1070125,"id":"4c470d4a-a5cf-34e7-9717-187666eb53be","name":"秣陵路桥","type":"地名地址信息;交通地名;桥","typecode":"190307","address":"静安区","经度":121.45984,"纬度":31.247608,"tel":null,"pcode":310000,"pname":null,"citycode":21,"cityname":"上海市","adcode":310106,"adname":"静安区","gridcode":4621639622.0,"distance":"54","business_a":null,"timestamp":"NaT","biz_ext":"{\"rating\": [], \"cost\": []}","行业大":"地名地址信息","行业中":"交通地名","行业小":"桥","typecode_X":0.0,"typecode_Y":0.0,"__source_file__":"04-交通数据/1-交通路网/3-其它/上海市_桥梁.shp"},"geometry":{"type":"Point","coordinates":[121.45527311035492,31.249507030768783]}},{"id":"8317","type":"Feature","properties":{"OBJECTID":1131507,"id":"57145f30-2b89-381d-9a26-7d439f8e8e21","name":"江宁路桥","type":"地名地址信息;交通地名;桥","typecode":"190307","address":"普陀区","经度":121.438149,"纬度":31.248678,"tel":null,"pcode":310000,"pname":null,"citycode":21,"cityname":"上海市","adcode":310107,"adname":"普陀区","gridcode":4621639520.0,"distance":"116","business_a":null,"timestamp":"NaT","biz_ext":"{'rating': [], 'cost': []}","行业大":"地名地址信息","行业中":"交通地名","行业小":"桥","typecode_X":0.0,"typecode_Y":0.0,"__source_file__":"04-交通数据/1-交通路网/3-其它/上海市_桥梁.shp"},"geometry":{"type":"Point","coordinates":[121.4335303997428,31.250533388259548]}},{"id":"6847","type":"Feature","properties":{"OBJECTID":1069718,"id":"04e36c3f-7f44-3695-8ddd-cb319e12d45b","name":"昌化路桥","type":"地名地址信息;交通地名;桥","typecode":"190307","address":"普陀区","经度":121.443891,"纬度":31.249791,"tel":null,"pcode":310000,"pname":null,"citycode":21,"cityname":"上海市","adcode":310107,"adname":"普陀区","gridcode":4621639521.0,"distance":"476","business_a":null,"timestamp":"NaT","biz_ext":"{'rating': [], 'cost': []}","行业大":"地名地址信息","行业中":"交通地名","行业小":"桥","typecode_X":0.0,"typecode_Y":0.0,"__source_file__":"04-交通数据/1-交通路网/3-其它/上海市_桥梁.shp"},"geometry":{"type":"Point","coordinates":[121.43928393775239,31.251655616302468]}},{"id":"6629","type":"Feature","properties":{"OBJECTID":1069233,"id":"707b7718-a73b-3123-a4af-c9658bd34a17","name":"中山北路四号桥","type":"地名地址信息;交通地名;桥","typecode":"190307","address":"普陀区","经度":121.435669,"纬度":31.252978,"tel":null,"pcode":310000,"pname":null,"citycode":21,"cityname":"上海市","adcode":310107,"adname":"普陀区","gridcode":4621730412.0,"distance":"168","business_a":null,"timestamp":"NaT","biz_ext":"{\"rating\": [], \"cost\": []}","行业大":"地名地址信息","行业中":"交通地名","行业小":"桥","typecode_X":0.0,"typecode_Y":0.0,"__source_file__":"04-交通数据/1-交通路网/3-其它/上海市_桥梁.shp"},"geometry":{"type":"Point","coordinates":[121.43104549351465,31.25482769878974]}},{"id":"6040","type":"Feature","properties":{"OBJECTID":1067768,"id":"45b662ad-58f0-348b-abee-2d09133a4beb","name":"拓皋路桥","type":"地名地址信息;交通地名;桥","typecode":"190307","address":"虹口区","经度":121.49172,"纬度":31.255323,"tel":null,"pcode":310000,"pname":null,"citycode":21,"cityname":"上海市","adcode":310109,"adname":"虹口区","gridcode":4621730911.0,"distance":"225","business_a":null,"timestamp":"NaT","biz_ext":"{\"rating\": [], \"cost\": []}","行业大":"地名地址信息","行业中":"交通地名","行业小":"桥","typecode_X":0.0,"typecode_Y":0.0,"__source_file__":"04-交通数据/1-交通路网/3-其它/上海市_桥梁.shp"},"geometry":{"type":"Point","coordinates":[121.48725682413868,31.257305804576486]}},{"id":"7482","type":"Feature","properties":{"OBJECTID":1071276,"id":"9b7611ff-d9fc-31e5-8e08-817351ec6cf7","name":"哈尔滨路二号桥","type":"地名地址信息;交通地名;桥","typecode":"190307","address":"虹口区","经度":121.490169,"纬度":31.255794,"tel":null,"pcode":310000,"pname":null,"citycode":21,"cityname":"上海市","adcode":310109,"adname":"虹口区","gridcode":4621730920.0,"distance":"208","business_a":null,"timestamp":"NaT","biz_ext":"{'rating': [], 'cost': []}","行业大":"地名地址信息","行业中":"交通地名","行业小":"桥","typecode_X":0.0,"typecode_Y":0.0,"__source_file__":"04-交通数据/1-交通路网/3-其它/上海市_桥梁.shp"},"geometry":{"type":"Point","coordinates":[121.48570025120324,31.25777198662742]}},{"id":"7846","type":"Feature","properties":{"OBJECTID":1072218,"id":"d52868dd-6877-31cb-9404-4addfdd33586","name":"邢家桥","type":"地名地址信息;交通地名;桥","typecode":"190307","address":"虹口区","经度":121.485033,"纬度":31.257211,"tel":null,"pcode":310000,"pname":null,"citycode":21,"cityname":"上海市","adcode":310109,"adname":"虹口区","gridcode":4621730822.0,"distance":"112","business_a":null,"timestamp":"NaT","biz_ext":"{'rating': [], 'cost': []}","行业大":"地名地址信息","行业中":"交通地名","行业小":"桥","typecode_X":0.0,"typecode_Y":0.0,"__source_file__":"04-交通数据/1-交通路网/3-其它/上海市_桥梁.shp"},"geometry":{"type":"Point","coordinates":[121.48054600914013,31.25917325327199]}},{"id":"7502","type":"Feature","properties":{"OBJECTID":1071324,"id":"7e5782dd-557d-31ca-9dfe-614763698018","name":"横浜桥","type":"地名地址信息;交通地名;桥","typecode":"190307","address":"虹口区","经度":121.483066,"纬度":31.258876,"tel":null,"pcode":310000,"pname":null,"citycode":21,"cityname":"上海市","adcode":310109,"adname":"虹口区","gridcode":4621731801.0,"distance":"165","business_a":null,"timestamp":"NaT","biz_ext":"{\"rating\": [], \"cost\": []}","行业大":"地名地址信息","行业中":"交通地名","行业小":"桥","typecode_X":0.0,"typecode_Y":0.0,"__source_file__":"04-交通数据/1-交通路网/3-其它/上海市_桥梁.shp"},"geometry":{"type":"Point","coordinates":[121.4785720270201,31.260831819364025]}},{"id":"8112","type":"Feature","properties":{"OBJECTID":1094051,"id":"65290e92-7fd4-3326-a26f-db60c7000637","name":"通州路桥","type":"地名地址信息;交通地名;桥","typecode":"190307","address":"虹口区","经度":121.493414,"纬度":31.259085,"tel":null,"pcode":310000,"pname":null,"citycode":21,"cityname":"上海市","adcode":310109,"adname":"虹口区","gridcode":4621731901.0,"distance":"108","business_a":null,"timestamp":"NaT","biz_ext":"{'rating': [], 'cost': []}","行业大":"地名地址信息","行业中":"交通地名","行业小":"桥","typecode_X":0.0,"typecode_Y":0.0,"__source_file__":"04-交通数据/1-交通路网/3-其它/上海市_桥梁.shp"},"geometry":{"type":"Point","coordinates":[121.48895657078043,31.261071216523355]}},{"id":"8132","type":"Feature","properties":{"OBJECTID":1094161,"id":"6e572307-5298-3e04-965e-b4a49b662b78","name":"四平路一号桥","type":"地名地址信息;交通地名;桥","typecode":"190307","address":"虹口区","经度":121.493396,"纬度":31.267752,"tel":null,"pcode":310000,"pname":null,"citycode":21,"cityname":"上海市","adcode":310109,"adname":"虹口区","gridcode":4621732901.0,"distance":"393","business_a":null,"timestamp":"NaT","biz_ext":"{\"rating\": [], \"cost\": []}","行业大":"地名地址信息","行业中":"交通地名","行业小":"桥","typecode_X":0.0,"typecode_Y":0.0,"__source_file__":"04-交通数据/1-交通路网/3-其它/上海市_桥梁.shp"},"geometry":{"type":"Point","coordinates":[121.48893776669358,31.2697344294889]}},{"id":"6668","type":"Feature","properties":{"OBJECTID":1069306,"id":"863633d3-c121-31e0-a56a-926932dda568","name":"大洋桥","type":"地名地址信息;交通地名;桥","typecode":"190307","address":"静安区","经度":121.449504,"纬度":31.253224,"tel":null,"pcode":310000,"pname":null,"citycode":21,"cityname":"上海市","adcode":310106,"adname":"静安区","gridcode":4621730512.0,"distance":"109","business_a":null,"timestamp":"NaT","biz_ext":"{'rating': [], 'cost': []}","行业大":"地名地址信息","行业中":"交通地名","行业小":"桥","typecode_X":0.0,"typecode_Y":0.0,"__source_file__":"04-交通数据/1-交通路网/3-其它/上海市_桥梁.shp"},"geometry":{"type":"Point","coordinates":[121.44490948655847,31.255097840040417]}},{"id":"7721","type":"Feature","properties":{"OBJECTID":1071857,"id":"8deb06a8-e259-3b0f-a6f5-1d3348b61007","name":"彭越浦桥","type":"地名地址信息;交通地名;桥","typecode":"190307","address":"普陀区","经度":121.450937,"纬度":31.256325,"tel":null,"pcode":310000,"pname":null,"citycode":21,"cityname":"上海市","adcode":310107,"adname":"普陀区","gridcode":4621730620.0,"distance":"102","business_a":null,"timestamp":"NaT","biz_ext":"{'rating': [], 'cost': []}","行业大":"地名地址信息","行业中":"交通地名","行业小":"桥","typecode_X":0.0,"typecode_Y":0.0,"__source_file__":"04-交通数据/1-交通路网/3-其它/上海市_桥梁.shp"},"geometry":{"type":"Point","coordinates":[121.4463457198322,31.258200407175245]}},{"id":"7243","type":"Feature","properties":{"OBJECTID":1070654,"id":"8bbc704a-cfc4-37b1-86f5-4671fa96c9f1","name":"谈家桥","type":"地名地址信息;交通地名;桥","typecode":"190307","address":"静安区","经度":121.453069,"纬度":31.260675,"tel":null,"pcode":310000,"pname":null,"citycode":21,"cityname":"上海市","adcode":310106,"adname":"静安区","gridcode":4621731600.0,"distance":"198","business_a":null,"timestamp":"NaT","biz_ext":"{'cost': [], 'rating': []}","行业大":"地名地址信息","行业中":"交通地名","行业小":"桥","typecode_X":0.0,"typecode_Y":0.0,"__source_file__":"04-交通数据/1-交通路网/3-其它/上海市_桥梁.shp"},"geometry":{"type":"Point","coordinates":[121.44848271406033,31.262553004975832]}},{"id":"7039","type":"Feature","properties":{"OBJECTID":1070150,"id":"d2fcf77b-0e44-3dc0-93dc-d2a6b97878a6","name":"洛川路桥","type":"地名地址信息;交通地名;桥","typecode":"190307","address":"静安区","经度":121.449468,"纬度":31.264497,"tel":null,"pcode":310000,"pname":null,"citycode":21,"cityname":"上海市","adcode":310106,"adname":"静安区","gridcode":4621731522.0,"distance":"106","business_a":null,"timestamp":"NaT","biz_ext":"{\"rating\": [], \"cost\": []}","行业大":"地名地址信息","行业中":"交通地名","行业小":"桥","typecode_X":0.0,"typecode_Y":0.0,"__source_file__":"04-交通数据/1-交通路网/3-其它/上海市_桥梁.shp"},"geometry":{"type":"Point","coordinates":[121.44487242220056,31.26636586171158]}},{"id":"5617","type":"Feature","properties":{"OBJECTID":992749,"id":"9d464d19-6aa7-3a94-88d1-81fda319665e","name":"延长路桥","type":"地名地址信息;交通地名;桥","typecode":"190307","address":"静安区","经度":121.447955,"纬度":31.267864,"tel":null,"pcode":310000,"pname":null,"citycode":21,"cityname":"上海市","adcode":310106,"adname":"静安区","gridcode":4621732502.0,"distance":"223","business_a":null,"timestamp":"NaT","biz_ext":"{'rating': [], 'cost': []}","行业大":"地名地址信息","行业中":"交通地名","行业小":"桥","typecode_X":0.0,"typecode_Y":0.0,"__source_file__":"04-交通数据/1-交通路网/3-其它/上海市_桥梁.shp"},"geometry":{"type":"Point","coordinates":[121.44335553088615,31.269728411209567]}},{"id":"8252","type":"Feature","properties":{"OBJECTID":1094515,"id":"5f210cb2-c82d-31bb-8332-58108d1b56ef","name":"八字桥","type":"地名地址信息;交通地名;桥","typecode":"190307","address":"虹口区","经度":121.470245,"纬度":31.271858,"tel":null,"pcode":310000,"pname":null,"citycode":21,"cityname":"上海市","adcode":310109,"adname":"虹口区","gridcode":4621732711.0,"distance":"225","business_a":null,"timestamp":"NaT","biz_ext":"{\"rating\": [], \"cost\": []}","行业大":"地名地址信息","行业中":"交通地名","行业小":"桥","typecode_X":0.0,"typecode_Y":0.0,"__source_file__":"04-交通数据/1-交通路网/3-其它/上海市_桥梁.shp"},"geometry":{"type":"Point","coordinates":[121.4657072705472,31.273772633810133]}},{"id":"3799","type":"Feature","properties":{"OBJECTID":748724,"id":"997d8348-b580-322e-ab17-c357a50deada","name":"株洲路桥","type":"地名地址信息;交通地名;桥","typecode":"190307","address":"虹口区","经度":121.465462,"纬度":31.274191,"tel":"[]","pcode":310000,"pname":"上海市","citycode":21,"cityname":"上海市","adcode":310109,"adname":"虹口区","gridcode":4621732720.0,"distance":"187","business_a":"凉城","timestamp":"2022-09-28","biz_ext":"{'rating': [], 'cost': []}","行业大":"地名地址信息","行业中":"交通地名","行业小":"桥","typecode_X":0.0,"typecode_Y":0.0,"__source_file__":"04-交通数据/1-交通路网/3-其它/上海市_桥梁.shp"},"geometry":{"type":"Point","coordinates":[121.4609092635306,31.276092273790688]}}],"name":"上海市_桥梁","crs":{"type":"name","properties":{"name":"urn:ogc:def:crs:OGC:1.3:CRS84"}}}