{"type":"FeatureCollection","features":[{"id":"217","type":"Feature","properties":{"OBJECTID_1":218,"OBJECTID":20813,"GB":"450308","RN":null,"NAME":"延安东路立交桥","PERIOD":null,"BRGLEV":0.0,"ANGLE":null,"__source_file__":"04-交通数据/1-交通路网/3-其它/上海市_大桥隧道点.shp"},"geometry":{"type":"Point","coordinates":[121.46470930978683,31.22622512458986]}},{"id":"222","type":"Feature","properties":{"OBJECTID_1":223,"OBJECTID":20825,"GB":"450602","RN":null,"NAME":"延安东路隧道","PERIOD":null,"BRGLEV":0.0,"ANGLE":null,"__source_file__":"04-交通数据/1-交通路网/3-其它/上海市_大桥隧道点.shp"},"geometry":{"type":"Point","coordinates":[121.49163500015516,31.237630000324316]}},{"id":"207","type":"Feature","properties":{"OBJECTID_1":208,"OBJECTID":20779,"GB":"450602","RN":null,"NAME":"外滩隧道","PERIOD":null,"BRGLEV":0.0,"ANGLE":null,"__source_file__":"04-交通数据/1-交通路网/3-其它/上海市_大桥隧道点.shp"},"geometry":{"type":"Point","coordinates":[121.4859244247724,31.237859830167054]}},{"id":"8","type":"Feature","properties":{"OBJECTID_1":9,"OBJECTID":19303,"GB":"410301","RN":"0615052","NAME":"上海","PERIOD":null,"BRGLEV":0.0,"ANGLE":"24","__source_file__":"04-交通数据/1-交通路网/3-其它/上海市_大桥隧道点.shp"},"geometry":{"type":"Point","coordinates":[121.45111692490627,31.252471055195088]}},{"id":"149","type":"Feature","properties":{"OBJECTID_1":150,"OBJECTID":20296,"GB":"450308","RN":null,"NAME":"内环共和新路立交桥","PERIOD":null,"BRGLEV":0.0,"ANGLE":null,"__source_file__":"04-交通数据/1-交通路网/3-其它/上海市_大桥隧道点.shp"},"geometry":{"type":"Point","coordinates":[121.45695062467166,31.262701015239713]}}],"name":"上海市_大桥隧道点","crs":{"type":"name","properties":{"name":"urn:ogc:def:crs:OGC:1.3:CRS84"}}}