{"type":"FeatureCollection","features":[{"id":"142","type":"Feature","properties":{"gml_id":"v2_layer_water_road_pg.3168","code":8101,"fclass":"river","width":0,"Name":"黄浦江","__source_file__":"11-蓝绿空间/上海市_水路.shp"},"geometry":{"type":"LineString","coordinates":[[121.4924714571252,31.2338520404241],[121.4913429,31.2346646],[121.48919,31.2377143],[121.4885256,31.2403158],[121.4888903,31.2421809],[121.48891,31.2423755],[121.4890421,31.2426143],[121.490504,31.2442046],[121.4923766,31.2450648],[121.4970561,31.2472327],[121.49757025603769,31.247372422965263]]}},{"id":"6954","type":"Feature","properties":{"gml_id":"v2_layer_water_road_pg.198050","code":8101,"fclass":"river","width":0,"Name":"吴淞江","__source_file__":"11-蓝绿空间/上海市_水路.shp"},"geometry":{"type":"LineString","coordinates":[[121.42381220149123,31.23938428591917],[121.4248591,31.240057],[121.4259063,31.2406734],[121.4261724,31.2409963],[121.4262496,31.2413852],[121.4258887,31.2424291],[121.425245,31.244337],[121.4245587,31.2457295],[121.4244729,31.246045],[121.4246274,31.2463385],[121.4262749,31.2466485],[121.4287473,31.2471237],[121.4291503,31.2473457],[121.4293824,31.2477107],[121.4294507,31.2481528],[121.4292193,31.2503817],[121.4292365,31.2511448],[121.4295794,31.2513815],[121.4301892,31.2513356],[121.430996,31.2509394],[121.4321543,31.2500607],[121.4326693,31.2497672],[121.4330216,31.24978],[121.4334422,31.2501836],[121.4339057,31.2513797],[121.4345576,31.2530691],[121.4349868,31.2543532],[121.4350712,31.2545147],[121.4352643,31.2547486],[121.4354625,31.2548649],[121.4357629,31.2549237],[121.4361019,31.2549044],[121.4364231,31.2547853],[121.4366941,31.2545871],[121.436938,31.2543038],[121.4371576,31.2539423],[121.4372599,31.253648],[121.4373511,31.2533315],[121.4375067,31.2524327],[121.437605,31.2521556],[121.4377831,31.2518997],[121.4380699,31.2516714],[121.4383314,31.2515438],[121.438778,31.2514696],[121.4392358,31.2514787],[121.4401044,31.2515374],[121.4422233,31.2517896],[121.4429998,31.2519237],[121.4437133,31.2521621],[121.4443423,31.2524087],[121.444928,31.2526813],[121.4453146,31.2528612],[121.4455828,31.2529438],[121.4458403,31.2529162],[121.4460442,31.2527787],[121.4461461,31.252378],[121.4461675,31.251846],[121.4461246,31.2508004],[121.4458993,31.2498098],[121.4452355,31.2487582],[121.4438179,31.2473054],[121.4436623,31.2470796],[121.4436221,31.2468078],[121.4436302,31.2465877],[121.443767,31.2463747],[121.4443134,31.2458321],[121.4471747,31.2440068],[121.4488047,31.2429465],[121.4497832,31.2418531],[121.4507796,31.2409247],[121.4515138,31.2402771],[121.4520121,31.2400406],[121.4525576,31.2399158],[121.4528489,31.2398984],[121.4531435,31.239924],[121.453616,31.2400497],[121.4540827,31.2402469],[121.4545226,31.24049],[121.4549961,31.2408972],[121.4555097,31.2415083],[121.4561373,31.2422742],[121.4563411,31.2424783],[121.456604,31.2426663],[121.4568611,31.2427906],[121.4574194,31.2430218],[121.4578056,31.2431548],[121.4581171,31.2432541],[121.4583585,31.2433092],[121.45901,31.2433722],[121.4604862,31.2430989],[121.4619368,31.2426383],[121.4639237,31.2413435],[121.4647606,31.2411325],[121.4656404,31.2411508],[121.4664987,31.2413893],[121.4672393,31.2418375],[121.4686582,31.2426946],[121.4692268,31.2430615],[121.4704928,31.2433642],[121.4712975,31.2433642],[121.4718017,31.2433458],[121.4723811,31.2432083],[121.4735613,31.2426854],[121.4743177,31.2423012],[121.475074,31.2421167],[121.4755293,31.2420588],[121.4761282,31.2421488],[121.4765932,31.2423207],[121.4769495,31.2424685],[121.4773267,31.2427161],[121.47806,31.2433789],[121.4784714,31.2439295],[121.4789257,31.2443732],[121.4798162,31.2451804],[121.4804492,31.2455932],[121.4808998,31.24585],[121.4815714,31.2461077],[121.481882,31.2461848],[121.4822302,31.2462444],[121.4827451,31.2462834],[121.4831984,31.2462123],[121.483697,31.2460992],[121.4841396,31.2459525],[121.48462,31.2457858],[121.4860308,31.2452606],[121.4866645,31.2450543],[121.4874082,31.2448169],[121.490504,31.2442046]]}},{"id":"5221","type":"Feature","properties":{"gml_id":"v2_layer_water_road_pg.140941","code":8101,"fclass":"river","width":0,"Name":"真如港","__source_file__":"11-蓝绿空间/上海市_水路.shp"},"geometry":{"type":"LineString","coordinates":[[121.42161298298227,31.25180925842381],[121.421672,31.2518373],[121.4219305,31.2521253],[121.4222649,31.252368],[121.4228462,31.2526903],[121.4236799,31.2527903],[121.4251263,31.2531847],[121.4258863,31.2533327],[121.4261766,31.253315],[121.4262803,31.2533434],[121.4266162,31.2536376],[121.429876,31.2546623],[121.4301331,31.2546962],[121.4303692,31.2546794],[121.4312919,31.2547874],[121.4317129,31.2548951],[121.4319097,31.2548816],[121.4320143,31.2548154]]}},{"id":"5224","type":"Feature","properties":{"gml_id":"v2_layer_water_road_pg.140944","code":8101,"fclass":"river","width":0,"Name":"真如港","__source_file__":"11-蓝绿空间/上海市_水路.shp"},"geometry":{"type":"LineString","coordinates":[[121.4320143,31.2548154],[121.4321969,31.2546999]]}},{"id":"5223","type":"Feature","properties":{"gml_id":"v2_layer_water_road_pg.140943","code":8101,"fclass":"river","width":0,"Name":"真如港","__source_file__":"11-蓝绿空间/上海市_水路.shp"},"geometry":{"type":"LineString","coordinates":[[121.4321969,31.2546999],[121.4323347,31.2546831],[121.4325039,31.254747],[121.4329587,31.2550232],[121.4331052,31.2551122],[121.4332915,31.2551767],[121.4334729,31.2551746],[121.4339413,31.2547483],[121.4340798,31.254589],[121.4342687,31.2545201],[121.4346162,31.2545481],[121.4347859,31.2544885],[121.4349868,31.2543532]]}},{"id":"69","type":"Feature","properties":{"gml_id":"v2_layer_water_road_pg.640","code":8104,"fclass":"drain","width":0,"Name":"虹口港","__source_file__":"11-蓝绿空间/上海市_水路.shp"},"geometry":{"type":"LineString","coordinates":[[121.45871622062792,31.278988169252038],[121.4587487,31.2789355],[121.4587621,31.2787007],[121.4587719,31.2785685],[121.4588132,31.2784659],[121.4589243,31.2783397],[121.4594577,31.2778248],[121.4596702,31.2775115],[121.4599197,31.2770898],[121.4600084,31.2769098],[121.4601054,31.2765655],[121.4601913,31.2764218],[121.4602819,31.2763483],[121.460424,31.2763608],[121.4610986,31.2767051],[121.4615535,31.2769138],[121.4617544,31.2769895],[121.4619334,31.2770558],[121.4621175,31.2771442],[121.46258,31.277446],[121.4626769,31.2774637],[121.4627876,31.277443],[121.4628782,31.2773832],[121.4631343,31.2770504],[121.4635757,31.2765157],[121.4639326,31.2760768],[121.464243,31.2755556],[121.464412,31.2753208],[121.4646503,31.2750763],[121.4648927,31.2748912],[121.4651327,31.2746531],[121.4654653,31.2742425],[121.4657749,31.2739576],[121.4661166,31.2735823],[121.4663855,31.2732672],[121.4666044,31.2730422],[121.4668418,31.2727983],[121.4669462,31.2725965],[121.4670295,31.2723723],[121.4671299,31.2721825],[121.4673091,31.2720072],[121.4676182,31.2718478],[121.4677914,31.2716952],[121.4684234,31.2707732],[121.4684404,31.2704076],[121.4684482,31.2701861],[121.4685894,31.2699279],[121.4687592,31.2696969],[121.469116,31.2694985],[121.4692754,31.2694079],[121.4696625,31.268957],[121.469894,31.2688072],[121.4704583,31.2686154],[121.4707363,31.2684623],[121.471708,31.2677268],[121.4720072,31.2675302],[121.4726439,31.2672505],[121.4727428,31.2671772],[121.472745,31.2670786],[121.4726645,31.2669981],[121.4724621,31.2669019],[121.4724515,31.2668988],[121.4719756,31.2667602],[121.4719024,31.2666882],[121.4719089,31.2666239],[121.4720306,31.2664992],[121.4724386,31.2663646],[121.4727945,31.2662059],[121.4729446,31.2661146],[121.473019,31.2660485],[121.4729955,31.265972],[121.4729494,31.2658734],[121.4729456,31.2657455],[121.4729973,31.2656429],[121.4733485,31.2653285],[121.4734798,31.2653098],[121.473672,31.2653083],[121.4738288,31.2652194],[121.4739057,31.2651077],[121.4740407,31.2648903],[121.4742057,31.2647891],[121.4745483,31.2647463],[121.4746854,31.2646631],[121.4747223,31.264537],[121.474647,31.2642569],[121.4742712,31.2632607],[121.4742775,31.2631537],[121.4743684,31.2630487],[121.4748928,31.2627315]]}},{"id":"158","type":"Feature","properties":{"gml_id":"v2_layer_water_road_pg.3342","code":8101,"fclass":"river","width":0,"Name":"彭越浦","__source_file__":"11-蓝绿空间/上海市_水路.shp"},"geometry":{"type":"LineString","coordinates":[[121.43828564651797,31.27487960973775],[121.4386733,31.2746623],[121.4388438,31.2744505],[121.4391013,31.2740562],[121.4392301,31.2739186],[121.4394554,31.2738086],[121.4400884,31.2737444],[121.4402922,31.2736894],[121.4404639,31.2735793],[121.4409467,31.27324],[121.4411183,31.2730475],[121.4412149,31.2727632],[121.4413222,31.2725248],[121.4414724,31.2723597],[121.4422019,31.2716903],[121.4428135,31.2709842],[121.4429208,31.2706999],[121.4429315,31.2704798],[121.4430388,31.2702781],[121.443307,31.2699021],[121.443425,31.2695811],[121.4433821,31.2693152],[121.4432963,31.2688108],[121.4433285,31.2686274],[121.4434679,31.268389],[121.4442619,31.2670226],[121.4444228,31.2667291],[121.4446052,31.2665916],[121.4455815,31.2660322],[121.4459678,31.2659221],[121.4461609,31.2659313],[121.4465686,31.2661147],[121.4467939,31.2661331],[121.4469441,31.2660689],[121.4470406,31.2659772],[121.4472016,31.2655828],[121.4473411,31.2653444],[121.4477702,31.2648216],[121.4478346,31.2647116],[121.4478346,31.2645832],[121.4477809,31.264464],[121.4474913,31.2642531],[121.4473196,31.2640696],[121.4472552,31.263877],[121.447266,31.2637303],[121.4473732,31.2635836],[121.447502,31.263501],[121.4479848,31.2634002],[121.4483174,31.2632351],[121.4484676,31.263015],[121.4488431,31.2616668],[121.4491703,31.2605892],[121.4491394,31.2604165],[121.4485279,31.2599166],[121.4481053,31.2593972],[121.4479386,31.2592909],[121.4476481,31.2591508],[121.447239,31.258862],[121.4468488,31.2584549],[121.4464662,31.258129],[121.4458095,31.2574714],[121.4456056,31.2571882],[121.4454447,31.2568271],[121.4453259,31.2565076],[121.4453047,31.2562407],[121.4453233,31.2560588],[121.4453839,31.2558426],[121.4453427,31.2557644],[121.4451986,31.2556163],[121.445062,31.2555293],[121.4449709,31.2554015],[121.4448272,31.2550412],[121.4445659,31.2543974],[121.4445614,31.2543132],[121.4445579,31.2542484],[121.4445914,31.2540718],[121.4448942,31.2530237],[121.444928,31.2526813]]}},{"id":"3045","type":"Feature","properties":{"gml_id":"v2_layer_water_road_pg.81360","code":8102,"fclass":"stream","width":0,"Name":null,"__source_file__":"11-蓝绿空间/上海市_水路.shp"},"geometry":{"type":"LineString","coordinates":[[121.466901,31.2260498],[121.4672876,31.2260906],[121.4674144,31.2262067]]}},{"id":"6937","type":"Feature","properties":{"gml_id":"v2_layer_water_road_pg.197926","code":8104,"fclass":"drain","width":0,"Name":"虹口港","__source_file__":"11-蓝绿空间/上海市_水路.shp"},"geometry":{"type":"LineString","coordinates":[[121.4832581,31.257916],[121.4833208,31.2575201],[121.4838251,31.2571149],[121.4841381,31.2567853],[121.4843847,31.256611],[121.4848541,31.2564765],[121.4869288,31.2558739],[121.487305,31.2557187],[121.4874827,31.2555887],[121.4875696,31.2553817],[121.4876205,31.2551608],[121.4876074,31.2548492],[121.4875485,31.2544307],[121.4872617,31.2534278],[121.4872454,31.2532071],[121.4872583,31.252946],[121.4873287,31.2527872],[121.4875236,31.2525923],[121.4877823,31.2524171],[121.4879188,31.2523255],[121.4880468,31.2521987],[121.4881463,31.2520914],[121.4882203,31.2519781],[121.4883431,31.2517139],[121.4885494,31.251222],[121.4889872,31.2502629],[121.4891358,31.2500723],[121.4893376,31.2499275],[121.4901169,31.249444],[121.4903715,31.2492107],[121.4905405,31.2489462],[121.4906524,31.2486242],[121.4908964,31.2476683],[121.4923766,31.2450648]]}},{"id":"6273","type":"Feature","properties":{"gml_id":"v2_layer_water_road_pg.185812","code":8104,"fclass":"drain","width":0,"Name":"虹口港","__source_file__":"11-蓝绿空间/上海市_水路.shp"},"geometry":{"type":"LineString","coordinates":[[121.4758323,31.2624343],[121.4759326,31.262424],[121.4760549,31.2623787],[121.4761598,31.2622618],[121.4764224,31.2619474],[121.4765658,31.2618136],[121.4767295,31.2617151],[121.4798244,31.2602714],[121.4800222,31.2601443],[121.4801984,31.2599503],[121.4805396,31.2593409],[121.4807653,31.2589795],[121.481054,31.2587266],[121.4816181,31.2584324],[121.4817809,31.2584001],[121.4819377,31.2584372],[121.4820892,31.2585595],[121.4826179,31.2590124],[121.4828183,31.2590915],[121.4830244,31.2590447],[121.4832905,31.2587608],[121.4832048,31.2584325],[121.4832009,31.2582771],[121.4832581,31.257916]]}},{"id":"6274","type":"Feature","properties":{"gml_id":"v2_layer_water_road_pg.185813","code":8104,"fclass":"drain","width":0,"Name":"虹口港","__source_file__":"11-蓝绿空间/上海市_水路.shp"},"geometry":{"type":"LineString","coordinates":[[121.4754947,31.2624291],[121.4758323,31.2624343]]}},{"id":"6938","type":"Feature","properties":{"gml_id":"v2_layer_water_road_pg.197927","code":8104,"fclass":"drain","width":0,"Name":"虹口港","__source_file__":"11-蓝绿空间/上海市_水路.shp"},"geometry":{"type":"LineString","coordinates":[[121.4748928,31.2627315],[121.4751154,31.2625935],[121.4754947,31.2624291]]}},{"id":"3616","type":"Feature","properties":{"gml_id":"v2_layer_water_road_pg.93787","code":8101,"fclass":"river","width":0,"Name":"沙泾港","__source_file__":"11-蓝绿空间/上海市_水路.shp"},"geometry":{"type":"LineString","coordinates":[[121.48876913933225,31.269983348335963],[121.4887498,31.2697084],[121.4888614,31.2694589],[121.4894622,31.2688134],[121.4895223,31.2685786],[121.4894365,31.2681384],[121.489269,31.2677428],[121.4892989,31.2675532],[121.4896152,31.2672765],[121.4898656,31.267038],[121.4898911,31.2668691],[121.4898055,31.2667181],[121.4896161,31.2665429],[121.4894369,31.2663029],[121.4894407,31.2660895],[121.4896596,31.2658641],[121.4898313,31.2656954],[121.4899343,31.265512],[121.4899824,31.265329],[121.4898484,31.2651818],[121.4892905,31.2645949],[121.4890764,31.26434],[121.48904,31.2642212],[121.4890469,31.2641085],[121.4890894,31.263969],[121.489186,31.2638603],[121.4897636,31.2635367],[121.4898152,31.2634486],[121.4898164,31.2633292],[121.4897546,31.263195],[121.4896376,31.2630412],[121.4893399,31.2628309],[121.4888765,31.2624196],[121.4887027,31.2622436],[121.4886361,31.2621225],[121.4885953,31.2619885],[121.4885975,31.2616602],[121.4886671,31.2612172],[121.4886619,31.2610548],[121.4886186,31.2608971],[121.4882907,31.2601249],[121.488149,31.2595545],[121.4880525,31.2592835],[121.4880202,31.2591449],[121.4879692,31.2590096],[121.4878725,31.2588661],[121.4872963,31.2582232],[121.4871651,31.2580169],[121.4870953,31.2578129],[121.4870911,31.2575814],[121.4871368,31.2573965],[121.4871945,31.2571689],[121.4871743,31.2570365],[121.4870658,31.2569282],[121.4869211,31.2568613],[121.4867145,31.2568572],[121.4864599,31.2569667],[121.4861095,31.2572648],[121.4857931,31.2576009],[121.4855831,31.2578886],[121.4854963,31.2580361],[121.4853846,31.2581178],[121.4852657,31.2581393],[121.4851294,31.2580834],[121.4847378,31.2577156],[121.4844394,31.2574794],[121.4838251,31.2571149]]}}],"name":"上海市_水路","crs":{"type":"name","properties":{"name":"urn:ogc:def:crs:OGC:1.3:CRS84"}}}