{"type":"FeatureCollection","features":[{"id":"825","type":"Feature","properties":{"gml_id":"layer_greenland_pg.17448","Name":"复兴公园","pyname":"fxgy","kind":"0141","__source_file__":"11-蓝绿空间/上海市_绿地.shp"},"geometry":{"type":"Polygon","coordinates":[[[121.46327568,31.2192671],[121.46313546,31.21963673],[121.46311548,31.21976664],[121.46311548,31.21985664],[121.46312538,31.21993661],[121.46315544,31.22005662],[121.46316552,31.22008664],[121.4631756,31.22011665],[121.46321574,31.22013672],[121.4632557,31.22015679],[121.46370678,31.22030754],[121.46386716,31.2203678],[121.46390712,31.22036789],[121.46393718,31.22035794],[121.46396724,31.22033801],[121.46403744,31.22019819],[121.46405742,31.22016822],[121.46408748,31.2201383],[121.46410764,31.22011836],[121.46414778,31.22011841],[121.46452848,31.22025908],[121.46487012,31.22039997],[121.46497074,31.2204303],[121.46506128,31.22046063],[121.46514174,31.22047085],[121.46520186,31.220451],[121.46523174,31.22039102],[121.4652816,31.22030102],[121.46550066,31.21980098],[121.46564088,31.21951136],[121.46569799700633,31.219386594053148],[121.4641492265292,31.21924943018647],[121.46328146742412,31.21924545973149],[121.46327568,31.2192671]]]}},{"id":"168","type":"Feature","properties":{"gml_id":"layer_greenland_pg.16752","Name":"太平桥公园","pyname":"tpqgy","kind":"0141","__source_file__":"11-蓝绿空间/上海市_绿地.shp"},"geometry":{"type":"Polygon","coordinates":[[[121.47171984,31.22200233],[121.47179004,31.22195247],[121.4718498,31.22185248],[121.47182946,31.22177229],[121.4717688,31.22172207],[121.47171822,31.22165178],[121.47173802,31.22158176],[121.47179832,31.22156187],[121.471929,31.2215823],[121.47197958,31.22165255],[121.47201018,31.2217628],[121.47207084,31.2218231],[121.47216138,31.22186342],[121.47225192,31.22187368],[121.47231222,31.22187386],[121.47244272,31.22187426],[121.4725833,31.22186463],[121.47268374,31.22183489],[121.47276384,31.22177504],[121.47296148,31.22106449],[121.4717445,31.22080056],[121.47163398,31.22078018],[121.47158376,31.22079008],[121.47154362,31.22080997],[121.47152382,31.22086001],[121.47140574,31.22142053],[121.47140628,31.22153069],[121.47143688,31.22163095],[121.47149772,31.22175132],[121.47150816,31.22182143],[121.47148836,31.22190153],[121.47171984,31.22200233]]]}},{"id":"51","type":"Feature","properties":{"gml_id":"layer_greenland_pg.16632","Name":"太平桥公园","pyname":"tpqgy","kind":"0141","__source_file__":"11-蓝绿空间/上海市_绿地.shp"},"geometry":{"type":"Polygon","coordinates":[[[121.47411132,31.22201934],[121.47417126,31.22192934],[121.47423084,31.2217893],[121.47427044,31.22165921],[121.47421986,31.22158896],[121.47400836,31.22146818],[121.47380676,31.22133737],[121.47362532,31.22121668],[121.47296148,31.22106449],[121.47276384,31.22177504],[121.47289434,31.22173535],[121.47306498,31.22172581],[121.4732259,31.22174633],[121.47330618,31.22172653],[121.4733663,31.22169665],[121.47338628,31.22166668],[121.4734662,31.22155674],[121.47350598,31.22148672],[121.47353604,31.22144676],[121.47357618,31.22143686],[121.47365664,31.22144712],[121.47374718,31.22148744],[121.4738982,31.221558],[121.47400908,31.22163842],[121.47404958,31.22168864],[121.47408,31.2217488],[121.47409044,31.22182895],[121.47406038,31.22186895],[121.47400026,31.2218888],[121.47393996,31.22188862],[121.4738595,31.22187836],[121.47378912,31.22187818],[121.4737389,31.22186801],[121.47370848,31.22182787],[121.47365808,31.22178764],[121.47359778,31.22177747],[121.47352758,31.22181729],[121.4735076,31.22184731],[121.47347772,31.22186724],[121.47344748,31.22186715],[121.47338718,31.22184695],[121.47332688,31.22184677],[121.47327666,31.22186666],[121.47322662,31.22188655],[121.47317622,31.22188641],[121.47310602,31.22188619],[121.4730558,31.22191611],[121.47303582,31.22192606],[121.4729757,31.2219459],[121.47290532,31.22195571],[121.47286518,31.22196561],[121.4728452,31.22199563],[121.47280506,31.22201552],[121.472775,31.22203545],[121.47273486,31.22202533],[121.4727048,31.22204526],[121.47265476,31.22207519],[121.47256458,31.22213499],[121.4724942,31.2221448],[121.47245388,31.22211465],[121.47239358,31.22211447],[121.47234354,31.22213436],[121.47231366,31.22220438],[121.47231384,31.22225447],[121.47225372,31.22228435],[121.4721333,31.22230401],[121.47207318,31.22233389],[121.47206328,31.22238393],[121.47203322,31.22240387],[121.471983,31.22240373],[121.4719128,31.22242358],[121.47186276,31.22247348],[121.47181254,31.22247335],[121.4717823,31.2224432],[121.47178176,31.22235306],[121.47174144,31.22232291],[121.47165108,31.22231265],[121.47161058,31.22228246],[121.47163056,31.22224245],[121.47168078,31.2222326],[121.47173082,31.22220267],[121.47173064,31.22215263],[121.47169014,31.22209242],[121.47167988,31.22205233],[121.47171984,31.22200233],[121.47148836,31.22190153],[121.47144894,31.22208167],[121.47136974,31.22233187],[121.47131034,31.22251196],[121.47133068,31.22257212],[121.47139116,31.22261235],[121.4714817,31.22262261],[121.47157206,31.22261289],[121.47201342,31.22247393],[121.47237432,31.2222947],[121.47291576,31.22204589],[121.47319674,31.2219666],[121.47324696,31.22196674],[121.47357852,31.22194766],[121.47388002,31.22198861],[121.47406128,31.22204922],[121.47411132,31.22201934]]]}},{"id":"50","type":"Feature","properties":{"gml_id":"layer_greenland_pg.16631","Name":"广场公园（卢湾段）","pyname":"gcgy(lwd)","kind":"0141","__source_file__":"11-蓝绿空间/上海市_绿地.shp"},"geometry":{"type":"Polygon","coordinates":[[[121.46320908,31.22408088],[121.46315058,31.22448134],[121.46311314,31.22507214],[121.46314374,31.22520242],[121.4632647,31.22527289],[121.46348592,31.2253236],[121.46353614,31.22532378],[121.4635761,31.2252638],[121.46360598,31.2252138],[121.46363604,31.22518383],[121.46370624,31.22516399],[121.46381676,31.22515431],[121.46409828,31.22519517],[121.46455062,31.22523657],[121.464792,31.22526731],[121.46488272,31.2253277],[121.46490306,31.22539785],[121.46493348,31.22546805],[121.46498406,31.22551827],[121.46505426,31.22551845],[121.46514444,31.22545865],[121.46541498,31.22527914],[121.46555502,31.22514936],[121.46565474,31.22498939],[121.46568462,31.22491937],[121.46568444,31.22487932],[121.46569434,31.2248493],[121.46568408,31.2248192],[121.4655219,31.22451828],[121.46549166,31.22449817],[121.46545152,31.22447801],[121.46336928,31.2239912],[121.46325876,31.22399088],[121.46320908,31.22408088]]]}},{"id":"364","type":"Feature","properties":{"gml_id":"layer_greenland_pg.16958","Name":"延中公园药草园","pyname":"yzgyycy","kind":"0141","__source_file__":"11-蓝绿空间/上海市_绿地.shp"},"geometry":{"type":"Polygon","coordinates":[[[121.45885488,31.22550045],[121.45890528,31.22555067],[121.45901598,31.22559104],[121.45914666,31.22560143],[121.45925718,31.22559176],[121.45998024,31.22552376],[121.46089428,31.2254663],[121.46202972,31.2254496],[121.4623512,31.2254505],[121.46260248,31.22547129],[121.46275314,31.22548173],[121.46282352,31.22546189],[121.46286348,31.22542197],[121.46286312,31.22536185],[121.4628228,31.22531168],[121.46278248,31.22527149],[121.46270184,31.22523117],[121.4620983,31.22506917],[121.46172606,31.22498799],[121.46153508,31.22496738],[121.46112306,31.22495618],[121.45896252,31.2248898],[121.45883202,31.22491946],[121.45878216,31.22500946],[121.45880322,31.22520984],[121.45882446,31.22545028],[121.45885488,31.22550045]]]}},{"id":"516","type":"Feature","properties":{"gml_id":"layer_greenland_pg.17119","Name":"中国青年编辑部旧址","pyname":"zgqnbjbjz","kind":"0141","__source_file__":"11-蓝绿空间/上海市_绿地.shp"},"geometry":{"type":"Polygon","coordinates":[[[121.46814414,31.22664921],[121.4680635,31.2265989],[121.468023,31.22652866],[121.46801274,31.22645855],[121.46803218,31.22631837],[121.46812146,31.22609828],[121.46813118,31.22602821],[121.4681211,31.22599811],[121.46810076,31.225968],[121.46806044,31.22593785],[121.46793984,31.22590748],[121.46760792,31.22583638],[121.46679324,31.22565372],[121.4662905,31.22558217],[121.4661699,31.22558181],[121.4660394,31.22559144],[121.46591916,31.22568122],[121.46583924,31.22577113],[121.46580972,31.22590127],[121.46581098,31.22618171],[121.46584212,31.22639213],[121.4658927,31.2264824],[121.46598342,31.22655278],[121.46631552,31.22666393],[121.46702022,31.22694639],[121.46776506,31.22724906],[121.46845968,31.22752149],[121.46855022,31.22754179],[121.4686305,31.22753198],[121.46868036,31.22746205],[121.46889942,31.22701196],[121.46889924,31.2269819],[121.46887908,31.22695179],[121.46885892,31.22693172],[121.46857704,31.22682075],[121.46844618,31.2267803],[121.46814414,31.22664921]]]}},{"id":"49","type":"Feature","properties":{"gml_id":"layer_greenland_pg.16630","Name":"延安中路大型公共绿地（静安段）","pyname":"yazldxggld(jad)","kind":"0141","__source_file__":"11-蓝绿空间/上海市_绿地.shp"},"geometry":{"type":"Polygon","coordinates":[[[121.46117832,31.22604806],[121.46102766,31.22606763],[121.46097762,31.22609756],[121.46093766,31.22614751],[121.46092794,31.22622761],[121.46093982,31.22660822],[121.4609625,31.22717918],[121.46098266,31.22720928],[121.46103306,31.22721945],[121.46126418,31.22724015],[121.4623197,31.22734338],[121.46245038,31.22736377],[121.46277222,31.2274148],[121.46288256,31.22740512],[121.46293278,31.2273752],[121.46295258,31.2273252],[121.4628678,31.22637345],[121.4628471,31.22622315],[121.46283684,31.22617307],[121.4628165,31.22613293],[121.46278626,31.22609279],[121.4627157,31.22607254],[121.46248458,31.22606187],[121.46117832,31.22604806]]]}},{"id":"885","type":"Feature","properties":{"gml_id":"layer_greenland_pg.17508","Name":"延安中路大型公共绿地（静安段）","pyname":"yazldxggld(jad)","kind":"0141","__source_file__":"11-蓝绿空间/上海市_绿地.shp"},"geometry":{"type":"Polygon","coordinates":[[[121.46322384,31.22731598],[121.463244,31.22734608],[121.46328432,31.22734617],[121.46334426,31.22729627],[121.46343444,31.22721644],[121.46372442,31.22690679],[121.4640243,31.22659715],[121.46412438,31.22651732],[121.46414436,31.22646732],[121.46413392,31.22639717],[121.46406336,31.22635689],[121.46391252,31.22629637],[121.46323878,31.22619426],[121.46317848,31.22618405],[121.46314842,31.22619399],[121.46312844,31.226234],[121.4631909,31.22670492],[121.46322384,31.22731598]]]}},{"id":"162","type":"Feature","properties":{"gml_id":"layer_greenland_pg.16746","Name":"淮海公园","pyname":"hhgy","kind":"0141","__source_file__":"11-蓝绿空间/上海市_绿地.shp"},"geometry":{"type":"Polygon","coordinates":[[[121.47304572,31.22628287],[121.47359328,31.22518275],[121.4736831,31.22502278],[121.47379236,31.2247827],[121.473882,31.22457264],[121.47397128,31.22433252],[121.473981,31.22428248],[121.47394068,31.22425229],[121.47338736,31.22410046],[121.4732466,31.22408003],[121.4730459,31.22411949],[121.47289578,31.22424927],[121.47275574,31.22437905],[121.47271596,31.2244691],[121.47266628,31.22461917],[121.4726274,31.22486946],[121.47262848,31.22510985],[121.4725896,31.22541018],[121.47242076,31.22583035],[121.47239106,31.22592039],[121.47238134,31.22600049],[121.47240168,31.22605062],[121.472442,31.22609081],[121.47293538,31.22631261],[121.47300576,31.22631279],[121.47304572,31.22628287]]]}},{"id":"196","type":"Feature","properties":{"gml_id":"layer_greenland_pg.16780","Name":"豫园","pyname":"yy","kind":"0141","__source_file__":"11-蓝绿空间/上海市_绿地.shp"},"geometry":{"type":"Polygon","coordinates":[[[121.48775874,31.22917011],[121.48771878,31.22921003],[121.48766856,31.22921993],[121.48761834,31.22920976],[121.4874675,31.22918928],[121.48739712,31.22916903],[121.48735698,31.22917893],[121.48731684,31.22920886],[121.48728714,31.22927888],[121.48725726,31.2293489],[121.48722756,31.22945901],[121.48733808,31.22944929],[121.48730784,31.22941919],[121.4872875,31.22938908],[121.48732764,31.22935916],[121.48736778,31.22936928],[121.487418,31.22935938],[121.4874684,31.22936955],[121.48750854,31.22938971],[121.48750872,31.22942976],[121.48765938,31.22941019],[121.4876592,31.22937014],[121.4876691,31.22934008],[121.48768908,31.22929008],[121.48770888,31.22925008],[121.48777908,31.22921021],[121.48779906,31.22919023],[121.48782912,31.22917029],[121.4878491,31.22915031],[121.48787916,31.22914041],[121.48787934,31.22917043],[121.48786962,31.22924054],[121.48786998,31.22932064],[121.48788024,31.22936073],[121.48792074,31.22943098],[121.48791084,31.22947103],[121.48789086,31.22949096],[121.4878608,31.22949087],[121.48780086,31.22957084],[121.487841,31.22956094],[121.48787106,31.22956103],[121.48792128,31.22955117],[121.4879616,31.2295613],[121.48801182,31.22958146],[121.48803198,31.22959154],[121.48803216,31.22961156],[121.48802208,31.22963159],[121.48812306,31.229712],[121.4881632,31.2297021],[121.48820334,31.22970219],[121.48823358,31.22973234],[121.48822368,31.22975237],[121.48829424,31.22982266],[121.48831422,31.22979269],[121.48832412,31.22975264],[121.48835328,31.22952237],[121.48828272,31.22950212],[121.4882829,31.22953218],[121.48826292,31.22956215],[121.48823286,31.22956206],[121.4882226,31.229532],[121.48823268,31.22951202],[121.4882325,31.22948196],[121.48822242,31.22946189],[121.4881821,31.22945177],[121.48818192,31.22943174],[121.48820208,31.22941176],[121.48816234968389,31.22932769769193],[121.4878057731434,31.229020154211174],[121.48779852,31.22905001],[121.48775874,31.22917011]]]}},{"id":"197","type":"Feature","properties":{"gml_id":"layer_greenland_pg.16781","Name":"豫园","pyname":"yy","kind":"0141","__source_file__":"11-蓝绿空间/上海市_绿地.shp"},"geometry":{"type":"MultiPolygon","coordinates":[[[[121.48820208,31.22941176],[121.48823214,31.22942184],[121.48826238,31.22942193],[121.48827752228786,31.22942703284019],[121.48816234968389,31.22932769769193],[121.48820208,31.22941176]]],[[[121.4883027,31.22945213],[121.48828272,31.22950212],[121.48835328,31.22952237],[121.48835790360813,31.2294963608756],[121.4882996079254,31.22944608146811],[121.4883027,31.22945213]]]]}},{"id":"198","type":"Feature","properties":{"gml_id":"layer_greenland_pg.16782","Name":"豫园","pyname":"yy","kind":"0141","__source_file__":"11-蓝绿空间/上海市_绿地.shp"},"geometry":{"type":"Polygon","coordinates":[[[121.48822368,31.22975237],[121.48818354,31.22976227],[121.4881434,31.22976213],[121.48811316,31.22976204],[121.48810308,31.22974197],[121.48812306,31.229712],[121.48802208,31.22963159],[121.48798194,31.22963145],[121.48793172,31.22962128],[121.48787142,31.2296211],[121.4878311,31.22961098],[121.48779096,31.22961089],[121.4877609,31.22962079],[121.48774092,31.22964077],[121.48773084,31.22966079],[121.48770096,31.22969072],[121.48767072,31.22969067],[121.48763058,31.2296805],[121.4876304,31.22965049],[121.48763022,31.22963042],[121.48764012,31.2296004],[121.4876502,31.22957039],[121.48768026,31.22957048],[121.48773048,31.22957066],[121.48780086,31.22957084],[121.4878608,31.22949087],[121.48785054,31.22947085],[121.4878203,31.2294407],[121.48779006,31.22943057],[121.48776,31.22943048],[121.48772994,31.22944043],[121.48770996,31.22946041],[121.48767972,31.22947035],[121.48765974,31.22946027],[121.48765956,31.22943021],[121.48765938,31.22941019],[121.48750872,31.22942976],[121.48752906,31.2294699],[121.48750908,31.22949987],[121.48745886,31.22949974],[121.4874189,31.22952966],[121.48737858,31.22952957],[121.48733844,31.22950941],[121.48732818,31.22947931],[121.48733808,31.22944929],[121.48722756,31.22945901],[121.4871786,31.22973932],[121.48719894,31.22979944],[121.48724952,31.22984966],[121.48733988,31.22985996],[121.48755084,31.22985056],[121.48789248,31.22984151],[121.48829424,31.22982266],[121.48822368,31.22975237]]]}},{"id":"289","type":"Feature","properties":{"gml_id":"layer_greenland_pg.16880","Name":"古城公园","pyname":"gcgy","kind":"0141","__source_file__":"11-蓝绿空间/上海市_绿地.shp"},"geometry":{"type":"Polygon","coordinates":[[[121.48986816,31.23120938],[121.49007894,31.23116996],[121.49013187233558,31.23114587805276],[121.48950660518585,31.230487103791795],[121.48886177770653,31.229930946936356],[121.48841556,31.22996324],[121.48836552,31.22999312],[121.48835562,31.2300432],[121.48827912,31.2308843],[121.48825986,31.23108455],[121.48827048,31.23118472],[121.48835112,31.23124506],[121.48851204,31.23127557],[121.48903458,31.23128709],[121.48935588,31.23126801],[121.48960698,31.23124871],[121.48986816,31.23120938]]]}},{"id":"514","type":"Feature","properties":{"gml_id":"layer_greenland_pg.17117","Name":"滨江公园","pyname":"bjgy","kind":"0141","__source_file__":"11-蓝绿空间/上海市_绿地.shp"},"geometry":{"type":"Polygon","coordinates":[[[121.49243532,31.23817772],[121.49260668,31.23818825],[121.49283888,31.23830912],[121.4931618,31.23844025],[121.49333334,31.23851085],[121.4934039,31.2385311],[121.4934543,31.23853124],[121.49350434,31.23849132],[121.49356428,31.23836132],[121.49395416,31.23771143],[121.49428392,31.23712148],[121.49446964893133,31.236861919551828],[121.49382604553281,31.235813552965563],[121.49265006,31.236656],[121.49186796,31.23742491],[121.49148726,31.2378845],[121.491387,31.23801441],[121.49117694,31.23833432],[121.49112708,31.23844434],[121.49095788,31.2387944],[121.49085996,31.23935496],[121.49082216,31.23985563],[121.49083566,31.24061685],[121.4910396,31.2412685],[121.49104968,31.24128852],[121.49137368,31.24180026],[121.49208234,31.24259357],[121.49289054,31.24313681],[121.4937792,31.24363014],[121.49482878,31.24409396],[121.49574678,31.24439708],[121.49574588,31.24420677],[121.49471646,31.24376307],[121.49400978,31.24342049],[121.49328276,31.24299771],[121.49294922,31.24275638],[121.49247438,31.24244448],[121.49182728,31.24189175],[121.4915643,31.24163057],[121.4914221,31.24136975],[121.49136072,31.24115924],[121.49132004,31.24104894],[121.4912277,31.24066811],[121.49117622,31.2403775],[121.49124444,31.23990693],[121.49145378,31.23943682],[121.4916831,31.23890667],[121.49182296,31.23862664],[121.49189262,31.23846662],[121.49206308,31.2382868],[121.49224398,31.23817718],[121.49243532,31.23817772]]]}},{"id":"123","type":"Feature","properties":{"gml_id":"layer_greenland_pg.16707","Name":"黄浦公园","pyname":"hpgy","kind":"0141","__source_file__":"11-蓝绿空间/上海市_绿地.shp"},"geometry":{"type":"Polygon","coordinates":[[[121.48857846,31.23483129],[121.48844778,31.23479084],[121.48826706,31.23483039],[121.4880669,31.23501008],[121.48777692,31.23531972],[121.48757748,31.23562964],[121.4873181,31.23605957],[121.4870391,31.23653949],[121.48687944,31.23677939],[121.4866602,31.23717939],[121.48658046,31.23732938],[121.48645122,31.23763952],[121.48635204,31.23792968],[121.48617438,31.23861021],[121.48611606,31.23904073],[121.48601868,31.23971145],[121.48596972,31.23997173],[121.48589178,31.24053239],[121.4858727,31.24074267],[121.48587378,31.24099305],[121.48588512,31.24124348],[121.48589574,31.24137371],[121.48593714,31.24166427],[121.48600932,31.24206513],[121.4860608,31.24230561],[121.48611192,31.2424961],[121.48619328,31.24272668],[121.48620462,31.24301715],[121.4862264,31.24336779],[121.48617744,31.24366808],[121.4861184,31.24392831],[121.48612056,31.24437903],[121.4860716,31.24465934],[121.48606224,31.24482957],[121.48683498,31.24463153],[121.48718652,31.24461249],[121.48729704,31.24458279],[121.48740684,31.24445288],[121.48742646,31.24433277],[121.48738578,31.24421244],[121.48718292,31.24381122],[121.4869797,31.24330988],[121.48678602,31.24272839],[121.48665336,31.24226732],[121.48659162,31.24196663],[121.48660134,31.24188657],[121.48660026,31.24162616],[121.48657812,31.24118538],[121.48657686,31.24091498],[121.48659522,31.24054445],[121.48658352,31.24019385],[121.4866323,31.23986351],[121.4867196,31.2391827],[121.4868177,31.23867218],[121.48697538,31.23799155],[121.4872038,31.23740133],[121.48745256,31.23689126],[121.48786152,31.23624141],[121.4881704,31.23567144],[121.48835922,31.23522126],[121.4886492,31.23491162],[121.48857846,31.23483129]]]}},{"id":"530","type":"Feature","properties":{"gml_id":"layer_greenland_pg.17133","Name":"东方明珠公园","pyname":"dfmzgy","kind":"0141","__source_file__":"11-蓝绿空间/上海市_绿地.shp"},"geometry":{"type":"Polygon","coordinates":[[[121.49571006,31.24297476],[121.49565984,31.24300469],[121.49566002,31.24302471],[121.49566002,31.24304474],[121.49567028,31.24306481],[121.49574084,31.24309505],[121.4957403,31.24295483],[121.49571006,31.24297476]]]}},{"id":"296","type":"Feature","properties":{"gml_id":"layer_greenland_pg.16887","Name":"东方明珠公园","pyname":"dfmzgy","kind":"0141","__source_file__":"11-蓝绿空间/上海市_绿地.shp"},"geometry":{"type":"Polygon","coordinates":[[[121.49574084,31.24309505],[121.49577126,31.24311516],[121.4958015,31.24313528],[121.49586198,31.24312542],[121.49589222,31.24313555],[121.49592246,31.24314567],[121.49598312,31.2431859],[121.49602344,31.24319603],[121.49606376,31.24320615],[121.49612406,31.2431963],[121.49613432,31.2432264],[121.49616456,31.24323648],[121.4962047,31.24320656],[121.49624502,31.24321668],[121.49629542,31.24322685],[121.49630568,31.24324692],[121.49628552,31.24325687],[121.49624538,31.24326677],[121.49620506,31.24326668],[121.49616474,31.24328657],[121.49614476,31.24329656],[121.4961246,31.24331649],[121.49608464,31.24338651],[121.49606466,31.24340649],[121.49602434,31.24339632],[121.49598384,31.24336617],[121.49594334,31.24332599],[121.49586288,31.24333575],[121.49582256,31.24334565],[121.49580258,31.24336563],[121.49580276,31.24339569],[121.49579286,31.24343574],[121.4957727,31.24345568],[121.49577288,31.24350576],[121.49574282,31.2435257],[121.49574516,31.24404653],[121.4957853,31.24403663],[121.49580528,31.24398663],[121.49581518,31.24392656],[121.49583516,31.24388655],[121.49593542,31.24379669],[121.49605584,31.24368689],[121.49625636,31.2435072],[121.49629668,31.2434973],[121.49634708,31.24350747],[121.49639766,31.24353767],[121.49678178,31.24384925],[121.4968221,31.24385937],[121.49687232,31.24384952],[121.4969427,31.24378962],[121.49704575182128,31.243672199105266],[121.49686626926747,31.242858263091676],[121.49685792,31.24284791],[121.49684748,31.24278779],[121.49684943432038,31.24278191823563],[121.49673453446849,31.24226085852577],[121.49668598858445,31.242119345124827],[121.49666334,31.24213623],[121.4966034,31.24224626],[121.49653338,31.24237622],[121.49643348,31.24254623],[121.49632332,31.2426761],[121.4962128,31.24276592],[121.49606196,31.24279553],[121.49597124,31.24278522],[121.49591058,31.24275503],[121.49582994,31.24273473],[121.49573922,31.24273446],[121.49573994,31.24287468],[121.49578026,31.24289484],[121.49578044,31.2429249],[121.4957403,31.24295483],[121.49574084,31.24309505]]]}},{"id":"746","type":"Feature","properties":{"gml_id":"layer_greenland_pg.17369","Name":"静安公园","pyname":"jagy","kind":"0141","__source_file__":"11-蓝绿空间/上海市_绿地.shp"},"geometry":{"type":"Polygon","coordinates":[[[121.44096702,31.22397477],[121.44095694,31.22406473],[121.4409771,31.22411472],[121.44101706,31.22413479],[121.44117744,31.22420508],[121.44124764,31.22423519],[121.44131784,31.2242553],[121.44138804,31.22426543],[121.44145806,31.22427555],[121.44151818,31.22429567],[121.4415684,31.22432573],[121.44184902,31.2238364],[121.44178872,31.22377632],[121.44174876,31.22374626],[121.44168864,31.22374617],[121.44163842,31.22373605],[121.44158838,31.223696],[121.4415783,31.223646],[121.4415783,31.22359601],[121.44158245481474,31.22358562296316],[121.44099654067755,31.223855053144565],[121.44096702,31.22397477]]]}},{"id":"826","type":"Feature","properties":{"gml_id":"layer_greenland_pg.17449","Name":"静安公园","pyname":"jagy","kind":"0141","__source_file__":"11-蓝绿空间/上海市_绿地.shp"},"geometry":{"type":"Polygon","coordinates":[[[121.4417286,31.2235263],[121.44178872,31.22354642],[121.44185892,31.22358651],[121.44191904,31.2236766],[121.44199932,31.22382668],[121.44200922,31.22387667],[121.44199932,31.22391668],[121.44196926,31.22393661],[121.4419392,31.22393652],[121.44184902,31.2238364],[121.4415684,31.22432573],[121.44160836,31.22440578],[121.44168864,31.2245159],[121.4417988,31.22457606],[121.44192912,31.22462628],[121.44219984,31.22469675],[121.44232008,31.22472695],[121.44241026,31.22472713],[121.44251052,31.22469734],[121.44252042,31.22465738],[121.44252042,31.22460738],[121.44254058,31.22456742],[121.44263076,31.2245276],[121.44267072,31.2245177],[121.44271086,31.22451774],[121.442751,31.22453781],[121.44278106,31.22455788],[121.44281112,31.22456792],[121.44302154,31.22449835],[121.44311172,31.2244785],[121.44326202,31.22445879],[121.44333222,31.22441892],[121.44336228,31.224389],[121.4434224,31.22423915],[121.44358278,31.22377961],[121.44358278,31.22369964],[121.44355272,31.22362958],[121.4435025,31.22358953],[121.4430615,31.22347874],[121.44299148,31.2234786],[121.44294126,31.22350853],[121.44287124,31.22362836],[121.4428311,31.22364825],[121.44277098,31.22364816],[121.44270078,31.22361806],[121.44260052,31.22358786],[121.44245022,31.22351762],[121.44242016,31.22345759],[121.44243024,31.22339765],[121.44243024,31.22335764],[121.44238002,31.22332754],[121.44222547321105,31.223311395452978],[121.44201488607233,31.223386771246194],[121.44171152128797,31.22352627228174],[121.4417286,31.2235263]]]}},{"id":"366","type":"Feature","properties":{"gml_id":"layer_greenland_pg.16960","Name":"上海玫瑰花园","pyname":"shmghy","kind":"0141","__source_file__":"11-蓝绿空间/上海市_绿地.shp"},"geometry":{"type":"Polygon","coordinates":[[[121.446279,31.22855289],[121.4463591,31.22857301],[121.44640932,31.22857314],[121.44646944,31.22853323],[121.44650958,31.22847333],[121.44667986,31.22820374],[121.44675996,31.22806392],[121.44677004,31.22803395],[121.44677004,31.227984],[121.44675996,31.227944],[121.44675006,31.22789396],[121.44668976,31.22785386],[121.44654954,31.22779365],[121.4464995,31.22777354],[121.44644928,31.22777345],[121.44639924,31.22779338],[121.44636918,31.22782331],[121.44631896,31.22790318],[121.4461386,31.22818277],[121.44608856,31.22828262],[121.44606858,31.22834256],[121.44604842,31.2284025],[121.44606858,31.22846253],[121.4461287,31.22850263],[121.44618882,31.22853273],[121.446279,31.22855289]]]}},{"id":"927","type":"Feature","properties":{"gml_id":"layer_greenland_pg.17553","Name":"西康公园","pyname":"xkgy","kind":"0141","__source_file__":"11-蓝绿空间/上海市_绿地.shp"},"geometry":{"type":"Polygon","coordinates":[[[121.44552984,31.23170141],[121.44551958,31.23166131],[121.44546918,31.23162113],[121.44538872,31.23160083],[121.44524814,31.23161046],[121.44519792,31.23163035],[121.44512808,31.23174029],[121.44510828,31.23179033],[121.44503844,31.23192033],[121.44500874,31.23198032],[121.44492846,31.23202014],[121.44486852,31.23209012],[121.4448489,31.2321902],[121.4448894,31.23225041],[121.44499002,31.23230076],[121.44515094,31.23235134],[121.44524148,31.23235157],[121.44533166,31.23231179],[121.4453817,31.23226184],[121.44542166,31.23222192],[121.44546162,31.23214191],[121.44548142,31.23208188],[121.44550104,31.23200178],[121.44551076,31.23190166],[121.4455203,31.23182156],[121.44551004,31.23176144],[121.44552984,31.23170141]]]}},{"id":"535","type":"Feature","properties":{"gml_id":"layer_greenland_pg.17138","Name":"西摩会堂","pyname":"xmht","kind":"0141","__source_file__":"11-蓝绿空间/上海市_绿地.shp"},"geometry":{"type":"Polygon","coordinates":[[[121.44790962,31.23356121],[121.44787974,31.23362124],[121.44787992,31.23367133],[121.44791034,31.23371147],[121.44812184,31.23383225],[121.4481924,31.2338525],[121.4482626,31.23383265],[121.44833226,31.23370269],[121.4485218,31.23338274],[121.44851136,31.23332258],[121.44846096,31.23329243],[121.44824946,31.23318164],[121.44818916,31.23317142],[121.44813912,31.23319131],[121.44809916,31.23324126],[121.44798936,31.23341123],[121.44790962,31.23356121]]]}},{"id":"871","type":"Feature","properties":{"gml_id":"layer_greenland_pg.17494","Name":"长寿公园","pyname":"csgy","kind":"0141","__source_file__":"11-蓝绿空间/上海市_绿地.shp"},"geometry":{"type":"Polygon","coordinates":[[[121.43460834,31.2449103],[121.43460816,31.24487021],[121.4346483,31.24488033],[121.4347293,31.24498073],[121.43476944,31.24500089],[121.43491002,31.24498127],[121.43500056,31.24500156],[121.43509128,31.24504188],[121.43512134,31.24503198],[121.43525148,31.24492218],[121.4355519,31.24470272],[121.43557206,31.24473282],[121.43556216,31.24476284],[121.43515176,31.24508211],[121.43514186,31.24511213],[121.43518236,31.24518237],[121.43519262,31.2452325],[121.43518272,31.24527251],[121.43517282,31.24531256],[121.43518308,31.24535265],[121.43519316,31.24537272],[121.43546532,31.24553373],[121.43546532,31.24555376],[121.43542518,31.24555367],[121.43539494,31.24554354],[121.4354178,31.24614456],[121.43647908,31.24531634],[121.43652894,31.24524641],[121.43647836,31.2451461],[121.43622618,31.24496507],[121.43577276,31.24468332],[121.43536938,31.2443316],[121.43519802,31.24423094],[121.4350875,31.24423062],[121.4346465,31.24445967],[121.4341353,31.24473863],[121.43460834,31.2449103]]]}},{"id":"957","type":"Feature","properties":{"gml_id":"layer_greenland_pg.17583","Name":"长寿公园","pyname":"csgy","kind":"0141","__source_file__":"11-蓝绿空间/上海市_绿地.shp"},"geometry":{"type":"Polygon","coordinates":[[[121.43515752,31.24635413],[121.4354178,31.24614456],[121.43539494,31.24554354],[121.43511288,31.24538249],[121.4351028,31.24536242],[121.43510262,31.24533236],[121.4351226,31.24530239],[121.43513232,31.24524231],[121.43512206,31.24518219],[121.43510172,31.2451421],[121.43506122,31.24509188],[121.435011,31.24506168],[121.4349606,31.24504152],[121.4349003,31.24504134],[121.43485008,31.24504121],[121.43480994,31.24505111],[121.43475972,31.245071],[121.43473956,31.24504085],[121.43468916,31.24500066],[121.43460834,31.2449103],[121.4341353,31.24473863],[121.43360412,31.24502757],[121.43358432,31.24509759],[121.43361474,31.24516779],[121.4347959,31.24638311],[121.43491686,31.24646361],[121.43499732,31.24647387],[121.43507742,31.24640399],[121.43515752,31.24635413]]]}},{"id":"47","type":"Feature","properties":{"gml_id":"layer_greenland_pg.16628","Name":"普陀公园","pyname":"ptgy","kind":"0141","__source_file__":"11-蓝绿空间/上海市_绿地.shp"},"geometry":{"type":"Polygon","coordinates":[[[121.42420596,31.24643247],[121.42417554,31.24637226],[121.42408428,31.24619172],[121.42405404,31.24617161],[121.42401372,31.24617147],[121.42397358,31.24616135],[121.42375254,31.24618074],[121.42358172,31.24618025],[121.42344114,31.24616981],[121.42324998,31.24614924],[121.42302876,31.24608849],[121.42285776,31.24603791],[121.42274688,31.24599755],[121.4226261,31.2459471],[121.42247508,31.24586655],[121.42228374,31.24575581],[121.42219302,31.24569546],[121.42211238,31.24563512],[121.42203192,31.24564493],[121.42195182,31.24569474],[121.42180740733157,31.24584522950128],[121.42176525777712,31.246130965258054],[121.42180332,31.24617507],[121.42232712,31.24647707],[121.42266966,31.24667835],[121.4230122,31.24686965],[121.42342512,31.24709123],[121.42363662,31.24718195],[121.42367676,31.24719212],[121.42374714,31.24717227],[121.42380708,31.24712237],[121.42407708,31.24681268],[121.42413702,31.24675274],[121.42420686,31.2466428],[121.42422666,31.24659276],[121.42422648,31.24654268],[121.42421622,31.24648256],[121.42420596,31.24643247]]]}},{"id":"735","type":"Feature","properties":{"gml_id":"layer_greenland_pg.17358","Name":"苏州河梦清园环保主题公园","pyname":"szhmqyhbztgy","kind":"0141","__source_file__":"11-蓝绿空间/上海市_绿地.shp"},"geometry":{"type":"Polygon","coordinates":[[[121.43491164,31.25187203],[121.43491128,31.25182194],[121.43494134,31.25179197],[121.43496132,31.25177199],[121.43498112,31.25171196],[121.43500092,31.25165193],[121.43499066,31.25159181],[121.43491992,31.25151149],[121.43484936,31.25145119],[121.43477898,31.25143094],[121.43473866,31.25140079],[121.43474838,31.25136074],[121.43478852,31.25134085],[121.43485872,31.251321],[121.43494926,31.25132127],[121.43501946,31.25130143],[121.43506968,31.25129157],[121.4351199,31.25130174],[121.43515032,31.25134188],[121.4351505,31.25141199],[121.4351307,31.25147202],[121.43514096,31.25151212],[121.43520144,31.25156238],[121.43527218,31.25162268],[121.4353026,31.25168285],[121.43532276,31.25171295],[121.43532294,31.251753],[121.43531322,31.25180309],[121.43527308,31.25183301],[121.43527326,31.25186307],[121.43528334,31.25189313],[121.43528352,31.25191316],[121.43747394,31.25191955],[121.43753406,31.25186964],[121.4377344,31.25174],[121.43802528,31.25164068],[121.43772378,31.25163983],[121.43735208,31.25163875],[121.43681946,31.25163717],[121.43645784,31.25163614],[121.4360658,31.25158493],[121.43577384,31.25147391],[121.43556252,31.25139314],[121.43533068,31.25126228],[121.43512926,31.2511415],[121.43494782,31.25100078],[121.43478636,31.25086007],[121.43464524,31.25077952],[121.43453472,31.25074919],[121.4343738,31.25074869],[121.43421324,31.25076827],[121.4339922,31.25079765],[121.4342766,31.25143949],[121.43447964,31.25191082],[121.43494188,31.25191217],[121.43491164,31.25187203]]]}},{"id":"537","type":"Feature","properties":{"gml_id":"layer_greenland_pg.17140","Name":"都市音韵","pyname":"dsyy","kind":"0141","__source_file__":"11-蓝绿空间/上海市_绿地.shp"},"geometry":{"type":"Polygon","coordinates":[[[121.46395878,31.22763858],[121.46551704,31.22781341],[121.46566752,31.22777376],[121.46569722,31.22768372],[121.46578524,31.22715312],[121.46574456,31.22703284],[121.46566392,31.22697249],[121.46553288,31.22690202],[121.46532156,31.22683128],[121.4650602,31.22681049],[121.46488956,31.22682003],[121.4647389,31.22683961],[121.46462838,31.22685932],[121.46456826,31.22687916],[121.46451804,31.22690909],[121.46442804,31.22696894],[121.46431788,31.22705876],[121.46392818,31.2275183],[121.46391846,31.22758841],[121.46395878,31.22763858]]]}},{"id":"657","type":"Feature","properties":{"gml_id":"layer_greenland_pg.17274","Name":"广场公园（黄埔段）","pyname":"gcgy(hpd)","kind":"0141","__source_file__":"11-蓝绿空间/上海市_绿地.shp"},"geometry":{"type":"Polygon","coordinates":[[[121.47062904,31.22733749],[121.47059862,31.22726729],[121.47054822,31.22721707],[121.47048774,31.22717684],[121.47043734,31.22716667],[121.47038712,31.22716653],[121.47033708,31.22718642],[121.47027678,31.22718624],[121.47022638,31.22716608],[121.47018606,31.22711586],[121.47015564,31.22708571],[121.47010524,31.22705552],[121.47004512,31.22705538],[121.46996466,31.22704512],[121.46992434,31.22701493],[121.469904,31.2269648],[121.46991372,31.2268847],[121.46993352,31.22684469],[121.46999364,31.22680482],[121.46986152,31.2264639],[121.46970042,31.22641337],[121.46952978,31.22642286],[121.46938956,31.22655269],[121.46912118,31.22718287],[121.46892192,31.22754287],[121.46891238,31.22763296],[121.46895288,31.2277032],[121.46906376,31.22780369],[121.47047298,31.22835863],[121.47106698,31.22861076],[121.47135894,31.22873177],[121.4714394,31.22875206],[121.47148962,31.22876223],[121.47066954,31.22740773],[121.47062904,31.22733749]]]}},{"id":"669","type":"Feature","properties":{"gml_id":"layer_greenland_pg.17286","Name":"广场公园（黄埔段）","pyname":"gcgy(hpd)","kind":"0141","__source_file__":"11-蓝绿空间/上海市_绿地.shp"},"geometry":{"type":"Polygon","coordinates":[[[121.47148962,31.22876223],[121.47151968,31.22873226],[121.47155964,31.2286923],[121.4716194,31.22857229],[121.47173892,31.22832227],[121.47185844,31.22810226],[121.47219738,31.22753234],[121.47220728,31.2274823],[121.4721972,31.22746223],[121.47216678,31.22742209],[121.47209622,31.22737182],[121.47163308,31.22715011],[121.47027408,31.22661533],[121.46986152,31.2264639],[121.46999364,31.22680482],[121.47004386,31.22680496],[121.47009408,31.2267951],[121.4701443,31.22677521],[121.47020424,31.22673534],[121.47025446,31.22672544],[121.47031494,31.22674565],[121.47034536,31.22679582],[121.47041592,31.22687615],[121.47056712,31.22696673],[121.47065784,31.22704715],[121.47068844,31.22712734],[121.47069852,31.2271574],[121.47068862,31.22717742],[121.47066882,31.22722746],[121.470669,31.22726751],[121.47067908,31.22729757],[121.4707095,31.22732772],[121.47073974,31.22734784],[121.4707599,31.22737794],[121.47072984,31.22740791],[121.47069978,31.22741781],[121.47066954,31.22740773],[121.47148962,31.22876223]]]}},{"id":"681","type":"Feature","properties":{"gml_id":"layer_greenland_pg.17298","Name":"人民公园","pyname":"rmgy","kind":"0141","__source_file__":"11-蓝绿空间/上海市_绿地.shp"},"geometry":{"type":"Polygon","coordinates":[[[121.4676333,31.23355851],[121.46766336,31.23353853],[121.46768334,31.23350856],[121.46768316,31.23346851],[121.46771322,31.23344853],[121.46775336,31.2334587],[121.4677836,31.23348881],[121.46782392,31.23349893],[121.46786406,31.23348903],[121.46791428,31.23347918],[121.46797458,31.23347936],[121.4680248,31.23348953],[121.46808528,31.23353979],[121.46843502,31.23311013],[121.46814288,31.23292901],[121.46812236,31.23285881],[121.4681922,31.23273884],[121.46825196,31.23262886],[121.46828184,31.23256883],[121.46828166,31.23252878],[121.46824116,31.23247856],[121.46801976,31.23237776],[121.4678286,31.23234716],[121.4676477,31.23233663],[121.467447,31.2323661],[121.46729652,31.2324458],[121.46714622,31.23252545],[121.46693598,31.23266508],[121.46683626,31.23285507],[121.46673708,31.23311522],[121.46669712,31.23316517],[121.4666469,31.23318506],[121.46628528,31.23320405],[121.46624514,31.23322394],[121.46624532,31.23326399],[121.46627574,31.23330417],[121.46636646,31.23336452],[121.46642766,31.23357503],[121.4670996,31.23331655],[121.46701914,31.23330633],[121.4668683,31.23327582],[121.46684814,31.23323573],[121.46684796,31.23320567],[121.46685786,31.23316562],[121.46687766,31.23311562],[121.46692788,31.23309573],[121.4670483,31.23308606],[121.46714892,31.23312642],[121.46723946,31.23311666],[121.46731956,31.23307683],[121.46741982,31.23301703],[121.46748012,31.2330272],[121.46753052,31.23305739],[121.46754078,31.2330875],[121.46753088,31.2331275],[121.46749092,31.2331775],[121.46739048,31.23320724],[121.46732028,31.23322709],[121.4672904,31.23328707],[121.4676333,31.23355851]]]}},{"id":"680","type":"Feature","properties":{"gml_id":"layer_greenland_pg.17297","Name":"人民公园","pyname":"rmgy","kind":"0141","__source_file__":"11-蓝绿空间/上海市_绿地.shp"},"geometry":{"type":"Polygon","coordinates":[[[121.46729076,31.23334715],[121.46729094,31.23338724],[121.46737194,31.23353772],[121.4674326,31.233618],[121.46743278,31.23364806],[121.4673624,31.23364784],[121.46732208,31.23363771],[121.46728176,31.23359753],[121.46722128,31.23353727],[121.46719068,31.23345704],[121.4671806,31.23342698],[121.46718042,31.23338693],[121.46715,31.23333675],[121.4670996,31.23331655],[121.46642766,31.23357503],[121.46645862,31.23374535],[121.46667156,31.23416664],[121.4670564,31.23484884],[121.46724882,31.23516987],[121.4672994,31.23523013],[121.46738994,31.23525042],[121.46832468,31.23533327],[121.46850558,31.23535383],[121.46900832,31.23543542],[121.46976252,31.23553775],[121.47010434,31.23559886],[121.47040602,31.2356498],[121.47051654,31.23564012],[121.47073596,31.23530024],[121.47101532,31.23486036],[121.4713944,31.23426051],[121.47142392,31.23415044],[121.47141348,31.23407025],[121.47135282,31.23397994],[121.47125202,31.23388953],[121.47081858,31.23358781],[121.47062706,31.23347706],[121.47052662,31.23345672],[121.47043626,31.23349655],[121.47034644,31.23360644],[121.4702361,31.23365621],[121.47013548,31.23361584],[121.46989338,31.23342486],[121.46984298,31.23337464],[121.46973246,31.23338432],[121.46966244,31.23344421],[121.46959224,31.23347405],[121.46951178,31.2334538],[121.46927976,31.23327281],[121.46920938,31.23324257],[121.46913918,31.2332724],[121.46905908,31.23336231],[121.46897898,31.23339215],[121.46885838,31.23340182],[121.46880798,31.23338162],[121.46843502,31.23311013],[121.46808528,31.23353979],[121.46809554,31.23357989],[121.46808564,31.2336099],[121.46806566,31.23362984],[121.46802552,31.23364977],[121.4679753,31.23365963],[121.46793534,31.23367956],[121.46790528,31.23371952],[121.46787522,31.23371943],[121.46784498,31.23371934],[121.46779476,31.23369918],[121.46776434,31.23365904],[121.4677242,31.23366894],[121.467654,31.23369878],[121.46762394,31.23371871],[121.4675838,31.23371858],[121.46754348,31.23368843],[121.46751306,31.23364829],[121.46750298,31.23362822],[121.46751288,31.23358817],[121.46755302,31.23356828],[121.46758308,31.23355833],[121.4676333,31.23355851],[121.4672904,31.23328707],[121.46729076,31.23334715]]]}},{"id":"515","type":"Feature","properties":{"gml_id":"layer_greenland_pg.17118","Name":"静安雕塑公园","pyname":"jadsgy","kind":"0141","__source_file__":"11-蓝绿空间/上海市_绿地.shp"},"geometry":{"type":"Polygon","coordinates":[[[121.45698972,31.23506993],[121.45689954,31.23512978],[121.45678956,31.23524966],[121.45669992,31.23542966],[121.45670028,31.2355098],[121.45675086,31.23559004],[121.45689198,31.23569061],[121.45711356,31.23581144],[121.45728474,31.23589208],[121.45824108,31.23626544],[121.45847256,31.23636629],[121.45867416,31.23649706],[121.4587953,31.23663764],[121.45883616,31.23674793],[121.45885668,31.23684815],[121.45887792,31.23708858],[121.45885866,31.23728883],[121.45870944,31.23759888],[121.45869972,31.23768897],[121.45872006,31.23775917],[121.4587404,31.2378093],[121.4587809,31.23785948],[121.45924404,31.23805113],[121.45991832,31.23830349],[121.4602002,31.23840447],[121.46033088,31.23843489],[121.46045148,31.23842522],[121.46055156,31.23835542],[121.46061132,31.23825543],[121.46071104,31.23805541],[121.4608905,31.23775544],[121.46127912,31.23707553],[121.46139864,31.23682547],[121.461408,31.23669528],[121.46134752,31.23662504],[121.46122674,31.23658463],[121.4610354,31.23650394],[121.46042142,31.23628178],[121.45967658,31.23599918],[121.45909302,31.23579717],[121.45846896,31.23557501],[121.45792536,31.23535311],[121.45760334,31.23523197],[121.457241,31.23510071],[121.45710024,31.23508028],[121.45698972,31.23506993]]]}},{"id":"150","type":"Feature","properties":{"gml_id":"layer_greenland_pg.16734","Name":"蝴蝶湾","pyname":"hdw","kind":"0141","__source_file__":"11-蓝绿空间/上海市_绿地.shp"},"geometry":{"type":"Polygon","coordinates":[[[121.45119642,31.24038141],[121.45161708,31.24010219],[121.45194792,31.2399329],[121.45239936,31.23978395],[121.45278096,31.23972495],[121.45311252,31.23974597],[121.45354506,31.23983736],[121.45389732,31.23994856],[121.45411872,31.24004936],[121.45412844,31.23996926],[121.4541081,31.2398991],[121.45409766,31.23982895],[121.45404726,31.23977873],[121.45376502,31.23961767],[121.45320144,31.23938565],[121.45273812,31.23917397],[121.45253688,31.23908325],[121.45244634,31.23908298],[121.45238622,31.23909284],[121.45234608,31.2391328],[121.45228632,31.23923279],[121.45223646,31.23930272],[121.45217652,31.23937265],[121.45207626,31.23944249],[121.45195584,31.23948222],[121.4517852,31.23949172],[121.45163436,31.23946125],[121.45149324,31.23939069],[121.4513928,31.2393704],[121.45130226,31.23936009],[121.45124196,31.23937998],[121.45115214,31.23948987],[121.45107258,31.23966992],[121.4509734,31.23996008],[121.4509347,31.2403005],[121.45089564,31.24054076],[121.4509059,31.24057086],[121.45093614,31.24060097],[121.45119642,31.24038141]]]}},{"id":"534","type":"Feature","properties":{"gml_id":"layer_greenland_pg.17137","Name":"九子公园","pyname":"jzgy","kind":"0141","__source_file__":"11-蓝绿空间/上海市_绿地.shp"},"geometry":{"type":"Polygon","coordinates":[[[121.45913514,31.24280822],[121.45913532,31.24283828],[121.45916556,31.24285839],[121.459266,31.2428687],[121.45939668,31.2428691],[121.4598384,31.24280025],[121.459959,31.24278059],[121.46000904,31.24275066],[121.46002884,31.24270067],[121.46004882,31.24264064],[121.46005854,31.24258056],[121.46005818,31.24249043],[121.46002758,31.24239017],[121.4599662,31.24215963],[121.45991544,31.24206936],[121.45983498,31.24203908],[121.45964382,31.24199844],[121.45951332,31.24199808],[121.45944312,31.24204794],[121.45931406,31.24237806],[121.45913514,31.24280822]]]}},{"id":"122","type":"Feature","properties":{"gml_id":"layer_greenland_pg.16706","Name":"不夜城公园","pyname":"bycgy","kind":"0141","__source_file__":"11-蓝绿空间/上海市_绿地.shp"},"geometry":{"type":"Polygon","coordinates":[[[121.45527414,31.24658291],[121.45527522,31.2468233],[121.45526532,31.24685331],[121.45524516,31.24686326],[121.4552151,31.2468732],[121.45479318,31.24687194],[121.45471308,31.24695186],[121.45467384,31.24716206],[121.45468482,31.24734237],[121.45471596,31.24759284],[121.45476672,31.24770318],[121.45490766,31.24774364],[121.45529934,31.24770471],[121.45590162,31.24756625],[121.45594176,31.24755635],[121.45597182,31.24753641],[121.45600998,31.24712588],[121.45604004,31.24707588],[121.45609008,31.24705599],[121.45630086,31.24701657],[121.45644144,31.24699695],[121.45658256,31.24706747],[121.45662288,31.24711764],[121.45668318,31.24712786],[121.4569242,31.24707845],[121.4569944,31.24706864],[121.4570547,31.24706882],[121.45712508,31.24704902],[121.45721472,31.24689903],[121.45733424,31.246659],[121.4575038,31.24638909],[121.45753314,31.24622889],[121.45752108,31.2457982],[121.45750938,31.24543761],[121.45748922,31.24540751],[121.45725774,31.24530666],[121.4571672,31.24530639],[121.45706694,31.24534617],[121.45672692,31.24567571],[121.45644648,31.24590525],[121.45631634,31.24600502],[121.4562465,31.24609497],[121.45619664,31.24618497],[121.45614696,31.24632501],[121.456107,31.24635498],[121.45606686,31.24636488],[121.4553834,31.24632281],[121.45531302,31.24632263],[121.45528296,31.24634256],[121.45526316,31.24638257],[121.45526334,31.24642262],[121.45527414,31.24658291]]]}},{"id":"484","type":"Feature","properties":{"gml_id":"layer_greenland_pg.17086","Name":"交通公园","pyname":"jtgy","kind":"0141","__source_file__":"11-蓝绿空间/上海市_绿地.shp"},"geometry":{"type":"Polygon","coordinates":[[[121.46186628,31.24897578],[121.46273316,31.24958927],[121.46314662,31.24992096],[121.46331798,31.25003162],[121.4635095,31.2501524],[121.46363046,31.25025288],[121.46375142,31.25033334],[121.46384196,31.25036367],[121.46394258,31.25037398],[121.46402286,31.25035418],[121.46410314,31.25032439],[121.46413302,31.25027439],[121.46417298,31.2502244],[121.46421258,31.25009435],[121.46424228,31.24999427],[121.4643015,31.24976409],[121.4643213,31.24970402],[121.46428098,31.24966388],[121.46220666,31.24870632],[121.46210604,31.24868603],[121.46203584,31.24871586],[121.4618859,31.24886567],[121.46185602,31.24892565],[121.46186628,31.24897578]]]}},{"id":"589","type":"Feature","properties":{"gml_id":"layer_greenland_pg.17205","Name":"东方明珠公园","pyname":"dfmzgy","kind":"0141","__source_file__":"11-蓝绿空间/上海市_绿地.shp"},"geometry":{"type":"Polygon","coordinates":[[[121.49574156,31.24325529],[121.49579178,31.24320534],[121.4957916,31.24318532],[121.4957916,31.24316529],[121.49574102,31.24312511],[121.49574156,31.24325529]]]}},{"id":"529","type":"Feature","properties":{"gml_id":"layer_greenland_pg.17132","Name":"东方明珠公园","pyname":"dfmzgy","kind":"0141","__source_file__":"11-蓝绿空间/上海市_绿地.shp"},"geometry":{"type":"Polygon","coordinates":[[[121.49573922,31.24273446],[121.49556822,31.24277402],[121.4954172,31.2427836],[121.49524602,31.24278311],[121.49501418,31.24274238],[121.49491356,31.24278216],[121.4947026,31.24291172],[121.49432118,31.24322109],[121.49429112,31.24325106],[121.49427114,31.24328103],[121.49427132,31.24332108],[121.49429166,31.24336122],[121.49454402,31.24349217],[121.49486712,31.24365336],[121.49524044,31.24382472],[121.49574516,31.24404653],[121.49574282,31.2435257],[121.49570268,31.24355567],[121.49566254,31.24357556],[121.4956323,31.2435855],[121.49560188,31.24355535],[121.49560188,31.24352529],[121.49561178,31.24349528],[121.49562168,31.24346526],[121.49561142,31.2434352],[121.49560134,31.2434051],[121.49560116,31.24337508],[121.49561106,31.24334507],[121.49566128,31.24330515],[121.49570142,31.24327523],[121.49574156,31.24325529],[121.49574102,31.24312511],[121.49569062,31.24311494],[121.49564022,31.24309473],[121.4956098,31.24306463],[121.49558964,31.24305455],[121.49554932,31.24305441],[121.495509,31.24304429],[121.49548884,31.24303421],[121.49546868,31.24302413],[121.49543826,31.24300401],[121.4954181,31.24299393],[121.49538804,31.24300388],[121.49534772,31.24301378],[121.49532756,31.24303376],[121.49530758,31.2430437],[121.49527734,31.24305365],[121.49525736,31.24307358],[121.49523738,31.2431036],[121.4952273,31.24313361],[121.49522748,31.24315364],[121.49523756,31.24317371],[121.49524782,31.24319378],[121.49526798,31.24321385],[121.49530848,31.24323401],[121.49533872,31.24327415],[121.49535906,31.24330425],[121.49535924,31.24332428],[121.495329,31.24335425],[121.49529894,31.24337418],[121.49525862,31.24337405],[121.49522838,31.24335393],[121.49519796,31.24333382],[121.4951778,31.24332374],[121.4951778,31.24329372],[121.49517762,31.24325363],[121.49518752,31.24323365],[121.49518734,31.24320359],[121.49516718,31.24317348],[121.49514684,31.24315341],[121.49513676,31.24313334],[121.49513658,31.24310328],[121.49514648,31.2430833],[121.49517672,31.24306337],[121.49520678,31.24304339],[121.49524692,31.24301346],[121.49527716,31.24299353],[121.49535762,31.24297373],[121.4954181,31.24297391],[121.49544834,31.242974],[121.49547858,31.24298412],[121.49550882,31.2429942],[121.49554914,31.24299434],[121.4955792,31.24298439],[121.49559936,31.24297445],[121.49560926,31.24295442],[121.49562942,31.24293449],[121.49563932,31.24291446],[121.49563932,31.2428844],[121.49563914,31.24286438],[121.4956692,31.24284444],[121.49569962,31.24285457],[121.49573994,31.24287468],[121.49573922,31.24273446]]]}},{"id":"365","type":"Feature","properties":{"gml_id":"layer_greenland_pg.16959","Name":"外滩源33","pyname":"wty33","kind":"0141","__source_file__":"11-蓝绿空间/上海市_绿地.shp"},"geometry":{"type":"Polygon","coordinates":[[[121.48428384,31.24484442],[121.48449534,31.24492515],[121.48461594,31.24495557],[121.48472664,31.24497591],[121.48480692,31.24496615],[121.48491726,31.24492641],[121.48501734,31.24482651],[121.48519716,31.24460673],[121.4852769,31.24448676],[121.48543656,31.2442268],[121.4855361,31.24404684],[121.48552584,31.24398672],[121.48549542,31.24393655],[121.48543494,31.24389632],[121.48532442,31.24387593],[121.4843193,31.24379291],[121.48421886,31.24379259],[121.48415856,31.24382247],[121.48410852,31.24386239],[121.48408908,31.24399253],[121.48401132,31.24457321],[121.48400178,31.24467333],[121.4840421,31.24472355],[121.48412292,31.24478385],[121.48428384,31.24484442]]]}},{"id":"436","type":"Feature","properties":{"gml_id":"layer_greenland_pg.17036","Name":"滨江公园","pyname":"bjgy","kind":"0141","__source_file__":"11-蓝绿空间/上海市_绿地.shp"},"geometry":{"type":"Polygon","coordinates":[[[121.49705718,31.24461123],[121.4966637,31.24448991],[121.49574588,31.24420677],[121.49574678,31.24439708],[121.49660412,31.24467],[121.49697744,31.24482134],[121.49730036,31.24494248],[121.49732205061899,31.244951154840486],[121.49731707620205,31.24490262891695],[121.49726889779959,31.24468414452384],[121.49705718,31.24461123]]]}},{"id":"736","type":"Feature","properties":{"gml_id":"layer_greenland_pg.17359","Name":"四川北路人口文化公园","pyname":"scblrkwhgy","kind":"0141","__source_file__":"11-蓝绿空间/上海市_绿地.shp"},"geometry":{"type":"Polygon","coordinates":[[[121.4822133,31.25123838],[121.48221348,31.25126844],[121.48224354,31.25128856],[121.482495,31.25131934],[121.48251498,31.25130939],[121.48252488,31.25128937],[121.482603,31.25076876],[121.48259274,31.25072871],[121.4825625,31.25071859],[121.48252236,31.25071845],[121.48243182,31.25070819],[121.48239168,31.25070806],[121.48238178,31.25074811],[121.48237224,31.25083824],[121.48234218,31.2508782],[121.48229196,31.25086803],[121.482252,31.25091798],[121.48223274,31.25111823],[121.4822133,31.25123838]]]}},{"id":"508","type":"Feature","properties":{"gml_id":"layer_greenland_pg.17111","Name":"四川北路公园","pyname":"scblgy","kind":"0141","__source_file__":"11-蓝绿空间/上海市_绿地.shp"},"geometry":{"type":"Polygon","coordinates":[[[121.48031574,31.25596023],[121.48036596,31.25594034],[121.48041618,31.25595051],[121.48053714,31.25602098],[121.48056738,31.25606112],[121.48058772,31.25611125],[121.48060824,31.25617142],[121.48061832,31.25621151],[121.4806185,31.25625156],[121.48058844,31.25626151],[121.48056828,31.25624139],[121.48054812,31.25621129],[121.48051752,31.25612106],[121.48050744,31.25610099],[121.48049718,31.2560609],[121.4804367,31.25601068],[121.4803863,31.25600051],[121.48035624,31.25602044],[121.48033644,31.25608047],[121.48035678,31.25612061],[121.48039692,31.25613074],[121.48044714,31.25613087],[121.48048746,31.25615103],[121.48049772,31.25619113],[121.48047774,31.25621111],[121.48041744,31.25623095],[121.4803773,31.25624085],[121.48052022,31.25673203],[121.4805807,31.25676227],[121.48075206,31.25689295],[121.48138332,31.25651418],[121.4807373,31.25583126],[121.48050528,31.25563025],[121.48034382,31.2555096],[121.48031574,31.25596023]]]}},{"id":"509","type":"Feature","properties":{"gml_id":"layer_greenland_pg.17112","Name":"四川北路公园","pyname":"scblgy","kind":"0141","__source_file__":"11-蓝绿空间/上海市_绿地.shp"},"geometry":{"type":"Polygon","coordinates":[[[121.48052238,31.25717271],[121.4804511,31.25698223],[121.48042032,31.25684192],[121.48041996,31.25677181],[121.48041996,31.25674175],[121.48047,31.25672186],[121.48049016,31.25673194],[121.48052022,31.25673203],[121.4803773,31.25624085],[121.48028694,31.25624058],[121.4802468,31.25623046],[121.48020648,31.25622033],[121.48017624,31.25620022],[121.48015608,31.25619014],[121.48014582,31.25615004],[121.48014582,31.25613002],[121.4801658,31.25611004],[121.48025598,31.25606022],[121.48026588,31.2560402],[121.48028586,31.2559902],[121.48031574,31.25596023],[121.48034382,31.2555096],[121.48024302,31.25543922],[121.48011216,31.25535872],[121.48000146,31.25531831],[121.4798103,31.25526768],[121.47978006,31.25527763],[121.47976026,31.2553076],[121.47971058,31.25544768],[121.47963174,31.25579801],[121.47955236,31.2560181],[121.47949296,31.25619819],[121.47940332,31.2563682],[121.47927408,31.25664828],[121.47928434,31.25669837],[121.4793045,31.25672847],[121.47934482,31.25675867],[121.47980814,31.25700036],[121.47983838,31.25703051],[121.47984864,31.25707061],[121.47983874,31.25711066],[121.4796393,31.2574406],[121.47962958,31.25751066],[121.47966,31.25756084],[121.47985152,31.2577016],[121.48052238,31.25717271]]]}},{"id":"274","type":"Feature","properties":{"gml_id":"layer_greenland_pg.16865","Name":"四川北路公园","pyname":"scblgy","kind":"0141","__source_file__":"11-蓝绿空间/上海市_绿地.shp"},"geometry":{"type":"Polygon","coordinates":[[[121.48077942,31.25844545],[121.48085988,31.25847573],[121.48092,31.25844585],[121.48104006,31.25831603],[121.48115022,31.25825622],[121.4813898,31.25790639],[121.4815095,31.25771645],[121.48156926,31.25760642],[121.481649,31.25746647],[121.48166862,31.25735636],[121.48167834,31.25727626],[121.48166754,31.25710593],[121.4816571,31.25703582],[121.48161606,31.25685542],[121.48148448,31.25664468],[121.48138332,31.25651418],[121.48075206,31.25689295],[121.48079256,31.25694317],[121.4808228,31.25698331],[121.48076376,31.25723351],[121.48072398,31.25734358],[121.4806941,31.25737355],[121.48065378,31.25736342],[121.48061346,31.2573132],[121.48056288,31.25724296],[121.48052238,31.25717271],[121.47985152,31.2577016],[121.48077942,31.25844545]]]}},{"id":"272","type":"Feature","properties":{"gml_id":"layer_greenland_pg.16863","Name":"爱思儿童公园","pyname":"asetgy","kind":"0141","__source_file__":"11-蓝绿空间/上海市_绿地.shp"},"geometry":{"type":"Polygon","coordinates":[[[121.48135956,31.25933528],[121.48151994,31.25944548],[121.4816202,31.25953557],[121.48165008,31.25959551],[121.48168986,31.2597153],[121.48171974,31.25980517],[121.48177968,31.25990511],[121.48180956,31.25994512],[121.48183962,31.25998508],[121.4819199,31.2600452],[121.48202988,31.2601752],[121.4820801,31.26020526],[121.48216038,31.26022547],[121.48225074,31.26023573],[121.48250202,31.26025643],[121.48255224,31.26026655],[121.4825823,31.26027663],[121.48260246,31.26029666],[121.48263234,31.2603566],[121.48268238,31.26039665],[121.48271244,31.26041667],[121.48278282,31.26040691],[121.48308486,31.26030809],[121.4831151,31.26027825],[121.48314534,31.26022848],[121.4831556,31.2601986],[121.4831556,31.26016868],[121.48311582,31.26008876],[121.4830557,31.26000879],[121.48298604,31.25985894],[121.48296624,31.25977907],[121.48291638,31.25962931],[121.48287678,31.25947959],[121.4828271,31.25931984],[121.48276716,31.2592199],[121.48270722,31.25914988],[121.48254684,31.25900975],[121.48240662,31.25887965],[121.48221636,31.25870951],[121.48191504,31.2586587],[121.48176402,31.2587181],[121.4816931,31.25884752],[121.48157232,31.25888708],[121.48138116,31.25896628],[121.48133076,31.25900601],[121.4813106,31.2590259],[121.48130034,31.25905578],[121.48129008,31.25910564],[121.4812899,31.25914556],[121.4812998,31.25920541],[121.48132968,31.25928528],[121.48135956,31.25933528]]]}},{"id":"510","type":"Feature","properties":{"gml_id":"layer_greenland_pg.17113","Name":"鲁迅公园","pyname":"lxgy","kind":"0141","__source_file__":"11-蓝绿空间/上海市_绿地.shp"},"geometry":{"type":"Polygon","coordinates":[[[121.48041942,31.27368654],[121.47997194,31.27218152],[121.4799003,31.27170042],[121.47978852,31.27140927],[121.47965712,31.27137831],[121.47947424,31.2707264],[121.4794044,31.27064643],[121.47929406,31.27058631],[121.47912342,31.27056584],[121.47858072,31.27060413],[121.47831918,31.27065323],[121.47806772,31.27070232],[121.47780618,31.2707813],[121.4775747,31.27086036],[121.47728274,31.27095923],[121.4767692,31.27116708],[121.47610428,31.2714941],[121.4760735,31.27161366],[121.47619284,31.27186328],[121.47762798,31.27216658],[121.47757776,31.27213652],[121.47750756,31.27211636],[121.4774775,31.27209633],[121.47744762,31.27205637],[121.477428,31.27198653],[121.4774181,31.27195661],[121.47736806,31.27192655],[121.47732792,31.27190648],[121.47721758,31.27186629],[121.4771976,31.27185626],[121.4771778,31.27179636],[121.4771778,31.27177643],[121.47717798,31.27174655],[121.47717816,31.27172657],[121.47725952,31.27153739],[121.47731028,31.27143785],[121.47733062,31.27140801],[121.47735078,31.27139811],[121.477401,31.27139825],[121.47743106,31.27140828],[121.4774712,31.27142835],[121.47749118,31.27143839],[121.47763194,31.27139892],[121.47768234,31.27139906],[121.4777124,31.27139915],[121.47774246,31.27139924],[121.47776262,31.27140927],[121.47777252,31.27142925],[121.47776226,31.27146908],[121.47777216,31.27149905],[121.4778222,31.27153905],[121.47783192,31.27157897],[121.47784182,31.27162883],[121.47785172,31.2716588],[121.47790176,31.2716988],[121.47791166,31.27171878],[121.47791148,31.27173872],[121.47789114,31.27178849],[121.47783066,31.27181823],[121.47779052,31.27180815],[121.4777304,31.27178804],[121.4776602,31.27177787],[121.47756966,31.27179753],[121.4775495,31.27180743],[121.47754932,31.27183736],[121.47754896,31.27188722],[121.47755886,31.27191714],[121.477599,31.27193721],[121.47763914,31.2719373],[121.47766938,31.27192745],[121.4778204,31.2718581],[121.47787062,31.27185824],[121.47791076,31.27187831],[121.47792066,31.27190823],[121.47793056,31.27193816],[121.47790032,31.271958],[121.47788016,31.27196795],[121.47787008,31.27198784],[121.47784974,31.27200773],[121.47782922,31.27209737],[121.47781824,31.27226684],[121.47781824,31.27228682],[121.47781824,31.27231683],[121.47783858,31.27234703],[121.47787908,31.27239738],[121.47790932,31.27239756],[121.47793974,31.27239779],[121.47803082,31.27238838],[121.47807114,31.27239869],[121.47814206,31.27242924],[121.47824322,31.27244994],[121.47827364,31.27246016],[121.47830388,31.2724904],[121.47831414,31.27251051],[121.4782938,31.27252037],[121.47823314,31.27251996],[121.47819282,31.27253972],[121.47813216,31.27257936],[121.47910344,31.2728364],[121.47911334,31.27278641],[121.47910326,31.27274627],[121.479093,31.27269614],[121.479093,31.27266608],[121.479093,31.27263606],[121.47910308,31.27261608],[121.47915348,31.27260641],[121.47919398,31.27260672],[121.47923448,31.27263701],[121.47927516,31.27275747],[121.47934644,31.27304835],[121.47939756,31.27334909],[121.47938748,31.27340907],[121.4793774,31.27342905],[121.47934716,31.27344885],[121.47931674,31.27345866],[121.47925626,31.27348827],[121.47918552,31.27355789],[121.47915528,31.27360775],[121.47915528,31.27362777],[121.47915546,31.27367781],[121.47915546,31.27369784],[121.47916554,31.27373798],[121.4792163,31.27384845],[121.47926706,31.27395897],[121.47929748,31.27399925],[121.47933798,31.27402953],[121.47938856,31.27402989],[121.47948972,31.27403061],[121.47961104,31.27403142],[121.47974262,31.27408241],[121.47981336,31.27409289],[121.47986394,31.27409325],[121.47990444,31.27408353],[121.47997518,31.27404398],[121.4800155,31.27402422],[121.48006608,31.27402458],[121.48010658,31.27403484],[121.48014708,31.27405518],[121.48016724,31.27407534],[121.48020792,31.2741657],[121.48053138,31.27409789],[121.48041942,31.27368654]]]}},{"id":"201","type":"Feature","properties":{"gml_id":"layer_greenland_pg.16785","Name":"苏州河梦清园环保主题公园","pyname":"szhmqyhbztgy","kind":"0141","__source_file__":"11-蓝绿空间/上海市_绿地.shp"},"geometry":{"type":"Polygon","coordinates":[[[121.43447964,31.25191082],[121.43469258,31.25233211],[121.4347734,31.25241248],[121.43493486,31.25255315],[121.43499534,31.25262344],[121.43506644,31.2527939],[121.435047,31.25293407],[121.43506752,31.25300423],[121.43525958,31.25328521],[121.43531034,31.25338551],[121.43538144,31.25353599],[121.43539188,31.25363616],[121.43537298,31.25389653],[121.43537316,31.25393658],[121.43535336,31.25399661],[121.43530368,31.25410664],[121.43530386,31.25417675],[121.4353143,31.25425689],[121.43544606,31.25448765],[121.43562768,31.25466846],[121.43580894,31.25472908],[121.43599992,31.25475968],[121.4362008,31.2547302],[121.4364114,31.25467071],[121.4366121,31.2545912],[121.43673234,31.25451141],[121.43685222,31.25438154],[121.43690208,31.25428155],[121.4369316,31.25417148],[121.43698992,31.25375096],[121.43707938,31.25351088],[121.43711844,31.25326059],[121.4370972,31.25301012],[121.43708604,31.25276973],[121.43712564,31.25263964],[121.4371953,31.25249964],[121.43727468,31.25226951],[121.43733408,31.2521094],[121.43747394,31.25191955],[121.43528352,31.25191316],[121.43523348,31.25195307],[121.43523366,31.25200316],[121.43523402,31.25206323],[121.43519388,31.25209316],[121.43513376,31.25211305],[121.43508354,31.2521229],[121.43502324,31.25211273],[121.43498292,31.25208254],[121.43498274,31.25205252],[121.43498256,31.25202246],[121.4349723,31.25198237],[121.43494206,31.25193219],[121.43494188,31.25191217],[121.43447964,31.25191082]]]}},{"id":"604","type":"Feature","properties":{"gml_id":"layer_greenland_pg.17220","Name":"苏州河梦清园环保主题公园","pyname":"szhmqyhbztgy","kind":"0141","__source_file__":"11-蓝绿空间/上海市_绿地.shp"},"geometry":{"type":"Polygon","coordinates":[[[121.43518938,31.25330505],[121.4351289,31.25323476],[121.43510856,31.25321469],[121.43503818,31.25317442],[121.43500794,31.25317433],[121.43497788,31.25319426],[121.43496798,31.25322428],[121.43496816,31.25326433],[121.43497824,31.2532844],[121.43498868,31.25333453],[121.43499876,31.25336459],[121.43500902,31.25341472],[121.43505978,31.25350499],[121.4351406,31.25362541],[121.43516076,31.25364552],[121.43516094,31.25368557],[121.43516112,31.25372562],[121.43516148,31.25376567],[121.43516148,31.25379573],[121.43516166,31.25382579],[121.43518182,31.25384586],[121.43521206,31.25385599],[121.43524212,31.25384604],[121.4352621,31.25381607],[121.43526192,31.25378601],[121.43528118,31.25358576],[121.43528064,31.25348559],[121.43527056,31.25346552],[121.43525022,31.2534054],[121.43520972,31.25333516],[121.43518938,31.25330505]]]}},{"id":"648","type":"Feature","properties":{"gml_id":"layer_greenland_pg.17265","Name":"宜川公园","pyname":"ycgy","kind":"0141","__source_file__":"11-蓝绿空间/上海市_绿地.shp"},"geometry":{"type":"Polygon","coordinates":[[[121.43586726,31.26209814],[121.43584728,31.26204819],[121.4358777,31.26198843],[121.43591802,31.26196863],[121.43596824,31.26196877],[121.43598822,31.26199878],[121.43599812,31.2620387],[121.4360181,31.26206867],[121.43603826,31.2620787],[121.4360883,31.26209882],[121.4361486,31.26212892],[121.43616858,31.26214895],[121.43617866,31.26216893],[121.43618856,31.26220884],[121.43620854,31.26223881],[121.43624868,31.26224894],[121.43626866,31.26225897],[121.4362989,31.26224907],[121.43632896,31.26224916],[121.4363592,31.26225924],[121.43635902,31.26227918],[121.436379,31.26231914],[121.43640924,31.26232922],[121.43642922,31.26231932],[121.43644938,31.26230937],[121.43648988,31.26226964],[121.4365302,31.26221987],[121.43655036,31.26218999],[121.43655054,31.26215012],[121.43655072,31.26212019],[121.43653074,31.26205031],[121.436541,31.26201044],[121.43651094,31.26198042],[121.4364609,31.26194037],[121.436451,31.2619104],[121.43646108,31.26188052],[121.4365113,31.26188066],[121.4365815,31.2619208],[121.43662146,31.26199073],[121.43662146,31.26202065],[121.4366112,31.26205053],[121.43660112,31.26207047],[121.43659086,31.26210035],[121.4365905,31.26220011],[121.43658024,31.26226991],[121.4364996,31.26235941],[121.43649942,31.26237935],[121.43648916,31.26241922],[121.43647908,31.26244914],[121.43644884,31.26247898],[121.43639844,31.26248879],[121.4363871,31.26287777],[121.4364672,31.26292785],[121.43650734,31.26293798],[121.43657772,31.2629382],[121.4366382,31.26290846],[121.4366886,31.26287867],[121.43671884,31.26284883],[121.43676924,31.26277917],[121.4370936,31.26209193],[121.43710368,31.26205206],[121.43710386,31.26202214],[121.43710404,31.26199221],[121.43707398,31.26195221],[121.43701386,31.26190217],[121.43607066,31.26148034],[121.43602044,31.26147021],[121.4359902,31.26147012],[121.43595996,31.26148002],[121.43590974,31.26149978],[121.43586942,31.26151962],[121.43584926,31.26153951],[121.43579868,31.26159918],[121.43554632,31.26188768],[121.43553606,31.26196746],[121.4355861,31.26201746],[121.4357967,31.26213783],[121.43586726,31.26209814]]]}},{"id":"649","type":"Feature","properties":{"gml_id":"layer_greenland_pg.17266","Name":"宜川公园","pyname":"ycgy","kind":"0141","__source_file__":"11-蓝绿空间/上海市_绿地.shp"},"geometry":{"type":"Polygon","coordinates":[[[121.43639844,31.26248879],[121.43632842,31.26241872],[121.4362584,31.26232877],[121.43623824,31.26231873],[121.43618802,31.26232854],[121.43609766,31.26231828],[121.43605752,31.2623082],[121.4360073,31.26226815],[121.43595726,31.2622281],[121.4359272,31.2621881],[121.43586726,31.26209814],[121.4357967,31.26213783],[121.43598714,31.26228804],[121.43602728,31.26232805],[121.43602692,31.26239789],[121.43601648,31.26249756],[121.43602638,31.26254747],[121.43604636,31.26258743],[121.4363871,31.26287777],[121.43639844,31.26248879]]]}},{"id":"269","type":"Feature","properties":{"gml_id":"layer_greenland_pg.16860","Name":"沪太公园","pyname":"htgy","kind":"0141","__source_file__":"11-蓝绿空间/上海市_绿地.shp"},"geometry":{"type":"Polygon","coordinates":[[[121.434714,31.2694758],[121.43448288,31.26945515],[121.43429172,31.26948444],[121.43415078,31.26957381],[121.43406996,31.26969324],[121.43400858,31.26997233],[121.43400732,31.27028157],[121.43406672,31.27052111],[121.43412684,31.27058114],[121.43422728,31.27060143],[121.43436822,31.27056197],[121.4352135,31.27027527],[121.43588778,31.27004793],[121.43611926,31.26997881],[121.4361999,31.26991923],[121.43623032,31.26983954],[121.4362206,31.26974972],[121.43615058,31.2696797],[121.43608038,31.26962961],[121.4359497,31.26960927],[121.43564838,31.26954848],[121.434714,31.2694758]]]}},{"id":"877","type":"Feature","properties":{"gml_id":"layer_greenland_pg.17500","Name":"闸北公园","pyname":"zbgy","kind":"0141","__source_file__":"11-蓝绿空间/上海市_绿地.shp"},"geometry":{"type":"Polygon","coordinates":[[[121.45503546,31.27152177],[121.45494492,31.27154144],[121.4549046,31.27157123],[121.4548641,31.27161096],[121.45479336,31.27170051],[121.45474242,31.27181999],[121.45472208,31.2718698],[121.45475178,31.27195958],[121.45478148,31.27202946],[121.45482126,31.27210934],[121.45490118,31.27218935],[121.45496148,31.27219947],[121.45504194,31.27218975],[121.45517316,31.27206056],[121.4553249,31.27189149],[121.45535532,31.27182179],[121.45536576,31.27175204],[121.45532598,31.27168215],[121.4551359,31.27152204],[121.45503546,31.27152177]]]}},{"id":"878","type":"Feature","properties":{"gml_id":"layer_greenland_pg.17501","Name":"闸北公园","pyname":"zbgy","kind":"0141","__source_file__":"11-蓝绿空间/上海市_绿地.shp"},"geometry":{"type":"Polygon","coordinates":[[[121.45429728,31.27238694],[121.45435758,31.27240706],[121.45440726,31.27250691],[121.45445712,31.27255691],[121.45450716,31.2726069],[121.4545473,31.27262697],[121.45462758,31.2726272],[121.45467798,31.27261739],[121.45473828,31.27259763],[121.45479894,31.27252802],[121.45487004,31.27237866],[121.45489056,31.27230896],[121.45489074,31.27227903],[121.45486068,31.27225901],[121.45473036,31.2721988],[121.45465026,31.27213877],[121.45464036,31.27211879],[121.45461066,31.2720489],[121.45460076,31.27199904],[121.45458078,31.27197902],[121.4545608,31.27195904],[121.45451076,31.27194891],[121.45444038,31.27194869],[121.45438008,31.2719585],[121.45430952,31.27197825],[121.45425912,31.272008],[121.45424904,31.27203788],[121.4542386,31.27209768],[121.45422834,31.27212756],[121.45415778,31.27219713],[121.45414752,31.27221702],[121.45414752,31.27223696],[121.45414734,31.27226688],[121.45418712,31.27233677],[121.45423716,31.27235688],[121.45429728,31.27238694]]]}},{"id":"862","type":"Feature","properties":{"gml_id":"layer_greenland_pg.17485","Name":"闸北公园","pyname":"zbgy","kind":"0141","__source_file__":"11-蓝绿空间/上海市_绿地.shp"},"geometry":{"type":"Polygon","coordinates":[[[121.45860252,31.2733368],[121.4585829,31.27325697],[121.45853304,31.2731771],[121.4576415,31.27266599],[121.45662,31.27206479],[121.45600908,31.27168413],[121.45573854,31.27154378],[121.45565736,31.27169309],[121.45557654,31.27180253],[121.45545504,31.27196165],[121.4554446,31.27202145],[121.45547448,31.27208135],[121.45551462,31.27211141],[121.45562514,31.27211172],[121.45570524,31.27213188],[121.45604562,31.27236219],[121.45610574,31.27241223],[121.45612572,31.2724422],[121.45613562,31.27246218],[121.45612518,31.272512],[121.45606452,31.27260155],[121.45604418,31.27264137],[121.45602402,31.27267121],[121.45600386,31.27268111],[121.45597362,31.27268102],[121.45592358,31.27264101],[121.45591368,31.27261104],[121.45592394,31.27258116],[121.45595436,31.27253144],[121.45598478,31.27249161],[121.45598478,31.27247168],[121.4559648,31.27244171],[121.45590486,31.27240166],[121.4557848,31.27229163],[121.45572486,31.27224164],[121.45568472,31.27223151],[121.45566456,31.27224146],[121.45563414,31.27229118],[121.45561398,31.27230113],[121.4555436,31.2723009],[121.4550414,31.27226949],[121.45502124,31.27227944],[121.45500108,31.27230927],[121.454991,31.27232916],[121.4550108,31.27236912],[121.45501062,31.27239905],[121.45501062,31.27241898],[121.45500036,31.27243887],[121.45476798,31.27267746],[121.45472766,31.27270725],[121.45467726,31.27272705],[121.45462704,31.27272692],[121.4545869,31.27271684],[121.45452678,31.27269668],[121.4544366,31.27265654],[121.45434642,31.27259646],[121.45414626,31.27246628],[121.45409622,31.27243622],[121.4540361,31.27239617],[121.45398624,31.27231625],[121.4539866,31.27224645],[121.4540172,31.27218674],[121.45413834,31.27204751],[121.45415868,31.27201767],[121.45415886,31.27196781],[121.45413906,31.27191791],[121.45395924,31.2717479],[121.45385934,31.27163792],[121.45384944,31.27160799],[121.45384944,31.27158806],[121.45386996,31.2715283],[121.4538903,31.27148847],[121.45395078,31.27142885],[121.4539911,31.27142894],[121.45402098,31.27144896],[121.45403088,31.27147893],[121.4540307,31.27152879],[121.45402044,31.27155863],[121.45402026,31.27159854],[121.45401,31.27163837],[121.45400982,31.2716583],[121.4540199,31.27167828],[121.45404978,31.27169831],[121.45411998,31.27172841],[121.45414014,31.27173845],[121.45417002,31.27175847],[121.45418982,31.27182831],[121.45421988,31.27185833],[121.45426992,31.2718784],[121.45430016,31.27187849],[121.45436028,31.27187867],[121.45443102,31.27181909],[121.45458222,31.27172981],[121.454703,31.27167032],[121.45476366,31.2716007],[121.45480398,31.2715809],[121.45485456,31.27153118],[121.454865,31.27146143],[121.45481496,31.27140149],[121.45466466,31.27135118],[121.45460436,31.27133106],[121.4545644,31.27131099],[121.45454442,31.27127108],[121.45452498,31.27115138],[121.45453524,31.27110156],[121.45455558,31.27108167],[121.45465602,31.271072],[121.45472622,31.27109216],[121.45493664,31.27120245],[121.45502646,31.2713024],[121.45509666,31.27135244],[121.4551566,31.27139253],[121.45523688,31.27141269],[121.45530726,31.27142286],[121.45537764,31.27140315],[121.45542804,31.27138335],[121.4548569,31.27110251],[121.4547165,31.27104225],[121.45426506,31.27090136],[121.45401432,31.27082085],[121.45390398,31.27079061],[121.45378338,31.27080024],[121.45363254,31.27083966],[121.45354164,31.27090919],[121.45312656,31.27150616],[121.45284306,31.27192407],[121.4527923,31.27202361],[121.45279158,31.27214327],[121.45280112,31.27224299],[121.45292082,31.27239288],[121.45297086,31.27243289],[121.45319118,31.2725831],[121.4538723,31.27296398],[121.4540325,31.27306415],[121.454163,31.27309443],[121.4542332,31.2731046],[121.45441446,31.27304529],[121.4545455,31.27295597],[121.45467618,31.27292645],[121.45486716,31.27292699],[121.45504788,31.27294746],[121.45637106,31.27351964],[121.45652118,31.27362975],[121.45684158,31.27382015],[121.45778388,31.27422173],[121.45795452,31.2742521],[121.45807548,31.27418267],[121.45857192,31.27342644],[121.45860252,31.2733368]]]}},{"id":"511","type":"Feature","properties":{"gml_id":"layer_greenland_pg.17114","Name":"鲁迅公园","pyname":"lxgy","kind":"0141","__source_file__":"11-蓝绿空间/上海市_绿地.shp"},"geometry":{"type":"Polygon","coordinates":[[[121.47749892,31.27482788],[121.47900498,31.2744578],[121.4789949,31.2744177],[121.4789949,31.27438764],[121.4790048,31.27433765],[121.47901488,31.27429769],[121.47903504,31.27425777],[121.47908544,31.27418802],[121.4791461,31.27411832],[121.47915618,31.27409838],[121.479156,31.2740483],[121.47914592,31.2740082],[121.47913566,31.27398809],[121.47912558,31.27396802],[121.47909516,31.27395776],[121.47902442,31.27395731],[121.478994,31.27395708],[121.47897384,31.27393692],[121.47896358,31.27390682],[121.47896358,31.27387676],[121.47897366,31.27385682],[121.47899382,31.2738269],[121.4790039,31.27378694],[121.47901398,31.27373694],[121.4790138,31.27370688],[121.4790138,31.27365684],[121.47900372,31.27362674],[121.47898338,31.27359654],[121.47892254,31.27354605],[121.47889212,31.27351581],[121.47888204,31.27348571],[121.47888204,31.27344566],[121.47889194,31.27340565],[121.47891228,31.27338576],[121.479003,31.2732963],[121.4790435,31.27324649],[121.47906366,31.27321661],[121.47908382,31.27317669],[121.47907356,31.27313655],[121.47906348,31.27311648],[121.47905322,31.27309637],[121.47897222,31.27301573],[121.47896214,31.27299561],[121.47895188,31.27296551],[121.4789418,31.27292537],[121.47895188,31.27290543],[121.47897204,31.27289553],[121.4789922,31.27288568],[121.4790327,31.27288595],[121.47905286,31.27287609],[121.47907302,31.27286619],[121.47910344,31.2728364],[121.47813216,31.27257936],[121.47803118,31.27261869],[121.4779806,31.27262837],[121.4778996,31.27261779],[121.47784902,31.27257738],[121.47783894,31.27254728],[121.47777792,31.27239666],[121.47773778,31.27228655],[121.47769782,31.2722366],[121.47762798,31.27216658],[121.47619284,31.27186328],[121.47641208,31.27220289],[121.47646194,31.27226283],[121.47655212,31.27229303],[121.4766729,31.27227345],[121.47695424,31.27227426],[121.47733494,31.27247478],[121.47747498,31.27258485],[121.4776269,31.27274609],[121.47772824,31.27288698],[121.47779934,31.27303764],[121.47784002,31.2732482],[121.47785046,31.27341848],[121.47782058,31.27362854],[121.47779034,31.27373847],[121.47769962,31.27390808],[121.47753816,31.27410725],[121.47730596,31.27428585],[121.47724548,31.27436555],[121.47724548,31.27443566],[121.47724566,31.27447571],[121.477266,31.27453592],[121.47739776,31.27480718],[121.47749892,31.27482788]]]}},{"id":"732","type":"Feature","properties":{"gml_id":"layer_greenland_pg.17355","Name":"鲁迅公园","pyname":"lxgy","kind":"0141","__source_file__":"11-蓝绿空间/上海市_绿地.shp"},"geometry":{"type":"MultiPolygon","coordinates":[[[[121.47749892,31.27482788],[121.47739776,31.27480718],[121.47742818,31.27484745],[121.47747876,31.27486779],[121.47751926,31.27486811],[121.47778206,31.2747998],[121.47782256,31.27479008],[121.4778528,31.2747903],[121.47788322,31.27479048],[121.47790338,31.27480065],[121.4779338,31.27483089],[121.47799482,31.27504158],[121.47801516,31.2750918],[121.47806592,31.27519229],[121.47813684,31.27524282],[121.47826842,31.27532387],[121.47838974,31.27533471],[121.47851106,31.2753155],[121.47872328,31.27525691],[121.47880428,31.27527747],[121.47886512,31.27535802],[121.47892632,31.27575893],[121.47895468481121,31.27651688298247],[121.4802854548825,31.27591325606129],[121.48029162,31.27583849],[121.48028154,31.27579835],[121.48027128,31.27576824],[121.48024086,31.27571798],[121.4802207,31.27567779],[121.48003836,31.27552632],[121.4799066,31.27538525],[121.47981552,31.27527446],[121.47979518,31.2752543],[121.47978492,31.27521416],[121.479795,31.27518419],[121.47980508,31.27516425],[121.4798355,31.27516443],[121.47986574,31.27516466],[121.47990624,31.27517496],[121.47993666,31.27518518],[121.47997716,31.27520547],[121.47999732,31.27521564],[121.48003782,31.27522595],[121.48006824,31.27522613],[121.48009848,31.27521632],[121.48011864,31.27520646],[121.48012872,31.27518648],[121.4801388,31.27514652],[121.48012872,31.27512641],[121.48011846,31.27510634],[121.4800272,31.27490546],[121.47993594,31.27474458],[121.4799156,31.27468437],[121.47989526,31.27460414],[121.47989508,31.27454406],[121.47988482,31.27450392],[121.47987474,31.27447382],[121.47984432,31.27445357],[121.47979374,31.2744132],[121.47971274,31.2743826],[121.47963192,31.27436199],[121.4796015,31.27436181],[121.47955092,31.27436145],[121.4795106,31.27438121],[121.47949026,31.27439106],[121.47948018,31.27441104],[121.47946002,31.27444092],[121.47941988,31.27454078],[121.47939954,31.27457066],[121.47937938,31.27458056],[121.47934914,31.27459037],[121.47927822,31.27457984],[121.47912648,31.27454874],[121.47904566,31.27452818],[121.47902532,31.27451801],[121.47901524,31.2744879],[121.47900498,31.2744578],[121.47749892,31.27482788]]],[[[121.4813223,31.27536495],[121.48113006,31.27534362],[121.48092774,31.27526213],[121.4807751,31.27465026],[121.48070382,31.27438944],[121.48063272,31.27425876],[121.48053138,31.27409789],[121.48020792,31.2741657],[121.48022826,31.27420593],[121.48026876,31.27426628],[121.48029918,31.27429652],[121.48033968,31.27432685],[121.48036992,31.27432707],[121.48048116,31.2743178],[121.48052166,31.27432811],[121.48053174,31.27435821],[121.48052184,31.27439817],[121.4805015,31.27441806],[121.48046118,31.27442783],[121.48030944,31.27444677],[121.4802792,31.27444659],[121.48024878,31.27446639],[121.48021854,31.2744762],[121.48020846,31.27449614],[121.48019838,31.27451612],[121.4801883,31.27453605],[121.4801883,31.27456611],[121.48019856,31.27460625],[121.4802189,31.2746364],[121.48024914,31.27467668],[121.4802594,31.27469675],[121.48028982,31.274717],[121.48030998,31.27472717],[121.48035048,31.27472744],[121.48038072,31.27471763],[121.48044138,31.27471803],[121.48054254,31.27469873],[121.48059312,31.27469909],[121.48062354,31.27472933],[121.48063362,31.27479948],[121.48065414,31.27487972],[121.48073568,31.27530083],[121.48080678,31.27547156],[121.48086762,31.2755621],[121.4808777,31.27561223],[121.48088214203995,31.275642603422245],[121.48101819033857,31.275580892975483],[121.48137450541722,31.27537910057869],[121.4813223,31.27536495]]]]}},{"id":"756","type":"Feature","properties":{"gml_id":"layer_greenland_pg.17379","Name":"大宁灵石公园","pyname":"dnlsgy","kind":"0141","__source_file__":"11-蓝绿空间/上海市_绿地.shp"},"geometry":{"type":"Polygon","coordinates":[[[121.44224088,31.27613],[121.44217176,31.27592043],[121.44209184,31.27584042],[121.44197142,31.27581018],[121.4418006,31.27581963],[121.44062635722736,31.275924132454747],[121.4424097631561,31.276610330015423],[121.44224088,31.27613]]]}}],"name":"上海市_绿地","crs":{"type":"name","properties":{"name":"urn:ogc:def:crs:OGC:1.3:CRS84"}}}