{"type":"FeatureCollection","features":[{"id":"355","type":"Feature","properties":{"OBJECTID":4815,"osm_id":"428179947","code":7201,"fclass":"forest","name":"大假山","Shape_Leng":0.000995339771724,"Shape_Area":4.27312393158e-08,"__source_file__":"11-蓝绿空间/上海市_森林.shp"},"geometry":{"type":"Polygon","coordinates":[[[121.48730729969213,31.229589299506642],[121.48735170012094,31.22959539960806],[121.48738040018543,31.22961260004149],[121.48742489953952,31.229617499548],[121.48745499984841,31.229603999824803],[121.4874205998808,31.22958199970958],[121.48737039972423,31.229565999871056],[121.48735599977965,31.229510900207913],[121.48737749987174,31.2294752996454],[121.48733449968745,31.2294458999084],[121.48728719984445,31.229432400185146],[121.48723990000144,31.229461799922206],[121.48720840034741,31.22950840009264],[121.48713100019552,31.229553799668167],[121.48711379976214,31.229603999824803],[121.48711379976214,31.229652999386474],[121.48716969982183,31.229682499847513],[121.48721839990924,31.229682499847513],[121.48723990000144,31.229669000124318],[121.48728009969693,31.22962979957566],[121.48730729969213,31.229589299506642]]]}},{"id":"543","type":"Feature","properties":{"OBJECTID":7545,"osm_id":"694630318","code":7201,"fclass":"forest","name":null,"Shape_Leng":0.0130225152629,"Shape_Area":2.44616049503e-06,"__source_file__":"11-蓝绿空间/上海市_森林.shp"},"geometry":{"type":"MultiPolygon","coordinates":[[[[121.4894599996793,31.23113849954217],[121.48917690029373,31.231144599643585],[121.4891113999712,31.231117399648326],[121.48901409962104,31.231155199952582],[121.48872559980668,31.231153699883407],[121.48840050028298,31.231173299708075],[121.48840630001075,31.231090699676088],[121.4889732002531,31.2310720000728],[121.48890689953384,31.230971099736507],[121.48880500005077,31.230957299639726],[121.48862259955342,31.230925200137904],[121.48867620004671,31.230705000235616],[121.48880519970032,31.23061270011607],[121.48876960003713,31.230575899857968],[121.48874840031851,31.230531799802748],[121.48874340008786,31.230484299410932],[121.48875310017547,31.230442300172058],[121.4887759996127,31.230404199494274],[121.48881420011526,31.230373399512814],[121.48885899984305,31.230346199517555],[121.48891559957531,31.230334799711272],[121.48897349972731,31.230338799895776],[121.48902479975482,31.230356700001778],[121.48906760028956,31.2303865997618],[121.48909829954698,31.23042590013523],[121.48920730007694,31.230360999660434],[121.48938303482537,31.230380525667698],[121.48873296162003,31.229819844429258],[121.48846349959092,31.229838599671666],[121.48837910001555,31.229995999915502],[121.48825299977614,31.230045399675532],[121.48811070004888,31.23004959950947],[121.48802929971248,31.230683899442454],[121.48802219956497,31.230926999681344],[121.48802450003075,31.231089199606913],[121.48813599977666,31.231261399993684],[121.48839480037975,31.231254100196622],[121.48911240001735,31.23123389962484],[121.48947040033875,31.231229299592542],[121.4894599996793,31.23113849954217]]],[[[121.48980810026364,31.230929800170202],[121.48982810028667,31.230972099782605],[121.4898994003371,31.231097799823658],[121.49004697044268,31.231056426397128],[121.48990414528717,31.230905947459753],[121.48980810026364,31.230929800170202]]]]}},{"id":"544","type":"Feature","properties":{"OBJECTID":7546,"osm_id":"694630325","code":7201,"fclass":"forest","name":null,"Shape_Leng":0.00108057209304,"Shape_Area":6.75621368623e-08,"__source_file__":"11-蓝绿空间/上海市_森林.shp"},"geometry":{"type":"Polygon","coordinates":[[[121.48965849983995,31.230741599944906],[121.48955980014478,31.230908300078056],[121.48980810026364,31.230929800170202],[121.48990414528717,31.230905947459753],[121.4897305589734,31.230723058920656],[121.48965849983995,31.230741599944906]]]}},{"id":"1176","type":"Feature","properties":{"OBJECTID":10692,"osm_id":"965081043","code":7201,"fclass":"forest","name":null,"Shape_Leng":0.00202712759606,"Shape_Area":2.22077925369e-07,"__source_file__":"11-蓝绿空间/上海市_森林.shp"},"geometry":{"type":"Polygon","coordinates":[[[121.49232709951605,31.239175399824887],[121.49212419987202,31.239506700174104],[121.49237479955741,31.239618899592585],[121.49232999982974,31.239692099910542],[121.49258480024844,31.23980629942122],[121.49262430027136,31.23981239952269],[121.49265909953783,31.23979260004853],[121.49271039956534,31.23971699944002],[121.49269479992518,31.23966819952784],[121.49268979969452,31.23961719987392],[121.49269699966692,31.239564899800314],[121.4927122000081,31.239512699551483],[121.49265379983308,31.239485499556224],[121.4926422003773,31.239467499625448],[121.49264669968545,31.239450699390318],[121.49268209969921,31.239376599750358],[121.49269000024333,31.239352099519806],[121.4926749995517,31.239331200174774],[121.49232709951605,31.239175399824887]]]}},{"id":"1175","type":"Feature","properties":{"OBJECTID":10691,"osm_id":"965081038","code":7201,"fclass":"forest","name":null,"Shape_Leng":0.00167400046941,"Shape_Area":1.25701668821e-07,"__source_file__":"11-蓝绿空间/上海市_森林.shp"},"geometry":{"type":"Polygon","coordinates":[[[121.49284059981392,31.23975610016396],[121.49287949998904,31.239885699665365],[121.4928996996615,31.23995689989107],[121.49290669998425,31.2399737001262],[121.49291849998883,31.239989600140007],[121.49293080001644,31.240003400236787],[121.49294660020553,31.24001530006609],[121.49336399984873,31.240225700056044],[121.4934515002866,31.24009309951697],[121.49345749966392,31.240075499784552],[121.49345670016669,31.240057800227362],[121.49344900017127,31.240038400052185],[121.49343460022669,31.240024599955348],[121.49283680017822,31.239735499393817],[121.49284059981392,31.23975610016396]]]}},{"id":"1179","type":"Feature","properties":{"OBJECTID":10695,"osm_id":"965081056","code":7201,"fclass":"forest","name":null,"Shape_Leng":0.00121954118036,"Shape_Area":8.12715124115e-08,"__source_file__":"11-蓝绿空间/上海市_森林.shp"},"geometry":{"type":"Polygon","coordinates":[[[121.49399109980948,31.24160209985706],[121.49362130038276,31.241862899653142],[121.49368600030868,31.241927499754354],[121.49373380017482,31.241951199588243],[121.4937846001792,31.241966999777276],[121.49397259985562,31.24197879978186],[121.49400489990626,31.241646899584794],[121.49400029987396,31.241622500078392],[121.49399109980948,31.24160209985706]]]}},{"id":"1178","type":"Feature","properties":{"OBJECTID":10694,"osm_id":"965081055","code":7201,"fclass":"forest","name":null,"Shape_Leng":0.00118640356959,"Shape_Area":4.92489671536e-08,"__source_file__":"11-蓝绿空间/上海市_森林.shp"},"geometry":{"type":"Polygon","coordinates":[[[121.4929197995092,31.242380499960177],[121.49280800028907,31.242460400227344],[121.49321459997384,31.24274890004176],[121.49327150007969,31.24270549965911],[121.4929197995092,31.242380499960177]]]}},{"id":"1177","type":"Feature","properties":{"OBJECTID":10693,"osm_id":"965081054","code":7201,"fclass":"forest","name":null,"Shape_Leng":0.00165259893473,"Shape_Area":6.52473938481e-08,"__source_file__":"11-蓝绿空间/上海市_森林.shp"},"geometry":{"type":"Polygon","coordinates":[[[121.49423119991002,31.242886099713758],[121.49417629989637,31.24284259950639],[121.49425150030652,31.24278530010156],[121.49418850009931,31.242731400134062],[121.49414039985959,31.242696399419344],[121.49408690009045,31.24267049984377],[121.49406049959248,31.24283910024434],[121.49399750028442,31.242835699907687],[121.49398320016462,31.242990299662665],[121.49369659971842,31.242964299362995],[121.49374169981968,31.242995100243718],[121.49379390006845,31.243017899856227],[121.49384539974551,31.243036299985306],[121.49390620021109,31.243048699837686],[121.4939505997404,31.24305689985607],[121.49399140018306,31.243058099551718],[121.49423119991002,31.242886099713758]]]}},{"id":"570","type":"Feature","properties":{"OBJECTID":8083,"osm_id":"10452396","code":7201,"fclass":"forest","name":null,"Shape_Leng":0.0105126383526,"Shape_Area":1.15590624196e-06,"__source_file__":"11-蓝绿空间/上海市_森林.shp"},"geometry":{"type":"Polygon","coordinates":[[[121.4557009996015,31.220394799980113],[121.45574389996102,31.22041079981858],[121.45573319982736,31.220479699578505],[121.4556848999382,31.220598900219102],[121.45574120019626,31.22062879997918],[121.45579489961494,31.22066770015431],[121.45579760027908,31.220725099383856],[121.45574120019626,31.220803099383602],[121.4556794995093,31.22086039968775],[121.45566609961088,31.220908599752136],[121.4556794995093,31.22100259959035],[121.45574930038993,31.22102099971943],[121.45580559974871,31.220979700153066],[121.45581899964714,31.22102330018521],[121.45587789984529,31.22106559979767],[121.45593429992812,31.221050799654734],[121.45598330038911,31.220989400240683],[121.4559558000202,31.22095450025006],[121.45587000020043,31.22095219978422],[121.455851199873,31.220917799816675],[121.45591560032472,31.22084899988147],[121.45593429992812,31.220796199784843],[121.45595310025544,31.220731999881934],[121.4559718996835,31.220642500251245],[121.4560014001446,31.220520900219412],[121.45607919959548,31.220447500251964],[121.4561381996183,31.22042919994766],[121.45625619966393,31.220335099385352],[121.45631790035088,31.220328299611367],[121.45641450012909,31.220076000207314],[121.45645739958934,31.219986899875607],[121.45643590039651,31.219915400175637],[121.4563714999448,31.21989929961302],[121.4562668997977,31.219869499677714],[121.45607110030107,31.21977779940596],[121.45594509988655,31.219729600240896],[121.45583779997457,31.219708899646037],[121.45581820039547,31.219701816852567],[121.45524230975182,31.219805655921324],[121.45516409984339,31.219945499585208],[121.45510280025405,31.2200059996772],[121.455111674764,31.220039306968488],[121.45511899974213,31.220066800142774],[121.45527179995372,31.220050699580156],[121.45538989982413,31.220025499677092],[121.45546499951013,31.220071400175016],[121.4554676003495,31.22017460007777],[121.45535769959827,31.220202099547294],[121.45528259991215,31.220133299612144],[121.45524769992153,31.220078199949],[121.45516500006477,31.22010480009652],[121.45516190010164,31.220199799980833],[121.4551136002126,31.22034659991573],[121.45504919976088,31.220509499513867],[121.45497679983953,31.220580599914797],[121.45491779981671,31.22069529944855],[121.45486680016279,31.220784700153843],[121.45490709968294,31.220903999719837],[121.4549418998489,31.220991199784066],[121.45502180191465,31.221032155809382],[121.45504919976088,31.221046199622492],[121.45509479988516,31.22100490005613],[121.45505189952564,31.22094759975198],[121.45511629997736,31.220853500088992],[121.45506530032344,31.220819100121446],[121.45505989989454,31.220764099383757],[121.45514309977432,31.22069529944855],[121.45517530000018,31.22060579981786],[121.45518600013384,31.22054849951371],[121.4552182003597,31.22041539985088],[121.45525310035032,31.220326000044906],[121.4552878996169,31.220328299611367],[121.4553389001702,31.220387899482034],[121.45532279960753,31.220509499513867],[121.45525840005519,31.220546199947194],[121.45529330004581,31.220610399850102],[121.455317400078,31.220644799817705],[121.455317400078,31.220713599752855],[121.4553604002623,31.220764099383757],[121.45535769959827,31.220807699415843],[121.45526379958471,31.22085810012129],[121.45518059970493,31.220975100120825],[121.45516459986641,31.221043900055975],[121.45522619982933,31.22109439968682],[121.45530290030865,31.221178800161567],[121.45539249976412,31.221144799492947],[121.45540860032668,31.22109439968682],[121.45540389957034,31.221025400102178],[121.45549709991133,31.220862700153532],[121.455505200105,31.220782399688062],[121.45549180020646,31.220708999720614],[121.455505200105,31.220658599914486],[121.45554809956525,31.22060119978562],[121.45562320015063,31.220557599753477],[121.45563660004916,31.220456699417184],[121.45564199957869,31.22041539985088],[121.4557009996015,31.220394799980113]],[[121.45560709958806,31.220316799980367],[121.45559369968953,31.220266299450202],[121.45566609961088,31.220209000045372],[121.4557305000626,31.220133299612144],[121.4557305000626,31.220055299612454],[121.4557250996337,31.219995699741787],[121.45583779997457,31.219995699741787],[121.4559638003891,31.22000709954807],[121.45604970003365,31.220014000046092],[121.45608989972914,31.220046099547915],[121.45601749980779,31.220092000045838],[121.45591830008959,31.220126400013385],[121.45585389963787,31.22019519994859],[121.45581899964714,31.22026399988374],[121.45578950008542,31.2202962001096],[121.4557250996337,31.220280099546983],[121.45567150003978,31.220280099546983],[121.45563660004916,31.220328299611367],[121.45560709958806,31.220316799980367]]]}},{"id":"572","type":"Feature","properties":{"OBJECTID":8085,"osm_id":"757510110","code":7201,"fclass":"forest","name":null,"Shape_Leng":0.000863371276717,"Shape_Area":4.96802661881e-08,"__source_file__":"11-蓝绿空间/上海市_森林.shp"},"geometry":{"type":"Polygon","coordinates":[[[121.45498859984411,31.221094600235688],[121.45496619953053,31.22111370003728],[121.45491949953532,31.221169399548216],[121.45488699983525,31.221249299815383],[121.4548604995125,31.221337999948787],[121.45492969964596,31.221386600211474],[121.45502719964566,31.221386600211474],[121.4550740003649,31.221336199506027],[121.45506790026343,31.221280599819863],[121.45511670017561,31.221188500249127],[121.45511460025864,31.221158899963314],[121.45503539966398,31.22111370003728],[121.45498859984411,31.221094600235688]]]}},{"id":"571","type":"Feature","properties":{"OBJECTID":8084,"osm_id":"757510109","code":7201,"fclass":"forest","name":null,"Shape_Leng":0.00196281934134,"Shape_Area":1.26368658162e-07,"__source_file__":"11-蓝绿空间/上海市_森林.shp"},"geometry":{"type":"Polygon","coordinates":[[[121.45593990000646,31.2214908999851],[121.45590130020491,31.22142489963943],[121.45592769980351,31.221376199552026],[121.45590130020491,31.221332800068694],[121.4558849999928,31.221249299815383],[121.45587976593856,31.221237071733526],[121.45586270040337,31.22119719939127],[121.45580979958265,31.221195399847886],[121.45576919968892,31.221216300092237],[121.45575090028387,31.221211100212145],[121.45574070017324,31.22116240012474],[121.4557284999704,31.221120699460755],[121.4557244997859,31.221094600235688],[121.45566349967089,31.221080699414813],[121.45557400004009,31.221164099843406],[121.45558699974026,31.221237800184383],[121.45569400017803,31.22129969962151],[121.45570620038086,31.221350099427582],[121.45565939966161,31.221386600211474],[121.45562689996154,31.22154310023393],[121.45562689996154,31.221609199504996],[121.45571429967526,31.22161259984165],[121.45573460007176,31.22157090007704],[121.45580780038972,31.22158309938061],[121.45581389959182,31.221616100003075],[121.45574680027471,31.221642200127462],[121.45575700038535,31.22166480009048],[121.45585450038493,31.22169949953235],[121.45589320001125,31.221642200127462],[121.45587889989133,31.221598699920094],[121.45593990000646,31.2214908999851]]]}},{"id":"574","type":"Feature","properties":{"OBJECTID":8102,"osm_id":"761643582","code":7201,"fclass":"forest","name":null,"Shape_Leng":0.00347396896819,"Shape_Area":2.59260091609e-07,"__source_file__":"11-蓝绿空间/上海市_森林.shp"},"geometry":{"type":"Polygon","coordinates":[[[121.46308419977606,31.225318699698278],[121.46301179985471,31.22535540013166],[121.46300109972105,31.225417399393507],[121.46302519975325,31.225472400131196],[121.46435560013094,31.225802699534995],[121.46449510026878,31.225802699534995],[121.46460500012074,31.225743099664385],[121.46460500012074,31.22568569953546],[121.46456750019001,31.225644399969156],[121.46430459957764,31.225621499632553],[121.4638781995194,31.22552060019558],[121.46308419977606,31.225318699698278]]]}},{"id":"43","type":"Feature","properties":{"OBJECTID":712,"osm_id":"161092908","code":7201,"fclass":"forest","name":null,"Shape_Leng":0.00995009498978,"Shape_Area":1.23404211782e-06,"__source_file__":"11-蓝绿空间/上海市_森林.shp"},"geometry":{"type":"Polygon","coordinates":[[[121.46984669956555,31.230437999614026],[121.46987819742094,31.230487638593672],[121.46988159955629,31.230492999452395],[121.47012030031169,31.230245300080583],[121.47016027697532,31.230182905117033],[121.47018200009927,31.23014899977659],[121.4701122999428,31.230098500145743],[121.47015520030232,31.23005719968006],[121.47021900000686,31.230070999776842],[121.47022859847107,31.23003952710252],[121.47023979952723,31.230002799689487],[121.47023744690068,31.23000252089969],[121.47017659967037,31.22999530024299],[121.47021420032513,31.229903599971237],[121.47025659976237,31.229896800197196],[121.47034119988655,31.22947419977453],[121.47033850012178,31.22942170005149],[121.47033985989663,31.229397650381316],[121.47034069986341,31.229382799876362],[121.47020610013146,31.229318699798227],[121.47011010020105,31.229312800245566],[121.47010664590505,31.2293159658592],[121.47005859962474,31.229359999364533],[121.47003449959254,31.22949989970067],[121.46993460020167,31.229470199590082],[121.46939539997777,31.22953439949299],[121.46935589995485,31.229557299829594],[121.46933110025009,31.229506900023466],[121.46925491058573,31.229505698529238],[121.4691788998864,31.22950449973291],[121.46910850005725,31.22954359955753],[121.46910513929083,31.229548976604065],[121.46903479971627,31.229661499778445],[121.46893559640068,31.22966096648048],[121.46888572719456,31.2296606975832],[121.46884889995681,31.229660499732347],[121.46883087754304,31.22958813308594],[121.46882949978169,31.229582599557375],[121.4687818995651,31.2295824997326],[121.46872307760805,31.229681855932938],[121.46867189988836,31.22976829966734],[121.46865183961074,31.229759141870943],[121.46855120007785,31.229713200004255],[121.46854956870766,31.22970566278616],[121.4685264003731,31.2295985993959],[121.46783780027431,31.229710899538418],[121.46782048922421,31.229787139564905],[121.46781117674448,31.22982815134816],[121.46780290028369,31.229864599971336],[121.46773050036234,31.229882899376378],[121.46756725002865,31.229769569510097],[121.46751269985123,31.22973169995805],[121.4673946998056,31.229825699796265],[121.46741294165395,31.229869397854486],[121.46745689961631,31.229974699472848],[121.46773050036234,31.230043499407998],[121.46778679972113,31.230096199679906],[121.46806839993678,31.23013519967975],[121.4683742000094,31.22995630024309],[121.46847079978761,31.23013059964751],[121.468518999852,31.230167300080893],[121.46866119975459,31.230121499407744],[121.46865849998983,31.230052699472537],[121.46852169961676,31.229933399906542],[121.46858340030371,31.229873800035875],[121.46852710004566,31.229791200003945],[121.46860760016068,31.229781999939405],[121.46878460022913,31.229953999777308],[121.46893479960136,31.229864599971336],[121.46913589970211,31.229876099602393],[121.46924319961408,31.22982559997149],[121.46948460013425,31.229903599971237],[121.46958119991245,31.229947200003323],[121.46953020025865,31.229999899375912],[121.46958389967733,31.230015999938473],[121.46963450273017,31.2300195045965],[121.46967897420541,31.23002258477453],[121.4697152996215,31.230025100178295],[121.46972070005029,31.230114599808985],[121.4697957997364,31.23023159980852],[121.46988430022031,31.230213199679497],[121.46987620002665,31.230123799873525],[121.46995939990643,31.23013519967975],[121.46996209967119,31.230254500145122],[121.46993520004946,31.230341599485257],[121.46976089974578,31.230346199517555],[121.46970328827615,31.23051415330559],[121.46970189972296,31.230518200254778],[121.46974210031772,31.23055039958132],[121.46974767791312,31.230544406499234],[121.46984669956555,31.230437999614026]]]}},{"id":"887","type":"Feature","properties":{"OBJECTID":9313,"osm_id":"870429026","code":7201,"fclass":"forest","name":null,"Shape_Leng":0.00178625882195,"Shape_Area":1.80619083828e-07,"__source_file__":"11-蓝绿空间/上海市_森林.shp"},"geometry":{"type":"Polygon","coordinates":[[[121.42874539958063,31.25170469971215],[121.42867239981149,31.25176949946291],[121.42863179991764,31.251841099886917],[121.42860479957187,31.251928999623658],[121.42861830019444,31.25200989993698],[121.4287076001757,31.252095399383222],[121.42902659959793,31.252391299718738],[121.42905910019738,31.252321899935794],[121.42909150007279,31.25220170014842],[121.42913750039543,31.252081499461667],[121.42874539958063,31.25170469971215]]]}},{"id":"93","type":"Feature","properties":{"OBJECTID":2450,"osm_id":"356864976","code":7201,"fclass":"forest","name":null,"Shape_Leng":0.00388088748725,"Shape_Area":3.69888740037e-07,"__source_file__":"11-蓝绿空间/上海市_森林.shp"},"geometry":{"type":"Polygon","coordinates":[[[121.43619629981947,31.255226800076798],[121.43608949993052,31.255230400062942],[121.43571447274473,31.25525609009651],[121.43551579991424,31.255269699537052],[121.43552419958223,31.255321599412355],[121.4356790997108,31.255353899462932],[121.4358215001622,31.255387900131552],[121.43598689987562,31.255452299683952],[121.43613760017013,31.25549699958691],[121.43620880039589,31.255548899462212],[121.43631139955153,31.255659900084368],[121.43637839994324,31.255731499609055],[121.43638469969414,31.255871099571664],[121.43629470004043,31.256093099916654],[121.43628419955621,31.25616819960277],[121.43633029970363,31.25621829993463],[121.43642660000762,31.256243400012977],[121.43649990015035,31.256236200040632],[121.43655849997481,31.256139599363053],[121.43661709979938,31.25595700011553],[121.43669459977605,31.255717199489197],[121.43671759993731,31.255622299429604],[121.43670920026943,31.2555560994345],[121.43662129963332,31.25552390010796],[121.43647470024723,31.2554916998821],[121.4362778998053,31.25545949965624],[121.43629146248111,31.25538703138642],[121.43631139955153,31.255280499495484],[121.43619629981947,31.255226800076798]]]}},{"id":"558","type":"Feature","properties":{"OBJECTID":7998,"osm_id":"10295836","code":7201,"fclass":"forest","name":null,"Shape_Leng":0.0136337666927,"Shape_Area":3.61175056687e-06,"__source_file__":"11-蓝绿空间/上海市_森林.shp"},"geometry":{"type":"Polygon","coordinates":[[[121.47210990015185,31.22731880002266],[121.47207769992599,31.227215600119905],[121.4705809996135,31.226573399642746],[121.4696771000182,31.226387599708005],[121.46949199975609,31.226479299979758],[121.46898509958271,31.227593999763315],[121.46901989974867,31.227722499393906],[121.47137489953207,31.228642200077502],[121.47145810031111,31.228605499644118],[121.47210990015185,31.22731880002266]],[[121.4703791998403,31.22718790010157],[121.47053329957214,31.22734569964439],[121.47077379987104,31.227425599911555],[121.4705216002917,31.22787679967462],[121.47025769963318,31.227886800135764],[121.46990979959764,31.22766720008127],[121.46990280017417,31.227575300160026],[121.47004989958327,31.227517400008082],[121.46992619963441,31.227403599796332],[121.47004760001676,31.227225900055316],[121.47000559987862,31.22713200004182],[121.47010359990122,31.227149999972596],[121.4703791998403,31.22718790010157]],[[121.47045950030576,31.226893199461642],[121.4704705997384,31.226957500088588],[121.47053069963215,31.22696589975652],[121.47057689960434,31.227093299516184],[121.47064399982082,31.227158100166264],[121.47057219974727,31.227244800207416],[121.47063300021284,31.227318599473847],[121.47067949965924,31.227325099773566],[121.47067190038797,31.22735949974117],[121.4706038999501,31.227364400146996],[121.47053870000104,31.22731880002266],[121.47050809966913,31.227240499649383],[121.4704812000474,31.227166900032444],[121.47039509985404,31.227163599520566],[121.47027750000666,31.227156499372995],[121.47012529964297,31.227110299400863],[121.47008300003051,31.227027499719384],[121.46993150023866,31.227014199645623],[121.4698399996164,31.227012199553428],[121.46978270021145,31.226953599728915],[121.4698184995242,31.226915900148697],[121.46986330015125,31.226834900010658],[121.46991970023407,31.226781599890955],[121.46999920030294,31.2267823993883],[121.47009520023335,31.22673320017708],[121.47022989979007,31.22672279951763],[121.47031459973903,31.22677709968343],[121.47039440018148,31.22684339950331],[121.47045950030576,31.226893199461642]]]}},{"id":"45","type":"Feature","properties":{"OBJECTID":714,"osm_id":"161094272","code":7201,"fclass":"forest","name":null,"Shape_Leng":0.00313150757531,"Shape_Area":4.68243702089e-07,"__source_file__":"11-蓝绿空间/上海市_森林.shp"},"geometry":{"type":"Polygon","coordinates":[[[121.4726165997763,31.230243200163613],[121.47247720036262,31.230390000098453],[121.47281860009832,31.23088289962618],[121.4729043999182,31.23102509952878],[121.47287760012125,31.231103099528468],[121.4729634997658,31.23140579963797],[121.47308295761252,31.23137582523418],[121.47309939991749,31.23137170004395],[121.47314003578413,31.231291003876777],[121.47340329972258,31.230768200092427],[121.47323170008292,31.23063979938729],[121.47309939991749,31.230513899696746],[121.4726165997763,31.230243200163613]]]}},{"id":"46","type":"Feature","properties":{"OBJECTID":715,"osm_id":"161094274","code":7201,"fclass":"forest","name":null,"Shape_Leng":0.00258933069936,"Shape_Area":2.53177588628e-07,"__source_file__":"11-蓝绿空间/上海市_森林.shp"},"geometry":{"type":"Polygon","coordinates":[[[121.47185840024508,31.23057099945214],[121.47144513208718,31.230755807434605],[121.47138029996097,31.230784799778746],[121.4713820833166,31.230787483355698],[121.47173409954917,31.231317099504565],[121.47175649986264,31.2313507997996],[121.47199249995401,31.23146090020043],[121.47203053588055,31.23136180210554],[121.47203330039656,31.231354599435292],[121.47205518270061,31.231339083432033],[121.47207419976462,31.231325599896593],[121.47172429963678,31.23077280012467],[121.47176592655637,31.230739297680486],[121.47190670013413,31.23062600018983],[121.47188689976065,31.23060345238747],[121.47185840024508,31.23057099945214]]]}},{"id":"44","type":"Feature","properties":{"OBJECTID":713,"osm_id":"161094270","code":7201,"fclass":"forest","name":null,"Shape_Leng":0.00132902453698,"Shape_Area":1.04300561889e-07,"__source_file__":"11-蓝绿空间/上海市_森林.shp"},"geometry":{"type":"Polygon","coordinates":[[[121.47151510024173,31.231300300168755],[121.47134527766252,31.231458525090886],[121.47134230000722,31.231461299499415],[121.47144395757266,31.23153530920723],[121.47160629959114,31.231653499909157],[121.47184229968241,31.231662699973697],[121.4717617995675,31.231419599734807],[121.47151510024173,31.231300300168755]]]}},{"id":"159","type":"Feature","properties":{"OBJECTID":2795,"osm_id":"378107078","code":7201,"fclass":"forest","name":null,"Shape_Leng":0.000972434133665,"Shape_Area":6.135916556e-08,"__source_file__":"11-蓝绿空间/上海市_森林.shp"},"geometry":{"type":"Polygon","coordinates":[[[121.48089549952772,31.23266619948555],[121.4808430996294,31.23268480016344],[121.48080850001236,31.232737999559106],[121.48078669954657,31.23280740024137],[121.48077190030301,31.232852199969102],[121.48076099962054,31.232887699807577],[121.48075899952823,31.23290290014876],[121.48076890016466,31.23292999941998],[121.48084499989693,31.23292489936466],[121.4809419998735,31.23291389975674],[121.48101019996079,31.23290290014876],[121.48108829978526,31.23287589980299],[121.48111110029708,31.23284879963245],[121.4810844003249,31.232792999397475],[121.4810013002699,31.232720300001915],[121.48089549952772,31.23266619948555]]]}},{"id":"42","type":"Feature","properties":{"OBJECTID":710,"osm_id":"160964960","code":7201,"fclass":"forest","name":null,"Shape_Leng":0.000698500653093,"Shape_Area":1.9867676424e-08,"__source_file__":"11-蓝绿空间/上海市_森林.shp"},"geometry":{"type":"Polygon","coordinates":[[[121.47516489984037,31.236862099806103],[121.47515841033248,31.23687431080083],[121.47513700017248,31.2369145995292],[121.47514880017707,31.236946899579777],[121.47538380022229,31.23697189983335],[121.47540130012999,31.236957910878914],[121.4754465998808,31.23692169967677],[121.47516489984037,31.236862099806103]]]}},{"id":"40","type":"Feature","properties":{"OBJECTID":708,"osm_id":"160964954","code":7201,"fclass":"forest","name":null,"Shape_Leng":0.00144378382404,"Shape_Area":1.08077783808e-07,"__source_file__":"11-蓝绿空间/上海市_森林.shp"},"geometry":{"type":"Polygon","coordinates":[[[121.47549859958076,31.2369913998333],[121.47545460024969,31.237093699514674],[121.47554960013395,31.237184299915555],[121.47561949994008,31.237281299892118],[121.47562510001842,31.237309599758248],[121.47571480019792,31.23731849944926],[121.47591600012333,31.2373115998505],[121.47596159305317,31.237304790183998],[121.47597760008625,31.23730239978596],[121.47602880028899,31.237173999980143],[121.47549859958076,31.2369913998333]]]}},{"id":"41","type":"Feature","properties":{"OBJECTID":709,"osm_id":"160964956","code":7201,"fclass":"forest","name":null,"Shape_Leng":0.0028291170001,"Shape_Area":1.47559426732e-07,"__source_file__":"11-蓝绿空间/上海市_森林.shp"},"geometry":{"type":"Polygon","coordinates":[[[121.47481089970336,31.237405599688714],[121.47469019989285,31.237407900154494],[121.47464459976857,31.237437700089856],[121.47447829983378,31.237334500187103],[121.47448099959854,31.23730239978596],[121.47452389995806,31.23729550018726],[121.47459360011464,31.23724509948181],[121.47466869980076,31.237284099481656],[121.474788399565,31.237201299800176],[121.47482860015987,31.23722420013678],[121.4748832996246,31.237196899417427],[121.47496910034374,31.237137299546816],[121.47499330020071,31.237061600012908],[121.47508179978524,31.23704549945029],[121.47507109965159,31.236926299709012],[121.47502444192446,31.236911077784043],[121.47501469956876,31.236907899579933],[121.47457379974117,31.23713929963901],[121.47450412476564,31.237226755110726],[121.4744675997,31.237272599850655],[121.47442400056718,31.23727536616525],[121.474395099954,31.237277199882897],[121.47438529644432,31.237298848363196],[121.47434849978345,31.23738009941212],[121.47440212725644,31.237448096252706],[121.4744208997048,31.23747189950859],[121.47451338778274,31.237468849008224],[121.47463009999922,31.23746499990989],[121.47476149994338,31.237510899508436],[121.47485380006287,31.23748590015424],[121.47481089970336,31.237405599688714]]]}},{"id":"551","type":"Feature","properties":{"OBJECTID":7978,"osm_id":"744525760","code":7201,"fclass":"forest","name":null,"Shape_Leng":0.00150978139831,"Shape_Area":1.4871206048e-07,"__source_file__":"11-蓝绿空间/上海市_森林.shp"},"geometry":{"type":"Polygon","coordinates":[[[121.47161460033362,31.247325200097976],[121.4715771004029,31.247359600065522],[121.4715475999418,31.24741919993619],[121.47150469958228,31.247469699567034],[121.47148320038946,31.247533899469943],[121.47146170029725,31.247593500239873],[121.47143219983627,31.247641699404937],[121.4714455997347,31.247689799644604],[121.47166019955864,31.247749399515214],[121.47172460001036,31.247770100110074],[121.47182920015757,31.247760900045535],[121.47183990029123,31.247689799644604],[121.47188019981138,31.247616399677156],[121.47187480028185,31.247538499502184],[121.47190429984357,31.247492599903637],[121.47193380030467,31.24743300003297],[121.4718164999316,31.247387699382898],[121.4716777003656,31.24733319956755],[121.47161460033362,31.247325200097976]]]}},{"id":"556","type":"Feature","properties":{"OBJECTID":7986,"osm_id":"744536613","code":7201,"fclass":"forest","name":null,"Shape_Leng":0.000507604434565,"Shape_Area":1.40739600754e-08,"__source_file__":"11-蓝绿空间/上海市_森林.shp"},"geometry":{"type":"Polygon","coordinates":[[[121.48088330022415,31.247570699728044],[121.48084969975389,31.247578200073917],[121.48081960034438,31.247602399930884],[121.48083379974014,31.24764479936806],[121.4809009997814,31.24769470005043],[121.4809382002378,31.247721999870464],[121.48097889995631,31.24773709948761],[121.4809983999562,31.24769169991208],[121.48098070039907,31.247670500193465],[121.48093110009029,31.247623599649444],[121.48088330022415,31.247570699728044]]]}},{"id":"547","type":"Feature","properties":{"OBJECTID":7965,"osm_id":"744515516","code":7201,"fclass":"forest","name":null,"Shape_Leng":0.00195058208747,"Shape_Area":1.35504350866e-07,"__source_file__":"11-蓝绿空间/上海市_森林.shp"},"geometry":{"type":"Polygon","coordinates":[[[121.48606250038415,31.242713599852777],[121.48601580038894,31.242743499612857],[121.48598920024142,31.242780100221523],[121.48597609981721,31.242903199423154],[121.48596679992795,31.2430768998791],[121.48595740021392,31.24322269976784],[121.48593180011255,31.24339039994703],[121.48591769964219,31.24348220004356],[121.4859386295642,31.24353133540285],[121.48595509974814,31.243569999955582],[121.48597609981721,31.24358799988636],[121.48602749966949,31.243569999955582],[121.48604150031508,31.243512099803638],[121.48602980013527,31.243402299776392],[121.48606949980763,31.24328460010429],[121.48615829976575,31.24313880021549],[121.48619090018997,31.243034999565623],[121.48619090018997,31.242971899533586],[121.48618630015767,31.242911199792104],[121.48617929983493,31.242849299455656],[121.48615119961823,31.242781499566604],[121.48614890005172,31.24273949942841],[121.48610920037936,31.24272359941466],[121.48606250038415,31.242713599852777]]]}},{"id":"548","type":"Feature","properties":{"OBJECTID":7966,"osm_id":"744515517","code":7201,"fclass":"forest","name":null,"Shape_Leng":0.00192110628261,"Shape_Area":2.12726843925e-07,"__source_file__":"11-蓝绿空间/上海市_森林.shp"},"geometry":{"type":"Polygon","coordinates":[[[121.4865061998014,31.2430768998791],[121.48648979976451,31.24308290015574],[121.48644779962626,31.24311689992504],[121.48641039952042,31.243140799408422],[121.48636369952521,31.243128799754345],[121.4863310001756,31.243108899556148],[121.4862819997146,31.243072899694596],[121.48625870007902,31.243084900247993],[121.48624459960865,31.243108899556148],[121.48619090018997,31.243182699721842],[121.4861653000886,31.243274599643087],[121.48613960016246,31.243358399370663],[121.48611860009339,31.243424299891558],[121.48610689991358,31.243488199420938],[121.48609290016725,31.24355009975733],[121.4860741996647,31.243589999978553],[121.48612559951687,31.243647900130554],[121.48620499976096,31.243689799544654],[121.48627839972846,31.2437706000332],[121.48632170028634,31.243751699881102],[121.48634509974659,31.2436998000058],[121.48640109963105,31.24362389992308],[121.48644080020279,31.243522099365464],[121.48648979976451,31.243454199651637],[121.4865225000134,31.243408300053034],[121.48655749982879,31.243348399808838],[121.48655520026239,31.24330250021029],[121.48655749982879,31.243208700021512],[121.48655399966742,31.24311599970366],[121.4865061998014,31.2430768998791]]]}},{"id":"549","type":"Feature","properties":{"OBJECTID":7967,"osm_id":"744515518","code":7201,"fclass":"forest","name":null,"Shape_Leng":0.000777217883568,"Shape_Area":4.11384126201e-08,"__source_file__":"11-蓝绿空间/上海市_森林.shp"},"geometry":{"type":"Polygon","coordinates":[[[121.48670000010497,31.243548099665134],[121.4866790000359,31.24352409945766],[121.48665089981921,31.24352609954991],[121.4865995997917,31.243579999517408],[121.48654819993953,31.243659899784575],[121.48650719984744,31.24371379975213],[121.4865692000086,31.243779699373704],[121.48661819957033,31.243791600102327],[121.4866672998561,31.243767699719626],[121.48672100017404,31.243753699973354],[121.48675130013248,31.243717799936576],[121.48674670010018,31.24367379970613],[121.4867389002801,31.24360730023676],[121.48670000010497,31.243548099665134]]]}},{"id":"545","type":"Feature","properties":{"OBJECTID":7961,"osm_id":"744512988","code":7201,"fclass":"forest","name":null,"Shape_Leng":0.00487101045807,"Shape_Area":4.78354524176e-07,"__source_file__":"11-蓝绿空间/上海市_森林.shp"},"geometry":{"type":"Polygon","coordinates":[[[121.48416729968119,31.24382259973322],[121.48422369976402,31.24388450006967],[121.48418610000851,31.243939499908038],[121.4841646997412,31.244031300004565],[121.48424240026657,31.24404959940955],[121.4844436001921,31.244113800211778],[121.4845562996336,31.24417569964885],[121.48467429967923,31.244198699810227],[121.48477889982644,31.24419409977793],[121.48482180018595,31.24413219944148],[121.48482990037962,31.244095499907473],[121.4847895999601,31.24399690003696],[121.48487010007511,31.243861599733066],[121.48504169971477,31.243843199604044],[121.48510610016649,31.243879900037427],[121.48516779995407,31.24392810010181],[121.48520000017993,31.243962500069358],[121.48523750011066,31.244008299843188],[121.48529119952934,31.24403580021209],[121.48535327343484,31.24401174244798],[121.48537970001325,31.244001500069203],[121.48546049960248,31.243903599871317],[121.48544092765678,31.24385856092391],[121.48542530013754,31.24382259973322],[121.48540380004545,31.243797399830214],[121.48527779963081,31.243783599733376],[121.48508999960382,31.24376529942907],[121.48477620006167,31.243746900199312],[121.48438460016928,31.243710199765985],[121.48421830023437,31.243678099364843],[121.48395550034616,31.243668900199623],[121.48392060035553,31.243687299429382],[121.48391250016186,31.24373770013483],[121.48392590006029,31.24380650006998],[121.48392590006029,31.243850100102065],[121.48391250016186,31.243891399668428],[121.48382670034198,31.24389830016645],[121.48378582795362,31.243935515911403],[121.48374620022707,31.24397159940986],[121.48377222930503,31.244019831849812],[121.48379450011612,31.24406109993987],[121.48384010024051,31.244086299842934],[121.4838616003326,31.244203299842468],[121.48392859982505,31.24421700011453],[121.48405589976005,31.24412129965833],[121.48401179970483,31.24397389987564],[121.48407350039179,31.243900499908193],[121.48416729968119,31.24382259973322]]]}},{"id":"550","type":"Feature","properties":{"OBJECTID":7968,"osm_id":"744515519","code":7201,"fclass":"forest","name":null,"Shape_Leng":0.00198449904098,"Shape_Area":2.4053169855e-07,"__source_file__":"11-蓝绿空间/上海市_森林.shp"},"geometry":{"type":"Polygon","coordinates":[[[121.48576600020078,31.244558200200856],[121.48580800033903,31.2445982002468],[121.48587099964698,31.24462209973018],[121.48591309960989,31.244652100214296],[121.4859643996374,31.244659999859152],[121.48602749966949,31.24466600013585],[121.48607650013048,31.2446400996609],[121.4860904998767,31.244608099983907],[121.4860904998767,31.244556200108605],[121.4861371998719,31.24451029961068],[121.48620959979326,31.244498299956604],[121.48629839975138,31.244492299679962],[121.48634740021237,31.244422499698658],[121.48635210006944,31.24438449974491],[121.48634509974659,31.244320700040305],[121.48637069984795,31.24426079979611],[121.4863777001708,31.244200899551913],[121.48633339956677,31.24417889943669],[121.48625870007902,31.244159000137813],[121.48618160030071,31.244148999676668],[121.48612320012569,31.244103100078064],[121.4860555000613,31.244083100055093],[121.48600179974335,31.244075099686142],[121.4859597996051,31.24405509966317],[121.48591309960989,31.244097099801365],[121.48587570040331,31.24418489971339],[121.48586169975772,31.244288699463937],[121.48583370026506,31.24434060023856],[121.4858032995827,31.244396499398988],[121.48575689996107,31.24449169983211],[121.48576600020078,31.244558200200856]]]}},{"id":"546","type":"Feature","properties":{"OBJECTID":7962,"osm_id":"744512989","code":7201,"fclass":"forest","name":null,"Shape_Leng":0.0046543010377,"Shape_Area":4.44439055901e-07,"__source_file__":"11-蓝绿空间/上海市_森林.shp"},"geometry":{"type":"Polygon","coordinates":[[[121.48500960021295,31.24458390012694],[121.48515979958518,31.24440729935742],[121.48523219950641,31.244320200017285],[121.48527509986604,31.244267499745376],[121.48526710039641,31.244191800211468],[121.48524784860933,31.244180349143846],[121.48520539970946,31.244155099778084],[121.48515440005554,31.244148200179325],[121.48510879993125,31.244178000114687],[121.48504710014367,31.244251400082078],[121.48494519976123,31.244317899551447],[121.4849317998627,31.244375199855654],[121.4849317998627,31.2444210994542],[121.48492640033317,31.244469299518585],[121.48484330027816,31.24448530025643],[121.484795000389,31.24449449942165],[121.48470919966985,31.244519700224032],[121.48468230004812,31.244572499421338],[121.48463140021897,31.24459770022372],[121.48456160023773,31.2445861996934],[121.48451869987821,31.244542599661315],[121.48447579951858,31.244521999790493],[121.48443290005832,31.24453579988733],[121.48434970017854,31.244558700223877],[121.48430410005426,31.244558700223877],[121.48421559957035,31.244533499421493],[121.48418080030376,31.24450599995197],[121.48413520017937,31.24449679988743],[121.48406540019812,31.244476100191946],[121.48399570004153,31.244446299357264],[121.48395009991725,31.2444256994865],[121.48392869964982,31.24438430009542],[121.48390990022176,31.24435920001713],[121.483872299567,31.244310999952745],[121.48385889966858,31.244269800211157],[121.48380260030979,31.244221600146773],[121.48377040008393,31.244246800049837],[121.48373819985807,31.24434309945451],[121.48371409982587,31.24450599995197],[121.48372210019488,31.244563300256175],[121.48371933298085,31.24458404042116],[121.48371140006111,31.24464349999755],[121.48372210019488,31.244709999466977],[121.48376499965502,31.244730700061837],[121.48385350013893,31.244705500158773],[121.48392523006532,31.244692916844713],[121.48397150018468,31.244684799563913],[121.48400909994007,31.244781099867907],[121.4840224998386,31.244852199369575],[121.48405739982923,31.244872899964435],[121.48408419962618,31.244840799563292],[121.48409489975984,31.244797199531206],[121.4841216995568,31.244735300094078],[121.48417539987486,31.244698599660694],[121.48421830023437,31.244700900126475],[121.48426390035877,31.244680199531615],[121.48432560014635,31.244732999628297],[121.48437919974037,31.244762799563603],[121.48446780004895,31.244783399434368],[121.48449459984602,31.244831599498752],[121.48452139964297,31.244875199530895],[121.48457769990102,31.24490039943396],[121.48462445385553,31.244909607592376],[121.48468230004812,31.244921000204045],[121.48475479979425,31.244863699899895],[121.484795000389,31.244792599498908],[121.48490500006574,31.244684799563913],[121.48500960021295,31.24458390012694]]]}},{"id":"554","type":"Feature","properties":{"OBJECTID":7982,"osm_id":"744527939","code":7201,"fclass":"forest","name":null,"Shape_Leng":0.00218203950771,"Shape_Area":1.38870459947e-07,"__source_file__":"11-蓝绿空间/上海市_森林.shp"},"geometry":{"type":"Polygon","coordinates":[[[121.48242430024129,31.249724499586023],[121.48240809985396,31.249698500185673],[121.48235109992333,31.24968799970145],[121.48228609962382,31.249695000024303],[121.48222110022368,31.249670599618526],[121.4821743004037,31.24965850013973],[121.48208889988291,31.24965850013973],[121.4820421998877,31.24965669969697],[121.48200350026138,31.24964110005675],[121.48197509967122,31.249635900176713],[121.48194050005407,31.249642799775415],[121.481908000354,31.249667200181193],[121.48190390034483,31.249714099825894],[121.4819507001647,31.249738399507578],[121.48201370037202,31.24973149990882],[121.48207270039484,31.249726300028783],[121.48214379989656,31.249733199627485],[121.48220070000241,31.249760999470595],[121.48224339981311,31.24979059975641],[121.48223319970248,31.249842700180523],[121.48218449961507,31.249858299820744],[121.48211130019638,31.249868799405647],[121.4820868997906,31.249920899829704],[121.4820868997906,31.24993479975126],[121.48206450037651,31.249990399437422],[121.4820441999799,31.25002519960333],[121.48205440009053,31.250063400105887],[121.48212749968445,31.250092899667663],[121.4821823996981,31.250113799912015],[121.48220070000241,31.250155499676623],[121.48219059971643,31.250198900059218],[121.48224339981311,31.250214599524213],[121.48228809971613,31.250183299519733],[121.48231460003888,31.250172899759548],[121.48232270023254,31.2501399000364],[121.48236540004325,31.25005299944644],[121.48236740013544,31.249978200133853],[121.48236540004325,31.249948699672814],[121.48238370034755,31.24988089978376],[121.48239379973415,31.249823599479612],[121.48241210003846,31.249769699512058],[121.48242430024129,31.249724499586023]]]}},{"id":"553","type":"Feature","properties":{"OBJECTID":7981,"osm_id":"744527938","code":7201,"fclass":"forest","name":null,"Shape_Leng":0.00085016064819,"Shape_Area":2.6812349017e-08,"__source_file__":"11-蓝绿空间/上海市_森林.shp"},"geometry":{"type":"Polygon","coordinates":[[[121.48246380026421,31.25061350011299],[121.48243829998762,31.250616899550323],[121.48241550037505,31.25065929988682],[121.48239000009846,31.250722399918857],[121.48236189988188,31.250764800255354],[121.48232840013566,31.250822199484958],[121.48232430012638,31.250857700222753],[121.4823257003709,31.25089320006117],[121.48234449979884,31.2509035998213],[121.48234849998335,31.25091849978901],[121.48235250016785,31.250934499627533],[121.48235250016785,31.250960900125506],[121.4823807002092,31.25098729972416],[121.48240349982177,31.250956300093208],[121.48241689972019,31.25090130025484],[121.48243560022286,31.25081639975707],[121.48245839983531,31.250713199854317],[121.48248259969228,31.25062499974399],[121.48246380026421,31.25061350011299]]]}},{"id":"555","type":"Feature","properties":{"OBJECTID":7983,"osm_id":"744529821","code":7201,"fclass":"forest","name":null,"Shape_Leng":0.00297764434231,"Shape_Area":1.78056235776e-07,"__source_file__":"11-蓝绿空间/上海市_森林.shp"},"geometry":{"type":"Polygon","coordinates":[[[121.48323369997536,31.251174099704997],[121.48329379986899,31.251192499834076],[121.48334159973513,31.251164899640457],[121.48335229986878,31.251135900101758],[121.4833923997395,31.25111219936855],[121.48351559966522,31.25112139943309],[121.48370200034708,31.251125399617536],[121.48382220013445,31.251125399617536],[121.48389150009268,31.251125399617536],[121.48391310000966,31.25108319982985],[121.48391310000966,31.251027899617952],[121.48391000004654,31.25099759965957],[121.48390690008341,31.2509435998673],[121.48395779991256,31.250927799678266],[121.48399469999549,31.250900199484647],[121.48402089994465,31.250852799816926],[121.48400859991705,31.250808000089194],[121.48394699995413,31.25078299983562],[121.48391460007883,31.250808000089194],[121.4838083002129,31.250855399756972],[121.48367280025957,31.250940999927252],[121.48359569958188,31.25097389982568],[121.48343709964252,31.250996300139207],[121.4833800997119,31.251018699553413],[121.48326919981378,31.25106219976078],[121.48312900000337,31.25110300020333],[121.4830905000266,31.251099000018883],[121.48298570022996,31.251081899410167],[121.48292870029934,31.251070099405638],[121.48287480033184,31.251058199576278],[121.48283320039195,31.25107669953013],[121.48274539958061,31.251113499788232],[121.48276079957134,31.251152999811154],[121.48281159957571,31.25117149976495],[121.4828964002487,31.25117149976495],[121.48300730014682,31.251179399409807],[121.48306430007744,31.25120439966338],[121.48311660015099,31.251221499372775],[121.48317210001244,31.251178099889444],[121.48323369997536,31.251174099704997]]]}},{"id":"557","type":"Feature","properties":{"OBJECTID":7987,"osm_id":"744536614","code":7201,"fclass":"forest","name":null,"Shape_Leng":0.00065425508127,"Shape_Area":1.7812891846e-08,"__source_file__":"11-蓝绿空间/上海市_森林.shp"},"geometry":{"type":"Polygon","coordinates":[[[121.48095060009018,31.24784149998527],[121.48093110009029,31.247839999916096],[121.48090990037167,31.24784149998527],[121.48083910034427,31.247852099394947],[121.48078430015539,31.247839999916096],[121.48070639998048,31.247824799574914],[121.48067450012809,31.24783849984692],[121.48070279999433,31.247874800082002],[121.48083379974014,31.247921699726703],[121.48091169991505,31.247936800243167],[121.4809382002378,31.247905000215667],[121.48095060009018,31.247871700118935],[121.48095060009018,31.24784149998527]]]}},{"id":"552","type":"Feature","properties":{"OBJECTID":7980,"osm_id":"744527937","code":7201,"fclass":"forest","name":null,"Shape_Leng":0.00263281149637,"Shape_Area":1.26077301143e-07,"__source_file__":"11-蓝绿空间/上海市_森林.shp"},"geometry":{"type":"Polygon","coordinates":[[[121.48208870023336,31.25115769966817],[121.48212079973518,31.25117039989408],[121.48215569972581,31.251176099797192],[121.4822027000946,31.25116229970041],[121.48219330038057,31.251075199460956],[121.48217450005325,31.251026999396572],[121.48214630001178,31.25099259942897],[121.48206319995677,31.250940999927252],[121.4820725996708,31.250905500088834],[121.48209540018263,31.25086190005669],[121.48213829964288,31.250855099383386],[121.48216239967508,31.25087110012123],[121.4822053000346,31.250922699622947],[121.48221869993313,31.250958199461365],[121.48224559955486,31.250975399894855],[121.48233410003877,31.250958199461365],[121.48233810022316,31.250925000088728],[121.48231800037547,31.250908899526166],[121.48227639953632,31.250840199415734],[121.48227510001595,31.250814899687896],[121.48230730024181,31.25071749951303],[121.4823529003661,31.250675100075853],[121.482367599785,31.25063839964247],[121.48233810022316,31.25061769994693],[121.48229250009888,31.250598199947035],[121.4822478559538,31.250587974655332],[121.48221739951339,31.250580999513545],[121.48221739951339,31.250623499674816],[121.48220670027911,31.250678499513185],[121.48221069956423,31.250722099545328],[121.48221400277407,31.250774777334186],[121.48221650019138,31.250814600213687],[121.48219109973957,31.250803300232178],[121.48216269914928,31.250769071135778],[121.48215650012241,31.250761599568193],[121.4820975000996,31.25075200020467],[121.48202029959725,31.250753299725034],[121.48201330017378,31.250784999927873],[121.48201149973102,31.2508303995034],[121.4819903000124,31.250972599405998],[121.48197430017387,31.25103009935964],[121.48197259955589,31.251092099520804],[121.48195659971736,31.251176900193855],[121.48194779985113,31.251247999695465],[121.48196550030764,31.251269199414082],[121.48201499989239,31.25129939954769],[121.48205750005366,31.251309999856687],[121.48211240006731,31.25129939954769],[121.48210875421569,31.251283196462396],[121.48209640022878,31.25122830004608],[121.48206319995677,31.251204700036908],[121.48206179971237,31.251177199668064],[121.48208870023336,31.25115769966817]]]}},{"id":"1393","type":"Feature","properties":{"OBJECTID":14372,"osm_id":"1083786844","code":7201,"fclass":"forest","name":null,"Shape_Leng":0.00434781404068,"Shape_Area":2.75879333736e-07,"__source_file__":"11-蓝绿空间/上海市_森林.shp"},"geometry":{"type":"Polygon","coordinates":[[[121.4767078999497,31.261853399714653],[121.47664000023588,31.261892700088083],[121.47644290031963,31.26207309959392],[121.47628290013574,31.262241299796187],[121.47616499991489,31.262432199786247],[121.4760101996111,31.262484900058155],[121.47582549954723,31.26253150022859],[121.4758748003818,31.262623199601023],[121.47585540020657,31.262726899526854],[121.47570410006426,31.262848700107497],[121.47541560024979,31.262868299932165],[121.4753330002178,31.262821699761673],[121.4752203997017,31.262779599798762],[121.47515700019551,31.262826199969197],[121.475352299669,31.263066800092815],[121.47544020030512,31.263069099659276],[121.4756759000228,31.262929300047233],[121.47596439983727,31.262736800163225],[121.47631799977592,31.26246389998903],[121.47650389953537,31.26230149951465],[121.47658129968727,31.262152599662784],[121.47660820020837,31.26208899960767],[121.4767078999497,31.261853399714653]]]}},{"id":"1401","type":"Feature","properties":{"OBJECTID":14439,"osm_id":"1085786126","code":7201,"fclass":"forest","name":null,"Shape_Leng":0.00204343065821,"Shape_Area":9.41160624463e-08,"__source_file__":"11-蓝绿空间/上海市_森林.shp"},"geometry":{"type":"Polygon","coordinates":[[[121.47789179986671,31.265839999916125],[121.4778846997192,31.265747500147086],[121.47721459957415,31.265787299644217],[121.47722269976782,31.265869399653127],[121.47750709957302,31.265857300174332],[121.477520299822,31.266127300034896],[121.47764599986306,31.266118699818207],[121.47763259996452,31.26586339937643],[121.47789179986671,31.265839999916125]]]}},{"id":"1400","type":"Feature","properties":{"OBJECTID":14438,"osm_id":"1085786125","code":7201,"fclass":"forest","name":null,"Shape_Leng":0.000652128200128,"Shape_Area":2.4797373033e-08,"__source_file__":"11-蓝绿空间/上海市_森林.shp"},"geometry":{"type":"Polygon","coordinates":[[[121.4769315001887,31.265878499892892],[121.47693250023474,31.266089599555414],[121.47705029973156,31.266082399583127],[121.47705599963479,31.265884099971288],[121.4769315001887,31.265878499892892]]]}},{"id":"1399","type":"Feature","properties":{"OBJECTID":14434,"osm_id":"1085786078","code":7201,"fclass":"forest","name":null,"Shape_Leng":0.00226300439009,"Shape_Area":1.35229201077e-07,"__source_file__":"11-蓝绿空间/上海市_森林.shp"},"geometry":{"type":"Polygon","coordinates":[[[121.47836270017854,31.26658369967805],[121.47732439960146,31.266621599807024],[121.47734019979043,31.266673800055855],[121.47736880003015,31.26676870011545],[121.47740529991472,31.26680660024448],[121.47747049986378,31.266840099990645],[121.4775721996973,31.266862399580134],[121.47766619953552,31.26683119940037],[121.47788789950698,31.266728600244733],[121.47800960026291,31.266684899488553],[121.47811750002268,31.26664610003752],[121.47836270017854,31.26658369967805]]]}},{"id":"1361","type":"Feature","properties":{"OBJECTID":14315,"osm_id":"1080950613","code":7201,"fclass":"forest","name":null,"Shape_Leng":0.000838756377061,"Shape_Area":3.57371560043e-08,"__source_file__":"11-蓝绿空间/上海市_森林.shp"},"geometry":{"type":"Polygon","coordinates":[[[121.47900069992238,31.270452299833835],[121.47868400006666,31.270494399796746],[121.47873049951295,31.270565699847225],[121.47878820001552,31.270610999597977],[121.4789046001672,31.270588499459734],[121.47901240010219,31.270586199893273],[121.47900069992238,31.270452299833835]]]}},{"id":"230","type":"Feature","properties":{"OBJECTID":4032,"osm_id":"421438154","code":7201,"fclass":"forest","name":null,"Shape_Leng":0.000649354340321,"Shape_Area":2.85217652513e-08,"__source_file__":"11-蓝绿空间/上海市_森林.shp"},"geometry":{"type":"Polygon","coordinates":[[[121.47748200039405,31.271747199473737],[121.47742210014985,31.271769599787262],[121.47738279977648,31.27181429969022],[121.4774446002881,31.271868699680795],[121.4775417999142,31.271913499408527],[121.47759789962345,31.271899099463894],[121.47763910026435,31.27182549984701],[121.47759050000161,31.27175519984263],[121.47748200039405,31.271747199473737]]]}},{"id":"1357","type":"Feature","properties":{"OBJECTID":14270,"osm_id":"6262915","code":7201,"fclass":"forest","name":"鲁迅公园","Shape_Leng":0.045557490048,"Shape_Area":1.67597854242e-05,"__source_file__":"11-蓝绿空间/上海市_森林.shp"},"geometry":{"type":"MultiPolygon","coordinates":[[[[121.4793756003038,31.274218899782454],[121.47931189952465,31.274225299358136],[121.47927789975529,31.274276399736095],[121.47924709977394,31.27431839987429],[121.47921200013377,31.274344799472942],[121.47916099958047,31.274410499445025],[121.47915529967736,31.274447100053692],[121.47917600027222,31.274456999790743],[121.47922239989396,31.27445979938028],[121.47922380013836,31.27448650025184],[121.47918709970497,31.27450209989206],[121.47920749992625,31.274537400080987],[121.47929289954777,31.27470160009881],[121.47937529993021,31.2748150001122],[121.47948109977301,31.274926400033394],[121.47960929992928,31.275026299424212],[121.47966079960634,31.275039099474895],[121.47971509977208,31.275107399387025],[121.47978570015005,31.275118399894268],[121.47985099992377,31.275095899756025],[121.47988239975302,31.275058700198883],[121.47986429999753,31.274953000180858],[121.4798388995456,31.27487289936488],[121.47979709995627,31.274798899549637],[121.4797551996428,31.274740299725124],[121.47973159963362,31.274683100145012],[121.47964150015514,31.274553099545983],[121.47962899957872,31.274497900058066],[121.47966760027964,31.274428199901536],[121.47969299983208,31.274377999744956],[121.47967599994752,31.274334799911117],[121.47962510011837,31.274313899666765],[121.47955999999408,31.27429050020646],[121.4795112000819,31.27427739978225],[121.4794311999899,31.27423000011447],[121.4793756003038,31.274218899782454]]],[[[121.48110579969295,31.275348499533663],[121.4809677996243,31.275250499511003],[121.48081939979556,31.27520689947886],[121.48081159997537,31.275173599382185],[121.48067800028957,31.274593800163814],[121.48062599969023,31.27440119955577],[121.48058250038218,31.27417829988866],[121.48043380017975,31.273473399577767],[121.48038000003703,31.273411699790188],[121.4802754997146,31.273332599919627],[121.48022450006067,31.27325109975851],[121.479781500316,31.27139959981173],[121.47962100010909,31.270703499367073],[121.47937679999939,31.270742799740447],[121.47931069982894,31.27065459963012],[121.47922309956641,31.2706215000822],[121.47911769992197,31.270587299764145],[121.47907789952546,31.270586899565842],[121.47901240010219,31.270586199893273],[121.4789046001672,31.270588499459734],[121.47878820001552,31.270610999597977],[121.47873049951295,31.270565699847225],[121.47868400006666,31.270494399796746],[121.47866500008979,31.27046529953401],[121.47859229979485,31.27031510016178],[121.4781678998288,31.270377599446704],[121.47809490005966,31.270394200032342],[121.47759090019997,31.270508899566096],[121.47721389990159,31.270648799902233],[121.47706929970843,31.27070770010033],[121.47648720002428,31.27097660009008],[121.4763639002739,31.271033500195927],[121.47585700010052,31.27133819949836],[121.47591960010948,31.271551699451436],[121.47596820037222,31.27176969961198],[121.47602110029356,31.27183360004068],[121.47611009990123,31.27189939983748],[121.47617160003938,31.27201789990619],[121.47624979968862,31.27224849956866],[121.47681829982469,31.272289800034287],[121.4768583996954,31.272305700048094],[121.47712350004952,31.27241069949423],[121.47733969976741,31.272555699885686],[121.47748069997442,31.272700800101916],[121.47758730021383,31.272877499796834],[121.47768199972461,31.273138599966444],[121.47769980000578,31.273337899624437],[121.47767009989525,31.27351010001115],[121.4776366999738,31.27358140006163],[121.47751669983586,31.27383809984849],[121.47730029956927,31.27405960017046],[121.47716400011859,31.274264599731566],[121.47733809987346,31.27455849997483],[121.47775920022696,31.274402900173754],[121.4779804001754,31.274909999996567],[121.47806489957554,31.27518269962195],[121.4784416003996,31.275194399801762],[121.47879389991863,31.275216699391194],[121.4787779000801,31.275780399845644],[121.47885880039337,31.2759897997895],[121.47892250027326,31.276390599746435],[121.47893771904963,31.27652457851955],[121.48002665022972,31.2760306478325],[121.48001999962332,31.2759966993882],[121.4800162998124,31.27593809956369],[121.4800168996602,31.27589110009427],[121.48001770005692,31.27584789936111],[121.4800160003382,31.275807799490394],[121.48001989979855,31.275776700034726],[121.480014000246,31.275730000039516],[121.47999350019995,31.275662899823033],[121.47995579972041,31.27562320015062],[121.47992840007566,31.275577000178487],[121.47988919952695,31.275518699828183],[121.47983879972094,31.275460899500956],[121.479765200104,31.275429800045288],[121.4796542003811,31.27539800001773],[121.47961270026599,31.275361299584347],[121.47958920008159,31.275317400077995],[121.47948199999439,31.27510290007882],[121.47932580034546,31.274892500088868],[121.47924530023045,31.27475440019549],[121.47917920006012,31.274626299863883],[121.47916210035066,31.274570599453625],[121.47911800029556,31.274507699970457],[121.47904709954412,31.274472599430965],[121.47893340005646,31.27445979938028],[121.47879129997852,31.27440689945888],[121.47872750027398,31.274322099685207],[121.47873279997884,31.27421829993466],[121.47883259954494,31.27404669939574],[121.47892079965527,31.27400530000466],[121.47893609982123,31.273974699672692],[121.47889780039327,31.2739022997514],[121.47882619996926,31.27388200025416],[121.47877909977569,31.273904700041953],[121.47874429960984,31.27389929961305],[121.47869439982674,31.273821199788586],[121.47869739996509,31.273771200180818],[121.47875609961432,31.273701199650702],[121.47876710012167,31.27359909961882],[121.47874479963286,31.273542599711277],[121.4786936003295,31.273480999748415],[121.47866290017282,31.27344430021435],[121.47864240012677,31.27338709973492],[121.47864850022813,31.2732747995924],[121.47871559954535,31.273181999449776],[121.47878490040284,31.273063799754595],[121.4787805000201,31.27301449981934],[121.47873399967443,31.272966299754955],[121.47873310035231,31.272844599898406],[121.47874850034304,31.272790499382097],[121.47881199967412,31.272767500120096],[121.47888439959547,31.272730799686713],[121.47889640014876,31.27264230010212],[121.47889559975215,31.272556199908763],[121.47892260009803,31.272478399558565],[121.47891430025481,31.272417099969232],[121.47887850004281,31.272360199863385],[121.47886929997833,31.27227109953168],[121.47883330011678,31.272201500099186],[121.47876130039378,31.272126299689035],[121.4787159997436,31.27206240015971],[121.47869430000196,31.27198590022914],[121.47867249953629,31.271860899860712],[121.47863110014521,31.271838399722412],[121.47852669964755,31.271829599856176],[121.47841309998466,31.271831599948428],[121.4783183995745,31.271844699473377],[121.47825149990683,31.271871899468636],[121.47820250034522,31.271902300151055],[121.47813840026697,31.27191709939467],[121.47796619988026,31.27193549952375],[121.47789449963147,31.27193039946843],[121.4778086998117,31.271936799943433],[121.4777619998165,31.27196590020617],[121.47772149974753,31.27203649968476],[121.4777075000012,31.27208729968919],[121.47766039980763,31.27211929936624],[121.4776670997569,31.272244699933026],[121.47774290001485,31.27230260008497],[121.47778750009309,31.272363600200038],[121.4778465001159,31.27236310017696],[121.47787770029572,31.272350599600543],[121.47797809970962,31.27237459980796],[121.47806479975077,31.2723952995035],[121.47805459964013,31.27243140008909],[121.47806589962158,31.27247099993673],[121.47812009996267,31.27251240022713],[121.47808629984297,31.272553599968717],[121.47800510005538,31.27256779936448],[121.47786790038333,31.272617899696343],[121.4777834999087,31.27261510010686],[121.47770359964147,31.272566099645815],[121.4776449998169,31.272495299618413],[121.47766089983077,31.27242409939271],[121.47766740013049,31.27236820023228],[121.47762969965095,31.272283600108096],[121.4775607000663,31.27217399973034],[121.47749230032946,31.272117099624495],[121.47744420008985,31.27210090013648],[121.47734799961052,31.272063000007506],[121.47735199979502,31.272036099486456],[121.47732829996119,31.27199830008152],[121.47729359962,31.271939099509893],[121.47721790008609,31.27188030003589],[121.4770980995977,31.27183289946879],[121.47706140006358,31.27177079948285],[121.47706380035413,31.271695199773717],[121.47711940004035,31.271701200050416],[121.47718619988325,31.27154520005098],[121.47708550009577,31.27150930001426],[121.47710569976834,31.27146469993602],[121.4771399000864,31.271478299483988],[121.47718279954665,31.271456799391842],[121.4772052996849,31.271413800106814],[121.4771298996252,31.271365699867204],[121.47708059969,31.271377800245318],[121.47706419965311,31.271331599373866],[121.47710440024798,31.27128249998742],[121.47721330005379,31.27136300010244],[121.47730429975365,31.271393999733334],[121.47738499951822,31.27139659967338],[121.4774641002881,31.271385399516646],[121.47754620029696,31.27135769949831],[121.47760899995546,31.271356399977947],[121.4776521997893,31.271397099696458],[121.47766900002443,31.271467600249593],[121.4776771002181,31.271538299552958],[121.47769980000578,31.27159299991706],[121.47764389994609,31.27161579952957],[121.47762699988618,31.271661499478682],[121.477650199697,31.271703999639897],[121.47770929954459,31.2717458001286],[121.47772619960449,31.27181849952416],[121.47776049974732,31.27186399982378],[121.47784659994068,31.27188649996208],[121.47798169969576,31.271856200003697],[121.47813159959367,31.271838999570207],[121.4782097003175,31.2718316997732],[121.47830349960691,31.27181040022981],[121.47843119974016,31.271800999616516],[121.47858779958733,31.27179309997166],[121.47871320015417,31.271818100225175],[121.47878760016772,31.271859299966764],[121.47881270024595,31.271902099602244],[121.47888009993676,31.27206040006746],[121.47894629993186,31.272159499960992],[121.47896920026847,31.272281799665393],[121.47898160012085,31.272406999683312],[121.47896389966434,31.272522099415426],[121.47896670015314,31.272599099369017],[121.47898200031909,31.272644699493355],[121.4790144001945,31.272712299732916],[121.47902680004688,31.27278860001394],[121.47901569971486,31.272832899718594],[121.47903519971476,31.27286479957087],[121.47905650015741,31.27289489987976],[121.47907559995906,31.272917099644474],[121.47910720033713,31.27293330003181],[121.47911519980664,31.272977499911747],[121.47910260030483,31.273004299708703],[121.47908849983446,31.273028599390386],[121.47909550015731,31.273060299593226],[121.47912470024482,31.273077400201885],[121.47912930027701,31.273102899579214],[121.47911550018023,31.27312880005411],[121.47910749981133,31.273180899578904],[121.47912480006948,31.27320489978632],[121.47915379960818,31.273205800007702],[121.47918969964496,31.27318399954197],[121.47923250017982,31.273178099989366],[121.47928809986593,31.273186300007808],[121.47929670008273,31.273218199860082],[121.47927369992135,31.273243499587863],[121.47923410007377,31.27325639946332],[121.47914940012481,31.273307800214866],[121.47906249953473,31.273353099965618],[121.47902859959027,31.273405499863998],[121.47902610037431,31.273466099780705],[121.47899509984404,31.273521300167943],[121.47893189998729,31.273560800190808],[121.47889929956307,31.27360650013992],[121.47891149976601,31.273638800190554],[121.47895960000562,31.27365110021816],[121.47899409979789,31.27370009977983],[121.47899679956276,31.27371780023634],[121.47906299955787,31.27377459961815],[121.47904549965017,31.273820799590283],[121.47911869996813,31.273874999931365],[121.47921019969101,31.27389119941938],[121.4792941999674,31.273886599387083],[121.47941799974092,31.273911300166446],[121.47955409954216,31.273952499907978],[121.47966649950945,31.27395950023083],[121.4797574002838,31.273913400083416],[121.47984630006681,31.27390019983443],[121.47992149957759,31.273911800189467],[121.47995179953602,31.27394439971431],[121.47994899994649,31.274004799981583],[121.47997119971114,31.274062200110507],[121.4800444000291,31.274144399944134],[121.48012190000577,31.274193199856313],[121.48019789991326,31.27417529975031],[121.4802505003604,31.274198599385898],[121.48032259990816,31.274247599846888],[121.48038960029987,31.274324499975762],[121.48043559972325,31.274362400104735],[121.48046360011517,31.274421499952325],[121.48046660025341,31.274473999675422],[121.48044240039656,31.274550700154748],[121.48043339998151,31.274642600075993],[121.48045199976002,31.27470089952692],[121.48051430029477,31.27486759966007],[121.48050389963532,31.274991899456666],[121.48051159963063,31.27506540014815],[121.48052780001797,31.275242799515638],[121.48054370003183,31.275325000248586],[121.48057330031759,31.27536350022541],[121.48062079981014,31.27540239950116],[121.48063309983775,31.27543819971322],[121.48062849980545,31.275488499694575],[121.48062780013288,31.275552299399124],[121.48063359986077,31.27561469975865],[121.48065329951021,31.275676799744588],[121.48068770037719,31.275725499831992],[121.48068845964842,31.275730456243856],[121.48101819033857,31.275580892975483],[121.48130504714007,31.275418436978025],[121.48110579969295,31.275348499533663]]]]}},{"id":"231","type":"Feature","properties":{"OBJECTID":4033,"osm_id":"421438155","code":7201,"fclass":"forest","name":null,"Shape_Leng":0.000960150968606,"Shape_Area":6.36805020457e-08,"__source_file__":"11-蓝绿空间/上海市_森林.shp"},"geometry":{"type":"Polygon","coordinates":[[[121.48019939998244,31.27434390015094],[121.48007670007974,31.274374899781833],[121.48002669957259,31.274479699578535],[121.48007670007974,31.274572899919463],[121.48014480034237,31.274572899919463],[121.48026750024496,31.27456129956437],[121.48038100008318,31.274491399758347],[121.48038560011537,31.27440600013682],[121.48029470024028,31.274351600146304],[121.48019939998244,31.27434390015094]]]}},{"id":"233","type":"Feature","properties":{"OBJECTID":4035,"osm_id":"421439101","code":7201,"fclass":"forest","name":null,"Shape_Leng":0.00221344591222,"Shape_Area":3.17312107692e-07,"__source_file__":"11-蓝绿空间/上海市_森林.shp"},"geometry":{"type":"Polygon","coordinates":[[[121.4548618997569,31.271429399747035],[121.4548123003475,31.271444299714688],[121.4547627000386,31.27147640011583],[121.45455880034842,31.271714799598385],[121.454537400081,31.271762899837995],[121.4545414002655,31.27179959937206],[121.45458029954125,31.271825999870032],[121.45464729993296,31.271864999869877],[121.45466880002516,31.271895899676053],[121.45467059956854,31.27193160006334],[121.45464729993296,31.27203349954641],[121.45465540012663,31.272074700187318],[121.45469290005735,31.27210799938473],[121.4547787997019,31.272141199656687],[121.45483779972471,31.272138900090226],[121.45489810016727,31.272117099624495],[121.45494769957679,31.272063299481715],[121.4550040996595,31.271972699980154],[121.45504559977462,31.271928000077196],[121.45509389966378,31.271901599579223],[121.45521060018916,31.271853500238876],[121.4552534996493,31.27181109990238],[121.4552574998338,31.271747999870342],[121.45524550017979,31.27166669935872],[121.45522130032282,31.271634599856952],[121.45499600036521,31.27146610018042],[121.45491820001496,31.271436300245114],[121.4548618997569,31.271429399747035]]]}},{"id":"8","type":"Feature","properties":{"OBJECTID":177,"osm_id":"51051529","code":7201,"fclass":"forest","name":"闸北公园","Shape_Leng":0.0166798673776,"Shape_Area":1.1360365224e-05,"__source_file__":"11-蓝绿空间/上海市_森林.shp"},"geometry":{"type":"Polygon","coordinates":[[[121.45828249993747,31.27270369951617],[121.45818590015926,31.272841299386528],[121.4568447996478,31.27206179941254],[121.45451659966136,31.270768800040116],[121.45460250020528,31.27065879946406],[121.45406599974615,31.27038369954812],[121.45346519955933,31.27020029990399],[121.45219919963347,31.272107699910464],[121.45350809991896,31.272841299386528],[121.45407679970458,31.273162199975616],[121.4542699003357,31.27314389967131],[121.45463469953177,31.272877899995137],[121.45483850029666,31.272868799755372],[121.45636199950673,31.273565699697315],[121.45788549961617,31.274345099846528],[121.45881889967256,31.273006299800954],[121.45828249993747,31.27270369951617]]]}},{"id":"234","type":"Feature","properties":{"OBJECTID":4036,"osm_id":"421439102","code":7201,"fclass":"forest","name":null,"Shape_Leng":0.00231665724554,"Shape_Area":3.34499932105e-07,"__source_file__":"11-蓝绿空间/上海市_森林.shp"},"geometry":{"type":"Polygon","coordinates":[[[121.45442869992462,31.271917700141785],[121.45437370008631,31.271926900206324],[121.45425439962094,31.271963499915614],[121.45417529975032,31.272002499915516],[121.45411889966749,31.272057499753885],[121.45404120004139,31.272200799527354],[121.45404249956175,31.27225469949485],[121.45406399965395,31.27229709983135],[121.45421949963031,31.272418600038407],[121.45430099979137,31.272509900111856],[121.45437370008631,31.272581399811827],[121.45445320015517,31.27263699949799],[121.45450550022872,31.27265360008363],[121.45455549983649,31.27264759980693],[121.4545969999516,31.272628099807037],[121.45465299983618,31.27259400021302],[121.4546858997345,31.272562999682748],[121.45472239961907,31.27251629968754],[121.45482170006142,31.272403700070754],[121.45484179990922,31.27236820023228],[121.45483640037969,31.272338399397654],[121.45481769987703,31.272322299734412],[121.4547612997942,31.27231089992813],[121.45472649962835,31.272294799365568],[121.4546488998269,31.272238299458024],[121.4545574999288,31.272143500122468],[121.45452929988733,31.272104500122623],[121.45451859975367,31.272066699818367],[121.45452529970294,31.271976099417486],[121.45448910019184,31.27193599954677],[121.45442869992462,31.271917700141785]]]}},{"id":"223","type":"Feature","properties":{"OBJECTID":4024,"osm_id":"6262914","code":7201,"fclass":"forest","name":"大宁灵石公园","Shape_Leng":0.0646391895909,"Shape_Area":4.71669631304e-05,"__source_file__":"11-蓝绿空间/上海市_森林.shp"},"geometry":{"type":"Polygon","coordinates":[[[121.44256549999784,31.276592299694926],[121.4424389995603,31.276423499644864],[121.44229450009118,31.275993399775643],[121.44221209970874,31.27591029972058],[121.4420928999674,31.27587919936559],[121.44066060010664,31.275798299951646],[121.44065139144939,31.27593376482269],[121.44245935009069,31.276629409481853],[121.44266152940864,31.27668755320007],[121.44256549999784,31.276592299694926]]]}},{"id":"564","type":"Feature","properties":{"OBJECTID":8010,"osm_id":"747205283","code":7201,"fclass":"forest","name":null,"Shape_Leng":0.00138916979059,"Shape_Area":1.14649667667e-07,"__source_file__":"11-蓝绿空间/上海市_森林.shp"},"geometry":{"type":"Polygon","coordinates":[[[121.45375170018087,31.278458599784585],[121.45371390049458,31.278563621519297],[121.45413226533722,31.27862055824008],[121.4541627002485,31.278542500236256],[121.45380489957654,31.27846949956779],[121.45375170018087,31.278458599784585]]]}}],"name":"上海市_森林","crs":{"type":"name","properties":{"name":"urn:ogc:def:crs:OGC:1.3:CRS84"}}}