{"type":"FeatureCollection","features":[{"id":"0","type":"Feature","properties":{"gml_id":"layer_river_pg.178718","Name":"黄浦江","pyname":"hpj","kind":"0123","__source_file__":"11-蓝绿空间/上海市_黄浦江.shp"},"geometry":{"type":"Polygon","coordinates":[[[121.49730036000005,31.24494248000002],[121.49697744000002,31.244821339999987],[121.49660412000003,31.244670000000042],[121.49574677999999,31.244397080000056],[121.49482878000003,31.244093959999987],[121.49377920000006,31.243630139999993],[121.49289054000008,31.24313681000001],[121.49208234000002,31.242593569999997],[121.49137368000015,31.241800260000105],[121.49104968000017,31.24128852000007],[121.49103960000002,31.24126849999999],[121.49083566000002,31.240616850000094],[121.49082216,31.239855630000136],[121.49085996000008,31.239354960000128],[121.49095788,31.238794400000074],[121.49112707999996,31.238444340000058],[121.49117694000006,31.238334320000035],[121.49138700000003,31.238014410000062],[121.49148725999999,31.23788450000012],[121.49186796000004,31.23742491000013],[121.49265006000007,31.236656000000096],[121.49382604553281,31.235813552965563],[121.49321161501332,31.234812706127755],[121.49148426222861,31.232570740453905],[121.49132458017853,31.232402501286735],[121.49111088000006,31.23256514000002],[121.49059968000006,31.23298427000003],[121.48981902000014,31.233653059999938],[121.48892910000006,31.23460196999997],[121.48874928000009,31.23480173000013],[121.48864920000017,31.23491161999999],[121.48835922000012,31.23522126000006],[121.48817039999994,31.235671439999976],[121.48786152000002,31.236241410000048],[121.48745256000007,31.236891259999993],[121.48720380000009,31.237401330000125],[121.48697537999999,31.237991550000118],[121.48681769999996,31.238672180000094],[121.48671960000001,31.23918270000007],[121.48663230000011,31.239863510000077],[121.48658351999995,31.240193850000082],[121.48659522000003,31.24054445000013],[121.48657686000013,31.24091498000007],[121.48657811999999,31.241185380000047],[121.48660026000005,31.241626160000067],[121.48660133999999,31.241886570000133],[121.48659162000013,31.241966630000036],[121.48665335999999,31.242267320000053],[121.48678601999995,31.242728389999968],[121.4869797,31.24330988000014],[121.48718292000001,31.243811220000055],[121.48738578000007,31.244212440000013],[121.48742646000005,31.244332770000028],[121.48740684000006,31.24445288000004],[121.48816590000013,31.245616890000065],[121.48862868000003,31.245768499999997],[121.48916292000001,31.246110590000058],[121.48949592000008,31.246432019999986],[121.48977816000013,31.24663317000011],[121.49038278,31.2470055],[121.49108783999998,31.247398169999997],[121.49112851999996,31.24750847000007],[121.49128961999998,31.247569039999917],[121.49140968000006,31.247469230000036],[121.49166077999996,31.247459909999975],[121.49200368000004,31.24754105000011],[121.49276057999998,31.247893799999986],[121.49365878000003,31.248287059999996],[121.49493048000011,31.24883160000013],[121.49576802000013,31.24916455999994],[121.49651556000015,31.249667520000003],[121.4968386600001,31.249828760000014],[121.49704026000006,31.249869390000015],[121.49714105999999,31.24989972000003],[121.49755903100764,31.25000622061815],[121.49759164003945,31.24758102599288],[121.49732205061899,31.244951154840486],[121.49730036000005,31.24494248000002]]]}}],"name":"上海市_黄浦江","crs":{"type":"name","properties":{"name":"urn:ogc:def:crs:OGC:1.3:CRS84"}}}