{"type":"FeatureCollection","features":[{"id":"123","type":"Feature","properties":{"gml_id":"v2_layer_water_pg.9194","code":8200,"fclass":"water","Name":null,"__source_file__":"11-蓝绿空间/上海市_河流.shp"},"geometry":{"type":"Polygon","coordinates":[[[121.4554079,31.2210572],[121.4554457,31.2210664],[121.4554693,31.2210895],[121.4555004,31.2211047],[121.4555356,31.2211104],[121.455571,31.221106],[121.4556028,31.2210919],[121.4556284,31.2210974],[121.4556495,31.2210754],[121.4556645,31.2210482],[121.4556672,31.2210201],[121.4556598,31.2209886],[121.4556376,31.2209826],[121.4556189,31.2209569],[121.4555915,31.2209378],[121.4555583,31.2209273],[121.455523,31.2209265],[121.4554892,31.2209355],[121.4554627,31.2209516],[121.4554373,31.2209468],[121.4554161,31.2209741],[121.4554081,31.2209962],[121.4554039,31.2210254],[121.4554079,31.2210572]]]}},{"id":"380","type":"Feature","properties":{"gml_id":"v2_layer_water_pg.33850","code":8200,"fclass":"water","Name":"新天地太平湖","__source_file__":"11-蓝绿空间/上海市_河流.shp"},"geometry":{"type":"Polygon","coordinates":[[[121.4715375,31.2222304],[121.4716041,31.2222304],[121.4716497,31.2222484],[121.4716848,31.2222963],[121.4716848,31.2223563],[121.4717093,31.2223833],[121.4717654,31.2223922],[121.4718039,31.2223473],[121.4718495,31.2223203],[121.4719126,31.2223233],[121.4719652,31.2222993],[121.4719827,31.2222574],[121.4720142,31.2222364],[121.4721404,31.2222064],[121.4722175,31.2221704],[121.4722385,31.2221015],[121.4722806,31.2220475],[121.4723472,31.2220416],[121.4724208,31.2220565],[121.4724839,31.2220505],[121.4725715,31.2219786],[121.4726486,31.2219486],[121.4727222,31.2219277],[121.4727958,31.2218707],[121.4728554,31.2218677],[121.472922,31.2218557],[121.4729711,31.2218197],[121.4730412,31.2217988],[121.4731078,31.2218048],[121.4731709,31.2217958],[121.4732235,31.2217628],[121.4733076,31.2217598],[121.4733637,31.2217808],[121.4734162,31.2217748],[121.4734618,31.2217208],[121.4735389,31.2216999],[121.47363,31.2217298],[121.4736581,31.2217838],[121.4736966,31.2217958],[121.4737808,31.2217838],[121.4738824,31.2218048],[121.473949,31.2217988],[121.4739946,31.2218108],[121.4740506,31.2217988],[121.4740892,31.2217568],[121.4740927,31.2216819],[121.4740506,31.2216099],[121.4739911,31.2215889],[121.473958,31.2215365],[121.4739368,31.2215547],[121.4739698,31.221598],[121.4739746,31.2216232],[121.4739545,31.2216383],[121.4738944,31.2216182],[121.4738166,31.2216101],[121.4737517,31.2215879],[121.4737211,31.2215415],[121.4737529,31.2215022],[121.4738024,31.2214821],[121.4738614,31.2215032],[121.4739097,31.2215375],[121.4739286,31.2215163],[121.4738473,31.2214541],[121.4737597,31.2214331],[121.4737001,31.2213731],[121.473602,31.2213462],[121.4734583,31.2213342],[121.4733496,31.2213671],[121.4732936,31.2214511],[121.4732865,31.221556],[121.473262,31.2216159],[121.4731954,31.2216549],[121.4730517,31.2216729],[121.4729571,31.2216549],[121.4728484,31.2216009],[121.4726872,31.22155],[121.4725189,31.221511],[121.4724488,31.221526],[121.4723928,31.221568],[121.4723542,31.2216669],[121.4723192,31.2217598],[121.4722596,31.2217928],[121.4721614,31.2217988],[121.4720948,31.2217838],[121.4720808,31.2218167],[121.4721367,31.2218541],[121.4721661,31.2218813],[121.4721756,31.2219115],[121.4721602,31.2219337],[121.4720836,31.2219539],[121.4720459,31.2219801],[121.4720105,31.2219972],[121.4719598,31.2219781],[121.4719044,31.2219186],[121.4718561,31.2218924],[121.4718455,31.221845],[121.4718845,31.2218138],[121.4719575,31.2218148],[121.4720412,31.2218057],[121.4720563,31.2217718],[121.4719757,31.2217388],[121.4719161,31.2216429],[121.4718775,31.221556],[121.4718179,31.221487],[121.4717268,31.2214691],[121.4716567,31.22149],[121.4716287,31.221556],[121.4716672,31.2216249],[121.4717408,31.2216849],[121.4717584,31.2217598],[121.4717338,31.2218377],[121.4716532,31.2218917],[121.4715691,31.2220266],[121.4716238,31.2220449],[121.4716523,31.2220815],[121.4716428,31.2221262],[121.4716024,31.2221486],[121.4715168,31.2221425],[121.4715165,31.2221974],[121.4715375,31.2222304]]]}},{"id":"724","type":"Feature","properties":{"gml_id":"v2_layer_water_pg.63419","code":8200,"fclass":"water","Name":null,"__source_file__":"11-蓝绿空间/上海市_河流.shp"},"geometry":{"type":"Polygon","coordinates":[[[121.4673709,31.2265546],[121.4674755,31.2264514],[121.4675399,31.2264193],[121.4674969,31.226245],[121.4674299,31.2261945],[121.4674144,31.2262067],[121.4673628,31.2262472],[121.467328,31.2264445],[121.4672582,31.2264835],[121.4673709,31.2265546]]]}},{"id":"103","type":"Feature","properties":{"gml_id":"v2_layer_water_pg.8197","code":8201,"fclass":"reservoir","Name":null,"__source_file__":"11-蓝绿空间/上海市_河流.shp"},"geometry":{"type":"Polygon","coordinates":[[[121.46984,31.2270122],[121.4699315,31.2270142],[121.470083,31.2270275],[121.4701253,31.2271103],[121.4702775,31.2271565],[121.4703951,31.2271636],[121.4704812,31.2271669],[121.4705081,31.2272405],[121.4705387,31.2273188],[121.4706039,31.2273644],[121.4706719,31.2273595],[121.4706795,31.2273251],[121.470633,31.2273186],[121.4705722,31.2272448],[121.470644,31.2271581],[121.4705769,31.2270933],[121.4705307,31.2269659],[121.4704706,31.2269575],[121.4704595,31.2268932],[121.4703944,31.2268434],[121.4703146,31.2267771],[121.4702299,31.2267228],[121.4700952,31.2267332],[121.4699992,31.2267824],[121.4699197,31.2267816],[121.4698633,31.2268349],[121.4698185,31.2269159],[121.4697827,31.2269536],[121.46984,31.2270122]]]}},{"id":"1283","type":"Feature","properties":{"gml_id":"v2_layer_water_pg.67891","code":8201,"fclass":"reservoir","Name":null,"__source_file__":"11-蓝绿空间/上海市_河流.shp"},"geometry":{"type":"Polygon","coordinates":[[[121.4600266,31.2281303],[121.4600693,31.2282472],[121.4602018,31.2283002],[121.4603278,31.228313],[121.4604774,31.228344],[121.460612,31.2283477],[121.4606632,31.2283184],[121.460738,31.2283203],[121.4608576,31.228313],[121.460926,31.228344],[121.4610286,31.2283075],[121.4611503,31.2282746],[121.4612379,31.2282892],[121.4612956,31.2282746],[121.4613234,31.2282362],[121.4613127,31.2281887],[121.4612764,31.2281504],[121.46127,31.2281284],[121.4612785,31.2281065],[121.4613063,31.2280864],[121.4613405,31.2280499],[121.4613661,31.2280042],[121.4613683,31.227964],[121.4613533,31.2279439],[121.4613319,31.2279257],[121.46127,31.2279092],[121.4611781,31.2279001],[121.460941,31.2279074],[121.460832,31.2279165],[121.4607914,31.2279768],[121.4607743,31.2280133],[121.4607551,31.2280243],[121.4607188,31.2280188],[121.4606654,31.2280097],[121.4605778,31.2279933],[121.4605137,31.2279695],[121.4604047,31.227933],[121.4603556,31.227911],[121.4603086,31.2278928],[121.4602402,31.2278763],[121.4601932,31.2278672],[121.4601526,31.2278617],[121.4601184,31.227869],[121.4600394,31.2279512],[121.4600266,31.2280188],[121.4600266,31.2281303]]]}},{"id":"1272","type":"Feature","properties":{"gml_id":"v2_layer_water_pg.67594","code":8200,"fclass":"water","Name":null,"__source_file__":"11-蓝绿空间/上海市_河流.shp"},"geometry":{"type":"Polygon","coordinates":[[[121.4871568,31.2292966],[121.4871786,31.2293196],[121.4871942,31.229339],[121.4871995,31.2293643],[121.4872046,31.2293872],[121.4871801,31.2294188],[121.487163,31.229456],[121.4871581,31.2294972],[121.4871724,31.2295521],[121.4871888,31.2295318],[121.4871832,31.2295083],[121.4871878,31.2294718],[121.4872195,31.2294401],[121.4872438,31.2294164],[121.4872595,31.2294119],[121.4872873,31.2293963],[121.4873152,31.2294048],[121.4873335,31.2293851],[121.487363,31.2293844],[121.4873878,31.2293751],[121.4874107,31.2293554],[121.4874676,31.2293523],[121.4874725,31.2293312],[121.4874415,31.2293238],[121.4874084,31.229322],[121.4873889,31.2293026],[121.4873596,31.2292958],[121.48733,31.2292864],[121.4873086,31.2292864],[121.4872841,31.2292884],[121.4872127,31.2292703],[121.4871976,31.2292606],[121.4871775,31.2292526],[121.4871638,31.2292508],[121.4871516,31.229272],[121.4871568,31.2292966]]]}},{"id":"256","type":"Feature","properties":{"gml_id":"v2_layer_water_pg.11931","code":8200,"fclass":"water","Name":null,"__source_file__":"11-蓝绿空间/上海市_河流.shp"},"geometry":{"type":"Polygon","coordinates":[[[121.4670727,31.2333622],[121.4672162,31.2335377],[121.4672738,31.2335664],[121.4673301,31.2335332],[121.4673489,31.2335549],[121.4673624,31.2335802],[121.4673664,31.2336111],[121.4674026,31.2336352],[121.4674562,31.2336512],[121.4674965,31.233642],[121.467534,31.2336294],[121.4675689,31.2335973],[121.4676145,31.2335847],[121.4676453,31.2335549],[121.4676762,31.2335641],[121.4677164,31.2336203],[121.4677593,31.2336375],[121.4678237,31.2336294],[121.4678505,31.2335985],[121.4678666,31.2335503],[121.4679162,31.2335354],[121.4679296,31.2335056],[121.4679471,31.2334872],[121.4679672,31.2334586],[121.4679404,31.233431],[121.4678934,31.2334253],[121.4678344,31.233431],[121.4678103,31.2334207],[121.4677888,31.2333955],[121.4677875,31.233368],[121.4677432,31.2333473],[121.4676923,31.2333462],[121.4676788,31.2333577],[121.4676721,31.2333989],[121.4676855,31.2334494],[121.4676567,31.2334723],[121.4674294,31.2335366],[121.4674161,31.2335416],[121.4673791,31.2335268],[121.4673748,31.2335049],[121.4673972,31.2334494],[121.467361,31.2333978],[121.4672886,31.2333531],[121.4671934,31.2333301],[121.4672256,31.2331684],[121.4673208,31.2331799],[121.4673543,31.2331123],[121.4673959,31.2330905],[121.4674294,31.2330595],[121.4674307,31.2330262],[121.4673878,31.2329746],[121.4673449,31.2329483],[121.4672497,31.2329494],[121.4672041,31.2329712],[121.4671893,31.2330125],[121.4671625,31.233079],[121.4671062,31.233087],[121.4670727,31.2330916],[121.4670217,31.2331719],[121.4670123,31.2332384],[121.4670727,31.2333622]]]}},{"id":"1290","type":"Feature","properties":{"gml_id":"v2_layer_water_pg.69176","code":8200,"fclass":"water","Name":null,"__source_file__":"11-蓝绿空间/上海市_河流.shp"},"geometry":{"type":"Polygon","coordinates":[[[121.458907,31.236427],[121.459324,31.2360763],[121.4592752,31.2360338],[121.4588582,31.2363845],[121.458907,31.236427]]]}},{"id":"50","type":"Feature","properties":{"gml_id":"v2_layer_water_pg.3567","code":8200,"fclass":"water","Name":null,"__source_file__":"11-蓝绿空间/上海市_河流.shp"},"geometry":{"type":"Polygon","coordinates":[[[121.4871426,31.2287809],[121.487151,31.2287907],[121.4872184,31.2288221],[121.4872352,31.228827],[121.4872528,31.2288298],[121.4873207,31.2288331],[121.4873777,31.2288262],[121.4874098,31.2288354],[121.4874427,31.2288578],[121.4874521,31.228879],[121.4874571,31.2289042],[121.4874608,31.2289137],[121.4874729,31.2289203],[121.4875205,31.2289283],[121.487548,31.2289226],[121.4875822,31.2289071],[121.4876270432014,31.228866001533586],[121.48729817297192,31.228582354451937],[121.48715612587895,31.228482046765897],[121.4871545,31.2284874],[121.4871481,31.2285146],[121.4871399,31.2287666],[121.4871426,31.2287809]]]}},{"id":"1353","type":"Feature","properties":{"gml_id":"v2_layer_water_pg.84751","code":8200,"fclass":"water","Name":null,"__source_file__":"11-蓝绿空间/上海市_河流.shp"},"geometry":{"type":"Polygon","coordinates":[[[121.4874942,31.2293631],[121.487532,31.2293674],[121.4875509,31.2292871],[121.4876964,31.2293125],[121.4876898,31.229334],[121.4877228,31.2293392],[121.4877443,31.2293409],[121.4877694,31.2293397],[121.487801,31.2293409],[121.4878613,31.2293502],[121.487885,31.2293586],[121.4879087,31.2293578],[121.487926,31.2293463],[121.48793,31.2293285],[121.4879125,31.2293245],[121.4878916,31.2293273],[121.4878702,31.2293162],[121.4878276,31.2293096],[121.4877998,31.2293044],[121.4877684,31.2293004],[121.4877495,31.2292929],[121.4877279,31.229282],[121.4877207,31.2292542],[121.4877209,31.2292313],[121.4877288,31.2292096],[121.4877134,31.2291917],[121.4877105,31.2291745],[121.4877181,31.2291469],[121.4877191,31.2291173],[121.4877188,31.2290975],[121.4877217,31.2290789],[121.4877376,31.229065],[121.4877557,31.2290572],[121.4877772,31.2290647],[121.4877827,31.2290487],[121.4877838,31.2290333],[121.4877875,31.2290187],[121.4877933,31.2290096],[121.48779347643152,31.22900954842771],[121.48766220999684,31.22889633252132],[121.4876606,31.2289072],[121.4876537,31.2289208],[121.4876428,31.2289385],[121.4876432,31.2289462],[121.4876488,31.2289567],[121.4876616,31.228963],[121.4876685,31.2289537],[121.4876794,31.2289458],[121.4876928,31.2289467],[121.4877095,31.2289521],[121.4877169,31.2289596],[121.4877229,31.2289664],[121.4877318,31.2289757],[121.4877307,31.2289893],[121.4877206,31.2290122],[121.4877071,31.2290284],[121.4876912,31.2290441],[121.4876749,31.2290576],[121.4876563,31.2290746],[121.4876404,31.229086],[121.4876141,31.2290922],[121.4875908,31.229095],[121.4875663,31.2291096],[121.4875467,31.2291291],[121.4875438,31.2291412],[121.4875485,31.2291618],[121.4875583,31.2291691],[121.4875611,31.2291832],[121.4875539,31.2291999],[121.4875422,31.2292076],[121.4875261,31.2292138],[121.4875169,31.2292299],[121.4875064,31.2292634],[121.4874999,31.2292833],[121.4874972,31.2293059],[121.4874906,31.2293248],[121.4874942,31.2293631]]]}},{"id":"1274","type":"Feature","properties":{"gml_id":"v2_layer_water_pg.67596","code":8200,"fclass":"water","Name":null,"__source_file__":"11-蓝绿空间/上海市_河流.shp"},"geometry":{"type":"Polygon","coordinates":[[[121.4880077,31.2293555],[121.4880117,31.2293611],[121.4880929,31.2293729],[121.4880962,31.2293767],[121.4880988,31.2293816],[121.4881023,31.2293975],[121.4881052,31.2294074],[121.488108,31.2294095],[121.4881109,31.22941],[121.488114,31.2294098],[121.488118,31.2294084],[121.4881216,31.2294041],[121.4881289,31.2293827],[121.4881327,31.2293717],[121.4881346,31.2293599],[121.4881325,31.2293453],[121.4881256,31.2293332],[121.4881102,31.2293244],[121.4880341,31.2293124],[121.4880259,31.2293173],[121.4880168,31.2293266],[121.4880087,31.2293369],[121.4880063,31.2293483],[121.4880077,31.2293555]]]}},{"id":"1271","type":"Feature","properties":{"gml_id":"v2_layer_water_pg.67593","code":8200,"fclass":"water","Name":null,"__source_file__":"11-蓝绿空间/上海市_河流.shp"},"geometry":{"type":"Polygon","coordinates":[[[121.4874933,31.2295963],[121.4875293,31.2296014],[121.4875374,31.2295824],[121.4875249,31.2295707],[121.4875072,31.2295635],[121.48751,31.2295434],[121.4875147,31.2295124],[121.4875386,31.2294905],[121.4875731,31.2294848],[121.4876199,31.2294888],[121.4876765,31.2294927],[121.4877162,31.229501],[121.4877636,31.2295097],[121.4878062,31.2295131],[121.4878359,31.2295109],[121.4878686,31.2294928],[121.4878743,31.2294821],[121.4878585,31.2294767],[121.4878108,31.2294806],[121.4877683,31.2294771],[121.4877313,31.2294705],[121.4876763,31.2294646],[121.4876202,31.2294622],[121.4875524,31.2294569],[121.487524,31.2294543],[121.4875131,31.2294264],[121.4874859,31.2294227],[121.4874838,31.2294405],[121.4874738,31.2294806],[121.4874723,31.2295248],[121.4874677,31.2295807],[121.4874933,31.2295963]]]}},{"id":"1273","type":"Feature","properties":{"gml_id":"v2_layer_water_pg.67595","code":8200,"fclass":"water","Name":null,"__source_file__":"11-蓝绿空间/上海市_河流.shp"},"geometry":{"type":"Polygon","coordinates":[[[121.4879543,31.2296261],[121.4879698,31.2296304],[121.4879968,31.2296367],[121.4880283,31.2296432],[121.4880625,31.2296469],[121.4880774,31.2296471],[121.4880902,31.2296409],[121.4880972,31.2296334],[121.4881076,31.2296098],[121.4881076,31.229603],[121.4880996,31.2295964],[121.4880843,31.2295954],[121.4880667,31.2295943],[121.4880331,31.2295871],[121.4879985,31.2295759],[121.4879778,31.2295729],[121.4879627,31.2295765],[121.4879549,31.2295833],[121.4879428,31.2296041],[121.4879423,31.2296168],[121.4879543,31.2296261]]]}},{"id":"2560","type":"Feature","properties":{"gml_id":"v2_layer_water_pg.162869","code":8200,"fclass":"water","Name":null,"__source_file__":"11-蓝绿空间/上海市_河流.shp"},"geometry":{"type":"Polygon","coordinates":[[[121.4887256,31.2311537],[121.4890141,31.2311552],[121.4891114,31.2311174],[121.4891769,31.2311446],[121.48946,31.2311385],[121.4894883,31.2310432],[121.4896772,31.2310024],[121.4898281,31.2309721],[121.4898081,31.2309298],[121.4895598,31.2309083],[121.4894372,31.2309948],[121.4892985,31.231072],[121.4889732,31.231072],[121.4888479,31.231072],[121.4884063,31.2310907],[121.4883961,31.2311736],[121.4887256,31.2311537]]]}},{"id":"1292","type":"Feature","properties":{"gml_id":"v2_layer_water_pg.69868","code":8200,"fclass":"water","Name":null,"__source_file__":"11-蓝绿空间/上海市_河流.shp"},"geometry":{"type":"Polygon","coordinates":[[[121.4416239,31.2235939],[121.4416534,31.2236306],[121.4416923,31.2236547],[121.4417593,31.2236593],[121.4417955,31.2236467],[121.4418478,31.223696],[121.4418854,31.2238118],[121.4419189,31.2238428],[121.4419766,31.2239173],[121.4420208,31.2238657],[121.4420342,31.2237545],[121.4420181,31.2236742],[121.4419927,31.2236065],[121.4419511,31.2235744],[121.4419068,31.2235503],[121.4418505,31.2235572],[121.4418022,31.2235675],[121.4417714,31.2235377],[121.44174266998547,31.223511948682624],[121.44162250326538,31.22356720684954],[121.4416239,31.2235939]]]}},{"id":"1297","type":"Feature","properties":{"gml_id":"v2_layer_water_pg.70203","code":8200,"fclass":"water","Name":null,"__source_file__":"11-蓝绿空间/上海市_河流.shp"},"geometry":{"type":"Polygon","coordinates":[[[121.4486765,31.2260588],[121.4488268,31.2257522],[121.4487889,31.2257386],[121.4488034,31.2257088],[121.4488092,31.225671],[121.4487958,31.225643],[121.4487679,31.225626],[121.4487276,31.2256168],[121.4486823,31.2256299],[121.4486592,31.2256529],[121.4486415,31.2256849],[121.4485999,31.22567],[121.4484492,31.2259774],[121.4486765,31.2260588]]]}},{"id":"2","type":"Feature","properties":{"gml_id":"v2_layer_water_pg.30","code":8202,"fclass":"riverbank","Name":null,"__source_file__":"11-蓝绿空间/上海市_河流.shp"},"geometry":{"type":"Polygon","coordinates":[[[121.4239963,31.2396761],[121.4241798,31.2398112],[121.4242315,31.2398617],[121.4242518,31.2398472],[121.4243134,31.2398999],[121.4243022,31.2399179],[121.4244663,31.2400305],[121.4244602,31.2400418],[121.4244888,31.2400597],[121.4245589,31.2400993],[121.4245811,31.2400876],[121.4248735,31.2402561],[121.4251095,31.2403972],[121.4253898,31.2405623],[121.4256191,31.2407022],[121.4258988,31.2408682],[121.4260215,31.2410008],[121.4260508,31.241138],[121.4260645,31.2412654],[121.4260351,31.2414605],[121.4259745,31.2416413],[121.4257416,31.2421487],[121.4253185,31.2432905],[121.4249416,31.2441835],[121.4249545,31.2441873],[121.4248957,31.2443248],[121.4242695,31.2457387],[121.4242467,31.2458682],[121.4242633,31.2460137],[121.4243318,31.2462159],[121.4244376,31.2463667],[121.4245787,31.2464891],[121.4247583,31.2465911],[121.4250556,31.24669],[121.4254099,31.2467505],[121.4267483,31.2469569],[121.4286317,31.2472812],[121.428751,31.2473043],[121.4288378,31.2473261],[121.4288894,31.2473501],[121.4289484,31.2473861],[121.429006,31.2474399],[121.4290838,31.2475253],[121.4291454,31.247618],[121.4292245,31.2478418],[121.4292333,31.2479814],[121.4292206,31.2481228],[121.4290979,31.2491035],[121.4289417,31.2505182],[121.4289146,31.2508963],[121.4289265,31.2508982],[121.4289946,31.2511021],[121.4290516,31.251221],[121.4290945,31.2512811],[121.4291528,31.2513273],[121.4291912,31.2513637],[121.429247,31.251408],[121.4293145,31.2514519],[121.4293858,31.2514831],[121.429452,31.2515115],[121.4295157,31.2515333],[121.4295828,31.2515493],[121.429654,31.2515633],[121.4297282,31.2515695],[121.4298254,31.2515732],[121.4299787,31.2515629],[121.4300702,31.2515476],[121.4301326,31.2515333],[121.4302619,31.2514997],[121.4305404,31.25139],[121.4308158,31.2512552],[121.4311309,31.2510529],[121.4315152,31.2507724],[121.4317116,31.2506149],[121.4325426,31.2500861],[121.4326505,31.250025],[121.4327312,31.2500104],[121.4328577,31.2500021],[121.4329468,31.2500152],[121.433022,31.2500394],[121.4330852,31.2500764],[121.4331427,31.2501494],[121.433191,31.2502302],[121.433272,31.2504177],[121.4334418,31.2507932],[121.4335182,31.2509709],[121.4336577,31.2512793],[121.4337704,31.2515384],[121.4338575,31.2517551],[121.4339487,31.2519947],[121.434119,31.252448],[121.434229,31.2527124],[121.4343591,31.2530289],[121.4344825,31.2534118],[121.4345925,31.2537615],[121.4346555,31.2540275],[121.4347467,31.2542846],[121.4347859,31.2544885],[121.4348888,31.2546402],[121.4349317,31.2546853],[121.4349653,31.2547325],[121.4350129,31.2547818],[121.4350639,31.254838],[121.4351068,31.2548773],[121.4351571,31.2549188],[121.4352342,31.2549693],[121.4353287,31.255018],[121.4354186,31.2550558],[121.4355419,31.2550952],[121.4356855,31.2551269],[121.4359537,31.2551112],[121.4362433,31.2550745],[121.4366725,31.2549828],[121.4369726,31.2547564],[121.4370373,31.2547076],[121.4374664,31.2542766],[121.4376233,31.2535703],[121.4376971,31.2531458],[121.4377453,31.2529053],[121.4377749,31.2524559],[121.4378312,31.2522289],[121.437976,31.2520042],[121.4381691,31.251854],[121.4383783,31.2517474],[121.4387494,31.2516822],[121.439079,31.251679],[121.4395043,31.2517242],[121.4415219,31.2519377],[121.4424124,31.2520845],[121.4433458,31.2522725],[121.4436282,31.2523928],[121.4438213,31.2524823],[121.4438401,31.2525694],[121.4439044,31.2525304],[121.4440861,31.2526073],[121.4444194,31.252762],[121.4444241,31.2527878],[121.4443644,31.2528554],[121.4444664,31.2528165],[121.4445079,31.2527987],[121.4445991,31.2528377],[121.4445884,31.2528721],[121.4447762,31.2529652],[121.4448942,31.2530237],[121.445041,31.2531026],[121.4452395,31.253169],[121.4454084,31.2531989],[121.4455889,31.2532298],[121.4457954,31.2532298],[121.4460173,31.2531759],[121.4462077,31.2530865],[121.4463426,31.2529363],[121.4464304,31.2527334],[121.446425,31.2515158],[121.4463392,31.2504152],[121.4461139,31.2496997],[121.4457062,31.2488651],[121.4448801,31.2479386],[121.4442792,31.2472599],[121.4440432,31.2469939],[121.4439896,31.2467737],[121.4439775,31.2466912],[121.4440419,31.246598],[121.4440901,31.2465318],[121.4442202,31.2463744],[121.4443061,31.2462873],[121.4443946,31.246205],[121.4446306,31.2459846],[121.4448372,31.2458034],[121.4450249,31.2456773],[121.4454729,31.2454024],[121.4459315,31.2451017],[121.4464036,31.2448059],[121.4469293,31.2444527],[121.4473718,31.2441913],[121.4479016,31.2438763],[121.4482315,31.2436788],[121.4484072,31.2435194],[121.4485627,31.2433967],[121.4487921,31.2432247],[121.4490603,31.2430241],[121.4491971,31.2429005],[121.4493098,31.2427882],[121.4494559,31.2426216],[121.4495927,31.2424599],[121.4498019,31.2422134],[121.450054,31.2419073],[121.4501359,31.2418064],[121.4502163,31.2417043],[121.4503048,31.2415988],[121.4503638,31.2415403],[121.4504658,31.2414501],[121.4505744,31.2413431],[121.4507192,31.2412032],[121.4508694,31.2410751],[121.4510331,31.2409487],[121.4513174,31.2407331],[121.4516124,31.240537],[121.4518632,31.240396],[121.452118,31.2402733],[121.4523286,31.240185],[121.4525753,31.2401116],[121.4526491,31.2400936],[121.4528355,31.2400982],[121.4530662,31.240122],[121.453341,31.2401865],[121.4535986,31.2402634],[121.4537689,31.2403352],[121.453954,31.2404258],[121.4542544,31.2405932],[121.4543979,31.2406907],[121.4545199,31.2407839],[121.4547595,31.2410191],[121.454992,31.241295],[121.4552403,31.2415666],[121.455511,31.2418706],[121.4558073,31.2422097],[121.456317,31.2427744],[121.4569178,31.2430771],[121.4579156,31.2434074],[121.4588383,31.2435725],[121.459879,31.2434716],[121.4604548,31.2433125],[121.4615741,31.2429487],[121.4624052,31.2425898],[121.4635619,31.2418064],[121.4641812,31.2415453],[121.4653936,31.241371],[121.465694,31.2413985],[121.4664557,31.2417104],[121.4671105,31.242131],[121.4689301,31.2431584],[121.470003,31.2435913],[121.4705289,31.2436504],[121.4710416,31.2436721],[121.4721488,31.2435767],[121.4731787,31.2431143],[121.4746201,31.2424547],[121.4749602,31.2423097],[121.4751566,31.2422502],[121.4753028,31.2422221],[121.4754725,31.2422187],[121.4756765,31.242243],[121.4758555,31.2422791],[121.4760346,31.2423272],[121.476287,31.2423991],[121.4764927,31.2424829],[121.4766678,31.2425853],[121.4769893,31.2428004],[121.4773381,31.2430749],[121.4776146,31.2433234],[121.478071,31.2437902],[121.4785285,31.2442509],[121.4792917,31.2450376],[121.4794572,31.2451895],[121.4798177,31.2454763],[121.4801984,31.2457365],[121.4805848,31.2459668],[121.4810464,31.2461968],[121.4810927,31.2462265],[121.4813339,31.246296],[121.4813871,31.2463149],[121.481843,31.2464456],[121.4821195,31.2465142],[121.4822871,31.246528],[121.4824539,31.2465297],[121.4827041,31.2465348],[121.483046,31.2465184],[121.4836121,31.2464573],[121.4835933,31.2464133],[121.4835588,31.2464176],[121.4835366,31.2463606],[121.4840776,31.2462045],[121.4840883,31.2462298],[121.4841274,31.2462187],[121.4841328,31.2462405],[121.4841588,31.2462318],[121.4841677,31.2462531],[121.4842127,31.2462399],[121.4842745,31.2461759],[121.4843481,31.2461152],[121.484443,31.2460538],[121.4845888,31.2459885],[121.4850128,31.2458799],[121.48519,31.2458523],[121.4853358,31.2458439],[121.4854733,31.2458552],[121.4855928,31.2458915],[121.4857717,31.2458213],[121.4857585,31.2457905],[121.4860794,31.2456923],[121.4860409,31.2456151],[121.4865813,31.2454579],[121.4866784,31.2454659],[121.4868355,31.2454224],[121.4866645,31.2450543],[121.4864533,31.2445994],[121.4864082,31.2446161],[121.4858584,31.2448199],[121.4858453,31.2447667],[121.4856587,31.2448387],[121.4855133,31.2448948],[121.4854518,31.2449332],[121.4853378,31.2449895],[121.4852538,31.2451033],[121.4851587,31.2451936],[121.4850116,31.2452733],[121.4847942,31.2453491],[121.4843673,31.2454918],[121.4843076,31.2455096],[121.4839354,31.245614],[121.4839205,31.2455836],[121.4833555,31.2458081],[121.483321,31.2458208],[121.483032,31.2458514],[121.4828022,31.2458746],[121.4826674,31.2458869],[121.482328,31.2458843],[121.4820563,31.2458559],[121.4816585,31.2457839],[121.4810274,31.2455665],[121.4807149,31.2454179],[121.4802826,31.2451721],[121.4798014,31.2448423],[121.4787367,31.2438228],[121.4784458,31.2434044],[121.478308,31.2432798],[121.4779693,31.2429576],[121.4775667,31.2426394],[121.4772459,31.242417],[121.4769591,31.2422557],[121.4766025,31.2420782],[121.4763603,31.2419779],[121.476062,31.2419096],[121.4758271,31.2418673],[121.4755829,31.241847],[121.47528,31.2418515],[121.4748095,31.2419255],[121.4744462,31.2419793],[121.4741879,31.2420552],[121.4738441,31.2422604],[121.4731644,31.2426524],[121.4724609,31.2429555],[121.4720432,31.2430924],[121.4714204,31.2431617],[121.4708904,31.2431599],[121.4704347,31.2431213],[121.4697043,31.2429193],[121.4692173,31.2427131],[121.4688493,31.2425157],[121.4684206,31.242227],[121.4682479,31.2420749],[121.467712,31.2417516],[121.4674052,31.2415871],[121.4665845,31.2412425],[121.4659729,31.2410132],[121.465297,31.2409307],[121.4647606,31.2409674],[121.463795,31.2412334],[121.4629138,31.2417115],[121.4620677,31.2423158],[121.4611664,31.2426277],[121.4597824,31.2429946],[121.4592889,31.2430588],[121.4589241,31.2430588],[121.4580229,31.2429579],[121.4571538,31.2427011],[121.456832,31.2425359],[121.4564243,31.2422057],[121.4560166,31.2417195],[121.4556277,31.2412812],[121.4554399,31.2410267],[121.4553273,31.2408776],[121.4552334,31.2407564],[121.4551368,31.240662],[121.4550456,31.2405703],[121.4549008,31.2404625],[121.4548177,31.240396],[121.4546782,31.2403023],[121.4544368,31.2401621],[121.4538601,31.2399124],[121.4535382,31.2397998],[121.4534108,31.2397573],[121.4532888,31.239729],[121.4529964,31.2396671],[121.4528114,31.2396541],[121.4526585,31.2396576],[121.4524881,31.2396762],[121.4522977,31.2397152],[121.4520845,31.2397871],[121.4519195,31.2398491],[121.4517733,31.2399156],[121.451434,31.2401105],[121.4512959,31.2401942],[121.451084,31.2403333],[121.4509177,31.2404602],[121.4506736,31.240646],[121.4503866,31.2408768],[121.4500943,31.2411516],[121.4498596,31.2413638],[121.4495511,31.241702],[121.4492238,31.2420257],[121.4490107,31.2422593],[121.4488859,31.2423843],[121.4486311,31.2426491],[121.4482207,31.2430508],[121.4477259,31.2433799],[121.4471573,31.2437269],[121.446602,31.2440755],[121.4459717,31.2444757],[121.4451617,31.2449813],[121.4448814,31.2451831],[121.4445716,31.2453807],[121.4441961,31.2456291],[121.4438635,31.2458688],[121.4437146,31.2460033],[121.4435309,31.2461795],[121.4433458,31.2463885],[121.4432815,31.2464894],[121.4432486,31.2465352],[121.4432411,31.2466753],[121.4432467,31.2468138],[121.4433197,31.2470629],[121.4433757,31.247198],[121.4435376,31.2474063],[121.4437871,31.2476425],[121.4440186,31.2478363],[121.4443168,31.2481504],[121.4446467,31.2485024],[121.4449027,31.2487669],[121.4453189,31.2493429],[121.4453597,31.2494123],[121.4456215,31.249857],[121.4457577,31.2502008],[121.4458532,31.250601],[121.4458566,31.2506304],[121.4459208,31.2511856],[121.4458748,31.2520181],[121.4458671,31.2521579],[121.4458303,31.2523286],[121.4457678,31.2524445],[121.4456096,31.2525523],[121.4455238,31.2525889],[121.4454272,31.2525889],[121.4452985,31.2525523],[121.4451335,31.2524755],[121.4449323,31.252386],[121.4444442,31.2521724],[121.4440647,31.2520142],[121.4440928,31.2519386],[121.4438541,31.2518216],[121.443661,31.2517517],[121.4431205,31.2516809],[121.4419296,31.2515066],[121.441007,31.2514307],[121.4405537,31.2513779],[121.4400883,31.2513401],[121.4396189,31.251298],[121.4391079,31.2512633],[121.438821,31.2512533],[121.4386091,31.2512735],[121.4383704,31.2513313],[121.4381517,31.25141],[121.4379881,31.2514719],[121.4378634,31.2515617],[121.4376166,31.2517635],[121.4373484,31.2521212],[121.4370587,31.2535703],[121.4367047,31.2542032],[121.4364043,31.2545242],[121.4361253,31.2546801],[121.4359,31.254726],[121.4356854,31.254726],[121.4354923,31.2546068],[121.4353207,31.2544141],[121.4350632,31.2537905],[121.4346126,31.2523596],[121.4339259,31.2507454],[121.4335289,31.2499015],[121.4332929,31.2496355],[121.4330891,31.2495255],[121.4328208,31.2495255],[121.432338,31.2496814],[121.4305892,31.2508004],[121.4301883,31.2509644],[121.4300367,31.2510168],[121.4298691,31.2510492],[121.4297189,31.2510401],[121.4295271,31.2509747],[121.4294305,31.2508279],[121.4296037,31.2484173],[121.429652,31.2481678],[121.4296543,31.2478501],[121.4296261,31.2476862],[121.42957,31.24749],[121.42949,31.2473668],[121.4293237,31.2471776],[121.4292949,31.2471327],[121.4292212,31.247067],[121.4291764,31.2470406],[121.4291124,31.2470046],[121.4290302,31.2469747],[121.4290599,31.2468754],[121.428738,31.2468277],[121.4287041,31.2468994],[121.42841,31.2468548],[121.4281659,31.246809],[121.4279368,31.2467723],[121.4277725,31.2467557],[121.4275168,31.2467081],[121.4272459,31.2466576],[121.4257003,31.2463767],[121.4254935,31.2463322],[121.4253885,31.2463108],[121.4252429,31.2462758],[121.4250919,31.2462362],[121.4250069,31.2462093],[121.4249315,31.2461768],[121.4248681,31.2461417],[121.4248276,31.2460999],[121.4247836,31.2460488],[121.4247656,31.2459985],[121.4247514,31.2459433],[121.4247625,31.2458727],[121.4248306,31.2456697],[121.424856,31.245581],[121.4249083,31.2454686],[121.4250009,31.2452554],[121.4251739,31.2448655],[121.4253522,31.2444161],[121.425551,31.2439504],[121.4255695,31.2438611],[121.4256567,31.2436513],[121.4257586,31.2433337],[121.4259396,31.2428521],[121.426123,31.2423881],[121.4261931,31.2422272],[121.4262749,31.2420219],[121.4263567,31.2417975],[121.4264238,31.2417318],[121.4264801,31.2416069],[121.4265207,31.2414757],[121.4265406,31.2413631],[121.4265566,31.2412606],[121.4265612,31.2411647],[121.4265197,31.2410065],[121.4265002,31.2409292],[121.4264546,31.2408581],[121.4263483,31.2407101],[121.4262084,31.2405896],[121.4260899,31.2405072],[121.4259595,31.2404246],[121.4255682,31.2402229],[121.4252112,31.2400414],[121.4241094,31.2393073],[121.42392055409606,31.239176187149845],[121.42374640362124,31.239510655338634],[121.4239963,31.2396761]]]}},{"id":"735","type":"Feature","properties":{"gml_id":"v2_layer_water_pg.63433","code":8200,"fclass":"water","Name":null,"__source_file__":"11-蓝绿空间/上海市_河流.shp"},"geometry":{"type":"Polygon","coordinates":[[[121.4233122,31.2468044],[121.4235053,31.2468434],[121.4236019,31.2468205],[121.4235831,31.2467838],[121.4235027,31.2467242],[121.4234195,31.2467058],[121.4233283,31.2467173],[121.4233015,31.2467654],[121.4233122,31.2468044]]]}},{"id":"1342","type":"Feature","properties":{"gml_id":"v2_layer_water_pg.83613","code":8200,"fclass":"water","Name":null,"__source_file__":"11-蓝绿空间/上海市_河流.shp"},"geometry":{"type":"Polygon","coordinates":[[[121.4349283,31.2518914],[121.434944,31.251981],[121.4350048,31.2520564],[121.4351169,31.2520363],[121.4351704,31.2519672],[121.4351919,31.2518774],[121.4352465,31.2518268],[121.4352274,31.2517674],[121.4352337,31.2516688],[121.4351821,31.2516199],[121.435143,31.2515543],[121.4351459,31.2514557],[121.4350635,31.2513705],[121.4350473,31.2514479],[121.4349952,31.2515188],[121.4349991,31.2515767],[121.4349479,31.2516294],[121.434911,31.251763],[121.4348882,31.2518156],[121.4349283,31.2518914]]]}},{"id":"703","type":"Feature","properties":{"gml_id":"v2_layer_water_pg.62678","code":8200,"fclass":"water","Name":null,"__source_file__":"11-蓝绿空间/上海市_河流.shp"},"geometry":{"type":"Polygon","coordinates":[[[121.4444328,31.2543774],[121.4445614,31.2543132],[121.4446715,31.2542582],[121.4447037,31.2540426],[121.4447735,31.2538706],[121.4448722,31.2535022],[121.4449032,31.2533863],[121.4449424,31.2532401],[121.4449827,31.2531208],[121.445041,31.2531026],[121.4448942,31.2530237],[121.4447762,31.2529652],[121.4446581,31.2534602],[121.444583,31.2537033],[121.4445401,31.2538363],[121.4445321,31.2539188],[121.4444784,31.2541068],[121.4444301,31.2542169],[121.4444328,31.2543774]]]}},{"id":"4430","type":"Feature","properties":{"gml_id":"v2_layer_water_pg.340860","code":8200,"fclass":"water","Name":null,"__source_file__":"11-蓝绿空间/上海市_河流.shp"},"geometry":{"type":"Polygon","coordinates":[[[121.4417383,31.2543669],[121.441758,31.2543987],[121.4417885,31.2544235],[121.4418266,31.2544388],[121.4418684,31.2544429],[121.4419096,31.2544355],[121.4419473,31.2544162],[121.4419754,31.2543873],[121.4419907,31.2543522],[121.4419908,31.2543311],[121.4419142,31.254336],[121.4419135,31.2543603],[121.4418981,31.2543818],[121.4418719,31.2543958],[121.4418351,31.2543978],[121.4418089,31.2543922],[121.4417888,31.2543791],[121.4417767,31.2543609],[121.441768,31.2543409],[121.441774,31.2543135],[121.4417888,31.2542879],[121.4418139,31.2542744],[121.4418425,31.2542679],[121.4418706,31.2542719],[121.4418959,31.2542839],[121.4419109,31.254301],[121.4419171,31.2543199],[121.4419916,31.2543146],[121.4419874,31.2543002],[121.4419779,31.254279],[121.4419511,31.2542492],[121.4419143,31.2542287],[121.4418717,31.2542197],[121.441828,31.2542233],[121.4417881,31.2542391],[121.4417577,31.254264],[121.4417382,31.2542959],[121.4417315,31.2543314],[121.4417383,31.2543669]]]}},{"id":"1280","type":"Feature","properties":{"gml_id":"v2_layer_water_pg.67864","code":8201,"fclass":"reservoir","Name":null,"__source_file__":"11-蓝绿空间/上海市_河流.shp"},"geometry":{"type":"Polygon","coordinates":[[[121.4405027,31.2545636],[121.4405483,31.2546148],[121.4406158,31.2546639],[121.4406801,31.2546763],[121.4407052,31.2546741],[121.4407295,31.2546635],[121.4407501,31.2546355],[121.4407696,31.2546087],[121.4408098,31.2546001],[121.440846,31.2545973],[121.4409357,31.2546042],[121.4409914,31.2545948],[121.4410475,31.254576],[121.4411165,31.2545812],[121.4411677,31.2545886],[121.441207,31.254597],[121.4412816,31.2545967],[121.4413288,31.2545772],[121.441354,31.2545262],[121.4413986,31.2544869],[121.4414515,31.2544603],[121.4414711,31.2544294],[121.441471,31.2544103],[121.4413744,31.2543267],[121.4413141,31.2542992],[121.4412714,31.2542697],[121.4412081,31.254128],[121.4411371,31.2541364],[121.441234,31.2543836],[121.441191,31.2544884],[121.441129,31.2545159],[121.4410587,31.2545258],[121.44096,31.2545342],[121.4408549,31.2545289],[121.4407716,31.2544992],[121.440694,31.2544559],[121.440658,31.2543432],[121.4406328,31.2543083],[121.4406154,31.2542963],[121.4405954,31.2542919],[121.4405564,31.2543119],[121.4405141,31.2543496],[121.4404829,31.254407],[121.4404814,31.254494],[121.4405027,31.2545636]]]}},{"id":"59","type":"Feature","properties":{"gml_id":"v2_layer_water_pg.3677","code":8202,"fclass":"riverbank","Name":"黄浦江","__source_file__":"11-蓝绿空间/上海市_河流.shp"},"geometry":{"type":"Polygon","coordinates":[[[121.4862844,31.2407465],[121.486314,31.2412323],[121.4863471,31.2415763],[121.4863693,31.2417069],[121.4864412,31.2421294],[121.4866022,31.2426934],[121.4866482,31.2428831],[121.4867319,31.243134],[121.4869566,31.2437441],[121.4869076,31.2437648],[121.4869478,31.2438393],[121.4869767,31.2438869],[121.4868345,31.2439379],[121.4867634,31.2439838],[121.4868004,31.2440399],[121.4868919,31.2440236],[121.4869784,31.2440175],[121.4870501,31.2440316],[121.4871555,31.2440983],[121.4871921,31.2441404],[121.487218,31.2441968],[121.4872326,31.2442689],[121.4872245,31.2443388],[121.4871891,31.2444063],[121.4871396,31.2444605],[121.4870753,31.2445019],[121.4870105,31.2445229],[121.4869334,31.2445315],[121.4868563,31.2445271],[121.4867855,31.2444949],[121.4867186,31.2444581],[121.48668,31.2444101],[121.4866494,31.2443601],[121.486638,31.2443146],[121.4865696,31.2443232],[121.486581,31.2444052],[121.4865985,31.244459],[121.486628,31.2445387],[121.4865989,31.2445482],[121.4864533,31.2445994],[121.4866645,31.2450543],[121.4868355,31.2454224],[121.486965,31.2453758],[121.4870743,31.2453679],[121.4872723,31.2453957],[121.4876309,31.2454461],[121.4877039,31.2454407],[121.4882928,31.24558],[121.4887292,31.245823],[121.4904345,31.2468717],[121.4908766,31.2471621],[121.4909331,31.2472501],[121.4909426,31.2473594],[121.4911332,31.247422],[121.4911773,31.2474117],[121.4915496,31.2475685],[121.4916235,31.2473916],[121.4932442,31.2480212],[121.4941436,31.2483706],[121.4957655,31.2490495],[121.4966813,31.2494059],[121.4973273,31.2496952],[121.4975567,31.2497897],[121.49756192326755,31.249791117844076],[121.49759164003945,31.24758102599288],[121.49735215889052,31.24524486397276],[121.4964385,31.2449098],[121.4964603,31.2448686],[121.4965437,31.2447105],[121.4965771,31.2446474],[121.496439,31.2445914],[121.4963923,31.2445724],[121.4962764,31.2445254],[121.4962135,31.2444999],[121.4960868,31.2444484],[121.4960412,31.2444762],[121.4959898,31.2444654],[121.4956973,31.2443596],[121.4952573,31.2442063],[121.494868,31.2440778],[121.4943968,31.2438829],[121.4940474,31.2437077],[121.4939492,31.2436594],[121.4935919,31.2434839],[121.4935768,31.2435063],[121.4933126,31.2433815],[121.4930184,31.2432135],[121.4927033,31.2430215],[121.4923609,31.2427767],[121.4923105,31.2427421],[121.4922904,31.2427283],[121.4922141,31.2427339],[121.4920496,31.2425997],[121.491798,31.2423896],[121.491611,31.2422348],[121.4914386,31.2419745],[121.4911039,31.2413279],[121.4910184,31.2413462],[121.4908378,31.2409344],[121.4907924,31.2409421],[121.4907389,31.2407609],[121.4906988,31.2405441],[121.4907452,31.2405337],[121.4907206,31.2403467],[121.4907043,31.2400159],[121.490731,31.2396377],[121.4908317,31.2392075],[121.4908089,31.2391719],[121.4908607,31.2389762],[121.490996,31.238721],[121.4912323,31.2388074],[121.4913546,31.2385839],[121.4910306,31.2384282],[121.4910837,31.2383566],[121.4913613,31.2384798],[121.4914117,31.238391],[121.4913311,31.238357],[121.491573,31.2379377],[121.4916197,31.2379574],[121.4917044,31.2379932],[121.4918488,31.2377294],[121.4917609,31.2378036],[121.4916276,31.2377234],[121.4915542,31.2376793],[121.4926063,31.236555],[121.4928452,31.2367341],[121.4932877,31.2363603],[121.4933479,31.2362513],[121.4934737,31.2361855],[121.4938444,31.2358632],[121.49385236324837,31.235856421933743],[121.49321161501332,31.234812706127755],[121.49148426222861,31.232570740453905],[121.49124099937568,31.23231444151635],[121.490688,31.2327345],[121.4897858,31.233467],[121.4896666,31.2335823],[121.4890942,31.234117],[121.4891249,31.234138],[121.4889373,31.2343337],[121.4888046,31.2344599],[121.4887238,31.2345459],[121.4886738,31.2345934],[121.4886183,31.2346487],[121.4885745,31.2346904],[121.4885161,31.2347465],[121.4885488,31.2347711],[121.4884414,31.234891],[121.4880642,31.2353754],[121.4875028,31.2362342],[121.4872097,31.2367653],[121.4868628,31.2374609],[121.4866062,31.2380811],[121.4864225,31.2387369],[121.4863232,31.2394497],[121.4862682,31.2402849],[121.4862844,31.2407465]]]}},{"id":"251","type":"Feature","properties":{"gml_id":"v2_layer_water_pg.11715","code":8200,"fclass":"water","Name":null,"__source_file__":"11-蓝绿空间/上海市_河流.shp"},"geometry":{"type":"Polygon","coordinates":[[[121.4954746,31.2434072],[121.4955128,31.2434214],[121.4955321,31.2434104],[121.495541,31.2433761],[121.4955497,31.2433337],[121.495571,31.2433095],[121.495604,31.2432826],[121.4956228,31.2432654],[121.4956442,31.2432494],[121.4957656,31.2432316],[121.495783,31.2432373],[121.4958152,31.2432534],[121.4958474,31.243266],[121.4958836,31.2432649],[121.4959412,31.2432236],[121.4960016,31.2432064],[121.4960887,31.24318],[121.4962469,31.24318],[121.4963503,31.2432099],[121.4964019,31.2432069],[121.4964348,31.2431898],[121.4964508,31.2431604],[121.4964388,31.2430975],[121.4964301,31.2430814],[121.496404,31.2430751],[121.4963851,31.243086],[121.4963631,31.2431353],[121.4963463,31.2431525],[121.496314,31.2431582],[121.4959331,31.2431284],[121.4958339,31.243118],[121.4957507,31.2431203],[121.4956595,31.2431548],[121.4955577,31.2432212],[121.4954879,31.2432832],[121.4954476,31.2433222],[121.495441,31.2433692],[121.4954746,31.2434072]]]}},{"id":"705","type":"Feature","properties":{"gml_id":"v2_layer_water_pg.62680","code":8200,"fclass":"water","Name":null,"__source_file__":"11-蓝绿空间/上海市_河流.shp"},"geometry":{"type":"Polygon","coordinates":[[[121.4447017,31.2551407],[121.4446977,31.2552301],[121.4447057,31.2553356],[121.4447245,31.2554353],[121.4447741,31.2555121],[121.4449163,31.2556153],[121.4451684,31.2557394],[121.4452294,31.2557824],[121.4452449,31.2558076],[121.4452429,31.2558523],[121.4451731,31.2561017],[121.4451758,31.2562083],[121.4452429,31.2566199],[121.4453287,31.2568606],[121.4453716,31.2568767],[121.4453984,31.2569317],[121.4453957,31.2569661],[121.4454172,31.2570968],[121.4456264,31.2574155],[121.4461132,31.2579073],[121.4462487,31.258069],[121.4463989,31.2579222],[121.4462554,31.2577503],[121.4458651,31.2573226],[121.4456412,31.2570532],[121.44561,31.2569237],[121.4455208,31.2567077],[121.4454676,31.2565328],[121.4454147,31.2562616],[121.4454292,31.2561407],[121.4454631,31.2559705],[121.4454926,31.2557954],[121.4454859,31.2557475],[121.4454561,31.2556766],[121.4454279,31.2556265],[121.4453893,31.2555869],[121.4453429,31.2555653],[121.4452683,31.2555319],[121.4450853,31.2553654],[121.4450034,31.2552473],[121.4449806,31.2551842],[121.4449739,31.2551166],[121.4449793,31.2550444],[121.4446715,31.2542582],[121.4444328,31.2543774],[121.4447017,31.2551407]]]}},{"id":"704","type":"Feature","properties":{"gml_id":"v2_layer_water_pg.62679","code":8200,"fclass":"water","Name":null,"__source_file__":"11-蓝绿空间/上海市_河流.shp"},"geometry":{"type":"Polygon","coordinates":[[[121.4465067,31.2582875],[121.4465845,31.2583677],[121.4466732,31.2584329],[121.4468996,31.2586073],[121.4470374,31.2587887],[121.4471518,31.2589455],[121.447365,31.2591286],[121.4475035,31.2592163],[121.4478045,31.2593562],[121.4479628,31.2594089],[121.4480701,31.2595259],[121.4481103,31.259535],[121.4484214,31.2599604],[121.4487219,31.2601874],[121.4489257,31.2603708],[121.4490182,31.260584],[121.4492945,31.2606482],[121.4492704,31.2604464],[121.4490343,31.2601828],[121.4485757,31.2598434],[121.4484255,31.2596738],[121.4484657,31.2596256],[121.4482323,31.2593803],[121.4480634,31.259245],[121.4479185,31.259167],[121.4474786,31.2589034],[121.447197,31.2586695],[121.4471139,31.2585136],[121.4469449,31.2583783],[121.446623,31.2581559],[121.4463989,31.2579222],[121.4462487,31.258069],[121.4465067,31.2582875]]]}},{"id":"902","type":"Feature","properties":{"gml_id":"v2_layer_water_pg.65873","code":8200,"fclass":"water","Name":null,"__source_file__":"11-蓝绿空间/上海市_河流.shp"},"geometry":{"type":"Polygon","coordinates":[[[121.4537273,31.2715217],[121.4537401,31.2715578],[121.4537595,31.2715985],[121.4538313,31.2717039],[121.4539251,31.2718008],[121.4540116,31.2718867],[121.4540559,31.271936],[121.4540686,31.2719658],[121.454065,31.2719873],[121.4540324,31.272022],[121.4539728,31.2720759],[121.4539171,31.2721252],[121.4538849,31.2721641],[121.4538702,31.2721911],[121.4538675,31.2722352],[121.4539117,31.2723321],[121.4539272,31.2723544],[121.4539453,31.2723779],[121.4539821,31.2723974],[121.4540438,31.27241],[121.4540948,31.2724295],[121.454137,31.272461],[121.4541578,31.2725],[121.4541793,31.2725521],[121.4542061,31.2725877],[121.4542463,31.2726106],[121.4543382,31.2726341],[121.4543925,31.2726553],[121.4544676,31.2727034],[121.4545132,31.2727115],[121.4545514,31.2727126],[121.4546078,31.2726966],[121.4546755,31.2726542],[121.45477,31.2725562],[121.4549042,31.2723773],[121.4549853,31.2722765],[121.4550148,31.2722449],[121.4550396,31.2722318],[121.4550751,31.2722272],[121.4551194,31.2722312],[121.455167,31.2722421],[121.4552448,31.2722553],[121.4554547,31.2722977],[121.4554902,31.2723034],[121.4555144,31.2723034],[121.4555372,31.2722919],[121.4555532,31.272265],[121.4555734,31.2722249],[121.4555908,31.272214],[121.4556257,31.2722157],[121.4556592,31.2722289],[121.4557122,31.2722954],[121.4557511,31.2723252],[121.4558765,31.2724157],[121.4559274,31.2724392],[121.4559381,31.2724541],[121.4559328,31.2724708],[121.4559013,31.2724925],[121.4558268,31.2725378],[121.4558047,31.2725607],[121.455792,31.2726083],[121.4557973,31.2726341],[121.4558275,31.2726702],[121.4558818,31.2726971],[121.4559227,31.2726989],[121.4559583,31.272688],[121.4559864,31.2726662],[121.4560823,31.2725395],[121.4561024,31.272504],[121.4561078,31.2724811],[121.4561024,31.2724536],[121.456083,31.2724318],[121.4560213,31.2724077],[121.4559817,31.2723836],[121.4557993,31.2722243],[121.4557102,31.2721613],[121.4556203,31.2721177],[121.4554319,31.272077],[121.4553688,31.2720472],[121.4553293,31.2720077],[121.4553152,31.2719612],[121.4553065,31.2719057],[121.4553232,31.2718564],[121.4553514,31.2718231],[121.455399,31.2718111],[121.4554674,31.2717968],[121.4555077,31.2717859],[121.4555345,31.2717635],[121.4556042,31.2716563],[121.4556438,31.2715801],[121.4556552,31.2715411],[121.4556545,31.2715153],[121.4556397,31.2714844],[121.4556049,31.27145],[121.4555452,31.2714179],[121.4554057,31.271387],[121.4553279,31.2713979],[121.455277,31.2714156],[121.455224,31.2714563],[121.4551891,31.2714638],[121.4551583,31.271462],[121.4551308,31.2714557],[121.4549685,31.2713761],[121.4549296,31.2713434],[121.4548948,31.2712809],[121.4548767,31.2712351],[121.4548505,31.2711548],[121.454819,31.2711216],[121.454766,31.2710901],[121.4546198,31.2710482],[121.45453,31.2710133],[121.454481,31.2710001],[121.4544435,31.2709995],[121.4544133,31.271007],[121.4543959,31.2710339],[121.4543945,31.2710637],[121.4543999,31.2711847],[121.4544079,31.2712328],[121.4544187,31.2712672],[121.4544314,31.2712786],[121.4544522,31.2712941],[121.4545421,31.2713136],[121.4546312,31.2713554],[121.4546628,31.2713904],[121.4546648,31.2714191],[121.4546527,31.2714431],[121.4545917,31.2714792],[121.4545501,31.2715176],[121.4545226,31.2715583],[121.4545079,31.2715841],[121.454471,31.2716225],[121.4544388,31.2716426],[121.4543436,31.2716838],[121.4543241,31.2717028],[121.4543161,31.2717251],[121.4543154,31.2717515],[121.4543188,31.2717853],[121.454308,31.2718197],[121.4542852,31.2718472],[121.454239,31.2718621],[121.454194,31.2718592],[121.4541578,31.2718455],[121.4539205,31.2716718],[121.4538963,31.2716437],[121.4538903,31.2716191],[121.4538963,31.2715921],[121.4539164,31.2715623],[121.4540204,31.2714867],[121.4540378,31.271458],[121.4540418,31.2714248],[121.4540298,31.2713961],[121.4540083,31.2713812],[121.4539459,31.2713692],[121.4538822,31.2713738],[121.4538246,31.2713893],[121.4537454,31.271446],[121.4537273,31.2714918],[121.4537273,31.2715217]],[[121.4541189,31.2720575],[121.4541753,31.2720025],[121.4542544,31.2719635],[121.4543737,31.2719269],[121.4544287,31.2719177],[121.4544891,31.271936],[121.4545253,31.2719761],[121.4545186,31.2720667],[121.4545293,31.2721045],[121.4545575,31.2721435],[121.4546489,31.2722383],[121.4547265,31.2722948],[121.4547613,31.2723109],[121.4548177,31.2723223],[121.4548364,31.2723384],[121.4548418,31.2723682],[121.4548217,31.2724037],[121.4547224,31.2725163],[121.4546859,31.272563],[121.454653,31.272594],[121.454597,31.2726281],[121.4545555,31.2726476],[121.4545055,31.2726536],[121.4544532,31.272637],[121.4543737,31.2725814],[121.454301,31.2725099],[121.4542195,31.2724186],[121.454064,31.2722971],[121.4540425,31.2722547],[121.4540412,31.2722008],[121.4541189,31.2720575]],[[121.4545588,31.2717148],[121.4547627,31.2714764],[121.4548123,31.2714443],[121.4548619,31.2714294],[121.4549182,31.2714363],[121.454996,31.2714661],[121.4552213,31.2716346],[121.4552455,31.2716667],[121.4552575,31.271748],[121.4552535,31.2718111],[121.4552106,31.2718535],[121.4550939,31.2719016],[121.4550456,31.271928],[121.4550041,31.2719727],[121.4549477,31.2720633],[121.4548981,31.2721171],[121.4548378,31.2721389],[121.4547788,31.2721412],[121.4546929,31.272108],[121.4546554,31.2720747],[121.4546473,31.2720335],[121.4546706,31.2719316],[121.4546688,31.2718959],[121.4546473,31.271865],[121.4545803,31.271826],[121.4545414,31.2717996],[121.4545374,31.2717629],[121.4545588,31.2717148]]]}},{"id":"1391","type":"Feature","properties":{"gml_id":"v2_layer_water_pg.88771","code":8200,"fclass":"water","Name":null,"__source_file__":"11-蓝绿空间/上海市_河流.shp"},"geometry":{"type":"Polygon","coordinates":[[[121.4530094,31.2720861],[121.4530953,31.2721503],[121.4532616,31.2723749],[121.45346,31.2723566],[121.45346,31.2722787],[121.4532481,31.2720036],[121.4532374,31.2719302],[121.4531033,31.2719119],[121.4531006,31.2719829],[121.4529853,31.2720036],[121.4530094,31.2720861]]]}},{"id":"2553","type":"Feature","properties":{"gml_id":"v2_layer_water_pg.160104","code":8200,"fclass":"water","Name":null,"__source_file__":"11-蓝绿空间/上海市_河流.shp"},"geometry":{"type":"Polygon","coordinates":[[[121.437238,31.2728079],[121.4372781,31.2728373],[121.4373685,31.2728361],[121.4374703,31.2728361],[121.4375736,31.2728459],[121.4376352,31.272841],[121.437717,31.2728422],[121.4377471,31.2728447],[121.4378202,31.272852],[121.4378833,31.2728545],[121.4379278,31.272841],[121.4379823,31.2728177],[121.4380611,31.2728202],[121.43813,31.2728349],[121.4381873,31.2728349],[121.4382734,31.2728569],[121.4383264,31.2728226],[121.4383566,31.2727699],[121.4384182,31.2727429],[121.4384627,31.2727858],[121.4385229,31.2727871],[121.4385401,31.2727442],[121.438543,31.2726951],[121.4384856,31.2726755],[121.4384068,31.2726841],[121.4383494,31.2727221],[121.4383193,31.272754],[121.4382433,31.272765],[121.4381472,31.2727687],[121.438087,31.2727454],[121.438021,31.2727429],[121.4379479,31.2727687],[121.4378532,31.2727711],[121.4377887,31.2728055],[121.4377198,31.2728226],[121.4376481,31.2728226],[121.4376037,31.2728079],[121.4375406,31.2727809],[121.4374861,31.2727491],[121.4374574,31.2726951],[121.4374445,31.2726498],[121.4373886,31.2726486],[121.4373126,31.2726633],[121.4371734,31.272716],[121.437238,31.2728079]]]}},{"id":"1291","type":"Feature","properties":{"gml_id":"v2_layer_water_pg.69177","code":8200,"fclass":"water","Name":null,"__source_file__":"11-蓝绿空间/上海市_河流.shp"},"geometry":{"type":"Polygon","coordinates":[[[121.4581059,31.2364875],[121.4581663,31.2365524],[121.4582322,31.2365798],[121.4582691,31.2366539],[121.4583209,31.2366702],[121.4583218,31.2366223],[121.4582935,31.236571],[121.4583107,31.236525],[121.4583145,31.2365031],[121.4583785,31.2364583],[121.4584422,31.2363921],[121.4583414,31.236297],[121.4583146,31.2362941],[121.4582174,31.2363242],[121.4581302,31.2363712],[121.458045,31.2364561],[121.4581059,31.2364875]]]}},{"id":"276","type":"Feature","properties":{"gml_id":"v2_layer_water_pg.12542","code":8202,"fclass":"riverbank","Name":null,"__source_file__":"11-蓝绿空间/上海市_河流.shp"},"geometry":{"type":"Polygon","coordinates":[[[121.4867098,31.2441088],[121.4867567,31.2440686],[121.4867152,31.2440274],[121.4866649,31.2440795],[121.4867098,31.2441088]]]}},{"id":"277","type":"Feature","properties":{"gml_id":"v2_layer_water_pg.12543","code":8202,"fclass":"riverbank","Name":null,"__source_file__":"11-蓝绿空间/上海市_河流.shp"},"geometry":{"type":"Polygon","coordinates":[[[121.4866447,31.2442739],[121.4866568,31.2442085],[121.4865978,31.2441999],[121.4865797,31.2442618],[121.4866447,31.2442739]]]}},{"id":"4431","type":"Feature","properties":{"gml_id":"v2_layer_water_pg.341536","code":8200,"fclass":"water","Name":null,"__source_file__":"11-蓝绿空间/上海市_河流.shp"},"geometry":{"type":"Polygon","coordinates":[[[121.4790404,31.2705743],[121.4791702,31.2705615],[121.4791777,31.2705266],[121.4793108,31.2705175],[121.4792925,31.2703982],[121.4790211,31.270445],[121.4790404,31.2705743]]]}},{"id":"4428","type":"Feature","properties":{"gml_id":"v2_layer_water_pg.340212","code":8200,"fclass":"water","Name":null,"__source_file__":"11-蓝绿空间/上海市_河流.shp"},"geometry":{"type":"Polygon","coordinates":[[[121.4770981,31.2718329],[121.4772179,31.2718803],[121.4772936,31.2719391],[121.4773283,31.2719983],[121.477352,31.2720361],[121.477348,31.272063],[121.4774442,31.2721009],[121.4774923,31.2721171],[121.4775607,31.272174],[121.4776297,31.2722836],[121.4776674,31.2723682],[121.4776609,31.2724241],[121.477645,31.2724953],[121.4777036,31.2725661],[121.4777835,31.2726151],[121.4778679,31.2726179],[121.4780051,31.2725678],[121.4780863,31.2725536],[121.4781201,31.2725124],[121.4780659,31.272471],[121.4780546,31.2724314],[121.4780648,31.2723953],[121.4779781,31.2723746],[121.4778777,31.2723506],[121.4778465,31.2723631],[121.4777875,31.2723636],[121.4777429,31.2723026],[121.4776671,31.2722447],[121.4776604,31.2721193],[121.4777075,31.2720873],[121.4777215,31.2720365],[121.477762,31.2719659],[121.4778087,31.2719368],[121.4778945,31.2719304],[121.4779662,31.2719355],[121.4781384,31.2719171],[121.4782025,31.2719023],[121.4782515,31.2718719],[121.4783184,31.2718447],[121.4784131,31.2718316],[121.4785267,31.2718296],[121.4786311,31.2718384],[121.4786725,31.2718609],[121.4786943,31.2719859],[121.478716,31.2720624],[121.4787613,31.2721263],[121.4788333,31.2722015],[121.4788693,31.2722711],[121.4788785,31.2723602],[121.4789143,31.2724171],[121.4789226,31.2724784],[121.4788956,31.2725562],[121.4788964,31.2726423],[121.4788844,31.2727308],[121.478812,31.2727675],[121.4787485,31.2727905],[121.4787331,31.2728446],[121.478734,31.2729663],[121.4787805,31.2730145],[121.4787849,31.2730638],[121.4787156,31.273182],[121.4786485,31.2732748],[121.4786424,31.2733871],[121.4786629,31.2734443],[121.4786936,31.273481],[121.4787448,31.2735426],[121.4787671,31.2735991],[121.4787561,31.2737012],[121.4786974,31.2737712],[121.4786944,31.2738212],[121.4787443,31.2738993],[121.4787791,31.2739047],[121.4788262,31.273882],[121.4788978,31.2739023],[121.4789361,31.2739747],[121.4789208,31.2740053],[121.4788326,31.2740467],[121.4787328,31.2742183],[121.4787275,31.2743221],[121.4787913,31.2744069],[121.4789334,31.2744598],[121.4790471,31.2744726],[121.479118,31.2745077],[121.4791621,31.2745706],[121.4791792,31.2746263],[121.4792453,31.2747544],[121.4793258,31.2748925],[121.479482,31.2751029],[121.4795892,31.2753174],[121.4796127,31.2753613],[121.4796542,31.275398],[121.4797652,31.2754298],[121.4798388,31.2754609],[121.4798892,31.2755187],[121.4799284,31.275577],[121.4799558,31.2756232],[121.4799935,31.2756629],[121.480014,31.27573],[121.4800199,31.2757767],[121.480016,31.2758078],[121.4800177,31.2758479],[121.4800169,31.2758911],[121.4800163,31.2759381],[121.48002,31.2759967],[121.48002665056865,31.276030647678766],[121.48068845927999,31.275730456410976],[121.4806877,31.2757255],[121.4806533,31.2756768],[121.4806336,31.2756147],[121.4806278,31.2755523],[121.4806285,31.2754885],[121.4806331,31.2754382],[121.4806208,31.2754024],[121.4805733,31.2753635],[121.4805437,31.275325],[121.4805278,31.2752428],[121.4805116,31.2750654],[121.4805039,31.2749919],[121.4805143,31.2748676],[121.480452,31.2747009],[121.4804334,31.2746426],[121.4804424,31.2745507],[121.4804666,31.274474],[121.4804636,31.2744215],[121.4804356,31.2743624],[121.4803896,31.2743245],[121.4803226,31.2742476],[121.4802505,31.2741986],[121.4801979,31.2741753],[121.4801219,31.2741932],[121.4800444,31.2741444],[121.4799712,31.2740622],[121.479949,31.2740048],[121.4799518,31.2739444],[121.4799215,31.2739118],[121.4798463,31.2739002],[121.4797574,31.2739134],[121.4796665,31.2739595],[121.4795541,31.2739525],[121.479418,31.2739113],[121.4792942,31.2738866],[121.4792102,31.2738912],[121.4791187,31.273875],[121.4790455,31.2738208],[121.479063,31.2737746],[121.4789968,31.2737178],[121.4789941,31.2737001],[121.4789596,31.2736511],[121.4789115,31.2736388],[121.4788993,31.2736065],[121.4789319,31.2735608],[121.4789951,31.2735213],[121.4790261,31.2734661],[121.4790286,31.2734055],[121.4790625,31.2733531],[121.4791494,31.2733078],[121.4792341,31.2732564],[121.4792737,31.2732435],[121.4792967,31.2732182],[121.4792881,31.2731863],[121.4792325,31.2731781],[121.4791897,31.273184],[121.4791538,31.2732058],[121.4791248,31.2732049],[121.4791075,31.2731809],[121.4791155,31.2731288],[121.4791293,31.2731029],[121.4791247,31.2730774],[121.4790955,31.2730603],[121.4790885,31.2730286],[121.4791026,31.2730043],[121.4791152,31.2729775],[121.4791072,31.2729333],[121.4790756,31.2729171],[121.4790565,31.2728949],[121.4790352,31.2728648],[121.4790157,31.2728329],[121.4790268,31.2727886],[121.4790144,31.2727123],[121.478982,31.2726447],[121.4789667,31.2725991],[121.4789639,31.2725221],[121.4789816,31.272407],[121.4789692,31.2722818],[121.4789463,31.2721595],[121.4788801,31.2720604],[121.4788127,31.2719021],[121.4787876,31.2718593],[121.4787132,31.2718181],[121.4785878,31.2717931],[121.4784312,31.271801],[121.4783035,31.2718104],[121.4782097,31.2718317],[121.4781316,31.271839],[121.4779817,31.2718562],[121.4778466,31.2718865],[121.4777605,31.271864],[121.4777262,31.2718185],[121.4777093,31.2717458],[121.4776502,31.271704],[121.477627,31.2716615],[121.4776439,31.2716158],[121.4776998,31.271593],[121.4776771,31.2715383],[121.477669,31.2714676],[121.4776522,31.2713971],[121.477609,31.2713564],[121.4775462,31.2713577],[121.4774641,31.2713854],[121.477385,31.2713966],[121.4773043,31.271394],[121.4772133,31.271363],[121.4771044,31.2712825],[121.4770642,31.2713316],[121.4770806,31.2713778],[121.4771299,31.2713657],[121.4772053,31.2714138],[121.4771828,31.2714568],[121.4771399,31.2714783],[121.4771057,31.2714647],[121.4770855,31.2715093],[121.4771862,31.2715452],[121.4771194,31.2717012],[121.4770638,31.2716952],[121.4770614,31.2717708],[121.4770981,31.2718329]],[[121.4774221,31.2717696],[121.477482,31.2717472],[121.4775905,31.2717552],[121.4776391,31.2718255],[121.4775979,31.2718991],[121.4775418,31.2719135],[121.4774446,31.2718687],[121.4773828,31.2718143],[121.4774221,31.2717696]],[[121.479161,31.2744105],[121.479212,31.2743448],[121.4792471,31.2743184],[121.4792779,31.2742764],[121.4793119,31.2742253],[121.4793756,31.2742189],[121.4794312,31.27423],[121.4795112,31.2742774],[121.47956,31.2742905],[121.4796251,31.2743139],[121.479676,31.2743348],[121.479693,31.274378],[121.4796676,31.2744282],[121.479629,31.2744979],[121.4796415,31.2745531],[121.4797316,31.2746831],[121.4797552,31.2747403],[121.4797971,31.2747989],[121.4798389,31.2748729],[121.4798643,31.274953],[121.4798824,31.2750587],[121.479851,31.2750959],[121.4797857,31.2751184],[121.4797151,31.2751074],[121.4796608,31.2750391],[121.4796093,31.2750263],[121.4794811,31.2749264],[121.4793753,31.274815],[121.4792929,31.2747016],[121.4792075,31.2745374],[121.4791871,31.2745021],[121.4792238,31.2744865],[121.4792224,31.2744598],[121.479176,31.274457],[121.4791553,31.2744471],[121.479161,31.2744105]],[[121.4800767,31.2743749],[121.4801994,31.2743439],[121.4802947,31.2743516],[121.4803856,31.274406],[121.480381,31.2744914],[121.4802675,31.2745613],[121.4801448,31.2745729],[121.4800767,31.2745729],[121.4800267,31.2744797],[121.4800767,31.2743749]]]}},{"id":"1454","type":"Feature","properties":{"gml_id":"v2_layer_water_pg.91067","code":8200,"fclass":"water","Name":null,"__source_file__":"11-蓝绿空间/上海市_河流.shp"},"geometry":{"type":"MultiPolygon","coordinates":[[[[121.4588466,31.2788974],[121.4588465,31.2786761],[121.458859,31.2785479],[121.4589154,31.27845],[121.4591276,31.2782204],[121.4595834,31.2777627],[121.4598923,31.2773255],[121.460051,31.2770336],[121.4601232,31.2768653],[121.4601349,31.2767307],[121.4601968,31.2765532],[121.4602502,31.2764709],[121.4602976,31.2764333],[121.460361,31.2764322],[121.4608686,31.2766731],[121.4612365,31.2768517],[121.4616157,31.2770265],[121.4620428,31.2772338],[121.4622027,31.2773289],[121.4624653,31.2774908],[121.4625536,31.2775336],[121.4626113,31.2775476],[121.4626869,31.2775539],[121.4627674,31.2775327],[121.4628546,31.2774846],[121.4629533,31.277391],[121.463264,31.2770034],[121.4637593,31.2764068],[121.4639084,31.2761902],[121.4640133,31.2760316],[121.4644361,31.2753665],[121.464524,31.2752628],[121.4646505,31.275144],[121.4650548,31.2748041],[121.4651142,31.2747405],[121.4652912,31.2745452],[121.4655772,31.2742021],[121.465818,31.2739789],[121.4660432,31.2737183],[121.4661366,31.273651],[121.4661844,31.2736037],[121.4662955,31.273443],[121.4664407,31.2732874],[121.4666924,31.2730704],[121.4668577,31.2729067],[121.4669677,31.2727625],[121.4670312,31.2726199],[121.4671425,31.2723064],[121.4672109,31.2721695],[121.4673111,31.2720711],[121.4676415,31.2718617],[121.4676987,31.2718059],[121.4677873,31.2717752],[121.4678588,31.2717078],[121.4684403,31.2708508],[121.4684747,31.270782],[121.4684859,31.2706982],[121.4684772,31.2704625],[121.4685041,31.2701516],[121.4686102,31.2699577],[121.4692873,31.2694578],[121.4694742,31.2692336],[121.4697427,31.2689527],[121.4698849,31.2688922],[121.4704471,31.2687138],[121.4705486,31.2686631],[121.4706651,31.2685896],[121.4712024,31.2682185],[121.4714226,31.2680658],[121.4716685,31.2678664],[121.4718361,31.2676876],[121.4719161,31.2676407],[121.4727046,31.2673234],[121.4727396,31.2672922],[121.4727851,31.2672549],[121.4728199,31.2671962],[121.4728369,31.2671104],[121.4728348,31.2670383],[121.4728115,31.2669815],[121.4727632,31.266938],[121.4726034,31.2668522],[121.472307,31.2666849],[121.4722708,31.2666539],[121.4722386,31.2666167],[121.4722285,31.2665914],[121.4722339,31.266557],[121.4722554,31.2665318],[121.4723238,31.26649],[121.4725316,31.2663811],[121.4728528,31.2662103],[121.4728904,31.2661908],[121.4729259,31.266173],[121.4729594,31.2661587],[121.472995,31.2661375],[121.4730349,31.2661189],[121.4730627,31.2661043],[121.4730929,31.2660762],[121.473107,31.266055],[121.473115,31.2660309],[121.473105,31.2659999],[121.4730728,31.2659535],[121.4730399,31.2659128],[121.4730124,31.2658801],[121.4729916,31.2658435],[121.472993,31.2658079],[121.4730419,31.2657174],[121.4730754,31.265683],[121.4731264,31.265636],[121.4731559,31.2656027],[121.4732417,31.2655179],[121.4732994,31.2654686],[121.4733624,31.2654136],[121.4734134,31.2653758],[121.4734577,31.2653666],[121.4735274,31.2653631],[121.4736333,31.2653631],[121.4737152,31.2653631],[121.4737701,31.2653505],[121.4738372,31.2653196],[121.4738895,31.2652978],[121.4739163,31.2652714],[121.4739217,31.2652428],[121.4739445,31.265213],[121.4739659,31.2651797],[121.4740048,31.2651694],[121.474025,31.2651568],[121.4740531,31.265135],[121.4740773,31.2651064],[121.4740813,31.2650754],[121.474084,31.2650399],[121.4740974,31.2650055],[121.4741343,31.2649642],[121.4741778,31.2649172],[121.4742348,31.264884],[121.4742918,31.2648576],[121.4743495,31.2648444],[121.4744078,31.2648375],[121.4744662,31.2648341],[121.4745198,31.2648312],[121.4745728,31.2648238],[121.474613,31.2648163],[121.4746452,31.2648014],[121.4747297,31.264767],[121.4747679,31.2647487],[121.4747867,31.2647269],[121.4748088,31.264696],[121.4748175,31.2646782],[121.474833,31.2646369],[121.4748383,31.264598],[121.4748417,31.2645636],[121.4748377,31.2645361],[121.4748383,31.2644942],[121.4748343,31.2644524],[121.4748216,31.2644088],[121.4748149,31.2643773],[121.4747947,31.2643463],[121.4747706,31.2643097],[121.4747331,31.2643051],[121.4746016,31.2638259],[121.474556,31.2637456],[121.4745373,31.2636941],[121.4744984,31.2635416],[121.4744353,31.2633914],[121.4744045,31.2632997],[121.4743944,31.2632705],[121.4743824,31.2632487],[121.474383,31.2632172],[121.4743817,31.2631862],[121.4743877,31.2631553],[121.4744166,31.2631232],[121.4744487,31.2630934],[121.4746331,31.2629667],[121.4751394,31.2626589],[121.4753473,31.2625592],[121.475476,31.2625018],[121.4758475,31.2624938],[121.475924,31.262472],[121.4760071,31.2624445],[121.4760621,31.2624342],[121.4761171,31.2624124],[121.4761721,31.2623505],[121.4762123,31.2623115],[121.4762311,31.2622703],[121.4762405,31.2622405],[121.476396,31.2620719],[121.4764591,31.2620089],[121.4765368,31.261939],[121.4766026,31.2618771],[121.4766736,31.2618358],[121.4767246,31.2618094],[121.4770773,31.2616317],[121.4775762,31.2614048],[121.4779839,31.2612064],[121.4780697,31.2611537],[121.4781837,31.2610987],[121.4784157,31.2609989],[121.4790541,31.2607204],[121.4798132,31.2603661],[121.4800385,31.2602503],[121.4801136,31.2601873],[121.4801726,31.260138],[121.4802383,31.2600795],[121.4802839,31.2600073],[121.4803818,31.259864],[121.4806211,31.2593773],[121.4806916,31.2592633],[121.4809357,31.2589262],[121.4810228,31.2588506],[121.4812978,31.2586568],[121.4814305,31.2585869],[121.4816183,31.2584986],[121.4817618,31.258478],[121.4818624,31.2584826],[121.4819401,31.2585261],[121.4819925,31.2585766],[121.4822379,31.2587497],[121.482317,31.2588173],[121.482655,31.259097],[121.4826871,31.2591257],[121.4827327,31.2591418],[121.482769,31.2591544],[121.4828306,31.2591647],[121.4829037,31.2591664],[121.4829641,31.2591544],[121.483013,31.2591366],[121.483064,31.2591194],[121.4831123,31.2590919],[121.4831532,31.2590529],[121.4831699,31.2590242],[121.4832786,31.2589113],[121.4833429,31.2588391],[121.4833644,31.2588185],[121.4833792,31.2587749],[121.4833724,31.2587302],[121.4832732,31.2584103],[121.4832719,31.2583542],[121.4833698,31.2577087],[121.4833805,31.2576354],[121.4833939,31.2575666],[121.4834261,31.2575001],[121.4835092,31.2574405],[121.4836434,31.2573648],[121.483807,31.2572616],[121.4838794,31.2571837],[121.4840296,31.2570002],[121.4841597,31.2568661],[121.4843018,31.256732],[121.4844467,31.2566609],[121.4846894,31.2565932],[121.4851212,31.2564637],[121.486626,31.2560372],[121.4872885,31.2558171],[121.4873555,31.2557781],[121.4874601,31.2557368],[121.4875379,31.2556795],[121.4875808,31.2556222],[121.4876103,31.2555947],[121.4877149,31.2551957],[121.4877243,31.2550513],[121.4877176,31.2548724],[121.4876854,31.2546706],[121.4876291,31.2543565],[121.4875031,31.2540114],[121.4874722,31.2539667],[121.4874506,31.2538814],[121.4873569,31.2535115],[121.4873287,31.2533453],[121.4873314,31.2530621],[121.4873488,31.2529188],[121.4874132,31.2528145],[121.4875419,31.2526907],[121.487731,31.2525508],[121.4878987,31.2524453],[121.4880167,31.2523559],[121.4882393,31.2521059],[121.4883627,31.2519156],[121.4884539,31.2517058],[121.4885773,31.2514192],[121.4887087,31.2510867],[121.4889219,31.2505639],[121.4890829,31.2502864],[121.4894611,31.2499631],[121.4900257,31.2495939],[121.490196,31.2494873],[121.4903033,31.2493933],[121.4903985,31.2493096],[121.4904682,31.2492465],[121.4905728,31.2490963],[121.4906614,31.2489221],[121.4907378,31.2486606],[121.4908692,31.248092],[121.4909497,31.2477319],[121.4910543,31.2475324],[121.4911332,31.247422],[121.4909426,31.2473594],[121.490943,31.2473983],[121.4909323,31.2474384],[121.4909175,31.247474],[121.4908987,31.2475107],[121.4908357,31.2476356],[121.4907955,31.2477606],[121.4907432,31.2479647],[121.4907673,31.2479727],[121.4907512,31.2480392],[121.4906694,31.2483304],[121.4906479,31.2483236],[121.4905836,31.2485563],[121.4905152,31.2487868],[121.4904749,31.2488968],[121.4904334,31.2489817],[121.4904012,31.2490482],[121.4903422,31.2491365],[121.4902751,31.2492247],[121.4901879,31.2493016],[121.4900914,31.2493738],[121.4899304,31.249469],[121.4898124,31.2495435],[121.4896126,31.2496616],[121.4894919,31.2497372],[121.4892545,31.2498714],[121.4889434,31.2501488],[121.4888106,31.2504446],[121.4886269,31.2508448],[121.4883788,31.2514203],[121.4882299,31.251754],[121.48812,31.251942],[121.4880569,31.2520326],[121.4878517,31.2522745],[121.4877793,31.2523375],[121.4876734,31.2524086],[121.4874186,31.2526001],[121.4873327,31.2526666],[121.4872845,31.2527216],[121.4872348,31.2527893],[121.4871959,31.2528649],[121.4871678,31.2529681],[121.4871638,31.2530828],[121.4871544,31.2533487],[121.4871865,31.253507],[121.4872308,31.2536182],[121.4872845,31.2537489],[121.4873716,31.2539862],[121.4874239,31.2541375],[121.4874722,31.2543324],[121.4875044,31.2545193],[121.4875258,31.2546878],[121.4875218,31.2549125],[121.4875071,31.2551854],[121.4874119,31.2555672],[121.4873274,31.2556199],[121.4872429,31.2556566],[121.4870377,31.2557403],[121.4868419,31.2558079],[121.4863068,31.2559707],[121.4857382,31.2561312],[121.4852607,31.2562826],[121.4845553,31.2564797],[121.48433,31.2565439],[121.4842147,31.2566104],[121.4841235,31.2566827],[121.4840242,31.256779],[121.483866,31.2569567],[121.4837064,31.2571309],[121.4836192,31.2572192],[121.4834985,31.2572937],[121.4833564,31.2573797],[121.4832866,31.2573992],[121.4831606,31.2582361],[121.4831485,31.2583931],[121.4831646,31.2584757],[121.4831954,31.2585731],[121.4832424,31.2587164],[121.4832464,31.2587302],[121.4831954,31.2587772],[121.4829889,31.258987],[121.4829232,31.2590202],[121.4828534,31.2590214],[121.4828052,31.2590076],[121.4824887,31.2587451],[121.482439,31.2587015],[121.4823237,31.258611],[121.4821427,31.2584505],[121.4820555,31.2583805],[121.4819844,31.2583404],[121.4818664,31.2583117],[121.4817537,31.2582968],[121.4816572,31.2583095],[121.4815284,31.2583691],[121.4812361,31.2585376],[121.4809746,31.2586763],[121.4807962,31.2588105],[121.480709,31.2589147],[121.48065,31.2590317],[121.4805923,31.2591486],[121.4805266,31.2592621],[121.4803067,31.2596003],[121.4800975,31.2599144],[121.4800264,31.2600084],[121.4799821,31.2600497],[121.479844,31.2601391],[121.4796992,31.260224],[121.4791909,31.2604968],[121.4781824,31.2609577],[121.4776996,31.2611824],[121.4771524,31.2614346],[121.4767501,31.2616065],[121.4765516,31.2617074],[121.4765261,31.2617303],[121.4764376,31.2618404],[121.4762203,31.2621006],[121.4760272,31.2623161],[121.4759669,31.2623436],[121.4758904,31.2623608],[121.47581,31.262362],[121.4754304,31.2623712],[121.4753191,31.2623769],[121.4744756,31.2628469],[121.4743093,31.2629535],[121.4742596,31.2629936],[121.4742127,31.2630567],[121.4741752,31.26313],[121.4741644,31.2632011],[121.4741752,31.2632814],[121.4742771,31.2635599],[121.4743951,31.2638649],[121.4744621,31.2640277],[121.4745775,31.2643234],[121.4746177,31.2644587],[121.4746419,31.2645527],[121.4746231,31.2646054],[121.4745507,31.2646421],[121.4744943,31.264665],[121.4743844,31.2647143],[121.4741966,31.2647166],[121.4741202,31.2647132],[121.4740585,31.2647533],[121.4739847,31.2648439],[121.4739418,31.2649035],[121.473864,31.2650169],[121.4737822,31.2651717],[121.4737259,31.265213],[121.473636,31.2652302],[121.4735569,31.2652348],[121.4734818,31.2652531],[121.4734241,31.2652554],[121.4733638,31.2652462],[121.4733289,31.2652497],[121.4731841,31.265354],[121.4730205,31.2654961],[121.4728796,31.2656566],[121.4728387,31.2657386],[121.4728354,31.2657816],[121.4728515,31.2658515],[121.4728649,31.2659002],[121.4728937,31.2659564],[121.4729051,31.2659873],[121.4729051,31.2660091],[121.4728998,31.2660292],[121.472891,31.2660464],[121.4728676,31.2660653],[121.4728273,31.2660911],[121.4724002,31.2662911],[121.4721883,31.2663862],[121.4719965,31.2665083],[121.471902,31.2665708],[121.4718658,31.2666086],[121.4718544,31.2666442],[121.4718611,31.2666872],[121.4718906,31.2667531],[121.4719268,31.2667846],[121.4719979,31.2668127],[121.4723754,31.2669222],[121.4725897,31.2670048],[121.4726426,31.2670439],[121.4726648,31.26708],[121.4726582,31.2671124],[121.4726206,31.2671422],[121.4724969,31.2672069],[121.4719802,31.2674324],[121.4718257,31.267567],[121.4717447,31.2676151],[121.4716735,31.2676354],[121.4713033,31.2679154],[121.4710262,31.2681346],[121.4705375,31.2684797],[121.4704454,31.2685252],[121.4701072,31.2686642],[121.4698788,31.2687438],[121.4697689,31.268784],[121.46965,31.2688398],[121.4695429,31.2689475],[121.4694054,31.2691157],[121.4692833,31.2692615],[121.4691247,31.2693996],[121.4687967,31.2695622],[121.468519,31.2698788],[121.4683593,31.2701354],[121.4683088,31.2703597],[121.4682968,31.2706643],[121.4682661,31.2708366],[121.4676688,31.2716936],[121.4676046,31.2717333],[121.4673141,31.2719157],[121.4671443,31.2720331],[121.4670353,31.2721691],[121.4669616,31.27227],[121.4668488,31.2726225],[121.4667436,31.2727789],[121.4665035,31.2730288],[121.4661883,31.2733843],[121.4660203,31.2735961],[121.4659891,31.2736364],[121.4659179,31.2736453],[121.4656765,31.2738872],[121.4652874,31.2742797],[121.4651145,31.2744576],[121.4650227,31.2746517],[121.4648982,31.2747751],[121.4646315,31.2749449],[121.4643248,31.2752257],[121.4638836,31.2758733],[121.4637899,31.2760324],[121.4634921,31.2764325],[121.4628097,31.2772392],[121.462707,31.2773504],[121.4626693,31.2773698],[121.4626286,31.2773714],[121.4625775,31.2773543],[121.4619714,31.2770133],[121.461656,31.2768511],[121.4612024,31.276648],[121.4608403,31.2764979],[121.4607485,31.2764307],[121.460385,31.2762494],[121.460308,31.2762487],[121.4602404,31.2762644],[121.4601807,31.276297],[121.4600724,31.2763893],[121.4600229,31.276477],[121.4599975,31.2765887],[121.4599603,31.2767983],[121.459828,31.2771099],[121.4594993,31.2776812],[121.4593229,31.2778738],[121.4590554,31.2781205],[121.4587975,31.2783571],[121.4587563,31.2784139],[121.4587244,31.2784734],[121.4586943,31.2785609],[121.4586737,31.2786565],[121.4586548,31.2789153],[121.4586148,31.2789722],[121.45859188117093,31.27898187507663],[121.4588075388096,31.278992791860716],[121.45883414040777,31.27899189124282],[121.4588466,31.2788974]]],[[[121.4580052,31.2789343],[121.45793841701719,31.278948796132077],[121.4581964724687,31.27896185913167],[121.4580052,31.2789343]]]]}}],"name":"上海市_河流","crs":{"type":"name","properties":{"name":"urn:ogc:def:crs:OGC:1.3:CRS84"}}}