{"type":"FeatureCollection","features":[{"id":"0","type":"Feature","properties":{"市名":"上海市","市代码":310000,"省名":"上海市","省代码":310000,"__source_file__":"03-行政区/2024（审图号：GS（2024）0650号）/上海市_市界.shp"},"geometry":{"type":"Polygon","coordinates":[[[121.43247887854997,31.22902447931829],[121.43023229027573,31.23084959185621],[121.42820470240456,31.232855166664738],[121.42641565907029,31.235021885085512],[121.42488241023125,31.237328875049442],[121.4236197451339,31.239753911837933],[121.42263984931566,31.242273631908752],[121.4219521865427,31.244863757739896],[121.42156340684444,31.24749933153729],[121.42147728155989,31.250154955564412],[121.42169466605459,31.252805036785787],[121.42221349050395,31.25542403347189],[121.4230287788687,31.2579867013908],[121.42413269591728,31.260468337213158],[121.4250762245237,31.262312331058894],[121.42645565496629,31.264685114812334],[121.42809893331145,31.266930492098258],[121.42999028682037,31.269026885533062],[121.43211155526778,31.2709541479284],[121.43444236509998,31.272693756206372],[121.43696032504036,31.274228989732933],[121.43964124126684,31.27554509134123],[121.44245935009069,31.276629409481853],[121.44538756589114,31.27747152011958],[121.44839774190646,31.27806332719107],[121.45146094135256,31.27839914064598],[121.45273825928797,31.278430843127566],[121.45571835399855,31.278836414540702],[121.4588075388096,31.278992791860716],[121.4597745209531,31.2789600539246],[121.46042491756738,31.279069480360747],[121.46346656964805,31.279322109661262],[121.46652241816194,31.27932042100063],[121.46956369543403,31.279064429478048],[121.47256177113401,31.278556544172076],[121.47548842248383,31.27780154543424],[121.47831610058658,31.276806539804294],[121.48101819033857,31.275580892975483],[121.48356926145082,31.274136141448007],[121.48594530819267,31.27248588371089],[121.48812397558218,31.27064565198753],[121.49008476988105,31.268632765764472],[121.49180925140566,31.266466168495256],[121.49328120783882,31.264166249029824],[121.49448680641774,31.26175464946417],[121.4954147235775,31.259254061231182],[121.49655543230132,31.255571333216174],[121.49720895509832,31.252941840516893],[121.49755548948157,31.25026961052951],[121.49759164003945,31.24758102599288],[121.49731707620205,31.24490262891695],[121.49673453446849,31.24226085852577],[121.49584979036605,31.239681790302594],[121.49467160045832,31.237190878711193],[121.49321161501332,31.234812706127755],[121.49148426222861,31.232570740453905],[121.48950660518585,31.230487103791795],[121.48729817297192,31.228582354451937],[121.48488076764959,31.226875284429966],[121.48121403475672,31.224538060522995],[121.478665785768,31.223073321904213],[121.47596394886362,31.221828412381864],[121.47313411878733,31.220815121884005],[121.47020309954797,31.220043046248612],[121.4671986510073,31.21951949657703],[121.4641492265292,31.21924943018647],[121.46108370414828,31.219235403806874],[121.45999741410716,31.2192759025309],[121.45658308634171,31.21956389996637],[121.45322544632577,31.22016931735996],[121.44987632194113,31.220938936436088],[121.44729699990332,31.22163482208588],[121.44530175929886,31.222255121711427],[121.4448249527962,31.222380959544715],[121.44201488607233,31.223386771246194],[121.43933089239154,31.22462099458779],[121.43679803887224,31.22607210410547],[121.43465443577679,31.227576090732896],[121.43247887854997,31.22902447931829]]]}}],"name":"上海市_市界","crs":{"type":"name","properties":{"name":"urn:ogc:def:crs:OGC:1.3:CRS84"}}}