{"type":"FeatureCollection","features":[{"id":"1764","type":"Feature","properties":{"id":"05fd57cf-5ffc-3b38-8ab0-ee7aad0cfe9a","pname":"上海市","pcode":310000,"cityname":"上海市","citycode":21,"adname":"黄浦区","adcode":310101,"name":"上海商泰汽车","address":"淮海中路775号新华联大厦西楼17楼","location":"121.463690,31.218394","tel":"[]","business_area":"淮海路","bigType":"汽车销售","midType":"汽车销售","smallType":"汽车销售","typecode":"020000","timestamp":"2024-08-26 23:27:05","tag":"[]","biz_ext":"{'rating': '3.7', 'cost': []}","biz_type":"[]","gcjLng":121.46369,"gcjLat":31.218394,"wgs84Lng":121.459137,"wgs84Lat":31.220316,"__source_file__":"02-POI&AOI/1-POI/其它/24/csv格式/已分类/上海市-1754933-utf8.csv-汽车销售.csv"},"geometry":{"type":"Point","coordinates":[121.459137,31.220316]}},{"id":"2057","type":"Feature","properties":{"id":"7c36fcf0-6868-3f56-ae28-1f753eb4a0e7","pname":"上海市","pcode":310000,"cityname":"上海市","citycode":21,"adname":"黄浦区","adcode":310101,"name":"上海凡胜实业有限公司分店","address":"顺昌路与湖滨路交叉口东80米","location":"121.477853,31.220632","tel":"[]","business_area":"淮海路","bigType":"汽车销售","midType":"汽车销售","smallType":"汽车销售","typecode":"020000","timestamp":"2024-08-24 02:56:51","tag":"[]","biz_ext":"{'rating': '3.0', 'cost': []}","biz_type":"[]","gcjLng":121.477853,"gcjLat":31.220632,"wgs84Lng":121.473345,"wgs84Lat":31.22259,"__source_file__":"02-POI&AOI/1-POI/其它/24/csv格式/已分类/上海市-1754933-utf8.csv-汽车销售.csv"},"geometry":{"type":"Point","coordinates":[121.473345,31.22259]}},{"id":"1853","type":"Feature","properties":{"id":"1a6f567b-71b7-3240-ab1e-2a20f2b2df57","pname":"上海市","pcode":310000,"cityname":"上海市","citycode":21,"adname":"黄浦区","adcode":310101,"name":"TX淮海体验空间","address":"淮海中路与成都南路交叉口东北20米","location":"121.468294,31.220741","tel":"[]","business_area":"淮海路","bigType":"汽车销售","midType":"汽车销售","smallType":"汽车销售","typecode":"020000","timestamp":"2024-05-25 16:22:18","tag":"[]","biz_ext":"{'rating': '3.7', 'cost': []}","biz_type":"[]","gcjLng":121.468294,"gcjLat":31.220741,"wgs84Lng":121.463755,"wgs84Lat":31.222673,"__source_file__":"02-POI&AOI/1-POI/其它/24/csv格式/已分类/上海市-1754933-utf8.csv-汽车销售.csv"},"geometry":{"type":"Point","coordinates":[121.463755,31.222673]}},{"id":"2058","type":"Feature","properties":{"id":"97f7417c-de22-3e2d-9b6d-3cfdeb05529e","pname":"上海市","pcode":310000,"cityname":"上海市","citycode":21,"adname":"黄浦区","adcode":310101,"name":"法拉利浦西新天地展厅","address":"太仓路233号1层01单元","location":"121.473882,31.220755","tel":"021-53838818","business_area":"淮海路","bigType":"汽车销售","midType":"汽车销售","smallType":"汽车销售","typecode":"020000","timestamp":"2024-03-18 11:46:20","tag":"[]","biz_ext":"{'rating': '4.3', 'cost': []}","biz_type":"[]","gcjLng":121.473882,"gcjLat":31.220755,"wgs84Lng":121.46936,"wgs84Lat":31.222702,"__source_file__":"02-POI&AOI/1-POI/其它/24/csv格式/已分类/上海市-1754933-utf8.csv-汽车销售.csv"},"geometry":{"type":"Point","coordinates":[121.46936,31.222702]}},{"id":"2064","type":"Feature","properties":{"id":"060f3f0b-ae3d-3c7e-9ddb-975680d2fdbb","pname":"上海市","pcode":310000,"cityname":"上海市","citycode":21,"adname":"黄浦区","adcode":310101,"name":"上海捷尼赛思之家(香港广场店)","address":"香港广场(一大会址·黄陂南路地铁站5号口步行90米)","location":"121.474267,31.223968","tel":"021-53951234","business_area":"北京路","bigType":"汽车销售","midType":"汽车销售","smallType":"汽车销售|汽车维修","typecode":"020000|030000","timestamp":"2024-08-31 03:29:02","tag":"[]","biz_ext":"{'rating': '4.4', 'cost': []}","biz_type":"[]","gcjLng":121.474267,"gcjLat":31.223968,"wgs84Lng":121.469746,"wgs84Lat":31.225915,"__source_file__":"02-POI&AOI/1-POI/其它/24/csv格式/已分类/上海市-1754933-utf8.csv-汽车销售.csv"},"geometry":{"type":"Point","coordinates":[121.469746,31.225915]}},{"id":"2065","type":"Feature","properties":{"id":"9c8f8033-8f54-3f80-80cd-b1bc29fb7b17","pname":"上海市","pcode":310000,"cityname":"上海市","citycode":21,"adname":"黄浦区","adcode":310101,"name":"理想汽车上海南丰荟零售中心","address":"淮海中路188号淮海南丰荟103商铺","location":"121.477198,31.224488","tel":"021-60664277","business_area":"淮海路","bigType":"汽车销售","midType":"汽车销售","smallType":"汽车销售|汽车维修","typecode":"020000|030000","timestamp":"2024-08-30 15:45:01","tag":"[]","biz_ext":"{'rating': '4.5', 'cost': []}","biz_type":"[]","gcjLng":121.477198,"gcjLat":31.224488,"wgs84Lng":121.472687,"wgs84Lat":31.226443,"__source_file__":"02-POI&AOI/1-POI/其它/24/csv格式/已分类/上海市-1754933-utf8.csv-汽车销售.csv"},"geometry":{"type":"Point","coordinates":[121.472687,31.226443]}},{"id":"2067","type":"Feature","properties":{"id":"fe42fd79-6824-3cf4-bcb1-6702c2dbe8c5","pname":"上海市","pcode":310000,"cityname":"上海市","citycode":21,"adname":"黄浦区","adcode":310101,"name":"昊铂中心(上海广场店)","address":"淮海中路138号上海广场(东南门1层)106B-107-111号","location":"121.478069,31.224923","tel":"13817707977","business_area":"北京路","bigType":"汽车销售","midType":"汽车销售","smallType":"汽车销售","typecode":"020000","timestamp":"2024-08-31 09:32:29","tag":"[]","biz_ext":"{'rating': '4.4', 'cost': []}","biz_type":"[]","gcjLng":121.478069,"gcjLat":31.224923,"wgs84Lng":121.473561,"wgs84Lat":31.22688,"__source_file__":"02-POI&AOI/1-POI/其它/24/csv格式/已分类/上海市-1754933-utf8.csv-汽车销售.csv"},"geometry":{"type":"Point","coordinates":[121.473561,31.22688]}},{"id":"2068","type":"Feature","properties":{"id":"c505bf3c-eaaa-34b6-bd13-e41282fbb7cd","pname":"上海市","pcode":310000,"cityname":"上海市","citycode":21,"adname":"黄浦区","adcode":310101,"name":"AION(上海广场店)","address":"淮海中路138号上海广场1F层","location":"121.478183,31.225239","tel":"[]","business_area":"北京路","bigType":"汽车销售","midType":"汽车销售","smallType":"汽车销售","typecode":"020000","timestamp":"2024-07-12 22:25:33","tag":"[]","biz_ext":"{'rating': '3.7', 'cost': []}","biz_type":"[]","gcjLng":121.478183,"gcjLat":31.225239,"wgs84Lng":121.473675,"wgs84Lat":31.227196,"__source_file__":"02-POI&AOI/1-POI/其它/24/csv格式/已分类/上海市-1754933-utf8.csv-汽车销售.csv"},"geometry":{"type":"Point","coordinates":[121.473675,31.227196]}},{"id":"1777","type":"Feature","properties":{"id":"034356d5-a5ea-3637-9caa-ba5584d67059","pname":"上海市","pcode":310000,"cityname":"上海市","citycode":21,"adname":"静安区","adcode":310106,"name":"捷尼赛思汽车销售(上海)有限公司","address":"石门一路288号兴业太古汇香港兴业中心1座F24层","location":"121.463535,31.228064","tel":"[]","business_area":"淮海路","bigType":"汽车销售","midType":"汽车销售","smallType":"汽车销售","typecode":"020000","timestamp":"2024-07-13 03:34:11","tag":"[]","biz_ext":"{'rating': '3.9', 'cost': []}","biz_type":"[]","gcjLng":121.463535,"gcjLat":31.228064,"wgs84Lng":121.45898,"wgs84Lat":31.229981,"__source_file__":"02-POI&AOI/1-POI/其它/24/csv格式/已分类/上海市-1754933-utf8.csv-汽车销售.csv"},"geometry":{"type":"Point","coordinates":[121.45898,31.229981]}},{"id":"1855","type":"Feature","properties":{"id":"319b5999-4cbb-3931-baa2-1209a34f5ecc","pname":"上海市","pcode":310000,"cityname":"上海市","citycode":21,"adname":"黄浦区","adcode":310101,"name":"林内展厅(南都商厦店)","address":"成都北路辅路与南京西路交叉口东南20米","location":"121.467385,31.230719","tel":"[]","business_area":"淮海路","bigType":"汽车销售","midType":"汽车销售","smallType":"汽车销售","typecode":"020000","timestamp":"2024-08-31 00:58:24","tag":"[]","biz_ext":"{'rating': '3.7', 'cost': []}","biz_type":"[]","gcjLng":121.467385,"gcjLat":31.230719,"wgs84Lng":121.462842,"wgs84Lat":31.232644,"__source_file__":"02-POI&AOI/1-POI/其它/24/csv格式/已分类/上海市-1754933-utf8.csv-汽车销售.csv"},"geometry":{"type":"Point","coordinates":[121.462842,31.232644]}},{"id":"2066","type":"Feature","properties":{"id":"d53db443-0f87-3795-9da8-38f2c887931f","pname":"上海市","pcode":310000,"cityname":"上海市","citycode":21,"adname":"黄浦区","adcode":310101,"name":"BYREDO上海连卡佛专柜(大上海时代广场店)","address":"淮海中路99号大上海时代广场L1层","location":"121.478694,31.224514","tel":"[]","business_area":"淮海路","bigType":"汽车销售","midType":"汽车销售","smallType":"汽车销售","typecode":"020000","timestamp":"2024-07-28 04:06:06","tag":"[]","biz_ext":"{'rating': '4.1', 'cost': []}","biz_type":"[]","gcjLng":121.478694,"gcjLat":31.224514,"wgs84Lng":121.474188,"wgs84Lat":31.226473,"__source_file__":"02-POI&AOI/1-POI/其它/24/csv格式/已分类/上海市-1754933-utf8.csv-汽车销售.csv"},"geometry":{"type":"Point","coordinates":[121.474188,31.226473]}},{"id":"2070","type":"Feature","properties":{"id":"4daebfc2-d708-35cd-b64c-94c10b40f0b1","pname":"上海市","pcode":310000,"cityname":"上海市","citycode":21,"adname":"黄浦区","adcode":310101,"name":"ARK3柳林店","address":"淮海中路1号柳林大厦(大世界地铁站6号口步行220米)","location":"121.480021,31.224903","tel":"[]","business_area":"淮海路","bigType":"汽车销售","midType":"汽车销售","smallType":"汽车销售","typecode":"020000","timestamp":"2024-01-25 18:12:50","tag":"[]","biz_ext":"{'rating': '3.3', 'cost': []}","biz_type":"[]","gcjLng":121.480021,"gcjLat":31.224903,"wgs84Lng":121.475519,"wgs84Lat":31.226865,"__source_file__":"02-POI&AOI/1-POI/其它/24/csv格式/已分类/上海市-1754933-utf8.csv-汽车销售.csv"},"geometry":{"type":"Point","coordinates":[121.475519,31.226865]}},{"id":"2069","type":"Feature","properties":{"id":"a29ec189-f842-3873-90a7-c64b34f542a7","pname":"上海市","pcode":310000,"cityname":"上海市","citycode":21,"adname":"黄浦区","adcode":310101,"name":"华为AITO汽车(上海广场店)","address":"淮海中路138号上海广场1F层","location":"121.478379,31.225210","tel":"[]","business_area":"北京路","bigType":"汽车销售","midType":"汽车销售","smallType":"汽车销售","typecode":"020000","timestamp":"2024-08-02 16:04:30","tag":"[]","biz_ext":"{'rating': '3.7', 'cost': []}","biz_type":"[]","gcjLng":121.478379,"gcjLat":31.22521,"wgs84Lng":121.473872,"wgs84Lat":31.227168,"__source_file__":"02-POI&AOI/1-POI/其它/24/csv格式/已分类/上海市-1754933-utf8.csv-汽车销售.csv"},"geometry":{"type":"Point","coordinates":[121.473872,31.227168]}},{"id":"2341","type":"Feature","properties":{"id":"7f1532fc-085a-3bf7-a72b-45ae378520aa","pname":"上海市","pcode":310000,"cityname":"上海市","citycode":21,"adname":"浦东新区","adcode":310115,"name":"踏浪展厅(正大广场店)","address":"名商路与陆家嘴环路交叉口西140米","location":"121.499170,31.236752","tel":"[]","business_area":"陆家嘴","bigType":"汽车销售","midType":"汽车销售","smallType":"汽车销售","typecode":"020000","timestamp":"2024-08-09 06:31:54","tag":"[]","biz_ext":"{'rating': '3.8', 'cost': []}","biz_type":"[]","gcjLng":121.49917,"gcjLat":31.236752,"wgs84Lng":121.494735,"wgs84Lat":31.238765,"__source_file__":"02-POI&AOI/1-POI/其它/24/csv格式/已分类/上海市-1754933-utf8.csv-汽车销售.csv"},"geometry":{"type":"Point","coordinates":[121.494735,31.238765]}},{"id":"2343","type":"Feature","properties":{"id":"c7f0b39a-6028-39ed-b748-a19bd6340c0c","pname":"上海市","pcode":310000,"cityname":"上海市","citycode":21,"adname":"浦东新区","adcode":310115,"name":"比亚迪汽车王朝网(瑞虹迪浦东正大广场商超店)","address":"陆家嘴西路168号","location":"121.499359,31.236806","tel":"021-58991172","business_area":"陆家嘴","bigType":"汽车销售","midType":"汽车销售","smallType":"汽车销售|汽车服务","typecode":"020000|010000","timestamp":"2024-08-31 03:22:00","tag":"[]","biz_ext":"{'rating': '4.6', 'cost': []}","biz_type":"[]","gcjLng":121.499359,"gcjLat":31.236806,"wgs84Lng":121.494925,"wgs84Lat":31.23882,"__source_file__":"02-POI&AOI/1-POI/其它/24/csv格式/已分类/上海市-1754933-utf8.csv-汽车销售.csv"},"geometry":{"type":"Point","coordinates":[121.494925,31.23882]}},{"id":"2342","type":"Feature","properties":{"id":"2dff6826-a136-3a49-9c59-a7ea723dd5d8","pname":"上海市","pcode":310000,"cityname":"上海市","citycode":21,"adname":"浦东新区","adcode":310115,"name":"东风日产新能源体验中心(正大广场店)","address":"陆家嘴西路168号商场一楼","location":"121.498986,31.236903","tel":"021-58999533;17612188575","business_area":"陆家嘴","bigType":"汽车销售","midType":"汽车销售","smallType":"汽车销售","typecode":"020000","timestamp":"2024-07-30 07:45:25","tag":"[]","biz_ext":"{'rating': '3.8', 'cost': []}","biz_type":"[]","gcjLng":121.498986,"gcjLat":31.236903,"wgs84Lng":121.494551,"wgs84Lat":31.238916,"__source_file__":"02-POI&AOI/1-POI/其它/24/csv格式/已分类/上海市-1754933-utf8.csv-汽车销售.csv"},"geometry":{"type":"Point","coordinates":[121.494551,31.238916]}},{"id":"2344","type":"Feature","properties":{"id":"3305c913-5112-3d4f-90b9-d30a8ee66b27","pname":"上海市","pcode":310000,"cityname":"上海市","citycode":21,"adname":"浦东新区","adcode":310115,"name":"Polestar极星空间上海正大广场","address":"陆家嘴西路与陆家嘴环路交叉口南60米","location":"121.500007,31.237244","tel":"021-63766017","business_area":"陆家嘴","bigType":"汽车销售","midType":"汽车销售","smallType":"汽车销售|汽车维修","typecode":"020000|030000","timestamp":"2024-07-29 23:28:50","tag":"[]","biz_ext":"{'rating': '4.0', 'cost': []}","biz_type":"[]","gcjLng":121.500007,"gcjLat":31.237244,"wgs84Lng":121.495575,"wgs84Lat":31.23926,"__source_file__":"02-POI&AOI/1-POI/其它/24/csv格式/已分类/上海市-1754933-utf8.csv-汽车销售.csv"},"geometry":{"type":"Point","coordinates":[121.495575,31.23926]}},{"id":"1784","type":"Feature","properties":{"id":"2aafcbef-9e81-3656-bdf6-369934cc73e8","pname":"上海市","pcode":310000,"cityname":"上海市","citycode":21,"adname":"静安区","adcode":310106,"name":"上海国大南京西路店","address":"南京西路与步行街交叉口东100米","location":"121.465526,31.230970","tel":"[]","business_area":"淮海路","bigType":"汽车销售","midType":"汽车销售","smallType":"汽车销售","typecode":"020000","timestamp":"2024-07-12 03:10:58","tag":"[]","biz_ext":"{'rating': '3.9', 'cost': []}","biz_type":"[]","gcjLng":121.465526,"gcjLat":31.23097,"wgs84Lng":121.460977,"wgs84Lat":31.232891,"__source_file__":"02-POI&AOI/1-POI/其它/24/csv格式/已分类/上海市-1754933-utf8.csv-汽车销售.csv"},"geometry":{"type":"Point","coordinates":[121.460977,31.232891]}},{"id":"1857","type":"Feature","properties":{"id":"c7b73cc7-e51f-39d3-8318-021d129ea361","pname":"上海市","pcode":310000,"cityname":"上海市","citycode":21,"adname":"黄浦区","adcode":310101,"name":"上海骏誉玛莎拉蒂(黄浦店)","address":"南京西路388号仙乐斯广场一层103-105单元","location":"121.469249,31.231189","tel":"021-63023188;13816732817","business_area":"北京路","bigType":"汽车销售","midType":"法拉利特约销售","smallType":"玛莎拉蒂销售|汽车维修","typecode":"021501|031601","timestamp":"2024-08-24 15:53:38","tag":"[]","biz_ext":"{'rating': '4.2', 'cost': []}","biz_type":"[]","gcjLng":121.469249,"gcjLat":31.231189,"wgs84Lng":121.464712,"wgs84Lat":31.233119,"__source_file__":"02-POI&AOI/1-POI/其它/24/csv格式/已分类/上海市-1754933-utf8.csv-汽车销售.csv"},"geometry":{"type":"Point","coordinates":[121.464712,31.233119]}},{"id":"1785","type":"Feature","properties":{"id":"4bcccfb6-b061-342e-851d-85e96920fb31","pname":"上海市","pcode":310000,"cityname":"上海市","citycode":21,"adname":"静安区","adcode":310106,"name":"比亚迪海洋店宇迪辉驰(静安太古汇店)(暂停营业)","address":"南京西路与青海路交叉口东北40米","location":"121.464256,31.231207","tel":"[]","business_area":"淮海路","bigType":"汽车销售","midType":"汽车销售","smallType":"汽车销售","typecode":"020000","timestamp":"2024-08-23 06:55:51","tag":"[]","biz_ext":"{'rating': '4.0', 'cost': []}","biz_type":"[]","gcjLng":121.464256,"gcjLat":31.231207,"wgs84Lng":121.459703,"wgs84Lat":31.233124,"__source_file__":"02-POI&AOI/1-POI/其它/24/csv格式/已分类/上海市-1754933-utf8.csv-汽车销售.csv"},"geometry":{"type":"Point","coordinates":[121.459703,31.233124]}},{"id":"1783","type":"Feature","properties":{"id":"78163447-80ca-3b09-91ff-6982a02b8431","pname":"上海市","pcode":310000,"cityname":"上海市","citycode":21,"adname":"静安区","adcode":310106,"name":"比亚迪汽车海洋网(盛世卓景太古汇店)","address":"南京西路694号1层IFA室","location":"121.464264,31.231212","tel":"13564416454","business_area":"淮海路","bigType":"汽车销售","midType":"汽车销售","smallType":"汽车销售","typecode":"020000","timestamp":"2024-08-31 03:28:05","tag":"[]","biz_ext":"{'rating': '4.5', 'cost': []}","biz_type":"[]","gcjLng":121.464264,"gcjLat":31.231212,"wgs84Lng":121.459711,"wgs84Lat":31.233129,"__source_file__":"02-POI&AOI/1-POI/其它/24/csv格式/已分类/上海市-1754933-utf8.csv-汽车销售.csv"},"geometry":{"type":"Point","coordinates":[121.459711,31.233129]}},{"id":"1856","type":"Feature","properties":{"id":"4f056c85-a8b5-3f46-80b3-0269516e83fd","pname":"上海市","pcode":310000,"cityname":"上海市","citycode":21,"adname":"黄浦区","adcode":310101,"name":"Maserati(仙乐斯广场店)","address":"南京西路388号仙乐斯广场L1层","location":"121.469099,31.231219","tel":"[]","business_area":"北京路","bigType":"汽车销售","midType":"汽车销售","smallType":"汽车销售","typecode":"020000","timestamp":"2024-08-02 16:27:15","tag":"[]","biz_ext":"{'rating': '3.5', 'cost': []}","biz_type":"[]","gcjLng":121.469099,"gcjLat":31.231219,"wgs84Lng":121.464561,"wgs84Lat":31.233149,"__source_file__":"02-POI&AOI/1-POI/其它/24/csv格式/已分类/上海市-1754933-utf8.csv-汽车销售.csv"},"geometry":{"type":"Point","coordinates":[121.464561,31.233149]}},{"id":"1858","type":"Feature","properties":{"id":"c5881024-b1f3-37cf-9430-ebe9a18cb012","pname":"上海市","pcode":310000,"cityname":"上海市","citycode":21,"adname":"黄浦区","adcode":310101,"name":"porsche(新昌路店)","address":"南京西路288号创兴金融中心F1层","location":"121.470284,31.232038","tel":"[]","business_area":"北京路","bigType":"汽车销售","midType":"保时捷特约销售","smallType":"保时捷销售","typecode":"020000","timestamp":"2024-08-10 16:54:27","tag":"[]","biz_ext":"{'rating': '3.8', 'cost': []}","biz_type":"[]","gcjLng":121.470284,"gcjLat":31.232038,"wgs84Lng":121.46575,"wgs84Lat":31.23397,"__source_file__":"02-POI&AOI/1-POI/其它/24/csv格式/已分类/上海市-1754933-utf8.csv-汽车销售.csv"},"geometry":{"type":"Point","coordinates":[121.46575,31.23397]}},{"id":"1859","type":"Feature","properties":{"id":"1bcb5329-b700-382e-adfe-7611be59f174","pname":"上海市","pcode":310000,"cityname":"上海市","citycode":21,"adname":"黄浦区","adcode":310101,"name":"上海浦西保时捷中心","address":"南京西路288号创兴金融中心首层","location":"121.470331,31.232160","tel":"021-23214911","business_area":"北京路","bigType":"汽车销售","midType":"保时捷特约销售","smallType":"保时捷销售|汽车维修","typecode":"022100|030000","timestamp":"2024-08-31 03:22:58","tag":"[]","biz_ext":"{'rating': '4.6', 'cost': []}","biz_type":"[]","gcjLng":121.470331,"gcjLat":31.23216,"wgs84Lng":121.465797,"wgs84Lat":31.234092,"__source_file__":"02-POI&AOI/1-POI/其它/24/csv格式/已分类/上海市-1754933-utf8.csv-汽车销售.csv"},"geometry":{"type":"Point","coordinates":[121.465797,31.234092]}},{"id":"1970","type":"Feature","properties":{"id":"871ca835-a50d-31cd-8954-cdbc00e47127","pname":"上海市","pcode":310000,"cityname":"上海市","citycode":21,"adname":"黄浦区","adcode":310101,"name":"新世界NB(1906店)","address":"南京西路2-68号新世界城","location":"121.474159,31.234760","tel":"[]","business_area":"北京路","bigType":"汽车销售","midType":"汽车销售","smallType":"汽车销售","typecode":"020000","timestamp":"2024-08-16 20:18:22","tag":"[]","biz_ext":"{'rating': '3.4', 'cost': []}","biz_type":"[]","gcjLng":121.474159,"gcjLat":31.23476,"wgs84Lng":121.469637,"wgs84Lat":31.236702,"__source_file__":"02-POI&AOI/1-POI/其它/24/csv格式/已分类/上海市-1754933-utf8.csv-汽车销售.csv"},"geometry":{"type":"Point","coordinates":[121.469637,31.236702]}},{"id":"1860","type":"Feature","properties":{"id":"75236203-1f50-3255-a296-e56a82b85d54","pname":"上海市","pcode":310000,"cityname":"上海市","citycode":21,"adname":"静安区","adcode":310106,"name":"Ferrari上海意特(福新汇店)","address":"恒通东路69号首层(新闸路地铁站1号口步行400米)","location":"121.466851,31.241865","tel":"021-52868178","business_area":"北京路","bigType":"汽车销售","midType":"法拉利特约销售","smallType":"法拉利销售","typecode":"021500","timestamp":"2024-08-31 03:29:08","tag":"[]","biz_ext":"{'rating': '4.3', 'cost': []}","biz_type":"[]","gcjLng":121.466851,"gcjLat":31.241865,"wgs84Lng":121.462305,"wgs84Lat":31.243784,"__source_file__":"02-POI&AOI/1-POI/其它/24/csv格式/已分类/上海市-1754933-utf8.csv-汽车销售.csv"},"geometry":{"type":"Point","coordinates":[121.462305,31.243784]}},{"id":"2176","type":"Feature","properties":{"id":"d4419cd9-3a69-3ae4-8c24-1cb3fe4269d6","pname":"上海市","pcode":310000,"cityname":"上海市","citycode":21,"adname":"静安区","adcode":310106,"name":"KAVALAN(苏河湾万象天地)","address":"福建北路100号西里LG131B上海苏河湾万象天地","location":"121.477157,31.242471","tel":"021-56310578","business_area":"北京路","bigType":"汽车销售","midType":"汽车销售","smallType":"汽车销售","typecode":"020000","timestamp":"2024-08-15 21:52:57","tag":"[]","biz_ext":"{'rating': '4.1', 'cost': []}","biz_type":"[]","gcjLng":121.477157,"gcjLat":31.242471,"wgs84Lng":121.472644,"wgs84Lat":31.244417,"__source_file__":"02-POI&AOI/1-POI/其它/24/csv格式/已分类/上海市-1754933-utf8.csv-汽车销售.csv"},"geometry":{"type":"Point","coordinates":[121.472644,31.244417]}},{"id":"2171","type":"Feature","properties":{"id":"39db2218-7822-38f5-a20e-bf2086da0fa3","pname":"上海市","pcode":310000,"cityname":"上海市","citycode":21,"adname":"静安区","adcode":310106,"name":"科尼赛克及布加迪锐马克中国品牌展厅","address":"河南北路辅路与北苏州路交叉口西120米","location":"121.481636,31.242536","tel":"021-56623008","business_area":"北京路","bigType":"汽车销售","midType":"汽车销售","smallType":"汽车销售","typecode":"020000","timestamp":"2024-08-16 14:46:38","tag":"[]","biz_ext":"{'rating': '4.3', 'cost': []}","biz_type":"[]","gcjLng":121.481636,"gcjLat":31.242536,"wgs84Lng":121.477138,"wgs84Lat":31.244495,"__source_file__":"02-POI&AOI/1-POI/其它/24/csv格式/已分类/上海市-1754933-utf8.csv-汽车销售.csv"},"geometry":{"type":"Point","coordinates":[121.477138,31.244495]}},{"id":"2211","type":"Feature","properties":{"id":"c34de168-881a-34f0-84ba-98814ccb609f","pname":"上海市","pcode":310000,"cityname":"上海市","citycode":21,"adname":"虹口区","adcode":310109,"name":"上汽金控","address":"天潼路229号中美信托金融大厦","location":"121.488575,31.245075","tel":"[]","business_area":"上海北外滩中心","bigType":"汽车销售","midType":"汽车销售","smallType":"汽车销售","typecode":"020000","timestamp":"2024-08-21 11:28:27","tag":"[]","biz_ext":"{'rating': [], 'cost': []}","biz_type":"[]","gcjLng":121.488575,"gcjLat":31.245075,"wgs84Lng":121.484102,"wgs84Lat":31.247053,"__source_file__":"02-POI&AOI/1-POI/其它/24/csv格式/已分类/上海市-1754933-utf8.csv-汽车销售.csv"},"geometry":{"type":"Point","coordinates":[121.484102,31.247053]}},{"id":"2172","type":"Feature","properties":{"id":"15c531bc-5967-371a-9603-e14045ff7e36","pname":"上海市","pcode":310000,"cityname":"上海市","citycode":21,"adname":"虹口区","adcode":310109,"name":"鑫上海新兴旺国际店","address":"七浦路与江西北路交叉口西南100米(天潼路地铁站1号口旁)","location":"121.482337,31.245496","tel":"[]","business_area":"上海北外滩中心","bigType":"汽车销售","midType":"汽车销售","smallType":"汽车销售","typecode":"020000","timestamp":"2024-07-14 05:50:24","tag":"[]","biz_ext":"{'rating': '3.5', 'cost': []}","biz_type":"[]","gcjLng":121.482337,"gcjLat":31.245496,"wgs84Lng":121.477842,"wgs84Lat":31.247456,"__source_file__":"02-POI&AOI/1-POI/其它/24/csv格式/已分类/上海市-1754933-utf8.csv-汽车销售.csv"},"geometry":{"type":"Point","coordinates":[121.477842,31.247456]}},{"id":"2175","type":"Feature","properties":{"id":"30e55418-0cdf-3c14-bce3-4383f0dc0ac5","pname":"上海市","pcode":310000,"cityname":"上海市","citycode":21,"adname":"静安区","adcode":310106,"name":"超飞捷","address":"七浦兰城商厦西北门旁(天潼路地铁站6号口步行430米)","location":"121.478804,31.245859","tel":"[]","business_area":"七浦路","bigType":"汽车销售","midType":"汽车销售","smallType":"汽车销售","typecode":"020000","timestamp":"2024-08-31 10:33:21","tag":"[]","biz_ext":"{'rating': '3.9', 'cost': []}","biz_type":"[]","gcjLng":121.478804,"gcjLat":31.245859,"wgs84Lng":121.474297,"wgs84Lat":31.247808,"__source_file__":"02-POI&AOI/1-POI/其它/24/csv格式/已分类/上海市-1754933-utf8.csv-汽车销售.csv"},"geometry":{"type":"Point","coordinates":[121.474297,31.247808]}},{"id":"2210","type":"Feature","properties":{"id":"8925972e-26e4-3ce2-a10e-19404b154132","pname":"上海市","pcode":310000,"cityname":"上海市","citycode":21,"adname":"虹口区","adcode":310109,"name":"汽车之家能源空间站","address":"四川北路88号星荟中心L104","location":"121.486589,31.245939","tel":"13175101309","business_area":"上海北外滩中心","bigType":"汽车销售","midType":"汽车销售","smallType":"汽车销售","typecode":"020000","timestamp":"2024-08-15 21:50:25","tag":"[]","biz_ext":"{'rating': '4.5', 'cost': []}","biz_type":"[]","gcjLng":121.486589,"gcjLat":31.245939,"wgs84Lng":121.482108,"wgs84Lat":31.247911,"__source_file__":"02-POI&AOI/1-POI/其它/24/csv格式/已分类/上海市-1754933-utf8.csv-汽车销售.csv"},"geometry":{"type":"Point","coordinates":[121.482108,31.247911]}},{"id":"2177","type":"Feature","properties":{"id":"518d1b81-d295-3a6e-b9a8-a85ec4df4e4b","pname":"上海市","pcode":310000,"cityname":"上海市","citycode":21,"adname":"虹口区","adcode":310109,"name":"合创上海直营旗舰店","address":"天潼路328号1层(天潼路地铁站3号口步行410米)","location":"121.485707,31.246089","tel":"[]","business_area":"上海北外滩中心","bigType":"汽车销售","midType":"汽车销售","smallType":"汽车销售","typecode":"020000","timestamp":"2024-08-31 04:21:54","tag":"[]","biz_ext":"{'rating': '3.9', 'cost': []}","biz_type":"[]","gcjLng":121.485707,"gcjLat":31.246089,"wgs84Lng":121.481223,"wgs84Lat":31.248058,"__source_file__":"02-POI&AOI/1-POI/其它/24/csv格式/已分类/上海市-1754933-utf8.csv-汽车销售.csv"},"geometry":{"type":"Point","coordinates":[121.481223,31.248058]}},{"id":"2209","type":"Feature","properties":{"id":"f5a92083-14dc-383a-8d4e-a02ea7cd9db0","pname":"上海市","pcode":310000,"cityname":"上海市","citycode":21,"adname":"虹口区","adcode":310109,"name":"上海信义宝吉祥企业发展有限公司虹口分公司","address":"天潼路328号上海星荟中心","location":"121.487284,31.246189","tel":"[]","business_area":"上海北外滩中心","bigType":"汽车销售","midType":"汽车销售","smallType":"汽车销售","typecode":"020000","timestamp":"2024-07-19 03:20:48","tag":"[]","biz_ext":"{'rating': [], 'cost': []}","biz_type":"[]","gcjLng":121.487284,"gcjLat":31.246189,"wgs84Lng":121.482806,"wgs84Lat":31.248163,"__source_file__":"02-POI&AOI/1-POI/其它/24/csv格式/已分类/上海市-1754933-utf8.csv-汽车销售.csv"},"geometry":{"type":"Point","coordinates":[121.482806,31.248163]}},{"id":"2348","type":"Feature","properties":{"id":"7866d11e-ee98-3931-9fd8-4e5f288f345c","pname":"上海市","pcode":310000,"cityname":"上海市","citycode":21,"adname":"虹口区","adcode":310109,"name":"上汽奥迪上海白玉兰广场都市店","address":"东长治路588号1层L1-3A商铺","location":"121.498901,31.248943","tel":"021-55890306;13662038336","business_area":"上海北外滩中心","bigType":"汽车销售","midType":"奥迪特约销售","smallType":"上汽-大众奥迪销售","typecode":"020300","timestamp":"2024-08-31 03:29:50","tag":"[]","biz_ext":"{'rating': '4.6', 'cost': []}","biz_type":"[]","gcjLng":121.498901,"gcjLat":31.248943,"wgs84Lng":121.494464,"wgs84Lat":31.25095,"__source_file__":"02-POI&AOI/1-POI/其它/24/csv格式/已分类/上海市-1754933-utf8.csv-汽车销售.csv"},"geometry":{"type":"Point","coordinates":[121.494464,31.25095]}},{"id":"2346","type":"Feature","properties":{"id":"dcfde354-3a41-30bc-9d95-dd7ba15ab90c","pname":"上海市","pcode":310000,"cityname":"上海市","citycode":21,"adname":"虹口区","adcode":310109,"name":"极星汽车销售有限公司","address":"东大名路555号上海白玉兰广场购物中心","location":"121.497801,31.249047","tel":"[]","business_area":"上海北外滩中心","bigType":"汽车销售","midType":"汽车销售","smallType":"汽车销售","typecode":"020000","timestamp":"2024-08-04 11:39:28","tag":"[]","biz_ext":"{'rating': [], 'cost': []}","biz_type":"[]","gcjLng":121.497801,"gcjLat":31.249047,"wgs84Lng":121.49336,"wgs84Lat":31.251051,"__source_file__":"02-POI&AOI/1-POI/其它/24/csv格式/已分类/上海市-1754933-utf8.csv-汽车销售.csv"},"geometry":{"type":"Point","coordinates":[121.49336,31.251051]}},{"id":"2347","type":"Feature","properties":{"id":"5893eaa2-1bfe-3343-9903-a322c01a2a9c","pname":"上海市","pcode":310000,"cityname":"上海市","citycode":21,"adname":"虹口区","adcode":310109,"name":"沃尔沃汽车集团亚太区销售公司","address":"东大名路501号上海白玉兰广场F26层","location":"121.497859,31.249377","tel":"[]","business_area":"提篮桥","bigType":"汽车销售","midType":"汽车销售","smallType":"汽车销售","typecode":"020000","timestamp":"2024-08-22 18:17:52","tag":"[]","biz_ext":"{'rating': '4.2', 'cost': []}","biz_type":"[]","gcjLng":121.497859,"gcjLat":31.249377,"wgs84Lng":121.493418,"wgs84Lat":31.251381,"__source_file__":"02-POI&AOI/1-POI/其它/24/csv格式/已分类/上海市-1754933-utf8.csv-汽车销售.csv"},"geometry":{"type":"Point","coordinates":[121.493418,31.251381]}},{"id":"2179","type":"Feature","properties":{"id":"848c4859-cbf8-3a53-9c7a-8692b68342de","pname":"上海市","pcode":310000,"cityname":"上海市","citycode":21,"adname":"虹口区","adcode":310109,"name":"夏宇汽贸","address":"东宝兴路415号-419(东宝兴路地铁站2号口步行130米)","location":"121.479732,31.259043","tel":"021-66545111;021-66601528","business_area":"宝山路","bigType":"汽车销售","midType":"汽车销售","smallType":"汽车销售","typecode":"020000","timestamp":"2024-07-07 00:52:08","tag":"[]","biz_ext":"{'rating': '4.0', 'cost': []}","biz_type":"[]","gcjLng":121.479732,"gcjLat":31.259043,"wgs84Lng":121.475227,"wgs84Lat":31.260989,"__source_file__":"02-POI&AOI/1-POI/其它/24/csv格式/已分类/上海市-1754933-utf8.csv-汽车销售.csv"},"geometry":{"type":"Point","coordinates":[121.475227,31.260989]}},{"id":"2351","type":"Feature","properties":{"id":"6f1da043-8b64-38f9-8712-a776861c68be","pname":"上海市","pcode":310000,"cityname":"上海市","citycode":21,"adname":"虹口区","adcode":310109,"name":"瑞兰RELAN","address":"虹口现代公寓东南2门旁","location":"121.495683,31.260752","tel":"021-51071663","business_area":"提篮桥","bigType":"汽车销售","midType":"汽车销售","smallType":"汽车销售","typecode":"020000","timestamp":"2024-08-23 18:16:23","tag":"[]","biz_ext":"{'rating': '3.9', 'cost': []}","biz_type":"[]","gcjLng":121.495683,"gcjLat":31.260752,"wgs84Lng":121.491234,"wgs84Lat":31.262744,"__source_file__":"02-POI&AOI/1-POI/其它/24/csv格式/已分类/上海市-1754933-utf8.csv-汽车销售.csv"},"geometry":{"type":"Point","coordinates":[121.491234,31.262744]}},{"id":"2173","type":"Feature","properties":{"id":"6d166e9d-9e6a-341b-8b9d-41e2944fd1d6","pname":"上海市","pcode":310000,"cityname":"上海市","citycode":21,"adname":"静安区","adcode":310106,"name":"蔚来汽车(上海苏河湾万象天地店)","address":"福建北路100号上海苏河湾万象天地B1层","location":"121.477694,31.242516","tel":"[]","business_area":"北京路","bigType":"汽车销售","midType":"汽车销售","smallType":"汽车销售","typecode":"020000","timestamp":"2024-07-13 04:05:28","tag":"[]","biz_ext":"{'rating': '4.1', 'cost': []}","biz_type":"[]","gcjLng":121.477694,"gcjLat":31.242516,"wgs84Lng":121.473183,"wgs84Lat":31.244464,"__source_file__":"02-POI&AOI/1-POI/其它/24/csv格式/已分类/上海市-1754933-utf8.csv-汽车销售.csv"},"geometry":{"type":"Point","coordinates":[121.473183,31.244464]}},{"id":"2174","type":"Feature","properties":{"id":"5c8565fd-30a1-3862-80af-aedcc9cc8a2b","pname":"上海市","pcode":310000,"cityname":"上海市","citycode":21,"adname":"静安区","adcode":310106,"name":"蔚来中心(上海苏河湾万象天地)","address":"福建北路100号万象天地西里LG2层210-212室","location":"121.477596,31.242676","tel":"16601807438","business_area":"北京路","bigType":"汽车销售","midType":"汽车销售","smallType":"汽车销售","typecode":"020000","timestamp":"2024-08-30 13:52:01","tag":"[]","biz_ext":"{'rating': '4.5', 'cost': []}","biz_type":"[]","gcjLng":121.477596,"gcjLat":31.242676,"wgs84Lng":121.473085,"wgs84Lat":31.244623,"__source_file__":"02-POI&AOI/1-POI/其它/24/csv格式/已分类/上海市-1754933-utf8.csv-汽车销售.csv"},"geometry":{"type":"Point","coordinates":[121.473085,31.244623]}},{"id":"1971","type":"Feature","properties":{"id":"3b1f8ee5-6ecf-3965-b0d8-870425770fd3","pname":"上海市","pcode":310000,"cityname":"上海市","citycode":21,"adname":"静安区","adcode":310106,"name":"HUBLTT宇舶(上海静安大悦城南座店)","address":"西藏北路166号上海静安大悦城南座(曲阜路地铁站出入口旁)","location":"121.472292,31.243147","tel":"[]","business_area":"七浦路","bigType":"汽车销售","midType":"汽车销售","smallType":"汽车销售","typecode":"020000","timestamp":"2024-08-03 10:18:20","tag":"[]","biz_ext":"{'rating': '3.5', 'cost': []}","biz_type":"[]","gcjLng":121.472292,"gcjLat":31.243147,"wgs84Lng":121.467763,"wgs84Lat":31.24508,"__source_file__":"02-POI&AOI/1-POI/其它/24/csv格式/已分类/上海市-1754933-utf8.csv-汽车销售.csv"},"geometry":{"type":"Point","coordinates":[121.467763,31.24508]}},{"id":"1972","type":"Feature","properties":{"id":"4e746245-4933-38d3-9038-32861c613667","pname":"上海市","pcode":310000,"cityname":"上海市","citycode":21,"adname":"静安区","adcode":310106,"name":"AVATR(静安大悦城店)","address":"西藏北路166号上海静安大悦城北座L1层N108","location":"121.471766,31.244458","tel":"[]","business_area":"七浦路","bigType":"汽车销售","midType":"汽车销售","smallType":"汽车销售","typecode":"020000","timestamp":"2024-08-02 16:18:19","tag":"[]","biz_ext":"{'rating': '3.8', 'cost': []}","biz_type":"[]","gcjLng":121.471766,"gcjLat":31.244458,"wgs84Lng":121.467235,"wgs84Lat":31.246389,"__source_file__":"02-POI&AOI/1-POI/其它/24/csv格式/已分类/上海市-1754933-utf8.csv-汽车销售.csv"},"geometry":{"type":"Point","coordinates":[121.467235,31.246389]}},{"id":"1974","type":"Feature","properties":{"id":"e54d61a9-aab7-37d7-b2ac-39a0fa12b9be","pname":"上海市","pcode":310000,"cityname":"上海市","citycode":21,"adname":"静安区","adcode":310106,"name":"领克新能源零售中心(上海静安大悦城店)","address":"西藏北路198号上海静安大悦城北座L1层","location":"121.471846,31.244461","tel":"021-61070654","business_area":"七浦路","bigType":"汽车销售","midType":"吉利特约销售","smallType":"吉利销售","typecode":"022300","timestamp":"2024-08-29 16:43:13","tag":"[]","biz_ext":"{'rating': '4.5', 'cost': []}","biz_type":"[]","gcjLng":121.471846,"gcjLat":31.244461,"wgs84Lng":121.467316,"wgs84Lat":31.246392,"__source_file__":"02-POI&AOI/1-POI/其它/24/csv格式/已分类/上海市-1754933-utf8.csv-汽车销售.csv"},"geometry":{"type":"Point","coordinates":[121.467316,31.246392]}},{"id":"1973","type":"Feature","properties":{"id":"4df40ae5-243b-3e64-be3b-191c0229545a","pname":"上海市","pcode":310000,"cityname":"上海市","citycode":21,"adname":"静安区","adcode":310106,"name":"阿维塔体验中心(上海静安大悦城店)","address":"西藏北路198号上海静安大悦城购物中心(N108)阿维塔汽车","location":"121.471743,31.244483","tel":"15901967939","business_area":"七浦路","bigType":"汽车销售","midType":"汽车销售","smallType":"汽车销售","typecode":"020000","timestamp":"2024-08-30 15:43:48","tag":"[]","biz_ext":"{'rating': '4.8', 'cost': []}","biz_type":"[]","gcjLng":121.471743,"gcjLat":31.244483,"wgs84Lng":121.467212,"wgs84Lat":31.246414,"__source_file__":"02-POI&AOI/1-POI/其它/24/csv格式/已分类/上海市-1754933-utf8.csv-汽车销售.csv"},"geometry":{"type":"Point","coordinates":[121.467212,31.246414]}},{"id":"1790","type":"Feature","properties":{"id":"9c294b21-81ef-3aef-b0c8-56d327910e01","pname":"上海市","pcode":310000,"cityname":"上海市","citycode":21,"adname":"静安区","adcode":310106,"name":"恒丰店","address":"交通路与徐家宅总弄交叉口西南100米","location":"121.464745,31.246254","tel":"[]","business_area":"宝山路","bigType":"汽车销售","midType":"汽车销售","smallType":"汽车销售","typecode":"020000","timestamp":"2024-07-16 03:13:11","tag":"[]","biz_ext":"{'rating': '3.3', 'cost': []}","biz_type":"[]","gcjLng":121.464745,"gcjLat":31.246254,"wgs84Lng":121.460193,"wgs84Lat":31.248166,"__source_file__":"02-POI&AOI/1-POI/其它/24/csv格式/已分类/上海市-1754933-utf8.csv-汽车销售.csv"},"geometry":{"type":"Point","coordinates":[121.460193,31.248166]}},{"id":"1866","type":"Feature","properties":{"id":"884b14e2-9b25-379e-b32b-884afee83575","pname":"上海市","pcode":310000,"cityname":"上海市","citycode":21,"adname":"静安区","adcode":310106,"name":"上海交运隆嘉汽车销售服务有限公司","address":"芷江西路街道中山北路558号","location":"121.465517,31.261855","tel":"021-36538698","business_area":"宝山路","bigType":"汽车销售","midType":"荣威销售","smallType":"荣威销售|汽车维修","typecode":"022600|032700","timestamp":"2024-08-31 03:29:57","tag":"[]","biz_ext":"{'rating': '4.8', 'cost': []}","biz_type":"[]","gcjLng":121.465517,"gcjLat":31.261855,"wgs84Lng":121.460965,"wgs84Lat":31.263762,"__source_file__":"02-POI&AOI/1-POI/其它/24/csv格式/已分类/上海市-1754933-utf8.csv-汽车销售.csv"},"geometry":{"type":"Point","coordinates":[121.460965,31.263762]}},{"id":"2082","type":"Feature","properties":{"id":"0e8ff303-b645-3791-b618-9082cd135977","pname":"上海市","pcode":310000,"cityname":"上海市","citycode":21,"adname":"虹口区","adcode":310109,"name":"柜唯依汽车","address":"西宝兴路与黄山路交叉口东南60米","location":"121.470775,31.266751","tel":"[]","business_area":"和田","bigType":"汽车销售","midType":"汽车销售","smallType":"汽车销售","typecode":"020000","timestamp":"2024-08-31 02:52:26","tag":"[]","biz_ext":"{'rating': '3.0', 'cost': []}","biz_type":"[]","gcjLng":121.470775,"gcjLat":31.266751,"wgs84Lng":121.466239,"wgs84Lat":31.268669,"__source_file__":"02-POI&AOI/1-POI/其它/24/csv格式/已分类/上海市-1754933-utf8.csv-汽车销售.csv"},"geometry":{"type":"Point","coordinates":[121.466239,31.268669]}},{"id":"2077","type":"Feature","properties":{"id":"fba5b305-0dc0-3590-b402-b36eb3388f3c","pname":"上海市","pcode":310000,"cityname":"上海市","citycode":21,"adname":"虹口区","adcode":310109,"name":"ID.HUB纯电空间(凯德虹口商业中心店)","address":"西江湾路388号凯德虹口商业中心L1层","location":"121.477922,31.270327","tel":"[]","business_area":"江湾","bigType":"汽车销售","midType":"汽车销售","smallType":"汽车销售","typecode":"020000","timestamp":"2024-08-31 03:21:33","tag":"[]","biz_ext":"{'rating': '3.8', 'cost': []}","biz_type":"[]","gcjLng":121.477922,"gcjLat":31.270327,"wgs84Lng":121.473409,"wgs84Lat":31.272263,"__source_file__":"02-POI&AOI/1-POI/其它/24/csv格式/已分类/上海市-1754933-utf8.csv-汽车销售.csv"},"geometry":{"type":"Point","coordinates":[121.473409,31.272263]}},{"id":"2080","type":"Feature","properties":{"id":"8095d9b1-0cb2-3fb1-b897-89471a5cb810","pname":"上海市","pcode":310000,"cityname":"上海市","citycode":21,"adname":"虹口区","adcode":310109,"name":"理想汽车上海凯德虹口零售中心","address":"西江湾路388号1楼3839号商铺","location":"121.478264,31.270712","tel":"15083141734","business_area":"江湾","bigType":"汽车销售","midType":"汽车销售","smallType":"汽车销售","typecode":"020000","timestamp":"2024-08-30 15:46:07","tag":"[]","biz_ext":"{'rating': '4.5', 'cost': []}","biz_type":"[]","gcjLng":121.478264,"gcjLat":31.270712,"wgs84Lng":121.473753,"wgs84Lat":31.272649,"__source_file__":"02-POI&AOI/1-POI/其它/24/csv格式/已分类/上海市-1754933-utf8.csv-汽车销售.csv"},"geometry":{"type":"Point","coordinates":[121.473753,31.272649]}},{"id":"2078","type":"Feature","properties":{"id":"68222e80-732c-3c57-84a9-2a57eb0de116","pname":"上海市","pcode":310000,"cityname":"上海市","citycode":21,"adname":"虹口区","adcode":310109,"name":"HUAWEI(凯德虹口商业中心店)","address":"西江湾路388号凯德虹口商业中心A座L1层","location":"121.477899,31.270959","tel":"[]","business_area":"江湾","bigType":"汽车销售","midType":"汽车销售","smallType":"汽车销售","typecode":"020000","timestamp":"2024-08-23 11:35:51","tag":"[]","biz_ext":"{'rating': '4.2', 'cost': []}","biz_type":"[]","gcjLng":121.477899,"gcjLat":31.270959,"wgs84Lng":121.473386,"wgs84Lat":31.272895,"__source_file__":"02-POI&AOI/1-POI/其它/24/csv格式/已分类/上海市-1754933-utf8.csv-汽车销售.csv"},"geometry":{"type":"Point","coordinates":[121.473386,31.272895]}},{"id":"2079","type":"Feature","properties":{"id":"ce486ac8-fb90-3d00-97b4-b091d5256eb7","pname":"上海市","pcode":310000,"cityname":"上海市","citycode":21,"adname":"虹口区","adcode":310109,"name":"鸿蒙智行超级体验中心(问界|智界)•上海凯德虹口商业中心","address":"凯德龙之梦A座一楼(虹口足球场地铁站出入口步行190米)","location":"121.477933,31.270963","tel":"[]","business_area":"江湾","bigType":"汽车销售","midType":"汽车销售","smallType":"汽车销售","typecode":"020000","timestamp":"2024-07-14 07:59:31","tag":"[]","biz_ext":"{'rating': '4.4', 'cost': []}","biz_type":"[]","gcjLng":121.477933,"gcjLat":31.270963,"wgs84Lng":121.47342,"wgs84Lat":31.272899,"__source_file__":"02-POI&AOI/1-POI/其它/24/csv格式/已分类/上海市-1754933-utf8.csv-汽车销售.csv"},"geometry":{"type":"Point","coordinates":[121.47342,31.272899]}},{"id":"2075","type":"Feature","properties":{"id":"4941a030-436b-3960-be6e-44a5cadde20d","pname":"上海市","pcode":310000,"cityname":"上海市","citycode":21,"adname":"虹口区","adcode":310109,"name":"福特电马(上海凯德虹口城市店)","address":"西江湾路388号(虹口龙之梦商场)B座a24-30-31","location":"121.477200,31.271051","tel":"021-36178598","business_area":"和田","bigType":"汽车销售","midType":"汽车销售","smallType":"汽车销售","typecode":"020000","timestamp":"2024-07-04 13:31:23","tag":"[]","biz_ext":"{'rating': '4.2', 'cost': []}","biz_type":"[]","gcjLng":121.4772,"gcjLat":31.271051,"wgs84Lng":121.472685,"wgs84Lat":31.272985,"__source_file__":"02-POI&AOI/1-POI/其它/24/csv格式/已分类/上海市-1754933-utf8.csv-汽车销售.csv"},"geometry":{"type":"Point","coordinates":[121.472685,31.272985]}},{"id":"2076","type":"Feature","properties":{"id":"9b45997d-6188-3d80-b486-bed93b653f4e","pname":"上海市","pcode":310000,"cityname":"上海市","citycode":21,"adname":"虹口区","adcode":310109,"name":"华为AITO体验店(凯德虹口商业中心店)","address":"花园路(虹口足球场地铁站出入口步行260米)","location":"121.477216,31.271073","tel":"[]","business_area":"江湾","bigType":"汽车销售","midType":"汽车销售","smallType":"汽车销售","typecode":"020000","timestamp":"2024-07-12 22:14:59","tag":"[]","biz_ext":"{'rating': '3.9', 'cost': []}","biz_type":"[]","gcjLng":121.477216,"gcjLat":31.271073,"wgs84Lng":121.472701,"wgs84Lat":31.273007,"__source_file__":"02-POI&AOI/1-POI/其它/24/csv格式/已分类/上海市-1754933-utf8.csv-汽车销售.csv"},"geometry":{"type":"Point","coordinates":[121.472701,31.273007]}},{"id":"2074","type":"Feature","properties":{"id":"5ba36dea-1e35-39e1-b8db-cf8b3ddb7099","pname":"上海市","pcode":310000,"cityname":"上海市","citycode":21,"adname":"虹口区","adcode":310109,"name":"飞凡汽车(凯德龙之梦虹口店B座店)","address":"西江湾路388号凯德虹口商业中心B座L1层","location":"121.477095,31.271162","tel":"[]","business_area":"江湾","bigType":"汽车销售","midType":"汽车销售","smallType":"汽车销售","typecode":"020000","timestamp":"2024-08-01 23:03:29","tag":"[]","biz_ext":"{'rating': '3.8', 'cost': []}","biz_type":"[]","gcjLng":121.477095,"gcjLat":31.271162,"wgs84Lng":121.47258,"wgs84Lat":31.273096,"__source_file__":"02-POI&AOI/1-POI/其它/24/csv格式/已分类/上海市-1754933-utf8.csv-汽车销售.csv"},"geometry":{"type":"Point","coordinates":[121.47258,31.273096]}},{"id":"2081","type":"Feature","properties":{"id":"3b8bed6d-7e6d-3a2a-8b75-66d94cbc09e5","pname":"上海市","pcode":310000,"cityname":"上海市","citycode":21,"adname":"虹口区","adcode":310109,"name":"瑞兰RELAN","address":"花园路168弄之1-25号花园城2期","location":"121.471940,31.272623","tel":"[]","business_area":"和田","bigType":"汽车销售","midType":"汽车销售","smallType":"汽车销售","typecode":"020000","timestamp":"2024-08-30 12:56:13","tag":"[]","biz_ext":"{'rating': '4.2', 'cost': []}","biz_type":"[]","gcjLng":121.47194,"gcjLat":31.272623,"wgs84Lng":121.467408,"wgs84Lat":31.274542,"__source_file__":"02-POI&AOI/1-POI/其它/24/csv格式/已分类/上海市-1754933-utf8.csv-汽车销售.csv"},"geometry":{"type":"Point","coordinates":[121.467408,31.274542]}},{"id":"1550","type":"Feature","properties":{"id":"dc66c309-60a7-3400-8b9e-7f543938c725","pname":"上海市","pcode":310000,"cityname":"上海市","citycode":21,"adname":"静安区","adcode":310106,"name":"极星(静安嘉里中心店)","address":"南京西路1515号静安嘉里中心南区L1层S1-01A","location":"121.449206,31.223053","tel":"[]","business_area":"曹家渡","bigType":"汽车销售","midType":"汽车销售","smallType":"汽车销售","typecode":"020000","timestamp":"2024-08-31 03:24:10","tag":"[]","biz_ext":"{'rating': '4.2', 'cost': []}","biz_type":"[]","gcjLng":121.449206,"gcjLat":31.223053,"wgs84Lng":121.444613,"wgs84Lat":31.22494,"__source_file__":"02-POI&AOI/1-POI/其它/24/csv格式/已分类/上海市-1754933-utf8.csv-汽车销售.csv"},"geometry":{"type":"Point","coordinates":[121.444613,31.22494]}},{"id":"1546","type":"Feature","properties":{"id":"047564ef-8b33-399c-b84c-62ba36f97dec","pname":"上海市","pcode":310000,"cityname":"上海市","citycode":21,"adname":"静安区","adcode":310106,"name":"Jeep探享中心(常德路店)","address":"愚园路68号晶品广场1层(静安寺地铁站6号口步行230米)","location":"121.447180,31.225449","tel":"021-62163255;13020251706;15921555983","business_area":"曹家渡","bigType":"汽车销售","midType":"克莱斯勒特约销售","smallType":"吉普销售","typecode":"022501","timestamp":"2024-08-29 11:14:16","tag":"[]","biz_ext":"{'rating': '4.4', 'cost': []}","biz_type":"[]","gcjLng":121.44718,"gcjLat":31.225449,"wgs84Lng":121.442582,"wgs84Lat":31.227331,"__source_file__":"02-POI&AOI/1-POI/其它/24/csv格式/已分类/上海市-1754933-utf8.csv-汽车销售.csv"},"geometry":{"type":"Point","coordinates":[121.442582,31.227331]}},{"id":"1544","type":"Feature","properties":{"id":"9e0345b0-303e-346c-9cc5-e337c1cda1d7","pname":"上海市","pcode":310000,"cityname":"上海市","citycode":21,"adname":"静安区","adcode":310106,"name":"JEEP车展厅(晶品购物中心店)","address":"愚园路68号CP静安LG1层","location":"121.447082,31.225456","tel":"[]","business_area":"曹家渡","bigType":"汽车销售","midType":"汽车销售","smallType":"汽车销售","typecode":"020000","timestamp":"2024-08-29 11:14:14","tag":"[]","biz_ext":"{'rating': '3.7', 'cost': []}","biz_type":"[]","gcjLng":121.447082,"gcjLat":31.225456,"wgs84Lng":121.442484,"wgs84Lat":31.227338,"__source_file__":"02-POI&AOI/1-POI/其它/24/csv格式/已分类/上海市-1754933-utf8.csv-汽车销售.csv"},"geometry":{"type":"Point","coordinates":[121.442484,31.227338]}},{"id":"1551","type":"Feature","properties":{"id":"75f0d827-fe1d-300a-8162-66e5903f81f2","pname":"上海市","pcode":310000,"cityname":"上海市","citycode":21,"adname":"静安区","adcode":310106,"name":"大金展示厅(中欣大厦店)","address":"南京西路1468号中欣大厦F2层","location":"121.449751,31.225561","tel":"[]","business_area":"曹家渡","bigType":"汽车销售","midType":"汽车销售","smallType":"汽车销售","typecode":"020000","timestamp":"2024-08-30 20:35:18","tag":"[]","biz_ext":"{'rating': '3.9', 'cost': []}","biz_type":"[]","gcjLng":121.449751,"gcjLat":31.225561,"wgs84Lng":121.445159,"wgs84Lat":31.227448,"__source_file__":"02-POI&AOI/1-POI/其它/24/csv格式/已分类/上海市-1754933-utf8.csv-汽车销售.csv"},"geometry":{"type":"Point","coordinates":[121.445159,31.227448]}},{"id":"1543","type":"Feature","properties":{"id":"2655117c-8129-3e7a-aaf7-5f9d562317c7","pname":"上海市","pcode":310000,"cityname":"上海市","citycode":21,"adname":"静安区","adcode":310106,"name":"jeep晶品店","address":"晶品中心(写字楼)(静安寺地铁站10号口步行300米)","location":"121.446494,31.225642","tel":"[]","business_area":"曹家渡","bigType":"汽车销售","midType":"汽车销售","smallType":"汽车销售","typecode":"020000","timestamp":"2024-08-31 08:24:23","tag":"[]","biz_ext":"{'rating': '3.5', 'cost': []}","biz_type":"[]","gcjLng":121.446494,"gcjLat":31.225642,"wgs84Lng":121.441895,"wgs84Lat":31.227522,"__source_file__":"02-POI&AOI/1-POI/其它/24/csv格式/已分类/上海市-1754933-utf8.csv-汽车销售.csv"},"geometry":{"type":"Point","coordinates":[121.441895,31.227522]}},{"id":"1547","type":"Feature","properties":{"id":"4ae80d97-c669-30ec-93fe-df0a70d277dd","pname":"上海市","pcode":310000,"cityname":"上海市","citycode":21,"adname":"静安区","adcode":310106,"name":"VOYAH","address":"常德路与赵家桥路交叉口南60米","location":"121.447028,31.225895","tel":"[]","business_area":"曹家渡","bigType":"汽车销售","midType":"汽车销售","smallType":"汽车销售","typecode":"020000","timestamp":"2024-08-31 11:01:46","tag":"[]","biz_ext":"{'rating': '3.8', 'cost': []}","biz_type":"[]","gcjLng":121.447028,"gcjLat":31.225895,"wgs84Lng":121.44243,"wgs84Lat":31.227776,"__source_file__":"02-POI&AOI/1-POI/其它/24/csv格式/已分类/上海市-1754933-utf8.csv-汽车销售.csv"},"geometry":{"type":"Point","coordinates":[121.44243,31.227776]}},{"id":"1545","type":"Feature","properties":{"id":"aeea1e34-9dcf-3305-8267-ebf3c93b917a","pname":"上海市","pcode":310000,"cityname":"上海市","citycode":21,"adname":"静安区","adcode":310106,"name":"COYAH(晶品Crystal galleria)","address":"愚园路68号CP静安L1层(静安寺地铁站6号口步行280米)","location":"121.446901,31.225951","tel":"[]","business_area":"曹家渡","bigType":"汽车销售","midType":"汽车销售","smallType":"汽车销售","typecode":"020000","timestamp":"2024-08-29 11:14:13","tag":"[]","biz_ext":"{'rating': '3.5', 'cost': []}","biz_type":"[]","gcjLng":121.446901,"gcjLat":31.225951,"wgs84Lng":121.442303,"wgs84Lat":31.227832,"__source_file__":"02-POI&AOI/1-POI/其它/24/csv格式/已分类/上海市-1754933-utf8.csv-汽车销售.csv"},"geometry":{"type":"Point","coordinates":[121.442303,31.227832]}},{"id":"1548","type":"Feature","properties":{"id":"90cd47dc-d9f5-34fb-9b6a-7a92615a89ef","pname":"上海市","pcode":310000,"cityname":"上海市","citycode":21,"adname":"静安区","adcode":310106,"name":"岚图汽车(上海晶品广场店)","address":"常德路281号晶品CrystalGalleria一层L1-03","location":"121.447008,31.226004","tel":"19921805569","business_area":"曹家渡","bigType":"汽车销售","midType":"汽车销售","smallType":"汽车销售","typecode":"020000","timestamp":"2024-08-29 11:14:16","tag":"[]","biz_ext":"{'rating': '4.1', 'cost': []}","biz_type":"[]","gcjLng":121.447008,"gcjLat":31.226004,"wgs84Lng":121.44241,"wgs84Lat":31.227885,"__source_file__":"02-POI&AOI/1-POI/其它/24/csv格式/已分类/上海市-1754933-utf8.csv-汽车销售.csv"},"geometry":{"type":"Point","coordinates":[121.44241,31.227885]}},{"id":"1549","type":"Feature","properties":{"id":"f72e6fb4-5811-3052-9b88-0284137dd48b","pname":"上海市","pcode":310000,"cityname":"上海市","citycode":21,"adname":"静安区","adcode":310106,"name":"DUFOUR","address":"胶州路与新闸路交叉口西北120米","location":"121.442310,31.228449","tel":"[]","business_area":"曹家渡","bigType":"汽车销售","midType":"汽车销售","smallType":"汽车销售","typecode":"020000","timestamp":"2024-07-04 02:15:18","tag":"[]","biz_ext":"{'rating': '3.8', 'cost': []}","biz_type":"[]","gcjLng":121.44231,"gcjLat":31.228449,"wgs84Lng":121.437701,"wgs84Lat":31.23032,"__source_file__":"02-POI&AOI/1-POI/其它/24/csv格式/已分类/上海市-1754933-utf8.csv-汽车销售.csv"},"geometry":{"type":"Point","coordinates":[121.437701,31.23032]}},{"id":"1776","type":"Feature","properties":{"id":"91caad38-a952-35c0-a3a6-73937c0dba50","pname":"上海市","pcode":310000,"cityname":"上海市","citycode":21,"adname":"黄浦区","adcode":310101,"name":"深圳兴顺店铺(欣广大厦2号楼店)","address":"巨鹿路417号欣广大厦1楼","location":"121.457772,31.221984","tel":"[]","business_area":"淮海路","bigType":"汽车销售","midType":"汽车销售","smallType":"汽车销售","typecode":"020000","timestamp":"2024-06-16 09:23:39","tag":"[]","biz_ext":"{'rating': '3.3', 'cost': []}","biz_type":"[]","gcjLng":121.457772,"gcjLat":31.221984,"wgs84Lng":121.453202,"wgs84Lat":31.22389,"__source_file__":"02-POI&AOI/1-POI/其它/24/csv格式/已分类/上海市-1754933-utf8.csv-汽车销售.csv"},"geometry":{"type":"Point","coordinates":[121.453202,31.22389]}},{"id":"1606","type":"Feature","properties":{"id":"5d8af191-f13c-35dd-8eb4-ccc1d3184b52","pname":"上海市","pcode":310000,"cityname":"上海市","citycode":21,"adname":"静安区","adcode":310106,"name":"五菱宝骏品牌旗舰店(LING HOUSE)(暂停营业)","address":"铜仁路96号(静安寺地铁站6号口步行370米)","location":"121.450916,31.224310","tel":"[]","business_area":"曹家渡","bigType":"汽车销售","midType":"汽车销售","smallType":"汽车销售","typecode":"020000","timestamp":"2024-07-02 20:20:44","tag":"[]","biz_ext":"{'rating': '4.0', 'cost': []}","biz_type":"[]","gcjLng":121.450916,"gcjLat":31.22431,"wgs84Lng":121.446327,"wgs84Lat":31.2262,"__source_file__":"02-POI&AOI/1-POI/其它/24/csv格式/已分类/上海市-1754933-utf8.csv-汽车销售.csv"},"geometry":{"type":"Point","coordinates":[121.446327,31.2262]}},{"id":"1552","type":"Feature","properties":{"id":"a4923b9f-13cc-374d-af56-aa536ce26fd6","pname":"上海市","pcode":310000,"cityname":"上海市","citycode":21,"adname":"静安区","adcode":310106,"name":"北极星动力车辆贸易(上海)有限公司","address":"南京西路1515号静安嘉里中心一座908室","location":"121.450197,31.224541","tel":"[]","business_area":"淮海路","bigType":"汽车销售","midType":"汽车销售","smallType":"汽车销售|汽车维修","typecode":"020000|030000","timestamp":"2024-07-13 23:18:22","tag":"[]","biz_ext":"{'rating': '3.8', 'cost': []}","biz_type":"[]","gcjLng":121.450197,"gcjLat":31.224541,"wgs84Lng":121.445607,"wgs84Lat":31.226429,"__source_file__":"02-POI&AOI/1-POI/其它/24/csv格式/已分类/上海市-1754933-utf8.csv-汽车销售.csv"},"geometry":{"type":"Point","coordinates":[121.445607,31.226429]}},{"id":"1773","type":"Feature","properties":{"id":"dd8d38c9-fffd-3984-bb87-3c570c48a77d","pname":"上海市","pcode":310000,"cityname":"上海市","citycode":21,"adname":"静安区","adcode":310106,"name":"华域汽车","address":"威海路489号","location":"121.462735,31.225905","tel":"021-60595977","business_area":"淮海路","bigType":"汽车销售","midType":"汽车销售","smallType":"汽车销售","typecode":"020000","timestamp":"2024-07-09 09:08:16","tag":"[]","biz_ext":"{'rating': '4.0', 'cost': []}","biz_type":"[]","gcjLng":121.462735,"gcjLat":31.225905,"wgs84Lng":121.458178,"wgs84Lat":31.227821,"__source_file__":"02-POI&AOI/1-POI/其它/24/csv格式/已分类/上海市-1754933-utf8.csv-汽车销售.csv"},"geometry":{"type":"Point","coordinates":[121.458178,31.227821]}},{"id":"1774","type":"Feature","properties":{"id":"9c09b302-2034-34f6-a4be-2fa1c945bb84","pname":"上海市","pcode":310000,"cityname":"上海市","citycode":21,"adname":"静安区","adcode":310106,"name":"上汽奥迪进取汇","address":"威海路459号(南京西路地铁站8号口步行100米)","location":"121.462691,31.226629","tel":"13162332769;13681960417","business_area":"淮海路","bigType":"汽车销售","midType":"奥迪特约销售","smallType":"上汽-大众奥迪销售","typecode":"020300","timestamp":"2024-08-31 03:27:39","tag":"[]","biz_ext":"{'rating': '4.5', 'cost': []}","biz_type":"[]","gcjLng":121.462691,"gcjLat":31.226629,"wgs84Lng":121.458134,"wgs84Lat":31.228544,"__source_file__":"02-POI&AOI/1-POI/其它/24/csv格式/已分类/上海市-1754933-utf8.csv-汽车销售.csv"},"geometry":{"type":"Point","coordinates":[121.458134,31.228544]}},{"id":"1775","type":"Feature","properties":{"id":"7752f209-9b19-3e0e-a621-f9dda9bdea99","pname":"上海市","pcode":310000,"cityname":"上海市","citycode":21,"adname":"静安区","adcode":310106,"name":"蔚来中心(上海兴业太古汇)","address":"石门一路180号兴业太古汇S101蔚来中心","location":"121.462946,31.227689","tel":"021-52905563","business_area":"淮海路","bigType":"汽车销售","midType":"汽车销售","smallType":"汽车销售","typecode":"020000","timestamp":"2024-08-30 13:50:56","tag":"[]","biz_ext":"{'rating': '4.8', 'cost': []}","biz_type":"[]","gcjLng":121.462946,"gcjLat":31.227689,"wgs84Lng":121.45839,"wgs84Lat":31.229605,"__source_file__":"02-POI&AOI/1-POI/其它/24/csv格式/已分类/上海市-1754933-utf8.csv-汽车销售.csv"},"geometry":{"type":"Point","coordinates":[121.45839,31.229605]}},{"id":"1673","type":"Feature","properties":{"id":"2e0a4b1d-c4e2-3e2f-b95d-64b8fe9084c9","pname":"上海市","pcode":310000,"cityname":"上海市","citycode":21,"adname":"静安区","adcode":310106,"name":"智己汽车(中信泰富广场店)","address":"南京西路1168号中信泰富广场LG层","location":"121.455710,31.227938","tel":"021-60193039","business_area":"淮海路","bigType":"汽车销售","midType":"汽车销售","smallType":"汽车销售","typecode":"020000","timestamp":"2024-08-26 06:06:41","tag":"[]","biz_ext":"{'rating': '4.3', 'cost': []}","biz_type":"[]","gcjLng":121.45571,"gcjLat":31.227938,"wgs84Lng":121.451133,"wgs84Lat":31.229836,"__source_file__":"02-POI&AOI/1-POI/其它/24/csv格式/已分类/上海市-1754933-utf8.csv-汽车销售.csv"},"geometry":{"type":"Point","coordinates":[121.451133,31.229836]}},{"id":"1778","type":"Feature","properties":{"id":"24ce7a50-9f35-37ce-8dc2-777e9684a855","pname":"上海市","pcode":310000,"cityname":"上海市","citycode":21,"adname":"静安区","adcode":310106,"name":"特斯拉上海太古汇体验店","address":"石门一路288号兴业太古汇L109单元","location":"121.462557,31.228927","tel":"021-80234090","business_area":"淮海路","bigType":"汽车销售","midType":"汽车销售","smallType":"汽车销售","typecode":"020000","timestamp":"2024-08-30 15:50:13","tag":"[]","biz_ext":"{'rating': '4.9', 'cost': []}","biz_type":"[]","gcjLng":121.462557,"gcjLat":31.228927,"wgs84Lng":121.458,"wgs84Lat":31.230841,"__source_file__":"02-POI&AOI/1-POI/其它/24/csv格式/已分类/上海市-1754933-utf8.csv-汽车销售.csv"},"geometry":{"type":"Point","coordinates":[121.458,31.230841]}},{"id":"1779","type":"Feature","properties":{"id":"871fe927-ef89-3ed9-a3d6-d5e16d422c76","pname":"上海市","pcode":310000,"cityname":"上海市","citycode":21,"adname":"静安区","adcode":310106,"name":"BAO BAO ISSEY MIYAKE(兴业太古汇店)","address":"石门一路288号兴业太古汇L1层(南京西路地铁站5号口旁)","location":"121.462711,31.229851","tel":"[]","business_area":"淮海路","bigType":"汽车销售","midType":"汽车销售","smallType":"汽车销售","typecode":"020000","timestamp":"2024-08-02 15:15:10","tag":"[]","biz_ext":"{'rating': '3.9', 'cost': []}","biz_type":"[]","gcjLng":121.462711,"gcjLat":31.229851,"wgs84Lng":121.458154,"wgs84Lat":31.231765,"__source_file__":"02-POI&AOI/1-POI/其它/24/csv格式/已分类/上海市-1754933-utf8.csv-汽车销售.csv"},"geometry":{"type":"Point","coordinates":[121.458154,31.231765]}},{"id":"1420","type":"Feature","properties":{"id":"0daeb36f-a63c-3048-a264-f1c56c3fd660","pname":"上海市","pcode":310000,"cityname":"上海市","citycode":21,"adname":"静安区","adcode":310106,"name":"上汽直营售后中心","address":"武宁南路与康定路交叉口东南100米","location":"121.434289,31.229667","tel":"[]","business_area":"曹家渡","bigType":"汽车销售","midType":"汽车销售","smallType":"汽车销售","typecode":"020000","timestamp":"2024-04-29 17:13:35","tag":"[]","biz_ext":"{'rating': '3.6', 'cost': []}","biz_type":"[]","gcjLng":121.434289,"gcjLat":31.229667,"wgs84Lng":121.429665,"wgs84Lat":31.231525,"__source_file__":"02-POI&AOI/1-POI/其它/24/csv格式/已分类/上海市-1754933-utf8.csv-汽车销售.csv"},"geometry":{"type":"Point","coordinates":[121.429665,31.231525]}},{"id":"1421","type":"Feature","properties":{"id":"7b6edbb9-ae54-3415-97ee-dd29e4a519a6","pname":"上海市","pcode":310000,"cityname":"上海市","citycode":21,"adname":"静安区","adcode":310106,"name":"上海名流汽车销售服务有限公司","address":"曹家渡街道康定路1171号(武宁南路与康定路交叉口东南角)","location":"121.434502,31.230176","tel":"021-62302733;021-62303030","business_area":"曹家渡","bigType":"汽车销售","midType":"通用特约销售","smallType":"别克销售|汽车维修","typecode":"020402|030502","timestamp":"2024-08-31 03:23:26","tag":"[]","biz_ext":"{'rating': '4.5', 'cost': []}","biz_type":"[]","gcjLng":121.434502,"gcjLat":31.230176,"wgs84Lng":121.429878,"wgs84Lat":31.232034,"__source_file__":"02-POI&AOI/1-POI/其它/24/csv格式/已分类/上海市-1754933-utf8.csv-汽车销售.csv"},"geometry":{"type":"Point","coordinates":[121.429878,31.232034]}},{"id":"1422","type":"Feature","properties":{"id":"2e7e4480-b3dd-3bdd-8dba-c9b5003917a0","pname":"上海市","pcode":310000,"cityname":"上海市","citycode":21,"adname":"静安区","adcode":310106,"name":"上海名流别克(康定店)","address":"康定路1171号(武宁路地铁站5A口步行220米)","location":"121.434028,31.230505","tel":"021-62303030","business_area":"曹家渡","bigType":"汽车销售","midType":"通用特约销售","smallType":"别克销售","typecode":"020402","timestamp":"2024-05-08 10:39:00","tag":"[]","biz_ext":"{'rating': '4.4', 'cost': []}","biz_type":"[]","gcjLng":121.434028,"gcjLat":31.230505,"wgs84Lng":121.429404,"wgs84Lat":31.232362,"__source_file__":"02-POI&AOI/1-POI/其它/24/csv格式/已分类/上海市-1754933-utf8.csv-汽车销售.csv"},"geometry":{"type":"Point","coordinates":[121.429404,31.232362]}},{"id":"1423","type":"Feature","properties":{"id":"bad1b3f3-8e20-3d1f-a25d-e9fbc487e2b0","pname":"上海市","pcode":310000,"cityname":"上海市","citycode":21,"adname":"静安区","adcode":310106,"name":"上海安吉名世汽车服务有限公司","address":"康定路1155号近武宁南路(武宁路地铁站5A口步行270米)","location":"121.434485,31.230615","tel":"021-52690177;021-52816688;021-52836299","business_area":"曹家渡","bigType":"汽车销售","midType":"通用特约销售","smallType":"凯迪拉克销售|汽车维修","typecode":"020401|030501","timestamp":"2024-08-31 03:28:53","tag":"[]","biz_ext":"{'rating': '4.6', 'cost': []}","biz_type":"[]","gcjLng":121.434485,"gcjLat":31.230615,"wgs84Lng":121.429861,"wgs84Lat":31.232473,"__source_file__":"02-POI&AOI/1-POI/其它/24/csv格式/已分类/上海市-1754933-utf8.csv-汽车销售.csv"},"geometry":{"type":"Point","coordinates":[121.429861,31.232473]}},{"id":"1426","type":"Feature","properties":{"id":"12e79d79-3b28-32c8-8cac-b9010da0f630","pname":"上海市","pcode":310000,"cityname":"上海市","citycode":21,"adname":"静安区","adcode":310106,"name":"大众进口汽车上海腾众(静安店)","address":"康定路1155号(武宁路地铁站5A口步行310米)","location":"121.435034,31.230664","tel":"17321171218","business_area":"曹家渡","bigType":"汽车销售","midType":"汽车销售","smallType":"汽车销售","typecode":"020000","timestamp":"2024-08-16 17:42:05","tag":"[]","biz_ext":"{'rating': '4.4', 'cost': []}","biz_type":"[]","gcjLng":121.435034,"gcjLat":31.230664,"wgs84Lng":121.430411,"wgs84Lat":31.232523,"__source_file__":"02-POI&AOI/1-POI/其它/24/csv格式/已分类/上海市-1754933-utf8.csv-汽车销售.csv"},"geometry":{"type":"Point","coordinates":[121.430411,31.232523]}},{"id":"1424","type":"Feature","properties":{"id":"54501855-9164-3cfa-b503-6cf02b99baab","pname":"上海市","pcode":310000,"cityname":"上海市","citycode":21,"adname":"静安区","adcode":310106,"name":"安吉名世展厅康定路店","address":"康定路与武宁南路交叉口东100米","location":"121.434677,31.230734","tel":"[]","business_area":"曹家渡","bigType":"汽车销售","midType":"汽车销售","smallType":"汽车销售","typecode":"020000","timestamp":"2024-07-16 17:56:20","tag":"[]","biz_ext":"{'rating': '3.9', 'cost': []}","biz_type":"[]","gcjLng":121.434677,"gcjLat":31.230734,"wgs84Lng":121.430054,"wgs84Lat":31.232592,"__source_file__":"02-POI&AOI/1-POI/其它/24/csv格式/已分类/上海市-1754933-utf8.csv-汽车销售.csv"},"geometry":{"type":"Point","coordinates":[121.430054,31.232592]}},{"id":"1425","type":"Feature","properties":{"id":"fcb13735-2378-3e38-8088-bbe16d168b6f","pname":"上海市","pcode":310000,"cityname":"上海市","citycode":21,"adname":"静安区","adcode":310106,"name":"上汽通用","address":"武宁南路268-4号附近(武宁路地铁站5A口步行290米)","location":"121.434616,31.230766","tel":"[]","business_area":"曹家渡","bigType":"汽车销售","midType":"汽车销售","smallType":"汽车销售","typecode":"020000","timestamp":"2024-02-11 12:33:26","tag":"[]","biz_ext":"{'rating': '4.1', 'cost': []}","biz_type":"[]","gcjLng":121.434616,"gcjLat":31.230766,"wgs84Lng":121.429993,"wgs84Lat":31.232624,"__source_file__":"02-POI&AOI/1-POI/其它/24/csv格式/已分类/上海市-1754933-utf8.csv-汽车销售.csv"},"geometry":{"type":"Point","coordinates":[121.429993,31.232624]}},{"id":"29","type":"Feature","properties":{"id":"94a528ee-b4da-3d75-9d6b-90581d94e94a","pname":"上海市","pcode":310000,"cityname":"上海市","citycode":21,"adname":"静安区","adcode":310106,"name":"上海虹桥机场自营店","address":"武宁南路488号智慧广场(武宁路地铁站2号口旁)","location":"121.430558,31.233918","tel":"[]","business_area":"曹家渡","bigType":"汽车销售","midType":"汽车销售","smallType":"汽车销售","typecode":"20000","timestamp":"2024-03-27 09:50:06","tag":"[]","biz_ext":"{'rating': '3.3', 'cost': []}","biz_type":"[]","gcjLng":121.430558,"gcjLat":31.233918,"wgs84Lng":121.425928,"wgs84Lat":31.235769,"__source_file__":"02-POI&AOI/1-POI/其它/24/csv格式/已分类/上海市-1754933-utf8.csv-汽车销售.csv"},"geometry":{"type":"Point","coordinates":[121.425928,31.235769]}},{"id":"1781","type":"Feature","properties":{"id":"d1d99265-c2c8-3fb4-983c-4661aa163c41","pname":"上海市","pcode":310000,"cityname":"上海市","citycode":21,"adname":"静安区","adcode":310106,"name":"SERES","address":"吴江路与南京西路交叉口西南100米","location":"121.463256,31.230465","tel":"[]","business_area":"淮海路","bigType":"汽车销售","midType":"汽车销售","smallType":"汽车销售|汽车维修","typecode":"020000|030000","timestamp":"2024-01-26 21:55:01","tag":"[]","biz_ext":"{'rating': '3.8', 'cost': []}","biz_type":"[]","gcjLng":121.463256,"gcjLat":31.230465,"wgs84Lng":121.4587,"wgs84Lat":31.23238,"__source_file__":"02-POI&AOI/1-POI/其它/24/csv格式/已分类/上海市-1754933-utf8.csv-汽车销售.csv"},"geometry":{"type":"Point","coordinates":[121.4587,31.23238]}},{"id":"1782","type":"Feature","properties":{"id":"517bdca1-2398-30d2-8ab1-50ee44955f79","pname":"上海市","pcode":310000,"cityname":"上海市","citycode":21,"adname":"静安区","adcode":310106,"name":"阿维塔体验中心(上海南京西路店)","address":"南京西路699号102-103室阿维塔汽车","location":"121.463317,31.230545","tel":"13661481313","business_area":"淮海路","bigType":"汽车销售","midType":"汽车销售","smallType":"汽车销售","typecode":"020000","timestamp":"2024-08-30 15:44:11","tag":"[]","biz_ext":"{'rating': '4.6', 'cost': []}","biz_type":"[]","gcjLng":121.463317,"gcjLat":31.230545,"wgs84Lng":121.458762,"wgs84Lat":31.23246,"__source_file__":"02-POI&AOI/1-POI/其它/24/csv格式/已分类/上海市-1754933-utf8.csv-汽车销售.csv"},"geometry":{"type":"Point","coordinates":[121.458762,31.23246]}},{"id":"1780","type":"Feature","properties":{"id":"62a6fa65-9400-3f69-8f82-45e8f97727f5","pname":"上海市","pcode":310000,"cityname":"上海市","citycode":21,"adname":"静安区","adcode":310106,"name":"小鹏汽车上海南京西路旗舰体验中心","address":"南京西路762号汇银大厦1层C单元","location":"121.462891,31.231085","tel":"13661618514","business_area":"淮海路","bigType":"汽车销售","midType":"汽车销售","smallType":"汽车销售|汽车维修","typecode":"020000|030000","timestamp":"2024-08-30 15:50:41","tag":"[]","biz_ext":"{'rating': '4.5', 'cost': []}","biz_type":"[]","gcjLng":121.462891,"gcjLat":31.231085,"wgs84Lng":121.458334,"wgs84Lat":31.232999,"__source_file__":"02-POI&AOI/1-POI/其它/24/csv格式/已分类/上海市-1754933-utf8.csv-汽车销售.csv"},"geometry":{"type":"Point","coordinates":[121.458334,31.232999]}},{"id":"1675","type":"Feature","properties":{"id":"61b5fbee-f773-3343-a962-40c3184a9bb1","pname":"上海市","pcode":310000,"cityname":"上海市","citycode":21,"adname":"静安区","adcode":310106,"name":"宾利上海大昌行城市展厅","address":"北京西路833号(南京西路地铁站1号口步行230米)","location":"121.458601,31.231352","tel":"[]","business_area":"淮海路","bigType":"汽车销售","midType":"汽车销售","smallType":"汽车销售","typecode":"020000","timestamp":"2024-02-10 10:45:56","tag":"[]","biz_ext":"{'rating': '3.6', 'cost': []}","biz_type":"[]","gcjLng":121.458601,"gcjLat":31.231352,"wgs84Lng":121.454032,"wgs84Lat":31.233256,"__source_file__":"02-POI&AOI/1-POI/其它/24/csv格式/已分类/上海市-1754933-utf8.csv-汽车销售.csv"},"geometry":{"type":"Point","coordinates":[121.454032,31.233256]}},{"id":"1674","type":"Feature","properties":{"id":"dd88cce1-57b8-38d5-b901-a95776458d6d","pname":"上海市","pcode":310000,"cityname":"上海市","citycode":21,"adname":"静安区","adcode":310106,"name":"BENTLEY(京泰楼店)","address":"北京西路833号京泰楼F1层","location":"121.458592,31.231359","tel":"[]","business_area":"淮海路","bigType":"汽车销售","midType":"大众特约销售","smallType":"宾利销售","typecode":"020000","timestamp":"2024-07-20 07:19:24","tag":"[]","biz_ext":"{'rating': '3.9', 'cost': []}","biz_type":"[]","gcjLng":121.458592,"gcjLat":31.231359,"wgs84Lng":121.454023,"wgs84Lat":31.233262,"__source_file__":"02-POI&AOI/1-POI/其它/24/csv格式/已分类/上海市-1754933-utf8.csv-汽车销售.csv"},"geometry":{"type":"Point","coordinates":[121.454023,31.233262]}},{"id":"1676","type":"Feature","properties":{"id":"2e8cde4e-4d8e-3ae6-8215-50d19b5e4d96","pname":"上海市","pcode":310000,"cityname":"上海市","citycode":21,"adname":"静安区","adcode":310106,"name":"宾利上海-静安","address":"北京西路833-839号(南京西路地铁站1号口步行190米)","location":"121.458850,31.231405","tel":"021-60651133;021-62539728","business_area":"淮海路","bigType":"汽车销售","midType":"大众特约销售","smallType":"宾利销售|汽车维修","typecode":"020105|030000","timestamp":"2024-08-31 03:22:37","tag":"[]","biz_ext":"{'rating': '4.4', 'cost': []}","biz_type":"[]","gcjLng":121.45885,"gcjLat":31.231405,"wgs84Lng":121.454282,"wgs84Lat":31.233309,"__source_file__":"02-POI&AOI/1-POI/其它/24/csv格式/已分类/上海市-1754933-utf8.csv-汽车销售.csv"},"geometry":{"type":"Point","coordinates":[121.454282,31.233309]}},{"id":"1680","type":"Feature","properties":{"id":"e2f5cc6f-3fe1-35e1-bfa3-69f65aa71431","pname":"上海市","pcode":310000,"cityname":"上海市","citycode":21,"adname":"静安区","adcode":310106,"name":"宁埃美柯专卖店","address":"光复路867号(汉中路地铁站10号口步行410米)","location":"121.456963,31.238617","tel":"[]","business_area":"[]","bigType":"汽车销售","midType":"汽车销售","smallType":"汽车销售","typecode":"020000","timestamp":"2024-07-13 11:50:30","tag":"[]","biz_ext":"{'rating': '3.3', 'cost': []}","biz_type":"[]","gcjLng":121.456963,"gcjLat":31.238617,"wgs84Lng":121.452389,"wgs84Lat":31.240513,"__source_file__":"02-POI&AOI/1-POI/其它/24/csv格式/已分类/上海市-1754933-utf8.csv-汽车销售.csv"},"geometry":{"type":"Point","coordinates":[121.452389,31.240513]}},{"id":"1679","type":"Feature","properties":{"id":"73b2c30a-aa61-3920-841c-cc7a0bbca7f3","pname":"上海市","pcode":310000,"cityname":"上海市","citycode":21,"adname":"静安区","adcode":310106,"name":"澳源优驰UNICHI","address":"恒通路268号凯德星贸大厦2楼(汉中路地铁站10号口旁)","location":"121.458437,31.240902","tel":"[]","business_area":"[]","bigType":"汽车销售","midType":"汽车销售","smallType":"汽车销售","typecode":"020000","timestamp":"2024-08-09 06:50:16","tag":"[]","biz_ext":"{'rating': '3.6', 'cost': []}","biz_type":"[]","gcjLng":121.458437,"gcjLat":31.240902,"wgs84Lng":121.453867,"wgs84Lat":31.242801,"__source_file__":"02-POI&AOI/1-POI/其它/24/csv格式/已分类/上海市-1754933-utf8.csv-汽车销售.csv"},"geometry":{"type":"Point","coordinates":[121.453867,31.242801]}},{"id":"1678","type":"Feature","properties":{"id":"f030e9e6-bf79-3749-9ffa-4729f2422221","pname":"上海市","pcode":310000,"cityname":"上海市","citycode":21,"adname":"静安区","adcode":310106,"name":"联隆魏牌&坦克","address":"恒通路268号凯德星贸大厦19号楼","location":"121.457911,31.241069","tel":"[]","business_area":"[]","bigType":"汽车销售","midType":"汽车销售","smallType":"汽车销售","typecode":"020000","timestamp":"2024-05-14 11:10:44","tag":"[]","biz_ext":"{'rating': '4.0', 'cost': []}","biz_type":"[]","gcjLng":121.457911,"gcjLat":31.241069,"wgs84Lng":121.453339,"wgs84Lat":31.242966,"__source_file__":"02-POI&AOI/1-POI/其它/24/csv格式/已分类/上海市-1754933-utf8.csv-汽车销售.csv"},"geometry":{"type":"Point","coordinates":[121.453339,31.242966]}},{"id":"1677","type":"Feature","properties":{"id":"1b50ab50-d9a8-3d10-a1da-08fd3257f3d8","pname":"上海市","pcode":310000,"cityname":"上海市","citycode":21,"adname":"静安区","adcode":310106,"name":"静安悦展厅","address":"裕通路89号静安国际中心B座601","location":"121.453580,31.243012","tel":"[]","business_area":"[]","bigType":"汽车销售","midType":"汽车销售","smallType":"汽车销售","typecode":"020000","timestamp":"2024-08-09 12:15:22","tag":"[]","biz_ext":"{'rating': '3.6', 'cost': []}","biz_type":"[]","gcjLng":121.45358,"gcjLat":31.243012,"wgs84Lng":121.448997,"wgs84Lat":31.244899,"__source_file__":"02-POI&AOI/1-POI/其它/24/csv格式/已分类/上海市-1754933-utf8.csv-汽车销售.csv"},"geometry":{"type":"Point","coordinates":[121.448997,31.244899]}},{"id":"1427","type":"Feature","properties":{"id":"e33fb006-f100-3a2d-9c07-01ba66941a85","pname":"上海市","pcode":310000,"cityname":"上海市","citycode":21,"adname":"普陀区","adcode":310107,"name":"上海弘兆汽车销售服务有限公司","address":"中山北路2020中星经贸大厦9层","location":"121.431509,31.248343","tel":"021-52902376;021-52910538","business_area":"光新","bigType":"汽车销售","midType":"汽车销售","smallType":"汽车销售","typecode":"020000","timestamp":"2024-01-18 03:02:04","tag":"[]","biz_ext":"{'rating': '3.4', 'cost': []}","biz_type":"[]","gcjLng":121.431509,"gcjLat":31.248343,"wgs84Lng":121.426879,"wgs84Lat":31.250189,"__source_file__":"02-POI&AOI/1-POI/其它/24/csv格式/已分类/上海市-1754933-utf8.csv-汽车销售.csv"},"geometry":{"type":"Point","coordinates":[121.426879,31.250189]}},{"id":"1558","type":"Feature","properties":{"id":"3f6d7922-8fef-34b8-8291-d8e71377f11e","pname":"上海市","pcode":310000,"cityname":"上海市","citycode":21,"adname":"普陀区","adcode":310107,"name":"管家式汽车服务","address":"知美居西侧110米","location":"121.447565,31.248379","tel":"13127833333","business_area":"光新","bigType":"汽车销售","midType":"汽车销售","smallType":"汽车销售","typecode":"020000","timestamp":"2024-07-17 12:52:31","tag":"[]","biz_ext":"{'rating': '3.7', 'cost': []}","biz_type":"[]","gcjLng":121.447565,"gcjLat":31.248379,"wgs84Lng":121.442966,"wgs84Lat":31.250251,"__source_file__":"02-POI&AOI/1-POI/其它/24/csv格式/已分类/上海市-1754933-utf8.csv-汽车销售.csv"},"geometry":{"type":"Point","coordinates":[121.442966,31.250251]}},{"id":"1553","type":"Feature","properties":{"id":"2d657f37-50b0-369a-ac89-0d2774ddb9ab","pname":"上海市","pcode":310000,"cityname":"上海市","citycode":21,"adname":"普陀区","adcode":310107,"name":"NIO(大洋晶典·天安千树1期店)","address":"昌化路与莫干山路交叉口东北40米","location":"121.444399,31.248795","tel":"[]","business_area":"光新","bigType":"汽车销售","midType":"汽车销售","smallType":"汽车销售","typecode":"020000","timestamp":"2024-08-02 20:17:37","tag":"[]","biz_ext":"{'rating': '3.7', 'cost': []}","biz_type":"[]","gcjLng":121.444399,"gcjLat":31.248795,"wgs84Lng":121.439793,"wgs84Lat":31.250661,"__source_file__":"02-POI&AOI/1-POI/其它/24/csv格式/已分类/上海市-1754933-utf8.csv-汽车销售.csv"},"geometry":{"type":"Point","coordinates":[121.439793,31.250661]}},{"id":"1556","type":"Feature","properties":{"id":"83ea8a9a-acfd-3299-912e-2e436612c016","pname":"上海市","pcode":310000,"cityname":"上海市","citycode":21,"adname":"普陀区","adcode":310107,"name":"蔚来空间(上海天安千树)","address":"莫干山路600号天安千树W-L13店铺","location":"121.446283,31.248996","tel":"[]","business_area":"光新","bigType":"汽车销售","midType":"汽车销售","smallType":"汽车销售","typecode":"020000","timestamp":"2024-08-29 16:33:52","tag":"[]","biz_ext":"{'rating': '4.4', 'cost': []}","biz_type":"[]","gcjLng":121.446283,"gcjLat":31.248996,"wgs84Lng":121.441681,"wgs84Lat":31.250865,"__source_file__":"02-POI&AOI/1-POI/其它/24/csv格式/已分类/上海市-1754933-utf8.csv-汽车销售.csv"},"geometry":{"type":"Point","coordinates":[121.441681,31.250865]}},{"id":"1557","type":"Feature","properties":{"id":"445c2341-4bf2-303f-a494-912718ad4acb","pname":"上海市","pcode":310000,"cityname":"上海市","citycode":21,"adname":"普陀区","adcode":310107,"name":"智己汽车(大洋晶典·天安千树店)","address":"莫干山路600号","location":"121.446550,31.249037","tel":"[]","business_area":"光新","bigType":"汽车销售","midType":"汽车销售","smallType":"汽车销售","typecode":"020000","timestamp":"2024-08-22 05:10:12","tag":"[]","biz_ext":"{'rating': '4.2', 'cost': []}","biz_type":"[]","gcjLng":121.44655,"gcjLat":31.249037,"wgs84Lng":121.441949,"wgs84Lat":31.250907,"__source_file__":"02-POI&AOI/1-POI/其它/24/csv格式/已分类/上海市-1754933-utf8.csv-汽车销售.csv"},"geometry":{"type":"Point","coordinates":[121.441949,31.250907]}},{"id":"1555","type":"Feature","properties":{"id":"e9b02efe-adb7-3737-95a5-add12938a696","pname":"上海市","pcode":310000,"cityname":"上海市","citycode":21,"adname":"普陀区","adcode":310107,"name":"腾势汽车(上海天安千树腾势体验店)","address":"莫干山路600号L1F-12单元","location":"121.446125,31.249043","tel":"13166268957","business_area":"光新","bigType":"汽车销售","midType":"汽车销售","smallType":"汽车销售","typecode":"020000","timestamp":"2024-08-31 03:35:27","tag":"[]","biz_ext":"{'rating': '4.1', 'cost': []}","biz_type":"[]","gcjLng":121.446125,"gcjLat":31.249043,"wgs84Lng":121.441523,"wgs84Lat":31.250912,"__source_file__":"02-POI&AOI/1-POI/其它/24/csv格式/已分类/上海市-1754933-utf8.csv-汽车销售.csv"},"geometry":{"type":"Point","coordinates":[121.441523,31.250912]}},{"id":"1554","type":"Feature","properties":{"id":"8a96fe44-5fa7-3750-8dff-12173b77179e","pname":"上海市","pcode":310000,"cityname":"上海市","citycode":21,"adname":"普陀区","adcode":310107,"name":"smart汽车上海天安千树店展厅","address":"莫干山路600号W-L10A商铺","location":"121.445459,31.249177","tel":"13806522305","business_area":"光新","bigType":"汽车销售","midType":"梅赛德斯-奔驰特约销售","smallType":"精灵销售","typecode":"020905","timestamp":"2024-08-23 15:15:14","tag":"[]","biz_ext":"{'rating': '3.9', 'cost': []}","biz_type":"[]","gcjLng":121.445459,"gcjLat":31.249177,"wgs84Lng":121.440855,"wgs84Lat":31.251045,"__source_file__":"02-POI&AOI/1-POI/其它/24/csv格式/已分类/上海市-1754933-utf8.csv-汽车销售.csv"},"geometry":{"type":"Point","coordinates":[121.440855,31.251045]}},{"id":"1428","type":"Feature","properties":{"id":"5eb52b7a-3a9c-3c60-af5a-5f42784c2239","pname":"上海市","pcode":310000,"cityname":"上海市","citycode":21,"adname":"普陀区","adcode":310107,"name":"上海电宙汽车服务有限公司","address":"志丹路176-178号附近","location":"121.431274,31.261494","tel":"021-56302300","business_area":"光新","bigType":"汽车销售","midType":"汽车销售","smallType":"汽车销售","typecode":"020000","timestamp":"2024-04-18 20:38:52","tag":"[]","biz_ext":"{'rating': '3.8', 'cost': []}","biz_type":"[]","gcjLng":121.431274,"gcjLat":31.261494,"wgs84Lng":121.426642,"wgs84Lat":31.263334,"__source_file__":"02-POI&AOI/1-POI/其它/24/csv格式/已分类/上海市-1754933-utf8.csv-汽车销售.csv"},"geometry":{"type":"Point","coordinates":[121.426642,31.263334]}},{"id":"1564","type":"Feature","properties":{"id":"e5a8407b-61d6-36b8-877e-2f15fa6298d7","pname":"上海市","pcode":310000,"cityname":"上海市","citycode":21,"adname":"静安区","adcode":310106,"name":"申创公司","address":"沪太路671号上纺物业名仕街创意园区B2号楼301","location":"121.448878,31.262709","tel":"[]","business_area":"和田","bigType":"汽车销售","midType":"汽车销售","smallType":"汽车销售","typecode":"020000","timestamp":"2024-07-12 04:01:27","tag":"[]","biz_ext":"{'rating': '3.2', 'cost': []}","biz_type":"[]","gcjLng":121.448878,"gcjLat":31.262709,"wgs84Lng":121.444281,"wgs84Lat":31.264577,"__source_file__":"02-POI&AOI/1-POI/其它/24/csv格式/已分类/上海市-1754933-utf8.csv-汽车销售.csv"},"geometry":{"type":"Point","coordinates":[121.444281,31.264577]}},{"id":"1559","type":"Feature","properties":{"id":"fee07703-9c08-3e0f-aa49-7351be9d07aa","pname":"上海市","pcode":310000,"cityname":"上海市","citycode":21,"adname":"普陀区","adcode":310107,"name":"BUICK(大宁绿地商业街店)","address":"沪太路沪太路788弄16号","location":"121.443543,31.266021","tel":"[]","business_area":"大宁路","bigType":"汽车销售","midType":"通用特约销售","smallType":"别克销售","typecode":"020402","timestamp":"2024-08-22 03:17:16","tag":"[]","biz_ext":"{'rating': [], 'cost': []}","biz_type":"[]","gcjLng":121.443543,"gcjLat":31.266021,"wgs84Lng":121.438934,"wgs84Lat":31.267878,"__source_file__":"02-POI&AOI/1-POI/其它/24/csv格式/已分类/上海市-1754933-utf8.csv-汽车销售.csv"},"geometry":{"type":"Point","coordinates":[121.438934,31.267878]}},{"id":"1608","type":"Feature","properties":{"id":"aea703f1-a46f-3cd9-954a-c899c8b40606","pname":"上海市","pcode":310000,"cityname":"上海市","citycode":21,"adname":"静安区","adcode":310106,"name":"静安环智国际中心店","address":"裕通路与恒丰路交叉口西南100米","location":"121.453853,31.243751","tel":"[]","business_area":"[]","bigType":"汽车销售","midType":"汽车销售","smallType":"汽车销售","typecode":"020000","timestamp":"2024-08-31 08:28:31","tag":"[]","biz_ext":"{'rating': '3.4', 'cost': []}","biz_type":"[]","gcjLng":121.453853,"gcjLat":31.243751,"wgs84Lng":121.44927,"wgs84Lat":31.245638,"__source_file__":"02-POI&AOI/1-POI/其它/24/csv格式/已分类/上海市-1754933-utf8.csv-汽车销售.csv"},"geometry":{"type":"Point","coordinates":[121.44927,31.245638]}},{"id":"1607","type":"Feature","properties":{"id":"720c4f6d-f0f5-347e-b0f4-dc801f26da6e","pname":"上海市","pcode":310000,"cityname":"上海市","citycode":21,"adname":"静安区","adcode":310106,"name":"长安大厦专卖店","address":"天目西路与长安路交叉口东80米","location":"121.452402,31.245417","tel":"[]","business_area":"[]","bigType":"汽车销售","midType":"汽车销售","smallType":"汽车销售","typecode":"020000","timestamp":"2024-07-30 02:49:01","tag":"[]","biz_ext":"{'rating': '3.4', 'cost': []}","biz_type":"[]","gcjLng":121.452402,"gcjLat":31.245417,"wgs84Lng":121.447815,"wgs84Lat":31.2473,"__source_file__":"02-POI&AOI/1-POI/其它/24/csv格式/已分类/上海市-1754933-utf8.csv-汽车销售.csv"},"geometry":{"type":"Point","coordinates":[121.447815,31.2473]}},{"id":"1791","type":"Feature","properties":{"id":"9c052c43-6f21-3391-adc7-5b00c0082e95","pname":"上海市","pcode":310000,"cityname":"上海市","citycode":21,"adname":"静安区","adcode":310106,"name":"泰国突突车UrbanTukTuk(静安镇店)","address":"大统路988号B幢205、206、207室","location":"121.459068,31.255579","tel":"13761029183;15921798151","business_area":"宝山路","bigType":"汽车销售","midType":"汽车销售","smallType":"汽车销售","typecode":"020000","timestamp":"2024-07-30 03:24:38","tag":"[]","biz_ext":"{'rating': '3.7', 'cost': []}","biz_type":"[]","gcjLng":121.459068,"gcjLat":31.255579,"wgs84Lng":121.454498,"wgs84Lat":31.257473,"__source_file__":"02-POI&AOI/1-POI/其它/24/csv格式/已分类/上海市-1754933-utf8.csv-汽车销售.csv"},"geometry":{"type":"Point","coordinates":[121.454498,31.257473]}},{"id":"1792","type":"Feature","properties":{"id":"0b0eeb1f-3f8d-3a02-9bfc-576ce2bef61f","pname":"上海市","pcode":310000,"cityname":"上海市","citycode":21,"adname":"静安区","adcode":310106,"name":"欧通","address":"现代交通商务区西南门北120米","location":"121.459750,31.264583","tel":"[]","business_area":"和田","bigType":"汽车销售","midType":"汽车销售","smallType":"汽车销售","typecode":"020000","timestamp":"2024-04-09 09:41:22","tag":"[]","biz_ext":"{'rating': '1.2', 'cost': []}","biz_type":"[]","gcjLng":121.45975,"gcjLat":31.264583,"wgs84Lng":121.455181,"wgs84Lat":31.266474,"__source_file__":"02-POI&AOI/1-POI/其它/24/csv格式/已分类/上海市-1754933-utf8.csv-汽车销售.csv"},"geometry":{"type":"Point","coordinates":[121.455181,31.266474]}},{"id":"1685","type":"Feature","properties":{"id":"caf5a898-648d-3c01-a069-6c369c5460cc","pname":"上海市","pcode":310000,"cityname":"上海市","citycode":21,"adname":"静安区","adcode":310106,"name":"上海极氪汽车销售服务有限公司","address":"商场南路与共和新路辅路交叉口西80米","location":"121.453380,31.273325","tel":"[]","business_area":"大宁路","bigType":"汽车销售","midType":"汽车销售","smallType":"汽车销售","typecode":"020000","timestamp":"2024-07-09 09:08:29","tag":"[]","biz_ext":"{'rating': '3.4', 'cost': []}","biz_type":"[]","gcjLng":121.45338,"gcjLat":31.273325,"wgs84Lng":121.448793,"wgs84Lat":31.275198,"__source_file__":"02-POI&AOI/1-POI/其它/24/csv格式/已分类/上海市-1754933-utf8.csv-汽车销售.csv"},"geometry":{"type":"Point","coordinates":[121.448793,31.275198]}},{"id":"1683","type":"Feature","properties":{"id":"c2ba7ae2-7f03-3b83-975a-c0ccfcd7d404","pname":"上海市","pcode":310000,"cityname":"上海市","citycode":21,"adname":"静安区","adcode":310106,"name":"极氪空间(上海大宁国际)","address":"共和新路1868号大宁国际商业广场103","location":"121.453465,31.273489","tel":"18667080805","business_area":"大宁路","bigType":"汽车销售","midType":"汽车销售","smallType":"汽车销售","typecode":"020000","timestamp":"2024-08-30 15:49:00","tag":"[]","biz_ext":"{'rating': '4.5', 'cost': []}","biz_type":"[]","gcjLng":121.453465,"gcjLat":31.273489,"wgs84Lng":121.448879,"wgs84Lat":31.275362,"__source_file__":"02-POI&AOI/1-POI/其它/24/csv格式/已分类/上海市-1754933-utf8.csv-汽车销售.csv"},"geometry":{"type":"Point","coordinates":[121.448879,31.275362]}},{"id":"1684","type":"Feature","properties":{"id":"67ac6b95-b5c2-3c07-a98d-94fb889adfbd","pname":"上海市","pcode":310000,"cityname":"上海市","citycode":21,"adname":"静安区","adcode":310106,"name":"极越汽车(上海大宁国际体验店)","address":"共和新路1878大宁国际商业广场P1层","location":"121.453157,31.273623","tel":"021-38278834","business_area":"大宁路","bigType":"汽车销售","midType":"汽车销售","smallType":"汽车销售","typecode":"020000","timestamp":"2024-08-30 15:43:51","tag":"[]","biz_ext":"{'rating': '4.3', 'cost': []}","biz_type":"[]","gcjLng":121.453157,"gcjLat":31.273623,"wgs84Lng":121.44857,"wgs84Lat":31.275496,"__source_file__":"02-POI&AOI/1-POI/其它/24/csv格式/已分类/上海市-1754933-utf8.csv-汽车销售.csv"},"geometry":{"type":"Point","coordinates":[121.44857,31.275496]}},{"id":"1681","type":"Feature","properties":{"id":"d0a3881e-1625-3110-a781-ab9568503c74","pname":"上海市","pcode":310000,"cityname":"上海市","citycode":21,"adname":"静安区","adcode":310106,"name":"AVATR(大宁国际商业广场店)","address":"共和新路1878大宁国际商业广场F1层","location":"121.453364,31.273710","tel":"[]","business_area":"大宁路","bigType":"汽车销售","midType":"汽车销售","smallType":"汽车销售","typecode":"020000","timestamp":"2024-08-02 20:17:39","tag":"[]","biz_ext":"{'rating': '3.9', 'cost': []}","biz_type":"[]","gcjLng":121.453364,"gcjLat":31.27371,"wgs84Lng":121.448777,"wgs84Lat":31.275583,"__source_file__":"02-POI&AOI/1-POI/其它/24/csv格式/已分类/上海市-1754933-utf8.csv-汽车销售.csv"},"geometry":{"type":"Point","coordinates":[121.448777,31.275583]}},{"id":"1682","type":"Feature","properties":{"id":"b3c62934-d5b5-352e-bcd4-5a05e309bd31","pname":"上海市","pcode":310000,"cityname":"上海市","citycode":21,"adname":"静安区","adcode":310106,"name":"阿维塔体验中心(上海大宁国际店)","address":"共和新路1878-2008号5座1F102","location":"121.453270,31.273742","tel":"18736057363","business_area":"大宁路","bigType":"汽车销售","midType":"汽车销售","smallType":"汽车销售","typecode":"020000","timestamp":"2024-08-30 15:44:11","tag":"[]","biz_ext":"{'rating': '4.1', 'cost': []}","biz_type":"[]","gcjLng":121.45327,"gcjLat":31.273742,"wgs84Lng":121.448683,"wgs84Lat":31.275615,"__source_file__":"02-POI&AOI/1-POI/其它/24/csv格式/已分类/上海市-1754933-utf8.csv-汽车销售.csv"},"geometry":{"type":"Point","coordinates":[121.448683,31.275615]}},{"id":"1691","type":"Feature","properties":{"id":"5dda3b49-2160-36e4-a75a-b50a5f5e8d47","pname":"上海市","pcode":310000,"cityname":"上海市","citycode":21,"adname":"静安区","adcode":310106,"name":"上海静安大宁国际店","address":"共和新路1878大宁国际商业广场F1层","location":"121.452384,31.273763","tel":"[]","business_area":"大宁路","bigType":"汽车销售","midType":"汽车销售","smallType":"汽车销售","typecode":"020000","timestamp":"2024-07-13 09:00:15","tag":"[]","biz_ext":"{'rating': '3.8', 'cost': []}","biz_type":"[]","gcjLng":121.452384,"gcjLat":31.273763,"wgs84Lng":121.447795,"wgs84Lat":31.275634,"__source_file__":"02-POI&AOI/1-POI/其它/24/csv格式/已分类/上海市-1754933-utf8.csv-汽车销售.csv"},"geometry":{"type":"Point","coordinates":[121.447795,31.275634]}},{"id":"1560","type":"Feature","properties":{"id":"8da5f11d-419d-3e92-a06a-64b9a3089ebc","pname":"上海市","pcode":310000,"cityname":"上海市","citycode":21,"adname":"普陀区","adcode":310107,"name":"通用授权五星级4s店","address":"沪太路沪太路788弄16号","location":"121.443550,31.266053","tel":"[]","business_area":"大宁路","bigType":"汽车销售","midType":"汽车销售","smallType":"汽车销售","typecode":"020000","timestamp":"2024-07-03 16:12:02","tag":"[]","biz_ext":"{'rating': '3.7', 'cost': []}","biz_type":"[]","gcjLng":121.44355,"gcjLat":31.266053,"wgs84Lng":121.438941,"wgs84Lat":31.26791,"__source_file__":"02-POI&AOI/1-POI/其它/24/csv格式/已分类/上海市-1754933-utf8.csv-汽车销售.csv"},"geometry":{"type":"Point","coordinates":[121.438941,31.26791]}},{"id":"1563","type":"Feature","properties":{"id":"38e932a0-e773-3bee-8121-3473e0b2772e","pname":"上海市","pcode":310000,"cityname":"上海市","citycode":21,"adname":"普陀区","adcode":310107,"name":"上海强生汽车贸易有限公司","address":"沪太路800号","location":"121.442812,31.266474","tel":"021-56066575;021-56076575;4008201111","business_area":"大宁路","bigType":"汽车销售","midType":"大众特约销售","smallType":"上海大众销售|汽车维修","typecode":"020101|030201","timestamp":"2024-08-19 05:34:35","tag":"[]","biz_ext":"{'rating': '4.4', 'cost': []}","biz_type":"[]","gcjLng":121.442812,"gcjLat":31.266474,"wgs84Lng":121.438201,"wgs84Lat":31.268329,"__source_file__":"02-POI&AOI/1-POI/其它/24/csv格式/已分类/上海市-1754933-utf8.csv-汽车销售.csv"},"geometry":{"type":"Point","coordinates":[121.438201,31.268329]}},{"id":"1561","type":"Feature","properties":{"id":"e3bc166c-4993-3a70-851e-ccf4d6c3f56b","pname":"上海市","pcode":310000,"cityname":"上海市","citycode":21,"adname":"普陀区","adcode":310107,"name":"上海宝诚悦鑫宝马4S店(沪太路店)","address":"沪太路800号1幢","location":"121.443179,31.266529","tel":"021-61226789","business_area":"大宁路","bigType":"汽车销售","midType":"宝马特约销售","smallType":"宝马销售|汽车维修","typecode":"020600|030000","timestamp":"2024-08-31 03:28:12","tag":"[]","biz_ext":"{'rating': '4.4', 'cost': []}","biz_type":"[]","gcjLng":121.443179,"gcjLat":31.266529,"wgs84Lng":121.438569,"wgs84Lat":31.268385,"__source_file__":"02-POI&AOI/1-POI/其它/24/csv格式/已分类/上海市-1754933-utf8.csv-汽车销售.csv"},"geometry":{"type":"Point","coordinates":[121.438569,31.268385]}},{"id":"1562","type":"Feature","properties":{"id":"ca17eaf0-8a14-3ce2-9eda-6727172f4b64","pname":"上海市","pcode":310000,"cityname":"上海市","citycode":21,"adname":"普陀区","adcode":310107,"name":"宝诚沪太店","address":"沪太路与延长西路交叉口西北140米","location":"121.443128,31.266538","tel":"021-61226789","business_area":"大宁路","bigType":"汽车销售","midType":"宝马特约销售","smallType":"宝马销售|汽车维修","typecode":"020600|030000","timestamp":"2024-08-31 01:41:15","tag":"[]","biz_ext":"{'rating': '3.6', 'cost': []}","biz_type":"[]","gcjLng":121.443128,"gcjLat":31.266538,"wgs84Lng":121.438518,"wgs84Lat":31.268394,"__source_file__":"02-POI&AOI/1-POI/其它/24/csv格式/已分类/上海市-1754933-utf8.csv-汽车销售.csv"},"geometry":{"type":"Point","coordinates":[121.438518,31.268394]}},{"id":"1686","type":"Feature","properties":{"id":"1829106d-6201-35a8-99f3-a1399c014264","pname":"上海市","pcode":310000,"cityname":"上海市","citycode":21,"adname":"静安区","adcode":310106,"name":"理想汽车上海大宁国际零售中心","address":"大宁国际商业广场共和新路1978号9座一楼理想汽车(蓝蛙餐厅对面)","location":"121.452360,31.274392","tel":"13248023323","business_area":"大宁路","bigType":"汽车销售","midType":"汽车销售","smallType":"汽车销售","typecode":"020000","timestamp":"2024-08-30 15:47:16","tag":"[]","biz_ext":"{'rating': '4.2', 'cost': []}","biz_type":"[]","gcjLng":121.45236,"gcjLat":31.274392,"wgs84Lng":121.447771,"wgs84Lat":31.276263,"__source_file__":"02-POI&AOI/1-POI/其它/24/csv格式/已分类/上海市-1754933-utf8.csv-汽车销售.csv"},"geometry":{"type":"Point","coordinates":[121.447771,31.276263]}},{"id":"1688","type":"Feature","properties":{"id":"a2601962-deef-3c61-8043-e3cc4098e699","pname":"上海市","pcode":310000,"cityname":"上海市","citycode":21,"adname":"静安区","adcode":310106,"name":"BUICK","address":"共和新路1978号107B-1、108B-1室","location":"121.452190,31.274461","tel":"[]","business_area":"大宁路","bigType":"汽车销售","midType":"通用特约销售","smallType":"别克销售","typecode":"020402","timestamp":"2024-07-19 03:38:32","tag":"[]","biz_ext":"{'rating': '3.8', 'cost': []}","biz_type":"[]","gcjLng":121.45219,"gcjLat":31.274461,"wgs84Lng":121.4476,"wgs84Lat":31.276331,"__source_file__":"02-POI&AOI/1-POI/其它/24/csv格式/已分类/上海市-1754933-utf8.csv-汽车销售.csv"},"geometry":{"type":"Point","coordinates":[121.4476,31.276331]}},{"id":"1690","type":"Feature","properties":{"id":"d621e938-5198-32c9-80d4-a1587b588330","pname":"上海市","pcode":310000,"cityname":"上海市","citycode":21,"adname":"静安区","adcode":310106,"name":"大宁国际别克新能源商超店(纯电空间)","address":"大宁路与共和新路辅路交叉口西南140米","location":"121.452141,31.274516","tel":"[]","business_area":"大宁路","bigType":"汽车销售","midType":"通用特约销售","smallType":"别克销售","typecode":"020402","timestamp":"2024-03-26 05:06:50","tag":"[]","biz_ext":"{'rating': '4.2', 'cost': []}","biz_type":"[]","gcjLng":121.452141,"gcjLat":31.274516,"wgs84Lng":121.447551,"wgs84Lat":31.276386,"__source_file__":"02-POI&AOI/1-POI/其它/24/csv格式/已分类/上海市-1754933-utf8.csv-汽车销售.csv"},"geometry":{"type":"Point","coordinates":[121.447551,31.276386]}},{"id":"1689","type":"Feature","properties":{"id":"eaa85971-2e17-33fb-92b3-1926769960e9","pname":"上海市","pcode":310000,"cityname":"上海市","citycode":21,"adname":"静安区","adcode":310106,"name":"蔚来空间(上海大宁国际商业广场)","address":"共和新路1988号10座蔚来汽车","location":"121.452182,31.274948","tel":"021-56521030","business_area":"大宁路","bigType":"汽车销售","midType":"汽车销售","smallType":"汽车销售","typecode":"020000","timestamp":"2024-08-30 13:50:32","tag":"[]","biz_ext":"{'rating': '4.5', 'cost': []}","biz_type":"[]","gcjLng":121.452182,"gcjLat":31.274948,"wgs84Lng":121.447592,"wgs84Lat":31.276818,"__source_file__":"02-POI&AOI/1-POI/其它/24/csv格式/已分类/上海市-1754933-utf8.csv-汽车销售.csv"},"geometry":{"type":"Point","coordinates":[121.447592,31.276818]}},{"id":"1687","type":"Feature","properties":{"id":"0e477903-e498-3672-9ee1-719a5823bcc1","pname":"上海市","pcode":310000,"cityname":"上海市","citycode":21,"adname":"静安区","adcode":310106,"name":"鸿蒙智行体验中心(问界|智界|享界)·上海大宁国际","address":"共和新路1878大宁国际商业广场10座P1层","location":"121.452590,31.275469","tel":"021-56078897;17502138808","business_area":"大宁路","bigType":"汽车销售","midType":"汽车销售","smallType":"汽车销售","typecode":"020000","timestamp":"2024-08-27 16:56:32","tag":"[]","biz_ext":"{'rating': '4.3', 'cost': []}","biz_type":"[]","gcjLng":121.45259,"gcjLat":31.275469,"wgs84Lng":121.448001,"wgs84Lat":31.27734,"__source_file__":"02-POI&AOI/1-POI/其它/24/csv格式/已分类/上海市-1754933-utf8.csv-汽车销售.csv"},"geometry":{"type":"Point","coordinates":[121.448001,31.27734]}},{"id":"1692","type":"Feature","properties":{"id":"39355f7a-57c4-3e29-b8b0-d5ec80398a8d","pname":"上海市","pcode":310000,"cityname":"上海市","citycode":21,"adname":"静安区","adcode":310106,"name":"智己汽车上海久光体验中心","address":"共和新路2188号上海久光中心L1层L115","location":"121.451984,31.275910","tel":"021-56817186","business_area":"大宁路","bigType":"汽车销售","midType":"汽车销售","smallType":"汽车销售|汽车服务","typecode":"020000|010000","timestamp":"2024-08-31 03:19:28","tag":"[]","biz_ext":"{'rating': '4.3', 'cost': []}","biz_type":"[]","gcjLng":121.451984,"gcjLat":31.27591,"wgs84Lng":121.447394,"wgs84Lat":31.277779,"__source_file__":"02-POI&AOI/1-POI/其它/24/csv格式/已分类/上海市-1754933-utf8.csv-汽车销售.csv"},"geometry":{"type":"Point","coordinates":[121.447394,31.277779]}}],"name":"上海市-1754933-utf8.csv-汽车销售","crs":{"type":"name","properties":{"name":"urn:ogc:def:crs:OGC:1.3:CRS84"}}}