{"type":"FeatureCollection","features":[{"id":"115","type":"Feature","properties":{"id":"4431b04e-998d-31a1-b047-ba56e5826f2a","pname":"上海市","pcode":310000,"cityname":"上海市","citycode":21,"adname":"虹口区","adcode":310109,"name":"YAMAHA雅马哈发电机服务中心","address":"西安路93号(国际客运中心地铁站3号口步行420米)","location":"121.494143,31.249708","tel":"18809888190","business_area":"上海北外滩中心","bigType":"摩托车服务","midType":"摩托车服务相关","smallType":"摩托车服务相关","typecode":"040000","timestamp":"2024-06-13 17:00:46","tag":"[]","biz_ext":"{'rating': '3.8', 'cost': []}","biz_type":"[]","gcjLng":121.494143,"gcjLat":31.249708,"wgs84Lng":121.489689,"wgs84Lat":31.251701,"__source_file__":"02-POI&AOI/1-POI/其它/24/csv格式/已分类/上海市-1754933-utf8.csv-摩托车服务.csv"},"geometry":{"type":"Point","coordinates":[121.489689,31.251701]}},{"id":"326","type":"Feature","properties":{"id":"6c848659-ee69-3eb3-8bbc-a4fbe742cebc","pname":"上海市","pcode":310000,"cityname":"上海市","citycode":21,"adname":"黄浦区","adcode":310101,"name":"小沈车行(长乐路店)","address":"长乐路111号(一大会址·黄陂南路地铁站7号口步行390米)","location":"121.467507,31.221784","tel":"13585618089","business_area":"淮海路","bigType":"摩托车服务","midType":"摩托车维修","smallType":"摩托车维修|购物服务","typecode":"040200|060000","timestamp":"2024-08-24 00:52:06","tag":"[]","biz_ext":"{'rating': '4.2', 'cost': []}","biz_type":"[]","gcjLng":121.467507,"gcjLat":31.221784,"wgs84Lng":121.462965,"wgs84Lat":31.223714,"__source_file__":"02-POI&AOI/1-POI/其它/24/csv格式/已分类/上海市-1754933-utf8.csv-摩托车服务.csv"},"geometry":{"type":"Point","coordinates":[121.462965,31.223714]}},{"id":"83","type":"Feature","properties":{"id":"9cc55cc4-2efd-3cb4-8bd9-688c7ec640d8","pname":"上海市","pcode":310000,"cityname":"上海市","citycode":21,"adname":"静安区","adcode":310106,"name":"Honda电动车静安店","address":"海宁路与福建北路交叉口东40米","location":"121.478418,31.246213","tel":"[]","business_area":"七浦路","bigType":"摩托车服务","midType":"摩托车销售","smallType":"摩托车销售","typecode":"040100","timestamp":"2024-07-13 10:03:47","tag":"[]","biz_ext":"{'rating': '2.7', 'cost': []}","biz_type":"[]","gcjLng":121.478418,"gcjLat":31.246213,"wgs84Lng":121.473909,"wgs84Lat":31.248161,"__source_file__":"02-POI&AOI/1-POI/其它/24/csv格式/已分类/上海市-1754933-utf8.csv-摩托车服务.csv"},"geometry":{"type":"Point","coordinates":[121.473909,31.248161]}},{"id":"70","type":"Feature","properties":{"id":"5ca05050-ef44-34fb-b43d-a166d2855fbc","pname":"上海市","pcode":310000,"cityname":"上海市","citycode":21,"adname":"静安区","adcode":310106,"name":"公兴路牛丁车行","address":"公兴路与临山路交叉口西北20米","location":"121.473747,31.255091","tel":"[]","business_area":"宝山路","bigType":"摩托车服务","midType":"摩托车销售","smallType":"摩托车销售","typecode":"040100","timestamp":"2024-02-22 22:08:26","tag":"[]","biz_ext":"{'rating': '3.1', 'cost': []}","biz_type":"[]","gcjLng":121.473747,"gcjLat":31.255091,"wgs84Lng":121.469222,"wgs84Lat":31.257022,"__source_file__":"02-POI&AOI/1-POI/其它/24/csv格式/已分类/上海市-1754933-utf8.csv-摩托车服务.csv"},"geometry":{"type":"Point","coordinates":[121.469222,31.257022]}},{"id":"71","type":"Feature","properties":{"id":"7e83f99f-5d1a-3a3e-ad69-ae94de895d98","pname":"上海市","pcode":310000,"cityname":"上海市","citycode":21,"adname":"静安区","adcode":310106,"name":"牛丁锂电","address":"公兴路与临山路交叉口西北20米","location":"121.473722,31.255102","tel":"[]","business_area":"宝山路","bigType":"摩托车服务","midType":"摩托车服务相关","smallType":"摩托车服务相关","typecode":"040000","timestamp":"2024-08-26 09:17:51","tag":"[]","biz_ext":"{'rating': '4.0', 'cost': []}","biz_type":"[]","gcjLng":121.473722,"gcjLat":31.255102,"wgs84Lng":121.469197,"wgs84Lat":31.257033,"__source_file__":"02-POI&AOI/1-POI/其它/24/csv格式/已分类/上海市-1754933-utf8.csv-摩托车服务.csv"},"geometry":{"type":"Point","coordinates":[121.469197,31.257033]}},{"id":"72","type":"Feature","properties":{"id":"d7de8fb0-daed-35d9-a13b-3c2bbb72b230","pname":"上海市","pcode":310000,"cityname":"上海市","citycode":21,"adname":"静安区","adcode":310106,"name":"残疾车定点维修部","address":"宝源路227号(东宝兴路地铁站2号口步行290米)","location":"121.480266,31.256573","tel":"13918368164","business_area":"宝山路","bigType":"摩托车服务","midType":"摩托车维修","smallType":"摩托车维修","typecode":"040200","timestamp":"2024-07-18 06:33:28","tag":"[]","biz_ext":"{'rating': '4.1', 'cost': []}","biz_type":"[]","gcjLng":121.480266,"gcjLat":31.256573,"wgs84Lng":121.475763,"wgs84Lat":31.258522,"__source_file__":"02-POI&AOI/1-POI/其它/24/csv格式/已分类/上海市-1754933-utf8.csv-摩托车服务.csv"},"geometry":{"type":"Point","coordinates":[121.475763,31.258522]}},{"id":"84","type":"Feature","properties":{"id":"0f63747b-941d-3de0-8030-d93315a0b31f","pname":"上海市","pcode":310000,"cityname":"上海市","citycode":21,"adname":"虹口区","adcode":310109,"name":"残疾车电动车老年代步车摩托车维修","address":"海伦西路藏东路9号(海伦路地铁站5号口步行410米)","location":"121.485222,31.258664","tel":"13681864740","business_area":"宝山路","bigType":"摩托车服务","midType":"摩托车维修","smallType":"摩托车维修","typecode":"040200","timestamp":"2024-05-29 07:53:30","tag":"[]","biz_ext":"{'rating': '4.4', 'cost': []}","biz_type":"[]","gcjLng":121.485222,"gcjLat":31.258664,"wgs84Lng":121.480736,"wgs84Lat":31.260626,"__source_file__":"02-POI&AOI/1-POI/其它/24/csv格式/已分类/上海市-1754933-utf8.csv-摩托车服务.csv"},"geometry":{"type":"Point","coordinates":[121.480736,31.260626]}},{"id":"36","type":"Feature","properties":{"id":"32084d56-bdd4-3a11-aeef-7751cc89fccc","pname":"上海市","pcode":310000,"cityname":"上海市","citycode":21,"adname":"虹口区","adcode":310109,"name":"电动车修理","address":"虹叶花苑西南门旁(海伦路地铁站7号口步行340米)","location":"121.486166,31.260804","tel":"[]","business_area":"宝山路","bigType":"摩托车服务","midType":"摩托车维修","smallType":"摩托车维修|生活服务","typecode":"040200|071200","timestamp":"2024-08-30 10:39:28","tag":"[]","biz_ext":"{'rating': '3.9', 'cost': []}","biz_type":"[]","gcjLng":121.486166,"gcjLat":31.260804,"wgs84Lng":121.481683,"wgs84Lat":31.262768,"__source_file__":"02-POI&AOI/1-POI/其它/24/csv格式/已分类/上海市-1754933-utf8.csv-摩托车服务.csv"},"geometry":{"type":"Point","coordinates":[121.481683,31.262768]}}],"name":"上海市-1754933-utf8.csv-摩托车服务","crs":{"type":"name","properties":{"name":"urn:ogc:def:crs:OGC:1.3:CRS84"}}}