{"type":"FeatureCollection","features":[{"id":"20","type":"Feature","properties":{"id":"7ba54963-7aca-3323-bdda-e759b77d22a1","pname":"上海市","pcode":310000,"cityname":"上海市","citycode":21,"adname":"黄浦区","adcode":310101,"name":"街电(上海k11购物艺术中心)","address":"淮海中路300号上海k11购物艺术中心L1层","location":"121.473694,31.223620","tel":"[]","business_area":"北京路","bigType":"室内设施","midType":"室内设施","smallType":"室内设施","typecode":"970000","timestamp":"2024-04-16 14:18:12","tag":"[]","biz_ext":"{'rating': '2.6', 'cost': []}","biz_type":"[]","gcjLng":121.473694,"gcjLat":31.22362,"wgs84Lng":121.469172,"wgs84Lat":31.225565,"__source_file__":"02-POI&AOI/1-POI/其它/24/csv格式/已分类/上海市-1754933-utf8.csv-室内设施.csv"},"geometry":{"type":"Point","coordinates":[121.469172,31.225565]}},{"id":"43","type":"Feature","properties":{"id":"7264dd25-0a8b-37d4-a024-91cb3725cbe4","pname":"上海市","pcode":310000,"cityname":"上海市","citycode":21,"adname":"黄浦区","adcode":310101,"name":"怪兽充电(力宝广场)","address":"淮海中路222号力宝广场B1层","location":"121.475499,31.224278","tel":"[]","business_area":"北京路","bigType":"室内设施","midType":"室内设施","smallType":"室内设施","typecode":"970000","timestamp":"2024-04-16 14:17:24","tag":"[]","biz_ext":"{'rating': '3.2', 'cost': []}","biz_type":"[]","gcjLng":121.475499,"gcjLat":31.224278,"wgs84Lng":121.470982,"wgs84Lat":31.226228,"__source_file__":"02-POI&AOI/1-POI/其它/24/csv格式/已分类/上海市-1754933-utf8.csv-室内设施.csv"},"geometry":{"type":"Point","coordinates":[121.470982,31.226228]}},{"id":"2","type":"Feature","properties":{"id":"46a448de-bc9c-3164-87d1-57e6fc83d174","pname":"上海市","pcode":310000,"cityname":"上海市","citycode":21,"adname":"黄浦区","adcode":310101,"name":"服务台(莫泰168旅店)","address":"北京东路471号莫泰168旅店F1层","location":"121.481253,31.239638","tel":"[]","business_area":"北京路","bigType":"室内设施","midType":"室内设施","smallType":"室内设施|生活服务","typecode":"970000|070000","timestamp":"2024-02-15 15:19:25","tag":"[]","biz_ext":"{'rating': [], 'cost': []}","biz_type":"[]","gcjLng":121.481253,"gcjLat":31.239638,"wgs84Lng":121.476754,"wgs84Lat":31.241597,"__source_file__":"02-POI&AOI/1-POI/其它/24/csv格式/已分类/上海市-1754933-utf8.csv-室内设施.csv"},"geometry":{"type":"Point","coordinates":[121.476754,31.241597]}}],"name":"上海市-1754933-utf8.csv-室内设施","crs":{"type":"name","properties":{"name":"urn:ogc:def:crs:OGC:1.3:CRS84"}}}