{
  "type": "FeatureCollection",
  "name": "Z_OFC",
  "features": [
    {
      "type": "Feature",
      "geometry": {
        "type": "LineString",
        "coordinates": [
          [
            1629.406572775182,
            2962.566516242497
          ],
          [
            1633.989055648929,
            2961.648242234787
          ],
          [
            1638.29212795952,
            2960.654872073053
          ],
          [
            1642.333634152011,
            2959.590427751187
          ],
          [
            1646.131418671458,
            2958.458931263091
          ],
          [
            1649.703325962916,
            2957.264404602657
          ],
          [
            1653.06720047144,
            2956.010869763785
          ],
          [
            1656.240886642087,
            2954.70234874037
          ],
          [
            1659.242228919911,
            2953.342863526308
          ],
          [
            1662.089071749968,
            2951.936436115498
          ],
          [
            1664.799259577315,
            2950.487088501835
          ],
          [
            1667.390636847005,
            2948.998842679216
          ],
          [
            1669.881048004096,
            2947.475720641537
          ],
          [
            1672.288337493642,
            2945.921744382696
          ],
          [
            1674.630349760698,
            2944.340935896589
          ],
          [
            1679.189920407568,
            2941.114910218165
          ],
          [
            1688.174984916185,
            2934.40666896719
          ],
          [
            1692.699119564489,
            2930.835945311705
          ],
          [
            1697.298757525019,
            2927.052550006065
          ],
          [
            1702.014725084945,
            2923.005280827654
          ],
          [
            1706.88784853144,
            2918.642935553855
          ],
          [
            1711.958954151676,
            2913.91431196205
          ],
          [
            1717.268868232824,
            2908.768207829623
          ],
          [
            1728.670448990173,
            2897.164832811736
          ],
          [
            1799.617774495959,
            2820.317312852816
          ]
        ]
      },
      "properties": {
        "layer": "Z_OFC",
        "dxftype": "POLYLINE",
        "handle": "6FC",
        "color": 256
      }
    },
    {
      "type": "Feature",
      "geometry": {
        "type": "LineString",
        "coordinates": [
          [
            1799.617774495959,
            2820.317312852816
          ],
          [
            1799.732681826645,
            2820.189036806555
          ],
          [
            1799.843103409056,
            2820.056879654546
          ],
          [
            1799.948908245923,
            2819.920998179777
          ],
          [
            1800.049970816996,
            2819.781553583548
          ],
          [
            1800.146171227952,
            2819.638711294216
          ],
          [
            1800.23739535263,
            2819.492640770954
          ],
          [
            1800.323534968428,
            2819.343515302706
          ],
          [
            1800.404487884684,
            2819.191511802618
          ],
          [
            1800.480158063913,
            2819.036810598147
          ],
          [
            1800.550455735743,
            2818.87959521714
          ],
          [
            1800.615297503403,
            2818.720052170109
          ],
          [
            1800.674606442672,
            2818.558370728958
          ],
          [
            1800.728312193127,
            2818.394742702455
          ],
          [
            1800.776351041621,
            2818.229362208668
          ],
          [
            1800.818665997863,
            2818.062425444689
          ],
          [
            1800.855206862032,
            2817.894130453868
          ],
          [
            1800.885930284329,
            2817.724676890873
          ],
          [
            1800.910799816404,
            2817.554265784827
          ],
          [
            1800.929785954598,
            2817.383099300823
          ],
          [
            1800.942866174942,
            2817.21138050009
          ],
          [
            1800.95002495988,
            2817.039313099088
          ],
          [
            1800.951253816676,
            2816.867101227834
          ],
          [
            1800.946551287491,
            2816.694949187739
          ],
          [
            1800.935922951113,
            2816.523061209232
          ],
          [
            1800.919381416335,
            2816.351641209475
          ],
          [
            1800.896946307001,
            2816.18089255045
          ],
          [
            1800.868644238725,
            2816.011017797703
          ],
          [
            1800.834508787312,
            2815.842218480031
          ],
          [
            1800.79458044893,
            2815.674694850404
          ],
          [
            1800.748906592066,
            2815.508645648392
          ],
          [
            1800.697541401332,
            2815.344267864399
          ],
          [
            1800.640545813182,
            2815.181756505963
          ],
          [
            1800.577987443622,
            2815.021304366408
          ],
          [
            1800.509940507994,
            2814.863101796135
          ],
          [
            1800.436485732934,
            2814.70733647679
          ],
          [
            1800.3577102606,
            2814.554193198622
          ],
          [
            1800.273707545291,
            2814.403853641251
          ],
          [
            1800.184577242584,
            2814.25649615814
          ],
          [
            1800.090425091102,
            2814.112295565004
          ],
          [
            1799.99136278708,
            2813.971422932419
          ],
          [
            1799.887507851846,
            2813.834045382881
          ],
          [
            1799.778983492411,
            2813.700325892534
          ]
        ]
      },
      "properties": {
        "layer": "Z_OFC",
        "dxftype": "POLYLINE",
        "handle": "717",
        "color": 256
      }
    },
    {
      "type": "Feature",
      "geometry": {
        "type": "LineString",
        "coordinates": [
          [
            1799.778983492411,
            2813.700325892534
          ],
          [
            1795.763933566745,
            2809.043990559592
          ],
          [
            1791.6374869249,
            2804.47967042385
          ],
          [
            1787.331513310985,
            2799.920198846508
          ],
          [
            1782.925065722061,
            2795.459183912423
          ],
          [
            1778.416933700438,
            2791.105107429188
          ],
          [
            1773.805906788429,
            2786.866451204397
          ],
          [
            1769.090774528346,
            2782.751697045644
          ],
          [
            1764.270326462499,
            2778.769326760521
          ],
          [
            1759.3433521332,
            2774.927822156622
          ],
          [
            1754.308641082762,
            2771.23566504154
          ],
          [
            1749.769977920343,
            2768.102590644121
          ],
          [
            1745.150450102518,
            2765.088929180411
          ],
          [
            1740.454261103268,
            2762.190857322723
          ],
          [
            1735.685614396576,
            2759.404551743369
          ],
          [
            1730.848713456424,
            2756.726189114663
          ],
          [
            1725.947761756795,
            2754.151946108917
          ],
          [
            1720.98696277167,
            2751.677999398444
          ],
          [
            1715.970519975033,
            2749.300525655557
          ],
          [
            1710.37341022562,
            2746.788118229726
          ],
          [
            1704.715999047783,
            2744.409629273391
          ],
          [
            1699.000655376584,
            2742.186101118603
          ],
          [
            1693.229748147085,
            2740.13857609741
          ],
          [
            1690.32419849018,
            2739.187390490677
          ],
          [
            1687.405646294348,
            2738.288096541862
          ],
          [
            1684.474387676472,
            2737.443324542469
          ],
          [
            1681.530718753436,
            2736.655704784007
          ],
          [
            1678.574935642122,
            2735.927867557981
          ],
          [
            1675.607334459412,
            2735.262443155897
          ],
          [
            1672.628211322189,
            2734.662061869261
          ],
          [
            1669.637862347337,
            2734.129353989579
          ],
          [
            1666.870367557985,
            2733.699707025883
          ],
          [
            1664.094223613583,
            2733.32825533463
          ],
          [
            1661.310077711357,
            2733.01339687393
          ],
          [
            1658.518577048532,
            2732.753529601893
          ],
          [
            1655.720368822332,
            2732.547051476627
          ],
          [
            1652.916100229982,
            2732.392360456244
          ],
          [
            1647.291970735735,
            2732.231931562565
          ],
          [
            1641.651366143588,
            2732.259426585731
          ],
          [
            1635.999464031342,
            2732.462029190621
          ],
          [
            1630.341441976797,
            2732.826923042112
          ],
          [
            1624.682477557753,
            2733.341291805084
          ],
          [
            1619.027748352009,
            2733.992319144414
          ],
          [
            1613.382431937364,
            2734.76718872498
          ],
          [
            1607.75170589162,
            2735.653084211661
          ],
          [
            1602.140747792575,
            2736.637189269334
          ],
          [
            1590.998845745782,
            2738.848762757171
          ],
          [
            1579.998146419383,
            2741.299378507516
          ],
          [
            1561.284355195308,
            2745.885082241601
          ],
          [
            1484.757868586564,
            2766.559990163947
          ],
          [
            1473.712732776207,
            2769.845417940986
          ],
          [
            1468.176944760134,
            2771.639520434955
          ],
          [
            1462.633245117435,
            2773.562279765685
          ],
          [
            1457.082310183591,
            2775.634494258019
          ],
          [
            1451.524816294078,
            2777.876962236802
          ],
          [
            1445.961439784376,
            2780.310482026877
          ],
          [
            1440.392856989963,
            2782.955851953089
          ],
          [
            1434.819744246317,
            2785.833870340284
          ],
          [
            1432.031700498369,
            2787.366622183263
          ],
          [
            1429.242777888918,
            2788.965335513304
          ],
          [
            1426.453060959897,
            2790.632610121012
          ],
          [
            1423.662634253243,
            2792.371045796994
          ],
          [
            1420.871582310889,
            2794.183242331854
          ],
          [
            1418.079989674771,
            2796.071799516199
          ],
          [
            1417.74407172093,
            2796.307215004237
          ],
          [
            1417.583959666121,
            2796.425379265336
          ],
          [
            1417.50723902485,
            2796.484578517631
          ],
          [
            1417.43326527171,
            2796.543856991077
          ],
          [
            1417.362430879729,
            2796.60321554067
          ],
          [
            1417.295128321941,
            2796.6626550214
          ],
          [
            1417.231750071373,
            2796.722176288262
          ],
          [
            1417.201655209119,
            2796.751967858677
          ],
          [
            1417.172688601057,
            2796.781780196247
          ],
          [
            1417.144899306316,
            2796.811613407846
          ],
          [
            1417.118336384024,
            2796.841467600348
          ],
          [
            1417.09304889331,
            2796.871342880628
          ],
          [
            1417.069085893303,
            2796.901239355558
          ],
          [
            1417.046496443132,
            2796.931157132014
          ],
          [
            1417.025329601926,
            2796.961096316869
          ],
          [
            1417.015294990662,
            2796.976073970844
          ],
          [
            1417.005634428813,
            2796.991057016997
          ],
          [
            1416.996354048769,
            2797.006045468688
          ],
          [
            1416.987459982922,
            2797.021039339274
          ],
          [
            1416.976728115899,
            2797.040089310176
          ],
          [
            1416.966624240732,
            2797.059147968267
          ],
          [
            1416.957143376154,
            2797.078215239107
          ],
          [
            1416.948280540894,
            2797.097291048254
          ],
          [
            1416.940030753684,
            2797.116375321268
          ],
          [
            1416.932389033255,
            2797.135467983708
          ],
          [
            1416.925350398337,
            2797.154568961133
          ],
          [
            1416.918909867661,
            2797.173678179103
          ],
          [
            1416.913062459959,
            2797.192795563176
          ],
          [
            1416.907803193961,
            2797.211921038912
          ],
          [
            1416.903127088398,
            2797.231054531871
          ],
          [
            1416.899029162,
            2797.250195967611
          ],
          [
            1416.8955044335,
            2797.269345271692
          ],
          [
            1416.892547921626,
            2797.288502369673
          ],
          [
            1416.890154645112,
            2797.307667187113
          ],
          [
            1416.888319622687,
            2797.326839649573
          ],
          [
            1416.887037873082,
            2797.346019682609
          ],
          [
            1416.886304415028,
            2797.365207211784
          ],
          [
            1416.886114267256,
            2797.384402162654
          ],
          [
            1416.886462448497,
            2797.40360446078
          ],
          [
            1416.887343977482,
            2797.42281403172
          ],
          [
            1416.888753872941,
            2797.442030801035
          ],
          [
            1416.890687153606,
            2797.461254694284
          ],
          [
            1416.893138838207,
            2797.480485637024
          ],
          [
            1416.896103945475,
            2797.499723554817
          ],
          [
            1416.899577494141,
            2797.518968373221
          ],
          [
            1416.903554502937,
            2797.538220017795
          ],
          [
            1416.908029990592,
            2797.557478414099
          ],
          [
            1416.912998975838,
            2797.576743487692
          ],
          [
            1416.918456477405,
            2797.596015164133
          ],
          [
            1416.924397514025,
            2797.615293368981
          ],
          [
            1416.930817104429,
            2797.634578027796
          ],
          [
            1416.937710267346,
            2797.653869066138
          ],
          [
            1416.945072021509,
            2797.673166409563
          ],
          [
            1416.952897385648,
            2797.692469983634
          ],
          [
            1416.961181378493,
            2797.711779713908
          ],
          [
            1416.969919018777,
            2797.731095525946
          ],
          [
            1416.979105325228,
            2797.750417345305
          ],
          [
            1416.98873531658,
            2797.769745097546
          ],
          [
            1416.998804011561,
            2797.789078708228
          ],
          [
            1417.020237587339,
            2797.82776320715
          ],
          [
            1417.043366202409,
            2797.866470246547
          ],
          [
            1417.068150006618,
            2797.905199230892
          ],
          [
            1417.094549149812,
            2797.943949564658
          ],
          [
            1417.12252378184,
            2797.982720652321
          ],
          [
            1417.152034052548,
            2798.021511898354
          ],
          [
            1417.183040111782,
            2798.060322707231
          ],
          [
            1417.21550210939,
            2798.099152483426
          ],
          [
            1417.249380195219,
            2798.138000631414
          ],
          [
            1417.284634519116,
            2798.176866555669
          ],
          [
            1417.359112480502,
            2798.254649350872
          ],
          [
            1417.438617192323,
            2798.33249610483
          ],
          [
            1417.522829853357,
            2798.410402053334
          ],
          [
            1417.611431662378,
            2798.488362432178
          ],
          [
            1417.704103818162,
            2798.566372477153
          ],
          [
            1417.900383965126,
            2798.722522508667
          ],
          [
            1418.109119884457,
            2798.878814034215
          ],
          [
            1418.553757401051,
            2799.191669112772
          ],
          [
            1429.337132634269,
            2806.573888668302
          ],
          [
            1439.097926194963,
            2813.546727339764
          ],
          [
            1448.354694172521,
            2820.428337530213
          ],
          [
            1457.162136967774,
            2827.223907951942
          ],
          [
            1473.64784861468,
            2840.577684338399
          ],
          [
            1532.557768076057,
            2891.588941593592
          ],
          [
            1547.715032193036,
            2903.948342326374
          ],
          [
            1561.991914618264,
            2914.886625242995
          ],
          [
            1607.445795619835,
            2947.307736493173
          ],
          [
            1629.406572775182,
            2962.566516242497
          ]
        ]
      },
      "properties": {
        "layer": "Z_OFC",
        "dxftype": "POLYLINE",
        "handle": "744",
        "color": 256
      }
    },
    {
      "type": "Feature",
      "geometry": {
        "type": "LineString",
        "coordinates": [
          [
            1801.637969716728,
            2825.492973123507
          ],
          [
            1801.758086505742,
            2825.367765303676
          ],
          [
            1801.88247523104,
            2825.246800489913
          ],
          [
            1802.010986103514,
            2825.130224348246
          ],
          [
            1802.143464370159,
            2825.018177259857
          ],
          [
            1802.279750500429,
            2824.910794152033
          ],
          [
            1802.419680378342,
            2824.808204335691
          ],
          [
            1802.563085500109,
            2824.710531349655
          ],
          [
            1802.709793177044,
            2824.617892811897
          ],
          [
            1802.859626743524,
            2824.530400277896
          ],
          [
            1803.012405769719,
            2824.448159106305
          ],
          [
            1803.167946278876,
            2824.371268332079
          ],
          [
            1803.326060968857,
            2824.299820547214
          ],
          [
            1803.486559437693,
            2824.233901789251
          ],
          [
            1803.649248412862,
            2824.173591437667
          ],
          [
            1803.813931984034,
            2824.118962118286
          ],
          [
            1803.98041183898,
            2824.070079615824
          ],
          [
            1804.148487502386,
            2824.027002794671
          ],
          [
            1804.31795657726,
            2823.989783528007
          ],
          [
            1804.488614988665,
            2823.958466635333
          ],
          [
            1804.66025722946,
            2823.933089828504
          ],
          [
            1804.832676607776,
            2823.913683666311
          ],
          [
            1805.005665495914,
            2823.900271517688
          ],
          [
            1805.17901558037,
            2823.892869533565
          ],
          [
            1805.352518112687,
            2823.891486627425
          ],
          [
            1805.52596416083,
            2823.896124464564
          ],
          [
            1805.699144860783,
            2823.906777460092
          ],
          [
            1805.871851668062,
            2823.923432785655
          ],
          [
            1806.043876608844,
            2823.946070384881
          ],
          [
            1806.215012530413,
            2823.974662997536
          ],
          [
            1806.385053350611,
            2824.00917619235
          ],
          [
            1806.553794306003,
            2824.049568408476
          ],
          [
            1806.721032198451,
            2824.095791005541
          ],
          [
            1806.88656563981,
            2824.147788322218
          ],
          [
            1807.050195294439,
            2824.205497743252
          ],
          [
            1807.211724119237,
            2824.268849774862
          ],
          [
            1807.370957600927,
            2824.337768128431
          ],
          [
            1807.52770399029,
            2824.41216981236
          ],
          [
            1807.681774533065,
            2824.491965232022
          ],
          [
            1807.832983697251,
            2824.57705829764
          ],
          [
            1807.981149396523,
            2824.667346540003
          ],
          [
            1808.126093209502,
            2824.762721233863
          ],
          [
            1808.267640594611,
            2824.863067528856
          ],
          [
            1808.405621100255,
            2824.968264587808
          ],
          [
            1808.539868570082,
            2825.078185732247
          ],
          [
            1808.670221343068,
            2825.192698594952
          ],
          [
            1808.796522448189,
            2825.311665279344
          ],
          [
            1808.918619793447,
            2825.434942525544
          ],
          [
            1809.036366349017,
            2825.562381882892
          ],
          [
            1809.149620324303,
            2825.693829888704
          ],
          [
            1809.258245338682,
            2825.829128253073
          ],
          [
            1809.362110585733,
            2825.968114049487
          ]
        ]
      },
      "properties": {
        "layer": "Z_OFC",
        "dxftype": "POLYLINE",
        "handle": "C92",
        "color": 256
      }
    },
    {
      "type": "Feature",
      "geometry": {
        "type": "LineString",
        "coordinates": [
          [
            1809.362110585733,
            2825.968114049487
          ],
          [
            1812.823010796789,
            2830.943499709163
          ],
          [
            1815.088081761549,
            2834.408972039463
          ],
          [
            1817.274033773642,
            2837.924372570249
          ],
          [
            1819.385564016016,
            2841.486346454342
          ],
          [
            1821.42736967162,
            2845.091538844567
          ],
          [
            1825.320595954316,
            2852.418159754707
          ],
          [
            1828.991290085324,
            2859.877396523256
          ],
          [
            1832.477029528236,
            2867.442410372802
          ],
          [
            1835.815391746646,
            2875.086362525934
          ],
          [
            1842.20029436433,
            2890.503726633305
          ],
          [
            1853.24351403042,
            2918.515249604861
          ],
          [
            1858.453953738892,
            2932.598084184957
          ],
          [
            1863.381868096544,
            2946.77754589334
          ],
          [
            1871.870479092838,
            2973.80390078572
          ],
          [
            1881.794472399852,
            3008.170274707182
          ],
          [
            1882.742047411362,
            3011.762538419009
          ],
          [
            1883.615036839314,
            3015.378211530737
          ],
          [
            1883.873560653989,
            3016.562908293354
          ],
          [
            1883.988246859031,
            3017.157755451273
          ],
          [
            1884.08755674124,
            3017.754929368265
          ],
          [
            1884.130119189101,
            3018.054543761725
          ],
          [
            1884.167245909637,
            3018.354925725329
          ],
          [
            1884.198406353976,
            3018.656137219199
          ],
          [
            1884.223069973245,
            3018.958240203463
          ],
          [
            1884.240706218573,
            3019.261296638244
          ],
          [
            1884.250784541087,
            3019.565368483667
          ],
          [
            1884.252774391916,
            3019.870517699858
          ],
          [
            1884.246145222186,
            3020.176806246941
          ],
          [
            1884.234427970558,
            3020.417206160777
          ],
          [
            1884.21581972935,
            3020.657342753696
          ],
          [
            1884.203529743322,
            3020.777000029225
          ],
          [
            1884.189034916699,
            3020.89621674382
          ],
          [
            1884.17217455175,
            3021.014867987246
          ],
          [
            1884.15278795074,
            3021.132828849267
          ],
          [
            1884.130714415937,
            3021.24997441965
          ],
          [
            1884.105793249608,
            3021.366179788158
          ],
          [
            1884.077863754019,
            3021.481320044557
          ],
          [
            1884.046765231438,
            3021.595270278613
          ],
          [
            1884.012336984131,
            3021.707905580089
          ],
          [
            1883.974418314365,
            3021.819101038752
          ],
          [
            1883.932848524408,
            3021.928731744365
          ],
          [
            1883.910644241316,
            3021.98292128033
          ],
          [
            1883.887466916526,
            3022.036672786695
          ],
          [
            1883.853354086802,
            3022.111186823923
          ],
          [
            1883.81734476046,
            3022.184815699487
          ],
          [
            1883.779490007513,
            3022.257563865044
          ],
          [
            1883.739840897976,
            3022.32943577225
          ],
          [
            1883.698448501862,
            3022.40043587276
          ],
          [
            1883.655363889184,
            3022.470568618229
          ],
          [
            1883.610638129956,
            3022.539838460313
          ],
          [
            1883.56432229419,
            3022.608249850668
          ],
          [
            1883.516467451902,
            3022.675807240949
          ],
          [
            1883.467124673103,
            3022.742515082811
          ],
          [
            1883.416345027808,
            3022.808377827909
          ],
          [
            1883.36417958603,
            3022.8733999279
          ],
          [
            1883.310679417783,
            3022.93758583444
          ],
          [
            1883.255895593079,
            3023.000939999183
          ],
          [
            1883.142681254357,
            3023.125170909899
          ],
          [
            1883.024945129972,
            3023.246128273295
          ],
          [
            1882.903095780031,
            3023.363847702615
          ],
          [
            1882.777541764642,
            3023.4783648111
          ],
          [
            1882.648691643913,
            3023.589715211998
          ],
          [
            1882.516953977951,
            3023.697934518549
          ],
          [
            1882.382737326865,
            3023.803058343999
          ],
          [
            1882.24645025076,
            3023.905122301592
          ],
          [
            1882.108501309747,
            3024.004162004571
          ],
          [
            1881.930735430412,
            3024.126113418527
          ],
          [
            1881.750997995778,
            3024.243364564649
          ],
          [
            1881.569354567125,
            3024.356072900745
          ],
          [
            1881.38587070573,
            3024.464395884626
          ],
          [
            1881.200611972873,
            3024.568490974099
          ],
          [
            1881.013643929832,
            3024.668515626976
          ],
          [
            1880.825032137886,
            3024.764627301066
          ],
          [
            1880.634842158313,
            3024.856983454178
          ],
          [
            1880.443139552393,
            3024.945741544121
          ],
          [
            1880.249989881404,
            3025.031059028707
          ],
          [
            1879.859611589333,
            3025.192002013039
          ],
          [
            1879.464231772331,
            3025.341072069651
          ],
          [
            1879.064374920627,
            3025.47952886102
          ],
          [
            1878.660565524451,
            3025.608632049621
          ],
          [
            1878.253328074032,
            3025.729641297931
          ],
          [
            1877.430666971386,
            3025.952416623584
          ],
          [
            1845.903183048721,
            3034.076214827574
          ],
          [
            1839.937827419267,
            3035.354896638679
          ],
          [
            1836.945285876025,
            3035.907732783958
          ],
          [
            1833.94395377721,
            3036.391957295316
          ],
          [
            1830.932170070399,
            3036.799363827447
          ],
          [
            1827.908273703168,
            3037.121746035046
          ],
          [
            1824.874605334658,
            3037.353524514385
          ],
          [
            1821.829030556111,
            3037.501076441104
          ],
          [
            1818.773385751146,
            3037.573196648547
          ],
          [
            1815.709507303387,
            3037.578679970055
          ],
          [
            1809.564395013974,
            3037.424915288643
          ],
          [
            1803.408384756846,
            3037.110141063609
          ],
          [
            1796.140033847826,
            3036.603940940464
          ],
          [
            1788.887612600187,
            3035.948980333427
          ],
          [
            1781.661757483552,
            3035.12300012027
          ],
          [
            1774.473104967542,
            3034.103741178768
          ],
          [
            1767.332291521779,
            3032.868944386693
          ],
          [
            1763.783148346997,
            3032.163763320996
          ],
          [
            1760.249953615886,
            3031.396350621819
          ],
          [
            1756.734036887148,
            3030.563923898887
          ],
          [
            1753.236727719485,
            3029.66370076192
          ],
          [
            1749.759355671602,
            3028.69289882064
          ],
          [
            1746.303250302199,
            3027.648735684769
          ],
          [
            1740.95274137043,
            3025.870041868094
          ],
          [
            1735.655442418763,
            3023.922218614104
          ],
          [
            1730.409501860168,
            3021.821679993279
          ],
          [
            1725.213068107615,
            3019.584840076098
          ],
          [
            1720.064289574072,
            3017.22811293304
          ],
          [
            1714.96131467251,
            3014.767912634585
          ],
          [
            1704.885369417205,
            3009.602748853397
          ],
          [
            1689.352609858214,
            3001.016453231643
          ],
          [
            1674.140841545883,
            2991.965195416586
          ],
          [
            1659.172695405344,
            2982.520760104865
          ],
          [
            1644.370802361727,
            2972.754931993115
          ]
        ]
      },
      "properties": {
        "layer": "Z_OFC",
        "dxftype": "POLYLINE",
        "handle": "CC8",
        "color": 256
      }
    },
    {
      "type": "Feature",
      "geometry": {
        "type": "LineString",
        "coordinates": [
          [
            1644.370802361727,
            2972.754931993115
          ],
          [
            1644.228184800794,
            2972.65550766722
          ],
          [
            1644.089109978757,
            2972.551185286393
          ],
          [
            1643.953746036883,
            2972.442090976246
          ],
          [
            1643.822256629989,
            2972.328356631648
          ],
          [
            1643.694800728586,
            2972.210119757266
          ],
          [
            1643.571532426682,
            2972.087523301315
          ],
          [
            1643.452600755482,
            2971.96071548274
          ],
          [
            1643.338149503211,
            2971.829849612018
          ],
          [
            1643.228317041275,
            2971.695083905804
          ],
          [
            1643.123236156967,
            2971.55658129565
          ],
          [
            1643.023033892931,
            2971.414509231021
          ],
          [
            1642.927831393564,
            2971.269039476843
          ],
          [
            1642.837743758556,
            2971.120347905848
          ],
          [
            1642.752879903733,
            2970.968614285939
          ],
          [
            1642.673342429377,
            2970.81402206285
          ],
          [
            1642.599227496184,
            2970.656758138367
          ],
          [
            1642.530624709006,
            2970.497012644354
          ],
          [
            1642.467617008516,
            2970.334978712892
          ],
          [
            1642.410280570937,
            2970.170852242778
          ],
          [
            1642.358684715943,
            2970.004831662687
          ],
          [
            1642.31289182285,
            2969.83711769127
          ],
          [
            1642.272957255203,
            2969.667913094486
          ],
          [
            1642.238929293838,
            2969.497422440456
          ],
          [
            1642.210849078514,
            2969.325851852145
          ],
          [
            1642.188750558171,
            2969.153408758154
          ],
          [
            1642.172660449891,
            2968.980301641947
          ],
          [
            1642.162598206591,
            2968.806739789785
          ],
          [
            1642.15857599351,
            2968.632933037706
          ],
          [
            1642.160598673498,
            2968.459091517833
          ],
          [
            1642.168663801137,
            2968.285425404321
          ],
          [
            1642.1827616257,
            2968.11214465926
          ],
          [
            1642.202875102936,
            2967.93945877883
          ],
          [
            1642.22897991568,
            2967.767576540022
          ],
          [
            1642.261044503248,
            2967.596705748222
          ],
          [
            1642.299030099599,
            2967.427052985981
          ],
          [
            1642.3428907802,
            2967.258823363252
          ],
          [
            1642.392573517548,
            2967.092220269417
          ],
          [
            1642.448018245284,
            2966.927445127382
          ],
          [
            1642.509157930809,
            2966.764697150067
          ],
          [
            1642.575918656327,
            2966.60417309955
          ],
          [
            1642.648219708215,
            2966.446067049184
          ],
          [
            1642.725973674601,
            2966.290570148966
          ],
          [
            1642.809086551048,
            2966.137870394432
          ],
          [
            1642.897457854203,
            2965.988152399371
          ],
          [
            1642.990980743284,
            2965.841597172633
          ],
          [
            1643.089542149248,
            2965.698381899284
          ],
          [
            1643.193022911492,
            2965.558679726389
          ],
          [
            1643.301297921918,
            2965.422659553681
          ],
          [
            1643.41423627619,
            2965.290485829361
          ],
          [
            1643.531701431993,
            2965.162318351278
          ],
          [
            1643.653551374117,
            2965.038312073733
          ],
          [
            1643.779638786153,
            2964.918616920146
          ],
          [
            1643.909811228593,
            2964.803377601788
          ],
          [
            1644.043911323135,
            2964.692733442838
          ],
          [
            1644.181776942953,
            2964.586818211929
          ],
          [
            1644.323241408703,
            2964.485759960428
          ],
          [
            1644.468133690042,
            2964.389680867621
          ],
          [
            1644.616278612403,
            2964.298697092998
          ],
          [
            1644.767497068782,
            2964.212918635815
          ],
          [
            1644.921606236274,
            2964.132449202109
          ],
          [
            1645.078419797111,
            2964.057386079313
          ],
          [
            1645.237748163914,
            2963.987820018637
          ],
          [
            1645.399398708911,
            2963.923835125354
          ],
          [
            1645.563175996816,
            2963.865508757108
          ],
          [
            1645.728882021116,
            2963.8129114304
          ]
        ]
      },
      "properties": {
        "layer": "Z_OFC",
        "dxftype": "POLYLINE",
        "handle": "D3F",
        "color": 256
      }
    },
    {
      "type": "Feature",
      "geometry": {
        "type": "LineString",
        "coordinates": [
          [
            1645.728882021116,
            2963.8129114304
          ],
          [
            1649.53080806874,
            2962.610947051933
          ],
          [
            1652.224860059283,
            2961.672209885199
          ],
          [
            1654.894021204125,
            2960.664942961631
          ],
          [
            1657.373248170334,
            2959.655653529329
          ],
          [
            1659.825681209105,
            2958.582950321157
          ],
          [
            1662.115161291159,
            2957.510925499898
          ],
          [
            1664.377165411277,
            2956.382075249526
          ],
          [
            1666.501504625132,
            2955.25680683998
          ],
          [
            1668.59936116964,
            2954.082879082838
          ],
          [
            1670.58369237197,
            2952.915022375189
          ],
          [
            1672.544171940276,
            2951.707515216054
          ],
          [
            1676.264263485159,
            2949.278457331621
          ],
          [
            1681.546591775623,
            2945.579943904473
          ],
          [
            1691.234659675278,
            2938.361105518485
          ],
          [
            1698.16285582999,
            2932.835822633385
          ],
          [
            1702.895622055931,
            2928.85968400004
          ],
          [
            1710.260608507229,
            2922.334128260071
          ],
          [
            1718.061014074165,
            2914.987260160447
          ],
          [
            1730.793008285777,
            2902.171752765557
          ],
          [
            1801.637969716728,
            2825.492973123507
          ]
        ]
      },
      "properties": {
        "layer": "Z_OFC",
        "dxftype": "POLYLINE",
        "handle": "D83",
        "color": 256
      }
    },
    {
      "type": "Feature",
      "geometry": {
        "type": "LineString",
        "coordinates": [
          [
            1727.839029267659,
            2743.44495683319
          ],
          [
            1743.590506777274,
            2753.656804403632
          ],
          [
            1759.073295429262,
            2764.265833568101
          ],
          [
            1770.97322160341,
            2772.834026030833
          ],
          [
            1776.818972052222,
            2777.262701909717
          ],
          [
            1782.570406111798,
            2781.82446675764
          ],
          [
            1787.606905871277,
            2786.026147506136
          ],
          [
            1792.540258490001,
            2790.357595913206
          ],
          [
            1797.357219782102,
            2794.820733875994
          ],
          [
            1802.044545561715,
            2799.417483291644
          ],
          [
            1806.58899164297,
            2804.149766057299
          ],
          [
            1810.977313840001,
            2809.019504070103
          ],
          [
            1815.19626796694,
            2814.028619227198
          ],
          [
            1817.238093196042,
            2816.586043827713
          ],
          [
            1819.23260983792,
            2819.17903342573
          ],
          [
            1821.234392826485,
            2821.884168761919
          ],
          [
            1823.186196581908,
            2824.625339039864
          ],
          [
            1826.947318862625,
            2830.208284343627
          ],
          [
            1830.530881618657,
            2835.912869182227
          ],
          [
            1833.95178978859,
            2841.724093400874
          ],
          [
            1837.224948311012,
            2847.62695684478
          ],
          [
            1840.365262124507,
            2853.606459359154
          ],
          [
            1846.306975379066,
            2865.735380980147
          ],
          [
            1851.477763474707,
            2877.082073898461
          ],
          [
            1856.39276296243,
            2888.523999456351
          ],
          [
            1865.638409320388,
            2911.641465216808
          ],
          [
            1874.434128154031,
            2935.489212040918
          ],
          [
            1878.487538150193,
            2947.531510150079
          ],
          [
            1882.22628208437,
            2959.669157119202
          ],
          [
            1885.80400956286,
            2972.607770301911
          ],
          [
            1897.261766078786,
            3018.44235540516
          ]
        ]
      },
      "properties": {
        "layer": "Z_OFC",
        "dxftype": "POLYLINE",
        "handle": "13B4",
        "color": 256
      }
    },
    {
      "type": "Feature",
      "geometry": {
        "type": "LineString",
        "coordinates": [
          [
            1897.261766078786,
            3018.44235540516
          ],
          [
            1897.260179223873,
            3018.452608296465
          ],
          [
            1897.258820229743,
            3018.462959046162
          ],
          [
            1897.25768856244,
            3018.473405288019
          ],
          [
            1897.256783688013,
            3018.483944655804
          ],
          [
            1897.256105072508,
            3018.494574783284
          ],
          [
            1897.255652181971,
            3018.505293304227
          ],
          [
            1897.255424482451,
            3018.516097852401
          ],
          [
            1897.255421439994,
            3018.526986061574
          ],
          [
            1897.255642520646,
            3018.537955565513
          ],
          [
            1897.256087190456,
            3018.549003997986
          ],
          [
            1897.256754915469,
            3018.56012899276
          ],
          [
            1897.257645161733,
            3018.571328183604
          ],
          [
            1897.258757395295,
            3018.582599204286
          ],
          [
            1897.260091082201,
            3018.593939688573
          ],
          [
            1897.261645688499,
            3018.605347270232
          ],
          [
            1897.263420680235,
            3018.616819583032
          ],
          [
            1897.26762968421,
            3018.639948937123
          ],
          [
            1897.272713822504,
            3018.663308820989
          ],
          [
            1897.27866882349,
            3018.686880304771
          ],
          [
            1897.285490415544,
            3018.710644458612
          ],
          [
            1897.293174327043,
            3018.734582352652
          ],
          [
            1897.301716286361,
            3018.758675057035
          ],
          [
            1897.311112021874,
            3018.7829036419
          ],
          [
            1897.321357261958,
            3018.807249177392
          ],
          [
            1897.332447734988,
            3018.831692733651
          ],
          [
            1897.34437916934,
            3018.856215380819
          ],
          [
            1897.357147293389,
            3018.880798189039
          ],
          [
            1897.370747835511,
            3018.905422228451
          ],
          [
            1897.385176524081,
            3018.930068569199
          ],
          [
            1897.400429087476,
            3018.954718281422
          ],
          [
            1897.41650125407,
            3018.979352435264
          ],
          [
            1897.433388752239,
            3019.003952100867
          ],
          [
            1897.451087310359,
            3019.028498348372
          ],
          [
            1897.469592656805,
            3019.05297224792
          ],
          [
            1897.488900519953,
            3019.077354869655
          ],
          [
            1897.509006628178,
            3019.101627283717
          ],
          [
            1897.529906709856,
            3019.125770560248
          ],
          [
            1897.551596493363,
            3019.149765769391
          ],
          [
            1897.574071707073,
            3019.173593981287
          ],
          [
            1897.597328079363,
            3019.197236266078
          ],
          [
            1897.621361338609,
            3019.220673693906
          ],
          [
            1897.646167213184,
            3019.243887334913
          ],
          [
            1897.671741431466,
            3019.266858259241
          ],
          [
            1897.69807972183,
            3019.28956753703
          ],
          [
            1897.725177812651,
            3019.311996238424
          ],
          [
            1897.753031432305,
            3019.334125433565
          ],
          [
            1897.781636309168,
            3019.355936192593
          ],
          [
            1897.810988171614,
            3019.377409585651
          ],
          [
            1897.84108274802,
            3019.398526682881
          ],
          [
            1897.871915766761,
            3019.419268554423
          ],
          [
            1897.903482956213,
            3019.439616270422
          ],
          [
            1897.935780044751,
            3019.459550901017
          ],
          [
            1897.96880276075,
            3019.479053516352
          ],
          [
            1898.002546832587,
            3019.498105186567
          ],
          [
            1898.037007988637,
            3019.516686981806
          ],
          [
            1898.072181957276,
            3019.534779972208
          ],
          [
            1898.108064466878,
            3019.552365227917
          ],
          [
            1898.14465124582,
            3019.569423819075
          ],
          [
            1898.181938022477,
            3019.585936815822
          ],
          [
            1898.219920525224,
            3019.601885288301
          ],
          [
            1898.258594482438,
            3019.617250306654
          ],
          [
            1898.297955622493,
            3019.632012941023
          ],
          [
            1898.337999673766,
            3019.646154261548
          ],
          [
            1898.378722364632,
            3019.659655338374
          ],
          [
            1898.420119423466,
            3019.672497241641
          ],
          [
            1898.462186578644,
            3019.68466104149
          ],
          [
            1898.504919558542,
            3019.696127808065
          ],
          [
            1898.548314091535,
            3019.706878611505
          ],
          [
            1898.592365905998,
            3019.716894521955
          ],
          [
            1898.637070730307,
            3019.726156609554
          ],
          [
            1898.682424292839,
            3019.734645944446
          ],
          [
            1898.728422321967,
            3019.742343596772
          ],
          [
            1898.778090723589,
            3019.749650672899
          ],
          [
            1898.828508083992,
            3019.756044950431
          ],
          [
            1898.879698053751,
            3019.761532013249
          ],
          [
            1898.931684283442,
            3019.766117445233
          ],
          [
            1898.984490423642,
            3019.76980683026
          ],
          [
            1899.038140124927,
            3019.77260575221
          ],
          [
            1899.148064813051,
            3019.775554542397
          ],
          [
            1899.261647552424,
            3019.775008486826
          ],
          [
            1899.379077547651,
            3019.771012256532
          ],
          [
            1899.500544003341,
            3019.763610522547
          ],
          [
            1899.6262361241,
            3019.752847955904
          ],
          [
            1899.756343114535,
            3019.738769227638
          ],
          [
            1899.891054179254,
            3019.721419008781
          ],
          [
            1900.17504534997,
            3019.677082783429
          ],
          [
            1900.479723273105,
            3019.620196648115
          ],
          [
            1900.806601585518,
            3019.551117971104
          ],
          [
            1901.533013925599,
            3019.37781246506
          ],
          [
            1957.648981910559,
            3004.390579039771
          ],
          [
            1959.524315369252,
            3003.847646738999
          ],
          [
            1960.087502387388,
            3003.666288211256
          ],
          [
            1960.622926744485,
            3003.47838487422
          ],
          [
            1960.880827813833,
            3003.380787478052
          ],
          [
            1961.132508084349,
            3003.280124170562
          ],
          [
            1961.378207511507,
            3003.175918382084
          ],
          [
            1961.618166050784,
            3003.067693542952
          ],
          [
            1961.852623657656,
            3002.9549730835
          ],
          [
            1962.081820287597,
            3002.83728043406
          ],
          [
            1962.305995896083,
            3002.714139024968
          ],
          [
            1962.525390438591,
            3002.585072286557
          ],
          [
            1962.740243870595,
            3002.44960364916
          ],
          [
            1962.950796147573,
            3002.307256543112
          ],
          [
            1963.157287224998,
            3002.157554398746
          ],
          [
            1963.359957058347,
            3002.000020646396
          ],
          [
            1963.559045603095,
            3001.834178716396
          ],
          [
            1963.754792814719,
            3001.659552039079
          ],
          [
            1963.947438648693,
            3001.47566404478
          ],
          [
            1964.137223060494,
            3001.282038163832
          ],
          [
            1964.324386005596,
            3001.078197826568
          ],
          [
            1964.509167439477,
            3000.863666463324
          ],
          [
            1964.69180731761,
            3000.637967504432
          ],
          [
            1964.872545595473,
            3000.400624380226
          ],
          [
            1965.051622228541,
            3000.15116052104
          ],
          [
            1965.229277172288,
            2999.889099357207
          ],
          [
            1965.465295582513,
            2999.517915204569
          ],
          [
            1965.69922748952,
            2999.124141048588
          ],
          [
            1965.931105813936,
            2998.708634704628
          ],
          [
            1966.160963476387,
            2998.272253988053
          ],
          [
            1966.388833397497,
            2997.815856714227
          ],
          [
            1966.614748497893,
            2997.340300698515
          ],
          [
            1967.060845919047,
            2996.335143702888
          ],
          [
            1967.499519104851,
            2995.263645524087
          ],
          [
            1967.931031420314,
            2994.132668685024
          ],
          [
            1968.773626900234,
            2991.719729117769
          ],
          [
            1969.590739278852,
            2989.151225184433
          ],
          [
            1971.910247007361,
            2981.061329021032
          ],
          [
            1982.705795167088,
            2940.776354708059
          ],
          [
            1984.534598583749,
            2934.760248410546
          ],
          [
            1986.530061020778,
            2928.753590778718
          ],
          [
            1988.727272371138,
            2922.773528295269
          ],
          [
            1997.066598387825,
            2902.456440373948
          ],
          [
            1998.140415882203,
            2899.558453335863
          ],
          [
            1999.133038567112,
            2896.655933607218
          ],
          [
            2000.02719440554,
            2893.746999116697
          ],
          [
            2000.431949745756,
            2892.289538188448
          ],
          [
            2000.805611360474,
            2890.829767792987
          ],
          [
            2001.146020245064,
            2889.3674526714
          ],
          [
            2001.451017394901,
            2887.902357564772
          ],
          [
            2001.718443805358,
            2886.43424721419
          ],
          [
            2001.946140471809,
            2884.962886360739
          ],
          [
            2002.131948389627,
            2883.488039745505
          ],
          [
            2002.273708554185,
            2882.009472109572
          ],
          [
            2002.369261960857,
            2880.526948194028
          ],
          [
            2002.416449605015,
            2879.040232739958
          ],
          [
            2002.413112482035,
            2877.549090488447
          ],
          [
            2002.391822443921,
            2876.80178579524
          ],
          [
            2002.357091587288,
            2876.053286180581
          ],
          [
            2002.281810225886,
            2874.957125033405
          ],
          [
            2002.177767672814,
            2873.859244026696
          ],
          [
            2002.045498315822,
            2872.760539318886
          ],
          [
            2001.885536542661,
            2871.661907068409
          ],
          [
            2001.698416741081,
            2870.5642434337
          ],
          [
            2001.484673298832,
            2869.46844457319
          ],
          [
            2001.244840603664,
            2868.375406645314
          ],
          [
            2000.979453043327,
            2867.286025808505
          ],
          [
            2000.689045005571,
            2866.201198221197
          ],
          [
            2000.374150878148,
            2865.121820041823
          ],
          [
            2000.035305048806,
            2864.048787428816
          ],
          [
            1999.673041905296,
            2862.98299654061
          ],
          [
            1999.287895835368,
            2861.925343535639
          ],
          [
            1998.880401226772,
            2860.876724572336
          ],
          [
            1998.451092467259,
            2859.838035809134
          ],
          [
            1998.000503944578,
            2858.810173404466
          ],
          [
            1997.38378068434,
            2857.491277973302
          ],
          [
            1996.732951392697,
            2856.191997046054
          ],
          [
            1996.048968259235,
            2854.912134899915
          ],
          [
            1995.332783473542,
            2853.651495812079
          ],
          [
            1994.585349225202,
            2852.409884059741
          ],
          [
            1993.807617703803,
            2851.187103920093
          ],
          [
            1993.00054109893,
            2849.982959670329
          ],
          [
            1992.165071600171,
            2848.797255587643
          ],
          [
            1991.30216139711,
            2847.62979594923
          ],
          [
            1990.412762679334,
            2846.480385032282
          ],
          [
            1989.49782763643,
            2845.348827113994
          ],
          [
            1988.558308457984,
            2844.23492647156
          ],
          [
            1987.595157333582,
            2843.138487382172
          ],
          [
            1986.609326452809,
            2842.059314123026
          ],
          [
            1985.601768005253,
            2840.997210971315
          ],
          [
            1984.5734341805,
            2839.951982204232
          ],
          [
            1982.458249157747,
            2837.911364932727
          ],
          [
            1980.271388901238,
            2835.935896526062
          ],
          [
            1978.020470927665,
            2834.024011201787
          ],
          [
            1975.713112753716,
            2832.174143177452
          ],
          [
            1973.356931896082,
            2830.384726670608
          ],
          [
            1970.959545871452,
            2828.654195898805
          ],
          [
            1968.528572196516,
            2826.980985079593
          ],
          [
            1966.071628387965,
            2825.363528430523
          ],
          [
            1962.144729730771,
            2822.911944896441
          ],
          [
            1958.177441080183,
            2820.57821450965
          ],
          [
            1954.175337748458,
            2818.344472126516
          ],
          [
            1950.143995047855,
            2816.192852603406
          ],
          [
            1933.837736801847,
            2808.050300238565
          ],
          [
            1868.709397860619,
            2776.650500787601
          ],
          [
            1852.165382839992,
            2769.309882658724
          ],
          [
            1835.460911574345,
            2762.383679835223
          ],
          [
            1818.568141998232,
            2755.977233623014
          ],
          [
            1810.042444698298,
            2753.001838404243
          ],
          [
            1801.459232046206,
            2750.195885328012
          ],
          [
            1793.902251786629,
            2747.889142072199
          ],
          [
            1786.301973769754,
            2745.721592510384
          ],
          [
            1778.661771722157,
            2743.692704370091
          ],
          [
            1770.985019370411,
            2741.801945378842
          ],
          [
            1763.275090441093,
            2740.048783264162
          ],
          [
            1755.535358660776,
            2738.432685753572
          ],
          [
            1739.979981453448,
            2735.609555454757
          ],
          [
            1731.211057848208,
            2734.262805396331
          ]
        ]
      },
      "properties": {
        "layer": "Z_OFC",
        "dxftype": "POLYLINE",
        "handle": "13D5",
        "color": 256
      }
    },
    {
      "type": "Feature",
      "geometry": {
        "type": "LineString",
        "coordinates": [
          [
            1731.211057848208,
            2734.26280539633
          ],
          [
            1731.040079760352,
            2734.241251243631
          ],
          [
            1730.868460446093,
            2734.225601994487
          ],
          [
            1730.696403776051,
            2734.215876239008
          ],
          [
            1730.524114140391,
            2734.212085530651
          ],
          [
            1730.351796206025,
            2734.214234372483
          ],
          [
            1730.179654673479,
            2734.222320211849
          ],
          [
            1730.007894033728,
            2734.236333443387
          ],
          [
            1729.836718325278,
            2734.256257420451
          ],
          [
            1729.666330891777,
            2734.28206847488
          ],
          [
            1729.496934140467,
            2734.313735945114
          ],
          [
            1729.328729301732,
            2734.351222212622
          ],
          [
            1729.161916190057,
            2734.394482746585
          ],
          [
            1728.99669296666,
            2734.443466156795
          ],
          [
            1728.833255904095,
            2734.49811425471
          ],
          [
            1728.671799153092,
            2734.558362122567
          ],
          [
            1728.512514511925,
            2734.624138190507
          ],
          [
            1728.355591198564,
            2734.695364321593
          ],
          [
            1728.201215625904,
            2734.771955904627
          ],
          [
            1728.04957118032,
            2734.853821954666
          ],
          [
            1727.900838003815,
            2734.940865221104
          ],
          [
            1727.755192780028,
            2735.032982303199
          ],
          [
            1727.612808524346,
            2735.1300637729
          ],
          [
            1727.473854378375,
            2735.231994304848
          ],
          [
            1727.338495409014,
            2735.338652813364
          ],
          [
            1727.206892412365,
            2735.449912596299
          ],
          [
            1727.079201722726,
            2735.56564148554
          ],
          [
            1726.955575026867,
            2735.685702004016
          ],
          [
            1726.836159183851,
            2735.809951529014
          ],
          [
            1726.721096050565,
            2735.9382424616
          ],
          [
            1726.610522313212,
            2736.070422401959
          ],
          [
            1726.504569324935,
            2736.206334330431
          ],
          [
            1726.403362949781,
            2736.345816794037
          ],
          [
            1726.307023413183,
            2736.48870409828
          ],
          [
            1726.215665159145,
            2736.63482650397
          ],
          [
            1726.129396714283,
            2736.784010428863
          ],
          [
            1726.048320558912,
            2736.936078653868
          ],
          [
            1725.972533005306,
            2737.090850533561
          ],
          [
            1725.902124083281,
            2737.248142210788
          ],
          [
            1725.837177433252,
            2737.407766835065
          ],
          [
            1725.777770206871,
            2737.569534784546
          ],
          [
            1725.723972975382,
            2737.733253891279
          ],
          [
            1725.675849645779,
            2737.898729669487
          ],
          [
            1725.633457384899,
            2738.065765546601
          ],
          [
            1725.596846551505,
            2738.234163096772
          ],
          [
            1725.566060636467,
            2738.403722276591
          ],
          [
            1725.541136211098,
            2738.57424166272
          ],
          [
            1725.52210288371,
            2738.745518691168
          ],
          [
            1725.508983264438,
            2738.917349897925
          ],
          [
            1725.501792938388,
            2739.08953116066
          ],
          [
            1725.500540447117,
            2739.261857941199
          ],
          [
            1725.505227278489,
            2739.434125528508
          ],
          [
            1725.515847864907,
            2739.606129281867
          ],
          [
            1725.532389589926,
            2739.777664873973
          ],
          [
            1725.554832803242,
            2739.94852853366
          ],
          [
            1725.583150844034,
            2740.118517287968
          ],
          [
            1725.617310072635,
            2740.287429203258
          ],
          [
            1725.657269910494,
            2740.455063625093
          ],
          [
            1725.702982888381,
            2740.621221416599
          ],
          [
            1725.754394702773,
            2740.785705195029
          ],
          [
            1725.811444280366,
            2740.948319566233
          ],
          [
            1725.874063850626,
            2741.108871356774
          ],
          [
            1725.942179026292,
            2741.267169843405
          ],
          [
            1726.015708891745,
            2741.423026979629
          ],
          [
            1726.094566099129,
            2741.576257619088
          ],
          [
            1726.178656972111,
            2741.726679735503
          ],
          [
            1726.267881617166,
            2741.874114638903
          ],
          [
            1726.362134042239,
            2742.018387187897
          ],
          [
            1726.461302282658,
            2742.159325997732
          ],
          [
            1726.565268534137,
            2742.296763643881
          ],
          [
            1726.673909292722,
            2742.430536860931
          ],
          [
            1726.787095501498,
            2742.560486736531
          ],
          [
            1726.904692703907,
            2742.686458900166
          ],
          [
            1727.026561203466,
            2742.808303706542
          ],
          [
            1727.152556229718,
            2742.925876413346
          ],
          [
            1727.282528110208,
            2743.039037353195
          ],
          [
            1727.416322448282,
            2743.147652099547
          ],
          [
            1727.553780306498,
            2743.251591626389
          ],
          [
            1727.694738395433,
            2743.350732461514
          ],
          [
            1727.839029267659,
            2743.44495683319
          ]
        ]
      },
      "properties": {
        "layer": "Z_OFC",
        "dxftype": "POLYLINE",
        "handle": "14A7",
        "color": 256
      }
    },
    {
      "type": "Feature",
      "geometry": {
        "type": "Polygon",
        "coordinates": [
          [
            [
              1781.135851434386,
              3053.259709791726
            ],
            [
              1781.318256193657,
              3052.98312929425
            ],
            [
              1781.503909356621,
              3052.716004682459
            ],
            [
              1781.692849767267,
              3052.458174123743
            ],
            [
              1781.885116269585,
              3052.20947578549
            ],
            [
              1782.080747707567,
              3051.969747835087
            ],
            [
              1782.279782925201,
              3051.738828439923
            ],
            [
              1782.482260766479,
              3051.516555767387
            ],
            [
              1782.68822007539,
              3051.302767984868
            ],
            [
              1782.897699695924,
              3051.097303259752
            ],
            [
              1783.110738472072,
              3050.89999975943
            ],
            [
              1783.327375247824,
              3050.710695651289
            ],
            [
              1783.54764886717,
              3050.529229102718
            ],
            [
              1783.7715981741,
              3050.355438281105
            ],
            [
              1783.999262012606,
              3050.189161353838
            ],
            [
              1784.230679226675,
              3050.030236488307
            ],
            [
              1784.465888660299,
              3049.878501851898
            ],
            [
              1784.704929157468,
              3049.733795612001
            ],
            [
              1784.947839562172,
              3049.595955936005
            ],
            [
              1785.194658718402,
              3049.464820991297
            ],
            [
              1785.445425470147,
              3049.340228945266
            ],
            [
              1785.700178661398,
              3049.222017965301
            ],
            [
              1785.958957136144,
              3049.110026218789
            ],
            [
              1786.221799738377,
              3049.004091873119
            ],
            [
              1786.488745312086,
              3048.904053095679
            ],
            [
              1786.759832701261,
              3048.809748053859
            ],
            [
              1787.035100749893,
              3048.721014915045
            ],
            [
              1787.314588301971,
              3048.637691846628
            ],
            [
              1787.598334201487,
              3048.559617015995
            ],
            [
              1787.886377292429,
              3048.486628590534
            ],
            [
              1788.178756418789,
              3048.418564737634
            ],
            [
              1788.475510424556,
              3048.355263624683
            ],
            [
              1788.776678153721,
              3048.296563419071
            ],
            [
              1789.392410158204,
              3048.192318399412
            ],
            [
              1790.02626318416,
              3048.104535017764
            ],
            [
              1790.67854798351,
              3048.031918613236
            ],
            [
              1791.349575308176,
              3047.973174524934
            ],
            [
              1792.039655910078,
              3047.927008091965
            ],
            [
              1792.749100541139,
              3047.892124653438
            ],
            [
              1794.227324898421,
              3047.851028116131
            ],
            [
              1809.113022755293,
              3047.802852348669
            ],
            [
              1813.643336480627,
              3047.646277432828
            ],
            [
              1818.436759906326,
              3047.385384873219
            ],
            [
              1823.459490664275,
              3047.001179590619
            ],
            [
              1828.677726386361,
              3046.474666505799
            ],
            [
              1834.05766470447,
              3045.786850539532
            ],
            [
              1839.565503250489,
              3044.918736612593
            ],
            [
              1845.175422103901,
              3043.857799753079
            ],
            [
              1850.893531134573,
              3042.617395418385
            ],
            [
              1862.710688997563,
              3039.677486582346
            ],
            [
              1938.732249636916,
              3018.485453110047
            ],
            [
              1951.753109970795,
              3015.02087225228
            ],
            [
              1953.671207709781,
              3014.579490755981
            ],
            [
              1954.480233998333,
              3014.413471094943
            ],
            [
              1955.201498571282,
              3014.281706468804
            ],
            [
              1955.844191432398,
              3014.182552610178
            ],
            [
              1956.138945347196,
              3014.144690885126
            ],
            [
              1956.417502585449,
              3014.114365251683
            ],
            [
              1956.681011897629,
              3014.091370176427
            ],
            [
              1956.930622034206,
              3014.075500125935
            ],
            [
              1957.167481745652,
              3014.066549566784
            ],
            [
              1957.392739782438,
              3014.064312965551
            ],
            [
              1957.607331567274,
              3014.068793529891
            ],
            [
              1957.710666608093,
              3014.073801631572
            ],
            [
              1957.811339211831,
              3014.080829431768
            ],
            [
              1957.909332976477,
              3014.090007794609
            ],
            [
              1958.004631500019,
              3014.101467584225
            ],
            [
              1958.097218380447,
              3014.115339664747
            ],
            [
              1958.187077215748,
              3014.131754900305
            ],
            [
              1958.230978490848,
              3014.140957096263
            ],
            [
              1958.274191603912,
              3014.150844155029
            ],
            [
              1958.316714504689,
              3014.161432434619
            ],
            [
              1958.358545142927,
              3014.172738293049
            ],
            [
              1958.399681468375,
              3014.184778088336
            ],
            [
              1958.440121430783,
              3014.197568178495
            ],
            [
              1958.479862979897,
              3014.211124921545
            ],
            [
              1958.518904065467,
              3014.2254646755
            ],
            [
              1958.557242637241,
              3014.240603798377
            ],
            [
              1958.594876644969,
              3014.256558648191
            ],
            [
              1958.631804038398,
              3014.27334558296
            ],
            [
              1958.668022767277,
              3014.2909809607
            ],
            [
              1958.703530781355,
              3014.309481139426
            ],
            [
              1958.738326030381,
              3014.328862477156
            ],
            [
              1958.772406464102,
              3014.349141331905
            ],
            [
              1958.805770032268,
              3014.370334061691
            ],
            [
              1958.838414684627,
              3014.392457024528
            ],
            [
              1958.870338370928,
              3014.415526578434
            ],
            [
              1958.901539040919,
              3014.439559081424
            ],
            [
              1958.932014644349,
              3014.464570891517
            ],
            [
              1958.961763130967,
              3014.490578366726
            ],
            [
              1958.99078245052,
              3014.517597865068
            ],
            [
              1959.019070552759,
              3014.545645744561
            ],
            [
              1959.046625387431,
              3014.574738363219
            ],
            [
              1959.073444904285,
              3014.604892079059
            ],
            [
              1959.099527053069,
              3014.636123250099
            ],
            [
              1959.124869783532,
              3014.668448234353
            ],
            [
              1959.149471045423,
              3014.701883389839
            ],
            [
              1959.17332878849,
              3014.736445074573
            ],
            [
              1959.196440962482,
              3014.77214964657
            ],
            [
              1959.218805517148,
              3014.809013463847
            ],
            [
              1959.240420402235,
              3014.847052884421
            ],
            [
              1959.261283567493,
              3014.886284266308
            ],
            [
              1959.281392962671,
              3014.926723967523
            ],
            [
              1959.300746537516,
              3014.968388346084
            ],
            [
              1959.319342241778,
              3015.011293760006
            ],
            [
              1959.337178025204,
              3015.055456567307
            ],
            [
              1959.354251837545,
              3015.100893126001
            ],
            [
              1959.370561628547,
              3015.147619794106
            ],
            [
              1959.38610534796,
              3015.195652929637
            ],
            [
              1959.400880945533,
              3015.245008890611
            ],
            [
              1959.414886371014,
              3015.295704035045
            ],
            [
              1959.428119574151,
              3015.347754720955
            ],
            [
              1959.440578504693,
              3015.401177306356
            ],
            [
              1959.452261112389,
              3015.455988149266
            ],
            [
              1959.463165346987,
              3015.5122036077
            ],
            [
              1959.482630495886,
              3015.628913803206
            ],
            [
              1959.498957549377,
              3015.751438757006
            ],
            [
              1959.512130105448,
              3015.879909333229
            ],
            [
              1959.52213176209,
              3016.014456396006
            ],
            [
              1959.528946117291,
              3016.155210809467
            ],
            [
              1959.532556769039,
              3016.302303437742
            ],
            [
              1959.532947315323,
              3016.455865144963
            ],
            [
              1959.530101354133,
              3016.616026795258
            ],
            [
              1959.524002483456,
              3016.782919252758
            ],
            [
              1959.501980405598,
              3017.137420045897
            ],
            [
              1959.46674986566,
              3017.52041443742
            ],
            [
              1959.418179647551,
              3017.932949340369
            ],
            [
              1959.356138535182,
              3018.376071667788
            ],
            [
              1959.191118763302,
              3019.358266248204
            ],
            [
              1958.9706408213,
              3020.475373483007
            ],
            [
              1958.359111512047,
              3023.147827133125
            ],
            [
              1951.637204422043,
              3048.130448982629
            ],
            [
              1949.451981034683,
              3056.986873985894
            ],
            [
              1948.591463311055,
              3060.987741297806
            ],
            [
              1947.895796702838,
              3064.683865445062
            ],
            [
              1947.350508669782,
              3068.11442394414
            ],
            [
              1946.941126671637,
              3071.318594311513
            ],
            [
              1946.65317816815,
              3074.335554063659
            ],
            [
              1946.472190619072,
              3077.204480717051
            ],
            [
              1946.383691484151,
              3079.964551788166
            ],
            [
              1946.373208223137,
              3082.654944793478
            ],
            [
              1946.427264329582,
              3085.306427066116
            ],
            [
              1946.536367432249,
              3087.916125205817
            ],
            [
              1946.885729276516,
              3092.965034751962
            ],
            [
              1947.35332305647,
              3097.71140476303
            ],
            [
              1948.359694577199,
              3106.041324806099
            ],
            [
              1948.554266471486,
              3108.018653578442
            ],
            [
              1948.631597900009,
              3109.034408487497
            ],
            [
              1948.692756628833,
              3110.079577310586
            ],
            [
              1948.735590392496,
              3111.162675221794
            ],
            [
              1948.757946925532,
              3112.292217395204
            ],
            [
              1948.757673962479,
              3113.4767190049
            ],
            [
              1948.732619237873,
              3114.724695224966
            ],
            [
              1948.68063048625,
              3116.044661229487
            ],
            [
              1948.599555442147,
              3117.445132192545
            ],
            [
              1948.341537414646,
              3120.521649690611
            ],
            [
              1947.948766946903,
              3123.995038805422
            ],
            [
              1947.441125491427,
              3127.796769397582
            ],
            [
              1943.51186261024,
              3152.13413900951
            ],
            [
              1940.080733189963,
              3173.650365393755
            ],
            [
              1939.192039813473,
              3178.07206027812
            ],
            [
              1938.696479447908,
              3180.201262727473
            ],
            [
              1938.164797358243,
              3182.232491185431
            ],
            [
              1937.884946774868,
              3183.201159543534
            ],
            [
              1937.595509090062,
              3184.133087654863
            ],
            [
              1937.296298747024,
              3185.024193269778
            ],
            [
              1936.987130188951,
              3185.870394138637
            ],
            [
              1936.667817859042,
              3186.667608011798
            ],
            [
              1936.504299793149,
              3187.046569121979
            ],
            [
              1936.338176200495,
              3187.411752639621
            ],
            [
              1936.169423886482,
              3187.762648283517
            ],
            [
              1935.998019656508,
              3188.098745772463
            ],
            [
              1935.823940315974,
              3188.419534825253
            ],
            [
              1935.647162670279,
              3188.724505160684
            ],
            [
              1935.467605483414,
              3189.013268250127
            ],
            [
              1935.376690251616,
              3189.151595243594
            ],
            [
              1935.284955353731,
              3189.285922575269
            ],
            [
              1935.192354359379,
              3189.416277774436
            ],
            [
              1935.098840838176,
              3189.542688370378
            ],
            [
              1935.004368359741,
              3189.665181892377
            ],
            [
              1934.908890493692,
              3189.783785869717
            ],
            [
              1934.812360809646,
              3189.898527831682
            ],
            [
              1934.714732877222,
              3190.009435307554
            ],
            [
              1934.615960266038,
              3190.116535826617
            ],
            [
              1934.515996545712,
              3190.219856918154
            ],
            [
              1934.414795285861,
              3190.319426111448
            ],
            [
              1934.312310056104,
              3190.415270935782
            ],
            [
              1934.208494426059,
              3190.507418920441
            ],
            [
              1934.103301965343,
              3190.595897594705
            ],
            [
              1933.996686243575,
              3190.68073448786
            ],
            [
              1933.888600830373,
              3190.761957129188
            ],
            [
              1933.778999295355,
              3190.839593047973
            ],
            [
              1933.667835208138,
              3190.913669773498
            ],
            [
              1933.555062138341,
              3190.984214835046
            ],
            [
              1933.440633655581,
              3191.051255761899
            ],
            [
              1933.324503329477,
              3191.114820083342
            ],
            [
              1933.206624729647,
              3191.174935328657
            ],
            [
              1933.086951425709,
              3191.231629027128
            ],
            [
              1932.96543698728,
              3191.284928708038
            ],
            [
              1932.842034983979,
              3191.334861900671
            ],
            [
              1932.716698985423,
              3191.381456134309
            ],
            [
              1932.589382561231,
              3191.424738938236
            ],
            [
              1932.460039281021,
              3191.464737841734
            ],
            [
              1932.32862271441,
              3191.501480374088
            ],
            [
              1932.195086431018,
              3191.534994064579
            ],
            [
              1932.059384000461,
              3191.565306442493
            ],
            [
              1931.921468992357,
              3191.592445037111
            ],
            [
              1931.781294976325,
              3191.616437377718
            ],
            [
              1931.638815521982,
              3191.637310993595
            ],
            [
              1931.493984198948,
              3191.655093414027
            ],
            [
              1931.346754576839,
              3191.669812168296
            ],
            [
              1931.197080225273,
              3191.681494785687
            ],
            [
              1931.044914713869,
              3191.690168795481
            ],
            [
              1930.890211612245,
              3191.695861726963
            ],
            [
              1930.732924490018,
              3191.698601109416
            ],
            [
              1930.573006916807,
              3191.698414472122
            ],
            [
              1930.41041246223,
              3191.695329344365
            ],
            [
              1930.077007187447,
              3191.680573734594
            ],
            [
              1929.732337222615,
              3191.65455451437
            ],
            [
              1929.376031124677,
              3191.617491917958
            ],
            [
              1929.007717450578,
              3191.569606179624
            ],
            [
              1928.627024757261,
              3191.511117533633
            ],
            [
              1928.233581601669,
              3191.442246214252
            ],
            [
              1927.406958131442,
              3191.274236492382
            ],
            [
              1926.524875495447,
              3191.067338888138
            ],
            [
              1925.583259731605,
              3190.822710924515
            ],
            [
              1924.573627207315,
              3190.539092719983
            ],
            [
              1922.311967676458,
              3189.847428657543
            ],
            [
              1787.508022960774,
              3144.977285996438
            ],
            [
              1782.026322160994,
              3143.01323424277
            ],
            [
              1777.378410329132,
              3141.223761418735
            ],
            [
              1775.391246264947,
              3140.397110789273
            ],
            [
              1773.622480441731,
              3139.612359102923
            ],
            [
              1772.059601369527,
              3138.86485092156
            ],
            [
              1771.351459524443,
              3138.503608320835
            ],
            [
              1770.690097558377,
              3138.149930807062
            ],
            [
              1770.073951535086,
              3137.803236450473
            ],
            [
              1769.501457518325,
              3137.462943321304
            ],
            [
              1768.971051571849,
              3137.12846948979
            ],
            [
              1768.481169759414,
              3136.799233026164
            ],
            [
              1768.030248144775,
              3136.474652000663
            ],
            [
              1767.818908681552,
              3136.313925424157
            ],
            [
              1767.616722791687,
              3136.154144483519
            ],
            [
              1767.423494983148,
              3135.99523643753
            ],
            [
              1767.239029763906,
              3135.837128544968
            ],
            [
              1767.063131641929,
              3135.679748064613
            ],
            [
              1766.895605125187,
              3135.523022255244
            ],
            [
              1766.73625472165,
              3135.36687837564
            ],
            [
              1766.584884939286,
              3135.211243684582
            ],
            [
              1766.441300286065,
              3135.056045440847
            ],
            [
              1766.305305269957,
              3134.901210903216
            ],
            [
              1766.176704398932,
              3134.746667330467
            ],
            [
              1766.055302180957,
              3134.592341981381
            ],
            [
              1765.940903124004,
              3134.438162114735
            ],
            [
              1765.833311736041,
              3134.284054989311
            ],
            [
              1765.732332525037,
              3134.129947863887
            ],
            [
              1765.637769998964,
              3133.975767997242
            ],
            [
              1765.549428665788,
              3133.821442648155
            ],
            [
              1765.467113033481,
              3133.666899075406
            ],
            [
              1765.390627610011,
              3133.512064537775
            ],
            [
              1765.319776903348,
              3133.35686629404
            ],
            [
              1765.254365421461,
              3133.201231602982
            ],
            [
              1765.19419767232,
              3133.045087723378
            ],
            [
              1765.139078163894,
              3132.888361914009
            ],
            [
              1765.088811404153,
              3132.730981433654
            ],
            [
              1765.043201901066,
              3132.572873541092
            ],
            [
              1765.002054162602,
              3132.413965495103
            ],
            [
              1764.965172696731,
              3132.254184554465
            ],
            [
              1764.932362011423,
              3132.093457977959
            ],
            [
              1764.903426614646,
              3131.931713024364
            ],
            [
              1764.87817101437,
              3131.768876952458
            ],
            [
              1764.856399718565,
              3131.60487702102
            ],
            [
              1764.8379172352,
              3131.439640488832
            ],
            [
              1764.822528072244,
              3131.273094614671
            ],
            [
              1764.810036737667,
              3131.105166657318
            ],
            [
              1764.792965585527,
              3130.764873528149
            ],
            [
              1764.785139842536,
              3130.418179171561
            ],
            [
              1764.785230694021,
              3130.064545217538
            ],
            [
              1764.792849811605,
              3129.70360753507
            ],
            [
              1764.807843988481,
              3129.335045552898
            ],
            [
              1764.830060017844,
              3128.958538699763
            ],
            [
              1764.895544806807,
              3128.180408095562
            ],
            [
              1764.988078524049,
              3127.366651152392
            ],
            [
              1765.106435515126,
              3126.514703300177
            ],
            [
              1765.249390125591,
              3125.621999968839
            ],
            [
              1765.604189586905,
              3123.704068588496
            ],
            [
              1770.642208638492,
              3100.137394982068
            ],
            [
              1775.86921857315,
              3070.390956346175
            ],
            [
              1776.685253140469,
              3066.257057050955
            ],
            [
              1777.125109326526,
              3064.284625882656
            ],
            [
              1777.591011770762,
              3062.389746421612
            ],
            [
              1778.086575715614,
              3060.58332320861
            ],
            [
              1778.346610514033,
              3059.716690364119
            ],
            [
              1778.615416403519,
              3058.876260784434
            ],
            [
              1778.893445289377,
              3058.063397537153
            ],
            [
              1779.181149076912,
              3057.279463689873
            ],
            [
              1779.478979671428,
              3056.525822310192
            ],
            [
              1779.78738897823,
              3055.80383646571
            ],
            [
              1780.106828902622,
              3055.114869224023
            ],
            [
              1780.270826566823,
              3054.783193537854
            ],
            [
              1780.43775134991,
              3054.460283652732
            ],
            [
              1780.607659740046,
              3054.146309952109
            ],
            [
              1780.780608225396,
              3053.841442819434
            ],
            [
              1780.956653294121,
              3053.545852638156
            ],
            [
              1781.135851434386,
              3053.259709791726
            ]
          ]
        ]
      },
      "properties": {
        "layer": "Z_OFC",
        "dxftype": "POLYLINE",
        "handle": "14F9",
        "color": 256
      }
    }
  ]
}