{"type":"FeatureCollection","features":[{"id":"24","type":"Feature","properties":{"OBJECTID":726447,"id":"1ba3adcf-f45a-3549-bc85-3a7bcc34e090","name":"常德路(快速公交站)","type":"交通设施服务;公交车站;快速公交站","typecode":"150704","address":"71路;71路区间","经度":121.448661,"纬度":31.221612,"tel":"[]","pcode":310000,"pname":"上海市","citycode":21,"cityname":"上海市","adcode":310106,"adname":"静安区","gridcode":4621636512.0,"distance":"138","business_a":"淮海路","timestamp":"2023-05-05","biz_ext":"{\"rating\": [], \"cost\": []}","行业大":"交通设施服务","行业中":"公交车站","行业小":"快速公交站","typecode_X":0.0,"typecode_Y":0.0,"__source_file__":"04-交通数据/2-交通设施/公交车站/上海市_快速公交站.shp"},"geometry":{"type":"Point","coordinates":[121.44406720738156,31.223498552440407]}},{"id":"27","type":"Feature","properties":{"OBJECTID":726450,"id":"56e673a8-e14d-37bf-9b55-24d72fcc8731","name":"上海展览中心(快速公交站)","type":"交通设施服务;公交车站;快速公交站","typecode":"150704","address":"(停运)71路西延伸线;71路;71路区间","经度":121.453247,"纬度":31.223394,"tel":"[]","pcode":310000,"pname":"上海市","citycode":21,"cityname":"上海市","adcode":310106,"adname":"静安区","gridcode":4621636620.0,"distance":"416","business_a":"淮海路","timestamp":"2023-06-02","biz_ext":"{'rating': [], 'cost': []}","行业大":"交通设施服务","行业中":"公交车站","行业小":"快速公交站","typecode_X":0.0,"typecode_Y":0.0,"__source_file__":"04-交通数据/2-交通设施/公交车站/上海市_快速公交站.shp"},"geometry":{"type":"Point","coordinates":[121.44866439821315,31.225289208489272]}},{"id":"19","type":"Feature","properties":{"OBJECTID":726442,"id":"33c9ec71-f060-3f8a-abae-3b931e5bb3a6","name":"成都北路(快速公交站)","type":"交通设施服务;公交车站;快速公交站","typecode":"150704","address":"71路;71路区间","经度":121.468045,"纬度":31.223818,"tel":"[]","pcode":310000,"pname":"上海市","citycode":21,"cityname":"上海市","adcode":310101,"adname":"黄浦区","gridcode":4621636721.0,"distance":"438","business_a":"淮海路","timestamp":"2023-05-13","biz_ext":"{\"rating\": [], \"cost\": []}","行业大":"交通设施服务","行业中":"公交车站","行业小":"快速公交站","typecode_X":0.0,"typecode_Y":0.0,"__source_file__":"04-交通数据/2-交通设施/公交车站/上海市_快速公交站.shp"},"geometry":{"type":"Point","coordinates":[121.46350451292476,31.225748277161156]}},{"id":"17","type":"Feature","properties":{"OBJECTID":726439,"id":"33538dbb-e7eb-3dfd-a8f7-c14369efbce0","name":"茂名北路(快速公交站)","type":"交通设施服务;公交车站;快速公交站","typecode":"150704","address":"71路;71路区间","经度":121.461402,"纬度":31.224067,"tel":"[]","pcode":310000,"pname":"上海市","citycode":21,"cityname":"上海市","adcode":310106,"adname":"静安区","gridcode":4621636622.0,"distance":"281","business_a":"淮海路","timestamp":"2023-05-05","biz_ext":"{'rating': [], 'cost': []}","行业大":"交通设施服务","行业中":"公交车站","行业小":"快速公交站","typecode_X":0.0,"typecode_Y":0.0,"__source_file__":"04-交通数据/2-交通设施/公交车站/上海市_快速公交站.shp"},"geometry":{"type":"Point","coordinates":[121.45684160150773,31.225980520903853]}},{"id":"51","type":"Feature","properties":{"OBJECTID":731675,"id":"6199df31-ad0b-3827-82f7-589c1e7dd399","name":"黄陂北路(快速公交站)","type":"交通设施服务;公交车站;快速公交站","typecode":"150704","address":"71路;71路区间","经度":121.473772,"纬度":31.226363,"tel":"[]","pcode":310000,"pname":"上海市","citycode":21,"cityname":"上海市","adcode":310101,"adname":"黄浦区","gridcode":4621637702.0,"distance":"331","business_a":"北京东路","timestamp":"2023-05-05","biz_ext":"{'rating': [], 'cost': []}","行业大":"交通设施服务","行业中":"公交车站","行业小":"快速公交站","typecode_X":0.0,"typecode_Y":0.0,"__source_file__":"04-交通数据/2-交通设施/公交车站/上海市_快速公交站.shp"},"geometry":{"type":"Point","coordinates":[121.46924952222894,31.22830733164568]}},{"id":"21","type":"Feature","properties":{"OBJECTID":726444,"id":"1e8917e8-765e-365a-b094-fd7eeb342bbe","name":"西藏中路(快速公交站)","type":"交通设施服务;公交车站;快速公交站","typecode":"150704","address":"71路","经度":121.478859,"纬度":31.229067,"tel":"[]","pcode":310000,"pname":"上海市","citycode":21,"cityname":"上海市","adcode":310101,"adname":"黄浦区","gridcode":4621637810.0,"distance":"348","business_a":"北京东路","timestamp":"2023-04-16","biz_ext":"{\"rating\": [], \"cost\": []}","行业大":"交通设施服务","行业中":"公交车站","行业小":"快速公交站","typecode_X":0.0,"typecode_Y":0.0,"__source_file__":"04-交通数据/2-交通设施/公交车站/上海市_快速公交站.shp"},"geometry":{"type":"Point","coordinates":[121.47435318822106,31.231024197729305]}},{"id":"12","type":"Feature","properties":{"OBJECTID":726433,"id":"7b6d688e-6df9-33b4-8384-d009dd9372a6","name":"河南中路(快速公交站)","type":"交通设施服务;公交车站;快速公交站","typecode":"150704","address":"71路","经度":121.487669,"纬度":31.23122,"tel":"[]","pcode":310000,"pname":"上海市","citycode":21,"cityname":"上海市","adcode":310101,"adname":"黄浦区","gridcode":4621637920.0,"distance":"442","business_a":"北京东路","timestamp":"2023-04-17","biz_ext":"{'rating': [], 'cost': []}","行业大":"交通设施服务","行业中":"公交车站","行业小":"快速公交站","typecode_X":0.0,"typecode_Y":0.0,"__source_file__":"04-交通数据/2-交通设施/公交车站/上海市_快速公交站.shp"},"geometry":{"type":"Point","coordinates":[121.48319348836921,31.233201653224075]}},{"id":"25","type":"Feature","properties":{"OBJECTID":726448,"id":"f1a24b32-8753-39c4-bec0-a75f47543f3c","name":"延安东路外滩(快速公交站)","type":"交通设施服务;公交车站;快速公交站","typecode":"150704","address":"71路","经度":121.490807,"纬度":31.232873,"tel":"[]","pcode":310000,"pname":"上海市","citycode":21,"cityname":"上海市","adcode":310101,"adname":"黄浦区","gridcode":4621637920.0,"distance":"468","business_a":"北京东路","timestamp":"2022-10-29","biz_ext":"{\"rating\": [], \"cost\": []}","行业大":"交通设施服务","行业中":"公交车站","行业小":"快速公交站","typecode_X":0.0,"typecode_Y":0.0,"__source_file__":"04-交通数据/2-交通设施/公交车站/上海市_快速公交站.shp"},"geometry":{"type":"Point","coordinates":[121.48634248069003,31.234863176902994]}}],"name":"上海市_快速公交站","crs":{"type":"name","properties":{"name":"urn:ogc:def:crs:OGC:1.3:CRS84"}}}