{"type":"FeatureCollection","features":[{"id":"0","type":"Feature","properties":{"OBJECTID":1,"NAME":"报刊门市部","ADDRESS":"吴淞路531号","TELEPHONE":null,"PROVINCE":"上海市","CITY":"上海市","COUNTY":"虹口区","CODE":"310109","LON":121.487846,"LAT":31.252626,"TYPECODE":200100.0,"BASETYPE":"公共设施","SUBTYPE":"报刊亭","CATEGORY":"公共设施","__source_file__":"02-POI&AOI/1-POI/其它/15/上海市-公共设施_WGS84.shp"},"geometry":{"type":"Point","coordinates":[121.48336928383445,31.254598511052897]}}],"name":"上海市-公共设施_WGS84","crs":{"type":"name","properties":{"name":"urn:ogc:def:crs:OGC:1.3:CRS84"}}}