{"type":"FeatureCollection","features":[{"id":"360","type":"Feature","properties":{"OBJECTID":361,"NAME":"国泰勇旺摩配","ADDRESS":"永寿路156号","TELEPHONE":null,"PROVINCE":"上海市","CITY":"上海市","COUNTY":"黄浦区","CODE":"310101","LON":121.482567,"LAT":31.227442,"TYPECODE":40000.0,"BASETYPE":"摩托车服务","SUBTYPE":"摩托车服务相关","CATEGORY":"摩托车服务相关","__source_file__":"02-POI&AOI/1-POI/其它/15/上海市-摩托车服务_WGS84.shp"},"geometry":{"type":"Point","coordinates":[121.4780739947243,31.229410532001545]}},{"id":"18","type":"Feature","properties":{"OBJECTID":19,"NAME":"九阳阳服务中心","ADDRESS":"福建南路93号(近金陵东路)","TELEPHONE":"021-63865789","PROVINCE":"上海市","CITY":"上海市","COUNTY":"黄浦区","CODE":"310101","LON":121.484367,"LAT":31.229471,"TYPECODE":40000.0,"BASETYPE":"摩托车服务","SUBTYPE":"摩托车服务相关","CATEGORY":"摩托车服务相关","__source_file__":"02-POI&AOI/1-POI/其它/15/上海市-摩托车服务_WGS84.shp"},"geometry":{"type":"Point","coordinates":[121.4798800609813,31.231443800180475]}},{"id":"456","type":"Feature","properties":{"OBJECTID":457,"NAME":"小李车行(汉阳路)","ADDRESS":"汉阳路156-158号","TELEPHONE":"021-63565007","PROVINCE":"上海市","CITY":"上海市","COUNTY":"虹口区","CODE":"310109","LON":121.492294,"LAT":31.249998,"TYPECODE":40200.0,"BASETYPE":"摩托车服务","SUBTYPE":"摩托车维修","CATEGORY":"摩托车维修","__source_file__":"02-POI&AOI/1-POI/其它/15/上海市-摩托车服务_WGS84.shp"},"geometry":{"type":"Point","coordinates":[121.48783333175716,31.251984864944077]}},{"id":"461","type":"Feature","properties":{"OBJECTID":462,"NAME":"永久呈捷燃气车维修中心(东余杭路店)","ADDRESS":"东余杭路168","TELEPHONE":"021-65472172","PROVINCE":"上海市","CITY":"上海市","COUNTY":"虹口区","CODE":"310109","LON":121.492149,"LAT":31.251513,"TYPECODE":40200.0,"BASETYPE":"摩托车服务","SUBTYPE":"摩托车维修","CATEGORY":"摩托车维修","__source_file__":"02-POI&AOI/1-POI/其它/15/上海市-摩托车服务_WGS84.shp"},"geometry":{"type":"Point","coordinates":[121.48768768316474,31.253498761823145]}},{"id":"538","type":"Feature","properties":{"OBJECTID":539,"NAME":"宏达车行(梧州路店)","ADDRESS":"梧州路69号","TELEPHONE":null,"PROVINCE":"上海市","CITY":"上海市","COUNTY":"虹口区","CODE":"310109","LON":121.493469,"LAT":31.251999,"TYPECODE":40200.0,"BASETYPE":"摩托车服务","SUBTYPE":"摩托车维修","CATEGORY":"摩托车维修","__source_file__":"02-POI&AOI/1-POI/其它/15/上海市-摩托车服务_WGS84.shp"},"geometry":{"type":"Point","coordinates":[121.48901237276493,31.253988488163326]}},{"id":"540","type":"Feature","properties":{"OBJECTID":541,"NAME":"雅马哈(梧州路)","ADDRESS":"梧州路100号","TELEPHONE":null,"PROVINCE":"上海市","CITY":"上海市","COUNTY":"虹口区","CODE":"310109","LON":121.493652,"LAT":31.252457,"TYPECODE":40100.0,"BASETYPE":"摩托车服务","SUBTYPE":"摩托车销售","CATEGORY":"摩托车销售","__source_file__":"02-POI&AOI/1-POI/其它/15/上海市-摩托车服务_WGS84.shp"},"geometry":{"type":"Point","coordinates":[121.48919599002693,31.254446832600664]}},{"id":"454","type":"Feature","properties":{"OBJECTID":455,"NAME":"雅马哈专卖店","ADDRESS":"虬江路526号3楼76馆","TELEPHONE":null,"PROVINCE":"上海市","CITY":"上海市","COUNTY":"虹口区","CODE":"310109","LON":121.48185,"LAT":31.254025,"TYPECODE":40000.0,"BASETYPE":"摩托车服务","SUBTYPE":"摩托车服务相关","CATEGORY":"摩托车服务相关","__source_file__":"02-POI&AOI/1-POI/其它/15/上海市-摩托车服务_WGS84.shp"},"geometry":{"type":"Point","coordinates":[121.47735224786271,31.255979440026774]}},{"id":"457","type":"Feature","properties":{"OBJECTID":458,"NAME":"ducati","ADDRESS":"1933老场坊内","TELEPHONE":null,"PROVINCE":"上海市","CITY":"上海市","COUNTY":"虹口区","CODE":"310109","LON":121.491493,"LAT":31.254499,"TYPECODE":40000.0,"BASETYPE":"摩托车服务","SUBTYPE":"摩托车服务相关","CATEGORY":"摩托车服务相关","__source_file__":"02-POI&AOI/1-POI/其它/15/上海市-摩托车服务_WGS84.shp"},"geometry":{"type":"Point","coordinates":[121.48702908318563,31.25648149069388]}},{"id":"543","type":"Feature","properties":{"OBJECTID":544,"NAME":"立扬车行","ADDRESS":"岳州路12号","TELEPHONE":"021-65022635","PROVINCE":"上海市","CITY":"上海市","COUNTY":"虹口区","CODE":"310109","LON":121.497971,"LAT":31.256281,"TYPECODE":40200.0,"BASETYPE":"摩托车服务","SUBTYPE":"摩托车维修","CATEGORY":"摩托车维修","__source_file__":"02-POI&AOI/1-POI/其它/15/上海市-摩托车服务_WGS84.shp"},"geometry":{"type":"Point","coordinates":[121.49353022487448,31.258282106298]}},{"id":"397","type":"Feature","properties":{"OBJECTID":398,"NAME":"小沈车行(长乐路店)","ADDRESS":"长乐路111-1号","TELEPHONE":"13585618089","PROVINCE":"上海市","CITY":"上海市","COUNTY":"黄浦区","CODE":"310101","LON":121.467506,"LAT":31.221809,"TYPECODE":40200.0,"BASETYPE":"摩托车服务","SUBTYPE":"摩托车维修","CATEGORY":"摩托车维修","__source_file__":"02-POI&AOI/1-POI/其它/15/上海市-摩托车服务_WGS84.shp"},"geometry":{"type":"Point","coordinates":[121.46296401901333,31.22373882520196]}},{"id":"648","type":"Feature","properties":{"OBJECTID":649,"NAME":"陕西北路摩托车电动增压器","ADDRESS":"陕西北路438号(近北京西路)","TELEPHONE":null,"PROVINCE":"上海市","CITY":"上海市","COUNTY":"静安区","CODE":"310106","LON":121.453079,"LAT":31.230389,"TYPECODE":40000.0,"BASETYPE":"摩托车服务","SUBTYPE":"摩托车服务相关","CATEGORY":"摩托车服务相关","__source_file__":"02-POI&AOI/1-POI/其它/15/上海市-摩托车服务_WGS84.shp"},"geometry":{"type":"Point","coordinates":[121.44849536193072,31.23228059314331]}},{"id":"646","type":"Feature","properties":{"OBJECTID":647,"NAME":"电摩之家","ADDRESS":"陕西北路678号","TELEPHONE":null,"PROVINCE":"上海市","CITY":"上海市","COUNTY":"静安区","CODE":"310106","LON":121.450645,"LAT":31.234154,"TYPECODE":40000.0,"BASETYPE":"摩托车服务","SUBTYPE":"摩托车服务相关","CATEGORY":"摩托车服务相关","__source_file__":"02-POI&AOI/1-POI/其它/15/上海市-摩托车服务_WGS84.shp"},"geometry":{"type":"Point","coordinates":[121.44605492025353,31.236038743072335]}},{"id":"799","type":"Feature","properties":{"OBJECTID":800,"NAME":"维达车行","ADDRESS":"康定路377-2号","TELEPHONE":null,"PROVINCE":"上海市","CITY":"上海市","COUNTY":"静安区","CODE":"310106","LON":121.449249,"LAT":31.234524,"TYPECODE":40100.0,"BASETYPE":"摩托车服务","SUBTYPE":"摩托车销售","CATEGORY":"摩托车销售","__source_file__":"02-POI&AOI/1-POI/其它/15/上海市-摩托车服务_WGS84.shp"},"geometry":{"type":"Point","coordinates":[121.44465549310792,31.236405733723934]}},{"id":"647","type":"Feature","properties":{"OBJECTID":648,"NAME":"标致摩托(上海旗舰店)","ADDRESS":"江宁路916号","TELEPHONE":null,"PROVINCE":"上海市","CITY":"上海市","COUNTY":"静安区","CODE":"310106","LON":121.447006,"LAT":31.240688,"TYPECODE":40100.0,"BASETYPE":"摩托车服务","SUBTYPE":"摩托车销售","CATEGORY":"摩托车销售","__source_file__":"02-POI&AOI/1-POI/其它/15/上海市-摩托车服务_WGS84.shp"},"geometry":{"type":"Point","coordinates":[121.4424066821678,31.242562512786126]}},{"id":"627","type":"Feature","properties":{"OBJECTID":628,"NAME":"东伦车行","ADDRESS":"天目东路249号靠近浙江北路","TELEPHONE":"021-62769853","PROVINCE":"上海市","CITY":"上海市","COUNTY":"静安区","CODE":"310106","LON":121.474747,"LAT":31.248789,"TYPECODE":40200.0,"BASETYPE":"摩托车服务","SUBTYPE":"摩托车维修","CATEGORY":"摩托车维修","__source_file__":"02-POI&AOI/1-POI/其它/15/上海市-摩托车服务_WGS84.shp"},"geometry":{"type":"Point","coordinates":[121.47022578704413,31.25072578408845]}},{"id":"764","type":"Feature","properties":{"OBJECTID":765,"NAME":"摩托修理","ADDRESS":"交通路1439号","TELEPHONE":null,"PROVINCE":"上海市","CITY":"上海市","COUNTY":"普陀区","CODE":"310107","LON":121.445145,"LAT":31.254946,"TYPECODE":40200.0,"BASETYPE":"摩托车服务","SUBTYPE":"摩托车维修","CATEGORY":"摩托车维修","__source_file__":"02-POI&AOI/1-POI/其它/15/上海市-摩托车服务_WGS84.shp"},"geometry":{"type":"Point","coordinates":[121.44054023742108,31.25681063714021]}},{"id":"620","type":"Feature","properties":{"OBJECTID":621,"NAME":"锐达燃气助动车维修中心","ADDRESS":"天通庵路5-1号","TELEPHONE":null,"PROVINCE":"上海市","CITY":"上海市","COUNTY":"静安区","CODE":"310106","LON":121.467812,"LAT":31.257008,"TYPECODE":40200.0,"BASETYPE":"摩托车服务","SUBTYPE":"摩托车维修","CATEGORY":"摩托车维修","__source_file__":"02-POI&AOI/1-POI/其它/15/上海市-摩托车服务_WGS84.shp"},"geometry":{"type":"Point","coordinates":[121.463267932058,31.25892264612662]}},{"id":"623","type":"Feature","properties":{"OBJECTID":624,"NAME":"小曹燃气车修理店","ADDRESS":"止园路270号","TELEPHONE":"13391147896","PROVINCE":"上海市","CITY":"上海市","COUNTY":"静安区","CODE":"310106","LON":121.469925,"LAT":31.257843,"TYPECODE":40200.0,"BASETYPE":"摩托车服务","SUBTYPE":"摩托车维修","CATEGORY":"摩托车维修","__source_file__":"02-POI&AOI/1-POI/其它/15/上海市-摩托车服务_WGS84.shp"},"geometry":{"type":"Point","coordinates":[121.4653874659459,31.259762804131974]}},{"id":"608","type":"Feature","properties":{"OBJECTID":609,"NAME":"小杨车行(芷江中路)","ADDRESS":"芷江中路664-1","TELEPHONE":null,"PROVINCE":"上海市","CITY":"上海市","COUNTY":"静安区","CODE":"310106","LON":121.468658,"LAT":31.258226,"TYPECODE":40200.0,"BASETYPE":"摩托车服务","SUBTYPE":"摩托车维修","CATEGORY":"摩托车维修","__source_file__":"02-POI&AOI/1-POI/其它/15/上海市-摩托车服务_WGS84.shp"},"geometry":{"type":"Point","coordinates":[121.46411645623397,31.260142312958017]}},{"id":"798","type":"Feature","properties":{"OBJECTID":799,"NAME":"洲明车行","ADDRESS":"安远路605号","TELEPHONE":null,"PROVINCE":"上海市","CITY":"上海市","COUNTY":"静安区","CODE":"310106","LON":121.437241,"LAT":31.236074,"TYPECODE":40200.0,"BASETYPE":"摩托车服务","SUBTYPE":"摩托车维修","CATEGORY":"摩托车维修","__source_file__":"02-POI&AOI/1-POI/其它/15/上海市-摩托车服务_WGS84.shp"},"geometry":{"type":"Point","coordinates":[121.43262180075085,31.237933656904282]}},{"id":"711","type":"Feature","properties":{"OBJECTID":712,"NAME":"铃木华东地区销售服务部","ADDRESS":"中山北路2318号104室","TELEPHONE":"021-62048464","PROVINCE":"上海市","CITY":"上海市","COUNTY":"普陀区","CODE":"310107","LON":121.42688,"LAT":31.245344,"TYPECODE":40000.0,"BASETYPE":"摩托车服务","SUBTYPE":"摩托车服务相关","CATEGORY":"摩托车服务相关","__source_file__":"02-POI&AOI/1-POI/其它/15/上海市-摩托车服务_WGS84.shp"},"geometry":{"type":"Point","coordinates":[121.4222435925908,31.24718578232975]}},{"id":"751","type":"Feature","properties":{"OBJECTID":752,"NAME":"铃木病院","ADDRESS":"浅水湾文化艺术中心","TELEPHONE":null,"PROVINCE":"上海市","CITY":"上海市","COUNTY":"普陀区","CODE":"310107","LON":121.439941,"LAT":31.248951,"TYPECODE":40000.0,"BASETYPE":"摩托车服务","SUBTYPE":"摩托车服务相关","CATEGORY":"摩托车服务相关","__source_file__":"02-POI&AOI/1-POI/其它/15/上海市-摩托车服务_WGS84.shp"},"geometry":{"type":"Point","coordinates":[121.43532583844815,31.250809158935375]}},{"id":"774","type":"Feature","properties":{"OBJECTID":775,"NAME":"小代车行","ADDRESS":"远景路702附近","TELEPHONE":null,"PROVINCE":"上海市","CITY":"上海市","COUNTY":"普陀区","CODE":"310107","LON":121.43647,"LAT":31.252861,"TYPECODE":40200.0,"BASETYPE":"摩托车服务","SUBTYPE":"摩托车维修","CATEGORY":"摩托车维修","__source_file__":"02-POI&AOI/1-POI/其它/15/上海市-摩托车服务_WGS84.shp"},"geometry":{"type":"Point","coordinates":[121.43184793479563,31.25471194518429]}},{"id":"791","type":"Feature","properties":{"OBJECTID":792,"NAME":"华俊燃气车电瓶车修理","ADDRESS":"志丹路56号","TELEPHONE":"021-56611758","PROVINCE":"上海市","CITY":"上海市","COUNTY":"普陀区","CODE":"310107","LON":121.43116,"LAT":31.25956,"TYPECODE":40200.0,"BASETYPE":"摩托车服务","SUBTYPE":"摩托车维修","CATEGORY":"摩托车维修","__source_file__":"02-POI&AOI/1-POI/其它/15/上海市-摩托车服务_WGS84.shp"},"geometry":{"type":"Point","coordinates":[121.42652846741782,31.2614005996032]}},{"id":"784","type":"Feature","properties":{"OBJECTID":785,"NAME":"豪爵&铃木摩托车上海技术服务中心","ADDRESS":"延长西路106-108号","TELEPHONE":"021-36050709","PROVINCE":"上海市","CITY":"上海市","COUNTY":"普陀区","CODE":"310107","LON":121.440811,"LAT":31.263573,"TYPECODE":40100.0,"BASETYPE":"摩托车服务","SUBTYPE":"摩托车销售","CATEGORY":"摩托车销售","__source_file__":"02-POI&AOI/1-POI/其它/15/上海市-摩托车服务_WGS84.shp"},"geometry":{"type":"Point","coordinates":[121.43619630408172,31.26542620988587]}},{"id":"779","type":"Feature","properties":{"OBJECTID":780,"NAME":"荣誉车行","ADDRESS":"延长西路106号","TELEPHONE":"021-56944338","PROVINCE":"上海市","CITY":"上海市","COUNTY":"普陀区","CODE":"310107","LON":121.440956,"LAT":31.263577,"TYPECODE":40200.0,"BASETYPE":"摩托车服务","SUBTYPE":"摩托车维修","CATEGORY":"摩托车维修","__source_file__":"02-POI&AOI/1-POI/其它/15/上海市-摩托车服务_WGS84.shp"},"geometry":{"type":"Point","coordinates":[121.43634159712026,31.26543045315492]}},{"id":"763","type":"Feature","properties":{"OBJECTID":764,"NAME":"铃木","ADDRESS":"延长西路104附近","TELEPHONE":null,"PROVINCE":"上海市","CITY":"上海市","COUNTY":"普陀区","CODE":"310107","LON":121.44091,"LAT":31.263632,"TYPECODE":40100.0,"BASETYPE":"摩托车服务","SUBTYPE":"摩托车销售","CATEGORY":"摩托车销售","__source_file__":"02-POI&AOI/1-POI/其它/15/上海市-摩托车服务_WGS84.shp"},"geometry":{"type":"Point","coordinates":[121.43629549895796,31.265485351561683]}},{"id":"542","type":"Feature","properties":{"OBJECTID":543,"NAME":"兴盛车行","ADDRESS":"东宝兴路107号","TELEPHONE":null,"PROVINCE":"上海市","CITY":"上海市","COUNTY":"虹口区","CODE":"310109","LON":121.484497,"LAT":31.257189,"TYPECODE":40200.0,"BASETYPE":"摩托车服务","SUBTYPE":"摩托车维修","CATEGORY":"摩托车维修","__source_file__":"02-POI&AOI/1-POI/其它/15/上海市-摩托车服务_WGS84.shp"},"geometry":{"type":"Point","coordinates":[121.48000814123152,31.2591497027797]}},{"id":"466","type":"Feature","properties":{"OBJECTID":467,"NAME":"小袁修理部(海伦路)","ADDRESS":"海伦路391号","TELEPHONE":null,"PROVINCE":"上海市","CITY":"上海市","COUNTY":"虹口区","CODE":"310109","LON":121.490128,"LAT":31.257751,"TYPECODE":40200.0,"BASETYPE":"摩托车服务","SUBTYPE":"摩托车维修","CATEGORY":"摩托车维修","__source_file__":"02-POI&AOI/1-POI/其它/15/上海市-摩托车服务_WGS84.shp"},"geometry":{"type":"Point","coordinates":[121.48565893801319,31.25972800932986]}},{"id":"622","type":"Feature","properties":{"OBJECTID":623,"NAME":"小范燃气车服务社","ADDRESS":"东宝兴路578-1号","TELEPHONE":null,"PROVINCE":"上海市","CITY":"上海市","COUNTY":"静安区","CODE":"310106","LON":121.477287,"LAT":31.260925,"TYPECODE":40200.0,"BASETYPE":"摩托车服务","SUBTYPE":"摩托车维修","CATEGORY":"摩托车维修","__source_file__":"02-POI&AOI/1-POI/其它/15/上海市-摩托车服务_WGS84.shp"},"geometry":{"type":"Point","coordinates":[121.47277316837837,31.262863493587435]}},{"id":"446","type":"Feature","properties":{"OBJECTID":447,"NAME":"膜托小屋","ADDRESS":"华昌路116号","TELEPHONE":null,"PROVINCE":"上海市","CITY":"上海市","COUNTY":"虹口区","CODE":"310109","LON":121.476913,"LAT":31.263079,"TYPECODE":40200.0,"BASETYPE":"摩托车服务","SUBTYPE":"摩托车维修","CATEGORY":"摩托车维修","__source_file__":"02-POI&AOI/1-POI/其它/15/上海市-摩托车服务_WGS84.shp"},"geometry":{"type":"Point","coordinates":[121.47239773330357,31.265015519093026]}},{"id":"460","type":"Feature","properties":{"OBJECTID":461,"NAME":"小李车行(欧阳路店)","ADDRESS":"欧阳路396-1号","TELEPHONE":null,"PROVINCE":"上海市","CITY":"上海市","COUNTY":"虹口区","CODE":"310109","LON":121.486961,"LAT":31.271448,"TYPECODE":40200.0,"BASETYPE":"摩托车服务","SUBTYPE":"摩托车维修","CATEGORY":"摩托车维修","__source_file__":"02-POI&AOI/1-POI/其它/15/上海市-摩托车服务_WGS84.shp"},"geometry":{"type":"Point","coordinates":[121.48247955225996,31.27340977553797]}},{"id":"465","type":"Feature","properties":{"OBJECTID":466,"NAME":"永久呈捷服务站","ADDRESS":"广中路208号","TELEPHONE":null,"PROVINCE":"上海市","CITY":"上海市","COUNTY":"虹口区","CODE":"310109","LON":121.47538,"LAT":31.276691,"TYPECODE":40200.0,"BASETYPE":"摩托车服务","SUBTYPE":"摩托车维修","CATEGORY":"摩托车维修","__source_file__":"02-POI&AOI/1-POI/其它/15/上海市-摩托车服务_WGS84.shp"},"geometry":{"type":"Point","coordinates":[121.47085847290917,31.278617492327157]}},{"id":"792","type":"Feature","properties":{"OBJECTID":793,"NAME":"银华电动轻摩车维修部","ADDRESS":"延长西路100号","TELEPHONE":"021-56051782","PROVINCE":"上海市","CITY":"上海市","COUNTY":"普陀区","CODE":"310107","LON":121.441071,"LAT":31.263718,"TYPECODE":40200.0,"BASETYPE":"摩托车服务","SUBTYPE":"摩托车维修","CATEGORY":"摩托车维修","__source_file__":"02-POI&AOI/1-POI/其它/15/上海市-摩托车服务_WGS84.shp"},"geometry":{"type":"Point","coordinates":[121.4364568178587,31.265571587423146]}},{"id":"741","type":"Feature","properties":{"OBJECTID":742,"NAME":"小王摩托车燃气车维修中心","ADDRESS":"子长路290号","TELEPHONE":null,"PROVINCE":"上海市","CITY":"上海市","COUNTY":"普陀区","CODE":"310107","LON":121.433228,"LAT":31.264896,"TYPECODE":40200.0,"BASETYPE":"摩托车服务","SUBTYPE":"摩托车维修","CATEGORY":"摩托车维修","__source_file__":"02-POI&AOI/1-POI/其它/15/上海市-摩托车服务_WGS84.shp"},"geometry":{"type":"Point","coordinates":[121.42859929388676,31.266737039396162]}},{"id":"613","type":"Feature","properties":{"OBJECTID":614,"NAME":"晓魏车行","ADDRESS":"普善路400号","TELEPHONE":"021-56700582;13701926630","PROVINCE":"上海市","CITY":"上海市","COUNTY":"静安区","CODE":"310106","LON":121.454117,"LAT":31.260231,"TYPECODE":40200.0,"BASETYPE":"摩托车服务","SUBTYPE":"摩托车维修","CATEGORY":"摩托车维修","__source_file__":"02-POI&AOI/1-POI/其它/15/上海市-摩托车服务_WGS84.shp"},"geometry":{"type":"Point","coordinates":[121.44953346195709,31.262111463736264]}},{"id":"625","type":"Feature","properties":{"OBJECTID":626,"NAME":"倪氏车行","ADDRESS":"中山北路158号","TELEPHONE":"021-56639808","PROVINCE":"上海市","CITY":"上海市","COUNTY":"静安区","CODE":"310106","LON":121.471207,"LAT":31.265398,"TYPECODE":40100.0,"BASETYPE":"摩托车服务","SUBTYPE":"摩托车销售","CATEGORY":"摩托车销售","__source_file__":"02-POI&AOI/1-POI/其它/15/上海市-摩托车服务_WGS84.shp"},"geometry":{"type":"Point","coordinates":[121.46667288607438,31.267317940078986]}},{"id":"605","type":"Feature","properties":{"OBJECTID":606,"NAME":"上海钢祥实业","ADDRESS":"东宝兴路1020号","TELEPHONE":null,"PROVINCE":"上海市","CITY":"上海市","COUNTY":"静安区","CODE":"310106","LON":121.471802,"LAT":31.265436,"TYPECODE":40100.0,"BASETYPE":"摩托车服务","SUBTYPE":"摩托车销售","CATEGORY":"摩托车销售","__source_file__":"02-POI&AOI/1-POI/其它/15/上海市-摩托车服务_WGS84.shp"},"geometry":{"type":"Point","coordinates":[121.46726978833115,31.267357516048694]}},{"id":"607","type":"Feature","properties":{"OBJECTID":608,"NAME":"光阳摩托","ADDRESS":"中山北路158号","TELEPHONE":null,"PROVINCE":"上海市","CITY":"上海市","COUNTY":"静安区","CODE":"310106","LON":121.471107,"LAT":31.265507,"TYPECODE":40100.0,"BASETYPE":"摩托车服务","SUBTYPE":"摩托车销售","CATEGORY":"摩托车销售","__source_file__":"02-POI&AOI/1-POI/其它/15/上海市-摩托车服务_WGS84.shp"},"geometry":{"type":"Point","coordinates":[121.46657255735161,31.26742662615946]}},{"id":"611","type":"Feature","properties":{"OBJECTID":612,"NAME":"三阳机车","ADDRESS":"中山北路158号","TELEPHONE":null,"PROVINCE":"上海市","CITY":"上海市","COUNTY":"静安区","CODE":"310106","LON":121.471649,"LAT":31.265543,"TYPECODE":40000.0,"BASETYPE":"摩托车服务","SUBTYPE":"摩托车服务相关","CATEGORY":"摩托车服务相关","__source_file__":"02-POI&AOI/1-POI/其它/15/上海市-摩托车服务_WGS84.shp"},"geometry":{"type":"Point","coordinates":[121.46711628845671,31.267464059504146]}},{"id":"448","type":"Feature","properties":{"OBJECTID":449,"NAME":"雅马哈(新同心路)","ADDRESS":"新同兴路100","TELEPHONE":null,"PROVINCE":"上海市","CITY":"上海市","COUNTY":"虹口区","CODE":"310109","LON":121.466026,"LAT":31.275908,"TYPECODE":40100.0,"BASETYPE":"摩托车服务","SUBTYPE":"摩托车销售","CATEGORY":"摩托车销售","__source_file__":"02-POI&AOI/1-POI/其它/15/上海市-摩托车服务_WGS84.shp"},"geometry":{"type":"Point","coordinates":[121.46147482441647,31.277809983444037]}}],"name":"上海市-摩托车服务_WGS84","crs":{"type":"name","properties":{"name":"urn:ogc:def:crs:OGC:1.3:CRS84"}}}