{"type":"FeatureCollection","features":[{"id":"0","type":"Feature","properties":{"OBJECTID":1,"NAME":"Fusion","ADDRESS":"兴业路123弄新天地南里广场6号楼5楼(近马当路)","TELEPHONE":"021-53868088;13296075783","PROVINCE":"上海市","CITY":"上海市","COUNTY":"黄浦区","CODE":"310101","LON":121.475296,"LAT":31.219212,"TYPECODE":220000.0,"BASETYPE":"事件活动","SUBTYPE":"事件活动","CATEGORY":"事件活动","__source_file__":"02-POI&AOI/1-POI/其它/15/上海市-事件活动_WGS84.shp"},"geometry":{"type":"Point","coordinates":[121.47077913463362,31.221163863421786]}}],"name":"上海市-事件活动_WGS84","crs":{"type":"name","properties":{"name":"urn:ogc:def:crs:OGC:1.3:CRS84"}}}