{"type":"FeatureCollection","features":[{"id":"11","type":"Feature","properties":{"OBJECTID":12,"NAME":"K11购物艺术中心(南3门)","ADDRESS":"淮海中路300号F1层","TELEPHONE":null,"PROVINCE":"上海市","CITY":"上海市","COUNTY":"黄浦区","CODE":"310101","LON":121.47374,"LAT":31.223122,"TYPECODE":991001.0,"BASETYPE":"通行设施","SUBTYPE":"建筑物门","CATEGORY":"通行设施","__source_file__":"02-POI&AOI/1-POI/其它/15/上海市-通行设施_WGS84.shp"},"geometry":{"type":"Point","coordinates":[121.4692176958877,31.225067759124325]}},{"id":"34","type":"Feature","properties":{"OBJECTID":35,"NAME":"818广场(西门)","ADDRESS":"南京西路818号","TELEPHONE":null,"PROVINCE":"上海市","CITY":"上海市","COUNTY":"静安区","CODE":"310106","LON":121.460922,"LAT":31.230928,"TYPECODE":991000.0,"BASETYPE":"通行设施","SUBTYPE":"建筑物门","CATEGORY":"通行设施","__source_file__":"02-POI&AOI/1-POI/其它/15/上海市-通行设施_WGS84.shp"},"geometry":{"type":"Point","coordinates":[121.45635963033506,31.232837177967113]}},{"id":"10","type":"Feature","properties":{"OBJECTID":11,"NAME":"来福士广场(北门)","ADDRESS":"西藏中路290附近","TELEPHONE":"021-63403600","PROVINCE":"上海市","CITY":"上海市","COUNTY":"黄浦区","CODE":"310101","LON":121.476059,"LAT":31.232948,"TYPECODE":991001.0,"BASETYPE":"通行设施","SUBTYPE":"建筑物门","CATEGORY":"通行设施","__source_file__":"02-POI&AOI/1-POI/其它/15/上海市-通行设施_WGS84.shp"},"geometry":{"type":"Point","coordinates":[121.47154347945113,31.234895571847165]}},{"id":"40","type":"Feature","properties":{"OBJECTID":41,"NAME":"石油天然气大厦(南门)","ADDRESS":"江宁路336号","TELEPHONE":null,"PROVINCE":"上海市","CITY":"上海市","COUNTY":"静安区","CODE":"310106","LON":121.453842,"LAT":31.233006,"TYPECODE":991000.0,"BASETYPE":"通行设施","SUBTYPE":"建筑物门","CATEGORY":"通行设施","__source_file__":"02-POI&AOI/1-POI/其它/15/上海市-通行设施_WGS84.shp"},"geometry":{"type":"Point","coordinates":[121.44926010331814,31.234898033405575]}},{"id":"14","type":"Feature","properties":{"OBJECTID":15,"NAME":"上海市第一百货商店(南门)","ADDRESS":"南京东路830号","TELEPHONE":null,"PROVINCE":"上海市","CITY":"上海市","COUNTY":"黄浦区","CODE":"310101","LON":121.475105,"LAT":31.234953,"TYPECODE":991000.0,"BASETYPE":"通行设施","SUBTYPE":"建筑物门","CATEGORY":"通行设施","__source_file__":"02-POI&AOI/1-POI/其它/15/上海市-通行设施_WGS84.shp"},"geometry":{"type":"Point","coordinates":[121.47058615292686,31.23689701600736]}},{"id":"17","type":"Feature","properties":{"OBJECTID":18,"NAME":"上海市第一百货商店(西门)","ADDRESS":"南京东路830号第一百货商店F1层","TELEPHONE":null,"PROVINCE":"上海市","CITY":"上海市","COUNTY":"黄浦区","CODE":"310101","LON":121.47451,"LAT":31.235518,"TYPECODE":991001.0,"BASETYPE":"通行设施","SUBTYPE":"建筑物门","CATEGORY":"通行设施","__source_file__":"02-POI&AOI/1-POI/其它/15/上海市-通行设施_WGS84.shp"},"geometry":{"type":"Point","coordinates":[121.46998914916564,31.23746012279064]}},{"id":"33","type":"Feature","properties":{"OBJECTID":34,"NAME":"上海人才大厦(南门)","ADDRESS":"梅园路23附近","TELEPHONE":null,"PROVINCE":"上海市","CITY":"上海市","COUNTY":"静安区","CODE":"310106","LON":121.460281,"LAT":31.24169,"TYPECODE":991000.0,"BASETYPE":"通行设施","SUBTYPE":"建筑物门","CATEGORY":"通行设施","__source_file__":"02-POI&AOI/1-POI/其它/15/上海市-通行设施_WGS84.shp"},"geometry":{"type":"Point","coordinates":[121.4557158719493,31.24359273258404]}},{"id":"31","type":"Feature","properties":{"OBJECTID":32,"NAME":"上海站(南出站口)","ADDRESS":"秣陵路303号F1层","TELEPHONE":null,"PROVINCE":"上海市","CITY":"上海市","COUNTY":"静安区","CODE":"310106","LON":121.453979,"LAT":31.249626,"TYPECODE":991000.0,"BASETYPE":"通行设施","SUBTYPE":"建筑物门","CATEGORY":"通行设施","__source_file__":"02-POI&AOI/1-POI/其它/15/上海市-通行设施_WGS84.shp"},"geometry":{"type":"Point","coordinates":[121.44939602083937,31.25151081917067]}},{"id":"32","type":"Feature","properties":{"OBJECTID":33,"NAME":"上海站(北出站口)","ADDRESS":"秣陵路303号F1层","TELEPHONE":null,"PROVINCE":"上海市","CITY":"上海市","COUNTY":"静安区","CODE":"310106","LON":121.454674,"LAT":31.250912,"TYPECODE":991000.0,"BASETYPE":"通行设施","SUBTYPE":"建筑物门","CATEGORY":"通行设施","__source_file__":"02-POI&AOI/1-POI/其它/15/上海市-通行设施_WGS84.shp"},"geometry":{"type":"Point","coordinates":[121.45009272629913,31.252797768786444]}},{"id":"13","type":"Feature","properties":{"OBJECTID":14,"NAME":"上海来福士广场(西1门)","ADDRESS":"西藏中路268号来福士广场F1层","TELEPHONE":null,"PROVINCE":"上海市","CITY":"上海市","COUNTY":"黄浦区","CODE":"310101","LON":121.476547,"LAT":31.231924,"TYPECODE":991000.0,"BASETYPE":"通行设施","SUBTYPE":"建筑物门","CATEGORY":"通行设施","__source_file__":"02-POI&AOI/1-POI/其它/15/上海市-通行设施_WGS84.shp"},"geometry":{"type":"Point","coordinates":[121.4720331888026,31.23387339775213]}},{"id":"21","type":"Feature","properties":{"OBJECTID":22,"NAME":"创业大楼","ADDRESS":"四川中路33号","TELEPHONE":"021-63293333","PROVINCE":"上海市","CITY":"上海市","COUNTY":"黄浦区","CODE":"310101","LON":121.489532,"LAT":31.23307,"TYPECODE":991001.0,"BASETYPE":"通行设施","SUBTYPE":"建筑物门","CATEGORY":"通行设施","__source_file__":"02-POI&AOI/1-POI/其它/15/上海市-通行设施_WGS84.shp"},"geometry":{"type":"Point","coordinates":[121.48506292705879,31.235056302753446]}},{"id":"0","type":"Feature","properties":{"OBJECTID":1,"NAME":"中悦大楼(北门)","ADDRESS":"福建中路223附近","TELEPHONE":null,"PROVINCE":"上海市","CITY":"上海市","COUNTY":"黄浦区","CODE":"310101","LON":121.480927,"LAT":31.234341,"TYPECODE":991000.0,"BASETYPE":"通行设施","SUBTYPE":"建筑物门","CATEGORY":"通行设施","__source_file__":"02-POI&AOI/1-POI/其它/15/上海市-通行设施_WGS84.shp"},"geometry":{"type":"Point","coordinates":[121.47642776840955,31.236301640468042]}},{"id":"9","type":"Feature","properties":{"OBJECTID":10,"NAME":"永安百货(南门)","ADDRESS":"南京东路635号永安百货F1层","TELEPHONE":null,"PROVINCE":"上海市","CITY":"上海市","COUNTY":"黄浦区","CODE":"310101","LON":121.478386,"LAT":31.234608,"TYPECODE":991000.0,"BASETYPE":"通行设施","SUBTYPE":"建筑物门","CATEGORY":"通行设施","__source_file__":"02-POI&AOI/1-POI/其它/15/上海市-通行设施_WGS84.shp"},"geometry":{"type":"Point","coordinates":[121.4738781168325,31.23656131120788]}},{"id":"16","type":"Feature","properties":{"OBJECTID":17,"NAME":"腾飞浦汇大厦(东门)","ADDRESS":"福州路318号","TELEPHONE":null,"PROVINCE":"上海市","CITY":"上海市","COUNTY":"黄浦区","CODE":"310101","LON":121.484383,"LAT":31.234863,"TYPECODE":991001.0,"BASETYPE":"通行设施","SUBTYPE":"建筑物门","CATEGORY":"通行设施","__source_file__":"02-POI&AOI/1-POI/其它/15/上海市-通行设施_WGS84.shp"},"geometry":{"type":"Point","coordinates":[121.47989565523383,31.23683336392418]}},{"id":"20","type":"Feature","properties":{"OBJECTID":21,"NAME":"永安百货(西门)","ADDRESS":"南京东路635号永安百货F1层","TELEPHONE":null,"PROVINCE":"上海市","CITY":"上海市","COUNTY":"黄浦区","CODE":"310101","LON":121.477974,"LAT":31.234882,"TYPECODE":991000.0,"BASETYPE":"通行设施","SUBTYPE":"建筑物门","CATEGORY":"通行设施","__source_file__":"02-POI&AOI/1-POI/其它/15/上海市-通行设施_WGS84.shp"},"geometry":{"type":"Point","coordinates":[121.47346470686838,31.23683402744457]}},{"id":"19","type":"Feature","properties":{"OBJECTID":20,"NAME":"百联世茂国际广场(7号门)","ADDRESS":"南京东路819号百联世茂国际广场F1层","TELEPHONE":null,"PROVINCE":"上海市","CITY":"上海市","COUNTY":"黄浦区","CODE":"310101","LON":121.476143,"LAT":31.234947,"TYPECODE":991000.0,"BASETYPE":"通行设施","SUBTYPE":"建筑物门","CATEGORY":"通行设施","__source_file__":"02-POI&AOI/1-POI/其它/15/上海市-通行设施_WGS84.shp"},"geometry":{"type":"Point","coordinates":[121.47162758593014,31.23689388699077]}},{"id":"7","type":"Feature","properties":{"OBJECTID":8,"NAME":"宏伊国际广场(西北门)","ADDRESS":"南京东路299号F1层","TELEPHONE":null,"PROVINCE":"上海市","CITY":"上海市","COUNTY":"黄浦区","CODE":"310101","LON":121.484146,"LAT":31.237097,"TYPECODE":991000.0,"BASETYPE":"通行设施","SUBTYPE":"建筑物门","CATEGORY":"通行设施","__source_file__":"02-POI&AOI/1-POI/其它/15/上海市-通行设施_WGS84.shp"},"geometry":{"type":"Point","coordinates":[121.47965763918377,31.239065654079006]}},{"id":"18","type":"Feature","properties":{"OBJECTID":19,"NAME":"恒基名人购物中心(北门)","ADDRESS":"南京东路300号F1层","TELEPHONE":null,"PROVINCE":"上海市","CITY":"上海市","COUNTY":"黄浦区","CODE":"310101","LON":121.484138,"LAT":31.238235,"TYPECODE":991001.0,"BASETYPE":"通行设施","SUBTYPE":"建筑物门","CATEGORY":"通行设施","__source_file__":"02-POI&AOI/1-POI/其它/15/上海市-通行设施_WGS84.shp"},"geometry":{"type":"Point","coordinates":[121.47964951360257,31.24020311284659]}}],"name":"上海市-通行设施_WGS84","crs":{"type":"name","properties":{"name":"urn:ogc:def:crs:OGC:1.3:CRS84"}}}