{"type":"FeatureCollection","features":[{"id":"763","type":"Feature","properties":{"OBJECTID":764,"NAME":"AC Schnitzer上海中心","ADDRESS":"马当路218号华府天地首层","TELEPHONE":"021-63866888","PROVINCE":"上海市","CITY":"上海市","COUNTY":"黄浦区","CODE":"310101","LON":121.474327,"LAT":31.21899,"TYPECODE":20000.0,"BASETYPE":"汽车销售","SUBTYPE":"汽车销售","CATEGORY":"汽车销售","__source_file__":"02-POI&AOI/1-POI/其它/15/上海市-汽车销售_WGS84.shp"},"geometry":{"type":"Point","coordinates":[121.46980696856473,31.220939305787088]}},{"id":"776","type":"Feature","properties":{"OBJECTID":777,"NAME":"讴歌汽车销售服务有限公司","ADDRESS":"马当路228号","TELEPHONE":"021-55782999","PROVINCE":"上海市","CITY":"上海市","COUNTY":"黄浦区","CODE":"310101","LON":121.474358,"LAT":31.219049,"TYPECODE":20000.0,"BASETYPE":"汽车销售","SUBTYPE":"汽车销售","CATEGORY":"汽车销售","__source_file__":"02-POI&AOI/1-POI/其它/15/上海市-汽车销售_WGS84.shp"},"geometry":{"type":"Point","coordinates":[121.46983806554907,31.22099836281426]}},{"id":"764","type":"Feature","properties":{"OBJECTID":765,"NAME":"KTM(湖滨路店)","ADDRESS":"湖滨路192号","TELEPHONE":"021-59765855","PROVINCE":"上海市","CITY":"上海市","COUNTY":"黄浦区","CODE":"310101","LON":121.476723,"LAT":31.220591,"TYPECODE":20000.0,"BASETYPE":"汽车销售","SUBTYPE":"汽车销售","CATEGORY":"汽车销售","__source_file__":"02-POI&AOI/1-POI/其它/15/上海市-汽车销售_WGS84.shp"},"geometry":{"type":"Point","coordinates":[121.47221074641753,31.222546167145694]}},{"id":"859","type":"Feature","properties":{"OBJECTID":860,"NAME":"上海森那美汽车商业有限公司","ADDRESS":"湖滨路202号企业天地商业中心2号楼1层6-7","TELEPHONE":"021-63860288;021-63868660","PROVINCE":"上海市","CITY":"上海市","COUNTY":"黄浦区","CODE":"310101","LON":121.476501,"LAT":31.220695,"TYPECODE":20602.0,"BASETYPE":"汽车销售","SUBTYPE":"宝马特约销售","CATEGORY":"劳斯莱斯销售","__source_file__":"02-POI&AOI/1-POI/其它/15/上海市-汽车销售_WGS84.shp"},"geometry":{"type":"Point","coordinates":[121.47198799892796,31.222649500732746]}},{"id":"780","type":"Feature","properties":{"OBJECTID":781,"NAME":"劳斯莱斯","ADDRESS":"湖滨路202号企业天地商业中心1层6-7","TELEPHONE":"021-63860288","PROVINCE":"上海市","CITY":"上海市","COUNTY":"黄浦区","CODE":"310101","LON":121.476509,"LAT":31.220695,"TYPECODE":20602.0,"BASETYPE":"汽车销售","SUBTYPE":"宝马特约销售","CATEGORY":"劳斯莱斯销售","__source_file__":"02-POI&AOI/1-POI/其它/15/上海市-汽车销售_WGS84.shp"},"geometry":{"type":"Point","coordinates":[121.47199602501107,31.222649522976]}},{"id":"765","type":"Feature","properties":{"OBJECTID":766,"NAME":"Mclaren汽车店","ADDRESS":"湖滨路208号","TELEPHONE":"021-63869599","PROVINCE":"上海市","CITY":"上海市","COUNTY":"黄浦区","CODE":"310101","LON":121.476349,"LAT":31.220745,"TYPECODE":20000.0,"BASETYPE":"汽车销售","SUBTYPE":"汽车销售","CATEGORY":"汽车销售","__source_file__":"02-POI&AOI/1-POI/其它/15/上海市-汽车销售_WGS84.shp"},"geometry":{"type":"Point","coordinates":[121.47183548941403,31.222699054382037]}},{"id":"437","type":"Feature","properties":{"OBJECTID":438,"NAME":"兰博基尼上海中心","ADDRESS":"湖滨路210号2号楼1层1号","TELEPHONE":"021-63868558","PROVINCE":"上海市","CITY":"上海市","COUNTY":"黄浦区","CODE":"310101","LON":121.476227,"LAT":31.220783,"TYPECODE":20106.0,"BASETYPE":"汽车销售","SUBTYPE":"大众特约销售","CATEGORY":"兰博基尼销售","__source_file__":"02-POI&AOI/1-POI/其它/15/上海市-汽车销售_WGS84.shp"},"geometry":{"type":"Point","coordinates":[121.47171308065356,31.22273669861778]}},{"id":"852","type":"Feature","properties":{"OBJECTID":853,"NAME":"阿斯顿·马丁上海(崇德路)","ADDRESS":"济南路9号-110","TELEPHONE":"021-63876007","PROVINCE":"上海市","CITY":"上海市","COUNTY":"黄浦区","CODE":"310101","LON":121.477158,"LAT":31.221367,"TYPECODE":20000.0,"BASETYPE":"汽车销售","SUBTYPE":"汽车销售","CATEGORY":"汽车销售","__source_file__":"02-POI&AOI/1-POI/其它/15/上海市-汽车销售_WGS84.shp"},"geometry":{"type":"Point","coordinates":[121.47264713169146,31.2233230158033]}},{"id":"770","type":"Feature","properties":{"OBJECTID":771,"NAME":"阿斯顿·马丁上海浦西全新展厅","ADDRESS":"济南路9号","TELEPHONE":"021-63876007","PROVINCE":"上海市","CITY":"上海市","COUNTY":"黄浦区","CODE":"310101","LON":121.477158,"LAT":31.221367,"TYPECODE":20000.0,"BASETYPE":"汽车销售","SUBTYPE":"汽车销售","CATEGORY":"汽车销售","__source_file__":"02-POI&AOI/1-POI/其它/15/上海市-汽车销售_WGS84.shp"},"geometry":{"type":"Point","coordinates":[121.47264713169146,31.2233230158033]}},{"id":"773","type":"Feature","properties":{"OBJECTID":774,"NAME":"上海宝德汽车有限公司浦西展厅","ADDRESS":"淮海中路2号兰生大厦","TELEPHONE":"021-63190123;021-63190128","PROVINCE":"上海市","CITY":"上海市","COUNTY":"黄浦区","CODE":"310101","LON":121.479942,"LAT":31.225681,"TYPECODE":20000.0,"BASETYPE":"汽车销售","SUBTYPE":"汽车销售","CATEGORY":"汽车销售","__source_file__":"02-POI&AOI/1-POI/其它/15/上海市-汽车销售_WGS84.shp"},"geometry":{"type":"Point","coordinates":[121.47544014985965,31.227642838964353]}},{"id":"771","type":"Feature","properties":{"OBJECTID":772,"NAME":"BMW","ADDRESS":"淮海中路527号上海锦江国际购物中心1层","TELEPHONE":null,"PROVINCE":"上海市","CITY":"上海市","COUNTY":"黄浦区","CODE":"310101","LON":121.468666,"LAT":31.22052,"TYPECODE":20000.0,"BASETYPE":"汽车销售","SUBTYPE":"汽车销售","CATEGORY":"汽车销售","__source_file__":"02-POI&AOI/1-POI/其它/15/上海市-汽车销售_WGS84.shp"},"geometry":{"type":"Point","coordinates":[121.464127728303,31.222453440970423]}},{"id":"12","type":"Feature","properties":{"OBJECTID":13,"NAME":"凯迪拉克上海百联沪通精品展厅","ADDRESS":"巨鹿路288附近","TELEPHONE":"021-51022188","PROVINCE":"上海市","CITY":"上海市","COUNTY":"黄浦区","CODE":"310101","LON":121.460709,"LAT":31.223257,"TYPECODE":20000.0,"BASETYPE":"汽车销售","SUBTYPE":"汽车销售","CATEGORY":"汽车销售","__source_file__":"02-POI&AOI/1-POI/其它/15/上海市-汽车销售_WGS84.shp"},"geometry":{"type":"Point","coordinates":[121.45614668302127,31.225169236449503]}},{"id":"438","type":"Feature","properties":{"OBJECTID":439,"NAME":"上海一汽沪奥汽车销售有限公司","ADDRESS":"茂名南路3号","TELEPHONE":"021-52270000","PROVINCE":"上海市","CITY":"上海市","COUNTY":"黄浦区","CODE":"310101","LON":121.460808,"LAT":31.223272,"TYPECODE":20000.0,"BASETYPE":"汽车销售","SUBTYPE":"汽车销售","CATEGORY":"汽车销售","__source_file__":"02-POI&AOI/1-POI/其它/15/上海市-汽车销售_WGS84.shp"},"geometry":{"type":"Point","coordinates":[121.45624596484444,31.225184466050997]}},{"id":"808","type":"Feature","properties":{"OBJECTID":809,"NAME":"斯柯达4S店(茂名南路店)","ADDRESS":"茂名南路1号(近延安西路)","TELEPHONE":null,"PROVINCE":"上海市","CITY":"上海市","COUNTY":"黄浦区","CODE":"310101","LON":121.460831,"LAT":31.223511,"TYPECODE":20000.0,"BASETYPE":"汽车销售","SUBTYPE":"汽车销售","CATEGORY":"汽车销售","__source_file__":"02-POI&AOI/1-POI/其它/15/上海市-汽车销售_WGS84.shp"},"geometry":{"type":"Point","coordinates":[121.45626900928906,31.225423409389244]}},{"id":"851","type":"Feature","properties":{"OBJECTID":852,"NAME":"上海百联沪北汽车销售有限公司","ADDRESS":"茂名南路1号","TELEPHONE":"021-51870079","PROVINCE":"上海市","CITY":"上海市","COUNTY":"黄浦区","CODE":"310101","LON":121.460983,"LAT":31.223581,"TYPECODE":20103.0,"BASETYPE":"汽车销售","SUBTYPE":"大众特约销售","CATEGORY":"斯柯达销售","__source_file__":"02-POI&AOI/1-POI/其它/15/上海市-汽车销售_WGS84.shp"},"geometry":{"type":"Point","coordinates":[121.45642143935449,31.225493740545097]}},{"id":"1289","type":"Feature","properties":{"OBJECTID":1290,"NAME":"上海世贸浦西展厅","ADDRESS":"北京西路1465号国立大厦首层(近常德路)","TELEPHONE":"021-52122333","PROVINCE":"上海市","CITY":"上海市","COUNTY":"静安区","CODE":"310106","LON":121.448112,"LAT":31.227354,"TYPECODE":20000.0,"BASETYPE":"汽车销售","SUBTYPE":"汽车销售","CATEGORY":"汽车销售","__source_file__":"02-POI&AOI/1-POI/其它/15/上海市-汽车销售_WGS84.shp"},"geometry":{"type":"Point","coordinates":[121.44351641267396,31.229236783267606]}},{"id":"1302","type":"Feature","properties":{"OBJECTID":1303,"NAME":"上海世之沃汽车销售服务有限公司","ADDRESS":"北京西路1465号国立大厦1层","TELEPHONE":"021-52122333","PROVINCE":"上海市","CITY":"上海市","COUNTY":"静安区","CODE":"310106","LON":121.44799,"LAT":31.227394,"TYPECODE":22301.0,"BASETYPE":"汽车销售","SUBTYPE":"吉利特约销售","CATEGORY":"沃尔沃销售","__source_file__":"02-POI&AOI/1-POI/其它/15/上海市-汽车销售_WGS84.shp"},"geometry":{"type":"Point","coordinates":[121.44339412239913,31.229276524996198]}},{"id":"1295","type":"Feature","properties":{"OBJECTID":1296,"NAME":"卡迪拉克","ADDRESS":"南京西路1038号(近江宁路)1层","TELEPHONE":null,"PROVINCE":"上海市","CITY":"上海市","COUNTY":"静安区","CODE":"310106","LON":121.456703,"LAT":31.228594,"TYPECODE":20000.0,"BASETYPE":"汽车销售","SUBTYPE":"汽车销售","CATEGORY":"汽车销售","__source_file__":"02-POI&AOI/1-POI/其它/15/上海市-汽车销售_WGS84.shp"},"geometry":{"type":"Point","coordinates":[121.45212907090912,31.230494417923587]}},{"id":"1205","type":"Feature","properties":{"OBJECTID":1206,"NAME":"上海天虹红旗汽车销售有限公司","ADDRESS":"南京西路555号101室","TELEPHONE":"021-33689333","PROVINCE":"上海市","CITY":"上海市","COUNTY":"静安区","CODE":"310106","LON":121.466614,"LAT":31.230574,"TYPECODE":20000.0,"BASETYPE":"汽车销售","SUBTYPE":"汽车销售","CATEGORY":"汽车销售","__source_file__":"02-POI&AOI/1-POI/其它/15/上海市-汽车销售_WGS84.shp"},"geometry":{"type":"Point","coordinates":[121.46206852568976,31.23249745002128]}},{"id":"775","type":"Feature","properties":{"OBJECTID":776,"NAME":"法拉利","ADDRESS":"南京西路389号明天广场1楼展厅(近黄陂北路)","TELEPHONE":"021-63755009;021-63755007","PROVINCE":"上海市","CITY":"上海市","COUNTY":"黄浦区","CODE":"310101","LON":121.469315,"LAT":31.230698,"TYPECODE":20000.0,"BASETYPE":"汽车销售","SUBTYPE":"汽车销售","CATEGORY":"汽车销售","__source_file__":"02-POI&AOI/1-POI/其它/15/上海市-汽车销售_WGS84.shp"},"geometry":{"type":"Point","coordinates":[121.46477788244385,31.23262839174952]}},{"id":"1300","type":"Feature","properties":{"OBJECTID":1301,"NAME":"上海名流汽车售后服务有限公司","ADDRESS":"武宁南路康定路1171号","TELEPHONE":"021-62303030;021-62303038;4008906679","PROVINCE":"上海市","CITY":"上海市","COUNTY":"静安区","CODE":"310106","LON":121.434212,"LAT":31.230433,"TYPECODE":20402.0,"BASETYPE":"汽车销售","SUBTYPE":"通用特约销售","CATEGORY":"别克销售","__source_file__":"02-POI&AOI/1-POI/其它/15/上海市-汽车销售_WGS84.shp"},"geometry":{"type":"Point","coordinates":[121.42958793353559,31.232290776279]}},{"id":"1301","type":"Feature","properties":{"OBJECTID":1302,"NAME":"安吉斯鸿汽车销售服务","ADDRESS":"康定路1155号(近武宁南路)","TELEPHONE":"021-52560017","PROVINCE":"上海市","CITY":"上海市","COUNTY":"静安区","CODE":"310106","LON":121.434891,"LAT":31.230438,"TYPECODE":20000.0,"BASETYPE":"汽车销售","SUBTYPE":"汽车销售","CATEGORY":"汽车销售","__source_file__":"02-POI&AOI/1-POI/其它/15/上海市-汽车销售_WGS84.shp"},"geometry":{"type":"Point","coordinates":[121.43026809497057,31.232296742577642]}},{"id":"1593","type":"Feature","properties":{"OBJECTID":1594,"NAME":"上海智杰汽车展示服务有限公司","ADDRESS":"吴江路15号101室","TELEPHONE":null,"PROVINCE":"上海市","CITY":"上海市","COUNTY":"静安区","CODE":"310106","LON":121.463814,"LAT":31.230743,"TYPECODE":20000.0,"BASETYPE":"汽车销售","SUBTYPE":"汽车销售","CATEGORY":"汽车销售","__source_file__":"02-POI&AOI/1-POI/其它/15/上海市-汽车销售_WGS84.shp"},"geometry":{"type":"Point","coordinates":[121.45926007828177,31.232659318776008]}},{"id":"850","type":"Feature","properties":{"OBJECTID":851,"NAME":"意特汽车商业(上海)有限公司","ADDRESS":"南京西路389号明天广场1层","TELEPHONE":"021-63755007;021-63755009","PROVINCE":"上海市","CITY":"上海市","COUNTY":"黄浦区","CODE":"310101","LON":121.469299,"LAT":31.230759,"TYPECODE":21501.0,"BASETYPE":"汽车销售","SUBTYPE":"法拉利特约销售","CATEGORY":"玛莎拉蒂销售","__source_file__":"02-POI&AOI/1-POI/其它/15/上海市-汽车销售_WGS84.shp"},"geometry":{"type":"Point","coordinates":[121.46476182714274,31.232689321700214]}},{"id":"1292","type":"Feature","properties":{"OBJECTID":1293,"NAME":"东风雪铁龙全球体验中心","ADDRESS":"吴江路15号","TELEPHONE":null,"PROVINCE":"上海市","CITY":"上海市","COUNTY":"静安区","CODE":"310106","LON":121.463799,"LAT":31.230869,"TYPECODE":20000.0,"BASETYPE":"汽车销售","SUBTYPE":"汽车销售","CATEGORY":"汽车销售","__source_file__":"02-POI&AOI/1-POI/其它/15/上海市-汽车销售_WGS84.shp"},"geometry":{"type":"Point","coordinates":[121.45924502314632,31.23278522290156]}},{"id":"1298","type":"Feature","properties":{"OBJECTID":1299,"NAME":"汽车展示厅","ADDRESS":"北京西路833号1楼","TELEPHONE":null,"PROVINCE":"上海市","CITY":"上海市","COUNTY":"静安区","CODE":"310106","LON":121.458687,"LAT":31.231091,"TYPECODE":20000.0,"BASETYPE":"汽车销售","SUBTYPE":"汽车销售","CATEGORY":"汽车销售","__source_file__":"02-POI&AOI/1-POI/其它/15/上海市-汽车销售_WGS84.shp"},"geometry":{"type":"Point","coordinates":[121.45411830274927,31.232994821097773]}},{"id":"1299","type":"Feature","properties":{"OBJECTID":1300,"NAME":"DS World旗舰店","ADDRESS":"南京西路762号","TELEPHONE":"021-62170296","PROVINCE":"上海市","CITY":"上海市","COUNTY":"静安区","CODE":"310106","LON":121.462868,"LAT":31.23114,"TYPECODE":20000.0,"BASETYPE":"汽车销售","SUBTYPE":"汽车销售","CATEGORY":"汽车销售","__source_file__":"02-POI&AOI/1-POI/其它/15/上海市-汽车销售_WGS84.shp"},"geometry":{"type":"Point","coordinates":[121.45831125427009,31.233053800660525]}},{"id":"855","type":"Feature","properties":{"OBJECTID":856,"NAME":"之诺华晨宝马","ADDRESS":"南京西路388附近","TELEPHONE":null,"PROVINCE":"上海市","CITY":"上海市","COUNTY":"黄浦区","CODE":"310101","LON":121.46933,"LAT":31.231218,"TYPECODE":20000.0,"BASETYPE":"汽车销售","SUBTYPE":"汽车销售","CATEGORY":"汽车销售","__source_file__":"02-POI&AOI/1-POI/其它/15/上海市-汽车销售_WGS84.shp"},"geometry":{"type":"Point","coordinates":[121.46479288546931,31.233148190781595]}},{"id":"1303","type":"Feature","properties":{"OBJECTID":1304,"NAME":"上海大昌行宾利汽车销售服务有限公司","ADDRESS":"北京西路833-839号","TELEPHONE":"021-62539728;021-62157763","PROVINCE":"上海市","CITY":"上海市","COUNTY":"静安区","CODE":"310106","LON":121.45874,"LAT":31.231436,"TYPECODE":20105.0,"BASETYPE":"汽车销售","SUBTYPE":"大众特约销售","CATEGORY":"宾利销售","__source_file__":"02-POI&AOI/1-POI/其它/15/上海市-汽车销售_WGS84.shp"},"geometry":{"type":"Point","coordinates":[121.45417142116995,31.233339785138753]}},{"id":"853","type":"Feature","properties":{"OBJECTID":854,"NAME":"上海康汇汽车销售有限公司","ADDRESS":"凤阳路358弄1号楼1002室","TELEPHONE":"021-58129469","PROVINCE":"上海市","CITY":"上海市","COUNTY":"黄浦区","CODE":"310101","LON":121.469276,"LAT":31.233631,"TYPECODE":20000.0,"BASETYPE":"汽车销售","SUBTYPE":"汽车销售","CATEGORY":"汽车销售","__source_file__":"02-POI&AOI/1-POI/其它/15/上海市-汽车销售_WGS84.shp"},"geometry":{"type":"Point","coordinates":[121.46473850763564,31.235559939061115]}},{"id":"804","type":"Feature","properties":{"OBJECTID":805,"NAME":"上海速达软件销售服务中心","ADDRESS":"新桥路68号新桥大厦19楼","TELEPHONE":"021-27496306","PROVINCE":"上海市","CITY":"上海市","COUNTY":"黄浦区","CODE":"310101","LON":121.466034,"LAT":31.239906,"TYPECODE":20000.0,"BASETYPE":"汽车销售","SUBTYPE":"汽车销售","CATEGORY":"汽车销售","__source_file__":"02-POI&AOI/1-POI/其它/15/上海市-汽车销售_WGS84.shp"},"geometry":{"type":"Point","coordinates":[121.46148595422645,31.241823700958214]}},{"id":"1255","type":"Feature","properties":{"OBJECTID":1256,"NAME":"上海华源前进汽车销售有限公司","ADDRESS":"天目中路585新梅大厦6层G","TELEPHONE":null,"PROVINCE":"上海市","CITY":"上海市","COUNTY":"静安区","CODE":"310106","LON":121.464088,"LAT":31.24514,"TYPECODE":20000.0,"BASETYPE":"汽车销售","SUBTYPE":"汽车销售","CATEGORY":"汽车销售","__source_file__":"02-POI&AOI/1-POI/其它/15/上海市-汽车销售_WGS84.shp"},"geometry":{"type":"Point","coordinates":[121.4595336504723,31.247050446795082]}},{"id":"807","type":"Feature","properties":{"OBJECTID":808,"NAME":"路虎城市展厅","ADDRESS":"人民路600号范仕达生活广场1层","TELEPHONE":null,"PROVINCE":"上海市","CITY":"上海市","COUNTY":"黄浦区","CODE":"310101","LON":121.487434,"LAT":31.229279,"TYPECODE":20000.0,"BASETYPE":"汽车销售","SUBTYPE":"汽车销售","CATEGORY":"汽车销售","__source_file__":"02-POI&AOI/1-POI/其它/15/上海市-汽车销售_WGS84.shp"},"geometry":{"type":"Point","coordinates":[121.48295782496987,31.23126085903471]}},{"id":"768","type":"Feature","properties":{"OBJECTID":769,"NAME":"世贸汽车","ADDRESS":"人民路600号(靠近河南南路口)","TELEPHONE":"021-63375333","PROVINCE":"上海市","CITY":"上海市","COUNTY":"黄浦区","CODE":"310101","LON":121.487244,"LAT":31.229631,"TYPECODE":20000.0,"BASETYPE":"汽车销售","SUBTYPE":"汽车销售","CATEGORY":"汽车销售","__source_file__":"02-POI&AOI/1-POI/其它/15/上海市-汽车销售_WGS84.shp"},"geometry":{"type":"Point","coordinates":[121.48276712540854,31.231612137339962]}},{"id":"858","type":"Feature","properties":{"OBJECTID":859,"NAME":"上海浦西保时捷中心","ADDRESS":"南京西路288号创兴金融中心首层","TELEPHONE":"021-23214911","PROVINCE":"上海市","CITY":"上海市","COUNTY":"黄浦区","CODE":"310101","LON":121.470398,"LAT":31.232082,"TYPECODE":22100.0,"BASETYPE":"汽车销售","SUBTYPE":"保时捷特约销售","CATEGORY":"保时捷销售","__source_file__":"02-POI&AOI/1-POI/其它/15/上海市-汽车销售_WGS84.shp"},"geometry":{"type":"Point","coordinates":[121.46586417993359,31.23401461009009]}},{"id":"809","type":"Feature","properties":{"OBJECTID":810,"NAME":"路虎","ADDRESS":"南京西路258号(近黄河路)","TELEPHONE":null,"PROVINCE":"上海市","CITY":"上海市","COUNTY":"黄浦区","CODE":"310101","LON":121.470856,"LAT":31.232353,"TYPECODE":20000.0,"BASETYPE":"汽车销售","SUBTYPE":"汽车销售","CATEGORY":"汽车销售","__source_file__":"02-POI&AOI/1-POI/其它/15/上海市-汽车销售_WGS84.shp"},"geometry":{"type":"Point","coordinates":[121.46632361090569,31.234286701651463]}},{"id":"854","type":"Feature","properties":{"OBJECTID":855,"NAME":"上海捷成汽车销售服务有限公司","ADDRESS":"南京西路288号创兴金融中心首层","TELEPHONE":"4008171409","PROVINCE":"上海市","CITY":"上海市","COUNTY":"黄浦区","CODE":"310101","LON":121.470238,"LAT":31.232388,"TYPECODE":20000.0,"BASETYPE":"汽车销售","SUBTYPE":"汽车销售","CATEGORY":"汽车销售","__source_file__":"02-POI&AOI/1-POI/其它/15/上海市-汽车销售_WGS84.shp"},"geometry":{"type":"Point","coordinates":[121.4657036466133,31.23432004511233]}},{"id":"767","type":"Feature","properties":{"OBJECTID":768,"NAME":"上海森那美汽车销售服务有限公司城市展厅","ADDRESS":"南京西路258号世茂商都1楼(近凤阳路)","TELEPHONE":"021-63728333","PROVINCE":"上海市","CITY":"上海市","COUNTY":"黄浦区","CODE":"310101","LON":121.470879,"LAT":31.232489,"TYPECODE":20000.0,"BASETYPE":"汽车销售","SUBTYPE":"汽车销售","CATEGORY":"汽车销售","__source_file__":"02-POI&AOI/1-POI/其它/15/上海市-汽车销售_WGS84.shp"},"geometry":{"type":"Point","coordinates":[121.46634667258041,31.234422700245936]}},{"id":"774","type":"Feature","properties":{"OBJECTID":775,"NAME":"上海森那美汽车销售服务有限公司","ADDRESS":"南京西路258号世茂商都1楼(近凤阳路)","TELEPHONE":null,"PROVINCE":"上海市","CITY":"上海市","COUNTY":"黄浦区","CODE":"310101","LON":121.470879,"LAT":31.232489,"TYPECODE":20000.0,"BASETYPE":"汽车销售","SUBTYPE":"汽车销售","CATEGORY":"汽车销售","__source_file__":"02-POI&AOI/1-POI/其它/15/上海市-汽车销售_WGS84.shp"},"geometry":{"type":"Point","coordinates":[121.46634667258041,31.234422700245936]}},{"id":"806","type":"Feature","properties":{"OBJECTID":807,"NAME":"华晨汽车外滩展厅","ADDRESS":"宁波路1号申华金融大厦","TELEPHONE":"13917894544","PROVINCE":"上海市","CITY":"上海市","COUNTY":"黄浦区","CODE":"310101","LON":121.48661,"LAT":31.239485,"TYPECODE":20000.0,"BASETYPE":"汽车销售","SUBTYPE":"汽车销售","CATEGORY":"汽车销售","__source_file__":"02-POI&AOI/1-POI/其它/15/上海市-汽车销售_WGS84.shp"},"geometry":{"type":"Point","coordinates":[121.48213005140171,31.24145975945471]}},{"id":"959","type":"Feature","properties":{"OBJECTID":960,"NAME":"上海庞大巴博斯汽车销售服务有限公司","ADDRESS":"柳园路85号","TELEPHONE":null,"PROVINCE":"上海市","CITY":"上海市","COUNTY":"虹口区","CODE":"310109","LON":121.489822,"LAT":31.25034,"TYPECODE":20000.0,"BASETYPE":"汽车销售","SUBTYPE":"汽车销售","CATEGORY":"汽车销售","__source_file__":"02-POI&AOI/1-POI/其它/15/上海市-汽车销售_WGS84.shp"},"geometry":{"type":"Point","coordinates":[121.48535248279745,31.252319362139733]}},{"id":"949","type":"Feature","properties":{"OBJECTID":950,"NAME":"上海大众汽车交运起元虹口直营店","ADDRESS":"周家嘴路414号","TELEPHONE":"021-65357782","PROVINCE":"上海市","CITY":"上海市","COUNTY":"虹口区","CODE":"310109","LON":121.49736,"LAT":31.25495,"TYPECODE":20000.0,"BASETYPE":"汽车销售","SUBTYPE":"汽车销售","CATEGORY":"汽车销售","__source_file__":"02-POI&AOI/1-POI/其它/15/上海市-汽车销售_WGS84.shp"},"geometry":{"type":"Point","coordinates":[121.49291713138774,31.25694985435396]}},{"id":"1516","type":"Feature","properties":{"OBJECTID":1517,"NAME":"上海捷琳汽车销售服务有限公司","ADDRESS":"澳门路519弄华生大厦2号9013室(陕西北路)","TELEPHONE":"021-62267129;13651697524","PROVINCE":"上海市","CITY":"上海市","COUNTY":"普陀区","CODE":"310107","LON":121.43959,"LAT":31.245373,"TYPECODE":20000.0,"BASETYPE":"汽车销售","SUBTYPE":"汽车销售","CATEGORY":"汽车销售","__source_file__":"02-POI&AOI/1-POI/其它/15/上海市-汽车销售_WGS84.shp"},"geometry":{"type":"Point","coordinates":[121.43497445900488,31.247232180121472]}},{"id":"1572","type":"Feature","properties":{"OBJECTID":1573,"NAME":"上海佳蒙汽车销售有限公司","ADDRESS":"中山北路2130号万千大厦1001","TELEPHONE":null,"PROVINCE":"上海市","CITY":"上海市","COUNTY":"普陀区","CODE":"310107","LON":121.430359,"LAT":31.247244,"TYPECODE":20000.0,"BASETYPE":"汽车销售","SUBTYPE":"汽车销售","CATEGORY":"汽车销售","__source_file__":"02-POI&AOI/1-POI/其它/15/上海市-汽车销售_WGS84.shp"},"geometry":{"type":"Point","coordinates":[121.42572732373296,31.249089011210575]}},{"id":"1568","type":"Feature","properties":{"OBJECTID":1569,"NAME":"宝盛汽车销售有限公司普陀分公司","ADDRESS":"中山北路2020中星经贸大厦9D","TELEPHONE":null,"PROVINCE":"上海市","CITY":"上海市","COUNTY":"普陀区","CODE":"310107","LON":121.431511,"LAT":31.248343,"TYPECODE":20000.0,"BASETYPE":"汽车销售","SUBTYPE":"汽车销售","CATEGORY":"汽车销售","__source_file__":"02-POI&AOI/1-POI/其它/15/上海市-汽车销售_WGS84.shp"},"geometry":{"type":"Point","coordinates":[121.42688098713695,31.250188987096028]}},{"id":"1563","type":"Feature","properties":{"OBJECTID":1564,"NAME":"上海弘兆汽车销售服务有限公司","ADDRESS":"中山北路2020中星经贸大厦9层","TELEPHONE":"021-32030313;021-52902376","PROVINCE":"上海市","CITY":"上海市","COUNTY":"普陀区","CODE":"310107","LON":121.431511,"LAT":31.248343,"TYPECODE":21400.0,"BASETYPE":"汽车销售","SUBTYPE":"菲亚特约销售","CATEGORY":"菲亚特销售","__source_file__":"02-POI&AOI/1-POI/其它/15/上海市-汽车销售_WGS84.shp"},"geometry":{"type":"Point","coordinates":[121.42688098713695,31.250188987096028]}},{"id":"1412","type":"Feature","properties":{"OBJECTID":1413,"NAME":"安吉通商汽车销售服务","ADDRESS":"中山北路1737号浦发财富广场B座103-104室","TELEPHONE":null,"PROVINCE":"上海市","CITY":"上海市","COUNTY":"普陀区","CODE":"310107","LON":121.43383,"LAT":31.251795,"TYPECODE":20000.0,"BASETYPE":"汽车销售","SUBTYPE":"汽车销售","CATEGORY":"汽车销售","__source_file__":"02-POI&AOI/1-POI/其它/15/上海市-汽车销售_WGS84.shp"},"geometry":{"type":"Point","coordinates":[121.4292034328273,31.253642580351194]}},{"id":"1558","type":"Feature","properties":{"OBJECTID":1559,"NAME":"龙华汽车","ADDRESS":"泾惠路8号","TELEPHONE":"13661731279","PROVINCE":"上海市","CITY":"上海市","COUNTY":"普陀区","CODE":"310107","LON":121.436096,"LAT":31.25761,"TYPECODE":20000.0,"BASETYPE":"汽车销售","SUBTYPE":"汽车销售","CATEGORY":"汽车销售","__source_file__":"02-POI&AOI/1-POI/其它/15/上海市-汽车销售_WGS84.shp"},"geometry":{"type":"Point","coordinates":[121.43147284956304,31.259458300282606]}},{"id":"1526","type":"Feature","properties":{"OBJECTID":1527,"NAME":"上海通用别克专卖店","ADDRESS":"沪太路790临附近","TELEPHONE":null,"PROVINCE":"上海市","CITY":"上海市","COUNTY":"普陀区","CODE":"310107","LON":121.443733,"LAT":31.265768,"TYPECODE":20000.0,"BASETYPE":"汽车销售","SUBTYPE":"汽车销售","CATEGORY":"汽车销售","__source_file__":"02-POI&AOI/1-POI/其它/15/上海市-汽车销售_WGS84.shp"},"geometry":{"type":"Point","coordinates":[121.43912420920562,31.267625362111062]}},{"id":"1484","type":"Feature","properties":{"OBJECTID":1485,"NAME":"浩宏汽车销售有限公司普陀分公司","ADDRESS":"沪太路790之2-4","TELEPHONE":"021-56531221","PROVINCE":"上海市","CITY":"上海市","COUNTY":"普陀区","CODE":"310107","LON":121.443558,"LAT":31.266006,"TYPECODE":20000.0,"BASETYPE":"汽车销售","SUBTYPE":"汽车销售","CATEGORY":"汽车销售","__source_file__":"02-POI&AOI/1-POI/其它/15/上海市-汽车销售_WGS84.shp"},"geometry":{"type":"Point","coordinates":[121.43894881220263,31.267862945814397]}},{"id":"1541","type":"Feature","properties":{"OBJECTID":1542,"NAME":"上海绅裕汽车销售有限公司","ADDRESS":"沪太路790之2-4","TELEPHONE":"021-56531221","PROVINCE":"上海市","CITY":"上海市","COUNTY":"普陀区","CODE":"310107","LON":121.443558,"LAT":31.266012,"TYPECODE":20000.0,"BASETYPE":"汽车销售","SUBTYPE":"汽车销售","CATEGORY":"汽车销售","__source_file__":"02-POI&AOI/1-POI/其它/15/上海市-汽车销售_WGS84.shp"},"geometry":{"type":"Point","coordinates":[121.43894881168144,31.2678689426234]}},{"id":"1234","type":"Feature","properties":{"OBJECTID":1235,"NAME":"南京依维柯","ADDRESS":"秣陵路305附近","TELEPHONE":null,"PROVINCE":"上海市","CITY":"上海市","COUNTY":"静安区","CODE":"310106","LON":121.454498,"LAT":31.247993,"TYPECODE":20000.0,"BASETYPE":"汽车销售","SUBTYPE":"汽车销售","CATEGORY":"汽车销售","__source_file__":"02-POI&AOI/1-POI/其它/15/上海市-汽车销售_WGS84.shp"},"geometry":{"type":"Point","coordinates":[121.44991651692855,31.249879678646913]}},{"id":"1230","type":"Feature","properties":{"OBJECTID":1231,"NAME":"上海中起汽车贸易有限公司","ADDRESS":"共和新路435号底层","TELEPHONE":"021-66285578;021-66286298","PROVINCE":"上海市","CITY":"上海市","COUNTY":"静安区","CODE":"310106","LON":121.464035,"LAT":31.25036,"TYPECODE":20000.0,"BASETYPE":"汽车销售","SUBTYPE":"汽车销售","CATEGORY":"汽车销售","__source_file__":"02-POI&AOI/1-POI/其它/15/上海市-汽车销售_WGS84.shp"},"geometry":{"type":"Point","coordinates":[121.45948004272536,31.252267986796376]}},{"id":"1093","type":"Feature","properties":{"OBJECTID":1094,"NAME":"起亚汽车上海中知旗舰店","ADDRESS":"共和新路435号","TELEPHONE":"021-66281313","PROVINCE":"上海市","CITY":"上海市","COUNTY":"静安区","CODE":"310106","LON":121.464005,"LAT":31.250387,"TYPECODE":21702.0,"BASETYPE":"汽车销售","SUBTYPE":"起亚特约销售","CATEGORY":"东风悦达起亚销售","__source_file__":"02-POI&AOI/1-POI/其它/15/上海市-汽车销售_WGS84.shp"},"geometry":{"type":"Point","coordinates":[121.45944995162219,31.252294899673405]}},{"id":"1266","type":"Feature","properties":{"OBJECTID":1267,"NAME":"中智汽车贸易(共和新路店)","ADDRESS":"共和新路435号(近永兴路)","TELEPHONE":"021-64479898;021-66281313","PROVINCE":"上海市","CITY":"上海市","COUNTY":"静安区","CODE":"310106","LON":121.464012,"LAT":31.250437,"TYPECODE":20000.0,"BASETYPE":"汽车销售","SUBTYPE":"汽车销售","CATEGORY":"汽车销售","__source_file__":"02-POI&AOI/1-POI/其它/15/上海市-汽车销售_WGS84.shp"},"geometry":{"type":"Point","coordinates":[121.45945696753786,31.252344895412623]}},{"id":"1232","type":"Feature","properties":{"OBJECTID":1233,"NAME":"起亚4s店","ADDRESS":"共和新路435号(近永兴路)","TELEPHONE":"15801989628","PROVINCE":"上海市","CITY":"上海市","COUNTY":"静安区","CODE":"310106","LON":121.464012,"LAT":31.250437,"TYPECODE":20000.0,"BASETYPE":"汽车销售","SUBTYPE":"汽车销售","CATEGORY":"汽车销售","__source_file__":"02-POI&AOI/1-POI/其它/15/上海市-汽车销售_WGS84.shp"},"geometry":{"type":"Point","coordinates":[121.45945696753786,31.252344895412623]}},{"id":"1235","type":"Feature","properties":{"OBJECTID":1236,"NAME":"上海隆久汽车销售服务有限公司","ADDRESS":"沪太路329附近","TELEPHONE":null,"PROVINCE":"上海市","CITY":"上海市","COUNTY":"静安区","CODE":"310106","LON":121.452904,"LAT":31.255035,"TYPECODE":20000.0,"BASETYPE":"汽车销售","SUBTYPE":"汽车销售","CATEGORY":"汽车销售","__source_file__":"02-POI&AOI/1-POI/其它/15/上海市-汽车销售_WGS84.shp"},"geometry":{"type":"Point","coordinates":[121.4483177802954,31.256915111515905]}},{"id":"1223","type":"Feature","properties":{"OBJECTID":1224,"NAME":"上海瑞闻汽车销售有限公司","ADDRESS":"中山北路808号","TELEPHONE":"18601789182","PROVINCE":"上海市","CITY":"上海市","COUNTY":"静安区","CODE":"310106","LON":121.457787,"LAT":31.259518,"TYPECODE":20000.0,"BASETYPE":"汽车销售","SUBTYPE":"汽车销售","CATEGORY":"汽车销售","__source_file__":"02-POI&AOI/1-POI/其它/15/上海市-汽车销售_WGS84.shp"},"geometry":{"type":"Point","coordinates":[121.4532133551829,31.26140699696935]}},{"id":"1247","type":"Feature","properties":{"OBJECTID":1248,"NAME":"瑞鹏汽车","ADDRESS":"柳营路777号盛源广场b2","TELEPHONE":null,"PROVINCE":"上海市","CITY":"上海市","COUNTY":"静安区","CODE":"310106","LON":121.455879,"LAT":31.263956,"TYPECODE":20000.0,"BASETYPE":"汽车销售","SUBTYPE":"汽车销售","CATEGORY":"汽车销售","__source_file__":"02-POI&AOI/1-POI/其它/15/上海市-汽车销售_WGS84.shp"},"geometry":{"type":"Point","coordinates":[121.45129979353,31.265838747790806]}},{"id":"1267","type":"Feature","properties":{"OBJECTID":1268,"NAME":"协通崇明汽车销售服务有限公司","ADDRESS":"柳营路618号上海现代交通商务园区北楼","TELEPHONE":"021-36522288;13062623277","PROVINCE":"上海市","CITY":"上海市","COUNTY":"静安区","CODE":"310106","LON":121.460114,"LAT":31.264973,"TYPECODE":20000.0,"BASETYPE":"汽车销售","SUBTYPE":"汽车销售","CATEGORY":"汽车销售","__source_file__":"02-POI&AOI/1-POI/其它/15/上海市-汽车销售_WGS84.shp"},"geometry":{"type":"Point","coordinates":[121.45554638535462,31.2668650798562]}},{"id":"965","type":"Feature","properties":{"OBJECTID":966,"NAME":"上海交运虹口汽车销售服务有限公司","ADDRESS":"周家嘴路414、418号","TELEPHONE":"021-65357782;021-65451117","PROVINCE":"上海市","CITY":"上海市","COUNTY":"虹口区","CODE":"310109","LON":121.49736,"LAT":31.255016,"TYPECODE":20101.0,"BASETYPE":"汽车销售","SUBTYPE":"大众特约销售","CATEGORY":"汽车销售","__source_file__":"02-POI&AOI/1-POI/其它/15/上海市-汽车销售_WGS84.shp"},"geometry":{"type":"Point","coordinates":[121.49291712576789,31.25701582482438]}},{"id":"951","type":"Feature","properties":{"OBJECTID":952,"NAME":"上海星濠汽车销售服务有限公司","ADDRESS":"衡水路89号3号楼302","TELEPHONE":"021-63090900","PROVINCE":"上海市","CITY":"上海市","COUNTY":"虹口区","CODE":"310109","LON":121.486099,"LAT":31.25543,"TYPECODE":20000.0,"BASETYPE":"汽车销售","SUBTYPE":"汽车销售","CATEGORY":"汽车销售","__source_file__":"02-POI&AOI/1-POI/其它/15/上海市-汽车销售_WGS84.shp"},"geometry":{"type":"Point","coordinates":[121.48161589373125,31.257396146639053]}},{"id":"940","type":"Feature","properties":{"OBJECTID":941,"NAME":"cross","ADDRESS":"四川北路15777号","TELEPHONE":null,"PROVINCE":"上海市","CITY":"上海市","COUNTY":"虹口区","CODE":"310109","LON":121.48307,"LAT":31.256569,"TYPECODE":20000.0,"BASETYPE":"汽车销售","SUBTYPE":"汽车销售","CATEGORY":"汽车销售","__source_file__":"02-POI&AOI/1-POI/其它/15/上海市-汽车销售_WGS84.shp"},"geometry":{"type":"Point","coordinates":[121.47857623850437,31.258525837120914]}},{"id":"962","type":"Feature","properties":{"OBJECTID":963,"NAME":"上海夏宇汽车贸易有限公司","ADDRESS":"东宝兴路415号-419","TELEPHONE":"021-56726372;021-66545111","PROVINCE":"上海市","CITY":"上海市","COUNTY":"虹口区","CODE":"310109","LON":121.479759,"LAT":31.259081,"TYPECODE":20000.0,"BASETYPE":"汽车销售","SUBTYPE":"汽车销售","CATEGORY":"汽车销售","__source_file__":"02-POI&AOI/1-POI/其它/15/上海市-汽车销售_WGS84.shp"},"geometry":{"type":"Point","coordinates":[121.47525366438315,31.261027258462978]}},{"id":"954","type":"Feature","properties":{"OBJECTID":955,"NAME":"永柏国际货运(中国)有限公司","ADDRESS":"欧阳路196号法兰桥10号楼603室","TELEPHONE":null,"PROVINCE":"上海市","CITY":"上海市","COUNTY":"虹口区","CODE":"310109","LON":121.488403,"LAT":31.266727,"TYPECODE":20000.0,"BASETYPE":"汽车销售","SUBTYPE":"汽车销售","CATEGORY":"汽车销售","__source_file__":"02-POI&AOI/1-POI/其它/15/上海市-汽车销售_WGS84.shp"},"geometry":{"type":"Point","coordinates":[121.48392704821872,31.268695027901344]}},{"id":"946","type":"Feature","properties":{"OBJECTID":947,"NAME":"优卡二手车","ADDRESS":"东江湾路444号","TELEPHONE":"15026611369","PROVINCE":"上海市","CITY":"上海市","COUNTY":"虹口区","CODE":"310109","LON":121.480278,"LAT":31.271036,"TYPECODE":20000.0,"BASETYPE":"汽车销售","SUBTYPE":"汽车销售","CATEGORY":"汽车销售","__source_file__":"02-POI&AOI/1-POI/其它/15/上海市-汽车销售_WGS84.shp"},"geometry":{"type":"Point","coordinates":[121.47577340500727,31.272978604059762]}},{"id":"941","type":"Feature","properties":{"OBJECTID":942,"NAME":"一汽解放汽车销售有限公司上海商代处","ADDRESS":"欧阳路738附近","TELEPHONE":null,"PROVINCE":"上海市","CITY":"上海市","COUNTY":"虹口区","CODE":"310109","LON":121.486603,"LAT":31.272957,"TYPECODE":20000.0,"BASETYPE":"汽车销售","SUBTYPE":"汽车销售","CATEGORY":"汽车销售","__source_file__":"02-POI&AOI/1-POI/其它/15/上海市-汽车销售_WGS84.shp"},"geometry":{"type":"Point","coordinates":[121.48212016392748,31.27491708760718]}},{"id":"1559","type":"Feature","properties":{"OBJECTID":1560,"NAME":"上海会枫汽车贸易有限公司","ADDRESS":"沪太路790号","TELEPHONE":null,"PROVINCE":"上海市","CITY":"上海市","COUNTY":"普陀区","CODE":"310107","LON":121.442848,"LAT":31.266863,"TYPECODE":20000.0,"BASETYPE":"汽车销售","SUBTYPE":"汽车销售","CATEGORY":"汽车销售","__source_file__":"02-POI&AOI/1-POI/其它/15/上海市-汽车销售_WGS84.shp"},"geometry":{"type":"Point","coordinates":[121.43823722596795,31.268718315298436]}},{"id":"18","type":"Feature","properties":{"OBJECTID":19,"NAME":"上海强生汽车贸易有限公司","ADDRESS":"沪太路800号","TELEPHONE":"021-56066575;021-56373737","PROVINCE":"上海市","CITY":"上海市","COUNTY":"普陀区","CODE":"310107","LON":121.442818,"LAT":31.266869,"TYPECODE":20101.0,"BASETYPE":"汽车销售","SUBTYPE":"大众特约销售","CATEGORY":"汽车销售","__source_file__":"02-POI&AOI/1-POI/其它/15/上海市-汽车销售_WGS84.shp"},"geometry":{"type":"Point","coordinates":[121.43820716157855,31.268724259140804]}},{"id":"1231","type":"Feature","properties":{"OBJECTID":1232,"NAME":"晋鹏汽车销","ADDRESS":"沪太路855号","TELEPHONE":null,"PROVINCE":"上海市","CITY":"上海市","COUNTY":"静安区","CODE":"310106","LON":121.439323,"LAT":31.269251,"TYPECODE":20000.0,"BASETYPE":"汽车销售","SUBTYPE":"汽车销售","CATEGORY":"汽车销售","__source_file__":"02-POI&AOI/1-POI/其它/15/上海市-汽车销售_WGS84.shp"},"geometry":{"type":"Point","coordinates":[121.43470486150711,31.271099318274896]}}],"name":"上海市-汽车销售_WGS84","crs":{"type":"name","properties":{"name":"urn:ogc:def:crs:OGC:1.3:CRS84"}}}