{"type":"FeatureCollection","features":[{"id":"3","type":"Feature","properties":{"OBJECTID":4,"NAME":"快修中心","ADDRESS":"南昌路45号2楼","TELEPHONE":null,"PROVINCE":"上海市","CITY":"上海市","COUNTY":"黄浦区","CODE":"310101","LON":121.470459,"LAT":31.218819,"TYPECODE":30000.0,"BASETYPE":"汽车维修","SUBTYPE":"汽车维修","CATEGORY":"汽车维修","__source_file__":"02-POI&AOI/1-POI/其它/15/上海市-汽车维修_WGS84.shp"},"geometry":{"type":"Point","coordinates":[121.46592651414126,31.22075795999093]}},{"id":"3838","type":"Feature","properties":{"OBJECTID":3839,"NAME":"美车堂(威海路街面店)","ADDRESS":"成都北路199号","TELEPHONE":"021-61199002","PROVINCE":"上海市","CITY":"上海市","COUNTY":"静安区","CODE":"310106","LON":121.4664,"LAT":31.227154,"TYPECODE":30000.0,"BASETYPE":"汽车维修","SUBTYPE":"汽车维修","CATEGORY":"汽车维修","__source_file__":"02-POI&AOI/1-POI/其它/15/上海市-汽车维修_WGS84.shp"},"geometry":{"type":"Point","coordinates":[121.46185416694053,31.229078489285776]}},{"id":"2491","type":"Feature","properties":{"OBJECTID":2492,"NAME":"上海汽车配件汽修厂","ADDRESS":"威海路128号长发大厦1楼108室","TELEPHONE":null,"PROVINCE":"上海市","CITY":"上海市","COUNTY":"黄浦区","CODE":"310101","LON":121.468529,"LAT":31.228037,"TYPECODE":30000.0,"BASETYPE":"汽车维修","SUBTYPE":"汽车维修","CATEGORY":"汽车维修","__source_file__":"02-POI&AOI/1-POI/其它/15/上海市-汽车维修_WGS84.shp"},"geometry":{"type":"Point","coordinates":[121.46398965431132,31.229966568944167]}},{"id":"4435","type":"Feature","properties":{"OBJECTID":4436,"NAME":"长江快修","ADDRESS":"成都北路339号","TELEPHONE":"021-62724901;021-62725279;13818826670","PROVINCE":"上海市","CITY":"上海市","COUNTY":"静安区","CODE":"310106","LON":121.466751,"LAT":31.229565,"TYPECODE":30000.0,"BASETYPE":"汽车维修","SUBTYPE":"汽车维修","CATEGORY":"汽车维修","__source_file__":"02-POI&AOI/1-POI/其它/15/上海市-汽车维修_WGS84.shp"},"geometry":{"type":"Point","coordinates":[121.46220603167085,31.23148926735292]}},{"id":"2323","type":"Feature","properties":{"OBJECTID":2324,"NAME":"上海瑞达汽车服务有限公司","ADDRESS":"浙江中路398号春申江大厦","TELEPHONE":"18658444560;15901725414","PROVINCE":"上海市","CITY":"上海市","COUNTY":"黄浦区","CODE":"310101","LON":121.478104,"LAT":31.236296,"TYPECODE":30000.0,"BASETYPE":"汽车维修","SUBTYPE":"汽车维修","CATEGORY":"汽车维修","__source_file__":"02-POI&AOI/1-POI/其它/15/上海市-汽车维修_WGS84.shp"},"geometry":{"type":"Point","coordinates":[121.47359502321723,31.238247745410625]}},{"id":"3736","type":"Feature","properties":{"OBJECTID":3737,"NAME":"龙盛修配店","ADDRESS":"大统路143号","TELEPHONE":null,"PROVINCE":"上海市","CITY":"上海市","COUNTY":"静安区","CODE":"310106","LON":121.464798,"LAT":31.24324,"TYPECODE":30000.0,"BASETYPE":"汽车维修","SUBTYPE":"汽车维修","CATEGORY":"汽车维修","__source_file__":"02-POI&AOI/1-POI/其它/15/上海市-汽车维修_WGS84.shp"},"geometry":{"type":"Point","coordinates":[121.46024593540423,31.24515307394707]}},{"id":"3756","type":"Feature","properties":{"OBJECTID":3757,"NAME":"上海靓洁汽车服务中心","ADDRESS":"塘沽路1032号","TELEPHONE":"13391315647","PROVINCE":"上海市","CITY":"上海市","COUNTY":"静安区","CODE":"310106","LON":121.476044,"LAT":31.245413,"TYPECODE":30100.0,"BASETYPE":"汽车维修","SUBTYPE":"汽车综合维修","CATEGORY":"汽车维修","__source_file__":"02-POI&AOI/1-POI/其它/15/上海市-汽车维修_WGS84.shp"},"geometry":{"type":"Point","coordinates":[121.47152735871936,31.24735487090677]}},{"id":"3769","type":"Feature","properties":{"OBJECTID":3770,"NAME":"鹏嘉车业服务有限公司","ADDRESS":"永兴路577-579","TELEPHONE":"021-56626162;021-66281338;18317135856","PROVINCE":"上海市","CITY":"上海市","COUNTY":"静安区","CODE":"310106","LON":121.466988,"LAT":31.251181,"TYPECODE":30000.0,"BASETYPE":"汽车维修","SUBTYPE":"汽车维修","CATEGORY":"汽车维修","__source_file__":"02-POI&AOI/1-POI/其它/15/上海市-汽车维修_WGS84.shp"},"geometry":{"type":"Point","coordinates":[121.46244189561264,31.253096085907433]}},{"id":"3668","type":"Feature","properties":{"OBJECTID":3669,"NAME":"车车翔快修","ADDRESS":"永兴路565临附近","TELEPHONE":null,"PROVINCE":"上海市","CITY":"上海市","COUNTY":"静安区","CODE":"310106","LON":121.46727,"LAT":31.251225,"TYPECODE":30000.0,"BASETYPE":"汽车维修","SUBTYPE":"汽车维修","CATEGORY":"汽车维修","__source_file__":"02-POI&AOI/1-POI/其它/15/上海市-汽车维修_WGS84.shp"},"geometry":{"type":"Point","coordinates":[121.46272475800608,31.253140791406405]}},{"id":"3713","type":"Feature","properties":{"OBJECTID":3714,"NAME":"康林汽车维修服务中心","ADDRESS":"育婴堂路258号附近","TELEPHONE":"021-66282819","PROVINCE":"上海市","CITY":"上海市","COUNTY":"静安区","CODE":"310106","LON":121.46698,"LAT":31.252985,"TYPECODE":30000.0,"BASETYPE":"汽车维修","SUBTYPE":"汽车维修","CATEGORY":"汽车维修","__source_file__":"02-POI&AOI/1-POI/其它/15/上海市-汽车维修_WGS84.shp"},"geometry":{"type":"Point","coordinates":[121.46243371518649,31.254899267926213]}},{"id":"2487","type":"Feature","properties":{"OBJECTID":2488,"NAME":"上海祺鑫抢修点","ADDRESS":"广东路17号附近","TELEPHONE":null,"PROVINCE":"上海市","CITY":"上海市","COUNTY":"黄浦区","CODE":"310101","LON":121.483238,"LAT":31.232759,"TYPECODE":30000.0,"BASETYPE":"汽车维修","SUBTYPE":"汽车维修","CATEGORY":"汽车维修","__source_file__":"02-POI&AOI/1-POI/其它/15/上海市-汽车维修_WGS84.shp"},"geometry":{"type":"Point","coordinates":[121.47874685869151,31.234727009797634]}},{"id":"2326","type":"Feature","properties":{"OBJECTID":2327,"NAME":"车行线汽车","ADDRESS":"九江路619号","TELEPHONE":"15921884562","PROVINCE":"上海市","CITY":"上海市","COUNTY":"黄浦区","CODE":"310101","LON":121.478287,"LAT":31.234249,"TYPECODE":30000.0,"BASETYPE":"汽车维修","SUBTYPE":"汽车维修","CATEGORY":"汽车维修","__source_file__":"02-POI&AOI/1-POI/其它/15/上海市-汽车维修_WGS84.shp"},"geometry":{"type":"Point","coordinates":[121.47377881409366,31.236202196828376]}},{"id":"3257","type":"Feature","properties":{"OBJECTID":3258,"NAME":"振天汽车有限公司","ADDRESS":"西安路137号(近旅顺路)","TELEPHONE":"021-65372071;4006060827;13771996672","PROVINCE":"上海市","CITY":"上海市","COUNTY":"虹口区","CODE":"310109","LON":121.49485,"LAT":31.249699,"TYPECODE":30000.0,"BASETYPE":"汽车维修","SUBTYPE":"汽车维修","CATEGORY":"汽车维修","__source_file__":"02-POI&AOI/1-POI/其它/15/上海市-汽车维修_WGS84.shp"},"geometry":{"type":"Point","coordinates":[121.49039853137518,31.251693640719292]}},{"id":"2778","type":"Feature","properties":{"OBJECTID":2779,"NAME":"君亦汽车维修有限公司","ADDRESS":"西安路81号","TELEPHONE":"021-55098220;13564024999","PROVINCE":"上海市","CITY":"上海市","COUNTY":"虹口区","CODE":"310109","LON":121.493988,"LAT":31.249916,"TYPECODE":30000.0,"BASETYPE":"汽车维修","SUBTYPE":"汽车维修","CATEGORY":"汽车维修","__source_file__":"02-POI&AOI/1-POI/其它/15/上海市-汽车维修_WGS84.shp"},"geometry":{"type":"Point","coordinates":[121.48953341357954,31.25190796327901]}},{"id":"3252","type":"Feature","properties":{"OBJECTID":3253,"NAME":"上海尚中汽车服务有限公司","ADDRESS":"溧阳路305-309","TELEPHONE":"021-63571949","PROVINCE":"上海市","CITY":"上海市","COUNTY":"虹口区","CODE":"310109","LON":121.492989,"LAT":31.249933,"TYPECODE":30100.0,"BASETYPE":"汽车维修","SUBTYPE":"汽车综合维修","CATEGORY":"汽车综合维修","__source_file__":"02-POI&AOI/1-POI/其它/15/上海市-汽车维修_WGS84.shp"},"geometry":{"type":"Point","coordinates":[121.48853082667262,31.251921968871766]}},{"id":"2827","type":"Feature","properties":{"OBJECTID":2828,"NAME":"广鑫修车行","ADDRESS":"吴淞路621号","TELEPHONE":null,"PROVINCE":"上海市","CITY":"上海市","COUNTY":"虹口区","CODE":"310109","LON":121.48658,"LAT":31.254194,"TYPECODE":30000.0,"BASETYPE":"汽车维修","SUBTYPE":"汽车维修","CATEGORY":"汽车维修","__source_file__":"02-POI&AOI/1-POI/其它/15/上海市-汽车维修_WGS84.shp"},"geometry":{"type":"Point","coordinates":[121.48209868847216,31.2561620984227]}},{"id":"2796","type":"Feature","properties":{"OBJECTID":2797,"NAME":"大众汽车虹口特约维修站","ADDRESS":"周家嘴路418号(海伦路周家嘴路)","TELEPHONE":"021-65359881","PROVINCE":"上海市","CITY":"上海市","COUNTY":"虹口区","CODE":"310109","LON":121.497429,"LAT":31.255093,"TYPECODE":30000.0,"BASETYPE":"汽车维修","SUBTYPE":"汽车维修","CATEGORY":"汽车维修","__source_file__":"02-POI&AOI/1-POI/其它/15/上海市-汽车维修_WGS84.shp"},"geometry":{"type":"Point","coordinates":[121.49298636881294,31.25709299829751]}},{"id":"2808","type":"Feature","properties":{"OBJECTID":2809,"NAME":"上海市汽车修理公司","ADDRESS":"梧州路374号","TELEPHONE":null,"PROVINCE":"上海市","CITY":"上海市","COUNTY":"虹口区","CODE":"310109","LON":121.493233,"LAT":31.256832,"TYPECODE":30100.0,"BASETYPE":"汽车维修","SUBTYPE":"汽车综合维修","CATEGORY":"汽车综合维修","__source_file__":"02-POI&AOI/1-POI/其它/15/上海市-汽车维修_WGS84.shp"},"geometry":{"type":"Point","coordinates":[121.4887751136638,31.258818658129602]}},{"id":"41","type":"Feature","properties":{"OBJECTID":42,"NAME":"上海市汽车修理公司柴油汽车修理厂(梧州路)","ADDRESS":"梧州路374号","TELEPHONE":"021-65127149;021-65458212","PROVINCE":"上海市","CITY":"上海市","COUNTY":"虹口区","CODE":"310109","LON":121.49324,"LAT":31.256836,"TYPECODE":30100.0,"BASETYPE":"汽车维修","SUBTYPE":"汽车综合维修","CATEGORY":"汽车综合维修","__source_file__":"02-POI&AOI/1-POI/其它/15/上海市-汽车维修_WGS84.shp"},"geometry":{"type":"Point","coordinates":[121.48878213875736,31.258822677484595]}},{"id":"2783","type":"Feature","properties":{"OBJECTID":2784,"NAME":"长江快修","ADDRESS":"新嘉路17附近","TELEPHONE":null,"PROVINCE":"上海市","CITY":"上海市","COUNTY":"虹口区","CODE":"310109","LON":121.488846,"LAT":31.256851,"TYPECODE":30000.0,"BASETYPE":"汽车维修","SUBTYPE":"汽车维修","CATEGORY":"汽车维修","__source_file__":"02-POI&AOI/1-POI/其它/15/上海市-汽车维修_WGS84.shp"},"geometry":{"type":"Point","coordinates":[121.4843724614856,31.258824605796008]}},{"id":"3241","type":"Feature","properties":{"OBJECTID":3242,"NAME":"龙之梦汽车服务中心(长江快修海伦店)","ADDRESS":"海伦路340号","TELEPHONE":"021-65402707;4006060630","PROVINCE":"上海市","CITY":"上海市","COUNTY":"虹口区","CODE":"310109","LON":121.491264,"LAT":31.257805,"TYPECODE":30100.0,"BASETYPE":"汽车维修","SUBTYPE":"汽车综合维修","CATEGORY":"汽车综合维修","__source_file__":"02-POI&AOI/1-POI/其它/15/上海市-汽车维修_WGS84.shp"},"geometry":{"type":"Point","coordinates":[121.48679898330586,31.25978536100334]}},{"id":"2799","type":"Feature","properties":{"OBJECTID":2800,"NAME":"卡伴汽车服务有限公司(四川北路店)","ADDRESS":"四川北路1661号(近东宝兴路)","TELEPHONE":"15055111615","PROVINCE":"上海市","CITY":"上海市","COUNTY":"虹口区","CODE":"310109","LON":121.482018,"LAT":31.25794,"TYPECODE":30000.0,"BASETYPE":"汽车维修","SUBTYPE":"汽车维修","CATEGORY":"汽车维修","__source_file__":"02-POI&AOI/1-POI/其它/15/上海市-汽车维修_WGS84.shp"},"geometry":{"type":"Point","coordinates":[121.47752048997472,31.259893207449633]}},{"id":"3251","type":"Feature","properties":{"OBJECTID":3252,"NAME":"洪发汽车摩托车维修部","ADDRESS":"岳州路123号","TELEPHONE":"021-65157582","PROVINCE":"上海市","CITY":"上海市","COUNTY":"虹口区","CODE":"310109","LON":121.499001,"LAT":31.258133,"TYPECODE":30000.0,"BASETYPE":"汽车维修","SUBTYPE":"汽车维修","CATEGORY":"汽车维修","__source_file__":"02-POI&AOI/1-POI/其它/15/上海市-汽车维修_WGS84.shp"},"geometry":{"type":"Point","coordinates":[121.4945637892066,31.260136393832017]}},{"id":"3692","type":"Feature","properties":{"OBJECTID":3693,"NAME":"兄弟车行燃气车专修","ADDRESS":"宝山路555号","TELEPHONE":null,"PROVINCE":"上海市","CITY":"上海市","COUNTY":"静安区","CODE":"310106","LON":121.478119,"LAT":31.258736,"TYPECODE":30000.0,"BASETYPE":"汽车维修","SUBTYPE":"汽车维修","CATEGORY":"汽车维修","__source_file__":"02-POI&AOI/1-POI/其它/15/上海市-汽车维修_WGS84.shp"},"geometry":{"type":"Point","coordinates":[121.47360814768227,31.26067777586055]}},{"id":"2806","type":"Feature","properties":{"OBJECTID":2807,"NAME":"苹果手机电脑服务","ADDRESS":"东宝兴路369号丙;东宝兴路3号线轻轨站2号出口","TELEPHONE":null,"PROVINCE":"上海市","CITY":"上海市","COUNTY":"虹口区","CODE":"310109","LON":121.480247,"LAT":31.259251,"TYPECODE":30000.0,"BASETYPE":"汽车维修","SUBTYPE":"汽车维修","CATEGORY":"汽车维修","__source_file__":"02-POI&AOI/1-POI/其它/15/上海市-汽车维修_WGS84.shp"},"geometry":{"type":"Point","coordinates":[121.47574331085698,31.261198571336287]}},{"id":"2781","type":"Feature","properties":{"OBJECTID":2782,"NAME":"车杰汽修","ADDRESS":"宝安支路20附近","TELEPHONE":"13701660653","PROVINCE":"上海市","CITY":"上海市","COUNTY":"虹口区","CODE":"310109","LON":121.489441,"LAT":31.264383,"TYPECODE":30000.0,"BASETYPE":"汽车维修","SUBTYPE":"汽车维修","CATEGORY":"汽车维修","__source_file__":"02-POI&AOI/1-POI/其它/15/上海市-汽车维修_WGS84.shp"},"geometry":{"type":"Point","coordinates":[121.4849689285112,31.26635510106967]}},{"id":"3268","type":"Feature","properties":{"OBJECTID":3269,"NAME":"锦泉汽车服务","ADDRESS":"欧阳路179","TELEPHONE":null,"PROVINCE":"上海市","CITY":"上海市","COUNTY":"虹口区","CODE":"310109","LON":121.488594,"LAT":31.26712,"TYPECODE":30100.0,"BASETYPE":"汽车维修","SUBTYPE":"汽车综合维修","CATEGORY":"汽车综合维修","__source_file__":"02-POI&AOI/1-POI/其它/15/上海市-汽车维修_WGS84.shp"},"geometry":{"type":"Point","coordinates":[121.48411869073689,31.269088423136356]}},{"id":"3665","type":"Feature","properties":{"OBJECTID":3666,"NAME":"平安汽修服务部","ADDRESS":"天通庵路6附近","TELEPHONE":null,"PROVINCE":"上海市","CITY":"上海市","COUNTY":"静安区","CODE":"310106","LON":121.468224,"LAT":31.256647,"TYPECODE":30100.0,"BASETYPE":"汽车维修","SUBTYPE":"汽车综合维修","CATEGORY":"汽车综合维修","__source_file__":"02-POI&AOI/1-POI/其它/15/上海市-汽车维修_WGS84.shp"},"geometry":{"type":"Point","coordinates":[121.46368124079648,31.258562871673416]}},{"id":"3269","type":"Feature","properties":{"OBJECTID":3270,"NAME":"铁宝专业汽车维修","ADDRESS":"中兴路122-124","TELEPHONE":"021-56635882;15000511921","PROVINCE":"上海市","CITY":"上海市","COUNTY":"虹口区","CODE":"310109","LON":121.478088,"LAT":31.260845,"TYPECODE":30100.0,"BASETYPE":"汽车维修","SUBTYPE":"汽车综合维修","CATEGORY":"汽车综合维修","__source_file__":"02-POI&AOI/1-POI/其它/15/上海市-汽车维修_WGS84.shp"},"geometry":{"type":"Point","coordinates":[121.47357686178634,31.26278577292464]}},{"id":"3737","type":"Feature","properties":{"OBJECTID":3738,"NAME":"交运隆嘉汽车销售服务有限公司","ADDRESS":"中山北路558号","TELEPHONE":"021-56988202;021-66288985;4008170138","PROVINCE":"上海市","CITY":"上海市","COUNTY":"静安区","CODE":"310106","LON":121.465294,"LAT":31.261835,"TYPECODE":31902.0,"BASETYPE":"汽车维修","SUBTYPE":"福特特约维修","CATEGORY":"汽车维修","__source_file__":"02-POI&AOI/1-POI/其它/15/上海市-汽车维修_WGS84.shp"},"geometry":{"type":"Point","coordinates":[121.46074182321927,31.263741114462235]}},{"id":"2795","type":"Feature","properties":{"OBJECTID":2796,"NAME":"威擎汽车修理","ADDRESS":"天通庵路647号","TELEPHONE":"18802108860","PROVINCE":"上海市","CITY":"上海市","COUNTY":"虹口区","CODE":"310109","LON":121.476479,"LAT":31.263502,"TYPECODE":30000.0,"BASETYPE":"汽车维修","SUBTYPE":"汽车维修","CATEGORY":"汽车维修","__source_file__":"02-POI&AOI/1-POI/其它/15/上海市-汽车维修_WGS84.shp"},"geometry":{"type":"Point","coordinates":[121.47196225030928,31.265437128244884]}},{"id":"3722","type":"Feature","properties":{"OBJECTID":3723,"NAME":"和诚汽修","ADDRESS":"陈家宅路19号","TELEPHONE":"021-66285219","PROVINCE":"上海市","CITY":"上海市","COUNTY":"静安区","CODE":"310106","LON":121.466797,"LAT":31.265091,"TYPECODE":30100.0,"BASETYPE":"汽车维修","SUBTYPE":"汽车综合维修","CATEGORY":"汽车综合维修","__source_file__":"02-POI&AOI/1-POI/其它/15/上海市-汽车维修_WGS84.shp"},"geometry":{"type":"Point","coordinates":[121.46224910990192,31.266999533109892]}},{"id":"3705","type":"Feature","properties":{"OBJECTID":3706,"NAME":"易家汽车服务有限公司","ADDRESS":"中山北路157号靠西宝兴路旁(中山北路西宝兴路旁)","TELEPHONE":"15960286061","PROVINCE":"上海市","CITY":"上海市","COUNTY":"静安区","CODE":"310106","LON":121.470718,"LAT":31.266041,"TYPECODE":30000.0,"BASETYPE":"汽车维修","SUBTYPE":"汽车维修","CATEGORY":"汽车维修","__source_file__":"02-POI&AOI/1-POI/其它/15/上海市-汽车维修_WGS84.shp"},"geometry":{"type":"Point","coordinates":[121.46618227228693,31.267959362006348]}},{"id":"2842","type":"Feature","properties":{"OBJECTID":2843,"NAME":"上海贝登汽车服务有限公司","ADDRESS":"中山北路123、129-131","TELEPHONE":"021-56620240;021-56310693;13918538233","PROVINCE":"上海市","CITY":"上海市","COUNTY":"虹口区","CODE":"310109","LON":121.471313,"LAT":31.266582,"TYPECODE":30000.0,"BASETYPE":"汽车维修","SUBTYPE":"汽车维修","CATEGORY":"汽车维修","__source_file__":"02-POI&AOI/1-POI/其它/15/上海市-汽车维修_WGS84.shp"},"geometry":{"type":"Point","coordinates":[121.46677912319444,31.268501715961637]}},{"id":"3259","type":"Feature","properties":{"OBJECTID":3260,"NAME":"长江快修","ADDRESS":"东宝兴路958号","TELEPHONE":null,"PROVINCE":"上海市","CITY":"上海市","COUNTY":"虹口区","CODE":"310109","LON":121.473404,"LAT":31.268297,"TYPECODE":30000.0,"BASETYPE":"汽车维修","SUBTYPE":"汽车维修","CATEGORY":"汽车维修","__source_file__":"02-POI&AOI/1-POI/其它/15/上海市-汽车维修_WGS84.shp"},"geometry":{"type":"Point","coordinates":[121.46887671896177,31.270221619653118]}},{"id":"116","type":"Feature","properties":{"OBJECTID":117,"NAME":"汽车修理间","ADDRESS":"西宝兴路833号","TELEPHONE":null,"PROVINCE":"上海市","CITY":"上海市","COUNTY":"虹口区","CODE":"310109","LON":121.469513,"LAT":31.268316,"TYPECODE":30000.0,"BASETYPE":"汽车维修","SUBTYPE":"汽车维修","CATEGORY":"汽车维修","__source_file__":"02-POI&AOI/1-POI/其它/15/上海市-汽车维修_WGS84.shp"},"geometry":{"type":"Point","coordinates":[121.46497326523172,31.270230204466117]}},{"id":"2780","type":"Feature","properties":{"OBJECTID":2781,"NAME":"汽车维修","ADDRESS":"柳营路58附近","TELEPHONE":null,"PROVINCE":"上海市","CITY":"上海市","COUNTY":"虹口区","CODE":"310109","LON":121.469536,"LAT":31.271173,"TYPECODE":30000.0,"BASETYPE":"汽车维修","SUBTYPE":"汽车维修","CATEGORY":"汽车维修","__source_file__":"02-POI&AOI/1-POI/其它/15/上海市-汽车维修_WGS84.shp"},"geometry":{"type":"Point","coordinates":[121.46499609154425,31.273086052901615]}},{"id":"3709","type":"Feature","properties":{"OBJECTID":3710,"NAME":"实田进口汽车修理有限公司维修部","ADDRESS":"北宝兴路120号","TELEPHONE":"021-56380488","PROVINCE":"上海市","CITY":"上海市","COUNTY":"静安区","CODE":"310106","LON":121.466324,"LAT":31.272032,"TYPECODE":30100.0,"BASETYPE":"汽车维修","SUBTYPE":"汽车综合维修","CATEGORY":"汽车综合维修","__source_file__":"02-POI&AOI/1-POI/其它/15/上海市-汽车维修_WGS84.shp"},"geometry":{"type":"Point","coordinates":[121.46177406627747,31.273936370485693]}},{"id":"3265","type":"Feature","properties":{"OBJECTID":3266,"NAME":"尚海汽车服务维修部","ADDRESS":"同心路1035弄-1","TELEPHONE":"021-66270326","PROVINCE":"上海市","CITY":"上海市","COUNTY":"虹口区","CODE":"310109","LON":121.468834,"LAT":31.274099,"TYPECODE":30100.0,"BASETYPE":"汽车维修","SUBTYPE":"汽车综合维修","CATEGORY":"汽车综合维修","__source_file__":"02-POI&AOI/1-POI/其它/15/上海市-汽车维修_WGS84.shp"},"geometry":{"type":"Point","coordinates":[121.46429163779982,31.276008979374815]}},{"id":"3264","type":"Feature","properties":{"OBJECTID":3265,"NAME":"翰达汽车","ADDRESS":"新同心路94号(近株洲路)","TELEPHONE":"021-56625768","PROVINCE":"上海市","CITY":"上海市","COUNTY":"虹口区","CODE":"310109","LON":121.465927,"LAT":31.275806,"TYPECODE":30100.0,"BASETYPE":"汽车维修","SUBTYPE":"汽车综合维修","CATEGORY":"汽车综合维修","__source_file__":"02-POI&AOI/1-POI/其它/15/上海市-汽车维修_WGS84.shp"},"geometry":{"type":"Point","coordinates":[121.46137553241091,31.277707774450892]}},{"id":"2835","type":"Feature","properties":{"OBJECTID":2836,"NAME":"上海尔华杰汽车维修","ADDRESS":"北宝兴路321号","TELEPHONE":"021-66529710;021-56338613","PROVINCE":"上海市","CITY":"上海市","COUNTY":"虹口区","CODE":"310109","LON":121.465927,"LAT":31.276192,"TYPECODE":30100.0,"BASETYPE":"汽车维修","SUBTYPE":"汽车综合维修","CATEGORY":"汽车综合维修","__source_file__":"02-POI&AOI/1-POI/其它/15/上海市-汽车维修_WGS84.shp"},"geometry":{"type":"Point","coordinates":[121.46137549909528,31.278093612895585]}},{"id":"3844","type":"Feature","properties":{"OBJECTID":3845,"NAME":"上海静众汽车销售服务有限公司","ADDRESS":"康定路1155号","TELEPHONE":"021-62301808;021-62309898","PROVINCE":"上海市","CITY":"上海市","COUNTY":"静安区","CODE":"310106","LON":121.434883,"LAT":31.230429,"TYPECODE":30201.0,"BASETYPE":"汽车维修","SUBTYPE":"大众特约维修","CATEGORY":"上海大众维修","__source_file__":"02-POI&AOI/1-POI/其它/15/上海市-汽车维修_WGS84.shp"},"geometry":{"type":"Point","coordinates":[121.43026008156836,31.232287735686437]}},{"id":"137","type":"Feature","properties":{"OBJECTID":138,"NAME":"上海大众汽车静安特约维修有限公司","ADDRESS":"康定路1155号(近万航渡路)","TELEPHONE":"021-62301808","PROVINCE":"上海市","CITY":"上海市","COUNTY":"静安区","CODE":"310106","LON":121.434937,"LAT":31.230515,"TYPECODE":30000.0,"BASETYPE":"汽车维修","SUBTYPE":"汽车维修","CATEGORY":"汽车维修","__source_file__":"02-POI&AOI/1-POI/其它/15/上海市-汽车维修_WGS84.shp"},"geometry":{"type":"Point","coordinates":[121.43031416719795,31.232373773323822]}},{"id":"3840","type":"Feature","properties":{"OBJECTID":3841,"NAME":"瑞丰汽车快修","ADDRESS":"康定路964号","TELEPHONE":"021-62726909","PROVINCE":"上海市","CITY":"上海市","COUNTY":"静安区","CODE":"310106","LON":121.438499,"LAT":31.231197,"TYPECODE":30100.0,"BASETYPE":"汽车维修","SUBTYPE":"汽车综合维修","CATEGORY":"汽车综合维修","__source_file__":"02-POI&AOI/1-POI/其它/15/上海市-汽车维修_WGS84.shp"},"geometry":{"type":"Point","coordinates":[121.43388258304182,31.233060866791803]}},{"id":"3847","type":"Feature","properties":{"OBJECTID":3848,"NAME":"大众汽车俱乐部广盛快修站","ADDRESS":"余姚路461-467号","TELEPHONE":"021-62174188","PROVINCE":"上海市","CITY":"上海市","COUNTY":"静安区","CODE":"310106","LON":121.435211,"LAT":31.233755,"TYPECODE":30100.0,"BASETYPE":"汽车维修","SUBTYPE":"汽车综合维修","CATEGORY":"汽车综合维修","__source_file__":"02-POI&AOI/1-POI/其它/15/上海市-汽车维修_WGS84.shp"},"geometry":{"type":"Point","coordinates":[121.43058836133008,31.235612678592236]}},{"id":"4291","type":"Feature","properties":{"OBJECTID":4292,"NAME":"上海里达汽车技术有限公司","ADDRESS":"长寿路818弄36号","TELEPHONE":"021-62318231;18717898838","PROVINCE":"上海市","CITY":"上海市","COUNTY":"普陀区","CODE":"310107","LON":121.429909,"LAT":31.235853,"TYPECODE":30000.0,"BASETYPE":"汽车维修","SUBTYPE":"汽车维修","CATEGORY":"汽车维修","__source_file__":"02-POI&AOI/1-POI/其它/15/上海市-汽车维修_WGS84.shp"},"geometry":{"type":"Point","coordinates":[121.42527764654116,31.237702599914627]}},{"id":"138","type":"Feature","properties":{"OBJECTID":139,"NAME":"保罗轮胎总汇固特异授权服务中心","ADDRESS":"安远路619号","TELEPHONE":null,"PROVINCE":"上海市","CITY":"上海市","COUNTY":"静安区","CODE":"310106","LON":121.43705,"LAT":31.23601,"TYPECODE":30000.0,"BASETYPE":"汽车维修","SUBTYPE":"汽车维修","CATEGORY":"汽车维修","__source_file__":"02-POI&AOI/1-POI/其它/15/上海市-汽车维修_WGS84.shp"},"geometry":{"type":"Point","coordinates":[121.43243045524487,31.237869393418027]}},{"id":"3845","type":"Feature","properties":{"OBJECTID":3846,"NAME":"公主骏汽车美容维修服务部","ADDRESS":"安远路613-615号","TELEPHONE":"13636344889","PROVINCE":"上海市","CITY":"上海市","COUNTY":"静安区","CODE":"310106","LON":121.437126,"LAT":31.236015,"TYPECODE":30000.0,"BASETYPE":"汽车维修","SUBTYPE":"汽车维修","CATEGORY":"汽车维修","__source_file__":"02-POI&AOI/1-POI/其它/15/上海市-汽车维修_WGS84.shp"},"geometry":{"type":"Point","coordinates":[121.4325065942684,31.237874507019267]}},{"id":"2490","type":"Feature","properties":{"OBJECTID":2491,"NAME":"上海技嘉汽车维修服务有限公司","ADDRESS":"巨鹿路272之1-2","TELEPHONE":"021-62711648","PROVINCE":"上海市","CITY":"上海市","COUNTY":"黄浦区","CODE":"310101","LON":121.461227,"LAT":31.223206,"TYPECODE":30000.0,"BASETYPE":"汽车维修","SUBTYPE":"汽车维修","CATEGORY":"汽车维修","__source_file__":"02-POI&AOI/1-POI/其它/15/上海市-汽车维修_WGS84.shp"},"geometry":{"type":"Point","coordinates":[121.4566661719098,31.225119502240652]}},{"id":"3846","type":"Feature","properties":{"OBJECTID":3847,"NAME":"上海市汽车修理公司大众延中汽车快修站","ADDRESS":"延安中路730号","TELEPHONE":"021-62177403;021-62172430","PROVINCE":"上海市","CITY":"上海市","COUNTY":"静安区","CODE":"310106","LON":121.460037,"LAT":31.22423,"TYPECODE":30000.0,"BASETYPE":"汽车维修","SUBTYPE":"汽车维修","CATEGORY":"汽车维修","__source_file__":"02-POI&AOI/1-POI/其它/15/上海市-汽车维修_WGS84.shp"},"geometry":{"type":"Point","coordinates":[121.45547268666012,31.22614018105826]}},{"id":"3842","type":"Feature","properties":{"OBJECTID":3843,"NAME":"汽车修理(大众延中汽车快修站店)","ADDRESS":"延安中路730号","TELEPHONE":"021-62177403","PROVINCE":"上海市","CITY":"上海市","COUNTY":"静安区","CODE":"310106","LON":121.460037,"LAT":31.22426,"TYPECODE":30000.0,"BASETYPE":"汽车维修","SUBTYPE":"汽车维修","CATEGORY":"汽车维修","__source_file__":"02-POI&AOI/1-POI/其它/15/上海市-汽车维修_WGS84.shp"},"geometry":{"type":"Point","coordinates":[121.45547268407054,31.22617016661329]}},{"id":"3841","type":"Feature","properties":{"OBJECTID":3842,"NAME":"Rojewel御金匠奢侈品快速维修保养中心","ADDRESS":"铜仁路258号九安广场金座8D室(久光城市广场;芮欧百货;嘉里中心;香格里拉酒店;波特曼酒店;恒隆广场)","TELEPHONE":"021-62895588","PROVINCE":"上海市","CITY":"上海市","COUNTY":"静安区","CODE":"310106","LON":121.450233,"LAT":31.226339,"TYPECODE":30000.0,"BASETYPE":"汽车维修","SUBTYPE":"汽车维修","CATEGORY":"汽车维修","__source_file__":"02-POI&AOI/1-POI/其它/15/上海市-汽车维修_WGS84.shp"},"geometry":{"type":"Point","coordinates":[121.44564258639954,31.228226510318095]}},{"id":"3839","type":"Feature","properties":{"OBJECTID":3840,"NAME":"不二汽车(西康店)","ADDRESS":"西康路658弄4号东海苑内(近昌平路)","TELEPHONE":null,"PROVINCE":"上海市","CITY":"上海市","COUNTY":"静安区","CODE":"310106","LON":121.445015,"LAT":31.235952,"TYPECODE":30000.0,"BASETYPE":"汽车维修","SUBTYPE":"汽车维修","CATEGORY":"汽车维修","__source_file__":"02-POI&AOI/1-POI/其它/15/上海市-汽车维修_WGS84.shp"},"geometry":{"type":"Point","coordinates":[121.44041159687347,31.237824907083624]}},{"id":"4375","type":"Feature","properties":{"OBJECTID":4376,"NAME":"上海陆凯汽车维修有限公司","ADDRESS":"澳门路145-2号","TELEPHONE":null,"PROVINCE":"上海市","CITY":"上海市","COUNTY":"普陀区","CODE":"310107","LON":121.445938,"LAT":31.246403,"TYPECODE":30100.0,"BASETYPE":"汽车维修","SUBTYPE":"汽车综合维修","CATEGORY":"汽车综合维修","__source_file__":"02-POI&AOI/1-POI/其它/15/上海市-汽车维修_WGS84.shp"},"geometry":{"type":"Point","coordinates":[121.44133575260832,31.24827290605855]}},{"id":"3723","type":"Feature","properties":{"OBJECTID":3724,"NAME":"人知汽车快修","ADDRESS":"中兴路1142号","TELEPHONE":null,"PROVINCE":"上海市","CITY":"上海市","COUNTY":"静安区","CODE":"310106","LON":121.464279,"LAT":31.251999,"TYPECODE":30000.0,"BASETYPE":"汽车维修","SUBTYPE":"汽车维修","CATEGORY":"汽车维修","__source_file__":"02-POI&AOI/1-POI/其它/15/上海市-汽车维修_WGS84.shp"},"geometry":{"type":"Point","coordinates":[121.45972462829975,31.2539068689666]}},{"id":"3671","type":"Feature","properties":{"OBJECTID":3672,"NAME":"鑫瑞快修","ADDRESS":"沪太路241号","TELEPHONE":"18317128429;13764953353","PROVINCE":"上海市","CITY":"上海市","COUNTY":"静安区","CODE":"310106","LON":121.454201,"LAT":31.254013,"TYPECODE":30100.0,"BASETYPE":"汽车维修","SUBTYPE":"汽车综合维修","CATEGORY":"汽车综合维修","__source_file__":"02-POI&AOI/1-POI/其它/15/上海市-汽车维修_WGS84.shp"},"geometry":{"type":"Point","coordinates":[121.44961821880764,31.25589636368851]}},{"id":"3685","type":"Feature","properties":{"OBJECTID":3686,"NAME":"GOOD YEAR(共和新路店)","ADDRESS":"共和新路752号","TELEPHONE":null,"PROVINCE":"上海市","CITY":"上海市","COUNTY":"静安区","CODE":"310106","LON":121.463257,"LAT":31.256565,"TYPECODE":30000.0,"BASETYPE":"汽车维修","SUBTYPE":"汽车维修","CATEGORY":"汽车维修","__source_file__":"02-POI&AOI/1-POI/其它/15/上海市-汽车维修_WGS84.shp"},"geometry":{"type":"Point","coordinates":[121.4586992040132,31.25846832750558]}},{"id":"4262","type":"Feature","properties":{"OBJECTID":4263,"NAME":"宽途汽车普陀区杰辰","ADDRESS":"东新路70号","TELEPHONE":"021-61550003;021-61470410","PROVINCE":"上海市","CITY":"上海市","COUNTY":"普陀区","CODE":"310107","LON":121.428123,"LAT":31.242373,"TYPECODE":30000.0,"BASETYPE":"汽车维修","SUBTYPE":"汽车维修","CATEGORY":"汽车维修","__source_file__":"02-POI&AOI/1-POI/其它/15/上海市-汽车维修_WGS84.shp"},"geometry":{"type":"Point","coordinates":[121.4234885291612,31.244217514147103]}},{"id":"4346","type":"Feature","properties":{"OBJECTID":4347,"NAME":"老赵修车","ADDRESS":"光复西路199号","TELEPHONE":null,"PROVINCE":"上海市","CITY":"上海市","COUNTY":"普陀区","CODE":"310107","LON":121.430283,"LAT":31.245169,"TYPECODE":30000.0,"BASETYPE":"汽车维修","SUBTYPE":"汽车维修","CATEGORY":"汽车维修","__source_file__":"02-POI&AOI/1-POI/其它/15/上海市-汽车维修_WGS84.shp"},"geometry":{"type":"Point","coordinates":[121.42565139080367,31.247014844433735]}},{"id":"4290","type":"Feature","properties":{"OBJECTID":4291,"NAME":"上海绿益汽车服务","ADDRESS":"凯旋北路236号","TELEPHONE":"13818250875","PROVINCE":"上海市","CITY":"上海市","COUNTY":"普陀区","CODE":"310107","LON":121.427834,"LAT":31.245562,"TYPECODE":30100.0,"BASETYPE":"汽车维修","SUBTYPE":"汽车综合维修","CATEGORY":"汽车综合维修","__source_file__":"02-POI&AOI/1-POI/其它/15/上海市-汽车维修_WGS84.shp"},"geometry":{"type":"Point","coordinates":[121.42319885361066,31.247404750460174]}},{"id":"4086","type":"Feature","properties":{"OBJECTID":4087,"NAME":"小黄汽车修理","ADDRESS":"中山北路1782号","TELEPHONE":"13671794960","PROVINCE":"上海市","CITY":"上海市","COUNTY":"普陀区","CODE":"310107","LON":121.435364,"LAT":31.252235,"TYPECODE":30100.0,"BASETYPE":"汽车维修","SUBTYPE":"汽车综合维修","CATEGORY":"汽车综合维修","__source_file__":"02-POI&AOI/1-POI/其它/15/上海市-汽车维修_WGS84.shp"},"geometry":{"type":"Point","coordinates":[121.43074002149804,31.254084579120157]}},{"id":"4063","type":"Feature","properties":{"OBJECTID":4064,"NAME":"上海强生集团汽车修理有限公司","ADDRESS":"沪太路800号","TELEPHONE":"021-56066575","PROVINCE":"上海市","CITY":"上海市","COUNTY":"普陀区","CODE":"310107","LON":121.442619,"LAT":31.267059,"TYPECODE":30100.0,"BASETYPE":"汽车维修","SUBTYPE":"汽车综合维修","CATEGORY":"汽车综合维修","__source_file__":"02-POI&AOI/1-POI/其它/15/上海市-汽车维修_WGS84.shp"},"geometry":{"type":"Point","coordinates":[121.43800772551022,31.268913828171744]}},{"id":"77","type":"Feature","properties":{"OBJECTID":78,"NAME":"车易修","ADDRESS":"沪太路855附近","TELEPHONE":null,"PROVINCE":"上海市","CITY":"上海市","COUNTY":"静安区","CODE":"310106","LON":121.439423,"LAT":31.268988,"TYPECODE":30000.0,"BASETYPE":"汽车维修","SUBTYPE":"汽车维修","CATEGORY":"汽车维修","__source_file__":"02-POI&AOI/1-POI/其它/15/上海市-汽车维修_WGS84.shp"},"geometry":{"type":"Point","coordinates":[121.43480507932159,31.2708365932438]}},{"id":"3691","type":"Feature","properties":{"OBJECTID":3692,"NAME":"宜修汽车服务有限公司","ADDRESS":"沪太路855号","TELEPHONE":"021-36565988;15800809836","PROVINCE":"上海市","CITY":"上海市","COUNTY":"静安区","CODE":"310106","LON":121.439423,"LAT":31.26899,"TYPECODE":30000.0,"BASETYPE":"汽车维修","SUBTYPE":"汽车维修","CATEGORY":"汽车维修","__source_file__":"02-POI&AOI/1-POI/其它/15/上海市-汽车维修_WGS84.shp"},"geometry":{"type":"Point","coordinates":[121.43480507914765,31.270838592485774]}},{"id":"3675","type":"Feature","properties":{"OBJECTID":3676,"NAME":"永达豪华汽车维修中心(沪太店)","ADDRESS":"沪太路855号","TELEPHONE":null,"PROVINCE":"上海市","CITY":"上海市","COUNTY":"静安区","CODE":"310106","LON":121.439377,"LAT":31.26903,"TYPECODE":30100.0,"BASETYPE":"汽车维修","SUBTYPE":"汽车综合维修","CATEGORY":"汽车综合维修","__source_file__":"02-POI&AOI/1-POI/其它/15/上海市-汽车维修_WGS84.shp"},"geometry":{"type":"Point","coordinates":[121.43475898656659,31.270878500620185]}},{"id":"3303","type":"Feature","properties":{"OBJECTID":3304,"NAME":"大众科技维修部","ADDRESS":"中山北路966号101室","TELEPHONE":null,"PROVINCE":"上海市","CITY":"上海市","COUNTY":"静安区","CODE":"310106","LON":121.452782,"LAT":31.258486,"TYPECODE":30000.0,"BASETYPE":"汽车维修","SUBTYPE":"汽车维修","CATEGORY":"汽车维修","__source_file__":"02-POI&AOI/1-POI/其它/15/上海市-汽车维修_WGS84.shp"},"geometry":{"type":"Point","coordinates":[121.44819516951756,31.260364341909284]}},{"id":"3718","type":"Feature","properties":{"OBJECTID":3719,"NAME":"宽途汽车·华麟汽车服务有限公司","ADDRESS":"普善路576-580号","TELEPHONE":"13671721311","PROVINCE":"上海市","CITY":"上海市","COUNTY":"静安区","CODE":"310106","LON":121.453819,"LAT":31.261148,"TYPECODE":30100.0,"BASETYPE":"汽车维修","SUBTYPE":"汽车综合维修","CATEGORY":"汽车综合维修","__source_file__":"02-POI&AOI/1-POI/其它/15/上海市-汽车维修_WGS84.shp"},"geometry":{"type":"Point","coordinates":[121.44923460738755,31.263027418191168]}},{"id":"3710","type":"Feature","properties":{"OBJECTID":3711,"NAME":"上海中达汽车修理有限公司","ADDRESS":"普善路636号","TELEPHONE":"021-56655545;18930987699","PROVINCE":"上海市","CITY":"上海市","COUNTY":"静安区","CODE":"310106","LON":121.453194,"LAT":31.262205,"TYPECODE":30100.0,"BASETYPE":"汽车维修","SUBTYPE":"汽车综合维修","CATEGORY":"汽车综合维修","__source_file__":"02-POI&AOI/1-POI/其它/15/上海市-汽车维修_WGS84.shp"},"geometry":{"type":"Point","coordinates":[121.44860790229953,31.264082610878837]}},{"id":"3770","type":"Feature","properties":{"OBJECTID":3771,"NAME":"国宁汽车维修","ADDRESS":"陈家宅路139号","TELEPHONE":"021-36031778;13901633728","PROVINCE":"上海市","CITY":"上海市","COUNTY":"静安区","CODE":"310106","LON":121.463837,"LAT":31.264263,"TYPECODE":30000.0,"BASETYPE":"汽车维修","SUBTYPE":"汽车维修","CATEGORY":"汽车维修","__source_file__":"02-POI&AOI/1-POI/其它/15/上海市-汽车维修_WGS84.shp"},"geometry":{"type":"Point","coordinates":[121.45928025446815,31.2661644233962]}},{"id":"3302","type":"Feature","properties":{"OBJECTID":3303,"NAME":"贵台汽车专项维修","ADDRESS":"洛川中路832","TELEPHONE":"13636348515","PROVINCE":"上海市","CITY":"上海市","COUNTY":"静安区","CODE":"310106","LON":121.452591,"LAT":31.265726,"TYPECODE":30000.0,"BASETYPE":"汽车维修","SUBTYPE":"汽车维修","CATEGORY":"汽车维修","__source_file__":"02-POI&AOI/1-POI/其它/15/上海市-汽车维修_WGS84.shp"},"geometry":{"type":"Point","coordinates":[121.44800305575927,31.2676008075141]}},{"id":"4394","type":"Feature","properties":{"OBJECTID":4395,"NAME":"上海强生北美汽车销售服务有限公司","ADDRESS":"沪太路800号","TELEPHONE":"021-66116262;021-56060473","PROVINCE":"上海市","CITY":"上海市","COUNTY":"普陀区","CODE":"310107","LON":121.443329,"LAT":31.266302,"TYPECODE":30503.0,"BASETYPE":"汽车维修","SUBTYPE":"通用特约维修","CATEGORY":"汽车维修","__source_file__":"02-POI&AOI/1-POI/其它/15/上海市-汽车维修_WGS84.shp"},"geometry":{"type":"Point","coordinates":[121.43871929638262,31.26815840857746]}},{"id":"4415","type":"Feature","properties":{"OBJECTID":4416,"NAME":"上海上强高级汽车修理有限公司","ADDRESS":"沪太路800号","TELEPHONE":"021-66100599;021-56058877","PROVINCE":"上海市","CITY":"上海市","COUNTY":"普陀区","CODE":"310107","LON":121.443047,"LAT":31.266527,"TYPECODE":30502.0,"BASETYPE":"汽车维修","SUBTYPE":"通用特约维修","CATEGORY":"别克维修","__source_file__":"02-POI&AOI/1-POI/其它/15/上海市-汽车维修_WGS84.shp"},"geometry":{"type":"Point","coordinates":[121.43843667594948,31.268382810973254]}},{"id":"4271","type":"Feature","properties":{"OBJECTID":4272,"NAME":"别克维修接待处","ADDRESS":"沪太路800号(近新村路)","TELEPHONE":"021-56614692","PROVINCE":"上海市","CITY":"上海市","COUNTY":"普陀区","CODE":"310107","LON":121.443123,"LAT":31.266623,"TYPECODE":30502.0,"BASETYPE":"汽车维修","SUBTYPE":"通用特约维修","CATEGORY":"别克维修","__source_file__":"02-POI&AOI/1-POI/其它/15/上海市-汽车维修_WGS84.shp"},"geometry":{"type":"Point","coordinates":[121.43851282898012,31.26847890480439]}},{"id":"4351","type":"Feature","properties":{"OBJECTID":4352,"NAME":"维修车间","ADDRESS":"沪太路800号","TELEPHONE":null,"PROVINCE":"上海市","CITY":"上海市","COUNTY":"普陀区","CODE":"310107","LON":121.442924,"LAT":31.266779,"TYPECODE":30000.0,"BASETYPE":"汽车维修","SUBTYPE":"汽车维修","CATEGORY":"汽车维修","__source_file__":"02-POI&AOI/1-POI/其它/15/上海市-汽车维修_WGS84.shp"},"geometry":{"type":"Point","coordinates":[121.4383133939324,31.268634485266073]}},{"id":"3732","type":"Feature","properties":{"OBJECTID":3733,"NAME":"锦江汽车修理四厂","ADDRESS":"延长中路765弄5-6","TELEPHONE":"021-56053605","PROVINCE":"上海市","CITY":"上海市","COUNTY":"静安区","CODE":"310106","LON":121.445068,"LAT":31.267246,"TYPECODE":30100.0,"BASETYPE":"汽车维修","SUBTYPE":"汽车综合维修","CATEGORY":"汽车综合维修","__source_file__":"02-POI&AOI/1-POI/其它/15/上海市-汽车维修_WGS84.shp"},"geometry":{"type":"Point","coordinates":[121.44046199879256,31.269105168641214]}},{"id":"3728","type":"Feature","properties":{"OBJECTID":3729,"NAME":"车居佳汽车快修固特异授权旗舰店(万荣路店)","ADDRESS":"万荣路93、103","TELEPHONE":"021-56778432","PROVINCE":"上海市","CITY":"上海市","COUNTY":"静安区","CODE":"310106","LON":121.448982,"LAT":31.270571,"TYPECODE":30100.0,"BASETYPE":"汽车维修","SUBTYPE":"汽车综合维修","CATEGORY":"汽车综合维修","__source_file__":"02-POI&AOI/1-POI/其它/15/上海市-汽车维修_WGS84.shp"},"geometry":{"type":"Point","coordinates":[121.44438472828492,31.27243629429969]}},{"id":"3654","type":"Feature","properties":{"OBJECTID":3655,"NAME":"驰加(万荣路店)","ADDRESS":"万荣路209号(近大宁路)","TELEPHONE":"021-56037145","PROVINCE":"上海市","CITY":"上海市","COUNTY":"静安区","CODE":"310106","LON":121.447998,"LAT":31.27128,"TYPECODE":30000.0,"BASETYPE":"汽车维修","SUBTYPE":"汽车维修","CATEGORY":"汽车维修","__source_file__":"02-POI&AOI/1-POI/其它/15/上海市-汽车维修_WGS84.shp"},"geometry":{"type":"Point","coordinates":[121.44339833494972,31.273143045216727]}},{"id":"3746","type":"Feature","properties":{"OBJECTID":3747,"NAME":"顺城汽车快修美容","ADDRESS":"延长路40号","TELEPHONE":"15026589429","PROVINCE":"上海市","CITY":"上海市","COUNTY":"静安区","CODE":"310106","LON":121.462067,"LAT":31.273869,"TYPECODE":30000.0,"BASETYPE":"汽车维修","SUBTYPE":"汽车维修","CATEGORY":"汽车维修","__source_file__":"02-POI&AOI/1-POI/其它/15/上海市-汽车维修_WGS84.shp"},"geometry":{"type":"Point","coordinates":[121.45750422593699,31.2757619921374]}},{"id":"3297","type":"Feature","properties":{"OBJECTID":3298,"NAME":"上海杰锐汽车修理有限公司","ADDRESS":"平型关路712-718号","TELEPHONE":"021-56330776;13321868198","PROVINCE":"上海市","CITY":"上海市","COUNTY":"静安区","CODE":"310106","LON":121.460251,"LAT":31.275673,"TYPECODE":30100.0,"BASETYPE":"汽车维修","SUBTYPE":"汽车综合维修","CATEGORY":"汽车综合维修","__source_file__":"02-POI&AOI/1-POI/其它/15/上海市-汽车维修_WGS84.shp"},"geometry":{"type":"Point","coordinates":[121.45568284924566,31.277560870348303]}}],"name":"上海市-汽车维修_WGS84","crs":{"type":"name","properties":{"name":"urn:ogc:def:crs:OGC:1.3:CRS84"}}}