{"type":"FeatureCollection","features":[{"id":"169","type":"Feature","properties":{"OBJECTID":170,"NAME":"驿亭四季(上海北外滩店)驿亭四季(上海北外滩店)","ADDRESS":"东大名路713号","TELEPHONE":null,"PROVINCE":"上海市","CITY":"上海市","COUNTY":"虹口区","CODE":"310109","LON":121.501663,"LAT":31.249899,"TYPECODE":180000.0,"BASETYPE":"道路附属设施","SUBTYPE":"道路附属设施","CATEGORY":"道路附属设施","__source_file__":"02-POI&AOI/1-POI/其它/15/上海市-道路附属设施_WGS84.shp"},"geometry":{"type":"Point","coordinates":[121.49723611648639,31.251914022282534]}}],"name":"上海市-道路附属设施_WGS84","crs":{"type":"name","properties":{"name":"urn:ogc:def:crs:OGC:1.3:CRS84"}}}