{
  "type": "FeatureCollection",
  "name": "SITE",
  "features": [
    {
      "type": "Feature",
      "geometry": {
        "type": "Polygon",
        "coordinates": [
          [
            [
              2030.433320689064,
              2719.990659930267
            ],
            [
              1918.516611354699,
              3154.16917084289
            ],
            [
              1908.008042527958,
              3150.306007158172
            ],
            [
              1786.70827039297,
              3112.444313739092
            ],
            [
              1728.840339124489,
              3094.438400398812
            ],
            [
              1679.967762025207,
              3081.347642118633
            ],
            [
              1630.782732006527,
              3075.782887384986
            ],
            [
              1579.447301625926,
              3078.651272537631
            ],
            [
              1333.495192100906,
              3132.862158152282
            ],
            [
              1319.904311398328,
              3130.324530531775
            ],
            [
              1313.096733219023,
              3121.466826742935
            ],
            [
              1259.970546606821,
              2847.565872978769
            ],
            [
              1153.887033100103,
              2891.392884231174
            ],
            [
              908.2090098316465,
              3005.49725322454
            ],
            [
              922.6934453841424,
              2666.911701919116
            ],
            [
              924.8384389017184,
              2657.618343138403
            ],
            [
              933.3048603033466,
              2646.186002528737
            ],
            [
              1058.70040458001,
              2598.003660764133
            ],
            [
              1269.428867090916,
              2518.521873720151
            ],
            [
              1336.659046605449,
              2494.047682457301
            ],
            [
              1400.514451115333,
              2475.653746621116
            ],
            [
              1475.9161025105,
              2458.799845903864
            ],
            [
              1567.675298712958,
              2445.548157940239
            ],
            [
              1622.322908582411,
              2445.548157940243
            ],
            [
              1647.952140734897,
              2451.246402492116
            ],
            [
              1697.728556318974,
              2469.887000331243
            ],
            [
              1736.262594849125,
              2494.53292016746
            ],
            [
              2030.433320689064,
              2719.990659930267
            ]
          ]
        ]
      },
      "properties": {
        "layer": "SITE",
        "dxftype": "POLYLINE",
        "handle": "60",
        "color": 256
      }
    }
  ]
}